{
  "generatedAt": "2026-02-03T17:59:00.133Z",
  "stations": [
    {
      "icao": "EDDS",
      "iata": "STR",
      "name": "Stuttgart Airport",
      "lat": 48.689899,
      "lon": 9.22196,
      "updatedAt": "031750Z",
      "visibility_m": 10000,
      "taf_visibility_m": 700,
      "worst_visibility_m": 700,
      "ceiling_ft": 100,
      "hazards": [
        "FZFG",
        "FG"
      ],
      "severityScore": 100,
      "metarRaw": "METAR EDDS 031750Z AUTO VRB02KT CAVOK 05/03 Q1001 NOSIG",
      "tafRaw": "TAF EDDS 031700Z 0318/0418 VRB02KT CAVOK \n  PROB40 \n  TEMPO 0403/0409 0700 FZFG BKN001 \n  BECMG 0409/0412 06007KT",
      "minima": {
        "best": {
          "cig_ft": 0,
          "vis_m": 75
        },
        "alt": {
          "cig_ft": 100,
          "vis_m": 300
        },
        "wind": {
          "threshold_kt": 29,
          "use_gust": false,
          "apply": true
        },
        "approach_category": null
      }
    },
    {
      "icao": "EDFH",
      "iata": "HHN",
      "name": "Frankfurt-Hahn Airport",
      "lat": 49.946353,
      "lon": 7.261734,
      "updatedAt": "031750Z",
      "visibility_m": 1000,
      "taf_visibility_m": 200,
      "worst_visibility_m": 200,
      "ceiling_ft": 100,
      "hazards": [
        "BR",
        "FZFG",
        "FG",
        "FZRA",
        "RA"
      ],
      "severityScore": 100,
      "metarRaw": "METAR EDFH 031750Z 14016KT 1000 R21/1300D BR VV/// M00/M01 Q0998",
      "tafRaw": "TAF EDFH 031700Z 0318/0418 14015KT 4000 BR SCT005 OVC015 \n  PROB30 \n  TEMPO 0318/0320 0200 -FZRA FZFG VV001 \n  TEMPO 0320/0413 15015G25KT 0300 FG OVC001 \n  BECMG 0414/0417 9999 SCT003 BKN007",
      "minima": {
        "best": {
          "cig_ft": 0,
          "vis_m": 75
        },
        "alt": {
          "cig_ft": 100,
          "vis_m": 300
        },
        "wind": {
          "threshold_kt": 29,
          "use_gust": false,
          "apply": true
        },
        "approach_category": null
      }
    },
    {
      "icao": "EDSB",
      "iata": "FKB",
      "name": "Karlsruhe Baden-Baden Airport",
      "lat": 48.7794,
      "lon": 8.0805,
      "updatedAt": "031750Z",
      "visibility_m": 2000,
      "taf_visibility_m": 300,
      "worst_visibility_m": 300,
      "ceiling_ft": 100,
      "hazards": [
        "BR",
        "FG"
      ],
      "severityScore": 100,
      "metarRaw": "METAR EDSB 031750Z VRB01KT 2000 R21/0650D BR FEW006 SCT044 01/01 Q1001",
      "tafRaw": "TAF EDSB 031700Z 0318/0418 VRB03KT 6000 SCT013 BKN020 \n  TEMPO 0318/0321 2500 BR BKN003 \n  TEMPO 0321/0412 0300 FG BKN001 \n  BECMG 0412/0415 02009KT",
      "minima": {
        "best": {
          "cig_ft": 0,
          "vis_m": 75
        },
        "alt": {
          "cig_ft": 100,
          "vis_m": 300
        },
        "wind": {
          "threshold_kt": 29,
          "use_gust": false,
          "apply": true
        },
        "approach_category": null
      }
    },
    {
      "icao": "EGBB",
      "iata": "BHX",
      "name": "Birmingham Airport",
      "lat": 52.453899,
      "lon": -1.74803,
      "updatedAt": "031750Z",
      "visibility_m": 4000,
      "taf_visibility_m": 300,
      "worst_visibility_m": 300,
      "ceiling_ft": 600,
      "hazards": [
        "BR",
        "FG",
        "SN",
        "RA",
        "DZ"
      ],
      "severityScore": 100,
      "metarRaw": "METAR EGBB 031750Z 08008KT 4000 BR OVC006 02/01 Q0994",
      "tafRaw": "TAF EGBB 031656Z 0318/0418 08009KT 7000 BKN008 \n  TEMPO 0318/0404 4000 RADZ BR BKN004 \n  PROB40 \n  TEMPO 0318/0324 1200 RASN BKN001 \n  TEMPO 0404/0411 3000 BR BKN004 \n  PROB30 \n  TEMPO 0404/0410 0300 FG BKN001 \n  BECMG 0411/0414 9999 FEW020",
      "minima": {
        "best": {
          "cig_ft": 0,
          "vis_m": 75
        },
        "alt": {
          "cig_ft": 100,
          "vis_m": 300
        },
        "wind": {
          "threshold_kt": 29,
          "use_gust": false,
          "apply": true
        },
        "approach_category": null
      }
    },
    {
      "icao": "EGGW",
      "iata": "LTN",
      "name": "London Luton Airport",
      "lat": 51.874699,
      "lon": -0.368333,
      "updatedAt": "031750Z",
      "visibility_m": 3000,
      "taf_visibility_m": 300,
      "worst_visibility_m": 300,
      "ceiling_ft": 0,
      "hazards": [
        "RA",
        "FG",
        "BR",
        "DZ"
      ],
      "severityScore": 100,
      "metarRaw": "METAR EGGW 031750Z AUTO 04006KT 3000 -RA BKN003/// //////TCU 01/01 Q0992",
      "tafRaw": "TAF EGGW 031700Z 0318/0418 10004KT 5000 -RADZ BKN005 \n  TEMPO 0318/0401 2000 RADZ BR BKN002 \n  PROB30 \n  TEMPO 0318/0324 +DZ \n  PROB30 \n  TEMPO 0319/0322 0300 FG BKN000 \n  TEMPO 0322/0410 0300 DZ FG BKN000 \n  BECMG 0401/0404 2000 BR BKN002 \n  BECMG 0410/0413 9999 NSW FEW015 \n  PROB40 \n  TEMPO 0416/0418 BKN007 \n  PROB30 \n  TEMPO 0417/0418 09015G25KT",
      "minima": {
        "best": {
          "cig_ft": 0,
          "vis_m": 75
        },
        "alt": {
          "cig_ft": 100,
          "vis_m": 300
        },
        "wind": {
          "threshold_kt": 29,
          "use_gust": false,
          "apply": true
        },
        "approach_category": null
      }
    },
    {
      "icao": "EGKK",
      "iata": "LGW",
      "name": "London Gatwick Airport",
      "lat": 51.148771,
      "lon": -0.192089,
      "updatedAt": "031750Z",
      "visibility_m": 9000,
      "taf_visibility_m": 300,
      "worst_visibility_m": 300,
      "ceiling_ft": 600,
      "hazards": [
        "RA",
        "FG",
        "BR",
        "DZ"
      ],
      "severityScore": 100,
      "metarRaw": "METAR EGKK 031750Z 04004KT 010V080 9000 -RA BKN006 BKN034 04/04 Q0993",
      "tafRaw": "TAF EGKK 031655Z 0318/0424 VRB04KT 9999 BKN010 \n  TEMPO 0318/0322 6000 -RADZ BKN005 \n  PROB40 \n  TEMPO 0318/0322 4000 BR BKN003 \n  BECMG 0319/0322 SCT010 \n  TEMPO 0322/0410 3000 BR BKN003 \n  PROB40 \n  TEMPO 0400/0410 0300 FG BKN001 \n  BECMG 0408/0411 10010KT \n  PROB30 \n  TEMPO 0410/0412 4000 BR BKN006",
      "minima": {
        "best": {
          "cig_ft": 0,
          "vis_m": 75
        },
        "alt": {
          "cig_ft": 100,
          "vis_m": 300
        },
        "wind": {
          "threshold_kt": 29,
          "use_gust": false,
          "apply": true
        },
        "approach_category": null
      }
    },
    {
      "icao": "EGNM",
      "iata": "LBA",
      "name": "Leeds Bradford Airport",
      "lat": 53.865898,
      "lon": -1.66057,
      "updatedAt": "031750Z",
      "visibility_m": 3500,
      "taf_visibility_m": 200,
      "worst_visibility_m": 200,
      "ceiling_ft": 500,
      "hazards": [
        "BR",
        "FZFG",
        "FG",
        "SN",
        "RA",
        "DZ"
      ],
      "severityScore": 100,
      "metarRaw": "METAR EGNM 031750Z 07006KT 030V100 3500 BR SCT003 BKN005 00/M00 Q0995",
      "tafRaw": "TAF EGNM 031659Z 0318/0418 08008KT 6000 SCT005 BKN008 \n  TEMPO 0318/0321 3000 RASN BKN003 \n  PROB30 \n  TEMPO 0318/0321 1200 SN BKN001 \n  BECMG 0321/0324 2000 BR BKN003 \n  TEMPO 0321/0409 RA -RADZ \n  PROB40 \n  TEMPO 0321/0406 0200 -RASN FZFG BKN001 \n  PROB30 \n  TEMPO 0406/0409 0200 FG BKN001 \n  PROB30 \n  TEMPO 0409/0415 5000 -DZ BKN005 \n  PROB30 \n  TEMPO 0415/0418 0200 FG BKN001",
      "minima": {
        "best": {
          "cig_ft": 0,
          "vis_m": 75
        },
        "alt": {
          "cig_ft": 100,
          "vis_m": 300
        },
        "wind": {
          "threshold_kt": 29,
          "use_gust": false,
          "apply": true
        },
        "approach_category": null
      }
    },
    {
      "icao": "EPKK",
      "iata": "KRK",
      "name": "Kraków John Paul II International Airport",
      "lat": 50.077702,
      "lon": 19.7848,
      "updatedAt": "031730Z",
      "visibility_m": 10000,
      "taf_visibility_m": 800,
      "worst_visibility_m": 800,
      "ceiling_ft": 5400,
      "hazards": [
        "SN",
        "BR",
        "FZRA",
        "RA"
      ],
      "severityScore": 100,
      "metarRaw": "METAR EPKK 031730Z 06009KT 9999 -SN OVC054 M05/M09 Q1011",
      "tafRaw": "TAF EPKK 031730Z 0318/0418 06012KT 9999 OVC048 \n  BECMG 0319/0322 4000 -SN BR OVC012 \n  PROB30 \n  TEMPO 0321/0324 0800 SN OVC004 \n  TEMPO 0322/0405 2500 -FZRA -SNRA BR OVC005 \n  PROB30 \n  TEMPO 0405/0408 VRB02KT 1500 BR BKN003 \n  TEMPO 0408/0415 9999 BKN030 \n  BECMG 0415/0418 2000 BR",
      "minima": {
        "best": {
          "cig_ft": 230,
          "vis_m": 550
        },
        "alt": {
          "cig_ft": 350,
          "vis_m": 900
        },
        "wind": {
          "threshold_kt": 29,
          "use_gust": false,
          "apply": true
        },
        "approach_category": null
      }
    },
    {
      "icao": "EPKT",
      "iata": "KTW",
      "name": "Katowice Wojciech Korfanty International Airport",
      "lat": 50.476015,
      "lon": 19.080705,
      "updatedAt": "031730Z",
      "visibility_m": 10000,
      "taf_visibility_m": 800,
      "worst_visibility_m": 800,
      "ceiling_ft": 4000,
      "hazards": [
        "BR",
        "FZRA",
        "SN",
        "FZDZ",
        "RA",
        "DZ"
      ],
      "severityScore": 100,
      "metarRaw": "METAR EPKT 031730Z 07009KT 9999 BKN040 M06/M09 Q1010",
      "tafRaw": "TAF EPKT 031730Z 0318/0418 08010KT 9999 BKN040 \n  BECMG 0319/0321 4000 -SN BR OVC009 \n  TEMPO 0321/0324 0800 SN BKN003 \n  PROB40 \n  TEMPO 0322/0324 2500 -FZRA -SNRA BR \n  TEMPO 0400/0406 1400 -FZDZ BR OVC001 \n  BECMG 0406/0409 9999 BKN030 \n  BECMG 0415/0418 2000 BR",
      "minima": {
        "best": {
          "cig_ft": 109,
          "vis_m": 300
        },
        "alt": {
          "cig_ft": 220,
          "vis_m": 550
        },
        "wind": {
          "threshold_kt": 29,
          "use_gust": false,
          "apply": true
        },
        "approach_category": null
      }
    },
    {
      "icao": "EPLB",
      "iata": "LUZ",
      "name": "Lublin Airport",
      "lat": 51.240157,
      "lon": 22.713461,
      "updatedAt": "031730Z",
      "visibility_m": 10000,
      "taf_visibility_m": 1500,
      "worst_visibility_m": 1500,
      "ceiling_ft": 2000,
      "hazards": [
        "SN",
        "BLSN",
        "FZDZ",
        "RA",
        "DZ"
      ],
      "severityScore": 100,
      "metarRaw": "METAR EPLB 031730Z 08010KT 9999 SCT015 BKN020 OVC023 M08/M15 Q1017",
      "tafRaw": "TAF EPLB 031730Z 0318/0418 09010KT 9999 BKN022 \n  TEMPO 0318/0324 BKN014 \n  BECMG 0400/0402 4000 -SN BKN007 \n  TEMPO 0401/0406 09015G25KT 1500 SN BLSN BKN004 \n  BECMG 0406/0409 9999 \n  TEMPO 0406/0418 DRSN BKN004 \n  PROB40 \n  TEMPO 0416/0418 -FZDZRA",
      "minima": {
        "best": {
          "cig_ft": 100,
          "vis_m": 300
        },
        "alt": {
          "cig_ft": 250,
          "vis_m": 800
        },
        "wind": {
          "threshold_kt": 29,
          "use_gust": false,
          "apply": true
        },
        "approach_category": null
      }
    },
    {
      "icao": "EPPO",
      "iata": "POZ",
      "name": "Poznań-Ławica Airport",
      "lat": 52.421598,
      "lon": 16.823359,
      "updatedAt": "031730Z",
      "visibility_m": 10000,
      "taf_visibility_m": 2000,
      "worst_visibility_m": 2000,
      "ceiling_ft": 300,
      "hazards": [
        "BR",
        "SN",
        "FZDZ",
        "DZ"
      ],
      "severityScore": 100,
      "metarRaw": "METAR EPPO 031730Z 09016KT CAVOK M08/M17 Q1014",
      "tafRaw": "TAF EPPO 031730Z 0318/0418 09014KT CAVOK \n  BECMG 0321/0324 BKN009 \n  TEMPO 0400/0411 2000 SN BR BKN003 \n  TEMPO 0411/0418 2000 FZDZ OVC003",
      "minima": {
        "best": {
          "cig_ft": 126,
          "vis_m": 400
        },
        "alt": {
          "cig_ft": 220,
          "vis_m": 800
        },
        "wind": {
          "threshold_kt": 29,
          "use_gust": false,
          "apply": true
        },
        "approach_category": null
      }
    },
    {
      "icao": "EPRZ",
      "iata": "RZE",
      "name": "Rzeszów-Jasionka Airport",
      "lat": 50.109791,
      "lon": 22.024155,
      "updatedAt": "031730Z",
      "visibility_m": 10000,
      "taf_visibility_m": 1500,
      "worst_visibility_m": 1500,
      "ceiling_ft": 4000,
      "hazards": [
        "BR",
        "FZRA",
        "SN",
        "FZDZ",
        "RA",
        "DZ"
      ],
      "severityScore": 100,
      "metarRaw": "METAR EPRZ 031730Z 09015KT 9999 FEW033 BKN040 M06/M09 Q1015",
      "tafRaw": "TAF EPRZ 031730Z 0318/0418 10010KT 9999 SCT032 \n  BECMG 0320/0323 4000 -SN BR OVC009 \n  TEMPO 0321/0403 1500 SN BR OVC004 \n  PROB40 \n  TEMPO 0403/0406 -FZRA \n  TEMPO 0406/0409 -FZDZ BKN003 \n  PROB30 \n  TEMPO 0409/0418 -FZDZ BKN003 \n  BECMG 0412/0415 2000 BR BKN004",
      "minima": {
        "best": {
          "cig_ft": 112,
          "vis_m": 300
        },
        "alt": {
          "cig_ft": 200,
          "vis_m": 550
        },
        "wind": {
          "threshold_kt": 29,
          "use_gust": false,
          "apply": true
        },
        "approach_category": null
      }
    },
    {
      "icao": "EYKA",
      "iata": "KUN",
      "name": "Kaunas International Airport",
      "lat": 54.963965,
      "lon": 24.08582,
      "updatedAt": "031750Z",
      "visibility_m": 10000,
      "taf_visibility_m": 600,
      "worst_visibility_m": 600,
      "ceiling_ft": 200,
      "hazards": [
        "FZFG",
        "BR",
        "FG"
      ],
      "severityScore": 100,
      "metarRaw": "METAR EYKA 031750Z 06003KT CAVOK M15/M17 Q1025",
      "tafRaw": "TAF EYKA 031712Z 0318/0418 VRB04KT 5000 BR SCT005 \n  TEMPO 0321/0402 1500 SCT002 \n  TEMPO 0402/0407 0600 FZFG VV002 \n  BECMG 0408/0410 9000 NSW NSC",
      "minima": {
        "best": {
          "cig_ft": 178,
          "vis_m": 450
        },
        "alt": {
          "cig_ft": 260,
          "vis_m": 600
        },
        "wind": {
          "threshold_kt": 29,
          "use_gust": false,
          "apply": true
        },
        "approach_category": null
      }
    },
    {
      "icao": "EYVI",
      "iata": "VNO",
      "name": "Vilnius International Airport",
      "lat": 54.634102,
      "lon": 25.285801,
      "updatedAt": "031750Z",
      "visibility_m": 9000,
      "taf_visibility_m": 600,
      "worst_visibility_m": 600,
      "ceiling_ft": 200,
      "hazards": [
        "FZFG",
        "BR",
        "FG"
      ],
      "severityScore": 100,
      "metarRaw": "METAR EYVI 031750Z 08003KT 050V120 9000 NSC M13/M16 Q1023 NOSIG",
      "tafRaw": "TAF EYVI 031711Z 0318/0418 VRB04KT 5000 BR SCT005 \n  TEMPO 0321/0401 1500 SCT002 \n  TEMPO 0401/0407 0600 FZFG VV002 \n  BECMG 0408/0410 10012KT 9000 NSW NSC",
      "minima": {
        "best": {
          "cig_ft": 152,
          "vis_m": 450
        },
        "alt": {
          "cig_ft": 250,
          "vis_m": 550
        },
        "wind": {
          "threshold_kt": 29,
          "use_gust": false,
          "apply": true
        },
        "approach_category": null
      }
    },
    {
      "icao": "LBPD",
      "iata": "PDV",
      "name": "Plovdiv International Airport",
      "lat": 42.067799,
      "lon": 24.8508,
      "updatedAt": "031730Z",
      "visibility_m": 10000,
      "taf_visibility_m": 600,
      "worst_visibility_m": 600,
      "ceiling_ft": 300,
      "hazards": [
        "FZFG",
        "BR",
        "FG"
      ],
      "severityScore": 100,
      "metarRaw": "METAR LBPD 031730Z AUTO 00000KT 9999 SCT016/// OVC018/// M00/M01 Q1022 NOSIG",
      "tafRaw": "TAF LBPD 031700Z 0318/0418 VRB03KT 9999 OVC015 \n  BECMG 0318/0320 4000 BR OVC010 \n  BECMG 0322/0324 1500 BR OVC007 \n  PROB30 \n  TEMPO 0402/0407 0600 FZFG BKN003 \n  BECMG 0407/0409 3000 BR BKN007 \n  BECMG 0409/0411 8000 NSW BKN012",
      "minima": {
        "best": {
          "cig_ft": 200,
          "vis_m": 550
        },
        "alt": {
          "cig_ft": 260,
          "vis_m": 800
        },
        "wind": {
          "threshold_kt": 29,
          "use_gust": false,
          "apply": true
        },
        "approach_category": null
      }
    },
    {
      "icao": "LBSF",
      "iata": "SOF",
      "name": "Sofia Airport",
      "lat": 42.696357,
      "lon": 23.417671,
      "updatedAt": "031730Z",
      "visibility_m": 10000,
      "taf_visibility_m": 800,
      "worst_visibility_m": 800,
      "ceiling_ft": 300,
      "hazards": [
        "FZFG",
        "BR",
        "FG"
      ],
      "severityScore": 100,
      "metarRaw": "METAR LBSF 031730Z AUTO 11010KT 9999 NSC M01/M02 Q1018 NOSIG",
      "tafRaw": "TAF LBSF 031700Z 0318/0418 10010KT 9999 SCT050 \n  TEMPO 0319/0323 4000 BR \n  BECMG 0400/0402 VRB04KT \n  TEMPO 0401/0407 3000 BR SCT010 BKN020 \n  PROB30 0403/0406 0800 FZFG BKN003 \n  BECMG 0406/0408 10010KT",
      "minima": {
        "best": {
          "cig_ft": 0,
          "vis_m": 75
        },
        "alt": {
          "cig_ft": 100,
          "vis_m": 300
        },
        "wind": {
          "threshold_kt": 29,
          "use_gust": false,
          "apply": true
        },
        "approach_category": null
      }
    },
    {
      "icao": "LFOB",
      "iata": "BVA",
      "name": "Beauvais Tillé airport",
      "lat": 49.454399,
      "lon": 2.11278,
      "updatedAt": "031730Z",
      "visibility_m": 4000,
      "taf_visibility_m": 800,
      "worst_visibility_m": 800,
      "ceiling_ft": 900,
      "hazards": [
        "SHRA",
        "RA",
        "FG",
        "BR"
      ],
      "severityScore": 100,
      "metarRaw": "METAR LFOB 031730Z AUTO 19010KT 9999 FEW033/// BKN043/// BKN052/// ///TCU 09/07 Q0995 TEMPO 4000 SHRA BKN009 BKN014TCU",
      "tafRaw": "TAF LFOB 031700Z 0318/0418 21010KT 9999 SCT020 \n  PROB40 \n  TEMPO 0318/0321 4000 SHRA BKN009 BKN014TCU \n  PROB40 \n  TEMPO 0401/0409 2000 BR OVC002 \n  PROB30 0401/0409 0800 FG VV/// \n  BECMG 0402/0406 12006KT",
      "minima": {
        "best": {
          "cig_ft": 0,
          "vis_m": 75
        },
        "alt": {
          "cig_ft": 200,
          "vis_m": 550
        },
        "wind": {
          "threshold_kt": 29,
          "use_gust": false,
          "apply": true
        },
        "approach_category": null
      }
    },
    {
      "icao": "LIMC",
      "iata": "MXP",
      "name": "Milan Malpensa International Airport",
      "lat": 45.6306,
      "lon": 8.72811,
      "updatedAt": "031750Z",
      "visibility_m": 2000,
      "taf_visibility_m": 600,
      "worst_visibility_m": 600,
      "ceiling_ft": 300,
      "hazards": [
        "BR",
        "FG",
        "RA"
      ],
      "severityScore": 100,
      "metarRaw": "METAR LIMC 031750Z 23004KT 200V270 2000 BR BKN003 04/04 Q1008 NOSIG",
      "tafRaw": "TAF LIMC 031700Z 0318/0424 VRB05KT 3000 BR BKN003 \n  BECMG 0318/0321 1200 BCFG \n  TEMPO 0322/0407 0600 FG \n  BECMG 0406/0408 4000 RA BKN006 \n  BECMG 0419/0421 6000 NSW \n  TEMPO 0421/0424 4000 -RA",
      "minima": {
        "best": {
          "cig_ft": 0,
          "vis_m": 75
        },
        "alt": {
          "cig_ft": 100,
          "vis_m": 300
        },
        "wind": {
          "threshold_kt": 29,
          "use_gust": false,
          "apply": true
        },
        "approach_category": null
      }
    },
    {
      "icao": "LKPR",
      "iata": "PRG",
      "name": "Václav Havel Airport Prague",
      "lat": 50.100874,
      "lon": 14.259911,
      "updatedAt": "031730Z",
      "visibility_m": 3000,
      "taf_visibility_m": 1200,
      "worst_visibility_m": 1200,
      "ceiling_ft": 500,
      "hazards": [
        "BR",
        "SN",
        "FZRA",
        "RA"
      ],
      "severityScore": 100,
      "metarRaw": "METAR LKPR 031730Z 12007KT 9999 OVC012 M01/M02 Q1005 BECMG 3000 -SN BR OVC005",
      "tafRaw": "TAF LKPR 031700Z 0318/0424 11008KT 9999 OVC011 \n  TEMPO 0318/0321 4000 -SN BR OVC007 \n  PROB30 \n  TEMPO 0318/0319 1200 SN OVC005 \n  TEMPO 0321/0324 OVC007 \n  BECMG 0400/0402 6000 OVC007 \n  TEMPO 0402/0411 4000 BR OVC004 \n  PROB30 \n  TEMPO 0402/0408 2000 BR OVC002 \n  TEMPO 0416/0424 2000 -FZRA BR OVC002",
      "minima": {
        "best": {
          "cig_ft": 0,
          "vis_m": 75
        },
        "alt": {
          "cig_ft": 100,
          "vis_m": 300
        },
        "wind": {
          "threshold_kt": 29,
          "use_gust": false,
          "apply": true
        },
        "approach_category": null
      }
    },
    {
      "icao": "UAAA",
      "iata": "ALA",
      "name": "Almaty International Airport",
      "lat": 43.354267,
      "lon": 77.042828,
      "updatedAt": "031730Z",
      "visibility_m": 2200,
      "taf_visibility_m": 1100,
      "worst_visibility_m": 1100,
      "ceiling_ft": 10000,
      "hazards": [
        "BR",
        "FZRA",
        "SN",
        "SHRA",
        "RA"
      ],
      "severityScore": 99,
      "metarRaw": "METAR UAAA 031730Z 20002MPS 2200 BR FU SCT050CB BKN100 03/01 Q1021 NOSIG",
      "tafRaw": "TAF UAAA 031702Z 0318/0418 26003MPS 3100 -SHRA BR FU BKN011CB OVC050 TX06/0409Z TNM02/0402Z \n  TEMPO 0318/0321 21003MPS 1100 -FZRA -SN BR BKN005 OVC011 \n  TEMPO 0321/0403 21003MPS 1100 SHSNRA BR BKN005 OVC011CB \n  TEMPO 0403/0406 02003G08MPS 1300 FEW006 SCT011CB \n  FM040600 04003G08MPS 6000 SCT020CB BKN100 \n  FM041200 16003MPS 3100 BR FU SCT011 BKN050",
      "minima": {
        "best": {
          "cig_ft": 0,
          "vis_m": 75
        },
        "alt": {
          "cig_ft": 110,
          "vis_m": 300
        },
        "wind": {
          "threshold_kt": 29,
          "use_gust": false,
          "apply": true
        },
        "approach_category": null
      }
    },
    {
      "icao": "LIPZ",
      "iata": "VCE",
      "name": "Venice Marco Polo Airport",
      "lat": 45.505299,
      "lon": 12.3519,
      "updatedAt": "031750Z",
      "visibility_m": 10000,
      "taf_visibility_m": 800,
      "worst_visibility_m": 800,
      "ceiling_ft": 800,
      "hazards": [
        "FG",
        "BR",
        "RA"
      ],
      "severityScore": 92,
      "metarRaw": "METAR LIPZ 031750Z 33003KT 240V030 9999 BKN008 08/08 Q1007 NOSIG",
      "tafRaw": "TAF LIPZ 031700Z 0318/0424 VRB05KT 8000 FEW020 \n  BECMG 0318/0320 4000 BR \n  TEMPO 0400/0408 0800 FG \n  BECMG 0406/0408 RA BKN004 BKN010 \n  BECMG 0408/0410 04012KT",
      "minima": {
        "best": {
          "cig_ft": 0,
          "vis_m": 75
        },
        "alt": {
          "cig_ft": 100,
          "vis_m": 300
        },
        "wind": {
          "threshold_kt": 29,
          "use_gust": false,
          "apply": true
        },
        "approach_category": null
      }
    },
    {
      "icao": "LHBP",
      "iata": "BUD",
      "name": "Budapest Liszt Ferenc International Airport",
      "lat": 47.43018,
      "lon": 19.262393,
      "updatedAt": "031730Z",
      "visibility_m": 6000,
      "taf_visibility_m": 4000,
      "worst_visibility_m": 4000,
      "ceiling_ft": 4800,
      "hazards": [
        "FZRA",
        "PL",
        "SN",
        "RA",
        "BR"
      ],
      "severityScore": 90,
      "metarRaw": "METAR LHBP 031730Z 09009KT 6000 -FZRA -SN SCT008 OVC048 00/M01 Q1012 TEMPO -PL -FZRA",
      "tafRaw": "TAF LHBP 031715Z 0318/0418 10010KT 5000 PL FZRA BKN007 OVC020 \n  BECMG 0318/0322 8000 -RA SCT008 OVC035 \n  TEMPO 0322/0418 4000 RA BR BKN004 OVC020",
      "minima": {
        "best": {
          "cig_ft": 0,
          "vis_m": 75
        },
        "alt": {
          "cig_ft": 107,
          "vis_m": 300
        },
        "wind": {
          "threshold_kt": 29,
          "use_gust": false,
          "apply": true
        },
        "approach_category": null
      }
    },
    {
      "icao": "EDJA",
      "iata": "FMM",
      "name": "Memmingen Allgau Airport",
      "lat": 47.988092,
      "lon": 10.238248,
      "updatedAt": "031750Z",
      "visibility_m": 10000,
      "taf_visibility_m": 800,
      "worst_visibility_m": 800,
      "ceiling_ft": null,
      "hazards": [
        "FZFG",
        "BR",
        "FG"
      ],
      "severityScore": 85,
      "metarRaw": "METAR EDJA 031750Z 19004KT CAVOK 02/01 Q1002",
      "tafRaw": "TAF EDJA 031700Z 0318/0403 22006KT CAVOK \n  BECMG 0318/0320 16004KT \n  TEMPO 0322/0403 2000 BR \n  PROB30 \n  TEMPO 0400/0403 0800 FZFG",
      "minima": {
        "best": {
          "cig_ft": 200,
          "vis_m": 550
        },
        "alt": {
          "cig_ft": 270,
          "vis_m": 600
        },
        "wind": {
          "threshold_kt": 29,
          "use_gust": false,
          "apply": true
        },
        "approach_category": null
      }
    },
    {
      "icao": "EPMO",
      "iata": "WMI",
      "name": "Modlin Airport",
      "lat": 52.451099,
      "lon": 20.6518,
      "updatedAt": "031730Z",
      "visibility_m": 10000,
      "taf_visibility_m": 1500,
      "worst_visibility_m": 1500,
      "ceiling_ft": 400,
      "hazards": [
        "SN",
        "BLSN"
      ],
      "severityScore": 85,
      "metarRaw": "METAR EPMO 031730Z 07012KT CAVOK M12/M16 Q1018",
      "tafRaw": "TAF EPMO 031730Z 0318/0418 09009KT 9999 BKN027 \n  PROB40 \n  TEMPO 0318/0402 BKN014 \n  BECMG 0402/0404 4000 -SN BKN007 \n  TEMPO 0403/0409 09015G25KT 1500 SN BLSN BKN005 \n  BECMG 0406/0409 9999 \n  TEMPO 0409/0418 4000 -SN DRSN BKN004",
      "minima": null
    },
    {
      "icao": "LZIB",
      "iata": "BTS",
      "name": "M. R. Štefánik Airport",
      "lat": 48.1702,
      "lon": 17.2127,
      "updatedAt": "031730Z",
      "visibility_m": 10000,
      "taf_visibility_m": 2000,
      "worst_visibility_m": 2000,
      "ceiling_ft": 900,
      "hazards": [
        "BR",
        "RA",
        "FZDZ",
        "DZ"
      ],
      "severityScore": 85,
      "metarRaw": "METAR LZIB 031730Z 08011KT 9999 SCT007 OVC009 01/M01 Q1008 NOSIG",
      "tafRaw": "TAF LZIB 031715Z 0318/0418 08010KT 9999 BKN007 OVC016 \n  TEMPO 0318/0407 2500 -FZDZ BR BKN004 OVC007 \n  TEMPO 0407/0418 4000 -RA BKN005 OVC011 \n  PROB30 \n  TEMPO 0409/0414 2000 RA",
      "minima": {
        "best": {
          "cig_ft": 0,
          "vis_m": 200
        },
        "alt": {
          "cig_ft": 103,
          "vis_m": 300
        },
        "wind": {
          "threshold_kt": 29,
          "use_gust": false,
          "apply": true
        },
        "approach_category": null
      }
    },
    {
      "icao": "LZKZ",
      "iata": "KSC",
      "name": "Košice International Airport",
      "lat": 48.663101,
      "lon": 21.2411,
      "updatedAt": "031730Z",
      "visibility_m": 2500,
      "taf_visibility_m": 1500,
      "worst_visibility_m": 1500,
      "ceiling_ft": 2200,
      "hazards": [
        "BR",
        "SN",
        "FZRA",
        "RA"
      ],
      "severityScore": 85,
      "metarRaw": "METAR LZKZ 031730Z 36004KT 3200 -SN BR FEW004 OVC022 M01/M02 Q1014 TEMPO 2500 SN",
      "tafRaw": "TAF LZKZ 031715Z 0318/0418 VRB02KT 4000 -SN BR SCT004 BKN016 OVC025 \n  TEMPO 0318/0400 1500 SN BR BKN004 OVC012 \n  BECMG 0400/0402 6000 -RA OVC013 \n  PROB40 \n  TEMPO 0400/0407 -FZRA",
      "minima": {
        "best": {
          "cig_ft": 102,
          "vis_m": 350
        },
        "alt": {
          "cig_ft": 200,
          "vis_m": 550
        },
        "wind": {
          "threshold_kt": 29,
          "use_gust": false,
          "apply": true
        },
        "approach_category": null
      }
    },
    {
      "icao": "UDYZ",
      "iata": "EVN",
      "name": "Zvartnots International Airport",
      "lat": 40.148941,
      "lon": 44.397887,
      "updatedAt": "031730Z",
      "visibility_m": 3500,
      "taf_visibility_m": 600,
      "worst_visibility_m": 600,
      "ceiling_ft": 3000,
      "hazards": [
        "BR",
        "FG",
        "SHRA",
        "RA"
      ],
      "severityScore": 81,
      "metarRaw": "METAR UDYZ 031730Z 33002KT 3500 BR BKN040CB 03/03 Q1010 NOSIG",
      "tafRaw": "TAF UDYZ 031700Z 0318/0418 VRB06KT 1500 BR BKN030 \n  TEMPO 0318/0324 0600 SHRA FG SCT004 BKN015CB",
      "minima": {
        "best": {
          "cig_ft": 100,
          "vis_m": 300
        },
        "alt": {
          "cig_ft": 200,
          "vis_m": 550
        },
        "wind": {
          "threshold_kt": 29,
          "use_gust": false,
          "apply": true
        },
        "approach_category": null
      }
    },
    {
      "icao": "EHEH",
      "iata": "EIN",
      "name": "Eindhoven Airport",
      "lat": 51.4500999451,
      "lon": 5.37452983856,
      "updatedAt": null,
      "visibility_m": null,
      "taf_visibility_m": 1200,
      "worst_visibility_m": 1200,
      "ceiling_ft": 800,
      "hazards": [
        "BR",
        "RA",
        "FG"
      ],
      "severityScore": 77,
      "metarRaw": null,
      "tafRaw": "TAF EHEH 031151Z 0312/0418 07012KT 8000 BR BKN045 \n  TEMPO 0312/0313 3000 RA \n  BECMG 0314/0317 SCT012 BKN015 \n  TEMPO 0317/0323 3000 RA BKN008 OVC012 \n  BECMG 0319/0321 19008KT \n  BECMG 0323/0401 4000 BR NSC \n  TEMPO 0401/0403 1200 BCFG SCT008 BKN012 \n  BECMG 0408/0410 6000 BR \n  BECMG 0410/0412 09006KT",
      "minima": {
        "best": {
          "cig_ft": 200,
          "vis_m": 550
        },
        "alt": {
          "cig_ft": 260,
          "vis_m": 600
        },
        "wind": {
          "threshold_kt": 29,
          "use_gust": false,
          "apply": true
        },
        "approach_category": null
      }
    },
    {
      "icao": "LFBD",
      "iata": "BOD",
      "name": "Bordeaux–Mérignac Airport",
      "lat": 44.82865,
      "lon": -0.715356,
      "updatedAt": "031730Z",
      "visibility_m": 10000,
      "taf_visibility_m": 2000,
      "worst_visibility_m": 2000,
      "ceiling_ft": null,
      "hazards": [
        "TSRA",
        "SHRA",
        "TS",
        "RA"
      ],
      "severityScore": 76,
      "metarRaw": "METAR LFBD 031730Z AUTO 19003KT CAVOK 10/05 Q0997 NOSIG",
      "tafRaw": "TAF LFBD 031700Z 0318/0424 22005KT CAVOK TX12/0417Z TN06/0406Z \n  TEMPO 0400/0403 -SHRA BKN060TCU \n  TEMPO 0407/0419 3000 SHRA BKN030TCU \n  PROB30 \n  TEMPO 0412/0419 -TSRA SCT030CB \n  BECMG 0413/0415 22010KT \n  BECMG 0417/0419 16005KT \n  TEMPO 0419/0422 2000 SHRA BKN030TCU",
      "minima": {
        "best": {
          "cig_ft": 0,
          "vis_m": 75
        },
        "alt": {
          "cig_ft": 100,
          "vis_m": 300
        },
        "wind": {
          "threshold_kt": 29,
          "use_gust": false,
          "apply": true
        },
        "approach_category": null
      }
    },
    {
      "icao": "LFMN",
      "iata": "NCE",
      "name": "Nice-Côte d'Azur Airport",
      "lat": 43.658401,
      "lon": 7.21587,
      "updatedAt": "031730Z",
      "visibility_m": 10000,
      "taf_visibility_m": 2000,
      "worst_visibility_m": 2000,
      "ceiling_ft": 2600,
      "hazards": [
        "TSRA",
        "SHRA",
        "TS",
        "RA"
      ],
      "severityScore": 76,
      "metarRaw": "METAR LFMN 031730Z 07013KT 9999 BKN018TCU BKN026 12/08 Q1005 NOSIG",
      "tafRaw": "TAF LFMN 031400Z 0315/0421 10012KT 9999 BKN024 \n  TEMPO 0317/0401 2500 SHRA BKN015TCU \n  PROB40 \n  TEMPO 0318/0401 2000 TSRA BKN020CB \n  BECMG 0321/0324 36008KT \n  PROB30 \n  TEMPO 0413/0421 SHRA BKN090TCU",
      "minima": {
        "best": {
          "cig_ft": 200,
          "vis_m": 1200
        },
        "alt": {
          "cig_ft": 290,
          "vis_m": 1400
        },
        "wind": {
          "threshold_kt": 29,
          "use_gust": false,
          "apply": true
        },
        "approach_category": null
      }
    },
    {
      "icao": "LICA",
      "iata": "SUF",
      "name": "Lamezia Terme Sant'Eufemia International Airport",
      "lat": 38.906214,
      "lon": 16.246007,
      "updatedAt": "031750Z",
      "visibility_m": 10000,
      "taf_visibility_m": 10000,
      "worst_visibility_m": 10000,
      "ceiling_ft": null,
      "hazards": [
        "TSRA",
        "SHRA",
        "TS",
        "RA"
      ],
      "severityScore": 76,
      "metarRaw": "METAR LICA 031750Z AUTO 06010KT 9999 NCD 15/12 Q1011",
      "tafRaw": "TAF LICA 031700Z 0318/0418 07015KT 9999 SCT025 \n  BECMG 0319/0321 07020G30KT \n  TEMPO 0409/0412 SHRA \n  BECMG 0412/0414 25018KT \n  TEMPO 0412/0418 TSRA",
      "minima": {
        "best": {
          "cig_ft": 210,
          "vis_m": 550
        },
        "alt": {
          "cig_ft": 340,
          "vis_m": 800
        },
        "wind": {
          "threshold_kt": 29,
          "use_gust": false,
          "apply": true
        },
        "approach_category": null
      }
    },
    {
      "icao": "LIRF",
      "iata": "FCO",
      "name": "Rome–Fiumicino Leonardo da Vinci International Airport",
      "lat": 41.804532,
      "lon": 12.251998,
      "updatedAt": "031750Z",
      "visibility_m": 8000,
      "taf_visibility_m": 4000,
      "worst_visibility_m": 4000,
      "ceiling_ft": 5000,
      "hazards": [
        "RA",
        "SHRA",
        "TSRA",
        "TS"
      ],
      "severityScore": 76,
      "metarRaw": "METAR LIRF 031750Z 18012KT 8000 -RA FEW020TCU BKN050 14/12 Q1006 TEMPO SHRA",
      "tafRaw": "TAF LIRF 031700Z 0318/0424 15015KT 9999 SCT030 \n  TEMPO 0318/0410 4000 SHRA \n  BECMG 0404/0406 14018G30KT \n  TEMPO 0410/0418 TSRA \n  BECMG 0414/0416 26016KT \n  TEMPO 0418/0424 SHRA",
      "minima": {
        "best": {
          "cig_ft": 0,
          "vis_m": 75
        },
        "alt": {
          "cig_ft": 100,
          "vis_m": 300
        },
        "wind": {
          "threshold_kt": 29,
          "use_gust": false,
          "apply": true
        },
        "approach_category": null
      }
    },
    {
      "icao": "LIRN",
      "iata": "NAP",
      "name": "Naples International Airport",
      "lat": 40.886002,
      "lon": 14.2908,
      "updatedAt": "031750Z",
      "visibility_m": 10000,
      "taf_visibility_m": 4000,
      "worst_visibility_m": 4000,
      "ceiling_ft": 8000,
      "hazards": [
        "TSRA",
        "SHRA",
        "TS",
        "RA"
      ],
      "severityScore": 76,
      "metarRaw": "METAR LIRN 031750Z 19010KT 160V220 9999 FEW030 BKN080 15/10 Q1009 NOSIG",
      "tafRaw": "TAF LIRN 031700Z 0318/0418 17015KT 9999 SCT030 \n  TEMPO 0406/0410 SHRA \n  TEMPO 0412/0418 4000 TSRA",
      "minima": {
        "best": {
          "cig_ft": 320,
          "vis_m": 1000
        },
        "alt": {
          "cig_ft": 470,
          "vis_m": 1800
        },
        "wind": {
          "threshold_kt": 29,
          "use_gust": false,
          "apply": true
        },
        "approach_category": null
      }
    },
    {
      "icao": "EDNY",
      "iata": "FDH",
      "name": "Bodensee Airport Friedrichshafen",
      "lat": 47.671299,
      "lon": 9.51149,
      "updatedAt": "031750Z",
      "visibility_m": 10000,
      "taf_visibility_m": 800,
      "worst_visibility_m": 800,
      "ceiling_ft": null,
      "hazards": [
        "FZFG",
        "FG"
      ],
      "severityScore": 75,
      "metarRaw": "METAR EDNY 031750Z 06003KT 020V090 CAVOK 02/01 Q1002",
      "tafRaw": "TAF EDNY 031700Z 0318/0403 04004KT CAVOK \n  TEMPO 0320/0403 3000 BCFG \n  PROB30 \n  TEMPO 0322/0403 0800 FZFG",
      "minima": {
        "best": {
          "cig_ft": 0,
          "vis_m": 75
        },
        "alt": {
          "cig_ft": 100,
          "vis_m": 300
        },
        "wind": {
          "threshold_kt": 29,
          "use_gust": false,
          "apply": true
        },
        "approach_category": null
      }
    },
    {
      "icao": "LKMT",
      "iata": "OSR",
      "name": "Leoš Janáček Airport Ostrava",
      "lat": 49.696301,
      "lon": 18.111099,
      "updatedAt": "031730Z",
      "visibility_m": 7000,
      "taf_visibility_m": 4000,
      "worst_visibility_m": 4000,
      "ceiling_ft": 2500,
      "hazards": [
        "SN",
        "BR",
        "FZRA",
        "RA"
      ],
      "severityScore": 75,
      "metarRaw": "METAR LKMT 031730Z 02004KT 7000 -SN OVC025 M04/M07 Q1009 NOSIG",
      "tafRaw": "TAF LKMT 031700Z 0318/0418 02006KT 8000 OVC030 \n  TEMPO 0318/0323 4000 -SN BR OVC016 \n  PROB30 \n  TEMPO 0318/0323 -FZRA OVC014 \n  BECMG 0323/0401 22008KT \n  BECMG 0409/0411 02004KT OVC018 \n  TEMPO 0415/0418 4000 -RASN BR OVC014",
      "minima": null
    },
    {
      "icao": "LTAC",
      "iata": "ESB",
      "name": "Esenboğa International Airport",
      "lat": 40.128101,
      "lon": 32.995098,
      "updatedAt": "031750Z",
      "visibility_m": 10000,
      "taf_visibility_m": 1000,
      "worst_visibility_m": 1000,
      "ceiling_ft": 200,
      "hazards": [
        "BR",
        "FG"
      ],
      "severityScore": 75,
      "metarRaw": "METAR LTAC 031750Z 32004KT 9999 SCT035 01/M04 Q1019 NOSIG",
      "tafRaw": "TAF LTAC 031640Z 0318/0418 VRB02KT 9999 SCT040 \n  BECMG 0318/0320 CAVOK \n  BECMG 0400/0403 4000 BR \n  PROB30 \n  TEMPO 0403/0407 1000 BCFG BKN002 \n  BECMG 0407/0409 9999 NSW SCT040 SCT100",
      "minima": {
        "best": {
          "cig_ft": 0,
          "vis_m": 75
        },
        "alt": {
          "cig_ft": 100,
          "vis_m": 300
        },
        "wind": {
          "threshold_kt": 29,
          "use_gust": false,
          "apply": true
        },
        "approach_category": null
      }
    },
    {
      "icao": "LUKK",
      "iata": "RMO",
      "name": "Chişinău International Airport",
      "lat": 46.9277,
      "lon": 28.931,
      "updatedAt": "031730Z",
      "visibility_m": 10000,
      "taf_visibility_m": 1500,
      "worst_visibility_m": 1500,
      "ceiling_ft": 500,
      "hazards": [
        "BR",
        "SN",
        "RA"
      ],
      "severityScore": 75,
      "metarRaw": "METAR LUKK 031730Z 12007KT CAVOK M07/M11 Q1023 NOSIG",
      "tafRaw": "TAF LUKK 031708Z 0318/0418 13008KT CAVOK \n  BECMG 0406/0408 12014KT OVC012 \n  TEMPO 0409/0415 1500 SN BR BKN006 \n  TEMPO 0415/0418 1500 SNRA BR BKN005",
      "minima": {
        "best": {
          "cig_ft": 0,
          "vis_m": 75
        },
        "alt": {
          "cig_ft": 100,
          "vis_m": 300
        },
        "wind": {
          "threshold_kt": 29,
          "use_gust": false,
          "apply": true
        },
        "approach_category": null
      }
    },
    {
      "icao": "UBBB",
      "iata": "GYD",
      "name": "Heydar Aliyev International Airport",
      "lat": 40.467498779296875,
      "lon": 50.04669952392578,
      "updatedAt": "031730Z",
      "visibility_m": 10000,
      "taf_visibility_m": 4000,
      "worst_visibility_m": 4000,
      "ceiling_ft": 500,
      "hazards": [
        "SHRA",
        "SN",
        "RA"
      ],
      "severityScore": 69,
      "metarRaw": "METAR UBBB 031730Z 34018KT 9999 SCT011 07/05 Q1010 NOSIG",
      "tafRaw": "TAF UBBB 031658Z 0318/0418 33022G32KT 9999 SCT010 SCT030 TX03/0406Z TN04/0409Z \n  TEMPO 0318/0324 34026G36KT 6000 SCT006 BKN030 \n  BECMG 0400/0402 34034G44KT FEW030CB \n  TEMPO 0400/0409 34040G50KT 5000 -SHRA BKN006 SCT025CB BKN025 \n  TEMPO 0409/0418 4000 -SHRASN BKN005 SCT020CB BKN020",
      "minima": {
        "best": {
          "cig_ft": 0,
          "vis_m": 175
        },
        "alt": {
          "cig_ft": 100,
          "vis_m": 300
        },
        "wind": {
          "threshold_kt": 29,
          "use_gust": false,
          "apply": true
        },
        "approach_category": null
      }
    },
    {
      "icao": "LIME",
      "iata": "BGY",
      "name": "Milan Bergamo Airport / Antonio Locatelli Air Base",
      "lat": 45.670725,
      "lon": 9.709223,
      "updatedAt": "031750Z",
      "visibility_m": 10000,
      "taf_visibility_m": 700,
      "worst_visibility_m": 700,
      "ceiling_ft": 2000,
      "hazards": [
        "FG",
        "BR",
        "RA"
      ],
      "severityScore": 67,
      "metarRaw": "METAR LIME 031750Z 27003KT 9999 SCT005 BKN020 05/05 Q1007 NOSIG",
      "tafRaw": "TAF LIME 031700Z 0318/0418 VRB05KT 6000 SCT006 BKN020 \n  BECMG 0318/0320 3000 BR \n  TEMPO 0322/0406 0700 FG OVC003 \n  BECMG 0406/0409 RA BKN007",
      "minima": {
        "best": {
          "cig_ft": 0,
          "vis_m": 75
        },
        "alt": {
          "cig_ft": 111,
          "vis_m": 300
        },
        "wind": {
          "threshold_kt": 29,
          "use_gust": false,
          "apply": true
        },
        "approach_category": null
      }
    },
    {
      "icao": "LIPX",
      "iata": "VRN",
      "name": "Verona Villafranca Valerio Catullo Airport",
      "lat": 45.394955,
      "lon": 10.887303,
      "updatedAt": "031750Z",
      "visibility_m": 8000,
      "taf_visibility_m": 800,
      "worst_visibility_m": 800,
      "ceiling_ft": 2000,
      "hazards": [
        "FG",
        "BR",
        "RA"
      ],
      "severityScore": 67,
      "metarRaw": "METAR LIPX 031750Z 26005KT 8000 BKN020 06/05 Q1007",
      "tafRaw": "TAF LIPX 031700Z 0318/0418 VRB05KT 6000 BKN006 \n  BECMG 0318/0320 3000 BR \n  TEMPO 0400/0406 0800 FG OVC003 \n  BECMG 0404/0407 RA",
      "minima": {
        "best": {
          "cig_ft": 0,
          "vis_m": 75
        },
        "alt": {
          "cig_ft": 133,
          "vis_m": 400
        },
        "wind": {
          "threshold_kt": 29,
          "use_gust": false,
          "apply": true
        },
        "approach_category": null
      }
    },
    {
      "icao": "LPFR",
      "iata": "FAO",
      "name": "Faro - Gago Coutinho International Airport",
      "lat": 37.015909,
      "lon": -7.970939,
      "updatedAt": "031730Z",
      "visibility_m": 10000,
      "taf_visibility_m": 2000,
      "worst_visibility_m": 2000,
      "ceiling_ft": 400,
      "hazards": [
        "RA",
        "BR",
        "DZ"
      ],
      "severityScore": 67,
      "metarRaw": "METAR LPFR 031730Z 26011KT 9999 -RA FEW012 13/11 Q1005",
      "tafRaw": "TAF LPFR 031700Z 0318/0418 25015KT 9999 FEW015 SCT030 \n  BECMG 0318/0320 24020KT 6000 -RA SCT008 BKN015 \n  TEMPO 0320/0418 25025G38KT 2000 DZRA BR SCT002 BKN004 \n  PROB30 \n  TEMPO 0322/0406 25030G45KT",
      "minima": {
        "best": {
          "cig_ft": 100,
          "vis_m": 300
        },
        "alt": {
          "cig_ft": 200,
          "vis_m": 750
        },
        "wind": {
          "threshold_kt": 29,
          "use_gust": false,
          "apply": true
        },
        "approach_category": null
      }
    },
    {
      "icao": "ENTC",
      "iata": "TOS",
      "name": "Tromsø Airport, Langnes",
      "lat": 69.683296,
      "lon": 18.9189,
      "updatedAt": "031750Z",
      "visibility_m": 10000,
      "taf_visibility_m": 1200,
      "worst_visibility_m": 1200,
      "ceiling_ft": 800,
      "hazards": [
        "SN",
        "RA"
      ],
      "severityScore": 65,
      "metarRaw": "METAR ENTC 031750Z 18014KT 9999 SCT029 M00/M05 Q1022 NOSIG RMK WIND 2600FT 26010KT",
      "tafRaw": "TAF ENTC 031700Z 0318/0418 19012KT 9999 SCT015 BKN030 \n  PROB40 \n  TEMPO 0322/0409 4000 -SHSNRA VV012 \n  TEMPO 0322/0418 SCT020TCU \n  TEMPO 0409/0418 1200 SHSNRA VV008",
      "minima": {
        "best": {
          "cig_ft": 300,
          "vis_m": 650
        },
        "alt": {
          "cig_ft": 310,
          "vis_m": 700
        },
        "wind": {
          "threshold_kt": 29,
          "use_gust": false,
          "apply": true
        },
        "approach_category": null
      }
    },
    {
      "icao": "LZTT",
      "iata": "TAT",
      "name": "Poprad-Tatry Airport",
      "lat": 49.073601,
      "lon": 20.2411,
      "updatedAt": "031730Z",
      "visibility_m": 1400,
      "taf_visibility_m": 1000,
      "worst_visibility_m": 1000,
      "ceiling_ft": 900,
      "hazards": [
        "SN",
        "RA"
      ],
      "severityScore": 65,
      "metarRaw": "METAR LZTT 031730Z VRB03KT 4500 -SN FEW010 SCT019 OVC049 M04/M05 Q1010 TEMPO 1400 SN BKN009 OVC016",
      "tafRaw": "TAF LZTT 031715Z 0318/0418 VRB02KT 4000 -SN SCT010 OVC020 \n  TEMPO 0318/0401 1500 SN BKN006 OVC012 \n  PROB30 \n  TEMPO 0318/0321 1000 SN \n  BECMG 0401/0403 7000 OVC015 \n  TEMPO 0410/0418 2800 SNRA OVC009",
      "minima": {
        "best": {
          "cig_ft": 200,
          "vis_m": 650
        },
        "alt": {
          "cig_ft": 330,
          "vis_m": 800
        },
        "wind": {
          "threshold_kt": 29,
          "use_gust": false,
          "apply": true
        },
        "approach_category": null
      }
    },
    {
      "icao": "OJAI",
      "iata": "AMM",
      "name": "Queen Alia International Airport",
      "lat": 31.7226009369,
      "lon": 35.9931983948,
      "updatedAt": "031700Z",
      "visibility_m": 4000,
      "taf_visibility_m": 500,
      "worst_visibility_m": 500,
      "ceiling_ft": null,
      "hazards": [
        "BR",
        "FG"
      ],
      "severityScore": 65,
      "metarRaw": "METAR OJAI 031700Z 27009KT 4000 BR SCT020 SCT025 10/08 Q1020 NOSIG",
      "tafRaw": "TAF OJAI 031645Z 0318/0424 26014KT 4000 BR SCT035 \n  PROB40 0400/0408 0500 FG \n  BECMG 0408/0410 29012KT 5000 HZ FEW030",
      "minima": {
        "best": {
          "cig_ft": 119,
          "vis_m": 300
        },
        "alt": {
          "cig_ft": 200,
          "vis_m": 550
        },
        "wind": {
          "threshold_kt": 29,
          "use_gust": false,
          "apply": true
        },
        "approach_category": null
      }
    },
    {
      "icao": "EPGD",
      "iata": "GDN",
      "name": "Gdańsk Lech Wałęsa Airport",
      "lat": 54.377602,
      "lon": 18.4662,
      "updatedAt": "031730Z",
      "visibility_m": 10000,
      "taf_visibility_m": 2500,
      "worst_visibility_m": 2500,
      "ceiling_ft": 300,
      "hazards": [
        "BR",
        "SN"
      ],
      "severityScore": 63,
      "metarRaw": "METAR EPGD 031730Z 09009KT CAVOK M11/M17 Q1019",
      "tafRaw": "TAF EPGD 031730Z 0318/0418 11008KT CAVOK \n  BECMG 0407/0410 -SN OVC010 \n  TEMPO 0410/0418 2500 -SN DRSN BR BKN003 BKN006",
      "minima": {
        "best": {
          "cig_ft": 0,
          "vis_m": 75
        },
        "alt": {
          "cig_ft": 100,
          "vis_m": 300
        },
        "wind": {
          "threshold_kt": 29,
          "use_gust": false,
          "apply": true
        },
        "approach_category": null
      }
    },
    {
      "icao": "EGGP",
      "iata": "LPL",
      "name": "Liverpool John Lennon Airport",
      "lat": 53.334863,
      "lon": -2.849637,
      "updatedAt": "031750Z",
      "visibility_m": 10000,
      "taf_visibility_m": 3000,
      "worst_visibility_m": 3000,
      "ceiling_ft": 1200,
      "hazards": [
        "RA",
        "BR",
        "SN",
        "DZ"
      ],
      "severityScore": 62,
      "metarRaw": "METAR EGGP 031750Z 11010KT 9999 -RA OVC012 02/M01 Q0994",
      "tafRaw": "TAF EGGP 031702Z 0318/0418 10008KT 9999 BKN016 \n  TEMPO 0318/0407 6000 RA -RADZ BKN009 \n  PROB30 \n  TEMPO 0318/0324 3000 -RASN BKN005 \n  PROB30 \n  TEMPO 0400/0407 4000 RADZ BKN005 \n  TEMPO 0407/0412 7000 BKN010 \n  PROB40 \n  TEMPO 0407/0411 4000 BR BKN006 \n  PROB30 \n  TEMPO 0412/0415 BKN012",
      "minima": {
        "best": {
          "cig_ft": 0,
          "vis_m": 75
        },
        "alt": {
          "cig_ft": 100,
          "vis_m": 300
        },
        "wind": {
          "threshold_kt": 29,
          "use_gust": false,
          "apply": true
        },
        "approach_category": null
      }
    },
    {
      "icao": "EPWA",
      "iata": "WAW",
      "name": "Warsaw Chopin Airport",
      "lat": 52.165699,
      "lon": 20.9671,
      "updatedAt": "031730Z",
      "visibility_m": 10000,
      "taf_visibility_m": 1500,
      "worst_visibility_m": 1500,
      "ceiling_ft": 1400,
      "hazards": [
        "SN",
        "BLSN"
      ],
      "severityScore": 62,
      "metarRaw": "METAR EPWA 031730Z 08010KT CAVOK M11/M16 Q1018 TEMPO BKN014",
      "tafRaw": "TAF EPWA 031730Z 0318/0418 09010KT 9999 BKN027 \n  PROB40 \n  TEMPO 0318/0401 BKN014 \n  BECMG 0401/0403 4000 -SN BKN010 \n  TEMPO 0402/0409 09015G25KT 1500 SN BLSN BKN005 \n  BECMG 0406/0409 9999 \n  TEMPO 0409/0415 4000 -SN DRSN BKN005",
      "minima": {
        "best": {
          "cig_ft": 0,
          "vis_m": 175
        },
        "alt": {
          "cig_ft": 101,
          "vis_m": 300
        },
        "wind": {
          "threshold_kt": 29,
          "use_gust": false,
          "apply": true
        },
        "approach_category": null
      }
    },
    {
      "icao": "LICC",
      "iata": "CTA",
      "name": "Catania-Fontanarossa Airport",
      "lat": 37.466801,
      "lon": 15.0664,
      "updatedAt": "031750Z",
      "visibility_m": 10000,
      "taf_visibility_m": 10000,
      "worst_visibility_m": 10000,
      "ceiling_ft": null,
      "hazards": [
        "TSRA",
        "TS",
        "RA"
      ],
      "severityScore": 62,
      "metarRaw": "METAR LICC 031750Z VRB01KT CAVOK 14/11 Q1012",
      "tafRaw": "TAF LICC 031700Z 0318/0418 VRB05KT 9999 FEW030 \n  BECMG 0402/0404 05012KT \n  BECMG 0409/0411 24015G25KT \n  TEMPO 0409/0413 TSRA",
      "minima": {
        "best": {
          "cig_ft": 250,
          "vis_m": 1000
        },
        "alt": {
          "cig_ft": 450,
          "vis_m": 1900
        },
        "wind": {
          "threshold_kt": 29,
          "use_gust": false,
          "apply": true
        },
        "approach_category": null
      }
    },
    {
      "icao": "LICJ",
      "iata": "PMO",
      "name": "Falcone–Borsellino Airport",
      "lat": 38.175999,
      "lon": 13.091,
      "updatedAt": "031750Z",
      "visibility_m": 10000,
      "taf_visibility_m": 10000,
      "worst_visibility_m": 10000,
      "ceiling_ft": null,
      "hazards": [
        "TSRA",
        "TS",
        "RA"
      ],
      "severityScore": 62,
      "metarRaw": "METAR LICJ 031750Z 18019KT CAVOK 20/M02 Q1007",
      "tafRaw": "TAF LICJ 031700Z 0318/0418 18015KT 9999 SCT030 \n  TEMPO 0404/0412 TSRA \n  BECMG 0406/0408 26018KT \n  TEMPO 0408/0416 25016G26KT",
      "minima": {
        "best": {
          "cig_ft": 350,
          "vis_m": 1200
        },
        "alt": {
          "cig_ft": 430,
          "vis_m": 1600
        },
        "wind": {
          "threshold_kt": 29,
          "use_gust": false,
          "apply": true
        },
        "approach_category": null
      }
    },
    {
      "icao": "LRSM",
      "iata": "SUJ",
      "name": "Satu Mare International Airport",
      "lat": 47.7033,
      "lon": 22.8857,
      "updatedAt": "031730Z",
      "visibility_m": 10000,
      "taf_visibility_m": 5000,
      "worst_visibility_m": 5000,
      "ceiling_ft": 1000,
      "hazards": [
        "SHRA",
        "RA",
        "BR",
        "DZ"
      ],
      "severityScore": 58,
      "metarRaw": "METAR LRSM 031730Z AUTO 12006KT 9999 -SHRA SCT033/// BKN039/// OVC046/// 03/M00 Q1015",
      "tafRaw": "TAF LRSM 031400Z 0315/0324 VRB04KT 9999 BKN040 \n  TEMPO 0316/0321 5000 -RADZ BR BKN010 OVC025",
      "minima": {
        "best": {
          "cig_ft": 121,
          "vis_m": 400
        },
        "alt": {
          "cig_ft": 200,
          "vis_m": 550
        },
        "wind": {
          "threshold_kt": 29,
          "use_gust": false,
          "apply": true
        },
        "approach_category": null
      }
    },
    {
      "icao": "LRBS",
      "iata": "BBU",
      "name": "Bucharest Băneasa Aurel Vlaicu International Airport",
      "lat": 44.503133,
      "lon": 26.102944,
      "updatedAt": "031730Z",
      "visibility_m": 10000,
      "taf_visibility_m": 1000,
      "worst_visibility_m": 1000,
      "ceiling_ft": 200,
      "hazards": [
        "BR"
      ],
      "severityScore": 55,
      "metarRaw": "METAR LRBS 031730Z 06004KT CAVOK M04/M09 Q1022 NOSIG",
      "tafRaw": "TAF LRBS 031700Z 0318/0418 06006KT CAVOK \n  BECMG 0401/0403 3000 BR BKN010 \n  PROB30 \n  TEMPO 0403/0407 1000 BR BKN002 \n  BECMG 0407/0409 CAVOK",
      "minima": {
        "best": {
          "cig_ft": 100,
          "vis_m": 350
        },
        "alt": {
          "cig_ft": 200,
          "vis_m": 550
        },
        "wind": {
          "threshold_kt": 29,
          "use_gust": false,
          "apply": true
        },
        "approach_category": null
      }
    },
    {
      "icao": "LROP",
      "iata": "OTP",
      "name": "Bucharest Henri Coandă International Airport",
      "lat": 44.571792,
      "lon": 26.103285,
      "updatedAt": "031730Z",
      "visibility_m": 10000,
      "taf_visibility_m": 1000,
      "worst_visibility_m": 1000,
      "ceiling_ft": 200,
      "hazards": [
        "BR"
      ],
      "severityScore": 55,
      "metarRaw": "METAR LROP 031730Z 10004KT CAVOK M04/M11 Q1022 NOSIG",
      "tafRaw": "TAF LROP 031700Z 0318/0418 06006KT CAVOK \n  BECMG 0401/0403 3000 BR BKN010 \n  PROB30 \n  TEMPO 0403/0407 1000 BR BKN002 \n  BECMG 0407/0409 CAVOK",
      "minima": {
        "best": {
          "cig_ft": 50,
          "vis_m": 200
        },
        "alt": {
          "cig_ft": 100,
          "vis_m": 300
        },
        "wind": {
          "threshold_kt": 29,
          "use_gust": false,
          "apply": true
        },
        "approach_category": null
      }
    },
    {
      "icao": "EPSC",
      "iata": "SZZ",
      "name": "Solidarity Szczecin–Goleniów Airport",
      "lat": 53.584702,
      "lon": 14.9022,
      "updatedAt": "031730Z",
      "visibility_m": 10000,
      "taf_visibility_m": 4000,
      "worst_visibility_m": 4000,
      "ceiling_ft": 900,
      "hazards": [
        "BR",
        "SN"
      ],
      "severityScore": 53,
      "metarRaw": "METAR EPSC 031730Z 07010KT CAVOK M08/M15 Q1014",
      "tafRaw": "TAF EPSC 031730Z 0318/0418 09010KT CAVOK \n  PROB40 \n  TEMPO 0318/0320 10015G25KT \n  TEMPO 0400/0412 -SN BKN012 \n  PROB40 \n  TEMPO 0404/0410 4000 -SN DRSN BR BKN009",
      "minima": {
        "best": {
          "cig_ft": 210,
          "vis_m": 550
        },
        "alt": {
          "cig_ft": 280,
          "vis_m": 600
        },
        "wind": {
          "threshold_kt": 29,
          "use_gust": false,
          "apply": true
        },
        "approach_category": null
      }
    },
    {
      "icao": "UDSG",
      "iata": "LWN",
      "name": "Shirak International Airport",
      "lat": 40.750401,
      "lon": 43.859299,
      "updatedAt": "031730Z",
      "visibility_m": 10000,
      "taf_visibility_m": 1000,
      "worst_visibility_m": 1000,
      "ceiling_ft": 2300,
      "hazards": [
        "BR",
        "SN",
        "RA"
      ],
      "severityScore": 50,
      "metarRaw": "METAR UDSG 031730Z 35013KT 9999 BKN023 02/M03 Q1012 NOSIG",
      "tafRaw": "TAF UDSG 031658Z 0318/0418 VRB06KT 5000 BR BKN030 \n  TEMPO 0318/0324 36016KT 1000 SNRA BR OVC010",
      "minima": {
        "best": {
          "cig_ft": 200,
          "vis_m": 550
        },
        "alt": {
          "cig_ft": 410,
          "vis_m": 1200
        },
        "wind": {
          "threshold_kt": 29,
          "use_gust": false,
          "apply": true
        },
        "approach_category": null
      }
    },
    {
      "icao": "EBCI",
      "iata": "CRL",
      "name": "Brussels South Charleroi Airport",
      "lat": 50.461963,
      "lon": 4.459562,
      "updatedAt": "031750Z",
      "visibility_m": 3500,
      "taf_visibility_m": 4500,
      "worst_visibility_m": 3500,
      "ceiling_ft": 1600,
      "hazards": [
        "RA",
        "DZ",
        "SHRA"
      ],
      "severityScore": 48,
      "metarRaw": "METAR EBCI 031750Z 21008KT 8000 -RADZ SCT009 BKN016 07/06 Q0995 TEMPO 3500 RADZ",
      "tafRaw": "TAF EBCI 031709Z 0318/0424 20010KT 9999 SCT015 BKN030 \n  PROB40 \n  TEMPO 0318/0320 4500 RA SHRA SCT007 BKN012TCU \n  BECMG 0408/0410 13006KT",
      "minima": {
        "best": {
          "cig_ft": 0,
          "vis_m": 150
        },
        "alt": {
          "cig_ft": 100,
          "vis_m": 300
        },
        "wind": {
          "threshold_kt": 29,
          "use_gust": false,
          "apply": true
        },
        "approach_category": null
      }
    },
    {
      "icao": "LFLS",
      "iata": "GNB",
      "name": "Grenoble Alpes Isère Airport",
      "lat": 45.3629,
      "lon": 5.32937,
      "updatedAt": "031730Z",
      "visibility_m": 4000,
      "taf_visibility_m": 4000,
      "worst_visibility_m": 4000,
      "ceiling_ft": 1400,
      "hazards": [
        "SHRA",
        "RA",
        "BR"
      ],
      "severityScore": 48,
      "metarRaw": "METAR LFLS 031730Z AUTO VRB03KT CAVOK 06/03 Q1000 TEMPO 4000 -SHRA SCT045CB",
      "tafRaw": "TAF LFLS 031400Z 0315/0415 24008KT CAVOK \n  TEMPO 0316/0320 4000 -SHRA SCT045CB \n  PROB40 \n  TEMPO 0320/0324 4000 BR BKN014",
      "minima": {
        "best": {
          "cig_ft": 210,
          "vis_m": 750
        },
        "alt": {
          "cig_ft": 290,
          "vis_m": 900
        },
        "wind": {
          "threshold_kt": 29,
          "use_gust": false,
          "apply": true
        },
        "approach_category": null
      }
    },
    {
      "icao": "EGPD",
      "iata": "ABZ",
      "name": "Aberdeen International Airport",
      "lat": 57.2019,
      "lon": -2.19778,
      "updatedAt": "031750Z",
      "visibility_m": 4000,
      "taf_visibility_m": 4000,
      "worst_visibility_m": 4000,
      "ceiling_ft": 800,
      "hazards": [
        "RA",
        "DZ"
      ],
      "severityScore": 47,
      "metarRaw": "METAR EGPD 031750Z AUTO 12010KT 080V160 9999 -RA BKN012 BKN016 OVC044 02/00 Q1002 RERA TEMPO 4000 RA BKN008",
      "tafRaw": "TAF EGPD 031657Z 0318/0418 10012KT 9999 SCT012 BKN025 \n  TEMPO 0318/0418 11015G25KT 6000 -RADZ BKN010 \n  PROB40 \n  TEMPO 0318/0418 4000 RADZ BKN006",
      "minima": {
        "best": {
          "cig_ft": 200,
          "vis_m": 550
        },
        "alt": {
          "cig_ft": 500,
          "vis_m": 1500
        },
        "wind": {
          "threshold_kt": 29,
          "use_gust": false,
          "apply": true
        },
        "approach_category": null
      }
    },
    {
      "icao": "LOWW",
      "iata": "VIE",
      "name": "Vienna International Airport",
      "lat": 48.110298,
      "lon": 16.5697,
      "updatedAt": "031750Z",
      "visibility_m": 10000,
      "taf_visibility_m": 2000,
      "worst_visibility_m": 2000,
      "ceiling_ft": 900,
      "hazards": [
        "BR",
        "RA"
      ],
      "severityScore": 47,
      "metarRaw": "METAR LOWW 031750Z 12013G23KT 9999 FEW008 BKN009 00/M02 Q1005 TEMPO BKN010",
      "tafRaw": "TAF LOWW 031715Z 0318/0424 12010KT 9999 OVC008 TX01/0423Z TNM00/0400Z \n  TEMPO 0400/0404 3000 BR BKN004 \n  BECMG 0404/0406 3000 BR OVC004 \n  TEMPO 0406/0413 2500 -RA BKN006 \n  PROB30 \n  TEMPO 0409/0412 RA \n  TEMPO 0418/0422 2500 -RA BKN006 \n  TEMPO 0422/0424 2000",
      "minima": {
        "best": {
          "cig_ft": 0,
          "vis_m": 75
        },
        "alt": {
          "cig_ft": 100,
          "vis_m": 300
        },
        "wind": {
          "threshold_kt": 29,
          "use_gust": false,
          "apply": true
        },
        "approach_category": null
      }
    },
    {
      "icao": "LPPR",
      "iata": "OPO",
      "name": "Francisco de Sá Carneiro Airport",
      "lat": 41.2481002808,
      "lon": -8.68138980865,
      "updatedAt": "031730Z",
      "visibility_m": 10000,
      "taf_visibility_m": 2000,
      "worst_visibility_m": 2000,
      "ceiling_ft": 3000,
      "hazards": [
        "RA",
        "BR",
        "SHRA",
        "DZ"
      ],
      "severityScore": 46,
      "metarRaw": "METAR LPPR 031730Z 20010KT 9999 -RA BKN030 11/07 Q0996",
      "tafRaw": "TAF LPPR 031700Z 0318/0418 21008KT 9999 SCT020 \n  BECMG 0318/0320 16013KT 6000 -RA SCT012 BKN025 \n  TEMPO 0320/0402 2000 RADZ BR SCT002 BKN004 \n  TEMPO 0320/0324 16017G27KT \n  BECMG 0400/0402 25012KT \n  TEMPO 0402/0418 26015G25KT 4000 SHRA BKN008 FEW018CB",
      "minima": {
        "best": {
          "cig_ft": 100,
          "vis_m": 300
        },
        "alt": {
          "cig_ft": 200,
          "vis_m": 550
        },
        "wind": {
          "threshold_kt": 29,
          "use_gust": false,
          "apply": true
        },
        "approach_category": null
      }
    },
    {
      "icao": "LBWN",
      "iata": "VAR",
      "name": "Varna Airport",
      "lat": 43.232101,
      "lon": 27.8251,
      "updatedAt": "031730Z",
      "visibility_m": 10000,
      "taf_visibility_m": 1500,
      "worst_visibility_m": 1500,
      "ceiling_ft": 500,
      "hazards": [
        "BR"
      ],
      "severityScore": 45,
      "metarRaw": "METAR LBWN 031730Z AUTO 13006KT 9999 NCD M01/M02 Q1022 NOSIG",
      "tafRaw": "TAF LBWN 031700Z 0318/0418 10010KT 9999 SCT020 BKN040 \n  BECMG 0318/0320 VRB03KT BKN010 OVC020 \n  TEMPO 0323/0407 4000 BR \n  PROB30 0403/0406 1500 BR BKN005 \n  BECMG 0407/0409 12010KT SCT020 OVC040",
      "minima": {
        "best": {
          "cig_ft": 200,
          "vis_m": 750
        },
        "alt": {
          "cig_ft": 260,
          "vis_m": 800
        },
        "wind": {
          "threshold_kt": 29,
          "use_gust": false,
          "apply": true
        },
        "approach_category": null
      }
    },
    {
      "icao": "OMDB",
      "iata": "DXB",
      "name": "Dubai International Airport",
      "lat": 25.2527999878,
      "lon": 55.3643989563,
      "updatedAt": "031730Z",
      "visibility_m": 9000,
      "taf_visibility_m": 3000,
      "worst_visibility_m": 3000,
      "ceiling_ft": 300,
      "hazards": [
        "BR"
      ],
      "severityScore": 45,
      "metarRaw": "METAR OMDB 031730Z 08005KT 9000 NSC 22/16 Q1017 NOSIG",
      "tafRaw": "TAF OMDB 031700Z 0318/0500 10005KT 8000 NSC \n  PROB30 0400/0405 3000 BR BKN003 \n  BECMG 0404/0406 16010KT \n  BECMG 0410/0412 33010KT \n  BECMG 0415/0417 18005KT",
      "minima": {
        "best": {
          "cig_ft": 0,
          "vis_m": 75
        },
        "alt": {
          "cig_ft": 100,
          "vis_m": 300
        },
        "wind": {
          "threshold_kt": 29,
          "use_gust": false,
          "apply": true
        },
        "approach_category": null
      }
    },
    {
      "icao": "EKBI",
      "iata": "BLL",
      "name": "Billund Airport",
      "lat": 55.740335,
      "lon": 9.157019,
      "updatedAt": "031750Z",
      "visibility_m": 10000,
      "taf_visibility_m": 2000,
      "worst_visibility_m": 2000,
      "ceiling_ft": 800,
      "hazards": [
        "SN"
      ],
      "severityScore": 43,
      "metarRaw": "METAR EKBI 031750Z AUTO 10021KT 9999 BKN052/// M02/M07 Q1012",
      "tafRaw": "TAF EKBI 031727Z 0318/0418 10024G40KT 9999 BKN040 \n  TEMPO 0318/0411 10020KT \n  TEMPO 0411/0414 10020KT 3000 SN DRSN BKN012 \n  TEMPO 0414/0418 09017KT 2000 SN DRSN BKN008",
      "minima": {
        "best": {
          "cig_ft": 0,
          "vis_m": 75
        },
        "alt": {
          "cig_ft": 100,
          "vis_m": 300
        },
        "wind": {
          "threshold_kt": 29,
          "use_gust": false,
          "apply": true
        },
        "approach_category": null
      }
    },
    {
      "icao": "EPRA",
      "iata": "RDO",
      "name": "Warsaw Radom Airport",
      "lat": 51.38937,
      "lon": 21.214742,
      "updatedAt": "031730Z",
      "visibility_m": 10000,
      "taf_visibility_m": 3000,
      "worst_visibility_m": 3000,
      "ceiling_ft": 1300,
      "hazards": [
        "RA",
        "SN"
      ],
      "severityScore": 42,
      "metarRaw": "METAR EPRA 031730Z 09011KT 9999 BKN013 M08/M17 Q1016",
      "tafRaw": "TAF EPRA 031730Z 0318/0403 08010KT 9999 BKN015 \n  BECMG 0322/0324 6000 -SN BKN010 \n  PROB40 \n  TEMPO 0323/0403 3000 SN OVC006",
      "minima": {
        "best": {
          "cig_ft": 210,
          "vis_m": 550
        },
        "alt": {
          "cig_ft": 250,
          "vis_m": 550
        },
        "wind": {
          "threshold_kt": 29,
          "use_gust": false,
          "apply": true
        },
        "approach_category": null
      }
    },
    {
      "icao": "LRCL",
      "iata": "CLJ",
      "name": "Cluj Avram Iancu International Airport",
      "lat": 46.787425,
      "lon": 23.684292,
      "updatedAt": "031730Z",
      "visibility_m": 10000,
      "taf_visibility_m": 3000,
      "worst_visibility_m": 3000,
      "ceiling_ft": 1500,
      "hazards": [
        "RA",
        "SN"
      ],
      "severityScore": 42,
      "metarRaw": "METAR LRCL 031730Z 09008KT 9999 FEW046 SCT067 02/M02 Q1015",
      "tafRaw": "TAF LRCL 031700Z 0318/0403 11006KT 9999 BKN050 \n  TEMPO 0321/0403 5000 -RA BKN015 OVC040 \n  PROB40 \n  TEMPO 0321/0324 3000 -SNRA",
      "minima": {
        "best": {
          "cig_ft": 114,
          "vis_m": 300
        },
        "alt": {
          "cig_ft": 200,
          "vis_m": 550
        },
        "wind": {
          "threshold_kt": 29,
          "use_gust": false,
          "apply": true
        },
        "approach_category": null
      }
    },
    {
      "icao": "LRTM",
      "iata": "TGM",
      "name": "Târgu Mureş Transilvania International Airport",
      "lat": 46.467701,
      "lon": 24.4125,
      "updatedAt": "031730Z",
      "visibility_m": 10000,
      "taf_visibility_m": 5000,
      "worst_visibility_m": 5000,
      "ceiling_ft": 1500,
      "hazards": [
        "SN",
        "RA"
      ],
      "severityScore": 42,
      "metarRaw": "METAR LRTM 031730Z AUTO 05002KT 9999 NCD 02/M00 Q1015",
      "tafRaw": "TAF LRTM 031700Z 0318/0403 VRB04KT CAVOK \n  TEMPO 0400/0403 5000 -RASN BKN015 OVC040",
      "minima": {
        "best": {
          "cig_ft": 100,
          "vis_m": 300
        },
        "alt": {
          "cig_ft": 200,
          "vis_m": 550
        },
        "wind": {
          "threshold_kt": 29,
          "use_gust": false,
          "apply": true
        },
        "approach_category": null
      }
    },
    {
      "icao": "LHDC",
      "iata": "DEB",
      "name": "Debrecen International Airport",
      "lat": 47.488899,
      "lon": 21.615299,
      "updatedAt": "031715Z",
      "visibility_m": 9000,
      "taf_visibility_m": 1400,
      "worst_visibility_m": 1400,
      "ceiling_ft": 3400,
      "hazards": [
        "SN",
        "RA"
      ],
      "severityScore": 40,
      "metarRaw": "METAR LHDC 031715Z AUTO 09006KT 9000 -RASN BKN034 OVC066 //////TCU 02/00 Q1014 NOSIG",
      "tafRaw": "TAF LHDC 031415Z 0315/0324 08006KT 7000 -SN OVC030 \n  TEMPO 0315/0317 1400 SN SNRA BKN008 OVC025 \n  BECMG 0315/0318 -RA \n  TEMPO 0315/0324 3500 RA RASN BKN012 OVC025",
      "minima": {
        "best": {
          "cig_ft": 210,
          "vis_m": 550
        },
        "alt": {
          "cig_ft": 260,
          "vis_m": 1300
        },
        "wind": {
          "threshold_kt": 29,
          "use_gust": false,
          "apply": true
        },
        "approach_category": null
      }
    },
    {
      "icao": "LFPO",
      "iata": "ORY",
      "name": "Paris-Orly Airport",
      "lat": 48.72333,
      "lon": 2.37944,
      "updatedAt": "031730Z",
      "visibility_m": 10000,
      "taf_visibility_m": 4000,
      "worst_visibility_m": 4000,
      "ceiling_ft": 1200,
      "hazards": [
        "RA",
        "SHRA"
      ],
      "severityScore": 38,
      "metarRaw": "METAR LFPO 031730Z 20009KT 170V230 CAVOK 10/06 Q0996 NOSIG",
      "tafRaw": "TAF LFPO 031700Z 0318/0424 20009KT 9999 SCT025 \n  PROB30 \n  TEMPO 0318/0320 4000 -SHRA SCT020 BKN030TCU \n  BECMG 0319/0321 CAVOK \n  BECMG 0402/0404 13005KT \n  PROB30 \n  TEMPO 0423/0424 4000 -RA BKN012",
      "minima": {
        "best": {
          "cig_ft": 0,
          "vis_m": 75
        },
        "alt": {
          "cig_ft": 100,
          "vis_m": 300
        },
        "wind": {
          "threshold_kt": 29,
          "use_gust": false,
          "apply": true
        },
        "approach_category": null
      }
    },
    {
      "icao": "LGTS",
      "iata": "SKG",
      "name": "Thessaloniki Macedonia International Airport",
      "lat": 40.51928,
      "lon": 22.970009,
      "updatedAt": "031750Z",
      "visibility_m": 10000,
      "taf_visibility_m": 5000,
      "worst_visibility_m": 5000,
      "ceiling_ft": 4000,
      "hazards": [
        "TS",
        "RA"
      ],
      "severityScore": 37,
      "metarRaw": "METAR LGTS 031750Z VRB02KT 9999 FEW020 SCT030 09/09 Q1020 NOSIG",
      "tafRaw": "TAF LGTS 031700Z 0318/0418 VRB03KT 9999 SCT030 \n  BECMG 0320/0322 12013KT FEW010 BKN040 \n  PROB30 \n  TEMPO 0410/0418 5000 RA",
      "minima": {
        "best": {
          "cig_ft": 100,
          "vis_m": 300
        },
        "alt": {
          "cig_ft": 200,
          "vis_m": 550
        },
        "wind": {
          "threshold_kt": 29,
          "use_gust": false,
          "apply": true
        },
        "approach_category": null
      }
    },
    {
      "icao": "LIRP",
      "iata": "PSA",
      "name": "Pisa International Airport",
      "lat": 43.683899,
      "lon": 10.3927,
      "updatedAt": "031745Z",
      "visibility_m": 10000,
      "taf_visibility_m": 4000,
      "worst_visibility_m": 4000,
      "ceiling_ft": 6000,
      "hazards": [
        "BR",
        "RA",
        "SHRA"
      ],
      "severityScore": 36,
      "metarRaw": "METAR LIRP 031745Z 12007KT 9999 SCT040 BKN060 12/12 Q1006 NOSIG",
      "tafRaw": "TAF LIRP 031700Z 0318/0418 09010KT 9999 SCT040 \n  TEMPO 0400/0418 4000 RA BR SCT020 SCT030 \n  PROB40 \n  TEMPO 0406/0415 SHRA SCT015 BKN025",
      "minima": {
        "best": {
          "cig_ft": 140,
          "vis_m": 400
        },
        "alt": {
          "cig_ft": 230,
          "vis_m": 550
        },
        "wind": {
          "threshold_kt": 29,
          "use_gust": false,
          "apply": true
        },
        "approach_category": null
      }
    },
    {
      "icao": "LEMD",
      "iata": "MAD",
      "name": "Adolfo Suárez Madrid–Barajas Airport",
      "lat": 40.471926,
      "lon": -3.56264,
      "updatedAt": "031730Z",
      "visibility_m": 10000,
      "taf_visibility_m": 3000,
      "worst_visibility_m": 3000,
      "ceiling_ft": 1000,
      "hazards": [
        "RA",
        "DZ"
      ],
      "severityScore": 34,
      "metarRaw": "METAR LEMD 031730Z 20010KT 170V230 9999 FEW026 SCT037 07/03 Q1000 NOSIG",
      "tafRaw": "TAF LEMD 031700Z 0318/0424 22010KT 9999 SCT020 TX12/0414Z TN04/0407Z \n  TEMPO 0321/0406 3000 RA DZRA BKN010 \n  TEMPO 0401/0411 VRB05KT \n  TEMPO 0412/0418 23015G25KT",
      "minima": {
        "best": {
          "cig_ft": 0,
          "vis_m": 75
        },
        "alt": {
          "cig_ft": 110,
          "vis_m": 300
        },
        "wind": {
          "threshold_kt": 29,
          "use_gust": false,
          "apply": true
        },
        "approach_category": null
      }
    },
    {
      "icao": "LIPE",
      "iata": "BLQ",
      "name": "Bologna Guglielmo Marconi Airport",
      "lat": 44.5354,
      "lon": 11.2887,
      "updatedAt": "031750Z",
      "visibility_m": 5000,
      "taf_visibility_m": 2000,
      "worst_visibility_m": 2000,
      "ceiling_ft": 1300,
      "hazards": [
        "BR",
        "RA"
      ],
      "severityScore": 34,
      "metarRaw": "METAR LIPE 031750Z 32003KT 280V340 5000 BR FEW005 BKN013 06/06 Q1008",
      "tafRaw": "TAF LIPE 031700Z 0318/0418 27005KT 6000 FEW005 BKN014 \n  TEMPO 0318/0320 2000 BR BKN004 \n  TEMPO 0320/0418 4000 RA BKN010 BKN020",
      "minima": {
        "best": {
          "cig_ft": 0,
          "vis_m": 75
        },
        "alt": {
          "cig_ft": 100,
          "vis_m": 300
        },
        "wind": {
          "threshold_kt": 29,
          "use_gust": false,
          "apply": true
        },
        "approach_category": null
      }
    },
    {
      "icao": "LRTR",
      "iata": "TSR",
      "name": "Timişoara Traian Vuia Airport",
      "lat": 45.809898,
      "lon": 21.3379,
      "updatedAt": "031730Z",
      "visibility_m": 10000,
      "taf_visibility_m": 5000,
      "worst_visibility_m": 5000,
      "ceiling_ft": 1500,
      "hazards": [
        "BR",
        "RA"
      ],
      "severityScore": 34,
      "metarRaw": "METAR LRTR 031730Z 10013KT CAVOK 02/M00 Q1013",
      "tafRaw": "TAF LRTR 031700Z 0318/0418 11012KT CAVOK \n  TEMPO 0403/0409 5000 -RA BR BKN015 BKN040",
      "minima": {
        "best": {
          "cig_ft": 0,
          "vis_m": 175
        },
        "alt": {
          "cig_ft": 128,
          "vis_m": 400
        },
        "wind": {
          "threshold_kt": 29,
          "use_gust": false,
          "apply": true
        },
        "approach_category": null
      }
    },
    {
      "icao": "LPPT",
      "iata": "LIS",
      "name": "Lisbon Humberto Delgado Airport",
      "lat": 38.7813,
      "lon": -9.13592,
      "updatedAt": "031730Z",
      "visibility_m": 5000,
      "taf_visibility_m": 2000,
      "worst_visibility_m": 2000,
      "ceiling_ft": 2000,
      "hazards": [
        "RA",
        "BR",
        "DZ"
      ],
      "severityScore": 32,
      "metarRaw": "METAR LPPT 031730Z 20008KT 5000 RA FEW012 BKN020 10/09 Q1001",
      "tafRaw": "TAF LPPT 031700Z 0318/0424 21007KT 9999 SCT018 BKN035 \n  BECMG 0318/0319 25017KT 6000 -RA SCT006 BKN012 \n  TEMPO 0319/0409 25020G32KT 2000 DZRA BR SCT002 BKN003 \n  BECMG 0409/0411 23012KT \n  PROB40 \n  TEMPO 0409/0417 9999 NSW BKN020 \n  TEMPO 0417/0424 23018G30KT 2000 DZRA BR SCT002 BKN003",
      "minima": {
        "best": {
          "cig_ft": 0,
          "vis_m": 75
        },
        "alt": {
          "cig_ft": 100,
          "vis_m": 300
        },
        "wind": {
          "threshold_kt": 29,
          "use_gust": false,
          "apply": true
        },
        "approach_category": null
      }
    },
    {
      "icao": "LYPG",
      "iata": "TGD",
      "name": "Podgorica Airport / Podgorica Golubovci Airbase",
      "lat": 42.359402,
      "lon": 19.2519,
      "updatedAt": "031730Z",
      "visibility_m": 2400,
      "taf_visibility_m": 1000,
      "worst_visibility_m": 1000,
      "ceiling_ft": 9000,
      "hazards": [
        "BR",
        "RA"
      ],
      "severityScore": 32,
      "metarRaw": "METAR LYPG 031730Z 10003KT 2400 BR FEW010 SCT040 OVC090 07/07 Q1015 NOSIG",
      "tafRaw": "TAF LYPG 031700Z 0318/0418 32005KT 6000 FEW015 SCT040 OVC080 TX16/0416Z TN08/0318Z \n  TEMPO 0318/0322 3000 RA BR \n  PROB40 \n  TEMPO 0323/0407 1000 BR \n  TEMPO 0416/0418 5000 RA",
      "minima": {
        "best": {
          "cig_ft": 200,
          "vis_m": 550
        },
        "alt": {
          "cig_ft": 260,
          "vis_m": 600
        },
        "wind": {
          "threshold_kt": 29,
          "use_gust": false,
          "apply": true
        },
        "approach_category": null
      }
    },
    {
      "icao": "GCTS",
      "iata": "TFS",
      "name": "Tenerife Sur Airport",
      "lat": 28.0445,
      "lon": -16.5725,
      "updatedAt": "031730Z",
      "visibility_m": 10000,
      "taf_visibility_m": null,
      "worst_visibility_m": 10000,
      "ceiling_ft": 3000,
      "hazards": [
        "TS"
      ],
      "severityScore": 30,
      "metarRaw": "METAR GCTS 031730Z 21007KT 170V260 9999 BKN030 20/12 Q1018 NOSIG",
      "tafRaw": null,
      "minima": {
        "best": {
          "cig_ft": 230,
          "vis_m": 550
        },
        "alt": {
          "cig_ft": 280,
          "vis_m": 600
        },
        "wind": {
          "threshold_kt": 29,
          "use_gust": false,
          "apply": true
        },
        "approach_category": null
      }
    },
    {
      "icao": "EDDN",
      "iata": "NUE",
      "name": "Nuremberg Airport",
      "lat": 49.498699,
      "lon": 11.078056,
      "updatedAt": "031750Z",
      "visibility_m": 10000,
      "taf_visibility_m": 10000,
      "worst_visibility_m": 10000,
      "ceiling_ft": 2200,
      "hazards": [
        "SN",
        "RA"
      ],
      "severityScore": 30,
      "metarRaw": "METAR EDDN 031750Z AUTO 11008KT 9999 -SNRA OVC022 01/M01 Q1003 NOSIG",
      "tafRaw": "TAF EDDN 031700Z 0318/0418 10006KT 9999 SCT035 \n  TEMPO 0416/0418 BKN014",
      "minima": {
        "best": {
          "cig_ft": 0,
          "vis_m": 75
        },
        "alt": {
          "cig_ft": 100,
          "vis_m": 300
        },
        "wind": {
          "threshold_kt": 29,
          "use_gust": false,
          "apply": true
        },
        "approach_category": null
      }
    },
    {
      "icao": "EDDB",
      "iata": "BER",
      "name": "Berlin Brandenburg Willy Brandt Airport",
      "lat": 52.361738,
      "lon": 13.502341,
      "updatedAt": "031750Z",
      "visibility_m": 10000,
      "taf_visibility_m": 2000,
      "worst_visibility_m": 2000,
      "ceiling_ft": 3500,
      "hazards": [
        "BR",
        "SN"
      ],
      "severityScore": 28,
      "metarRaw": "METAR EDDB 031750Z AUTO 10014KT 9999 OVC035 M05/M14 Q1010 NOSIG",
      "tafRaw": "TAF EDDB 031700Z 0318/0418 08013KT 9999 OVC025 \n  BECMG 0400/0403 BKN007 \n  TEMPO 0401/0407 2000 -SN \n  TEMPO 0407/0412 4000 BR \n  TEMPO 0410/0418 BKN012",
      "minima": {
        "best": {
          "cig_ft": 0,
          "vis_m": 75
        },
        "alt": {
          "cig_ft": 100,
          "vis_m": 300
        },
        "wind": {
          "threshold_kt": 29,
          "use_gust": false,
          "apply": true
        },
        "approach_category": null
      }
    },
    {
      "icao": "EETN",
      "iata": "TLL",
      "name": "Lennart Meri Tallinn Airport",
      "lat": 59.413246,
      "lon": 24.83264,
      "updatedAt": "031750Z",
      "visibility_m": 10000,
      "taf_visibility_m": 2000,
      "worst_visibility_m": 2000,
      "ceiling_ft": 2100,
      "hazards": [
        "BR",
        "SN"
      ],
      "severityScore": 28,
      "metarRaw": "METAR EETN 031750Z 01004KT 9999 BKN021 M08/M11 Q1028 NOSIG",
      "tafRaw": "TAF EETN 031730Z 0318/0418 02006KT 9999 SCT020 \n  PROB40 \n  TEMPO 0320/0406 2000 -SN BR BKN003 \n  BECMG 0406/0408 08010KT \n  TEMPO 0406/0413 3000 SN BR BKN005",
      "minima": {
        "best": {
          "cig_ft": 111,
          "vis_m": 300
        },
        "alt": {
          "cig_ft": 200,
          "vis_m": 550
        },
        "wind": {
          "threshold_kt": 29,
          "use_gust": false,
          "apply": true
        },
        "approach_category": null
      }
    },
    {
      "icao": "ESKN",
      "iata": "NYO",
      "name": "Stockholm Skavsta Airport",
      "lat": 58.789656,
      "lon": 16.911479,
      "updatedAt": "031750Z",
      "visibility_m": 10000,
      "taf_visibility_m": 2500,
      "worst_visibility_m": 2500,
      "ceiling_ft": 2800,
      "hazards": [
        "SHSN",
        "SN"
      ],
      "severityScore": 28,
      "metarRaw": "METAR ESKN 031750Z 03008KT 9999 BKN028 M08/M11 Q1027",
      "tafRaw": "TAF ESKN 031730Z 0318/0418 06005KT 9999 BKN028 \n  PROB40 0408/0418 2500 -SHSN BKN014",
      "minima": {
        "best": {
          "cig_ft": 200,
          "vis_m": 550
        },
        "alt": {
          "cig_ft": 390,
          "vis_m": 1400
        },
        "wind": {
          "threshold_kt": 29,
          "use_gust": false,
          "apply": true
        },
        "approach_category": null
      }
    },
    {
      "icao": "LEBL",
      "iata": "BCN",
      "name": "Josep Tarradellas Barcelona-El Prat Airport",
      "lat": 41.2971,
      "lon": 2.07846,
      "updatedAt": "031730Z",
      "visibility_m": 10000,
      "taf_visibility_m": 4000,
      "worst_visibility_m": 4000,
      "ceiling_ft": null,
      "hazards": [
        "RA",
        "SHRA"
      ],
      "severityScore": 26,
      "metarRaw": "METAR LEBL 031730Z 23007KT 9999 FEW020 12/08 Q1000 NOSIG",
      "tafRaw": "TAF LEBL 031700Z 0318/0418 24010KT 9999 FEW020 TX14/0414Z TN05/0406Z \n  BECMG 0318/0320 33006KT \n  PROB30 \n  TEMPO 0407/0411 4000 RA SHRA FEW025TCU \n  BECMG 0408/0410 26010KT \n  PROB40 \n  TEMPO 0413/0415 24015G25KT",
      "minima": {
        "best": {
          "cig_ft": 0,
          "vis_m": 75
        },
        "alt": {
          "cig_ft": 109,
          "vis_m": 300
        },
        "wind": {
          "threshold_kt": 29,
          "use_gust": false,
          "apply": true
        },
        "approach_category": null
      }
    },
    {
      "icao": "LEXJ",
      "iata": "SDR",
      "name": "Seve Ballesteros-Santander Airport",
      "lat": 43.427101,
      "lon": -3.82001,
      "updatedAt": "031730Z",
      "visibility_m": 10000,
      "taf_visibility_m": 3000,
      "worst_visibility_m": 3000,
      "ceiling_ft": null,
      "hazards": [
        "RA",
        "SHRA"
      ],
      "severityScore": 26,
      "metarRaw": "METAR LEXJ 031730Z 20014G26KT 160V250 CAVOK 12/03 Q0994",
      "tafRaw": "TAF LEXJ 031400Z 0315/0415 21009KT 9999 FEW060 TX16/0415Z TN08/0407Z \n  TEMPO 0315/0415 22018G30KT \n  PROB30 \n  TEMPO 0315/0318 28010KT 3000 SHRA SCT030TCU \n  PROB30 \n  TEMPO 0402/0407 22025G43KT \n  PROB30 \n  TEMPO 0404/0409 RA \n  PROB30 \n  TEMPO 0412/0415 30010KT 3000 RA",
      "minima": {
        "best": {
          "cig_ft": 330,
          "vis_m": 1500
        },
        "alt": {
          "cig_ft": 360,
          "vis_m": 1500
        },
        "wind": {
          "threshold_kt": 29,
          "use_gust": false,
          "apply": true
        },
        "approach_category": null
      }
    },
    {
      "icao": "LFLL",
      "iata": "LYS",
      "name": "Lyon Saint-Exupéry Airport",
      "lat": 45.725996,
      "lon": 5.090139,
      "updatedAt": "031730Z",
      "visibility_m": 10000,
      "taf_visibility_m": 10000,
      "worst_visibility_m": 10000,
      "ceiling_ft": 6000,
      "hazards": [
        "RA",
        "SHRA"
      ],
      "severityScore": 26,
      "metarRaw": "METAR LFLL 031730Z 17004KT 9999 VCSH FEW053TCU SCT060 11/05 Q1000 NOSIG",
      "tafRaw": "TAF LFLL 031700Z 0318/0424 15006KT CAVOK \n  PROB40 \n  TEMPO 0318/0320 -SHRA BKN040TCU \n  BECMG 0416/0418 18012KT \n  PROB40 \n  TEMPO 0421/0424 -RA SCT018 BKN060",
      "minima": {
        "best": {
          "cig_ft": 0,
          "vis_m": 75
        },
        "alt": {
          "cig_ft": 100,
          "vis_m": 300
        },
        "wind": {
          "threshold_kt": 29,
          "use_gust": false,
          "apply": true
        },
        "approach_category": null
      }
    },
    {
      "icao": "LIRZ",
      "iata": "PEG",
      "name": "Perugia San Francesco d'Assisi – Umbria International Airport",
      "lat": 43.095901,
      "lon": 12.5132,
      "updatedAt": "031750Z",
      "visibility_m": 10000,
      "taf_visibility_m": 4000,
      "worst_visibility_m": 4000,
      "ceiling_ft": 2000,
      "hazards": [
        "RA",
        "SHRA"
      ],
      "severityScore": 26,
      "metarRaw": "METAR LIRZ 031750Z AUTO VRB01KT 9999 -RA BKN028/// 11/09 Q1007",
      "tafRaw": "TAF LIRZ 031700Z 0318/0418 VRB05KT 9999 BKN020 \n  TEMPO 0318/0406 4000 SHRA \n  TEMPO 0412/0416 4000 SHRA",
      "minima": {
        "best": {
          "cig_ft": 290,
          "vis_m": 900
        },
        "alt": {
          "cig_ft": 390,
          "vis_m": 1400
        },
        "wind": {
          "threshold_kt": 29,
          "use_gust": false,
          "apply": true
        },
        "approach_category": null
      }
    },
    {
      "icao": "LMML",
      "iata": "MLA",
      "name": "Malta International Airport",
      "lat": 35.857498,
      "lon": 14.4775,
      "updatedAt": "031745Z",
      "visibility_m": 10000,
      "taf_visibility_m": 8000,
      "worst_visibility_m": 8000,
      "ceiling_ft": null,
      "hazards": [
        "SHRA",
        "RA"
      ],
      "severityScore": 26,
      "metarRaw": "METAR LMML 031745Z 14011KT CAVOK 15/14 Q1011 NOSIG",
      "tafRaw": "TAF LMML 031700Z 0318/0418 15012KT CAVOK \n  BECMG 0403/0406 14020KT 9999 FEW020 \n  BECMG 0406/0409 21020G30KT \n  TEMPO 0406/0415 8000 SHRA BKN015TCU",
      "minima": {
        "best": {
          "cig_ft": 200,
          "vis_m": 550
        },
        "alt": {
          "cig_ft": 300,
          "vis_m": 650
        },
        "wind": {
          "threshold_kt": 29,
          "use_gust": false,
          "apply": true
        },
        "approach_category": null
      }
    },
    {
      "icao": "UGKO",
      "iata": "KUT",
      "name": "David the Builder Kutaisi International Airport",
      "lat": 42.177448,
      "lon": 42.485353,
      "updatedAt": "031730Z",
      "visibility_m": 10000,
      "taf_visibility_m": 3000,
      "worst_visibility_m": 3000,
      "ceiling_ft": 5000,
      "hazards": [
        "SHRA",
        "RA"
      ],
      "severityScore": 26,
      "metarRaw": "METAR UGKO 031730Z 27007KT 260V320 9999 -SHRA SCT013 BKN022CB 05/04 Q1021 NOSIG",
      "tafRaw": "TAF UGKO 031700Z 0318/0418 25008KT 9000 SCT030 OVC050 TX07/0410Z TN02/0418Z \n  TEMPO 0318/0404 3000 SHRA SCT008 BKN022CB \n  TEMPO 0404/0410 4500 SHRA SCT015 BKN025CB \n  TEMPO 0410/0414 27018KT",
      "minima": {
        "best": {
          "cig_ft": 200,
          "vis_m": 550
        },
        "alt": {
          "cig_ft": 340,
          "vis_m": 800
        },
        "wind": {
          "threshold_kt": 29,
          "use_gust": false,
          "apply": true
        },
        "approach_category": null
      }
    },
    {
      "icao": "LEAL",
      "iata": "ALC",
      "name": "Alicante-Elche Miguel Hernández Airport",
      "lat": 38.2822,
      "lon": -0.558156,
      "updatedAt": "031730Z",
      "visibility_m": 10000,
      "taf_visibility_m": 3000,
      "worst_visibility_m": 3000,
      "ceiling_ft": 1000,
      "hazards": [
        "RA"
      ],
      "severityScore": 24,
      "metarRaw": "METAR LEAL 031730Z 31015G27KT 270V340 9999 SCT066 14/04 Q1003 NOSIG",
      "tafRaw": "TAF LEAL 031700Z 0318/0418 26008KT 9999 FEW030 TX18/0413Z TN07/0407Z \n  TEMPO 0401/0408 3000 RA BKN010 \n  BECMG 0409/0411 25014KT \n  TEMPO 0411/0418 25015G25KT",
      "minima": {
        "best": {
          "cig_ft": 270,
          "vis_m": 600
        },
        "alt": {
          "cig_ft": 360,
          "vis_m": 900
        },
        "wind": {
          "threshold_kt": 29,
          "use_gust": false,
          "apply": true
        },
        "approach_category": null
      }
    },
    {
      "icao": "LEMG",
      "iata": "AGP",
      "name": "Málaga-Costa del Sol Airport",
      "lat": 36.6749,
      "lon": -4.49911,
      "updatedAt": "031730Z",
      "visibility_m": 10000,
      "taf_visibility_m": 2000,
      "worst_visibility_m": 2000,
      "ceiling_ft": 1000,
      "hazards": [
        "RA"
      ],
      "severityScore": 24,
      "metarRaw": "METAR LEMG 031730Z 00000KT 9999 FEW025 13/08 Q1006 NOSIG",
      "tafRaw": "TAF LEMG 031700Z 0318/0418 VRB03KT 9999 SCT020 TX16/0414Z TN10/0407Z \n  PROB30 \n  TEMPO 0318/0322 4000 RA \n  TEMPO 0321/0416 13010KT 2000 +RA BKN010",
      "minima": {
        "best": {
          "cig_ft": 220,
          "vis_m": 550
        },
        "alt": {
          "cig_ft": 480,
          "vis_m": 1500
        },
        "wind": {
          "threshold_kt": 29,
          "use_gust": false,
          "apply": true
        },
        "approach_category": null
      }
    },
    {
      "icao": "LEZL",
      "iata": "SVQ",
      "name": "Sevilla Airport",
      "lat": 37.417999,
      "lon": -5.89311,
      "updatedAt": "031730Z",
      "visibility_m": 4000,
      "taf_visibility_m": 3000,
      "worst_visibility_m": 3000,
      "ceiling_ft": 1000,
      "hazards": [
        "RA"
      ],
      "severityScore": 24,
      "metarRaw": "METAR LEZL 031730Z 21006KT 9999 FEW040 13/10 Q1005 TEMPO 4000 RA",
      "tafRaw": "TAF LEZL 031400Z 0315/0415 26010KT 9999 SCT020 TX15/0315Z TN12/0407Z \n  BECMG 0315/0318 20005KT \n  PROB30 \n  TEMPO 0315/0321 4000 RA \n  BECMG 0320/0322 24015KT \n  TEMPO 0320/0415 24016G28KT 3000 +RA BKN010",
      "minima": {
        "best": {
          "cig_ft": 210,
          "vis_m": 550
        },
        "alt": {
          "cig_ft": 400,
          "vis_m": 1100
        },
        "wind": {
          "threshold_kt": 29,
          "use_gust": false,
          "apply": true
        },
        "approach_category": null
      }
    },
    {
      "icao": "LIPH",
      "iata": "TSF",
      "name": "Treviso Antonio Canova Airport",
      "lat": 45.648399,
      "lon": 12.1944,
      "updatedAt": "031750Z",
      "visibility_m": 10000,
      "taf_visibility_m": 6000,
      "worst_visibility_m": 6000,
      "ceiling_ft": 1200,
      "hazards": [
        "RA"
      ],
      "severityScore": 24,
      "metarRaw": "METAR LIPH 031750Z 33002KT 9999 BKN012 08/08 Q1007",
      "tafRaw": "TAF LIPH 031700Z 0318/0418 VRB06KT 6000 SCT020 \n  BECMG 0406/0408 04012KT RA BKN004 BKN015",
      "minima": {
        "best": {
          "cig_ft": 135,
          "vis_m": 400
        },
        "alt": {
          "cig_ft": 230,
          "vis_m": 550
        },
        "wind": {
          "threshold_kt": 29,
          "use_gust": false,
          "apply": true
        },
        "approach_category": null
      }
    },
    {
      "icao": "LIPR",
      "iata": "RMI",
      "name": "Federico Fellini International Airport",
      "lat": 44.020024,
      "lon": 12.612198,
      "updatedAt": "031750Z",
      "visibility_m": 8000,
      "taf_visibility_m": 3000,
      "worst_visibility_m": 3000,
      "ceiling_ft": 1000,
      "hazards": [
        "RA"
      ],
      "severityScore": 24,
      "metarRaw": "METAR LIPR 031750Z 31006KT 8000 SCT005 SCT030 07/07 Q1007",
      "tafRaw": "TAF LIPR 031700Z 0318/0418 32008KT 9999 BKN040 \n  TEMPO 0318/0418 3000 RA BKN010 BKN030",
      "minima": {
        "best": {
          "cig_ft": 250,
          "vis_m": 1300
        },
        "alt": {
          "cig_ft": 380,
          "vis_m": 1300
        },
        "wind": {
          "threshold_kt": 29,
          "use_gust": false,
          "apply": true
        },
        "approach_category": null
      }
    },
    {
      "icao": "LIPY",
      "iata": "AOI",
      "name": "Marche Airport",
      "lat": 43.616299,
      "lon": 13.3623,
      "updatedAt": "031750Z",
      "visibility_m": 9000,
      "taf_visibility_m": 3000,
      "worst_visibility_m": 3000,
      "ceiling_ft": 1000,
      "hazards": [
        "RA"
      ],
      "severityScore": 24,
      "metarRaw": "METAR LIPY 031750Z AUTO VRB01KT 9000 -RA SCT029/// OVC063/// 11/10 Q1007 RERA",
      "tafRaw": "TAF LIPY 031700Z 0318/0418 VRB05KT 9999 SCT050 \n  TEMPO 0318/0418 3000 RA BKN010 BKN030",
      "minima": {
        "best": {
          "cig_ft": 250,
          "vis_m": 1000
        },
        "alt": {
          "cig_ft": 370,
          "vis_m": 1500
        },
        "wind": {
          "threshold_kt": 29,
          "use_gust": false,
          "apply": true
        },
        "approach_category": null
      }
    },
    {
      "icao": "EPWR",
      "iata": "WRO",
      "name": "Copernicus Wrocław Airport",
      "lat": 51.103719,
      "lon": 16.882096,
      "updatedAt": "031730Z",
      "visibility_m": 10000,
      "taf_visibility_m": null,
      "worst_visibility_m": 10000,
      "ceiling_ft": 2700,
      "hazards": [
        "SN"
      ],
      "severityScore": 23,
      "metarRaw": "METAR EPWR 031730Z 09008KT 9999 -SN FEW007 BKN027 M04/M09 Q1011",
      "tafRaw": null,
      "minima": {
        "best": {
          "cig_ft": 102,
          "vis_m": 300
        },
        "alt": {
          "cig_ft": 200,
          "vis_m": 550
        },
        "wind": {
          "threshold_kt": 29,
          "use_gust": false,
          "apply": true
        },
        "approach_category": null
      }
    },
    {
      "icao": "EGPF",
      "iata": "GLA",
      "name": "Glasgow Airport",
      "lat": 55.871899,
      "lon": -4.43306,
      "updatedAt": "031750Z",
      "visibility_m": 10000,
      "taf_visibility_m": 6000,
      "worst_visibility_m": 6000,
      "ceiling_ft": 3500,
      "hazards": [
        "RA",
        "DZ"
      ],
      "severityScore": 22,
      "metarRaw": "METAR EGPF 031750Z AUTO 07012KT 9999 FEW019 OVC035 03/00 Q0998",
      "tafRaw": "TAF EGPF 031654Z 0318/0418 08012KT 9999 SCT020 \n  PROB30 \n  TEMPO 0318/0403 8000 -RADZ \n  PROB30 \n  TEMPO 0321/0403 BKN014 \n  TEMPO 0403/0418 6000 -RADZ RA BKN014 \n  PROB30 \n  TEMPO 0403/0418 BKN008",
      "minima": {
        "best": {
          "cig_ft": 0,
          "vis_m": 75
        },
        "alt": {
          "cig_ft": 100,
          "vis_m": 300
        },
        "wind": {
          "threshold_kt": 29,
          "use_gust": false,
          "apply": true
        },
        "approach_category": null
      }
    },
    {
      "icao": "EHBK",
      "iata": "MST",
      "name": "Maastricht Aachen Airport",
      "lat": 50.911701,
      "lon": 5.77014,
      "updatedAt": "031755Z",
      "visibility_m": 10000,
      "taf_visibility_m": 6000,
      "worst_visibility_m": 6000,
      "ceiling_ft": 3400,
      "hazards": [
        "RA",
        "DZ"
      ],
      "severityScore": 22,
      "metarRaw": "METAR EHBK 031755Z AUTO 20012KT 9999 FEW024 BKN034 BKN045 08/06 Q0996 NOSIG",
      "tafRaw": "TAF EHBK 031710Z 0318/0424 18008KT 9999 BKN045 \n  PROB30 \n  TEMPO 0318/0321 6000 RADZ BKN012",
      "minima": {
        "best": {
          "cig_ft": 0,
          "vis_m": 75
        },
        "alt": {
          "cig_ft": 100,
          "vis_m": 300
        },
        "wind": {
          "threshold_kt": 29,
          "use_gust": false,
          "apply": true
        },
        "approach_category": null
      }
    },
    {
      "icao": "LEZG",
      "iata": "ZAZ",
      "name": "Zaragoza Airport",
      "lat": 41.666199,
      "lon": -1.04155,
      "updatedAt": "031730Z",
      "visibility_m": 10000,
      "taf_visibility_m": 2000,
      "worst_visibility_m": 2000,
      "ceiling_ft": 2000,
      "hazards": [
        "BR",
        "RA"
      ],
      "severityScore": 22,
      "metarRaw": "METAR LEZG 031730Z 15004KT 110V170 9999 FEW085 09/06 Q1000 NOSIG",
      "tafRaw": "TAF LEZG 031700Z 0318/0418 23008KT 9999 FEW020 TX12/0414Z TN05/0406Z \n  TEMPO 0402/0408 2000 RA BR BKN020 FEW030TCU \n  TEMPO 0412/0418 25015G30KT",
      "minima": {
        "best": {
          "cig_ft": 0,
          "vis_m": 75
        },
        "alt": {
          "cig_ft": 100,
          "vis_m": 400
        },
        "wind": {
          "threshold_kt": 29,
          "use_gust": false,
          "apply": true
        },
        "approach_category": null
      }
    },
    {
      "icao": "LIBR",
      "iata": "BDS",
      "name": "Brindisi Airport",
      "lat": 40.6576,
      "lon": 17.947001,
      "updatedAt": "031750Z",
      "visibility_m": 10000,
      "taf_visibility_m": 10000,
      "worst_visibility_m": 10000,
      "ceiling_ft": 2000,
      "hazards": [
        "BR",
        "RA"
      ],
      "severityScore": 22,
      "metarRaw": "METAR LIBR 031750Z 17011KT 9999 BKN020 14/12 Q1012",
      "tafRaw": "TAF LIBR 031700Z 0318/0418 16025G35KT 9999 SCT030 \n  BECMG 0406/0408 16035G45KT \n  TEMPO 0412/0418 RA",
      "minima": {
        "best": {
          "cig_ft": 260,
          "vis_m": 1500
        },
        "alt": {
          "cig_ft": 580,
          "vis_m": 1900
        },
        "wind": {
          "threshold_kt": 29,
          "use_gust": false,
          "apply": true
        },
        "approach_category": null
      }
    },
    {
      "icao": "LJLJ",
      "iata": "LJU",
      "name": "Ljubljana Jože Pučnik Airport",
      "lat": 46.223701,
      "lon": 14.4576,
      "updatedAt": "031730Z",
      "visibility_m": 5000,
      "taf_visibility_m": 3500,
      "worst_visibility_m": 3500,
      "ceiling_ft": 2300,
      "hazards": [
        "BR",
        "RA"
      ],
      "severityScore": 22,
      "metarRaw": "METAR LJLJ 031730Z 00000KT 5000 -RA BR FEW003 BKN023 OVC040 03/03 Q1007 NOSIG",
      "tafRaw": "TAF LJLJ 031700Z 0318/0418 11002KT 7000 -RA FEW004 OVC020 \n  BECMG 0318/0320 NSW \n  PROB30 \n  TEMPO 0320/0402 3500 -RA BR BKN007 OVC020 \n  BECMG 0402/0404 -RA \n  TEMPO 0404/0418 3500 RA BR BKN010 OVC025",
      "minima": {
        "best": {
          "cig_ft": 0,
          "vis_m": 125
        },
        "alt": {
          "cig_ft": 100,
          "vis_m": 300
        },
        "wind": {
          "threshold_kt": 29,
          "use_gust": false,
          "apply": true
        },
        "approach_category": null
      }
    },
    {
      "icao": "LQBK",
      "iata": "BNX",
      "name": "Banja Luka International Airport",
      "lat": 44.941399,
      "lon": 17.297501,
      "updatedAt": "031730Z",
      "visibility_m": 10000,
      "taf_visibility_m": 4000,
      "worst_visibility_m": 4000,
      "ceiling_ft": null,
      "hazards": [
        "BR",
        "RA"
      ],
      "severityScore": 22,
      "metarRaw": "METAR LQBK 031730Z 31003KT CAVOK 05/03 Q1008 NOSIG",
      "tafRaw": "TAF LQBK 031700Z 0318/0418 VRB03KT 9999 SCT045 TX11/0414Z TN04/0406Z \n  PROB40 \n  TEMPO 0322/0411 4000 -RA BR \n  TEMPO 0412/0418 15010KT",
      "minima": {
        "best": {
          "cig_ft": 200,
          "vis_m": 550
        },
        "alt": {
          "cig_ft": 350,
          "vis_m": 900
        },
        "wind": {
          "threshold_kt": 29,
          "use_gust": false,
          "apply": true
        },
        "approach_category": null
      }
    },
    {
      "icao": "HESX",
      "iata": "SPX",
      "name": "Sphinx International Airport",
      "lat": 30.108179,
      "lon": 30.895728,
      "updatedAt": "031700Z",
      "visibility_m": 10000,
      "taf_visibility_m": 1500,
      "worst_visibility_m": 1500,
      "ceiling_ft": null,
      "hazards": [
        "BR"
      ],
      "severityScore": 20,
      "metarRaw": "METAR HESX 031700Z 35008KT CAVOK 17/07 Q1022 NOSIG",
      "tafRaw": "TAF HESX 031700Z 0318/0424 28010KT CAVOK \n  TEMPO 0400/0407 VRB03KT 4000 HZ \n  PROB30 \n  TEMPO 0401/0406 1500 BR NSC",
      "minima": {
        "best": {
          "cig_ft": 230,
          "vis_m": 550
        },
        "alt": {
          "cig_ft": 310,
          "vis_m": 750
        },
        "wind": {
          "threshold_kt": 29,
          "use_gust": false,
          "apply": true
        },
        "approach_category": null
      }
    },
    {
      "icao": "EDDH",
      "iata": "HAM",
      "name": "Hamburg Helmut Schmidt Airport",
      "lat": 53.630402,
      "lon": 9.98823,
      "updatedAt": "031750Z",
      "visibility_m": 10000,
      "taf_visibility_m": 3500,
      "worst_visibility_m": 3500,
      "ceiling_ft": 3200,
      "hazards": [
        "SN"
      ],
      "severityScore": 18,
      "metarRaw": "METAR EDDH 031750Z AUTO 09014KT 070V130 9999 OVC032 M04/M11 Q1008 TEMPO 10015G25KT",
      "tafRaw": "TAF EDDH 031700Z 0318/0424 09013KT 9999 BKN035 \n  TEMPO 0318/0324 10015G25KT \n  TEMPO 0403/0410 3500 -SN BKN012 \n  PROB40 \n  TEMPO 0403/0412 BKN008 \n  TEMPO 0410/0424 BKN012",
      "minima": {
        "best": {
          "cig_ft": 0,
          "vis_m": 75
        },
        "alt": {
          "cig_ft": 147,
          "vis_m": 450
        },
        "wind": {
          "threshold_kt": 29,
          "use_gust": false,
          "apply": true
        },
        "approach_category": null
      }
    },
    {
      "icao": "EFTU",
      "iata": "TKU",
      "name": "Turku Airport",
      "lat": 60.514099,
      "lon": 22.2628,
      "updatedAt": "031750Z",
      "visibility_m": 10000,
      "taf_visibility_m": 6000,
      "worst_visibility_m": 6000,
      "ceiling_ft": 3100,
      "hazards": [
        "SN"
      ],
      "severityScore": 18,
      "metarRaw": "METAR EFTU 031750Z AUTO VRB01KT 9999 OVC031 M13/M14 Q1029",
      "tafRaw": "TAF EFTU 031735Z 0318/0418 VRB01KT 9999 OVC030 \n  PROB40 \n  TEMPO 0318/0320 6000 -SN",
      "minima": {
        "best": {
          "cig_ft": 200,
          "vis_m": 550
        },
        "alt": {
          "cig_ft": 300,
          "vis_m": 650
        },
        "wind": {
          "threshold_kt": 29,
          "use_gust": false,
          "apply": true
        },
        "approach_category": null
      }
    },
    {
      "icao": "ENGM",
      "iata": "OSL",
      "name": "Oslo-Gardermoen International Airport",
      "lat": 60.193901,
      "lon": 11.1004,
      "updatedAt": "031750Z",
      "visibility_m": 10000,
      "taf_visibility_m": 10000,
      "worst_visibility_m": 10000,
      "ceiling_ft": 2200,
      "hazards": [
        "SN"
      ],
      "severityScore": 18,
      "metarRaw": "METAR ENGM 031750Z 04004KT 9999 -SN OVC022 M08/M10 Q1025 NOSIG",
      "tafRaw": "TAF ENGM 031700Z 0318/0418 02005KT 9999 -SN BKN020",
      "minima": {
        "best": {
          "cig_ft": 0,
          "vis_m": 75
        },
        "alt": {
          "cig_ft": 100,
          "vis_m": 300
        },
        "wind": {
          "threshold_kt": 29,
          "use_gust": false,
          "apply": true
        },
        "approach_category": null
      }
    },
    {
      "icao": "ESSA",
      "iata": "ARN",
      "name": "Stockholm-Arlanda Airport",
      "lat": 59.64849,
      "lon": 17.928829,
      "updatedAt": "031750Z",
      "visibility_m": 10000,
      "taf_visibility_m": 4000,
      "worst_visibility_m": 4000,
      "ceiling_ft": null,
      "hazards": [
        "SN"
      ],
      "severityScore": 18,
      "metarRaw": "METAR ESSA 031750Z 02006KT CAVOK M12/M13 Q1028 NOSIG",
      "tafRaw": "TAF ESSA 031730Z 0318/0418 03005KT 9999 SCT025 \n  PROB40 0410/0414 4000 -SN",
      "minima": {
        "best": {
          "cig_ft": 0,
          "vis_m": 75
        },
        "alt": {
          "cig_ft": 100,
          "vis_m": 300
        },
        "wind": {
          "threshold_kt": 29,
          "use_gust": false,
          "apply": true
        },
        "approach_category": null
      }
    },
    {
      "icao": "GMMN",
      "iata": "CMN",
      "name": "Mohammed V International Airport",
      "lat": 33.3675,
      "lon": -7.58997,
      "updatedAt": "031730Z",
      "visibility_m": 5000,
      "taf_visibility_m": 3000,
      "worst_visibility_m": 3000,
      "ceiling_ft": 2000,
      "hazards": [
        "RA"
      ],
      "severityScore": 12,
      "metarRaw": "METAR GMMN 031730Z 23013KT 5000 -RA SCT016TCU BKN020 13/11 Q1013 NOSIG",
      "tafRaw": "TAF GMMN 031700Z 0318/0424 23015KT 8000 SCT016TCU BKN020 \n  TEMPO 0318/0406 22018G29KT 3000 RA SCT010 SCT016TCU BKN020 \n  BECMG 0412/0415 18017KT BKN020 SCT100",
      "minima": {
        "best": {
          "cig_ft": 0,
          "vis_m": 200
        },
        "alt": {
          "cig_ft": 135,
          "vis_m": 400
        },
        "wind": {
          "threshold_kt": 29,
          "use_gust": false,
          "apply": true
        },
        "approach_category": null
      }
    },
    {
      "icao": "EDDK",
      "iata": "CGN",
      "name": "Cologne Bonn Airport",
      "lat": 50.865898,
      "lon": 7.14274,
      "updatedAt": "031750Z",
      "visibility_m": 10000,
      "taf_visibility_m": 10000,
      "worst_visibility_m": 10000,
      "ceiling_ft": 4600,
      "hazards": [
        "RA"
      ],
      "severityScore": 12,
      "metarRaw": "METAR EDDK 031750Z AUTO 13014KT 9999 FEW033 BKN046 02/00 Q0999 NOSIG",
      "tafRaw": "TAF EDDK 031700Z 0318/0424 12009KT 9999 BKN025 \n  PROB40 \n  TEMPO 0318/0320 RA",
      "minima": {
        "best": {
          "cig_ft": 0,
          "vis_m": 75
        },
        "alt": {
          "cig_ft": 100,
          "vis_m": 300
        },
        "wind": {
          "threshold_kt": 29,
          "use_gust": false,
          "apply": true
        },
        "approach_category": null
      }
    },
    {
      "icao": "EDLW",
      "iata": "DTM",
      "name": "Dortmund Airport",
      "lat": 51.518299,
      "lon": 7.61224,
      "updatedAt": "031750Z",
      "visibility_m": 10000,
      "taf_visibility_m": 4500,
      "worst_visibility_m": 4500,
      "ceiling_ft": 3000,
      "hazards": [
        "RA"
      ],
      "severityScore": 12,
      "metarRaw": "METAR EDLW 031750Z 06008KT 9999 FEW017 SCT026 OVC030 02/01 Q0998",
      "tafRaw": "TAF EDLW 031700Z 0318/0418 10007KT 9999 BKN025 \n  PROB30 \n  TEMPO 0318/0323 4500 RA BKN014",
      "minima": {
        "best": {
          "cig_ft": 100,
          "vis_m": 300
        },
        "alt": {
          "cig_ft": 200,
          "vis_m": 550
        },
        "wind": {
          "threshold_kt": 29,
          "use_gust": false,
          "apply": true
        },
        "approach_category": null
      }
    },
    {
      "icao": "LEBB",
      "iata": "BIO",
      "name": "Bilbao Airport",
      "lat": 43.301102,
      "lon": -2.91061,
      "updatedAt": "031730Z",
      "visibility_m": 10000,
      "taf_visibility_m": 3000,
      "worst_visibility_m": 3000,
      "ceiling_ft": null,
      "hazards": [
        "RA"
      ],
      "severityScore": 12,
      "metarRaw": "METAR LEBB 031730Z 17008KT 120V250 9999 FEW040 SCT065 13/03 Q0996 NOSIG",
      "tafRaw": "TAF LEBB 031700Z 0318/0418 20009KT 9999 FEW040 TX17/0414Z TN07/0406Z \n  PROB30 \n  TEMPO 0318/0323 21015G25KT \n  PROB40 \n  TEMPO 0400/0406 14010KT \n  PROB30 \n  TEMPO 0404/0407 RA \n  PROB40 \n  TEMPO 0406/0418 19016G28KT \n  PROB30 \n  TEMPO 0412/0418 28010KT 3000 RA",
      "minima": {
        "best": {
          "cig_ft": 300,
          "vis_m": 650
        },
        "alt": {
          "cig_ft": 680,
          "vis_m": 2400
        },
        "wind": {
          "threshold_kt": 29,
          "use_gust": false,
          "apply": true
        },
        "approach_category": null
      }
    },
    {
      "icao": "LEVC",
      "iata": "VLC",
      "name": "Valencia Airport",
      "lat": 39.4893,
      "lon": -0.481625,
      "updatedAt": "031730Z",
      "visibility_m": 10000,
      "taf_visibility_m": 10000,
      "worst_visibility_m": 10000,
      "ceiling_ft": 3000,
      "hazards": [
        "RA"
      ],
      "severityScore": 12,
      "metarRaw": "METAR LEVC 031730Z 24010KT 9999 FEW025 12/04 Q1002 NOSIG",
      "tafRaw": "TAF LEVC 031700Z 0318/0418 22007KT 9999 FEW030 TX19/0413Z TN08/0406Z \n  TEMPO 0402/0408 RA BKN030 \n  BECMG 0409/0411 29014KT \n  TEMPO 0411/0417 29020G30KT",
      "minima": {
        "best": {
          "cig_ft": 210,
          "vis_m": 550
        },
        "alt": {
          "cig_ft": 320,
          "vis_m": 700
        },
        "wind": {
          "threshold_kt": 29,
          "use_gust": false,
          "apply": true
        },
        "approach_category": null
      }
    },
    {
      "icao": "LIBD",
      "iata": "BRI",
      "name": "Bari Karol Wojtyła International Airport",
      "lat": 41.138901,
      "lon": 16.760599,
      "updatedAt": "031750Z",
      "visibility_m": 10000,
      "taf_visibility_m": 10000,
      "worst_visibility_m": 10000,
      "ceiling_ft": null,
      "hazards": [
        "RA"
      ],
      "severityScore": 12,
      "metarRaw": "METAR LIBD 031750Z AUTO 18008KT 9999 FEW110/// BKN190/// 15/12 Q1009",
      "tafRaw": "TAF LIBD 031700Z 0318/0418 18012KT CAVOK \n  BECMG 0400/0402 16035G45KT \n  TEMPO 0412/0418 RA \n  BECMG 0415/0417 16018KT",
      "minima": {
        "best": {
          "cig_ft": 200,
          "vis_m": 550
        },
        "alt": {
          "cig_ft": 280,
          "vis_m": 600
        },
        "wind": {
          "threshold_kt": 29,
          "use_gust": false,
          "apply": true
        },
        "approach_category": null
      }
    },
    {
      "icao": "LIBP",
      "iata": "PSR",
      "name": "Abruzzo Airport",
      "lat": 42.431079,
      "lon": 14.182981,
      "updatedAt": "031750Z",
      "visibility_m": 10000,
      "taf_visibility_m": 10000,
      "worst_visibility_m": 10000,
      "ceiling_ft": null,
      "hazards": [
        "RA"
      ],
      "severityScore": 12,
      "metarRaw": "METAR LIBP 031750Z AUTO 04009KT 020V080 9999 BKN079/// 13/09 Q1006",
      "tafRaw": "TAF LIBP 031700Z 0318/0418 VRB05KT 9999 SCT050 \n  TEMPO 0402/0418 RA",
      "minima": {
        "best": {
          "cig_ft": 240,
          "vis_m": 800
        },
        "alt": {
          "cig_ft": 480,
          "vis_m": 1800
        },
        "wind": {
          "threshold_kt": 29,
          "use_gust": false,
          "apply": true
        },
        "approach_category": null
      }
    },
    {
      "icao": "LIMF",
      "iata": "TRN",
      "name": "Turin Airport",
      "lat": 45.200802,
      "lon": 7.64963,
      "updatedAt": "031750Z",
      "visibility_m": 10000,
      "taf_visibility_m": 4000,
      "worst_visibility_m": 4000,
      "ceiling_ft": 3000,
      "hazards": [
        "RA"
      ],
      "severityScore": 12,
      "metarRaw": "METAR LIMF 031750Z 19004KT 9999 SCT020 BKN030 03/01 Q1007",
      "tafRaw": "TAF LIMF 031700Z 0318/0418 VRB05KT 6000 SCT030 \n  BECMG 0408/0410 4000 RA \n  BECMG 0416/0418 6000 NSW",
      "minima": {
        "best": {
          "cig_ft": 0,
          "vis_m": 75
        },
        "alt": {
          "cig_ft": 100,
          "vis_m": 300
        },
        "wind": {
          "threshold_kt": 29,
          "use_gust": false,
          "apply": true
        },
        "approach_category": null
      }
    },
    {
      "icao": "LIMJ",
      "iata": "GOA",
      "name": "Genoa Cristoforo Colombo Airport",
      "lat": 44.412039,
      "lon": 8.840732,
      "updatedAt": "031750Z",
      "visibility_m": 10000,
      "taf_visibility_m": 4000,
      "worst_visibility_m": 4000,
      "ceiling_ft": 3000,
      "hazards": [
        "RA"
      ],
      "severityScore": 12,
      "metarRaw": "METAR LIMJ 031750Z 04016KT 9999 SCT026 SCT050 07/02 Q1006",
      "tafRaw": "TAF LIMJ 031700Z 0318/0418 35015KT 9999 BKN030 \n  TEMPO 0400/0418 36015G25KT \n  BECMG 0405/0407 4000 RA",
      "minima": {
        "best": {
          "cig_ft": 880,
          "vis_m": 2400
        },
        "alt": {
          "cig_ft": 1040,
          "vis_m": 2400
        },
        "wind": {
          "threshold_kt": 29,
          "use_gust": false,
          "apply": true
        },
        "approach_category": null
      }
    },
    {
      "icao": "LIPQ",
      "iata": "TRS",
      "name": "Trieste–Friuli Venezia Giulia Airport",
      "lat": 45.827499,
      "lon": 13.4722,
      "updatedAt": "031750Z",
      "visibility_m": 7000,
      "taf_visibility_m": 9000,
      "worst_visibility_m": 7000,
      "ceiling_ft": null,
      "hazards": [
        "RA"
      ],
      "severityScore": 12,
      "metarRaw": "METAR LIPQ 031750Z AUTO 07003KT 7000 OVC009/// 10/10 Q1007",
      "tafRaw": "TAF LIPQ 031700Z 0318/0418 VRB05KT 9000 SCT020 \n  BECMG 0406/0408 04012KT RA",
      "minima": {
        "best": {
          "cig_ft": 100,
          "vis_m": 300
        },
        "alt": {
          "cig_ft": 200,
          "vis_m": 550
        },
        "wind": {
          "threshold_kt": 29,
          "use_gust": false,
          "apply": true
        },
        "approach_category": null
      }
    },
    {
      "icao": "LPMA",
      "iata": "FNC",
      "name": "Cristiano Ronaldo International Airport",
      "lat": 32.697812,
      "lon": -16.774613,
      "updatedAt": "031730Z",
      "visibility_m": 10000,
      "taf_visibility_m": 10000,
      "worst_visibility_m": 10000,
      "ceiling_ft": 1400,
      "hazards": [],
      "severityScore": 12,
      "metarRaw": "METAR LPMA 031730Z 06005KT 010V110 9999 FEW015 20/13 Q1013",
      "tafRaw": "TAF LPMA 031700Z 0318/0418 VRB05KT 9999 SCT015 \n  BECMG 0402/0404 24013KT \n  TEMPO 0403/0412 24015G25KT BKN014 \n  PROB30 \n  TEMPO 0412/0418 24022G35KT",
      "minima": {
        "best": {
          "cig_ft": 300,
          "vis_m": 1200
        },
        "alt": {
          "cig_ft": 770,
          "vis_m": 2400
        },
        "wind": {
          "threshold_kt": 29,
          "use_gust": false,
          "apply": true
        },
        "approach_category": null
      }
    },
    {
      "icao": "LPPS",
      "iata": "PXO",
      "name": "Porto Santo Airport",
      "lat": 33.0733985901,
      "lon": -16.3500003815,
      "updatedAt": "031730Z",
      "visibility_m": 10000,
      "taf_visibility_m": 10000,
      "worst_visibility_m": 10000,
      "ceiling_ft": 1300,
      "hazards": [],
      "severityScore": 12,
      "metarRaw": "METAR LPPS 031730Z 28017KT 9999 BKN013 18/15 Q1014",
      "tafRaw": "TAF LPPS 031700Z 0318/0424 27017KT 9999 SCT015 \n  TEMPO 0318/0419 27020G33KT \n  BECMG 0419/0421 23012KT",
      "minima": {
        "best": {
          "cig_ft": 790,
          "vis_m": 2400
        },
        "alt": {
          "cig_ft": 850,
          "vis_m": 2400
        },
        "wind": {
          "threshold_kt": 29,
          "use_gust": false,
          "apply": true
        },
        "approach_category": null
      }
    },
    {
      "icao": "LQSA",
      "iata": "SJJ",
      "name": "Sarajevo International Airport",
      "lat": 43.8246,
      "lon": 18.331499,
      "updatedAt": "031730Z",
      "visibility_m": 10000,
      "taf_visibility_m": 10000,
      "worst_visibility_m": 10000,
      "ceiling_ft": 4500,
      "hazards": [
        "RA"
      ],
      "severityScore": 12,
      "metarRaw": "METAR LQSA 031730Z 14014KT 9999 BKN045 10/06 Q1010 NOSIG",
      "tafRaw": "TAF LQSA 031700Z 0318/0418 15015KT 9999 BKN045 TX12/0413Z TN05/0405Z \n  PROB40 \n  TEMPO 0318/0406 15005KT \n  TEMPO 0320/0409 RA \n  TEMPO 0406/0415 15015G25KT",
      "minima": {
        "best": {
          "cig_ft": 230,
          "vis_m": 550
        },
        "alt": {
          "cig_ft": 660,
          "vis_m": 2300
        },
        "wind": {
          "threshold_kt": 29,
          "use_gust": false,
          "apply": true
        },
        "approach_category": null
      }
    },
    {
      "icao": "LRIA",
      "iata": "IAS",
      "name": "Iaşi Airport",
      "lat": 47.180278,
      "lon": 27.620833,
      "updatedAt": "031730Z",
      "visibility_m": 10000,
      "taf_visibility_m": 10000,
      "worst_visibility_m": 10000,
      "ceiling_ft": 1500,
      "hazards": [],
      "severityScore": 12,
      "metarRaw": "METAR LRIA 031730Z 11008KT CAVOK M06/M11 Q1022",
      "tafRaw": "TAF LRIA 031700Z 0318/0403 12008KT CAVOK \n  BECMG 0400/0402 BKN015",
      "minima": {
        "best": {
          "cig_ft": 200,
          "vis_m": 550
        },
        "alt": {
          "cig_ft": 290,
          "vis_m": 750
        },
        "wind": {
          "threshold_kt": 29,
          "use_gust": false,
          "apply": true
        },
        "approach_category": null
      }
    },
    {
      "icao": "LRBC",
      "iata": "BCM",
      "name": "Bacău George Enescu International  Airport",
      "lat": 46.5219,
      "lon": 26.910299,
      "updatedAt": "031730Z",
      "visibility_m": 10000,
      "taf_visibility_m": 10000,
      "worst_visibility_m": 10000,
      "ceiling_ft": 1500,
      "hazards": [],
      "severityScore": 12,
      "metarRaw": "METAR LRBC 031730Z 14002KT CAVOK M05/M08 Q1020",
      "tafRaw": "TAF LRBC 031700Z 0318/0403 15006KT CAVOK \n  PROB30 \n  TEMPO 0400/0403 BKN015",
      "minima": {
        "best": {
          "cig_ft": 200,
          "vis_m": 550
        },
        "alt": {
          "cig_ft": 330,
          "vis_m": 800
        },
        "wind": {
          "threshold_kt": 29,
          "use_gust": false,
          "apply": true
        },
        "approach_category": null
      }
    },
    {
      "icao": "LRSV",
      "iata": "SCV",
      "name": "Suceava Stefan cel Mare Airport",
      "lat": 47.6875,
      "lon": 26.35409927368164,
      "updatedAt": "031730Z",
      "visibility_m": 10000,
      "taf_visibility_m": 10000,
      "worst_visibility_m": 10000,
      "ceiling_ft": 1500,
      "hazards": [],
      "severityScore": 12,
      "metarRaw": "METAR LRSV 031730Z 13008KT CAVOK M08/M11 Q1018",
      "tafRaw": "TAF LRSV 031700Z 0318/0403 15008KT CAVOK \n  PROB30 \n  TEMPO 0321/0403 BKN015",
      "minima": {
        "best": {
          "cig_ft": 100,
          "vis_m": 300
        },
        "alt": {
          "cig_ft": 200,
          "vis_m": 550
        },
        "wind": {
          "threshold_kt": 29,
          "use_gust": false,
          "apply": true
        },
        "approach_category": null
      }
    },
    {
      "icao": "LYBE",
      "iata": "BEG",
      "name": "Belgrade Nikola Tesla Airport",
      "lat": 44.818401,
      "lon": 20.309099,
      "updatedAt": "031730Z",
      "visibility_m": 10000,
      "taf_visibility_m": 10000,
      "worst_visibility_m": 10000,
      "ceiling_ft": null,
      "hazards": [
        "RA"
      ],
      "severityScore": 12,
      "metarRaw": "METAR LYBE 031730Z 13013KT CAVOK 07/00 Q1011 NOSIG",
      "tafRaw": "TAF LYBE 031700Z 0318/0418 12014KT CAVOK TX10/0412Z TN05/0406Z \n  TEMPO 0322/0406 RA",
      "minima": {
        "best": {
          "cig_ft": 0,
          "vis_m": 75
        },
        "alt": {
          "cig_ft": 100,
          "vis_m": 300
        },
        "wind": {
          "threshold_kt": 29,
          "use_gust": false,
          "apply": true
        },
        "approach_category": null
      }
    },
    {
      "icao": "BKPR",
      "iata": "PRN",
      "name": "Priština Adem Jashari International Airport",
      "lat": 42.5728,
      "lon": 21.035801,
      "updatedAt": null,
      "visibility_m": null,
      "taf_visibility_m": 3000,
      "worst_visibility_m": 3000,
      "ceiling_ft": null,
      "hazards": [
        "BR"
      ],
      "severityScore": 10,
      "metarRaw": null,
      "tafRaw": "TAF BKPR 031730Z 0318/0418 19010KT 9999 SCT040 \n  TEMPO 0403/0407 3000 BR",
      "minima": {
        "best": {
          "cig_ft": 0,
          "vis_m": 75
        },
        "alt": {
          "cig_ft": 100,
          "vis_m": 300
        },
        "wind": {
          "threshold_kt": 29,
          "use_gust": false,
          "apply": true
        },
        "approach_category": null
      }
    },
    {
      "icao": "ENBR",
      "iata": "BGO",
      "name": "Bergen Airport, Flesland",
      "lat": 60.2934,
      "lon": 5.21814,
      "updatedAt": "031750Z",
      "visibility_m": 10000,
      "taf_visibility_m": 10000,
      "worst_visibility_m": 10000,
      "ceiling_ft": null,
      "hazards": [
        "BR"
      ],
      "severityScore": 10,
      "metarRaw": "METAR ENBR 031750Z 09003KT CAVOK M04/M16 Q1017 NOSIG RMK WIND 1200FT 11013KT",
      "tafRaw": "TAF ENBR 031700Z 0318/0418 07005KT CAVOK",
      "minima": {
        "best": {
          "cig_ft": 110,
          "vis_m": 300
        },
        "alt": {
          "cig_ft": 200,
          "vis_m": 750
        },
        "wind": {
          "threshold_kt": 29,
          "use_gust": false,
          "apply": true
        },
        "approach_category": null
      }
    },
    {
      "icao": "GCLP",
      "iata": "LPA",
      "name": "Gran Canaria Airport",
      "lat": 27.9319,
      "lon": -15.3866,
      "updatedAt": "031730Z",
      "visibility_m": 10000,
      "taf_visibility_m": null,
      "worst_visibility_m": 10000,
      "ceiling_ft": null,
      "hazards": [],
      "severityScore": 5,
      "metarRaw": "METAR GCLP 031730Z 18005KT 140V240 9999 SCT035 20/12 Q1018 NOSIG",
      "tafRaw": null,
      "minima": {
        "best": {
          "cig_ft": 300,
          "vis_m": 650
        },
        "alt": {
          "cig_ft": 330,
          "vis_m": 800
        },
        "wind": {
          "threshold_kt": 29,
          "use_gust": false,
          "apply": true
        },
        "approach_category": null
      }
    },
    {
      "icao": "LECH",
      "iata": "CDT",
      "name": "Castellón-Costa Azahar Airport",
      "lat": 40.213889,
      "lon": 0.073333,
      "updatedAt": "031730Z",
      "visibility_m": 10000,
      "taf_visibility_m": null,
      "worst_visibility_m": 10000,
      "ceiling_ft": null,
      "hazards": [],
      "severityScore": 5,
      "metarRaw": "METAR LECH 031730Z AUTO 23009KT CAVOK 10/03 Q1000",
      "tafRaw": null,
      "minima": {
        "best": {
          "cig_ft": 330,
          "vis_m": 1100
        },
        "alt": {
          "cig_ft": 380,
          "vis_m": 1100
        },
        "wind": {
          "threshold_kt": 29,
          "use_gust": false,
          "apply": true
        },
        "approach_category": null
      }
    },
    {
      "icao": "BIKF",
      "iata": "KEF",
      "name": "Keflavik International Airport",
      "lat": 63.985001,
      "lon": -22.6056,
      "updatedAt": "031730Z",
      "visibility_m": 10000,
      "taf_visibility_m": 10000,
      "worst_visibility_m": 10000,
      "ceiling_ft": 4400,
      "hazards": [],
      "severityScore": 0,
      "metarRaw": "METAR BIKF 031730Z 09016KT 9999 SCT024 BKN044 06/02 Q1008",
      "tafRaw": "TAF BIKF 031628Z 0318/0418 11018G28KT 9999 SCT018 BKN028 TX05/0318Z TN01/0406Z \n  BECMG 0318/0320 07015KT",
      "minima": {
        "best": {
          "cig_ft": 100,
          "vis_m": 300
        },
        "alt": {
          "cig_ft": 200,
          "vis_m": 550
        },
        "wind": {
          "threshold_kt": 29,
          "use_gust": false,
          "apply": true
        },
        "approach_category": null
      }
    },
    {
      "icao": "GCFV",
      "iata": "FUE",
      "name": "Fuerteventura Airport",
      "lat": 28.4527,
      "lon": -13.8638,
      "updatedAt": "031730Z",
      "visibility_m": 10000,
      "taf_visibility_m": 10000,
      "worst_visibility_m": 10000,
      "ceiling_ft": null,
      "hazards": [],
      "severityScore": 0,
      "metarRaw": "METAR GCFV 031730Z 32008KT 290V350 9999 SCT035 20/10 Q1017",
      "tafRaw": "TAF GCFV 031400Z 0315/0415 32010KT 9999 FEW030 TX22/0414Z TN16/0406Z \n  BECMG 0319/0321 26005KT",
      "minima": {
        "best": {
          "cig_ft": 260,
          "vis_m": 600
        },
        "alt": {
          "cig_ft": 450,
          "vis_m": 1400
        },
        "wind": {
          "threshold_kt": 29,
          "use_gust": false,
          "apply": true
        },
        "approach_category": null
      }
    },
    {
      "icao": "GMAD",
      "iata": "AGA",
      "name": "Al Massira Airport",
      "lat": 30.322478,
      "lon": -9.412003,
      "updatedAt": "031730Z",
      "visibility_m": 10000,
      "taf_visibility_m": 8000,
      "worst_visibility_m": 8000,
      "ceiling_ft": 23300,
      "hazards": [],
      "severityScore": 0,
      "metarRaw": "METAR GMAD 031730Z 26013KT 9999 FEW023 BKN233 16/13 Q1015 NOSIG",
      "tafRaw": "TAF GMAD 031700Z 0318/0424 26012KT 8000 SCT016 SCT080",
      "minima": {
        "best": {
          "cig_ft": 210,
          "vis_m": 550
        },
        "alt": {
          "cig_ft": 380,
          "vis_m": 1700
        },
        "wind": {
          "threshold_kt": 29,
          "use_gust": false,
          "apply": true
        },
        "approach_category": null
      }
    },
    {
      "icao": "GMMX",
      "iata": "RAK",
      "name": "Marrakesh Menara Airport",
      "lat": 31.604807,
      "lon": -8.035788,
      "updatedAt": "031730Z",
      "visibility_m": 10000,
      "taf_visibility_m": 8000,
      "worst_visibility_m": 8000,
      "ceiling_ft": 2600,
      "hazards": [],
      "severityScore": 0,
      "metarRaw": "METAR GMMX 031730Z 25006KT 9999 BKN026 BKN090 14/10 Q1014 NOSIG",
      "tafRaw": "TAF GMMX 031700Z 0318/0424 24006KT 8000 SCT023 SCT100 \n  TEMPO 0417/0421 30014KT",
      "minima": {
        "best": {
          "cig_ft": 320,
          "vis_m": 1000
        },
        "alt": {
          "cig_ft": 380,
          "vis_m": 1300
        },
        "wind": {
          "threshold_kt": 29,
          "use_gust": false,
          "apply": true
        },
        "approach_category": null
      }
    },
    {
      "icao": "EKCH",
      "iata": "CPH",
      "name": "Copenhagen Kastrup Airport",
      "lat": 55.617900848389,
      "lon": 12.656000137329,
      "updatedAt": "031750Z",
      "visibility_m": 10000,
      "taf_visibility_m": 10000,
      "worst_visibility_m": 10000,
      "ceiling_ft": 2500,
      "hazards": [],
      "severityScore": 0,
      "metarRaw": "METAR EKCH 031750Z AUTO 10018G28KT 9999 BKN028/// M01/M07 Q1017 TEMPO 10020G33KT",
      "tafRaw": "TAF EKCH 031727Z 0318/0418 10023G34KT 9999 BKN025 \n  TEMPO 0318/0418 09020KT",
      "minima": {
        "best": {
          "cig_ft": 0,
          "vis_m": 75
        },
        "alt": {
          "cig_ft": 100,
          "vis_m": 300
        },
        "wind": {
          "threshold_kt": 29,
          "use_gust": false,
          "apply": true
        },
        "approach_category": null
      }
    },
    {
      "icao": "ENAL",
      "iata": "AES",
      "name": "Ålesund Airport, Vigra",
      "lat": 62.5625,
      "lon": 6.1197,
      "updatedAt": "031750Z",
      "visibility_m": 10000,
      "taf_visibility_m": 10000,
      "worst_visibility_m": 10000,
      "ceiling_ft": 4700,
      "hazards": [],
      "severityScore": 0,
      "metarRaw": "METAR ENAL 031750Z 13015KT 9999 BKN047 M02/M12 Q1019",
      "tafRaw": "TAF ENAL 031700Z 0318/0403 13015KT 9999 SCT040",
      "minima": {
        "best": {
          "cig_ft": 230,
          "vis_m": 800
        },
        "alt": {
          "cig_ft": 250,
          "vis_m": 800
        },
        "wind": {
          "threshold_kt": 29,
          "use_gust": false,
          "apply": true
        },
        "approach_category": null
      }
    },
    {
      "icao": "ENHD",
      "iata": "HAU",
      "name": "Haugesund Airport, Karmøy",
      "lat": 59.345299,
      "lon": 5.20836,
      "updatedAt": "031750Z",
      "visibility_m": 10000,
      "taf_visibility_m": 10000,
      "worst_visibility_m": 10000,
      "ceiling_ft": null,
      "hazards": [],
      "severityScore": 0,
      "metarRaw": "METAR ENHD 031750Z 10024G36KT CAVOK M00/M11 Q1016",
      "tafRaw": "TAF ENHD 031400Z 0315/0323 09015KT CAVOK \n  TEMPO 0315/0323 10018G28KT",
      "minima": {
        "best": {
          "cig_ft": 200,
          "vis_m": 750
        },
        "alt": {
          "cig_ft": 280,
          "vis_m": 900
        },
        "wind": {
          "threshold_kt": 29,
          "use_gust": false,
          "apply": true
        },
        "approach_category": null
      }
    },
    {
      "icao": "ENTO",
      "iata": "TRF",
      "name": "Sandefjord Airport, Torp",
      "lat": 59.186699,
      "lon": 10.2586,
      "updatedAt": "031750Z",
      "visibility_m": 10000,
      "taf_visibility_m": 10000,
      "worst_visibility_m": 10000,
      "ceiling_ft": 2600,
      "hazards": [],
      "severityScore": 0,
      "metarRaw": "METAR ENTO 031750Z 07007KT 040V100 9999 OVC026 M04/M08 Q1024 NOSIG",
      "tafRaw": "TAF ENTO 031700Z 0318/0418 08010KT 9999 BKN025 \n  TEMPO 0318/0412 BKN014",
      "minima": {
        "best": {
          "cig_ft": 100,
          "vis_m": 300
        },
        "alt": {
          "cig_ft": 200,
          "vis_m": 550
        },
        "wind": {
          "threshold_kt": 29,
          "use_gust": false,
          "apply": true
        },
        "approach_category": null
      }
    },
    {
      "icao": "ENVA",
      "iata": "TRD",
      "name": "Trondheim Airport, Værnes",
      "lat": 63.457802,
      "lon": 10.924,
      "updatedAt": "031750Z",
      "visibility_m": 10000,
      "taf_visibility_m": 10000,
      "worst_visibility_m": 10000,
      "ceiling_ft": null,
      "hazards": [],
      "severityScore": 0,
      "metarRaw": "METAR ENVA 031750Z 08005KT CAVOK M10/M17 Q1022 NOSIG RMK WIND 670FT 13010KT",
      "tafRaw": "TAF ENVA 031700Z 0318/0418 09006KT CAVOK",
      "minima": {
        "best": {
          "cig_ft": 220,
          "vis_m": 800
        },
        "alt": {
          "cig_ft": 430,
          "vis_m": 1600
        },
        "wind": {
          "threshold_kt": 29,
          "use_gust": false,
          "apply": true
        },
        "approach_category": null
      }
    },
    {
      "icao": "ENZV",
      "iata": "SVG",
      "name": "Stavanger Airport, Sola",
      "lat": 58.876701,
      "lon": 5.63778,
      "updatedAt": "031750Z",
      "visibility_m": 10000,
      "taf_visibility_m": 10000,
      "worst_visibility_m": 10000,
      "ceiling_ft": null,
      "hazards": [],
      "severityScore": 0,
      "metarRaw": "METAR ENZV 031750Z 09022KT CAVOK M00/M09 Q1015 NOSIG",
      "tafRaw": "TAF ENZV 031700Z 0318/0418 09015KT CAVOK \n  PROB40 \n  TEMPO 0318/0415 10018G28KT",
      "minima": {
        "best": {
          "cig_ft": 100,
          "vis_m": 300
        },
        "alt": {
          "cig_ft": 200,
          "vis_m": 750
        },
        "wind": {
          "threshold_kt": 29,
          "use_gust": false,
          "apply": true
        },
        "approach_category": null
      }
    },
    {
      "icao": "EPSY",
      "iata": "SZY",
      "name": "Olsztyn-Mazury Airport",
      "lat": 53.481899,
      "lon": 20.9377,
      "updatedAt": "031730Z",
      "visibility_m": 10000,
      "taf_visibility_m": 10000,
      "worst_visibility_m": 10000,
      "ceiling_ft": null,
      "hazards": [],
      "severityScore": 0,
      "metarRaw": "METAR EPSY 031730Z 06004KT 350V090 CAVOK M13/M17 Q1020",
      "tafRaw": "TAF EPSY 031730Z 0318/0403 08005KT CAVOK",
      "minima": {
        "best": {
          "cig_ft": 116,
          "vis_m": 300
        },
        "alt": {
          "cig_ft": 200,
          "vis_m": 550
        },
        "wind": {
          "threshold_kt": 29,
          "use_gust": false,
          "apply": true
        },
        "approach_category": null
      }
    },
    {
      "icao": "ESGG",
      "iata": "GOT",
      "name": "Göteborg Landvetter Airport",
      "lat": 57.6628,
      "lon": 12.2798,
      "updatedAt": "031750Z",
      "visibility_m": 10000,
      "taf_visibility_m": 10000,
      "worst_visibility_m": 10000,
      "ceiling_ft": null,
      "hazards": [],
      "severityScore": 0,
      "metarRaw": "METAR ESGG 031750Z 07010KT CAVOK M04/M09 Q1020",
      "tafRaw": "TAF ESGG 031730Z 0318/0418 09010KT 9999 FEW020",
      "minima": {
        "best": {
          "cig_ft": 0,
          "vis_m": 75
        },
        "alt": {
          "cig_ft": 100,
          "vis_m": 300
        },
        "wind": {
          "threshold_kt": 29,
          "use_gust": false,
          "apply": true
        },
        "approach_category": null
      }
    },
    {
      "icao": "ESMS",
      "iata": "MMX",
      "name": "Malmö Sturup Airport",
      "lat": 55.535564,
      "lon": 13.376327,
      "updatedAt": "031750Z",
      "visibility_m": 10000,
      "taf_visibility_m": 10000,
      "worst_visibility_m": 10000,
      "ceiling_ft": 2100,
      "hazards": [],
      "severityScore": 0,
      "metarRaw": "METAR ESMS 031750Z 09018KT 9999 OVC021 M02/M06 Q1016",
      "tafRaw": "TAF ESMS 031727Z 0318/0418 09020KT 9999 BKN020 \n  TEMPO 0318/0409 10022G35KT BKN014 \n  TEMPO 0409/0418 09022G35KT",
      "minima": {
        "best": {
          "cig_ft": 100,
          "vis_m": 350
        },
        "alt": {
          "cig_ft": 200,
          "vis_m": 550
        },
        "wind": {
          "threshold_kt": 29,
          "use_gust": false,
          "apply": true
        },
        "approach_category": null
      }
    },
    {
      "icao": "EYPA",
      "iata": "PLQ",
      "name": "Palanga International Airport",
      "lat": 55.973202,
      "lon": 21.093901,
      "updatedAt": "031750Z",
      "visibility_m": 10000,
      "taf_visibility_m": 9000,
      "worst_visibility_m": 9000,
      "ceiling_ft": null,
      "hazards": [],
      "severityScore": 0,
      "metarRaw": "METAR EYPA 031750Z 07005KT CAVOK M10/M15 Q1025",
      "tafRaw": "TAF EYPA 031712Z 0318/0418 VRB04KT 9000 NSC \n  TEMPO 0321/0403 SCT005 \n  TEMPO 0408/0418 09012KT",
      "minima": {
        "best": {
          "cig_ft": 240,
          "vis_m": 550
        },
        "alt": {
          "cig_ft": 270,
          "vis_m": 900
        },
        "wind": {
          "threshold_kt": 29,
          "use_gust": false,
          "apply": true
        },
        "approach_category": null
      }
    },
    {
      "icao": "HEGN",
      "iata": "HRG",
      "name": "Hurghada International Airport",
      "lat": 27.176776,
      "lon": 33.796692,
      "updatedAt": null,
      "visibility_m": null,
      "taf_visibility_m": 10000,
      "worst_visibility_m": 10000,
      "ceiling_ft": null,
      "hazards": [],
      "severityScore": 0,
      "metarRaw": null,
      "tafRaw": "TAF HEGN 031700Z 0318/0424 32010G22KT CAVOK",
      "minima": {
        "best": {
          "cig_ft": 250,
          "vis_m": 550
        },
        "alt": {
          "cig_ft": 260,
          "vis_m": 750
        },
        "wind": {
          "threshold_kt": 29,
          "use_gust": false,
          "apply": true
        },
        "approach_category": null
      }
    },
    {
      "icao": "HEMA",
      "iata": "RMF",
      "name": "Marsa Alam International Airport",
      "lat": 25.555548,
      "lon": 34.59245,
      "updatedAt": "031700Z",
      "visibility_m": 6000,
      "taf_visibility_m": 4000,
      "worst_visibility_m": 4000,
      "ceiling_ft": null,
      "hazards": [],
      "severityScore": 0,
      "metarRaw": "METAR HEMA 031700Z 32009KT 6000 NSC 20/11 Q1019 NOSIG",
      "tafRaw": "TAF HEMA 031700Z 0318/0424 33008G20KT 6000 NSC \n  TEMPO 0318/0424 4000 SA",
      "minima": {
        "best": {
          "cig_ft": 350,
          "vis_m": 900
        },
        "alt": {
          "cig_ft": 390,
          "vis_m": 1400
        },
        "wind": {
          "threshold_kt": 29,
          "use_gust": false,
          "apply": true
        },
        "approach_category": null
      }
    },
    {
      "icao": "HESH",
      "iata": "SSH",
      "name": "Sharm El Sheikh International Airport",
      "lat": 27.977272,
      "lon": 34.394717,
      "updatedAt": "031700Z",
      "visibility_m": 10000,
      "taf_visibility_m": 10000,
      "worst_visibility_m": 10000,
      "ceiling_ft": null,
      "hazards": [],
      "severityScore": 0,
      "metarRaw": "METAR HESH 031700Z 35014KT CAVOK 21/08 Q1019 NOSIG",
      "tafRaw": "TAF HESH 031700Z 0318/0424 36013KT CAVOK",
      "minima": {
        "best": {
          "cig_ft": 250,
          "vis_m": 550
        },
        "alt": {
          "cig_ft": 270,
          "vis_m": 750
        },
        "wind": {
          "threshold_kt": 29,
          "use_gust": false,
          "apply": true
        },
        "approach_category": null
      }
    },
    {
      "icao": "LATI",
      "iata": "TIA",
      "name": "Tirana International Airport Mother Teresa",
      "lat": 41.4147,
      "lon": 19.7206,
      "updatedAt": "031750Z",
      "visibility_m": 10000,
      "taf_visibility_m": 10000,
      "worst_visibility_m": 10000,
      "ceiling_ft": null,
      "hazards": [],
      "severityScore": 0,
      "metarRaw": "METAR LATI 031750Z VRB03KT CAVOK 10/05 Q1015 NOSIG",
      "tafRaw": "TAF LATI 031700Z 0318/0418 VRB03KT CAVOK TX19/0413Z TN09/0406Z \n  BECMG 0414/0416 16012G25KT",
      "minima": {
        "best": {
          "cig_ft": 250,
          "vis_m": 550
        },
        "alt": {
          "cig_ft": 340,
          "vis_m": 800
        },
        "wind": {
          "threshold_kt": 29,
          "use_gust": false,
          "apply": true
        },
        "approach_category": null
      }
    },
    {
      "icao": "LCLK",
      "iata": "LCA",
      "name": "Larnaca International Airport",
      "lat": 34.875099,
      "lon": 33.624901,
      "updatedAt": "031730Z",
      "visibility_m": 10000,
      "taf_visibility_m": 10000,
      "worst_visibility_m": 10000,
      "ceiling_ft": null,
      "hazards": [],
      "severityScore": 0,
      "metarRaw": "METAR LCLK 031730Z 32010KT 9999 FEW040 14/07 Q1017 NOSIG",
      "tafRaw": "TAF LCLK 031730Z 0318/0418 29008KT CAVOK \n  BECMG 0409/0411 17010KT \n  BECMG 0415/0417 30006KT",
      "minima": {
        "best": {
          "cig_ft": 210,
          "vis_m": 1000
        },
        "alt": {
          "cig_ft": 290,
          "vis_m": 1000
        },
        "wind": {
          "threshold_kt": 29,
          "use_gust": false,
          "apply": true
        },
        "approach_category": null
      }
    },
    {
      "icao": "LCPH",
      "iata": "PFO",
      "name": "Paphos International Airport",
      "lat": 34.717999,
      "lon": 32.485699,
      "updatedAt": "031730Z",
      "visibility_m": 10000,
      "taf_visibility_m": 10000,
      "worst_visibility_m": 10000,
      "ceiling_ft": null,
      "hazards": [],
      "severityScore": 0,
      "metarRaw": "METAR LCPH 031730Z 01004KT 9999 FEW040 14/06 Q1018 NOSIG",
      "tafRaw": "TAF LCPH 031730Z 0318/0418 02009KT CAVOK \n  BECMG 0408/0410 30012KT \n  BECMG 0415/0417 02007KT",
      "minima": {
        "best": {
          "cig_ft": 200,
          "vis_m": 550
        },
        "alt": {
          "cig_ft": 310,
          "vis_m": 700
        },
        "wind": {
          "threshold_kt": 29,
          "use_gust": false,
          "apply": true
        },
        "approach_category": null
      }
    },
    {
      "icao": "LFSB",
      "iata": "BSL",
      "name": "EuroAirport Basel–Mulhouse–Freiburg",
      "lat": 47.60068,
      "lon": 7.521117,
      "updatedAt": "031730Z",
      "visibility_m": 10000,
      "taf_visibility_m": 10000,
      "worst_visibility_m": 10000,
      "ceiling_ft": null,
      "hazards": [],
      "severityScore": 0,
      "metarRaw": "METAR LFSB 031730Z AUTO 15006KT 9999 FEW048 07/04 Q1001 NOSIG",
      "tafRaw": "TAF LFSB 031700Z 0318/0418 16004KT CAVOK",
      "minima": {
        "best": {
          "cig_ft": 0,
          "vis_m": 75
        },
        "alt": {
          "cig_ft": 100,
          "vis_m": 300
        },
        "wind": {
          "threshold_kt": 29,
          "use_gust": false,
          "apply": true
        },
        "approach_category": null
      }
    },
    {
      "icao": "LGAV",
      "iata": "ATH",
      "name": "Athens Eleftherios Venizelos International Airport",
      "lat": 37.936401,
      "lon": 23.9445,
      "updatedAt": "031750Z",
      "visibility_m": 10000,
      "taf_visibility_m": 10000,
      "worst_visibility_m": 10000,
      "ceiling_ft": null,
      "hazards": [],
      "severityScore": 0,
      "metarRaw": "METAR LGAV 031750Z 26004KT 9999 FEW025 12/07 Q1020 NOSIG",
      "tafRaw": "TAF LGAV 031700Z 0318/0418 21010KT 9999 FEW025 \n  BECMG 0408/0410 20012G22KT",
      "minima": {
        "best": {
          "cig_ft": 100,
          "vis_m": 300
        },
        "alt": {
          "cig_ft": 200,
          "vis_m": 550
        },
        "wind": {
          "threshold_kt": 29,
          "use_gust": false,
          "apply": true
        },
        "approach_category": null
      }
    },
    {
      "icao": "LIBG",
      "iata": "TAR",
      "name": "Taranto-Grottaglie Marcello Arlotta Airport",
      "lat": 40.517502,
      "lon": 17.4032,
      "updatedAt": "031650Z",
      "visibility_m": 8000,
      "taf_visibility_m": 10000,
      "worst_visibility_m": 8000,
      "ceiling_ft": 2500,
      "hazards": [],
      "severityScore": 0,
      "metarRaw": "METAR LIBG 031650Z 15013KT 8000 SCT015 BKN025 15/13 Q1011",
      "tafRaw": "TAF LIBG 031700Z 0318/0403 17020G30KT 9999 FEW010 SCT020",
      "minima": null
    },
    {
      "icao": "LLBG",
      "iata": "TLV",
      "name": "Ben Gurion International Airport",
      "lat": 32.011398,
      "lon": 34.8867,
      "updatedAt": "031750Z",
      "visibility_m": 10000,
      "taf_visibility_m": 10000,
      "worst_visibility_m": 10000,
      "ceiling_ft": 3000,
      "hazards": [],
      "severityScore": 0,
      "metarRaw": "METAR LLBG 031750Z 28008KT 9999 FEW034 SCT048 16/10 Q1020 NOSIG",
      "tafRaw": "TAF LLBG 031703Z 0318/0418 28007KT 9999 SCT035 \n  BECMG 0320/0322 VRB03KT \n  PROB40 \n  TEMPO 0400/0407 14005KT BKN030 \n  BECMG 0407/0409 28010KT SCT040 \n  BECMG 0415/0417 VRB03KT CAVOK TX19/0412Z TN11/0404Z",
      "minima": {
        "best": {
          "cig_ft": 200,
          "vis_m": 550
        },
        "alt": {
          "cig_ft": 290,
          "vis_m": 650
        },
        "wind": {
          "threshold_kt": 29,
          "use_gust": false,
          "apply": true
        },
        "approach_category": null
      }
    },
    {
      "icao": "LQTZ",
      "iata": "TZL",
      "name": "Tuzla International Airport",
      "lat": 44.459858,
      "lon": 18.723627,
      "updatedAt": "031730Z",
      "visibility_m": 10000,
      "taf_visibility_m": 10000,
      "worst_visibility_m": 10000,
      "ceiling_ft": null,
      "hazards": [],
      "severityScore": 0,
      "metarRaw": "METAR LQTZ 031730Z 12006KT 100V210 9999 SCT060 11/08 Q1009",
      "tafRaw": "TAF LQTZ 031700Z 0318/0418 08005KT 9999 SCT055 TX14/0413Z TN06/0406Z \n  TEMPO 0406/0418 14010KT",
      "minima": {
        "best": {
          "cig_ft": 250,
          "vis_m": 550
        },
        "alt": {
          "cig_ft": 310,
          "vis_m": 700
        },
        "wind": {
          "threshold_kt": 29,
          "use_gust": false,
          "apply": true
        },
        "approach_category": null
      }
    },
    {
      "icao": "LRBV",
      "iata": "GHV",
      "name": "Brașov-Ghimbav International Airport",
      "lat": 45.70558,
      "lon": 25.522871,
      "updatedAt": "031730Z",
      "visibility_m": 10000,
      "taf_visibility_m": 10000,
      "worst_visibility_m": 10000,
      "ceiling_ft": null,
      "hazards": [],
      "severityScore": 0,
      "metarRaw": "METAR LRBV 031730Z VRB02KT CAVOK 02/M04 Q1015",
      "tafRaw": "TAF LRBV 031700Z 0318/0403 VRB04KT CAVOK",
      "minima": {
        "best": {
          "cig_ft": 200,
          "vis_m": 550
        },
        "alt": {
          "cig_ft": 440,
          "vis_m": 1300
        },
        "wind": {
          "threshold_kt": 29,
          "use_gust": false,
          "apply": true
        },
        "approach_category": null
      }
    },
    {
      "icao": "LRCV",
      "iata": "CRA",
      "name": "Craiova International Airport",
      "lat": 44.3181,
      "lon": 23.888599,
      "updatedAt": "031730Z",
      "visibility_m": 10000,
      "taf_visibility_m": 10000,
      "worst_visibility_m": 10000,
      "ceiling_ft": null,
      "hazards": [],
      "severityScore": 0,
      "metarRaw": "METAR LRCV 031730Z 11001KT CAVOK M06/M08 Q1021",
      "tafRaw": "TAF LRCV 031700Z 0318/0403 VRB04KT CAVOK",
      "minima": {
        "best": {
          "cig_ft": 100,
          "vis_m": 350
        },
        "alt": {
          "cig_ft": 200,
          "vis_m": 550
        },
        "wind": {
          "threshold_kt": 29,
          "use_gust": false,
          "apply": true
        },
        "approach_category": null
      }
    },
    {
      "icao": "LRSB",
      "iata": "SBZ",
      "name": "Sibiu International Airport",
      "lat": 45.785841,
      "lon": 24.086666,
      "updatedAt": "031730Z",
      "visibility_m": 10000,
      "taf_visibility_m": 10000,
      "worst_visibility_m": 10000,
      "ceiling_ft": 7000,
      "hazards": [],
      "severityScore": 0,
      "metarRaw": "METAR LRSB 031730Z 14004KT 100V200 9999 BKN070 02/M02 Q1014",
      "tafRaw": "TAF LRSB 031700Z 0318/0418 VRB04KT CAVOK \n  BECMG 0410/0412 14010KT",
      "minima": {
        "best": {
          "cig_ft": 142,
          "vis_m": 450
        },
        "alt": {
          "cig_ft": 200,
          "vis_m": 750
        },
        "wind": {
          "threshold_kt": 29,
          "use_gust": false,
          "apply": true
        },
        "approach_category": null
      }
    },
    {
      "icao": "LTFM",
      "iata": "IST",
      "name": "İstanbul Airport",
      "lat": 41.261297,
      "lon": 28.741951,
      "updatedAt": "031750Z",
      "visibility_m": 10000,
      "taf_visibility_m": 10000,
      "worst_visibility_m": 10000,
      "ceiling_ft": 2500,
      "hazards": [],
      "severityScore": 0,
      "metarRaw": "METAR LTFM 031750Z 10006KT 070V130 9999 BKN025 04/01 Q1023 NOSIG",
      "tafRaw": "TAF LTFM 031640Z 0318/0424 13005KT 9999 BKN022 \n  BECMG 0319/0322 SCT030 \n  BECMG 0322/0401 BKN020 \n  BECMG 0406/0409 07010KT CAVOK \n  BECMG 0421/0424 16010KT",
      "minima": {
        "best": {
          "cig_ft": 0,
          "vis_m": 75
        },
        "alt": {
          "cig_ft": 100,
          "vis_m": 300
        },
        "wind": {
          "threshold_kt": 29,
          "use_gust": false,
          "apply": true
        },
        "approach_category": null
      }
    },
    {
      "icao": "LWOH",
      "iata": "OHD",
      "name": "Ohrid St. Paul the Apostle Airport",
      "lat": 41.18,
      "lon": 20.7423,
      "updatedAt": "031750Z",
      "visibility_m": 10000,
      "taf_visibility_m": 10000,
      "worst_visibility_m": 10000,
      "ceiling_ft": 4000,
      "hazards": [],
      "severityScore": 0,
      "metarRaw": "METAR LWOH 031750Z 17006KT 140V200 9999 BKN040 09/05 Q1016",
      "tafRaw": "TAF LWOH 031750Z 0318/0418 VRB02KT 9999 BKN040",
      "minima": {
        "best": {
          "cig_ft": 840,
          "vis_m": 2400
        },
        "alt": {
          "cig_ft": 1070,
          "vis_m": 2400
        },
        "wind": {
          "threshold_kt": 29,
          "use_gust": false,
          "apply": true
        },
        "approach_category": null
      }
    },
    {
      "icao": "LWSK",
      "iata": "SKP",
      "name": "Skopje International Airport",
      "lat": 41.958087,
      "lon": 21.622581,
      "updatedAt": "031750Z",
      "visibility_m": 10000,
      "taf_visibility_m": 10000,
      "worst_visibility_m": 10000,
      "ceiling_ft": 2000,
      "hazards": [],
      "severityScore": 0,
      "metarRaw": "METAR LWSK 031750Z 08003KT 9999 FEW020 04/02 Q1018 NOSIG",
      "tafRaw": "TAF LWSK 031750Z 0318/0418 VRB02KT 9999 BKN020 \n  BECMG 0412/0418 16010KT",
      "minima": {
        "best": {
          "cig_ft": 220,
          "vis_m": 550
        },
        "alt": {
          "cig_ft": 1320,
          "vis_m": 2400
        },
        "wind": {
          "threshold_kt": 29,
          "use_gust": false,
          "apply": true
        },
        "approach_category": null
      }
    },
    {
      "icao": "LYNI",
      "iata": "INI",
      "name": "Niš Constantine the Great Airport",
      "lat": 43.336538,
      "lon": 21.856242,
      "updatedAt": "031730Z",
      "visibility_m": 10000,
      "taf_visibility_m": 10000,
      "worst_visibility_m": 10000,
      "ceiling_ft": 4700,
      "hazards": [],
      "severityScore": 0,
      "metarRaw": "METAR LYNI 031730Z 13005KT 110V170 9999 BKN047 08/01 Q1016 NOSIG",
      "tafRaw": "TAF LYNI 031700Z 0318/0418 11008KT 9999 BKN040 TX11/0413Z TN03/0406Z \n  TEMPO 0414/0418 09018KT",
      "minima": {
        "best": {
          "cig_ft": 310,
          "vis_m": 700
        },
        "alt": {
          "cig_ft": 360,
          "vis_m": 1200
        },
        "wind": {
          "threshold_kt": 29,
          "use_gust": false,
          "apply": true
        },
        "approach_category": null
      }
    },
    {
      "icao": "OEJN",
      "iata": "JED",
      "name": "King Abdulaziz International Airport",
      "lat": 21.6796,
      "lon": 39.156502,
      "updatedAt": "031700Z",
      "visibility_m": 10000,
      "taf_visibility_m": 4000,
      "worst_visibility_m": 4000,
      "ceiling_ft": null,
      "hazards": [],
      "severityScore": 0,
      "metarRaw": "METAR OEJN 031700Z 35013KT 9999 FEW040 26/19 Q1015 NOSIG",
      "tafRaw": "TAF OEJN 031700Z 0318/0424 01008KT 7000 NSC \n  PROB30 \n  TEMPO 0400/0404 4000 HZ \n  BECMG 0406/0408 32010KT",
      "minima": {
        "best": {
          "cig_ft": 200,
          "vis_m": 550
        },
        "alt": {
          "cig_ft": 420,
          "vis_m": 1200
        },
        "wind": {
          "threshold_kt": 29,
          "use_gust": false,
          "apply": true
        },
        "approach_category": null
      }
    },
    {
      "icao": "OEMA",
      "iata": "MED",
      "name": "Prince Mohammad Bin Abdulaziz Airport",
      "lat": 24.5534,
      "lon": 39.705101,
      "updatedAt": "031700Z",
      "visibility_m": 10000,
      "taf_visibility_m": 10000,
      "worst_visibility_m": 10000,
      "ceiling_ft": null,
      "hazards": [],
      "severityScore": 0,
      "metarRaw": "METAR OEMA 031700Z 25008KT 220V280 CAVOK 27/07 Q1017 NOSIG",
      "tafRaw": "TAF OEMA 031700Z 0318/0424 33006KT CAVOK \n  BECMG 0408/0410 09012KT",
      "minima": {
        "best": {
          "cig_ft": 210,
          "vis_m": 750
        },
        "alt": {
          "cig_ft": 660,
          "vis_m": 2300
        },
        "wind": {
          "threshold_kt": 29,
          "use_gust": false,
          "apply": true
        },
        "approach_category": null
      }
    },
    {
      "icao": "OMAA",
      "iata": "AUH",
      "name": "Zayed International Airport",
      "lat": 24.440966,
      "lon": 54.649237,
      "updatedAt": "031730Z",
      "visibility_m": 10000,
      "taf_visibility_m": 8000,
      "worst_visibility_m": 8000,
      "ceiling_ft": null,
      "hazards": [],
      "severityScore": 0,
      "metarRaw": "METAR OMAA 031730Z 03008KT CAVOK 21/12 Q1017 NOSIG",
      "tafRaw": "TAF OMAA 031700Z 0318/0500 07007KT 8000 NSC \n  BECMG 0403/0405 15012KT \n  BECMG 0416/0418 27008KT",
      "minima": {
        "best": {
          "cig_ft": 0,
          "vis_m": 75
        },
        "alt": {
          "cig_ft": 100,
          "vis_m": 300
        },
        "wind": {
          "threshold_kt": 29,
          "use_gust": false,
          "apply": true
        },
        "approach_category": null
      }
    }
  ],
  "stats": {
    "icaoCount": 159,
    "metarReturned": 156,
    "tafReturned": 155,
    "stationsWritten": 159,
    "missingMetar": 3,
    "missingTaf": 4
  },
  "errors": []
}