{
  "generatedAt": "2026-02-02T16:20:17.183Z",
  "stations": [
    {
      "icao": "EDFH",
      "iata": "HHN",
      "name": "Frankfurt-Hahn Airport",
      "lat": 49.946353,
      "lon": 7.261734,
      "updatedAt": "021550Z",
      "visibility_m": 6000,
      "taf_visibility_m": 300,
      "worst_visibility_m": 300,
      "ceiling_ft": 200,
      "hazards": [
        "FZFG",
        "BR",
        "FZRA",
        "FG",
        "RA"
      ],
      "severityScore": 100,
      "metarRaw": "METAR EDFH 021550Z 12012KT 080V160 6000 OVC002 00/00 Q0999",
      "tafRaw": "TAF EDFH 021100Z 0212/0312 13015G25KT 4500 BR SCT001 BKN003 \n  TEMPO 0212/0303 0300 FZFG VV001 \n  TEMPO 0303/0312 0800 FZRA OVC001"
    },
    {
      "icao": "LBPD",
      "iata": "PDV",
      "name": "Plovdiv International Airport",
      "lat": 42.067799,
      "lon": 24.8508,
      "updatedAt": "021600Z",
      "visibility_m": 10000,
      "taf_visibility_m": 500,
      "worst_visibility_m": 500,
      "ceiling_ft": 200,
      "hazards": [
        "FZFG",
        "BR",
        "SN",
        "FG"
      ],
      "severityScore": 100,
      "metarRaw": "METAR LBPD 021600Z AUTO 10005KT 9999 BKN039/// BKN067/// OVC078/// M00/M00 Q1013 NOSIG",
      "tafRaw": "TAF LBPD 021100Z 0212/0312 10010KT 7000 SCT005 BKN015 OVC060 \n  PROB30 \n  TEMPO 0212/0214 4000 -SN SCT004 BKN010 OVC040 \n  BECMG 0219/0221 VRB03KT 3000 BR SCT003 BKN005 OVC015 \n  PROB40 \n  TEMPO 0300/0306 0500 FZFG BKN002 OVC005"
    },
    {
      "icao": "LBSF",
      "iata": "SOF",
      "name": "Sofia Airport",
      "lat": 42.696357,
      "lon": 23.417671,
      "updatedAt": "021600Z",
      "visibility_m": 10000,
      "taf_visibility_m": 600,
      "worst_visibility_m": 600,
      "ceiling_ft": 500,
      "hazards": [
        "FZFG",
        "BR",
        "FG"
      ],
      "severityScore": 100,
      "metarRaw": "METAR LBSF 021600Z AUTO 13003KT 090V250 9999 OVC035/// M02/M06 Q1012 NOSIG",
      "tafRaw": "TAF LBSF 021100Z 0212/0312 VRB03KT 8000 SCT010 BKN020 OVC045 \n  BECMG 0218/0220 3000 BR SCT007 BKN015 \n  PROB40 \n  TEMPO 0301/0307 0600 FZFG SCT002 BKN005 \n  BECMG 0308/0310 10010KT 7000 NSW SCT015 BKN040"
    },
    {
      "icao": "LQTZ",
      "iata": "TZL",
      "name": "Tuzla International Airport",
      "lat": 44.459858,
      "lon": 18.723627,
      "updatedAt": "021600Z",
      "visibility_m": 10000,
      "taf_visibility_m": 300,
      "worst_visibility_m": 300,
      "ceiling_ft": 2000,
      "hazards": [
        "FZFG",
        "BR",
        "FG"
      ],
      "severityScore": 100,
      "metarRaw": "METAR LQTZ 021600Z 14004KT 100V170 9999 OVC020 02/M00 Q1011",
      "tafRaw": "TAF LQTZ 021100Z 0212/0312 10005KT 9999 SCT015 BKN030 TX04/0214Z TNM04/0305Z \n  BECMG 0217/0219 3000 BR \n  PROB40 \n  TEMPO 0220/0307 0300 FZFG BKN002 \n  BECMG 0308/0310 9999 NSW"
    },
    {
      "icao": "LZTT",
      "iata": "TAT",
      "name": "Poprad-Tatry Airport",
      "lat": 49.073601,
      "lon": 20.2411,
      "updatedAt": "021600Z",
      "visibility_m": 10000,
      "taf_visibility_m": 500,
      "worst_visibility_m": 500,
      "ceiling_ft": 1200,
      "hazards": [
        "FZFG",
        "BR",
        "SN",
        "FG"
      ],
      "severityScore": 100,
      "metarRaw": "METAR LZTT 021600Z 29001KT 9999 SCT012 BKN043 M03/M05 Q1008 BECMG BKN012",
      "tafRaw": "TAF LZTT 021115Z 0212/0312 VRB02KT 9999 FEW008 BKN017 \n  TEMPO 0212/0218 BKN008 \n  TEMPO 0220/0307 2500 -SN BR BKN004 \n  PROB40 \n  TEMPO 0301/0307 0500 FZFG OVC001"
    },
    {
      "icao": "UDSG",
      "iata": "LWN",
      "name": "Shirak International Airport",
      "lat": 40.750401,
      "lon": 43.859299,
      "updatedAt": "021600Z",
      "visibility_m": 1800,
      "taf_visibility_m": 200,
      "worst_visibility_m": 200,
      "ceiling_ft": 3000,
      "hazards": [
        "BR",
        "FZFG",
        "SN",
        "FG"
      ],
      "severityScore": 100,
      "metarRaw": "METAR UDSG 021600Z 35003KT 1800 R02/P2000U BR OVC030 00/00 Q1016 NOSIG",
      "tafRaw": "TAF UDSG 021100Z 0212/0312 VRB06KT 2000 BR OVC020 \n  TEMPO 0212/0221 0200 SN FZFG VV002"
    },
    {
      "icao": "UDYZ",
      "iata": "EVN",
      "name": "Zvartnots International Airport",
      "lat": 40.148941,
      "lon": 44.397887,
      "updatedAt": "021600Z",
      "visibility_m": 600,
      "taf_visibility_m": 800,
      "worst_visibility_m": 600,
      "ceiling_ft": 3000,
      "hazards": [
        "FG",
        "FZFG",
        "BR",
        "SN",
        "RA"
      ],
      "severityScore": 100,
      "metarRaw": "METAR UDYZ 021600Z 03003KT 0600 0500W R08/1400D FG BKN036CB 02/01 Q1016 NOSIG",
      "tafRaw": "TAF UDYZ 021100Z 0212/0312 24006KT 1500 BR BKN030 \n  TEMPO 0212/0221 VRB16KT 0800 SHRASN FZFG FEW007 BKN020CB"
    },
    {
      "icao": "LEZL",
      "iata": "SVQ",
      "name": "Sevilla Airport",
      "lat": 37.417999,
      "lon": -5.89311,
      "updatedAt": "021600Z",
      "visibility_m": 10000,
      "taf_visibility_m": 2000,
      "worst_visibility_m": 2000,
      "ceiling_ft": 1000,
      "hazards": [
        "BR",
        "TSRA",
        "SHRA",
        "TS",
        "RA"
      ],
      "severityScore": 98,
      "metarRaw": "METAR LEZL 021600Z 26015G27KT 230V300 9999 FEW049 16/06 Q1004 NOSIG",
      "tafRaw": "TAF LEZL 021400Z 0215/0315 23009KT 9999 SCT025 TX16/0215Z TN10/0307Z \n  PROB40 \n  TEMPO 0215/0222 23015G25KT 3000 SHRA FEW020CB \n  PROB40 \n  TEMPO 0217/0222 2000 TSRA SCT020CB \n  PROB30 \n  TEMPO 0300/0309 4000 BR BKN010"
    },
    {
      "icao": "LCLK",
      "iata": "LCA",
      "name": "Larnaca International Airport",
      "lat": 34.875099,
      "lon": 33.624901,
      "updatedAt": "021600Z",
      "visibility_m": 8000,
      "taf_visibility_m": 1500,
      "worst_visibility_m": 1500,
      "ceiling_ft": null,
      "hazards": [
        "TSRA",
        "SHRA",
        "TS",
        "RA"
      ],
      "severityScore": 86,
      "metarRaw": "METAR LCLK 021600Z 22010KT 8000 FEW030 16/13 Q1011 NOSIG",
      "tafRaw": "TAF LCLK 021130Z 0212/0312 22020KT 3000 DU FEW020 \n  PROB40 \n  TEMPO 0212/0214 1500 DU \n  PROB30 \n  TEMPO 0212/0218 22020G30KT \n  BECMG 0214/0216 9999 \n  PROB40 \n  TEMPO 0213/0218 5000 SHRA SCT025TCU FEW030CB \n  PROB30 \n  TEMPO 0213/0218 VRB15G25KT 3000 TSRA FEW030CB \n  BECMG 0217/0219 25009KT \n  BECMG 0310/0312 30016KT"
    },
    {
      "icao": "LPPR",
      "iata": "OPO",
      "name": "Francisco de Sá Carneiro Airport",
      "lat": 41.2481002808,
      "lon": -8.68138980865,
      "updatedAt": "021600Z",
      "visibility_m": 10000,
      "taf_visibility_m": 1500,
      "worst_visibility_m": 1500,
      "ceiling_ft": 800,
      "hazards": [
        "SHRA",
        "TS",
        "RA"
      ],
      "severityScore": 86,
      "metarRaw": "METAR LPPR 021600Z 25009KT 220V310 9999 FEW015 FEW018CB SCT030 12/07 Q0994",
      "tafRaw": "TAF LPPR 021100Z 0212/0312 25012KT 9999 FEW015 SCT025 \n  TEMPO 0212/0312 5000 SHRA BKN012 FEW018CB BKN030 \n  PROB40 \n  TEMPO 0212/0312 26017G32KT 1500 +TSRAGS BKN008 SCT015CB"
    },
    {
      "icao": "UAAA",
      "iata": "ALA",
      "name": "Almaty International Airport",
      "lat": 43.354267,
      "lon": 77.042828,
      "updatedAt": "021600Z",
      "visibility_m": 1600,
      "taf_visibility_m": 800,
      "worst_visibility_m": 800,
      "ceiling_ft": 20000,
      "hazards": [
        "BR",
        "FZFG",
        "FG"
      ],
      "severityScore": 85,
      "metarRaw": "METAR UAAA 021600Z VRB01MPS 1600 R05R/P2000 BR FU SCT100 BKN200 M01/M04 Q1019 NOSIG",
      "tafRaw": "TAF UAAA 021103Z 0212/0312 20003MPS 4000 BR FU SCT050 BKN100 TX06/0309Z TNM06/0302Z \n  TEMPO 0212/0216 1500 \n  TEMPO 0216/0302 0800 FZFG SCT011 BKN050 \n  TEMPO 0302/0306 1500 \n  FM030600 26003MPS 9999 SCT050 BKN100 \n  TEMPO 0306/0312 4000 FU"
    },
    {
      "icao": "LKPR",
      "iata": "PRG",
      "name": "Václav Havel Airport Prague",
      "lat": 50.100874,
      "lon": 14.259911,
      "updatedAt": "021600Z",
      "visibility_m": 6000,
      "taf_visibility_m": 900,
      "worst_visibility_m": 900,
      "ceiling_ft": 1800,
      "hazards": [
        "FZFG",
        "BR",
        "FG"
      ],
      "severityScore": 82,
      "metarRaw": "METAR LKPR 021600Z 08011KT 6000 FEW012 OVC018 M02/M03 Q1006 NOSIG",
      "tafRaw": "TAF LKPR 021400Z 0215/0321 08008KT 5000 BR SCT009 OVC012 \n  TEMPO 0215/0220 3500 BR BKN009 \n  BECMG 0220/0222 2500 BR OVC007 \n  TEMPO 0222/0308 0900 FZFG OVC004 \n  BECMG 0309/0311 12012KT 7000 BKN016"
    },
    {
      "icao": "LPFR",
      "iata": "FAO",
      "name": "Faro - Gago Coutinho International Airport",
      "lat": 37.015909,
      "lon": -7.970939,
      "updatedAt": "021600Z",
      "visibility_m": 10000,
      "taf_visibility_m": 3000,
      "worst_visibility_m": 3000,
      "ceiling_ft": 800,
      "hazards": [
        "SHRA",
        "TS",
        "RA"
      ],
      "severityScore": 76,
      "metarRaw": "METAR LPFR 021600Z 25019KT 9999 FEW012 FEW018CB 14/09 Q1004",
      "tafRaw": "TAF LPFR 021100Z 0212/0312 27020KT 9999 FEW018 SCT030 \n  TEMPO 0212/0312 26025G38KT 7000 SHRA BKN015 FEW020CB \n  PROB30 \n  TEMPO 0212/0224 3000 TSRAGS BKN008 BKN010 SCT018CB"
    },
    {
      "icao": "LPPT",
      "iata": "LIS",
      "name": "Lisbon Humberto Delgado Airport",
      "lat": 38.7813,
      "lon": -9.13592,
      "updatedAt": "021600Z",
      "visibility_m": 10000,
      "taf_visibility_m": 2000,
      "worst_visibility_m": 2000,
      "ceiling_ft": 800,
      "hazards": [
        "RA",
        "SHRA",
        "TS"
      ],
      "severityScore": 76,
      "metarRaw": "METAR LPPT 021600Z 25016KT 9999 FEW020 FEW025TCU 12/07 Q1000",
      "tafRaw": "TAF LPPT 021100Z 0212/0318 27013KT 9999 FEW018 SCT030 \n  TEMPO 0212/0316 5000 SHRA BKN015 FEW020CB BKN030 \n  TEMPO 0212/0218 26020G33KT \n  PROB30 \n  TEMPO 0212/0303 2000 TSRAGS BKN008 SCT018CB \n  BECMG 0316/0318 18010KT 6000 -RA SCT006 BKN012"
    },
    {
      "icao": "LTFM",
      "iata": "IST",
      "name": "İstanbul Airport",
      "lat": 41.261297,
      "lon": 28.741951,
      "updatedAt": "021550Z",
      "visibility_m": 8000,
      "taf_visibility_m": 3200,
      "worst_visibility_m": 3200,
      "ceiling_ft": 400,
      "hazards": [
        "SN",
        "RA",
        "SHSN"
      ],
      "severityScore": 75,
      "metarRaw": "METAR LTFM 021550Z 35022KT 8000 -SHSNRA BKN004 BKN022 02/01 Q1012 NOSIG RMK RWY17L 31022KT RWY34L 34021KT RWY16R 34017KT RWY36 35023KT RWY18 35023KT",
      "tafRaw": "TAF LTFM 021040Z 0212/0318 34024G34KT 9999 -SHRASN BKN007 BKN022 \n  BECMG 0212/0214 -SHSNRA \n  TEMPO 0214/0217 4000 -SHSN BKN004 BKN022 \n  BECMG 0217/0219 -SHSN \n  PROB30 \n  TEMPO 0219/0223 3200 SHSN BKN004 BKN022 \n  BECMG 0221/0224 34015KT \n  BECMG 0305/0308 36005KT \n  BECMG 0313/0315 SCT035"
    },
    {
      "icao": "EHEH",
      "iata": "EIN",
      "name": "Eindhoven Airport",
      "lat": 51.4500999451,
      "lon": 5.37452983856,
      "updatedAt": null,
      "visibility_m": null,
      "taf_visibility_m": 4000,
      "worst_visibility_m": 4000,
      "ceiling_ft": 600,
      "hazards": [
        "FZRA",
        "RA"
      ],
      "severityScore": 72,
      "metarRaw": null,
      "tafRaw": "TAF EHEH 021126Z 0212/0318 09010KT 9999 BKN030 \n  TEMPO 0212/0214 SCT015 \n  BECMG 0306/0308 BKN018 \n  PROB40 \n  TEMPO 0308/0313 4000 RA SCT006 BKN012 \n  PROB30 \n  TEMPO 0308/0312 FZRA \n  TEMPO 0316/0318 4000 RA SCT004 BKN006"
    },
    {
      "icao": "LQBK",
      "iata": "BNX",
      "name": "Banja Luka International Airport",
      "lat": 44.941399,
      "lon": 17.297501,
      "updatedAt": "021600Z",
      "visibility_m": 10000,
      "taf_visibility_m": 3000,
      "worst_visibility_m": 3000,
      "ceiling_ft": 1300,
      "hazards": [
        "BR",
        "FZRA",
        "RA"
      ],
      "severityScore": 69,
      "metarRaw": "METAR LQBK 021600Z VRB03KT 9999 OVC013 02/M01 Q1011 NOSIG",
      "tafRaw": "TAF LQBK 021100Z 0212/0312 07005KT 9999 BKN012 SCT035 TX04/0214Z TNM02/0305Z \n  BECMG 0215/0217 SCT020 \n  BECMG 0219/0221 3000 BR \n  PROB30 \n  TEMPO 0302/0305 -FZRA BR BKN007 \n  BECMG 0307/0309 9999 NSW"
    },
    {
      "icao": "LFSB",
      "iata": "BSL",
      "name": "EuroAirport Basel–Mulhouse–Freiburg",
      "lat": 47.60068,
      "lon": 7.521117,
      "updatedAt": "021600Z",
      "visibility_m": 10000,
      "taf_visibility_m": 500,
      "worst_visibility_m": 500,
      "ceiling_ft": 5800,
      "hazards": [
        "FG",
        "RA"
      ],
      "severityScore": 67,
      "metarRaw": "METAR LFSB 021600Z AUTO 07006KT 9999 OVC058 08/03 Q0998 NOSIG",
      "tafRaw": "TAF LFSB 021100Z 0212/0312 12005KT 9999 SCT040 BKN060 \n  TEMPO 0220/0223 4000 RA \n  PROB30 \n  TEMPO 0223/0308 0500 FG VV///"
    },
    {
      "icao": "EGPD",
      "iata": "ABZ",
      "name": "Aberdeen International Airport",
      "lat": 57.2019,
      "lon": -2.19778,
      "updatedAt": "021550Z",
      "visibility_m": 10000,
      "taf_visibility_m": 2000,
      "worst_visibility_m": 2000,
      "ceiling_ft": 600,
      "hazards": [
        "SN",
        "RA",
        "DZ"
      ],
      "severityScore": 65,
      "metarRaw": "METAR EGPD 021550Z AUTO 11012KT 090V160 9999 BKN009/// OVC018/// //////TCU 04/03 Q1005 TEMPO BKN006",
      "tafRaw": "TAF EGPD 021054Z 0212/0312 11013KT 9999 SCT012 BKN018 \n  TEMPO 0212/0312 12016G28KT \n  TEMPO 0212/0303 6000 -RADZ BKN008 \n  PROB40 \n  TEMPO 0212/0303 4000 RADZ BKN004 \n  TEMPO 0303/0312 4000 -RASN BKN008 \n  PROB40 \n  TEMPO 0306/0312 2000 RASN BKN004"
    },
    {
      "icao": "LQSA",
      "iata": "SJJ",
      "name": "Sarajevo International Airport",
      "lat": 43.8246,
      "lon": 18.331499,
      "updatedAt": "021600Z",
      "visibility_m": 10000,
      "taf_visibility_m": 1200,
      "worst_visibility_m": 1200,
      "ceiling_ft": 400,
      "hazards": [
        "FG"
      ],
      "severityScore": 65,
      "metarRaw": "METAR LQSA 021600Z 13003KT CAVOK 03/M01 Q1008 NOSIG",
      "tafRaw": "TAF LQSA 021100Z 0212/0312 VRB02KT 9999 SCT030 TX10/0312Z TNM03/0301Z \n  PROB40 \n  TEMPO 0218/0301 1200 BCFG BKN004 \n  PROB30 \n  TEMPO 0301/0308 14010KT \n  BECMG 0308/0310 13012KT \n  PROB40 \n  TEMPO 0310/0312 15015G25KT"
    },
    {
      "icao": "GMAD",
      "iata": "AGA",
      "name": "Al Massira Airport",
      "lat": 30.322478,
      "lon": -9.412003,
      "updatedAt": "021600Z",
      "visibility_m": 1000,
      "taf_visibility_m": null,
      "worst_visibility_m": 1000,
      "ceiling_ft": 300,
      "hazards": [
        "RA"
      ],
      "severityScore": 62,
      "metarRaw": "METAR GMAD 021600Z 32003KT 1000 R27/0650V0800D -RA BKN003 BKN016 15/15 Q1013 NOSIG",
      "tafRaw": null
    },
    {
      "icao": "LCPH",
      "iata": "PFO",
      "name": "Paphos International Airport",
      "lat": 34.717999,
      "lon": 32.485699,
      "updatedAt": "021600Z",
      "visibility_m": 10000,
      "taf_visibility_m": 2000,
      "worst_visibility_m": 2000,
      "ceiling_ft": null,
      "hazards": [
        "TSRA",
        "RA",
        "TS"
      ],
      "severityScore": 62,
      "metarRaw": "METAR LCPH 021600Z 26019KT 250V320 9999 SCT029 FEW036TCU SCT045 17/13 Q1012 NOSIG",
      "tafRaw": "TAF LCPH 021130Z 0212/0312 25020KT 2000 DU FEW020 \n  PROB30 \n  TEMPO 0212/0223 25020G30KT \n  TEMPO 0212/0306 5000 RA SCT025TCU FEW030CB \n  PROB30 \n  TEMPO 0212/0303 3000 TSRA SCT025CB \n  BECMG 0212/0214 9999 \n  BECMG 0223/0301 30018KT"
    },
    {
      "icao": "LFLS",
      "iata": "GNB",
      "name": "Grenoble Alpes Isère Airport",
      "lat": 45.3629,
      "lon": 5.32937,
      "updatedAt": "021600Z",
      "visibility_m": 10000,
      "taf_visibility_m": 2000,
      "worst_visibility_m": 2000,
      "ceiling_ft": 5000,
      "hazards": [
        "RA",
        "TSRA",
        "TS"
      ],
      "severityScore": 62,
      "metarRaw": "METAR LFLS 021600Z AUTO 28003KT 240V320 9999 -RA BKN060/// OVC072/// ///TCU 09/07 Q0997 BECMG BKN050",
      "tafRaw": "TAF LFLS 021400Z 0215/0315 21010KT 9999 BKN050 \n  TEMPO 0303/0305 19020G40KT 4000 RA SCT035CB BKN040 \n  PROB40 \n  TEMPO 0303/0305 19025G50KT \n  PROB30 \n  TEMPO 0303/0305 2000 +TSRA \n  TEMPO 0305/0309 19015G30KT RA BKN015 OVC030"
    },
    {
      "icao": "EGNM",
      "iata": "LBA",
      "name": "Leeds Bradford Airport",
      "lat": 53.865898,
      "lon": -1.66057,
      "updatedAt": "021550Z",
      "visibility_m": 1200,
      "taf_visibility_m": null,
      "worst_visibility_m": 1200,
      "ceiling_ft": 200,
      "hazards": [
        "BR"
      ],
      "severityScore": 60,
      "metarRaw": "METAR EGNM 021550Z 07008KT 1200 R14/P1500N BR OVC002 04/04 Q0998",
      "tafRaw": null
    },
    {
      "icao": "LEMD",
      "iata": "MAD",
      "name": "Adolfo Suárez Madrid–Barajas Airport",
      "lat": 40.471926,
      "lon": -3.56264,
      "updatedAt": "021600Z",
      "visibility_m": 4000,
      "taf_visibility_m": null,
      "worst_visibility_m": 4000,
      "ceiling_ft": 4500,
      "hazards": [
        "SHRA",
        "TS",
        "RA"
      ],
      "severityScore": 56,
      "metarRaw": "METAR LEMD 021600Z 21019KT 180V250 9999 VCTS VCSH SCT030CB BKN045 06/03 Q0996 TEMPO 4000 SHRA",
      "tafRaw": null
    },
    {
      "icao": "EYKA",
      "iata": "KUN",
      "name": "Kaunas International Airport",
      "lat": 54.963965,
      "lon": 24.08582,
      "updatedAt": "021550Z",
      "visibility_m": 10000,
      "taf_visibility_m": 1500,
      "worst_visibility_m": 1500,
      "ceiling_ft": 200,
      "hazards": [
        "BR"
      ],
      "severityScore": 55,
      "metarRaw": "METAR EYKA 021550Z 26002KT CAVOK M15/M18 Q1021",
      "tafRaw": "TAF EYKA 021100Z 0212/0312 VRB04KT 8000 NSC \n  BECMG 0215/0217 5000 BR \n  TEMPO 0217/0222 3000 SCT002 \n  TEMPO 0222/0306 1500 BKN002 \n  BECMG 0307/0310 8000 NSC"
    },
    {
      "icao": "LJLJ",
      "iata": "LJU",
      "name": "Ljubljana Jože Pučnik Airport",
      "lat": 46.223701,
      "lon": 14.4576,
      "updatedAt": "021600Z",
      "visibility_m": 10000,
      "taf_visibility_m": 10000,
      "worst_visibility_m": 10000,
      "ceiling_ft": 800,
      "hazards": [
        "RA",
        "SN"
      ],
      "severityScore": 55,
      "metarRaw": "METAR LJLJ 021600Z VRB01KT 9999 FEW030 SCT050 01/M02 Q1008 NOSIG",
      "tafRaw": "TAF LJLJ 021100Z 0212/0312 VRB02KT 9999 BKN025 \n  PROB40 \n  TEMPO 0301/0308 -RASN BKN010 OVC030 \n  TEMPO 0308/0312 -RA BKN008 OVC030"
    },
    {
      "icao": "LHBP",
      "iata": "BUD",
      "name": "Budapest Liszt Ferenc International Airport",
      "lat": 47.43018,
      "lon": 19.262393,
      "updatedAt": "021600Z",
      "visibility_m": 10000,
      "taf_visibility_m": 1400,
      "worst_visibility_m": 1400,
      "ceiling_ft": 900,
      "hazards": [
        "SN"
      ],
      "severityScore": 53,
      "metarRaw": "METAR LHBP 021600Z 13006KT 9999 BKN009 OVC014 01/M00 Q1011 NOSIG",
      "tafRaw": "TAF LHBP 021115Z 0212/0312 17006KT 9999 SCT008 OVC040 \n  TEMPO 0212/0304 BKN004 OVC025 \n  BECMG 0215/0218 12006KT \n  BECMG 0304/0308 10012KT 6000 -SN BKN008 OVC020 \n  TEMPO 0308/0312 1400 +SN VV003"
    },
    {
      "icao": "LHDC",
      "iata": "DEB",
      "name": "Debrecen International Airport",
      "lat": 47.488899,
      "lon": 21.615299,
      "updatedAt": "021545Z",
      "visibility_m": 9000,
      "taf_visibility_m": 2500,
      "worst_visibility_m": 2500,
      "ceiling_ft": 700,
      "hazards": [
        "BR",
        "SN"
      ],
      "severityScore": 53,
      "metarRaw": "METAR LHDC 021545Z AUTO 22008KT 9000 BKN007 M01/M02 Q1013 NOSIG",
      "tafRaw": "TAF LHDC 021415Z 0215/0224 VRB03KT 9999 BKN025 \n  TEMPO 0215/0217 4500 -SN BR BKN008 \n  TEMPO 0217/0224 2500 BR BKN008"
    },
    {
      "icao": "LRSM",
      "iata": "SUJ",
      "name": "Satu Mare International Airport",
      "lat": 47.7033,
      "lon": 22.8857,
      "updatedAt": "021600Z",
      "visibility_m": 7000,
      "taf_visibility_m": 3000,
      "worst_visibility_m": 3000,
      "ceiling_ft": 500,
      "hazards": [
        "SN",
        "BR"
      ],
      "severityScore": 53,
      "metarRaw": "METAR LRSM 021600Z 24008KT 7000 -SN OVC005 M00/M02 Q1013",
      "tafRaw": "TAF LRSM 021400Z 0215/0224 24006KT 9999 BKN010 OVC030 \n  TEMPO 0215/0218 5000 -SN BR BKN005 OVC020 \n  BECMG 0218/0220 3000 BR BKN005 OVC020"
    },
    {
      "icao": "LZIB",
      "iata": "BTS",
      "name": "M. R. Štefánik Airport",
      "lat": 48.1702,
      "lon": 17.2127,
      "updatedAt": "021600Z",
      "visibility_m": 6000,
      "taf_visibility_m": 2500,
      "worst_visibility_m": 2500,
      "ceiling_ft": 800,
      "hazards": [
        "BR",
        "SN"
      ],
      "severityScore": 53,
      "metarRaw": "METAR LZIB 021600Z 12010KT 6000 BKN008 BKN010 02/01 Q1009 NOSIG",
      "tafRaw": "TAF LZIB 021115Z 0212/0312 13004KT 9999 BKN017 \n  TEMPO 0212/0215 2500 BR BKN004 \n  TEMPO 0212/0220 BKN007 \n  BECMG 0213/0215 13012KT \n  TEMPO 0307/0312 12015G25KT 2500 SN BKN012"
    },
    {
      "icao": "LIMC",
      "iata": "MXP",
      "name": "Milan Malpensa International Airport",
      "lat": 45.6306,
      "lon": 8.72811,
      "updatedAt": "021550Z",
      "visibility_m": 5000,
      "taf_visibility_m": 1200,
      "worst_visibility_m": 1200,
      "ceiling_ft": 3000,
      "hazards": [
        "BR",
        "RA",
        "SN"
      ],
      "severityScore": 50,
      "metarRaw": "METAR LIMC 021550Z VRB02KT 5000 BR BKN030 06/03 Q1007 NOSIG",
      "tafRaw": "TAF LIMC 021100Z 0212/0318 VRB05KT 6000 BKN040 \n  BECMG 0218/0220 4000 RA OVC010 \n  PROB30 \n  TEMPO 0306/0310 1200 RASN"
    },
    {
      "icao": "LIMF",
      "iata": "TRN",
      "name": "Turin Airport",
      "lat": 45.200802,
      "lon": 7.64963,
      "updatedAt": "021550Z",
      "visibility_m": 5000,
      "taf_visibility_m": 1200,
      "worst_visibility_m": 1200,
      "ceiling_ft": 4500,
      "hazards": [
        "BR",
        "RA",
        "SN"
      ],
      "severityScore": 50,
      "metarRaw": "METAR LIMF 021550Z 05002KT 5000 BR OVC045 05/01 Q1007",
      "tafRaw": "TAF LIMF 021100Z 0212/0312 VRB04KT 6000 BKN040 \n  BECMG 0218/0220 RA \n  TEMPO 0302/0308 1200 SNRA OVC005 \n  BECMG 0306/0308 7000 NSW SCT015"
    },
    {
      "icao": "GMMX",
      "iata": "RAK",
      "name": "Marrakesh Menara Airport",
      "lat": 31.604807,
      "lon": -8.035788,
      "updatedAt": "021600Z",
      "visibility_m": 1200,
      "taf_visibility_m": 3000,
      "worst_visibility_m": 1200,
      "ceiling_ft": 1600,
      "hazards": [
        "RA",
        "SHRA"
      ],
      "severityScore": 48,
      "metarRaw": "METAR GMMX 021600Z 31004KT 220V360 2500 -RA FEW006 SCT010 BKN016 10/09 Q1014 TEMPO RA 1200",
      "tafRaw": "TAF GMMX 021100Z 0212/0318 28006KT 8000 BKN023 SCT080 \n  TEMPO 0215/0223 34018KT 3000 SHRA SCT013 BKN020 FEW026TCU"
    },
    {
      "icao": "EDDS",
      "iata": "STR",
      "name": "Stuttgart Airport",
      "lat": 48.689899,
      "lon": 9.22196,
      "updatedAt": "021550Z",
      "visibility_m": 10000,
      "taf_visibility_m": 10000,
      "worst_visibility_m": 10000,
      "ceiling_ft": 2500,
      "hazards": [
        "FZRA",
        "RA"
      ],
      "severityScore": 47,
      "metarRaw": "METAR EDDS 021550Z AUTO 09004KT 9999 FEW015 02/M00 Q0999 NOSIG",
      "tafRaw": "TAF EDDS 021100Z 0212/0312 VRB03KT 9999 SCT020 BKN025 \n  PROB30 \n  TEMPO 0303/0306 -FZRA"
    },
    {
      "icao": "LYBE",
      "iata": "BEG",
      "name": "Belgrade Nikola Tesla Airport",
      "lat": 44.818401,
      "lon": 20.309099,
      "updatedAt": "021600Z",
      "visibility_m": 10000,
      "taf_visibility_m": 10000,
      "worst_visibility_m": 10000,
      "ceiling_ft": null,
      "hazards": [
        "FZRA",
        "RA"
      ],
      "severityScore": 47,
      "metarRaw": "METAR LYBE 021600Z 11007KT CAVOK 00/M06 Q1013 NOSIG",
      "tafRaw": "TAF LYBE 021100Z 0212/0312 12009KT CAVOK TX05/0312Z TNM03/0306Z \n  PROB30 0306/0309 -FZRA"
    },
    {
      "icao": "EGBB",
      "iata": "BHX",
      "name": "Birmingham Airport",
      "lat": 52.453899,
      "lon": -1.74803,
      "updatedAt": "021550Z",
      "visibility_m": 4000,
      "taf_visibility_m": 4000,
      "worst_visibility_m": 4000,
      "ceiling_ft": 1100,
      "hazards": [
        "BR",
        "RA",
        "DZ"
      ],
      "severityScore": 44,
      "metarRaw": "METAR EGBB 021550Z 08011KT 4000 BR BKN011 07/05 Q0995",
      "tafRaw": "TAF EGBB 021056Z 0212/0312 08012KT 9999 BKN012 \n  TEMPO 0212/0224 6000 -RADZ BKN008 \n  PROB30 \n  TEMPO 0218/0224 4000 RADZ BKN004 \n  TEMPO 0300/0306 BKN020 \n  TEMPO 0306/0312 6000 -RADZ BKN008"
    },
    {
      "icao": "LFMN",
      "iata": "NCE",
      "name": "Nice-Côte d'Azur Airport",
      "lat": 43.658401,
      "lon": 7.21587,
      "updatedAt": "021600Z",
      "visibility_m": 10000,
      "taf_visibility_m": null,
      "worst_visibility_m": 10000,
      "ceiling_ft": 900,
      "hazards": [
        "RA"
      ],
      "severityScore": 42,
      "metarRaw": "METAR LFMN 021600Z 34007KT 300V050 9999 -RA BKN009 08/07 Q1004 NOSIG",
      "tafRaw": null
    },
    {
      "icao": "UBBB",
      "iata": "GYD",
      "name": "Heydar Aliyev International Airport",
      "lat": 40.467498779296875,
      "lon": 50.04669952392578,
      "updatedAt": "021600Z",
      "visibility_m": 10000,
      "taf_visibility_m": 3000,
      "worst_visibility_m": 3000,
      "ceiling_ft": 1100,
      "hazards": [
        "BR",
        "FG"
      ],
      "severityScore": 42,
      "metarRaw": "METAR UBBB 021600Z 17020G30KT 9999 BKN011 08/06 Q1013 NOSIG",
      "tafRaw": "TAF UBBB 021100Z 0212/0312 16016KT 9999 SCT010 BKN020 TX08/0212Z TN05/0300Z \n  TEMPO 0212/0220 18014G24KT \n  BECMG 0220/0222 20016G26KT \n  TEMPO 0222/0302 21020G30KT 3000 BR BCFG SCT006 \n  BECMG 0308/0310 31012G22KT SCT006 BKN018 \n  TEMPO 0310/0312 34016G26KT"
    },
    {
      "icao": "LRCV",
      "iata": "CRA",
      "name": "Craiova International Airport",
      "lat": 44.3181,
      "lon": 23.888599,
      "updatedAt": "021600Z",
      "visibility_m": 10000,
      "taf_visibility_m": 5000,
      "worst_visibility_m": 5000,
      "ceiling_ft": 1500,
      "hazards": [
        "SN",
        "BR"
      ],
      "severityScore": 40,
      "metarRaw": "METAR LRCV 021600Z 16006KT 9999 -SN NSC M07/M09 Q1017",
      "tafRaw": "TAF LRCV 021400Z 0215/0224 VRB04KT 9999 SCT015 BKN035 \n  PROB30 \n  TEMPO 0215/0218 5000 -SN BKN015 BKN030 \n  TEMPO 0221/0224 5000 BR"
    },
    {
      "icao": "LRTM",
      "iata": "TGM",
      "name": "Târgu Mureş Transilvania International Airport",
      "lat": 46.467701,
      "lon": 24.4125,
      "updatedAt": "021600Z",
      "visibility_m": 10000,
      "taf_visibility_m": 5000,
      "worst_visibility_m": 5000,
      "ceiling_ft": 1000,
      "hazards": [
        "BR",
        "SN"
      ],
      "severityScore": 40,
      "metarRaw": "METAR LRTM 021600Z 25005KT CAVOK 01/M02 Q1011",
      "tafRaw": "TAF LRTM 021400Z 0215/0224 VRB04KT 9999 SCT015 BKN030 \n  PROB30 \n  TEMPO 0215/0218 5000 -SN BKN010 BKN025 \n  BECMG 0219/0221 5000 BR BKN010"
    },
    {
      "icao": "LEMG",
      "iata": "AGP",
      "name": "Málaga-Costa del Sol Airport",
      "lat": 36.6749,
      "lon": -4.49911,
      "updatedAt": "021600Z",
      "visibility_m": 10000,
      "taf_visibility_m": 4000,
      "worst_visibility_m": 4000,
      "ceiling_ft": 1400,
      "hazards": [
        "SHRA",
        "RA"
      ],
      "severityScore": 38,
      "metarRaw": "METAR LEMG 021600Z 14004KT 9999 FEW020 13/09 Q1005 NOSIG",
      "tafRaw": "TAF LEMG 021100Z 0212/0312 29006KT 9999 SCT025 TX16/0215Z TN09/0307Z \n  PROB40 \n  TEMPO 0212/0214 4000 SHRA BKN014 FEW025CB"
    },
    {
      "icao": "LPPS",
      "iata": "PXO",
      "name": "Porto Santo Airport",
      "lat": 33.0733985901,
      "lon": -16.3500003815,
      "updatedAt": "021600Z",
      "visibility_m": 10000,
      "taf_visibility_m": 8000,
      "worst_visibility_m": 8000,
      "ceiling_ft": 1300,
      "hazards": [
        "SHRA",
        "RA"
      ],
      "severityScore": 38,
      "metarRaw": "METAR LPPS 021600Z 29021KT 9999 FEW015 17/10 Q1014",
      "tafRaw": "TAF LPPS 021100Z 0212/0318 30018KT 9999 SCT015 SCT030 \n  TEMPO 0212/0220 30023G35KT \n  PROB30 \n  TEMPO 0212/0224 8000 SHRA BKN013 FEW018TCU \n  BECMG 0224/0302 30013KT \n  TEMPO 0302/0309 30017G27KT \n  BECMG 0309/0312 27018KT SCT013 BKN030"
    },
    {
      "icao": "LGTS",
      "iata": "SKG",
      "name": "Thessaloniki Macedonia International Airport",
      "lat": 40.51928,
      "lon": 22.970009,
      "updatedAt": "021550Z",
      "visibility_m": 10000,
      "taf_visibility_m": 5000,
      "worst_visibility_m": 5000,
      "ceiling_ft": 2500,
      "hazards": [
        "TS",
        "RA"
      ],
      "severityScore": 37,
      "metarRaw": "METAR LGTS 021550Z 28004KT 9999 FEW025 10/04 Q1011 NOSIG",
      "tafRaw": "TAF LGTS 021100Z 0212/0312 VRB03KT 9999 SCT025 \n  BECMG 0218/0220 14013KT \n  PROB30 \n  TEMPO 0300/0306 5000 RA FEW010 BKN025"
    },
    {
      "icao": "EGKK",
      "iata": "LGW",
      "name": "London Gatwick Airport",
      "lat": 51.148771,
      "lon": -0.192089,
      "updatedAt": "021550Z",
      "visibility_m": 10000,
      "taf_visibility_m": 3000,
      "worst_visibility_m": 3000,
      "ceiling_ft": 2800,
      "hazards": [
        "SHRA",
        "RA",
        "DZ"
      ],
      "severityScore": 36,
      "metarRaw": "METAR EGKK 021550Z 09008KT 9999 SCT017 BKN028 07/06 Q0994",
      "tafRaw": "TAF EGKK 021057Z 0212/0318 10008KT 9999 SCT009 BKN030 \n  PROB30 \n  TEMPO 0212/0217 8000 -SHRA BKN009 \n  TEMPO 0300/0318 7000 -RADZ BKN010 \n  PROB40 \n  TEMPO 0302/0315 3000 RADZ BKN007 \n  PROB40 \n  TEMPO 0315/0318 3000 RADZ BKN004"
    },
    {
      "icao": "LFBD",
      "iata": "BOD",
      "name": "Bordeaux–Mérignac Airport",
      "lat": 44.82865,
      "lon": -0.715356,
      "updatedAt": "021600Z",
      "visibility_m": 1500,
      "taf_visibility_m": 1500,
      "worst_visibility_m": 1500,
      "ceiling_ft": 2000,
      "hazards": [
        "RA",
        "SHRA"
      ],
      "severityScore": 36,
      "metarRaw": "METAR LFBD 021600Z AUTO 15008KT 9999 RA ///TCU 13/10 Q0988 TEMPO 14015G25KT 1500 RA BKN020",
      "tafRaw": "TAF LFBD 021100Z 0212/0318 14010KT CAVOK TX13/0214Z TN06/0307Z \n  TEMPO 0212/0220 14015G25KT 4500 SHRA BKN050TCU \n  TEMPO 0215/0220 1500 RA BKN020 \n  PROB40 \n  TEMPO 0218/0220 VRB20G35KT \n  BECMG 0220/0222 21010KT \n  TEMPO 0220/0305 4500 SHRA BKN020TCU FEW025CB \n  BECMG 0316/0318 13005KT"
    },
    {
      "icao": "LIRP",
      "iata": "PSA",
      "name": "Pisa International Airport",
      "lat": 43.683899,
      "lon": 10.3927,
      "updatedAt": "021545Z",
      "visibility_m": 10000,
      "taf_visibility_m": 5000,
      "worst_visibility_m": 5000,
      "ceiling_ft": 4000,
      "hazards": [
        "BR",
        "RA",
        "SHRA"
      ],
      "severityScore": 36,
      "metarRaw": "METAR LIRP 021545Z 14005KT 9999 SCT030 BKN040 09/07 Q1007 NOSIG",
      "tafRaw": "TAF LIRP 021100Z 0212/0312 11008KT 9999 SCT040 BKN080 \n  BECMG 0304/0306 09010KT RA BKN015 \n  TEMPO 0306/0309 5000 SHRA BR \n  BECMG 0309/0312 VRB03KT 9999 NSW SCT020"
    },
    {
      "icao": "EYVI",
      "iata": "VNO",
      "name": "Vilnius International Airport",
      "lat": 54.634102,
      "lon": 25.285801,
      "updatedAt": "021550Z",
      "visibility_m": 10000,
      "taf_visibility_m": 5000,
      "worst_visibility_m": 5000,
      "ceiling_ft": 500,
      "hazards": [
        "BR"
      ],
      "severityScore": 35,
      "metarRaw": "METAR EYVI 021550Z 33004KT CAVOK M16/M20 Q1019 NOSIG",
      "tafRaw": "TAF EYVI 021100Z 0212/0312 VRB04KT 9000 NSC \n  TEMPO 0218/0221 5000 BR SCT005 \n  TEMPO 0221/0306 5000 BR BKN005"
    },
    {
      "icao": "EBCI",
      "iata": "CRL",
      "name": "Brussels South Charleroi Airport",
      "lat": 50.461963,
      "lon": 4.459562,
      "updatedAt": "021550Z",
      "visibility_m": 10000,
      "taf_visibility_m": 4500,
      "worst_visibility_m": 4500,
      "ceiling_ft": 1200,
      "hazards": [
        "RA",
        "DZ"
      ],
      "severityScore": 34,
      "metarRaw": "METAR EBCI 021550Z 10006KT 9999 FEW015 SCT030 06/04 Q0997 NOSIG",
      "tafRaw": "TAF EBCI 021110Z 0212/0318 12005KT 9999 SCT015 BKN020 \n  PROB30 \n  TEMPO 0212/0214 BKN012 \n  PROB40 \n  TEMPO 0303/0309 4500 -RADZ SCT006 BKN012 \n  BECMG 0309/0311 18012KT \n  PROB30 \n  TEMPO 0309/0313 4500 RA SCT008 BKN012"
    },
    {
      "icao": "EDSB",
      "iata": "FKB",
      "name": "Karlsruhe Baden-Baden Airport",
      "lat": 48.7794,
      "lon": 8.0805,
      "updatedAt": "021550Z",
      "visibility_m": 10000,
      "taf_visibility_m": 3000,
      "worst_visibility_m": 3000,
      "ceiling_ft": 1000,
      "hazards": [
        "BR",
        "RA"
      ],
      "severityScore": 34,
      "metarRaw": "METAR EDSB 021550Z 01007KT 9999 BKN010 04/03 Q1000",
      "tafRaw": "TAF EDSB 021100Z 0212/0312 01004KT 9000 SCT003 BKN020 \n  TEMPO 0212/0217 3000 BR BKN003 \n  BECMG 0216/0219 03009KT \n  TEMPO 0309/0312 4000 RA BKN014 OVC020"
    },
    {
      "icao": "EGPF",
      "iata": "GLA",
      "name": "Glasgow Airport",
      "lat": 55.871899,
      "lon": -4.43306,
      "updatedAt": "021550Z",
      "visibility_m": 10000,
      "taf_visibility_m": 8000,
      "worst_visibility_m": 8000,
      "ceiling_ft": 1300,
      "hazards": [
        "RA",
        "DZ"
      ],
      "severityScore": 34,
      "metarRaw": "METAR EGPF 021550Z AUTO 07013KT 9999 -RA BKN013 OVC042 07/05 Q1000",
      "tafRaw": "TAF EGPF 021100Z 0212/0312 08010KT 9999 SCT030 \n  PROB30 \n  TEMPO 0212/0307 8000 -RADZ BKN012 \n  PROB30 \n  TEMPO 0220/0312 09015G25KT \n  PROB30 \n  TEMPO 0307/0312 8000 -RADZ"
    },
    {
      "icao": "EHBK",
      "iata": "MST",
      "name": "Maastricht Aachen Airport",
      "lat": 50.911701,
      "lon": 5.77014,
      "updatedAt": "021555Z",
      "visibility_m": 10000,
      "taf_visibility_m": 4000,
      "worst_visibility_m": 4000,
      "ceiling_ft": 1200,
      "hazards": [
        "RA",
        "DZ"
      ],
      "severityScore": 34,
      "metarRaw": "METAR EHBK 021555Z AUTO 09009KT 9999 SCT032/// 05/03 Q0999 NOSIG",
      "tafRaw": "TAF EHBK 021113Z 0212/0318 14005KT 9999 BKN017 \n  BECMG 0219/0222 09010KT \n  TEMPO 0307/0312 6000 RA \n  BECMG 0312/0315 12007KT \n  PROB40 \n  TEMPO 0315/0318 4000 RADZ BKN012"
    },
    {
      "icao": "EGGW",
      "iata": "LTN",
      "name": "London Luton Airport",
      "lat": 51.874699,
      "lon": -0.368333,
      "updatedAt": "021550Z",
      "visibility_m": 10000,
      "taf_visibility_m": 4000,
      "worst_visibility_m": 4000,
      "ceiling_ft": 3100,
      "hazards": [
        "BR",
        "DZ",
        "RA"
      ],
      "severityScore": 32,
      "metarRaw": "METAR EGGW 021550Z AUTO 09010KT 9999 SCT011 OVC031 06/05 Q0995",
      "tafRaw": "TAF EGGW 021052Z 0212/0312 09009KT 4000 DZ BR BKN005 \n  BECMG 0212/0213 9999 NSW SCT010 \n  TEMPO 0213/0224 8000 BKN008 \n  BECMG 0300/0303 8000 -RADZ BKN008 \n  TEMPO 0303/0312 4000 RADZ"
    },
    {
      "icao": "LTAC",
      "iata": "ESB",
      "name": "Esenboğa International Airport",
      "lat": 40.128101,
      "lon": 32.995098,
      "updatedAt": "021550Z",
      "visibility_m": 10000,
      "taf_visibility_m": null,
      "worst_visibility_m": 10000,
      "ceiling_ft": 3500,
      "hazards": [
        "SHRA",
        "RA"
      ],
      "severityScore": 31,
      "metarRaw": "METAR LTAC 021550Z 23014KT 190V250 9999 -SHRA FEW025CB BKN035 BKN080 07/05 Q1004 NOSIG RMK RWY21C 21015KT RWY03L 23014KT RWY21R 21016KT RWY03R 22012KT 170V240 RWY21L 21014KT",
      "tafRaw": null
    },
    {
      "icao": "EDDN",
      "iata": "NUE",
      "name": "Nuremberg Airport",
      "lat": 49.498699,
      "lon": 11.078056,
      "updatedAt": "021550Z",
      "visibility_m": 10000,
      "taf_visibility_m": 2000,
      "worst_visibility_m": 2000,
      "ceiling_ft": 4400,
      "hazards": [
        "SHSN",
        "SN"
      ],
      "severityScore": 28,
      "metarRaw": "METAR EDDN 021550Z AUTO 09008KT 060V120 9999 FEW023 OVC044 01/M03 Q1003 NOSIG",
      "tafRaw": "TAF EDDN 021100Z 0212/0312 11007KT 9999 BKN025 \n  PROB30 \n  TEMPO 0213/0215 2000 -SHSN SCT012 BKN020TCU \n  PROB30 \n  TEMPO 0300/0307 BKN012"
    },
    {
      "icao": "ENTC",
      "iata": "TOS",
      "name": "Tromsø Airport, Langnes",
      "lat": 69.683296,
      "lon": 18.9189,
      "updatedAt": "021550Z",
      "visibility_m": 10000,
      "taf_visibility_m": 2000,
      "worst_visibility_m": 2000,
      "ceiling_ft": 4200,
      "hazards": [
        "SHSN",
        "SN"
      ],
      "severityScore": 28,
      "metarRaw": "METAR ENTC 021550Z 19010KT 9999 SCT020 BKN042 M01/M03 Q1022 NOSIG RMK WIND 2600FT 24007KT",
      "tafRaw": "TAF ENTC 021100Z 0212/0312 20009KT 9999 FEW025 BKN040 \n  TEMPO 0212/0218 2000 -SHSN VV009 \n  TEMPO 0212/0218 FEW020CB BKN030"
    },
    {
      "icao": "ESKN",
      "iata": "NYO",
      "name": "Stockholm Skavsta Airport",
      "lat": 58.789656,
      "lon": 16.911479,
      "updatedAt": "021550Z",
      "visibility_m": 10000,
      "taf_visibility_m": 1200,
      "worst_visibility_m": 1200,
      "ceiling_ft": 2700,
      "hazards": [
        "SN"
      ],
      "severityScore": 28,
      "metarRaw": "METAR ESKN 021550Z 13005KT 9999 -SN FEW018 BKN027 M05/M10 Q1026",
      "tafRaw": "TAF ESKN 021430Z 0215/0315 11005KT 9000 -SN BKN025 \n  PROB40 0215/0312 1200 SN BKN014"
    },
    {
      "icao": "LBWN",
      "iata": "VAR",
      "name": "Varna Airport",
      "lat": 43.232101,
      "lon": 27.8251,
      "updatedAt": "021600Z",
      "visibility_m": 10000,
      "taf_visibility_m": 5000,
      "worst_visibility_m": 5000,
      "ceiling_ft": 2000,
      "hazards": [
        "SHSN",
        "SN"
      ],
      "severityScore": 28,
      "metarRaw": "METAR LBWN 021600Z AUTO 30011KT 9999 -SHSN OVC039/// M05/M10 Q1015 NOSIG",
      "tafRaw": "TAF LBWN 021100Z 0212/0312 34012KT 5000 -SN SCT010 OVC020 \n  BECMG 0214/0216 9999 NSW SCT020 BKN040 \n  BECMG 0218/0220 VRB04KT \n  BECMG 0308/0310 13010KT"
    },
    {
      "icao": "LKMT",
      "iata": "OSR",
      "name": "Leoš Janáček Airport Ostrava",
      "lat": 49.696301,
      "lon": 18.111099,
      "updatedAt": "021600Z",
      "visibility_m": 10000,
      "taf_visibility_m": 3500,
      "worst_visibility_m": 3500,
      "ceiling_ft": 4400,
      "hazards": [
        "BR",
        "SN"
      ],
      "severityScore": 28,
      "metarRaw": "METAR LKMT 021600Z 03009KT 9999 SCT034 BKN044 M07/M10 Q1011 NOSIG",
      "tafRaw": "TAF LKMT 021100Z 0212/0312 04006KT 9999 SCT012 OVC035 \n  PROB40 \n  TEMPO 0220/0305 3500 -SN BR BKN014 OVC019 \n  BECMG 0308/0310 BKN035"
    },
    {
      "icao": "LRBS",
      "iata": "BBU",
      "name": "Bucharest Băneasa Aurel Vlaicu International Airport",
      "lat": 44.503133,
      "lon": 26.102944,
      "updatedAt": "021600Z",
      "visibility_m": 5000,
      "taf_visibility_m": 3000,
      "worst_visibility_m": 3000,
      "ceiling_ft": 4500,
      "hazards": [
        "SN",
        "BR"
      ],
      "severityScore": 28,
      "metarRaw": "METAR LRBS 021600Z 00000KT CAVOK M04/M14 Q1017 TEMPO 5000 -SN",
      "tafRaw": "TAF LRBS 021100Z 0212/0312 07010KT 9999 BKN045 \n  BECMG 0214/0216 VRB04KT \n  PROB30 \n  TEMPO 0300/0306 3000 BR"
    },
    {
      "icao": "LRCL",
      "iata": "CLJ",
      "name": "Cluj Avram Iancu International Airport",
      "lat": 46.787425,
      "lon": 23.684292,
      "updatedAt": "021600Z",
      "visibility_m": 3000,
      "taf_visibility_m": 3000,
      "worst_visibility_m": 3000,
      "ceiling_ft": 2400,
      "hazards": [
        "BR",
        "SN"
      ],
      "severityScore": 28,
      "metarRaw": "METAR LRCL 021600Z 00000KT 3000 -SN BR OVC024 00/M01 Q1011",
      "tafRaw": "TAF LRCL 021400Z 0215/0224 VRB04KT 9999 SCT015 BKN060 \n  TEMPO 0215/0218 5000 -SN BKN010 BKN050 \n  BECMG 0218/0220 5000 BR BKN010 \n  TEMPO 0221/0224 3000 BR"
    },
    {
      "icao": "LROP",
      "iata": "OTP",
      "name": "Bucharest Henri Coandă International Airport",
      "lat": 44.571792,
      "lon": 26.103285,
      "updatedAt": "021600Z",
      "visibility_m": 5000,
      "taf_visibility_m": 3000,
      "worst_visibility_m": 3000,
      "ceiling_ft": 4500,
      "hazards": [
        "SN",
        "BR"
      ],
      "severityScore": 28,
      "metarRaw": "METAR LROP 021600Z 32005KT CAVOK M04/M11 Q1017 TEMPO 5000 -SN",
      "tafRaw": "TAF LROP 021100Z 0212/0312 07010KT 9999 BKN045 \n  BECMG 0214/0216 VRB04KT \n  PROB30 \n  TEMPO 0300/0306 3000 BR"
    },
    {
      "icao": "BIKF",
      "iata": "KEF",
      "name": "Keflavik International Airport",
      "lat": 63.985001,
      "lon": -22.6056,
      "updatedAt": "021600Z",
      "visibility_m": 10000,
      "taf_visibility_m": 10000,
      "worst_visibility_m": 10000,
      "ceiling_ft": 3800,
      "hazards": [
        "SHRA",
        "RA"
      ],
      "severityScore": 26,
      "metarRaw": "METAR BIKF 021600Z 12017KT 9999 BKN038 BKN240 07/03 Q1004",
      "tafRaw": "TAF BIKF 021330Z 0215/0315 09017KT 9999 FEW020 SCT035 TX07/0215Z TN04/0306Z \n  TEMPO 0223/0306 SHRA SCT014 BKN018 \n  BECMG 0307/0309 10022G32KT"
    },
    {
      "icao": "LFPO",
      "iata": "ORY",
      "name": "Paris-Orly Airport",
      "lat": 48.72333,
      "lon": 2.37944,
      "updatedAt": "021600Z",
      "visibility_m": 10000,
      "taf_visibility_m": 2500,
      "worst_visibility_m": 2500,
      "ceiling_ft": 2600,
      "hazards": [
        "RA",
        "SHRA"
      ],
      "severityScore": 26,
      "metarRaw": "METAR LFPO 021600Z 09010KT 9999 FEW020 BKN026 BKN260 09/06 Q0993 NOSIG",
      "tafRaw": "TAF LFPO 021100Z 0212/0318 12006KT 9999 SCT012 \n  PROB30 \n  TEMPO 0212/0213 BKN008 \n  TEMPO 0221/0310 4000 -RA BKN008 \n  PROB40 \n  TEMPO 0306/0310 2500 RA \n  BECMG 0309/0311 22010G20KT \n  PROB30 \n  TEMPO 0315/0318 4000 -SHRA SCT020TCU"
    },
    {
      "icao": "UGKO",
      "iata": "KUT",
      "name": "David the Builder Kutaisi International Airport",
      "lat": 42.177448,
      "lon": 42.485353,
      "updatedAt": "021600Z",
      "visibility_m": 10000,
      "taf_visibility_m": 3000,
      "worst_visibility_m": 3000,
      "ceiling_ft": 4500,
      "hazards": [
        "RA",
        "SHRA"
      ],
      "severityScore": 26,
      "metarRaw": "METAR UGKO 021600Z 07025KT 9999 -RA SCT033 BKN045 13/06 Q1008 NOSIG",
      "tafRaw": "TAF UGKO 021100Z 0212/0312 08017KT 9999 BKN050 TX12/0212Z TN08/0303Z \n  TEMPO 0212/0216 4000 SHRA BKN020CB OVC040 \n  TEMPO 0213/0220 08027G41KT \n  BECMG 0220/0223 08007KT \n  BECMG 0306/0309 25010KT \n  TEMPO 0307/0312 26017G27KT 3000 SHRA BKN017CB OVC035"
    },
    {
      "icao": "GCTS",
      "iata": "TFS",
      "name": "Tenerife Sur Airport",
      "lat": 28.0445,
      "lon": -16.5725,
      "updatedAt": "021600Z",
      "visibility_m": 10000,
      "taf_visibility_m": 10000,
      "worst_visibility_m": 10000,
      "ceiling_ft": 3000,
      "hazards": [
        "TS"
      ],
      "severityScore": 25,
      "metarRaw": "METAR GCTS 021600Z 10009KT 9999 SCT030 21/13 Q1016 NOSIG",
      "tafRaw": "TAF GCTS 021400Z 0215/0315 12008KT 9999 BKN030 TX23/0314Z TN15/0306Z \n  PROB30 \n  TEMPO 0215/0218 25010KT \n  PROB40 \n  TEMPO 0300/0305 23010KT"
    },
    {
      "icao": "EETN",
      "iata": "TLL",
      "name": "Lennart Meri Tallinn Airport",
      "lat": 59.413246,
      "lon": 24.83264,
      "updatedAt": "021550Z",
      "visibility_m": 10000,
      "taf_visibility_m": 10000,
      "worst_visibility_m": 10000,
      "ceiling_ft": 500,
      "hazards": [],
      "severityScore": 25,
      "metarRaw": "METAR EETN 021550Z 36006KT CAVOK M08/M14 Q1024 NOSIG",
      "tafRaw": "TAF EETN 021130Z 0212/0312 01012KT CAVOK \n  PROB40 \n  TEMPO 0305/0312 BKN005"
    },
    {
      "icao": "EPKK",
      "iata": "KRK",
      "name": "Kraków John Paul II International Airport",
      "lat": 50.077702,
      "lon": 19.7848,
      "updatedAt": "021600Z",
      "visibility_m": 10000,
      "taf_visibility_m": 10000,
      "worst_visibility_m": 10000,
      "ceiling_ft": 900,
      "hazards": [],
      "severityScore": 25,
      "metarRaw": "METAR EPKK 021600Z 07010KT CAVOK M09/M15 Q1014",
      "tafRaw": "TAF EPKK 021430Z 0215/0315 06012KT CAVOK \n  TEMPO 0223/0306 BKN009"
    },
    {
      "icao": "LEBL",
      "iata": "BCN",
      "name": "Josep Tarradellas Barcelona-El Prat Airport",
      "lat": 41.2971,
      "lon": 2.07846,
      "updatedAt": "021600Z",
      "visibility_m": 4000,
      "taf_visibility_m": null,
      "worst_visibility_m": 4000,
      "ceiling_ft": 2000,
      "hazards": [
        "BR",
        "DZ"
      ],
      "severityScore": 25,
      "metarRaw": "METAR LEBL 021600Z 01003KT 4000 -DZ BR FEW005 SCT015 BKN020 11/11 Q0994 NOSIG",
      "tafRaw": null
    },
    {
      "icao": "GMMN",
      "iata": "CMN",
      "name": "Mohammed V International Airport",
      "lat": 33.3675,
      "lon": -7.58997,
      "updatedAt": "021600Z",
      "visibility_m": 10000,
      "taf_visibility_m": 4000,
      "worst_visibility_m": 4000,
      "ceiling_ft": 1600,
      "hazards": [
        "RA"
      ],
      "severityScore": 24,
      "metarRaw": "METAR GMMN 021600Z 23010KT 200V270 9999 -RA SCT010 BKN016 13/11 Q1011 NOSIG",
      "tafRaw": "TAF GMMN 021100Z 0212/0318 26014KT 5000 RA SCT004 OVC010 \n  BECMG 0218/0221 20012KT 8000 SCT010 BKN016 \n  TEMPO 0222/0312 22014KT 4000 RA SCT005 BKN016"
    },
    {
      "icao": "ENTO",
      "iata": "TRF",
      "name": "Sandefjord Airport, Torp",
      "lat": 59.186699,
      "lon": 10.2586,
      "updatedAt": "021550Z",
      "visibility_m": 4300,
      "taf_visibility_m": null,
      "worst_visibility_m": 4300,
      "ceiling_ft": 2400,
      "hazards": [
        "SN"
      ],
      "severityScore": 23,
      "metarRaw": "METAR ENTO 021550Z 06006KT 030V090 4300 -SN OVC024 M06/M09 Q1023 TEMPO 6000",
      "tafRaw": null
    },
    {
      "icao": "LRSV",
      "iata": "SCV",
      "name": "Suceava Stefan cel Mare Airport",
      "lat": 47.6875,
      "lon": 26.35409927368164,
      "updatedAt": "021600Z",
      "visibility_m": 10000,
      "taf_visibility_m": 3000,
      "worst_visibility_m": 3000,
      "ceiling_ft": 1000,
      "hazards": [
        "BR"
      ],
      "severityScore": 22,
      "metarRaw": "METAR LRSV 021600Z 02006KT CAVOK M13/M15 Q1014",
      "tafRaw": "TAF LRSV 021400Z 0215/0224 06006KT CAVOK \n  BECMG 0218/0220 5000 BR BKN015 \n  PROB30 \n  TEMPO 0221/0224 3000 BR BKN010"
    },
    {
      "icao": "LYPG",
      "iata": "TGD",
      "name": "Podgorica Airport / Podgorica Golubovci Airbase",
      "lat": 42.359402,
      "lon": 19.2519,
      "updatedAt": "021600Z",
      "visibility_m": 10000,
      "taf_visibility_m": 3000,
      "worst_visibility_m": 3000,
      "ceiling_ft": null,
      "hazards": [
        "BR",
        "RA"
      ],
      "severityScore": 22,
      "metarRaw": "METAR LYPG 021600Z 19002KT 9999 FEW033 SCT050 06/04 Q1011 NOSIG",
      "tafRaw": "TAF LYPG 021100Z 0212/0312 18005KT 9999 FEW030 SCT050 TX09/0212Z TN03/0303Z \n  PROB40 \n  TEMPO 0220/0302 3000 BR \n  PROB30 \n  TEMPO 0310/0312 5000 RA"
    },
    {
      "icao": "ENGM",
      "iata": "OSL",
      "name": "Oslo-Gardermoen International Airport",
      "lat": 60.193901,
      "lon": 11.1004,
      "updatedAt": "021550Z",
      "visibility_m": 10000,
      "taf_visibility_m": 10000,
      "worst_visibility_m": 10000,
      "ceiling_ft": 3500,
      "hazards": [
        "SN"
      ],
      "severityScore": 18,
      "metarRaw": "METAR ENGM 021550Z 08004KT 9999 VCSH BKN035 M08/M13 Q1024 NOSIG",
      "tafRaw": "TAF ENGM 021100Z 0212/0312 10005KT 9999 -SN BKN030"
    },
    {
      "icao": "EPSC",
      "iata": "SZZ",
      "name": "Solidarity Szczecin–Goleniów Airport",
      "lat": 53.584702,
      "lon": 14.9022,
      "updatedAt": "021600Z",
      "visibility_m": 10000,
      "taf_visibility_m": 10000,
      "worst_visibility_m": 10000,
      "ceiling_ft": 2000,
      "hazards": [
        "SN"
      ],
      "severityScore": 18,
      "metarRaw": "METAR EPSC 021600Z 09009KT CAVOK M08/M16 Q1015",
      "tafRaw": "TAF EPSC 021130Z 0212/0312 08012KT 9999 SCT025 \n  PROB40 \n  TEMPO 0212/0221 10015G25KT -SN BKN020 \n  PROB40 \n  TEMPO 0309/0312 10015G25KT"
    },
    {
      "icao": "ESGG",
      "iata": "GOT",
      "name": "Göteborg Landvetter Airport",
      "lat": 57.6628,
      "lon": 12.2798,
      "updatedAt": "021550Z",
      "visibility_m": 10000,
      "taf_visibility_m": 10000,
      "worst_visibility_m": 10000,
      "ceiling_ft": 3000,
      "hazards": [
        "SN"
      ],
      "severityScore": 18,
      "metarRaw": "METAR ESGG 021550Z 10011KT CAVOK M06/M13 Q1021",
      "tafRaw": "TAF ESGG 021430Z 0215/0315 10010KT 9999 -SN BKN030"
    },
    {
      "icao": "ESSA",
      "iata": "ARN",
      "name": "Stockholm-Arlanda Airport",
      "lat": 59.64849,
      "lon": 17.928829,
      "updatedAt": "021550Z",
      "visibility_m": 10000,
      "taf_visibility_m": 4000,
      "worst_visibility_m": 4000,
      "ceiling_ft": 3500,
      "hazards": [
        "SN"
      ],
      "severityScore": 18,
      "metarRaw": "METAR ESSA 021550Z 04005KT 9999 FEW022 BKN035 M09/M13 Q1027 NOSIG",
      "tafRaw": "TAF ESSA 021430Z 0215/0315 04004KT 9999 BKN025 \n  PROB40 0215/0224 4000 -SN"
    },
    {
      "icao": "LRSB",
      "iata": "SBZ",
      "name": "Sibiu International Airport",
      "lat": 45.785841,
      "lon": 24.086666,
      "updatedAt": "021600Z",
      "visibility_m": 7000,
      "taf_visibility_m": 3000,
      "worst_visibility_m": 3000,
      "ceiling_ft": 5500,
      "hazards": [
        "SN"
      ],
      "severityScore": 18,
      "metarRaw": "METAR LRSB 021600Z COR 10002KT 7000 -SN SCT016 SCT034 BKN055 M01/M02 Q1011 NOSIG",
      "tafRaw": "TAF LRSB 021100Z 0212/0312 VRB04KT 9999 SCT015 OVC045 \n  TEMPO 0212/0218 3000 -SN BKN010 OVC030"
    },
    {
      "icao": "LFOB",
      "iata": "BVA",
      "name": "Beauvais Tillé airport",
      "lat": 49.454399,
      "lon": 2.11278,
      "updatedAt": "021600Z",
      "visibility_m": 10000,
      "taf_visibility_m": null,
      "worst_visibility_m": 10000,
      "ceiling_ft": 1400,
      "hazards": [],
      "severityScore": 17,
      "metarRaw": "METAR LFOB 021600Z AUTO 10010KT 9999 FEW026 BKN034 08/05 Q0994 TEMPO BKN014",
      "tafRaw": null
    },
    {
      "icao": "EDDH",
      "iata": "HAM",
      "name": "Hamburg Helmut Schmidt Airport",
      "lat": 53.630402,
      "lon": 9.98823,
      "updatedAt": "021550Z",
      "visibility_m": 10000,
      "taf_visibility_m": 10000,
      "worst_visibility_m": 10000,
      "ceiling_ft": 1400,
      "hazards": [],
      "severityScore": 12,
      "metarRaw": "METAR EDDH 021550Z AUTO 09012KT 040V120 9999 BKN017 OVC036 M07/M11 Q1011 TEMPO BKN014",
      "tafRaw": "TAF EDDH 021100Z 0212/0318 09012KT 9999 BKN025 \n  PROB30 \n  TEMPO 0219/0311 BKN013 \n  TEMPO 0310/0318 10015G25KT"
    },
    {
      "icao": "EDDK",
      "iata": "CGN",
      "name": "Cologne Bonn Airport",
      "lat": 50.865898,
      "lon": 7.14274,
      "updatedAt": "021550Z",
      "visibility_m": 10000,
      "taf_visibility_m": 4500,
      "worst_visibility_m": 4500,
      "ceiling_ft": 2900,
      "hazards": [
        "RA"
      ],
      "severityScore": 12,
      "metarRaw": "METAR EDDK 021550Z AUTO 11010KT 080V140 9999 BKN029 OVC043 06/M01 Q1001 NOSIG",
      "tafRaw": "TAF EDDK 021100Z 0212/0318 11010KT 9999 BKN040 \n  PROB40 \n  TEMPO 0310/0316 4500 RA BKN010"
    },
    {
      "icao": "EPKT",
      "iata": "KTW",
      "name": "Katowice Wojciech Korfanty International Airport",
      "lat": 50.476015,
      "lon": 19.080705,
      "updatedAt": "021600Z",
      "visibility_m": 10000,
      "taf_visibility_m": 10000,
      "worst_visibility_m": 10000,
      "ceiling_ft": 1300,
      "hazards": [],
      "severityScore": 12,
      "metarRaw": "METAR EPKT 021600Z 08012KT CAVOK M08/M17 Q1013",
      "tafRaw": "TAF EPKT 021130Z 0212/0312 08010KT 9999 BKN033 \n  TEMPO 0219/0306 BKN013"
    },
    {
      "icao": "EPRA",
      "iata": "RDO",
      "name": "Warsaw Radom Airport",
      "lat": 51.38937,
      "lon": 21.214742,
      "updatedAt": "021600Z",
      "visibility_m": 10000,
      "taf_visibility_m": 10000,
      "worst_visibility_m": 10000,
      "ceiling_ft": null,
      "hazards": [
        "RA"
      ],
      "severityScore": 12,
      "metarRaw": "METAR EPRA 021600Z 07008KT CAVOK M15/M21 Q1017",
      "tafRaw": "TAF EPRA 021430Z 0215/0224 08004KT CAVOK"
    },
    {
      "icao": "LEZG",
      "iata": "ZAZ",
      "name": "Zaragoza Airport",
      "lat": 41.666199,
      "lon": -1.04155,
      "updatedAt": "021600Z",
      "visibility_m": 10000,
      "taf_visibility_m": 3000,
      "worst_visibility_m": 3000,
      "ceiling_ft": null,
      "hazards": [
        "RA"
      ],
      "severityScore": 12,
      "metarRaw": "METAR LEZG 021600Z 26010KT 230V290 9999 SCT080 11/06 Q0994 NOSIG",
      "tafRaw": "TAF LEZG 021100Z 0212/0312 11009KT 9999 FEW050 TX14/0214Z TN04/0306Z \n  PROB40 \n  TEMPO 0212/0218 3000 RA \n  BECMG 0214/0217 24009KT"
    },
    {
      "icao": "LFLL",
      "iata": "LYS",
      "name": "Lyon Saint-Exupéry Airport",
      "lat": 45.725996,
      "lon": 5.090139,
      "updatedAt": "021600Z",
      "visibility_m": 10000,
      "taf_visibility_m": 2000,
      "worst_visibility_m": 2000,
      "ceiling_ft": 8000,
      "hazards": [
        "RA"
      ],
      "severityScore": 12,
      "metarRaw": "METAR LFLL 021600Z 17009KT 130V210 9999 VCSH FEW030 SCT053 BKN080 11/05 Q0996 NOSIG",
      "tafRaw": "TAF LFLL 021100Z 0212/0318 18015KT 9999 SCT025 \n  TEMPO 0212/0215 18015G27KT \n  TEMPO 0220/0302 12004KT \n  TEMPO 0302/0308 18020G35KT 3000 RA SCT030TCU BKN040 \n  PROB30 \n  TEMPO 0303/0305 18025G45KT 2000 SCT025CB BKN040 \n  TEMPO 0310/0314 18020G30KT"
    },
    {
      "icao": "LIME",
      "iata": "BGY",
      "name": "Milan Bergamo Airport / Antonio Locatelli Air Base",
      "lat": 45.670725,
      "lon": 9.709223,
      "updatedAt": "021550Z",
      "visibility_m": 6000,
      "taf_visibility_m": 4000,
      "worst_visibility_m": 4000,
      "ceiling_ft": 6500,
      "hazards": [
        "RA"
      ],
      "severityScore": 12,
      "metarRaw": "METAR LIME 021550Z 19004KT 160V230 6000 SCT035 BKN065 05/03 Q1007 NOSIG",
      "tafRaw": "TAF LIME 021100Z 0212/0312 VRB05KT 7000 BKN040 \n  BECMG 0218/0220 4000 RA \n  BECMG 0309/0311 7000 NSW"
    },
    {
      "icao": "LIMJ",
      "iata": "GOA",
      "name": "Genoa Cristoforo Colombo Airport",
      "lat": 44.412039,
      "lon": 8.840732,
      "updatedAt": "021550Z",
      "visibility_m": 10000,
      "taf_visibility_m": 3000,
      "worst_visibility_m": 3000,
      "ceiling_ft": 2700,
      "hazards": [
        "RA"
      ],
      "severityScore": 12,
      "metarRaw": "METAR LIMJ 021550Z 05013KT 9999 SCT018 BKN027 06/04 Q1005 WS R28",
      "tafRaw": "TAF LIMJ 021100Z 0212/0312 04014KT 7000 BKN020 \n  TEMPO 0212/0218 RA \n  BECMG 0218/0220 3000 +RA \n  TEMPO 0222/0310 04018G30KT \n  BECMG 0306/0308 NSW"
    },
    {
      "icao": "LIPE",
      "iata": "BLQ",
      "name": "Bologna Guglielmo Marconi Airport",
      "lat": 44.5354,
      "lon": 11.2887,
      "updatedAt": "021550Z",
      "visibility_m": 10000,
      "taf_visibility_m": 4000,
      "worst_visibility_m": 4000,
      "ceiling_ft": 7000,
      "hazards": [
        "RA"
      ],
      "severityScore": 12,
      "metarRaw": "METAR LIPE 021550Z 08007KT 9999 BKN070 08/04 Q1007",
      "tafRaw": "TAF LIPE 021100Z 0212/0312 VRB05KT 8000 SCT050 \n  TEMPO 0218/0310 4000 RA"
    },
    {
      "icao": "LIPH",
      "iata": "TSF",
      "name": "Treviso Antonio Canova Airport",
      "lat": 45.648399,
      "lon": 12.1944,
      "updatedAt": "021550Z",
      "visibility_m": 10000,
      "taf_visibility_m": 4000,
      "worst_visibility_m": 4000,
      "ceiling_ft": 5500,
      "hazards": [
        "RA"
      ],
      "severityScore": 12,
      "metarRaw": "METAR LIPH 021550Z 14002KT 9999 BKN055 08/M00 Q1008",
      "tafRaw": "TAF LIPH 021100Z 0212/0312 VRB05KT 9999 BKN040 \n  BECMG 0220/0222 4000 RA"
    },
    {
      "icao": "LIPQ",
      "iata": "TRS",
      "name": "Trieste–Friuli Venezia Giulia Airport",
      "lat": 45.827499,
      "lon": 13.4722,
      "updatedAt": "021550Z",
      "visibility_m": 10000,
      "taf_visibility_m": 4000,
      "worst_visibility_m": 4000,
      "ceiling_ft": 8000,
      "hazards": [
        "RA"
      ],
      "severityScore": 12,
      "metarRaw": "METAR LIPQ 021550Z 24002KT 9999 FEW060 BKN080 08/00 Q1008",
      "tafRaw": "TAF LIPQ 021100Z 0212/0312 VRB05KT 9999 SCT040 \n  BECMG 0221/0223 4000 RA BKN012 \n  BECMG 0302/0304 05010KT"
    },
    {
      "icao": "LIPR",
      "iata": "RMI",
      "name": "Federico Fellini International Airport",
      "lat": 44.020024,
      "lon": 12.612198,
      "updatedAt": "021550Z",
      "visibility_m": 10000,
      "taf_visibility_m": 3000,
      "worst_visibility_m": 3000,
      "ceiling_ft": null,
      "hazards": [
        "RA"
      ],
      "severityScore": 12,
      "metarRaw": "METAR LIPR 021550Z 09003KT 9999 SCT070 08/05 Q1008",
      "tafRaw": "TAF LIPR 021100Z 0212/0312 07008KT 9999 SCT040 \n  BECMG 0216/0218 14010KT \n  TEMPO 0223/0310 3000 RA"
    },
    {
      "icao": "LIPX",
      "iata": "VRN",
      "name": "Verona Villafranca Valerio Catullo Airport",
      "lat": 45.394955,
      "lon": 10.887303,
      "updatedAt": "021550Z",
      "visibility_m": 9000,
      "taf_visibility_m": 4000,
      "worst_visibility_m": 4000,
      "ceiling_ft": 4500,
      "hazards": [
        "RA"
      ],
      "severityScore": 12,
      "metarRaw": "METAR LIPX 021550Z VRB01KT 9000 OVC045 06/03 Q1008",
      "tafRaw": "TAF LIPX 021100Z 0212/0312 VRB05KT 7000 SCT040 BKN060 \n  BECMG 0219/0221 4000 RA \n  BECMG 0221/0223 08010KT \n  BECMG 0308/0310 VRB05KT 7000 NSW"
    },
    {
      "icao": "LIPZ",
      "iata": "VCE",
      "name": "Venice Marco Polo Airport",
      "lat": 45.505299,
      "lon": 12.3519,
      "updatedAt": "021550Z",
      "visibility_m": 10000,
      "taf_visibility_m": 4000,
      "worst_visibility_m": 4000,
      "ceiling_ft": 6000,
      "hazards": [
        "RA"
      ],
      "severityScore": 12,
      "metarRaw": "METAR LIPZ 021550Z 15003KT 9999 BKN060 07/02 Q1008 NOSIG",
      "tafRaw": "TAF LIPZ 021100Z 0212/0318 VRB05KT 9999 SCT040 \n  BECMG 0220/0222 4000 RA \n  BECMG 0222/0224 05015KT \n  BECMG 0314/0316 8000 NSW"
    },
    {
      "icao": "LIRF",
      "iata": "FCO",
      "name": "Rome–Fiumicino Leonardo da Vinci International Airport",
      "lat": 41.804532,
      "lon": 12.251998,
      "updatedAt": "021550Z",
      "visibility_m": 10000,
      "taf_visibility_m": 4000,
      "worst_visibility_m": 4000,
      "ceiling_ft": null,
      "hazards": [
        "RA"
      ],
      "severityScore": 12,
      "metarRaw": "METAR LIRF 021550Z 15006KT 9999 FEW030 12/06 Q1008 NOSIG",
      "tafRaw": "TAF LIRF 021100Z 0212/0318 05007KT CAVOK \n  BECMG 0214/0216 16013KT \n  BECMG 0304/0306 16016G26KT \n  TEMPO 0309/0318 4000 RA"
    },
    {
      "icao": "LIRZ",
      "iata": "PEG",
      "name": "Perugia San Francesco d'Assisi – Umbria International Airport",
      "lat": 43.095901,
      "lon": 12.5132,
      "updatedAt": "021550Z",
      "visibility_m": 10000,
      "taf_visibility_m": 4000,
      "worst_visibility_m": 4000,
      "ceiling_ft": null,
      "hazards": [
        "RA"
      ],
      "severityScore": 12,
      "metarRaw": "METAR LIRZ 021550Z AUTO 11002KT 9999 BKN079/// 11/03 Q1007",
      "tafRaw": "TAF LIRZ 021100Z 0212/0312 VRB06KT CAVOK \n  TEMPO 0309/0312 4000 RA"
    },
    {
      "icao": "LRTR",
      "iata": "TSR",
      "name": "Timişoara Traian Vuia Airport",
      "lat": 45.809898,
      "lon": 21.3379,
      "updatedAt": "021600Z",
      "visibility_m": 10000,
      "taf_visibility_m": 10000,
      "worst_visibility_m": 10000,
      "ceiling_ft": 1100,
      "hazards": [],
      "severityScore": 12,
      "metarRaw": "METAR LRTR 021600Z 09003KT 9999 BKN011 M01/M02 Q1014",
      "tafRaw": "TAF LRTR 021100Z 0212/0312 VRB04KT 9999 BKN010 BKN035 \n  BECMG 0214/0216 SCT015 BKN030 \n  BECMG 0308/0310 11010KT"
    },
    {
      "icao": "OJAI",
      "iata": "AMM",
      "name": "Queen Alia International Airport",
      "lat": 31.7226009369,
      "lon": 35.9931983948,
      "updatedAt": "021500Z",
      "visibility_m": 2000,
      "taf_visibility_m": 2000,
      "worst_visibility_m": 2000,
      "ceiling_ft": 3000,
      "hazards": [
        "RA"
      ],
      "severityScore": 12,
      "metarRaw": "METAR OJAI 021500Z 27020KT 2000 BLDU NSC 16/06 Q1016 NOSIG",
      "tafRaw": "TAF OJAI 021100Z 0212/0318 24014KT 5000 DU NSC \n  PROB30 0212/0217 23020KT 3000 BLDU \n  BECMG 0300/0302 4000 RA SCT020 SCT025 \n  TEMPO 0303/0313 29025KT 2000 BLDU BKN030"
    },
    {
      "icao": "ENBR",
      "iata": "BGO",
      "name": "Bergen Airport, Flesland",
      "lat": 60.2934,
      "lon": 5.21814,
      "updatedAt": "021550Z",
      "visibility_m": 10000,
      "taf_visibility_m": 10000,
      "worst_visibility_m": 10000,
      "ceiling_ft": null,
      "hazards": [
        "BR"
      ],
      "severityScore": 10,
      "metarRaw": "METAR ENBR 021550Z 10003KT CAVOK M03/M15 Q1018 NOSIG RMK WIND 1200FT 12007KT",
      "tafRaw": "TAF ENBR 021100Z 0212/0312 09005KT CAVOK"
    },
    {
      "icao": "EPGD",
      "iata": "GDN",
      "name": "Gdańsk Lech Wałęsa Airport",
      "lat": 54.377602,
      "lon": 18.4662,
      "updatedAt": "021600Z",
      "visibility_m": 10000,
      "taf_visibility_m": 3000,
      "worst_visibility_m": 3000,
      "ceiling_ft": null,
      "hazards": [
        "BR"
      ],
      "severityScore": 10,
      "metarRaw": "METAR EPGD 021600Z 09006KT CAVOK M14/M22 Q1021",
      "tafRaw": "TAF EPGD 021130Z 0212/0312 11011KT CAVOK \n  BECMG 0221/0224 VRB02KT \n  PROB40 0300/0308 3000 BR \n  BECMG 0306/0309 09010KT"
    },
    {
      "icao": "LGAV",
      "iata": "ATH",
      "name": "Athens Eleftherios Venizelos International Airport",
      "lat": 37.936401,
      "lon": 23.9445,
      "updatedAt": "021550Z",
      "visibility_m": 10000,
      "taf_visibility_m": 5000,
      "worst_visibility_m": 5000,
      "ceiling_ft": null,
      "hazards": [
        "BR"
      ],
      "severityScore": 10,
      "metarRaw": "METAR LGAV 021550Z 08005KT 030V120 9999 SCT020 12/06 Q1011 NOSIG",
      "tafRaw": "TAF LGAV 021100Z 0212/0312 30010KT 9999 SCT025 SCT070 \n  BECMG 0213/0215 VRB05KT \n  PROB30 \n  TEMPO 0300/0306 5000 BR SCT008"
    },
    {
      "icao": "LIBR",
      "iata": "BDS",
      "name": "Brindisi Airport",
      "lat": 40.6576,
      "lon": 17.947001,
      "updatedAt": "021550Z",
      "visibility_m": 10000,
      "taf_visibility_m": 10000,
      "worst_visibility_m": 10000,
      "ceiling_ft": null,
      "hazards": [
        "BR"
      ],
      "severityScore": 10,
      "metarRaw": "METAR LIBR 021550Z 35005KT 320V020 CAVOK 12/04 Q1010",
      "tafRaw": "TAF LIBR 021100Z 0212/0312 30010KT 9999 SCT030 \n  BECMG 0214/0216 VRB05KT \n  BECMG 0219/0221 16010KT"
    },
    {
      "icao": "LOWW",
      "iata": "VIE",
      "name": "Vienna International Airport",
      "lat": 48.110298,
      "lon": 16.5697,
      "updatedAt": "021550Z",
      "visibility_m": 9000,
      "taf_visibility_m": 2000,
      "worst_visibility_m": 2000,
      "ceiling_ft": 3000,
      "hazards": [
        "BR"
      ],
      "severityScore": 10,
      "metarRaw": "METAR LOWW 021550Z 14015KT 9000 FEW009 SCT011 BKN030 02/M01 Q1007 NOSIG",
      "tafRaw": "TAF LOWW 021420Z 0215/0321 13015KT 6000 BKN020 TX01/0215Z TNM01/0308Z \n  TEMPO 0215/0220 OVC010 \n  TEMPO 0320/0321 2000 BR OVC003"
    },
    {
      "icao": "LRBV",
      "iata": "GHV",
      "name": "Brașov-Ghimbav International Airport",
      "lat": 45.70558,
      "lon": 25.522871,
      "updatedAt": "021600Z",
      "visibility_m": 10000,
      "taf_visibility_m": 5000,
      "worst_visibility_m": 5000,
      "ceiling_ft": 6000,
      "hazards": [
        "BR"
      ],
      "severityScore": 10,
      "metarRaw": "METAR LRBV 021600Z 07003KT 9999 SCT030 M01/M07 Q1010",
      "tafRaw": "TAF LRBV 021400Z 0215/0224 VRB04KT 9999 SCT015 BKN060 \n  BECMG 0222/0224 5000 BR"
    },
    {
      "icao": "BKPR",
      "iata": "PRN",
      "name": "Priština Adem Jashari International Airport",
      "lat": 42.5728,
      "lon": 21.035801,
      "updatedAt": "021600Z",
      "visibility_m": 7000,
      "taf_visibility_m": null,
      "worst_visibility_m": 7000,
      "ceiling_ft": 3000,
      "hazards": [],
      "severityScore": 5,
      "metarRaw": "METAR BKPR 021600Z VRB02KT 7000 BKN030 M00/M03 Q1011 NOSIG",
      "tafRaw": null
    },
    {
      "icao": "ENZV",
      "iata": "SVG",
      "name": "Stavanger Airport, Sola",
      "lat": 58.876701,
      "lon": 5.63778,
      "updatedAt": "021550Z",
      "visibility_m": 10000,
      "taf_visibility_m": null,
      "worst_visibility_m": 10000,
      "ceiling_ft": null,
      "hazards": [],
      "severityScore": 5,
      "metarRaw": "METAR ENZV 021550Z 09011KT CAVOK M04/M13 Q1019 NOSIG",
      "tafRaw": null
    },
    {
      "icao": "LEBB",
      "iata": "BIO",
      "name": "Bilbao Airport",
      "lat": 43.301102,
      "lon": -2.91061,
      "updatedAt": "021600Z",
      "visibility_m": 10000,
      "taf_visibility_m": null,
      "worst_visibility_m": 10000,
      "ceiling_ft": null,
      "hazards": [],
      "severityScore": 5,
      "metarRaw": "METAR LEBB 021600Z 22008KT 150V290 9999 SCT060 16/04 Q0989 NOSIG",
      "tafRaw": null
    },
    {
      "icao": "LECH",
      "iata": "CDT",
      "name": "Castellón-Costa Azahar Airport",
      "lat": 40.213889,
      "lon": 0.073333,
      "updatedAt": "021600Z",
      "visibility_m": 7000,
      "taf_visibility_m": null,
      "worst_visibility_m": 7000,
      "ceiling_ft": null,
      "hazards": [],
      "severityScore": 5,
      "metarRaw": "METAR LECH 021600Z AUTO 13010KT 100V160 7000 SCT004 11/10 Q0994",
      "tafRaw": null
    },
    {
      "icao": "LEVC",
      "iata": "VLC",
      "name": "Valencia Airport",
      "lat": 39.4893,
      "lon": -0.481625,
      "updatedAt": "021600Z",
      "visibility_m": 10000,
      "taf_visibility_m": null,
      "worst_visibility_m": 10000,
      "ceiling_ft": null,
      "hazards": [],
      "severityScore": 5,
      "metarRaw": "METAR LEVC 021600Z 26013KT 230V290 9999 FEW020 SCT040 13/05 Q0997 NOSIG",
      "tafRaw": null
    },
    {
      "icao": "LLBG",
      "iata": "TLV",
      "name": "Ben Gurion International Airport",
      "lat": 32.011398,
      "lon": 34.8867,
      "updatedAt": "021550Z",
      "visibility_m": 5000,
      "taf_visibility_m": null,
      "worst_visibility_m": 5000,
      "ceiling_ft": null,
      "hazards": [],
      "severityScore": 5,
      "metarRaw": "METAR LLBG 021550Z 25006KT 5000 DU NSC 18/11 Q1016 BECMG 6000 NSW",
      "tafRaw": null
    },
    {
      "icao": "LZKZ",
      "iata": "KSC",
      "name": "Košice International Airport",
      "lat": 48.663101,
      "lon": 21.2411,
      "updatedAt": "021600Z",
      "visibility_m": 10000,
      "taf_visibility_m": null,
      "worst_visibility_m": 10000,
      "ceiling_ft": 2000,
      "hazards": [],
      "severityScore": 5,
      "metarRaw": "METAR LZKZ 021600Z 07003KT 9999 OVC020 M01/M06 Q1012 NOSIG",
      "tafRaw": null
    },
    {
      "icao": "GCFV",
      "iata": "FUE",
      "name": "Fuerteventura Airport",
      "lat": 28.4527,
      "lon": -13.8638,
      "updatedAt": "021600Z",
      "visibility_m": 10000,
      "taf_visibility_m": 10000,
      "worst_visibility_m": 10000,
      "ceiling_ft": null,
      "hazards": [],
      "severityScore": 0,
      "metarRaw": "METAR GCFV 021600Z 31013KT 270V340 9999 VCSH FEW020 SCT030TCU 19/15 Q1015",
      "tafRaw": "TAF GCFV 021400Z 0215/0315 33014KT 9999 SCT030 TX22/0314Z TN16/0306Z \n  TEMPO 0215/0220 30015G25KT \n  BECMG 0219/0222 33004KT"
    },
    {
      "icao": "GCLP",
      "iata": "LPA",
      "name": "Gran Canaria Airport",
      "lat": 27.9319,
      "lon": -15.3866,
      "updatedAt": "021600Z",
      "visibility_m": 10000,
      "taf_visibility_m": 10000,
      "worst_visibility_m": 10000,
      "ceiling_ft": 3100,
      "hazards": [],
      "severityScore": 0,
      "metarRaw": "METAR GCLP 021600Z VRB04G16KT 9999 SCT025 BKN031 20/15 Q1016 NOSIG",
      "tafRaw": "TAF GCLP 021400Z 0215/0315 35018KT 9999 SCT030 TX22/0314Z TN15/0306Z \n  TEMPO 0215/0217 VRB05KT \n  PROB30 \n  TEMPO 0216/0221 36020G30KT \n  TEMPO 0303/0309 35008KT \n  BECMG 0311/0313 05015KT"
    },
    {
      "icao": "EDDB",
      "iata": "BER",
      "name": "Berlin Brandenburg Willy Brandt Airport",
      "lat": 52.361738,
      "lon": 13.502341,
      "updatedAt": "021550Z",
      "visibility_m": 10000,
      "taf_visibility_m": 10000,
      "worst_visibility_m": 10000,
      "ceiling_ft": 4400,
      "hazards": [],
      "severityScore": 0,
      "metarRaw": "METAR EDDB 021550Z AUTO 08011KT 9999 SCT037 OVC044 M08/M12 Q1012 NOSIG",
      "tafRaw": "TAF EDDB 021100Z 0212/0312 08012KT 9999 BKN035 \n  PROB30 \n  TEMPO 0300/0312 08015G25KT"
    },
    {
      "icao": "EDJA",
      "iata": "FMM",
      "name": "Memmingen Allgau Airport",
      "lat": 47.988092,
      "lon": 10.238248,
      "updatedAt": "021550Z",
      "visibility_m": 10000,
      "taf_visibility_m": 10000,
      "worst_visibility_m": 10000,
      "ceiling_ft": null,
      "hazards": [],
      "severityScore": 0,
      "metarRaw": "METAR EDJA 021550Z COR 05006KT CAVOK 02/M00 Q1000",
      "tafRaw": "TAF EDJA 021400Z 0215/0224 06006KT CAVOK"
    },
    {
      "icao": "EDLW",
      "iata": "DTM",
      "name": "Dortmund Airport",
      "lat": 51.518299,
      "lon": 7.61224,
      "updatedAt": "021550Z",
      "visibility_m": 10000,
      "taf_visibility_m": 10000,
      "worst_visibility_m": 10000,
      "ceiling_ft": null,
      "hazards": [],
      "severityScore": 0,
      "metarRaw": "METAR EDLW 021550Z 04012KT CAVOK 03/M01 Q1001",
      "tafRaw": "TAF EDLW 021100Z 0212/0312 07009KT CAVOK"
    },
    {
      "icao": "EDNY",
      "iata": "FDH",
      "name": "Bodensee Airport Friedrichshafen",
      "lat": 47.671299,
      "lon": 9.51149,
      "updatedAt": "021550Z",
      "visibility_m": 10000,
      "taf_visibility_m": 10000,
      "worst_visibility_m": 10000,
      "ceiling_ft": null,
      "hazards": [],
      "severityScore": 0,
      "metarRaw": "METAR EDNY 021550Z 23004KT 140V260 CAVOK 04/01 Q0999",
      "tafRaw": "TAF EDNY 021400Z 0215/0224 23005KT CAVOK \n  BECMG 0215/0217 04005KT"
    },
    {
      "icao": "EFTU",
      "iata": "TKU",
      "name": "Turku Airport",
      "lat": 60.514099,
      "lon": 22.2628,
      "updatedAt": "021550Z",
      "visibility_m": 10000,
      "taf_visibility_m": 10000,
      "worst_visibility_m": 10000,
      "ceiling_ft": null,
      "hazards": [],
      "severityScore": 0,
      "metarRaw": "METAR EFTU 021550Z AUTO 34003KT CAVOK M16/M19 Q1028",
      "tafRaw": "TAF EFTU 021434Z 0215/0315 36003KT CAVOK"
    },
    {
      "icao": "EGGP",
      "iata": "LPL",
      "name": "Liverpool John Lennon Airport",
      "lat": 53.334863,
      "lon": -2.849637,
      "updatedAt": "021550Z",
      "visibility_m": 10000,
      "taf_visibility_m": 8000,
      "worst_visibility_m": 8000,
      "ceiling_ft": 3100,
      "hazards": [],
      "severityScore": 0,
      "metarRaw": "METAR EGGP 021550Z 10012KT 9999 FEW028 BKN031 07/03 Q0996",
      "tafRaw": "TAF EGGP 021055Z 0212/0312 09012KT 9999 BKN030 \n  PROB30 \n  TEMPO 0212/0218 8000 BKN012 \n  TEMPO 0218/0312 8000 BKN012"
    },
    {
      "icao": "EKBI",
      "iata": "BLL",
      "name": "Billund Airport",
      "lat": 55.740335,
      "lon": 9.157019,
      "updatedAt": "021550Z",
      "visibility_m": 10000,
      "taf_visibility_m": 10000,
      "worst_visibility_m": 10000,
      "ceiling_ft": null,
      "hazards": [],
      "severityScore": 0,
      "metarRaw": "METAR EKBI 021550Z AUTO 09020KT 9999 NCD M04/M11 Q1014",
      "tafRaw": "TAF EKBI 021427Z 0215/0315 10020KT 9999 SCT025 \n  TEMPO 0215/0315 10022G33KT"
    },
    {
      "icao": "EKCH",
      "iata": "CPH",
      "name": "Copenhagen Kastrup Airport",
      "lat": 55.617900848389,
      "lon": 12.656000137329,
      "updatedAt": "021550Z",
      "visibility_m": 10000,
      "taf_visibility_m": 10000,
      "worst_visibility_m": 10000,
      "ceiling_ft": null,
      "hazards": [],
      "severityScore": 0,
      "metarRaw": "METAR EKCH 021550Z AUTO 09021KT 9999 FEW029/// M05/M10 Q1018 TEMPO 10018G28KT",
      "tafRaw": "TAF EKCH 021427Z 0215/0315 10018KT 9999 SCT025 \n  TEMPO 0215/0220 10018G28KT \n  TEMPO 0220/0315 11022G35KT"
    },
    {
      "icao": "ENAL",
      "iata": "AES",
      "name": "Ålesund Airport, Vigra",
      "lat": 62.5625,
      "lon": 6.1197,
      "updatedAt": "021550Z",
      "visibility_m": 10000,
      "taf_visibility_m": 10000,
      "worst_visibility_m": 10000,
      "ceiling_ft": null,
      "hazards": [],
      "severityScore": 0,
      "metarRaw": "METAR ENAL 021550Z 15007KT 120V180 CAVOK M02/M11 Q1019",
      "tafRaw": "TAF ENAL 021400Z 0215/0224 14009KT CAVOK"
    },
    {
      "icao": "ENHD",
      "iata": "HAU",
      "name": "Haugesund Airport, Karmøy",
      "lat": 59.345299,
      "lon": 5.20836,
      "updatedAt": "021550Z",
      "visibility_m": 10000,
      "taf_visibility_m": 10000,
      "worst_visibility_m": 10000,
      "ceiling_ft": null,
      "hazards": [],
      "severityScore": 0,
      "metarRaw": "METAR ENHD 021550Z 11012KT CAVOK M03/M13 Q1019",
      "tafRaw": "TAF ENHD 021400Z 0215/0223 12010KT CAVOK"
    },
    {
      "icao": "ENVA",
      "iata": "TRD",
      "name": "Trondheim Airport, Værnes",
      "lat": 63.457802,
      "lon": 10.924,
      "updatedAt": "021550Z",
      "visibility_m": 10000,
      "taf_visibility_m": 10000,
      "worst_visibility_m": 10000,
      "ceiling_ft": null,
      "hazards": [],
      "severityScore": 0,
      "metarRaw": "METAR ENVA 021550Z 09005KT 020V150 CAVOK M06/M15 Q1021 NOSIG RMK WIND 670FT 14013KT",
      "tafRaw": "TAF ENVA 021100Z 0212/0312 11008KT CAVOK"
    },
    {
      "icao": "EPLB",
      "iata": "LUZ",
      "name": "Lublin Airport",
      "lat": 51.240157,
      "lon": 22.713461,
      "updatedAt": "021600Z",
      "visibility_m": 10000,
      "taf_visibility_m": 10000,
      "worst_visibility_m": 10000,
      "ceiling_ft": null,
      "hazards": [],
      "severityScore": 0,
      "metarRaw": "METAR EPLB 021600Z 05004KT CAVOK M14/M19 Q1018",
      "tafRaw": "TAF EPLB 021130Z 0212/0312 08008KT CAVOK"
    },
    {
      "icao": "EPMO",
      "iata": "WMI",
      "name": "Modlin Airport",
      "lat": 52.451099,
      "lon": 20.6518,
      "updatedAt": "021600Z",
      "visibility_m": 10000,
      "taf_visibility_m": 10000,
      "worst_visibility_m": 10000,
      "ceiling_ft": null,
      "hazards": [],
      "severityScore": 0,
      "metarRaw": "METAR EPMO 021600Z 06010KT CAVOK M15/M20 Q1020",
      "tafRaw": "TAF EPMO 021130Z 0212/0312 07012KT CAVOK"
    },
    {
      "icao": "EPPO",
      "iata": "POZ",
      "name": "Poznań-Ławica Airport",
      "lat": 52.421598,
      "lon": 16.823359,
      "updatedAt": "021600Z",
      "visibility_m": 10000,
      "taf_visibility_m": 10000,
      "worst_visibility_m": 10000,
      "ceiling_ft": 3200,
      "hazards": [],
      "severityScore": 0,
      "metarRaw": "METAR EPPO 021600Z 11013KT 9999 OVC032 M09/M17 Q1016",
      "tafRaw": "TAF EPPO 021130Z 0212/0312 10014KT 9999 BKN048 \n  PROB40 \n  TEMPO 0212/0219 09015G25KT"
    },
    {
      "icao": "EPRZ",
      "iata": "RZE",
      "name": "Rzeszów-Jasionka Airport",
      "lat": 50.109791,
      "lon": 22.024155,
      "updatedAt": "021600Z",
      "visibility_m": 10000,
      "taf_visibility_m": 10000,
      "worst_visibility_m": 10000,
      "ceiling_ft": 2800,
      "hazards": [],
      "severityScore": 0,
      "metarRaw": "METAR EPRZ 021600Z 06009KT 9999 OVC028 M09/M17 Q1015",
      "tafRaw": "TAF EPRZ 021130Z 0212/0312 09014KT 9999 BKN045 \n  TEMPO 0218/0309 BKN012"
    },
    {
      "icao": "EPSY",
      "iata": "SZY",
      "name": "Olsztyn-Mazury Airport",
      "lat": 53.481899,
      "lon": 20.9377,
      "updatedAt": "021600Z",
      "visibility_m": 10000,
      "taf_visibility_m": 10000,
      "worst_visibility_m": 10000,
      "ceiling_ft": null,
      "hazards": [],
      "severityScore": 0,
      "metarRaw": "METAR EPSY 021600Z 03005KT CAVOK M17/M22 Q1021",
      "tafRaw": "TAF EPSY 021430Z 0215/0224 07006KT CAVOK"
    },
    {
      "icao": "EPWA",
      "iata": "WAW",
      "name": "Warsaw Chopin Airport",
      "lat": 52.165699,
      "lon": 20.9671,
      "updatedAt": "021600Z",
      "visibility_m": 10000,
      "taf_visibility_m": 10000,
      "worst_visibility_m": 10000,
      "ceiling_ft": null,
      "hazards": [],
      "severityScore": 0,
      "metarRaw": "METAR EPWA 021600Z 07009KT 040V100 CAVOK M12/M19 Q1019 NOSIG",
      "tafRaw": "TAF EPWA 021430Z 0215/0315 07008KT CAVOK"
    },
    {
      "icao": "EPWR",
      "iata": "WRO",
      "name": "Copernicus Wrocław Airport",
      "lat": 51.103719,
      "lon": 16.882096,
      "updatedAt": "021600Z",
      "visibility_m": 10000,
      "taf_visibility_m": 10000,
      "worst_visibility_m": 10000,
      "ceiling_ft": 2100,
      "hazards": [],
      "severityScore": 0,
      "metarRaw": "METAR EPWR 021600Z 10006KT 9999 OVC021 M05/M12 Q1013",
      "tafRaw": "TAF EPWR 021430Z 0215/0315 10010KT 9999 OVC019 \n  PROB40 0301/0310 BKN013"
    },
    {
      "icao": "ESMS",
      "iata": "MMX",
      "name": "Malmö Sturup Airport",
      "lat": 55.535564,
      "lon": 13.376327,
      "updatedAt": "021550Z",
      "visibility_m": 10000,
      "taf_visibility_m": 10000,
      "worst_visibility_m": 10000,
      "ceiling_ft": null,
      "hazards": [],
      "severityScore": 0,
      "metarRaw": "METAR ESMS 021550Z 09018KT CAVOK M05/M10 Q1018",
      "tafRaw": "TAF ESMS 021427Z 0215/0315 10018KT 9999 SCT025 \n  TEMPO 0215/0219 11018G28KT \n  TEMPO 0219/0315 11020G32KT"
    },
    {
      "icao": "EYPA",
      "iata": "PLQ",
      "name": "Palanga International Airport",
      "lat": 55.973202,
      "lon": 21.093901,
      "updatedAt": "021550Z",
      "visibility_m": 10000,
      "taf_visibility_m": 6000,
      "worst_visibility_m": 6000,
      "ceiling_ft": null,
      "hazards": [],
      "severityScore": 0,
      "metarRaw": "METAR EYPA 021550Z 02003KT CAVOK M13/M17 Q1024",
      "tafRaw": "TAF EYPA 021100Z 0212/0312 VRB05KT CAVOK \n  BECMG 0216/0218 6000 NSC \n  TEMPO 0303/0308 SCT002"
    },
    {
      "icao": "HEGN",
      "iata": "HRG",
      "name": "Hurghada International Airport",
      "lat": 27.176776,
      "lon": 33.796692,
      "updatedAt": "021600Z",
      "visibility_m": 10000,
      "taf_visibility_m": 10000,
      "worst_visibility_m": 10000,
      "ceiling_ft": null,
      "hazards": [],
      "severityScore": 0,
      "metarRaw": "METAR HEGN 021600Z 00000KT CAVOK 23/16 Q1014 NOSIG",
      "tafRaw": "TAF HEGN 021100Z 0212/0318 10008KT CAVOK \n  BECMG 0217/0219 24008KT"
    },
    {
      "icao": "HEMA",
      "iata": "RMF",
      "name": "Marsa Alam International Airport",
      "lat": 25.555548,
      "lon": 34.59245,
      "updatedAt": "021600Z",
      "visibility_m": 10000,
      "taf_visibility_m": 10000,
      "worst_visibility_m": 10000,
      "ceiling_ft": null,
      "hazards": [],
      "severityScore": 0,
      "metarRaw": "METAR HEMA 021600Z 14003KT CAVOK 24/18 Q1014 NOSIG",
      "tafRaw": "TAF HEMA 021100Z 0212/0318 11008KT CAVOK \n  BECMG 0217/0219 23008KT"
    },
    {
      "icao": "HESH",
      "iata": "SSH",
      "name": "Sharm El Sheikh International Airport",
      "lat": 27.977272,
      "lon": 34.394717,
      "updatedAt": "021600Z",
      "visibility_m": 10000,
      "taf_visibility_m": 10000,
      "worst_visibility_m": 10000,
      "ceiling_ft": null,
      "hazards": [],
      "severityScore": 0,
      "metarRaw": "METAR HESH 021600Z 17011KT CAVOK 24/15 Q1013 NOSIG",
      "tafRaw": "TAF HESH 021100Z 0212/0318 30008KT CAVOK"
    },
    {
      "icao": "HESX",
      "iata": "SPX",
      "name": "Sphinx International Airport",
      "lat": 30.108179,
      "lon": 30.895728,
      "updatedAt": "021600Z",
      "visibility_m": 10000,
      "taf_visibility_m": 3000,
      "worst_visibility_m": 3000,
      "ceiling_ft": null,
      "hazards": [],
      "severityScore": 0,
      "metarRaw": "METAR HESX 021600Z 28010KT CAVOK 20/03 Q1016 NOSIG",
      "tafRaw": "TAF HESX 021100Z 0212/0318 26014G24KT 6000 NSC \n  TEMPO 0212/0218 3000 SA \n  BECMG 0218/0220 29008KT CAVOK"
    },
    {
      "icao": "LATI",
      "iata": "TIA",
      "name": "Tirana International Airport Mother Teresa",
      "lat": 41.4147,
      "lon": 19.7206,
      "updatedAt": "021620Z",
      "visibility_m": 10000,
      "taf_visibility_m": 10000,
      "worst_visibility_m": 10000,
      "ceiling_ft": 6400,
      "hazards": [],
      "severityScore": 0,
      "metarRaw": "METAR LATI 021620Z 17003KT 9999 FEW030 SCT045 BKN064 10/05 Q1011 NOSIG",
      "tafRaw": "TAF LATI 021100Z 0212/0312 VRB05KT 9999 SCT060 BKN080 TX16/0312Z TN06/0304Z \n  PROB30 \n  TEMPO 0213/0216 FEW030TCU BKN050"
    },
    {
      "icao": "LEAL",
      "iata": "ALC",
      "name": "Alicante-Elche Miguel Hernández Airport",
      "lat": 38.2822,
      "lon": -0.558156,
      "updatedAt": "021600Z",
      "visibility_m": 10000,
      "taf_visibility_m": 10000,
      "worst_visibility_m": 10000,
      "ceiling_ft": null,
      "hazards": [],
      "severityScore": 0,
      "metarRaw": "METAR LEAL 021600Z 23009KT 190V260 CAVOK 17/04 Q0999 NOSIG",
      "tafRaw": "TAF LEAL 021100Z 0212/0312 VRB04KT 9999 FEW030 TX19/0213Z TN05/0306Z \n  BECMG 0212/0214 25015KT \n  TEMPO 0213/0216 25018G28KT \n  BECMG 0218/0220 26005KT"
    },
    {
      "icao": "LEXJ",
      "iata": "SDR",
      "name": "Seve Ballesteros-Santander Airport",
      "lat": 43.427101,
      "lon": -3.82001,
      "updatedAt": "021600Z",
      "visibility_m": 10000,
      "taf_visibility_m": 10000,
      "worst_visibility_m": 10000,
      "ceiling_ft": null,
      "hazards": [],
      "severityScore": 0,
      "metarRaw": "METAR LEXJ 021600Z 22005KT 150V290 CAVOK 15/04 Q0987",
      "tafRaw": "TAF LEXJ 021400Z 0215/0315 23009KT 9999 FEW040 TX15/0312Z TN09/0304Z \n  TEMPO 0215/0315 23015G28KT"
    },
    {
      "icao": "LIBD",
      "iata": "BRI",
      "name": "Bari Karol Wojtyła International Airport",
      "lat": 41.138901,
      "lon": 16.760599,
      "updatedAt": "021550Z",
      "visibility_m": 10000,
      "taf_visibility_m": 10000,
      "worst_visibility_m": 10000,
      "ceiling_ft": null,
      "hazards": [],
      "severityScore": 0,
      "metarRaw": "METAR LIBD 021550Z 04003KT CAVOK 11/05 Q1010",
      "tafRaw": "TAF LIBD 021100Z 0212/0312 33008KT 9999 FEW030 \n  BECMG 0216/0218 18010KT"
    },
    {
      "icao": "LIBG",
      "iata": "TAR",
      "name": "Taranto-Grottaglie Marcello Arlotta Airport",
      "lat": 40.517502,
      "lon": 17.4032,
      "updatedAt": "021550Z",
      "visibility_m": 10000,
      "taf_visibility_m": 10000,
      "worst_visibility_m": 10000,
      "ceiling_ft": null,
      "hazards": [],
      "severityScore": 0,
      "metarRaw": "METAR LIBG 021550Z 18004KT CAVOK 12/04 Q1010",
      "tafRaw": "TAF LIBG 021400Z 0215/0224 VRB05KT 9999 FEW040"
    },
    {
      "icao": "LIBP",
      "iata": "PSR",
      "name": "Abruzzo Airport",
      "lat": 42.431079,
      "lon": 14.182981,
      "updatedAt": "021550Z",
      "visibility_m": 10000,
      "taf_visibility_m": 10000,
      "worst_visibility_m": 10000,
      "ceiling_ft": null,
      "hazards": [],
      "severityScore": 0,
      "metarRaw": "METAR LIBP 021550Z AUTO 09004KT 060V150 9999 NCD 10/03 Q1009",
      "tafRaw": "TAF LIBP 021100Z 0212/0312 VRB05KT 9999 FEW040"
    },
    {
      "icao": "LICA",
      "iata": "SUF",
      "name": "Lamezia Terme Sant'Eufemia International Airport",
      "lat": 38.906214,
      "lon": 16.246007,
      "updatedAt": "021550Z",
      "visibility_m": 10000,
      "taf_visibility_m": 10000,
      "worst_visibility_m": 10000,
      "ceiling_ft": null,
      "hazards": [],
      "severityScore": 0,
      "metarRaw": "METAR LICA 021550Z 29006KT 9999 SCT030 SCT055 13/10 Q1011",
      "tafRaw": "TAF LICA 021100Z 0212/0312 28012KT 9999 SCT025 \n  BECMG 0220/0222 07012KT"
    },
    {
      "icao": "LICC",
      "iata": "CTA",
      "name": "Catania-Fontanarossa Airport",
      "lat": 37.466801,
      "lon": 15.0664,
      "updatedAt": "021550Z",
      "visibility_m": 10000,
      "taf_visibility_m": 10000,
      "worst_visibility_m": 10000,
      "ceiling_ft": null,
      "hazards": [],
      "severityScore": 0,
      "metarRaw": "METAR LICC 021550Z 26013KT 9999 FEW060 15/11 Q1011",
      "tafRaw": "TAF LICC 021100Z 0212/0312 24016KT 9999 FEW040"
    },
    {
      "icao": "LICJ",
      "iata": "PMO",
      "name": "Falcone–Borsellino Airport",
      "lat": 38.175999,
      "lon": 13.091,
      "updatedAt": "021550Z",
      "visibility_m": 10000,
      "taf_visibility_m": 10000,
      "worst_visibility_m": 10000,
      "ceiling_ft": null,
      "hazards": [],
      "severityScore": 0,
      "metarRaw": "METAR LICJ 021550Z 19009KT CAVOK 16/08 Q1009",
      "tafRaw": "TAF LICJ 021100Z 0212/0312 28015KT 9999 SCT030 \n  BECMG 0213/0215 20013KT"
    },
    {
      "icao": "LIPY",
      "iata": "AOI",
      "name": "Marche Airport",
      "lat": 43.616299,
      "lon": 13.3623,
      "updatedAt": "021550Z",
      "visibility_m": 10000,
      "taf_visibility_m": 10000,
      "worst_visibility_m": 10000,
      "ceiling_ft": null,
      "hazards": [],
      "severityScore": 0,
      "metarRaw": "METAR LIPY 021550Z 08005KT 050V110 CAVOK 09/05 Q1008",
      "tafRaw": "TAF LIPY 021100Z 0212/0312 VRB05KT 9999 FEW040 \n  BECMG 0216/0218 14010KT"
    },
    {
      "icao": "LIRN",
      "iata": "NAP",
      "name": "Naples International Airport",
      "lat": 40.886002,
      "lon": 14.2908,
      "updatedAt": "021550Z",
      "visibility_m": 10000,
      "taf_visibility_m": 10000,
      "worst_visibility_m": 10000,
      "ceiling_ft": null,
      "hazards": [],
      "severityScore": 0,
      "metarRaw": "METAR LIRN 021550Z 20005KT 170V230 9999 FEW040 13/05 Q1010 NOSIG",
      "tafRaw": "TAF LIRN 021100Z 0212/0312 VRB05KT 9999 FEW030 \n  BECMG 0215/0217 16012KT"
    },
    {
      "icao": "LMML",
      "iata": "MLA",
      "name": "Malta International Airport",
      "lat": 35.857498,
      "lon": 14.4775,
      "updatedAt": "021615Z",
      "visibility_m": 10000,
      "taf_visibility_m": 10000,
      "worst_visibility_m": 10000,
      "ceiling_ft": null,
      "hazards": [],
      "severityScore": 0,
      "metarRaw": "METAR LMML 021615Z 20007KT 150V230 9999 FEW030 15/10 Q1013 NOSIG",
      "tafRaw": "TAF LMML 021100Z 0212/0312 26015KT 9999 FEW025 \n  BECMG 0217/0220 19015KT \n  TEMPO 0300/0309 18018G28KT"
    },
    {
      "icao": "LPMA",
      "iata": "FNC",
      "name": "Cristiano Ronaldo International Airport",
      "lat": 32.697812,
      "lon": -16.774613,
      "updatedAt": "021600Z",
      "visibility_m": 10000,
      "taf_visibility_m": 10000,
      "worst_visibility_m": 10000,
      "ceiling_ft": null,
      "hazards": [],
      "severityScore": 0,
      "metarRaw": "METAR LPMA 021600Z VRB03KT 9999 SCT015 18/08 Q1014",
      "tafRaw": "TAF LPMA 021100Z 0212/0312 34015KT 9999 SCT015 \n  TEMPO 0212/0224 VRB05KT FEW018CB \n  BECMG 0300/0302 VRB05KT"
    },
    {
      "icao": "LRIA",
      "iata": "IAS",
      "name": "Iaşi Airport",
      "lat": 47.180278,
      "lon": 27.620833,
      "updatedAt": "021600Z",
      "visibility_m": 10000,
      "taf_visibility_m": 10000,
      "worst_visibility_m": 10000,
      "ceiling_ft": null,
      "hazards": [],
      "severityScore": 0,
      "metarRaw": "METAR LRIA 021600Z 36004KT CAVOK M08/M15 Q1017",
      "tafRaw": "TAF LRIA 021400Z 0215/0224 02008KT CAVOK"
    },
    {
      "icao": "LRBC",
      "iata": "BCM",
      "name": "Bacău George Enescu International  Airport",
      "lat": 46.5219,
      "lon": 26.910299,
      "updatedAt": "021600Z",
      "visibility_m": 10000,
      "taf_visibility_m": 10000,
      "worst_visibility_m": 10000,
      "ceiling_ft": null,
      "hazards": [],
      "severityScore": 0,
      "metarRaw": "METAR LRBC 021600Z 34006KT CAVOK M07/M14 Q1016",
      "tafRaw": "TAF LRBC 021400Z 0215/0224 01008KT CAVOK"
    },
    {
      "icao": "LUKK",
      "iata": "RMO",
      "name": "Chişinău International Airport",
      "lat": 46.9277,
      "lon": 28.931,
      "updatedAt": "021600Z",
      "visibility_m": 10000,
      "taf_visibility_m": 10000,
      "worst_visibility_m": 10000,
      "ceiling_ft": null,
      "hazards": [],
      "severityScore": 0,
      "metarRaw": "METAR LUKK 021600Z 02009KT CAVOK M09/M15 Q1017 NOSIG",
      "tafRaw": "TAF LUKK 021101Z 0212/0312 03010KT CAVOK \n  BECMG 0216/0218 VRB06KT"
    },
    {
      "icao": "LWOH",
      "iata": "OHD",
      "name": "Ohrid St. Paul the Apostle Airport",
      "lat": 41.18,
      "lon": 20.7423,
      "updatedAt": "021620Z",
      "visibility_m": 10000,
      "taf_visibility_m": 10000,
      "worst_visibility_m": 10000,
      "ceiling_ft": 3500,
      "hazards": [],
      "severityScore": 0,
      "metarRaw": "METAR LWOH 021620Z 33004KT 270V020 9999 SCT015 BKN035 04/03 Q1009",
      "tafRaw": "TAF LWOH 021435Z 0215/0315 15010KT 9999 SCT020 BKN035"
    },
    {
      "icao": "LWSK",
      "iata": "SKP",
      "name": "Skopje International Airport",
      "lat": 41.958087,
      "lon": 21.622581,
      "updatedAt": "021620Z",
      "visibility_m": 10000,
      "taf_visibility_m": 10000,
      "worst_visibility_m": 10000,
      "ceiling_ft": null,
      "hazards": [],
      "severityScore": 0,
      "metarRaw": "METAR LWSK 021620Z 02005KT 9999 FEW040 SCT080 02/M01 Q1012 NOSIG",
      "tafRaw": "TAF LWSK 021435Z 0215/0315 VRB03KT 9999 FEW040 SCT050"
    },
    {
      "icao": "LYNI",
      "iata": "INI",
      "name": "Niš Constantine the Great Airport",
      "lat": 43.336538,
      "lon": 21.856242,
      "updatedAt": "021600Z",
      "visibility_m": 10000,
      "taf_visibility_m": 10000,
      "worst_visibility_m": 10000,
      "ceiling_ft": 8500,
      "hazards": [],
      "severityScore": 0,
      "metarRaw": "METAR LYNI 021600Z 07007KT 9999 SCT033 BKN085 M01/M06 Q1014 NOSIG",
      "tafRaw": "TAF LYNI 021100Z 0212/0312 07006KT 9999 SCT040 TX06/0312Z TNM05/0306Z"
    },
    {
      "icao": "OEJN",
      "iata": "JED",
      "name": "King Abdulaziz International Airport",
      "lat": 21.6796,
      "lon": 39.156502,
      "updatedAt": "021600Z",
      "visibility_m": 10000,
      "taf_visibility_m": 3000,
      "worst_visibility_m": 3000,
      "ceiling_ft": null,
      "hazards": [],
      "severityScore": 0,
      "metarRaw": "METAR OEJN 021600Z 27006KT CAVOK 27/20 Q1013 NOSIG",
      "tafRaw": "TAF OEJN 021100Z 0212/0318 26010KT 7000 NSC \n  BECMG 0218/0220 02005KT \n  PROB40 \n  TEMPO 0218/0304 3000 HZ \n  BECMG 0308/0310 28010KT"
    },
    {
      "icao": "OEMA",
      "iata": "MED",
      "name": "Prince Mohammad Bin Abdulaziz Airport",
      "lat": 24.5534,
      "lon": 39.705101,
      "updatedAt": "021600Z",
      "visibility_m": 10000,
      "taf_visibility_m": 10000,
      "worst_visibility_m": 10000,
      "ceiling_ft": null,
      "hazards": [],
      "severityScore": 0,
      "metarRaw": "METAR OEMA 021600Z 25008KT 9999 FEW045 28/12 Q1017 NOSIG",
      "tafRaw": "TAF OEMA 021100Z 0212/0318 26010KT 9999 SCT045 \n  PROB30 \n  TEMPO 0213/0218 FEW030CB \n  BECMG 0222/0300 VRB03KT \n  BECMG 0308/0310 28010KT"
    },
    {
      "icao": "OMAA",
      "iata": "AUH",
      "name": "Zayed International Airport",
      "lat": 24.440966,
      "lon": 54.649237,
      "updatedAt": "021600Z",
      "visibility_m": 10000,
      "taf_visibility_m": 4000,
      "worst_visibility_m": 4000,
      "ceiling_ft": null,
      "hazards": [],
      "severityScore": 0,
      "metarRaw": "METAR OMAA 021600Z 32003KT CAVOK 22/11 Q1018 NOSIG",
      "tafRaw": "TAF OMAA 021100Z 0212/0318 33010KT 8000 NSC \n  BECMG 0216/0218 03005KT \n  PROB30 0223/0305 4000 HZ \n  BECMG 0310/0312 34010KT \n  BECMG 0316/0318 06005KT"
    },
    {
      "icao": "OMDB",
      "iata": "DXB",
      "name": "Dubai International Airport",
      "lat": 25.2527999878,
      "lon": 55.3643989563,
      "updatedAt": "021600Z",
      "visibility_m": 10000,
      "taf_visibility_m": 4000,
      "worst_visibility_m": 4000,
      "ceiling_ft": null,
      "hazards": [],
      "severityScore": 0,
      "metarRaw": "METAR OMDB 021600Z 34005KT 310V040 CAVOK 23/08 Q1018 NOSIG",
      "tafRaw": "TAF OMDB 021100Z 0212/0318 31010KT 8000 NSC \n  BECMG 0216/0218 10005KT \n  PROB30 0301/0305 4000 HZ \n  BECMG 0309/0311 32010KT \n  BECMG 0316/0318 05005KT"
    }
  ],
  "stats": {
    "icaoCount": 159,
    "metarReturned": 158,
    "tafReturned": 144,
    "stationsWritten": 159,
    "missingMetar": 1,
    "missingTaf": 15
  },
  "errors": []
}