{
  "generatedAt": "2026-01-25T19:01:09.372Z",
  "stations": [
    {
      "icao": "EBCI",
      "iata": "CRL",
      "name": "Brussels South Charleroi Airport",
      "lat": 50.461963,
      "lon": 4.459562,
      "updatedAt": "251850Z",
      "visibility_m": 10000,
      "taf_visibility_m": 300,
      "worst_visibility_m": 300,
      "ceiling_ft": 3400,
      "hazards": [
        "FZFG",
        "BR",
        "DZ",
        "FG"
      ],
      "severityScore": 100,
      "metarRaw": "METAR EBCI 251850Z 05005KT 9999 BKN034 02/M00 Q0995 NOSIG",
      "tafRaw": "TAF EBCI 251710Z 2518/2624 10004KT 8000 BKN018 \n  BECMG 2600/2603 4000 BR BKN007 \n  PROB40 \n  TEMPO 2603/2612 2000 -SG BKN003 \n  PROB30 \n  TEMPO 2604/2610 0300 FZFG BKN001 \n  BECMG 2612/2614 8000 NSW SCT015 \n  PROB40 \n  TEMPO 2618/2624 4000 -DZ BR SCT004 BKN007"
    },
    {
      "icao": "EDDB",
      "iata": "BER",
      "name": "Berlin Brandenburg Willy Brandt Airport",
      "lat": 52.361738,
      "lon": 13.502341,
      "updatedAt": "251850Z",
      "visibility_m": 2500,
      "taf_visibility_m": 1200,
      "worst_visibility_m": 1200,
      "ceiling_ft": 400,
      "hazards": [
        "BR",
        "FZDZ",
        "DZ",
        "FZRA",
        "SN",
        "RA"
      ],
      "severityScore": 100,
      "metarRaw": "METAR EDDB 251850Z AUTO 07011KT 4100 BR OVC004 M03/M04 Q1001 TEMPO 2500 -FZDZ",
      "tafRaw": "TAF EDDB 251700Z 2518/2618 06010KT 3000 BR BKN006 \n  PROB40 \n  TEMPO 2519/2602 FZRA BKN004 \n  TEMPO 2602/2608 1200 SN BKN002 \n  PROB30 \n  TEMPO 2608/2612 1200 -FZRA BKN002 \n  BECMG 2610/2613 14005KT \n  TEMPO 2612/2618 1200 -SN BKN002"
    },
    {
      "icao": "EDFH",
      "iata": "HHN",
      "name": "Frankfurt-Hahn Airport",
      "lat": 49.946353,
      "lon": 7.261734,
      "updatedAt": "251850Z",
      "visibility_m": 3000,
      "taf_visibility_m": 400,
      "worst_visibility_m": 400,
      "ceiling_ft": 200,
      "hazards": [
        "BR",
        "FZFG",
        "FG"
      ],
      "severityScore": 100,
      "metarRaw": "METAR EDFH 251850Z 15011KT 3000 BR BKN002 M04/M04 Q0995",
      "tafRaw": "TAF EDFH 251700Z 2518/2618 14013KT 3000 BR OVC003 \n  BECMG 2518/2521 15006KT \n  TEMPO 2518/2521 1200 OVC001 \n  TEMPO 2521/2612 0400 FZFG VV001 \n  BECMG 2600/2603 28008KT"
    },
    {
      "icao": "EDLW",
      "iata": "DTM",
      "name": "Dortmund Airport",
      "lat": 51.518299,
      "lon": 7.61224,
      "updatedAt": "251850Z",
      "visibility_m": 7000,
      "taf_visibility_m": 700,
      "worst_visibility_m": 700,
      "ceiling_ft": 300,
      "hazards": [
        "FZFG",
        "BR",
        "SN",
        "FZDZ",
        "FG",
        "DZ"
      ],
      "severityScore": 100,
      "metarRaw": "METAR EDLW 251850Z 01003KT 7000 NSC M00/M02 Q0996",
      "tafRaw": "TAF EDLW 251700Z 2518/2618 05004KT 7000 FEW015 \n  PROB40 \n  TEMPO 2520/2601 4500 BR BKN014 \n  BECMG 2601/2605 4000 -SN BR BKN007 \n  BECMG 2604/2608 27005KT \n  TEMPO 2606/2618 2500 SN \n  PROB30 \n  TEMPO 2608/2616 0700 SN FZFG OVC003 \n  PROB30 \n  TEMPO 2616/2618 FZDZ"
    },
    {
      "icao": "EDSB",
      "iata": "FKB",
      "name": "Karlsruhe Baden-Baden Airport",
      "lat": 48.7794,
      "lon": 8.0805,
      "updatedAt": "251850Z",
      "visibility_m": 5000,
      "taf_visibility_m": 800,
      "worst_visibility_m": 800,
      "ceiling_ft": 900,
      "hazards": [
        "FZFG",
        "BR",
        "FG"
      ],
      "severityScore": 100,
      "metarRaw": "METAR EDSB 251850Z 35003KT 5000 OVC009 00/M02 Q0997",
      "tafRaw": "TAF EDSB 251700Z 2518/2618 03004KT 6000 OVC010 \n  TEMPO 2518/2611 3000 BR OVC003 \n  PROB40 \n  TEMPO 2521/2606 0800 FZFG OVC001 \n  BECMG 2600/2603 21006KT"
    },
    {
      "icao": "EGGW",
      "iata": "LTN",
      "name": "London Luton Airport",
      "lat": 51.874699,
      "lon": -0.368333,
      "updatedAt": "251850Z",
      "visibility_m": 3700,
      "taf_visibility_m": 600,
      "worst_visibility_m": 600,
      "ceiling_ft": 400,
      "hazards": [
        "BR",
        "FG",
        "RA",
        "DZ"
      ],
      "severityScore": 100,
      "metarRaw": "METAR EGGW 251850Z AUTO 07008KT 3700 BR BKN004 OVC007 04/04 Q0996",
      "tafRaw": "TAF EGGW 251657Z 2518/2618 07008KT 6000 BKN005 \n  TEMPO 2518/2601 4000 RADZ BKN003 \n  PROB30 \n  TEMPO 2518/2608 0600 FG BKN001 \n  TEMPO 2601/2608 4000 BR BKN003 \n  BECMG 2608/2611 9999 BKN020 \n  BECMG 2612/2615 13010KT \n  TEMPO 2612/2618 8000 -RA BKN010"
    },
    {
      "icao": "EPGD",
      "iata": "GDN",
      "name": "Gdańsk Lech Wałęsa Airport",
      "lat": 54.377602,
      "lon": 18.4662,
      "updatedAt": "251830Z",
      "visibility_m": 10000,
      "taf_visibility_m": 2000,
      "worst_visibility_m": 2000,
      "ceiling_ft": 1200,
      "hazards": [
        "BR",
        "FZRA",
        "FZDZ",
        "RA",
        "DZ"
      ],
      "severityScore": 100,
      "metarRaw": "METAR EPGD 251830Z 10007KT 9999 OVC012 M06/M08 Q1008",
      "tafRaw": "TAF EPGD 251730Z 2518/2618 10010KT 9999 OVC013 \n  BECMG 2518/2521 OVC007 \n  PROB30 \n  TEMPO 2521/2604 -FZDZ \n  BECMG 2604/2607 -FZRA \n  TEMPO 2605/2613 3000 FZRA BKN002 \n  BECMG 2613/2616 2000 BR OVC002 \n  TEMPO 2613/2618 FZRA BKN001"
    },
    {
      "icao": "EPPO",
      "iata": "POZ",
      "name": "Poznań-Ławica Airport",
      "lat": 52.421598,
      "lon": 16.823359,
      "updatedAt": "251830Z",
      "visibility_m": 4500,
      "taf_visibility_m": 1300,
      "worst_visibility_m": 1300,
      "ceiling_ft": 600,
      "hazards": [
        "BR",
        "FZRA",
        "RA",
        "FZDZ",
        "DZ"
      ],
      "severityScore": 100,
      "metarRaw": "METAR EPPO 251830Z 08009KT 4500 BR OVC006 M03/M04 Q1003",
      "tafRaw": "TAF EPPO 251730Z 2518/2618 08010KT 4000 BR OVC007 \n  TEMPO 2518/2522 2500 -FZDZ -FZRA BR OVC004 \n  TEMPO 2522/2604 1300 FZRA FZDZ BR OVC002 \n  BECMG 2604/2606 2500 RA BR \n  BECMG 2609/2612 15007KT 6000 NSW BKN012 \n  PROB40 \n  TEMPO 2612/2615 SCT030"
    },
    {
      "icao": "EPSC",
      "iata": "SZZ",
      "name": "Solidarity Szczecin–Goleniów Airport",
      "lat": 53.584702,
      "lon": 14.9022,
      "updatedAt": "251830Z",
      "visibility_m": 10000,
      "taf_visibility_m": 700,
      "worst_visibility_m": 700,
      "ceiling_ft": 1400,
      "hazards": [
        "FG",
        "BR",
        "FZRA",
        "FZDZ",
        "RA",
        "DZ"
      ],
      "severityScore": 100,
      "metarRaw": "METAR EPSC 251830Z 08006KT 030V130 9999 OVC014 M02/M05 Q1004",
      "tafRaw": "TAF EPSC 251730Z 2518/2618 09009KT 9999 OVC013 \n  PROB40 \n  TEMPO 2518/2521 -FZDZ BKN009 \n  BECMG 2521/2524 -FZRA BKN007 \n  TEMPO 2600/2612 3000 FZRA BR OVC003 \n  BECMG 2612/2615 2000 BR OVC002 \n  BECMG 2615/2618 0700 FG"
    },
    {
      "icao": "EPSY",
      "iata": "SZY",
      "name": "Olsztyn-Mazury Airport",
      "lat": 53.481899,
      "lon": 20.9377,
      "updatedAt": "251830Z",
      "visibility_m": 7000,
      "taf_visibility_m": 4000,
      "worst_visibility_m": 4000,
      "ceiling_ft": 700,
      "hazards": [
        "SN",
        "BR",
        "FZRA",
        "RA"
      ],
      "severityScore": 100,
      "metarRaw": "METAR EPSY 251830Z 12006KT 060V160 7000 -SN OVC007 M06/M07 Q1009",
      "tafRaw": "TAF EPSY 251730Z 2518/2603 12006KT 9999 BKN012 \n  TEMPO 2518/2603 4000 -SN BR BKN008 \n  PROB40 \n  TEMPO 2601/2603 -FZRA BKN004"
    },
    {
      "icao": "EYVI",
      "iata": "VNO",
      "name": "Vilnius International Airport",
      "lat": 54.634102,
      "lon": 25.285801,
      "updatedAt": "251850Z",
      "visibility_m": 10000,
      "taf_visibility_m": 1500,
      "worst_visibility_m": 1500,
      "ceiling_ft": 500,
      "hazards": [
        "BR",
        "FZRA",
        "SN",
        "RA"
      ],
      "severityScore": 100,
      "metarRaw": "METAR EYVI 251850Z 14011KT CAVOK M11/M13 Q1015 NOSIG",
      "tafRaw": "TAF EYVI 251707Z 2518/2618 13009KT 8000 SCT015 \n  TEMPO 2518/2520 SCT010 \n  BECMG 2520/2523 SCT010 BKN015 \n  TEMPO 2523/2603 5000 -SN BR SCT005 OVC015 \n  PROB40 \n  TEMPO 2523/2603 BKN010 \n  BECMG 2611/2613 3000 SN BR OVC010 \n  TEMPO 2615/2618 1500 FZRA OVC005"
    },
    {
      "icao": "LBPD",
      "iata": "PDV",
      "name": "Plovdiv International Airport",
      "lat": 42.067799,
      "lon": 24.8508,
      "updatedAt": "251830Z",
      "visibility_m": 8000,
      "taf_visibility_m": 600,
      "worst_visibility_m": 600,
      "ceiling_ft": 200,
      "hazards": [
        "FG",
        "BR",
        "RA"
      ],
      "severityScore": 100,
      "metarRaw": "METAR LBPD 251830Z AUTO 00000KT 8000 OVC007/// 04/04 Q1013 NOSIG",
      "tafRaw": "TAF LBPD 251700Z 2518/2618 VRB04KT 8000 OVC010 \n  BECMG 2518/2520 3000 BR OVC005 \n  TEMPO 2522/2604 0600 FG OVC002 \n  BECMG 2606/2608 08014KT 9999 SCT025 OVC050 \n  TEMPO 2608/2618 5000 RA BKN015 OVC030"
    },
    {
      "icao": "LBWN",
      "iata": "VAR",
      "name": "Varna Airport",
      "lat": 43.232101,
      "lon": 27.8251,
      "updatedAt": "251830Z",
      "visibility_m": 6000,
      "taf_visibility_m": 500,
      "worst_visibility_m": 500,
      "ceiling_ft": 200,
      "hazards": [
        "FG",
        "BR"
      ],
      "severityScore": 100,
      "metarRaw": "METAR LBWN 251830Z AUTO 11009KT 6000 SCT017/// 08/08 Q1012 NOSIG",
      "tafRaw": "TAF LBWN 251700Z 2518/2618 13008KT 9999 SCT015 BKN045 \n  TEMPO 2519/2605 3000 BR BKN005 OVC012 \n  PROB40 2520/2604 0500 FG VV002 \n  BECMG 2606/2608 12018KT BKN040"
    },
    {
      "icao": "LFSB",
      "iata": "BSL",
      "name": "EuroAirport Basel–Mulhouse–Freiburg",
      "lat": 47.60068,
      "lon": 7.521117,
      "updatedAt": "251830Z",
      "visibility_m": 600,
      "taf_visibility_m": 600,
      "worst_visibility_m": 600,
      "ceiling_ft": 300,
      "hazards": [
        "FG",
        "BR",
        "RA",
        "DZ"
      ],
      "severityScore": 100,
      "metarRaw": "METAR LFSB 251830Z AUTO 34005KT 1200 0750 R15/P2000 R33/1400U BCFG VV/// 02/02 Q0996 TEMPO 0600 FG",
      "tafRaw": "TAF LFSB 251708Z 2518/2618 34005KT 6000 SCT004 \n  TEMPO 2518/2601 3000 BR BKN003 \n  PROB40 \n  TEMPO 2518/2524 0600 FG VV/// \n  PROB40 \n  TEMPO 2600/2608 24007KT 4000 -RADZ FEW003 BKN010 \n  BECMG 2608/2610 25010KT BKN015 \n  BECMG 2615/2617 CAVOK"
    },
    {
      "icao": "LIPH",
      "iata": "TSF",
      "name": "Treviso Antonio Canova Airport",
      "lat": 45.648399,
      "lon": 12.1944,
      "updatedAt": "251850Z",
      "visibility_m": 8000,
      "taf_visibility_m": 400,
      "worst_visibility_m": 400,
      "ceiling_ft": 300,
      "hazards": [
        "FG",
        "BR",
        "RA"
      ],
      "severityScore": 100,
      "metarRaw": "METAR LIPH 251850Z 20006KT 8000 SCT005 06/06 Q0997",
      "tafRaw": "TAF LIPH 251700Z 2518/2618 VRB05KT 8000 BKN030 \n  BECMG 2518/2520 2500 -RA BR BKN010 \n  TEMPO 2600/2607 0400 FG OVC003 \n  BECMG 2608/2610 8000 FEW025"
    },
    {
      "icao": "LIPR",
      "iata": "RMI",
      "name": "Federico Fellini International Airport",
      "lat": 44.020024,
      "lon": 12.612198,
      "updatedAt": "251850Z",
      "visibility_m": 10000,
      "taf_visibility_m": 500,
      "worst_visibility_m": 500,
      "ceiling_ft": 400,
      "hazards": [
        "FG",
        "BR",
        "RA"
      ],
      "severityScore": 100,
      "metarRaw": "METAR LIPR 251850Z VRB02KT 9999 FEW070 09/05 Q0998",
      "tafRaw": "TAF LIPR 251700Z 2518/2618 VRB06KT 9000 SCT020 \n  TEMPO 2519/2523 3000 -RA \n  BECMG 2600/2602 2000 BR \n  PROB40 \n  TEMPO 2602/2606 0500 FG BKN004 \n  BECMG 2606/2608 30010KT"
    },
    {
      "icao": "LIPZ",
      "iata": "VCE",
      "name": "Venice Marco Polo Airport",
      "lat": 45.505299,
      "lon": 12.3519,
      "updatedAt": "251850Z",
      "visibility_m": 5000,
      "taf_visibility_m": 300,
      "worst_visibility_m": 300,
      "ceiling_ft": 400,
      "hazards": [
        "BR",
        "FG",
        "RA"
      ],
      "severityScore": 100,
      "metarRaw": "METAR LIPZ 251850Z 21007KT 5000 BR BKN004 06/05 Q0998 NOSIG",
      "tafRaw": "TAF LIPZ 251700Z 2518/2624 VRB05KT 7000 SCT010 \n  TEMPO 2522/2603 2000 -RA \n  TEMPO 2603/2609 0300 FG BKN001 \n  BECMG 2619/2621 3000 BR"
    },
    {
      "icao": "LJLJ",
      "iata": "LJU",
      "name": "Ljubljana Jože Pučnik Airport",
      "lat": 46.223701,
      "lon": 14.4576,
      "updatedAt": "251830Z",
      "visibility_m": 2000,
      "taf_visibility_m": 400,
      "worst_visibility_m": 400,
      "ceiling_ft": 300,
      "hazards": [
        "BR",
        "RA",
        "FG",
        "SN"
      ],
      "severityScore": 100,
      "metarRaw": "METAR LJLJ 251830Z 02003KT 2000 -RA BR BKN003 OVC010 03/03 Q0997 NOSIG",
      "tafRaw": "TAF LJLJ 251700Z 2518/2618 30003KT 6000 SCT007 BKN015 \n  PROB30 \n  TEMPO 2518/2519 3000 -RA BR BKN007 \n  BECMG 2519/2521 2500 BCFG BR BKN007 \n  TEMPO 2521/2603 0400 FG VV002 \n  TEMPO 2601/2612 2500 -RASN BR SCT003 BKN012 OVC020"
    },
    {
      "icao": "LOWW",
      "iata": "VIE",
      "name": "Vienna International Airport",
      "lat": 48.110298,
      "lon": 16.5697,
      "updatedAt": "251850Z",
      "visibility_m": 4000,
      "taf_visibility_m": 400,
      "worst_visibility_m": 400,
      "ceiling_ft": 400,
      "hazards": [
        "BR",
        "RA",
        "DZ",
        "FG"
      ],
      "severityScore": 100,
      "metarRaw": "METAR LOWW 251850Z 11010KT 090V150 5000 -RADZ FEW004 BKN006 04/03 Q0997 TEMPO 4000 BR BKN004",
      "tafRaw": "TAF LOWW 251715Z 2518/2624 14012KT 2000 BR FEW002 BKN005 TX05/2614Z TN00/2607Z \n  TEMPO 2518/2522 4000 -RA BKN003 \n  FM260000 VRB02KT 0700 FG VV002 \n  TEMPO 2603/2609 0400 VV001 \n  BECMG 2610/2612 27007KT 9999 NSW FEW012 \n  BECMG 2616/2618 4000 BR \n  TEMPO 2619/2624 1200 BCFG BKN003"
    },
    {
      "icao": "LRIA",
      "iata": "IAS",
      "name": "Iaşi Airport",
      "lat": 47.180278,
      "lon": 27.620833,
      "updatedAt": "251830Z",
      "visibility_m": 900,
      "taf_visibility_m": 300,
      "worst_visibility_m": 300,
      "ceiling_ft": 100,
      "hazards": [
        "FG"
      ],
      "severityScore": 100,
      "metarRaw": "METAR LRIA 251830Z 11010KT 0900 R14/P2000N FG OVC001 00/M00 Q1014",
      "tafRaw": "TAF LRIA 251700Z 2518/2603 11010KT 0800 FG OVC001 \n  BECMG 2519/2521 0300 FG"
    },
    {
      "icao": "LRBC",
      "iata": "BCM",
      "name": "Bacău George Enescu International  Airport",
      "lat": 46.5219,
      "lon": 26.910299,
      "updatedAt": "251830Z",
      "visibility_m": 6000,
      "taf_visibility_m": 200,
      "worst_visibility_m": 200,
      "ceiling_ft": 300,
      "hazards": [
        "FG",
        "BR",
        "FZDZ",
        "DZ"
      ],
      "severityScore": 100,
      "metarRaw": "METAR LRBC 251830Z 18005KT 6000 OVC003 M00/M00 Q1013",
      "tafRaw": "TAF LRBC 251700Z 2518/2603 18007KT 5000 BR OVC005 \n  PROB40 \n  TEMPO 2518/2520 1500 -FZDZ BR OVC002 \n  BECMG 2520/2522 1500 BR OVC002 \n  BECMG 2522/2524 0600 FG OVC001 \n  BECMG 2600/2602 0200 FG"
    },
    {
      "icao": "LRBS",
      "iata": "BBU",
      "name": "Bucharest Băneasa Aurel Vlaicu International Airport",
      "lat": 44.503133,
      "lon": 26.102944,
      "updatedAt": "251830Z",
      "visibility_m": 800,
      "taf_visibility_m": 200,
      "worst_visibility_m": 200,
      "ceiling_ft": 100,
      "hazards": [
        "FZFG",
        "FG",
        "BR",
        "RA",
        "DZ"
      ],
      "severityScore": 100,
      "metarRaw": "METAR LRBS 251830Z 05006KT 0800 R07/1700U FZFG OVC001 M00/M00 Q1012 NOSIG",
      "tafRaw": "TAF LRBS 251700Z 2518/2618 06010KT 0200 FG VV001 \n  TEMPO 2520/2605 0600 OVC002 \n  BECMG 2605/2607 0600 OVC002 \n  BECMG 2607/2609 1500 -RADZ BR BKN003 OVC015 \n  BECMG 2609/2611 3000 -RA BR BKN005 OVC020 \n  TEMPO 2611/2618 1500 RA BR"
    },
    {
      "icao": "LRCV",
      "iata": "CRA",
      "name": "Craiova International Airport",
      "lat": 44.3181,
      "lon": 23.888599,
      "updatedAt": "251830Z",
      "visibility_m": 400,
      "taf_visibility_m": 200,
      "worst_visibility_m": 200,
      "ceiling_ft": 200,
      "hazards": [
        "FZFG",
        "FG",
        "BR",
        "RA",
        "DZ"
      ],
      "severityScore": 100,
      "metarRaw": "METAR LRCV 251830Z 16007KT 0400 R26/1100U FZFG VV002 M00/M00 Q1011",
      "tafRaw": "TAF LRCV 251700Z 2518/2603 09007KT 0600 FG VV002 \n  TEMPO 2518/2523 0200 FG VV001 \n  BECMG 2601/2603 1500 -RADZ BR OVC005"
    },
    {
      "icao": "LROP",
      "iata": "OTP",
      "name": "Bucharest Henri Coandă International Airport",
      "lat": 44.571792,
      "lon": 26.103285,
      "updatedAt": "251830Z",
      "visibility_m": 250,
      "taf_visibility_m": 200,
      "worst_visibility_m": 200,
      "ceiling_ft": 100,
      "hazards": [
        "FZFG",
        "FG",
        "BR",
        "RA",
        "DZ"
      ],
      "severityScore": 100,
      "metarRaw": "METAR LROP 251830Z 06007KT 0250 R08R/0550N R08L/0600D FZFG VV001 M00/M00 Q1012 TEMPO 0600 VV002",
      "tafRaw": "TAF LROP 251700Z 2518/2618 07010KT 0200 FG VV001 \n  TEMPO 2520/2605 0600 OVC002 \n  BECMG 2605/2607 0600 OVC002 \n  BECMG 2607/2609 1500 -RADZ BR BKN003 OVC015 \n  BECMG 2609/2611 3000 -RA BR BKN005 OVC020 \n  TEMPO 2611/2618 1500 RA BR"
    },
    {
      "icao": "LRSV",
      "iata": "SCV",
      "name": "Suceava Stefan cel Mare Airport",
      "lat": 47.6875,
      "lon": 26.35409927368164,
      "updatedAt": "251830Z",
      "visibility_m": 200,
      "taf_visibility_m": 150,
      "worst_visibility_m": 150,
      "ceiling_ft": 100,
      "hazards": [
        "FZFG",
        "FG",
        "FZDZ",
        "DZ"
      ],
      "severityScore": 100,
      "metarRaw": "METAR LRSV 251830Z 11008KT 0200 R34/0400N FZFG VV001 M01/M01 Q1011",
      "tafRaw": "TAF LRSV 251700Z 2518/2603 14012KT 0150 FZFG VV001 \n  PROB40 \n  TEMPO 2523/2603 -FZDZ"
    },
    {
      "icao": "LTAC",
      "iata": "ESB",
      "name": "Esenboğa International Airport",
      "lat": 40.128101,
      "lon": 32.995098,
      "updatedAt": "251850Z",
      "visibility_m": 8000,
      "taf_visibility_m": 500,
      "worst_visibility_m": 500,
      "ceiling_ft": 100,
      "hazards": [
        "FG",
        "BR"
      ],
      "severityScore": 100,
      "metarRaw": "METAR LTAC 251850Z VRB02KT 8000 SCT040 07/04 Q1020 NOSIG",
      "tafRaw": "TAF LTAC 251640Z 2518/2618 VRB02KT 9999 SCT040 \n  BECMG 2519/2521 4000 BR NSC \n  TEMPO 2522/2602 1200 BCFG BKN005 \n  PROB40 \n  TEMPO 2603/2607 0500 FG VV001 \n  BECMG 2608/2610 9999 NSW SCT040 BKN100"
    },
    {
      "icao": "LUKK",
      "iata": "RMO",
      "name": "Chişinău International Airport",
      "lat": 46.9277,
      "lon": 28.931,
      "updatedAt": "251830Z",
      "visibility_m": 800,
      "taf_visibility_m": 400,
      "worst_visibility_m": 400,
      "ceiling_ft": 200,
      "hazards": [
        "FZFG",
        "BR",
        "FZDZ",
        "FG",
        "DZ",
        "RA"
      ],
      "severityScore": 100,
      "metarRaw": "METAR LUKK 251830Z 11008KT 3600 -FZDZ BR OVC002 M00/M00 Q1015 TEMPO 0800 -FZDZ FZFG",
      "tafRaw": "TAF LUKK 251706Z 2518/2618 11009KT 1500 FZDZ BR OVC002 \n  TEMPO 2518/2521 0800 -FZDZ FZFG VV001 \n  BECMG 2521/2523 0800 FG VV001 \n  TEMPO 2523/2608 0400 -DZ FG \n  BECMG 2608/2610 2000 -RA BR OVC004 \n  BECMG 2612/2614 5000 OVC006"
    },
    {
      "icao": "UAAA",
      "iata": "ALA",
      "name": "Almaty International Airport",
      "lat": 43.354267,
      "lon": 77.042828,
      "updatedAt": "251853Z",
      "visibility_m": 700,
      "taf_visibility_m": 200,
      "worst_visibility_m": 200,
      "ceiling_ft": 200,
      "hazards": [
        "FZFG",
        "FG",
        "BR"
      ],
      "severityScore": 100,
      "metarRaw": "SPECI UAAA 251853Z 00000MPS 0700 R05R/1800 FZFG FEW100 SCT200 M07/M08 Q1023 NOSIG",
      "tafRaw": "TAF UAAA 251701Z 2518/2618 17003MPS 1500 BR FU SCT030 BKN100 TX01/2608Z TNM07/2602Z \n  TEMPO 2518/2606 VRB01MPS 0200 FZFG VV002 \n  FM260600 01003MPS 9999 SCT050 BKN100 \n  FM261200 22003MPS 3100 BR FU BKN050 OVC100 \n  TEMPO 2612/2618 1200"
    },
    {
      "icao": "UDSG",
      "iata": "LWN",
      "name": "Shirak International Airport",
      "lat": 40.750401,
      "lon": 43.859299,
      "updatedAt": "251830Z",
      "visibility_m": 1300,
      "taf_visibility_m": 200,
      "worst_visibility_m": 200,
      "ceiling_ft": 600,
      "hazards": [
        "BR",
        "FZFG",
        "FG"
      ],
      "severityScore": 100,
      "metarRaw": "METAR UDSG 251830Z 08004KT 1300 R02/P2000U BR VV006 M12/M13 Q1023 NOSIG",
      "tafRaw": "TAF UDSG 251700Z 2518/2618 VRB06KT 0800 FZFG OVC005 \n  TEMPO 2518/2603 0200 FZFG VV002 \n  TEMPO 2603/2609 0400 FZFG VV003 \n  BECMG 2609/2610 1200 BR BKN010"
    },
    {
      "icao": "UDYZ",
      "iata": "EVN",
      "name": "Zvartnots International Airport",
      "lat": 40.148941,
      "lon": 44.397887,
      "updatedAt": "251830Z",
      "visibility_m": 2000,
      "taf_visibility_m": 600,
      "worst_visibility_m": 600,
      "ceiling_ft": 700,
      "hazards": [
        "BR",
        "FZFG",
        "FG"
      ],
      "severityScore": 100,
      "metarRaw": "METAR UDYZ 251830Z VRB01KT 2000 R08/P2000D BR BKN007 M03/M05 Q1026 NOSIG",
      "tafRaw": "TAF UDYZ 251700Z 2518/2618 VRB04KT 2000 BR BKN010 \n  TEMPO 2518/2606 0600 FZFG VV003"
    },
    {
      "icao": "LFBD",
      "iata": "BOD",
      "name": "Bordeaux–Mérignac Airport",
      "lat": 44.82865,
      "lon": -0.715356,
      "updatedAt": "251830Z",
      "visibility_m": 4500,
      "taf_visibility_m": 1500,
      "worst_visibility_m": 1500,
      "ceiling_ft": 1400,
      "hazards": [
        "SHRA",
        "RA",
        "TSRA",
        "TS"
      ],
      "severityScore": 98,
      "metarRaw": "METAR LFBD 251830Z AUTO 19007KT 9999 SCT028/// SCT036/// BKN045/// ///TCU 06/06 Q0996 TEMPO 26015G25KT 4500 -SHRA BKN025TCU SCT030CB",
      "tafRaw": "TAF LFBD 251700Z 2518/2624 21010KT 9999 BKN035 TX12/2614Z TN05/2606Z \n  TEMPO 2518/2610 26015G25KT 4500 -SHRA BKN025TCU SCT030CB \n  PROB30 \n  TEMPO 2518/2519 25020G30KT 1500 -TSRA BKN020CB \n  BECMG 2602/2604 VRB03KT \n  BECMG 2609/2611 16010KT \n  TEMPO 2616/2624 4500 -SHRA BKN014 BKN030TCU"
    },
    {
      "icao": "LIBR",
      "iata": "BDS",
      "name": "Brindisi Airport",
      "lat": 40.6576,
      "lon": 17.947001,
      "updatedAt": "251850Z",
      "visibility_m": 8000,
      "taf_visibility_m": 3000,
      "worst_visibility_m": 3000,
      "ceiling_ft": 800,
      "hazards": [
        "RA",
        "TS",
        "BR",
        "TSRA"
      ],
      "severityScore": 97,
      "metarRaw": "METAR LIBR 251850Z 35005KT 320V020 8000 -RA VCTS FEW010CB SCT035 11/10 Q1002 RETSRA",
      "tafRaw": "TAF LIBR 251700Z 2518/2618 27008KT 8000 SCT020 \n  TEMPO 2518/2523 3000 TSRA BKN008"
    },
    {
      "icao": "LPPR",
      "iata": "OPO",
      "name": "Francisco de Sá Carneiro Airport",
      "lat": 41.2481002808,
      "lon": -8.68138980865,
      "updatedAt": "251830Z",
      "visibility_m": 8000,
      "taf_visibility_m": 1200,
      "worst_visibility_m": 1200,
      "ceiling_ft": 200,
      "hazards": [
        "BR",
        "RA",
        "DZ",
        "FG"
      ],
      "severityScore": 97,
      "metarRaw": "METAR LPPR 251830Z VRB02KT 8000 SCT030 11/09 Q1012",
      "tafRaw": "TAF LPPR 251700Z 2518/2618 26008KT 9999 FEW020 BKN030 \n  BECMG 2522/2524 19015KT 6000 -RA SCT004 BKN008 \n  TEMPO 2600/2618 3000 RADZ BR BKN004 \n  TEMPO 2602/2616 19020G32KT \n  PROB40 \n  TEMPO 2602/2609 1200 DZ PRFG BKN002 \n  BECMG 2616/2618 22025G38KT"
    },
    {
      "icao": "EPRZ",
      "iata": "RZE",
      "name": "Rzeszów-Jasionka Airport",
      "lat": 50.109791,
      "lon": 22.024155,
      "updatedAt": "251830Z",
      "visibility_m": 8000,
      "taf_visibility_m": 2500,
      "worst_visibility_m": 2500,
      "ceiling_ft": 600,
      "hazards": [
        "BR",
        "FZRA",
        "RA",
        "DZ"
      ],
      "severityScore": 92,
      "metarRaw": "METAR EPRZ 251830Z 09017KT 8000 OVC006 M01/M02 Q1006",
      "tafRaw": "TAF EPRZ 251730Z 2518/2618 09015KT 6000 BKN007 \n  TEMPO 2518/2606 2500 -FZRADZ BR BKN003 \n  BECMG 2606/2609 09005KT BKN040 \n  TEMPO 2606/2618 4000 RADZ"
    },
    {
      "icao": "LIPE",
      "iata": "BLQ",
      "name": "Bologna Guglielmo Marconi Airport",
      "lat": 44.5354,
      "lon": 11.2887,
      "updatedAt": "251850Z",
      "visibility_m": 9000,
      "taf_visibility_m": 500,
      "worst_visibility_m": 500,
      "ceiling_ft": 800,
      "hazards": [
        "FG",
        "RA"
      ],
      "severityScore": 92,
      "metarRaw": "METAR LIPE 251850Z VRB01KT 9000 BKN008 05/04 Q0997",
      "tafRaw": "TAF LIPE 251700Z 2518/2618 VRB05KT 7000 BKN006 \n  TEMPO 2518/2523 3000 -RA \n  TEMPO 2600/2610 0500 FG OVC002"
    },
    {
      "icao": "EHBK",
      "iata": "MST",
      "name": "Maastricht Aachen Airport",
      "lat": 50.911701,
      "lon": 5.77014,
      "updatedAt": "251855Z",
      "visibility_m": 5000,
      "taf_visibility_m": 600,
      "worst_visibility_m": 600,
      "ceiling_ft": 100,
      "hazards": [
        "BR",
        "FG"
      ],
      "severityScore": 90,
      "metarRaw": "METAR EHBK 251855Z AUTO 06006KT 5000 BR NSC M01/M03 Q0996 NOSIG",
      "tafRaw": "TAF EHBK 251724Z 2518/2624 07008KT 6000 NSC \n  BECMG 2600/2603 4000 BR \n  BECMG 2603/2606 28010KT 2000 BKN004 \n  PROB30 2604/2609 0600 FG BKN001 \n  BECMG 2616/2619 24005KT 7000 NSW BKN016 \n  PROB30 \n  TEMPO 2619/2624 4000 BR BKN008"
    },
    {
      "icao": "EDDH",
      "iata": "HAM",
      "name": "Hamburg Helmut Schmidt Airport",
      "lat": 53.630402,
      "lon": 9.98823,
      "updatedAt": "251850Z",
      "visibility_m": 4500,
      "taf_visibility_m": 500,
      "worst_visibility_m": 500,
      "ceiling_ft": 800,
      "hazards": [
        "BR",
        "SN"
      ],
      "severityScore": 88,
      "metarRaw": "METAR EDDH 251850Z AUTO 07012KT 040V100 6000 OVC008 M01/M03 Q1002 TEMPO 4500 BR",
      "tafRaw": "TAF EDDH 251700Z 2518/2624 09009KT 6000 OVC012 \n  TEMPO 2518/2523 4000 BR \n  TEMPO 2518/2520 OVC008 \n  BECMG 2520/2523 OVC008 \n  BECMG 2523/2601 03010KT 4000 -SN \n  TEMPO 2601/2612 1200 SN OVC003 \n  PROB30 \n  TEMPO 2603/2611 0500 +SN OVC001 \n  BECMG 2612/2614 6000 \n  TEMPO 2614/2624 4000 -SG OVC003 \n  BECMG 2618/2620 35005KT"
    },
    {
      "icao": "EDDN",
      "iata": "NUE",
      "name": "Nuremberg Airport",
      "lat": 49.498699,
      "lon": 11.078056,
      "updatedAt": "251850Z",
      "visibility_m": 800,
      "taf_visibility_m": 600,
      "worst_visibility_m": 600,
      "ceiling_ft": 400,
      "hazards": [
        "BR",
        "SN"
      ],
      "severityScore": 88,
      "metarRaw": "METAR EDDN 251850Z AUTO 34003KT 2000 SN BR BKN005 BKN012 M01/M02 Q0995 TEMPO 0800 +SN BKN004 OVC006",
      "tafRaw": "TAF EDDN 251700Z 2518/2618 26004KT 6000 OVC010 \n  BECMG 2518/2520 2000 -SN OVC008 \n  TEMPO 2519/2606 0600 +SN OVC002 \n  TEMPO 2608/2613 6000 OVC004 \n  TEMPO 2613/2618 0800 SN OVC002"
    },
    {
      "icao": "LIPX",
      "iata": "VRN",
      "name": "Verona Villafranca Valerio Catullo Airport",
      "lat": 45.394955,
      "lon": 10.887303,
      "updatedAt": "251850Z",
      "visibility_m": 6000,
      "taf_visibility_m": 300,
      "worst_visibility_m": 300,
      "ceiling_ft": 1000,
      "hazards": [
        "FG",
        "BR"
      ],
      "severityScore": 87,
      "metarRaw": "METAR LIPX 251850Z 25003KT 210V270 6000 OVC010 06/05 Q0997",
      "tafRaw": "TAF LIPX 251700Z 2518/2618 VRB05KT 6000 BKN005 \n  BECMG 2518/2520 3000 BR \n  BECMG 2520/2522 0300 FG \n  BECMG 2607/2609 3000 BR \n  BECMG 2609/2611 27010KT 6000 BKN010"
    },
    {
      "icao": "LEBB",
      "iata": "BIO",
      "name": "Bilbao Airport",
      "lat": 43.301102,
      "lon": -2.91061,
      "updatedAt": "251830Z",
      "visibility_m": 7000,
      "taf_visibility_m": 1500,
      "worst_visibility_m": 1500,
      "ceiling_ft": 2900,
      "hazards": [
        "RA",
        "TSRA",
        "SHRA",
        "TS"
      ],
      "severityScore": 86,
      "metarRaw": "METAR LEBB 251830Z 25007KT 210V280 7000 -RA FEW024 BKN029 OVC034 09/06 Q1003 RERA WS ALL RWY NOSIG",
      "tafRaw": "TAF LEBB 251700Z 2518/2618 28012KT 9999 FEW020 BKN035 TX14/2618Z TN07/2605Z \n  TEMPO 2518/2519 28020G43KT \n  TEMPO 2518/2520 28019G32KT 1500 TSRA SCT020CB \n  TEMPO 2518/2601 3000 SHRA SCT020TCU \n  BECMG 2601/2603 21009KT \n  PROB40 \n  TEMPO 2612/2618 21019G29KT RA"
    },
    {
      "icao": "LEXJ",
      "iata": "SDR",
      "name": "Seve Ballesteros-Santander Airport",
      "lat": 43.427101,
      "lon": -3.82001,
      "updatedAt": "251830Z",
      "visibility_m": 5000,
      "taf_visibility_m": 1500,
      "worst_visibility_m": 1500,
      "ceiling_ft": 3000,
      "hazards": [
        "RA",
        "TSRA",
        "SHRA",
        "TS"
      ],
      "severityScore": 86,
      "metarRaw": "METAR LEXJ 251830Z COR 28019G32KT 240V300 5000 RA FEW012 BKN030 09/07 Q1004",
      "tafRaw": "TAF LEXJ 251400Z 2515/2615 28014KT 9999 SCT020 BKN035 TX13/2615Z TN08/2605Z \n  TEMPO 2515/2519 28029G45KT \n  TEMPO 2515/2523 28019G32KT 3000 SHRA SCT030TCU \n  TEMPO 2515/2518 1500 TSRA SCT020CB \n  BECMG 2601/2603 20009KT \n  TEMPO 2609/2615 20019G29KT"
    },
    {
      "icao": "EYKA",
      "iata": "KUN",
      "name": "Kaunas International Airport",
      "lat": 54.963965,
      "lon": 24.08582,
      "updatedAt": "251850Z",
      "visibility_m": 10000,
      "taf_visibility_m": 1500,
      "worst_visibility_m": 1500,
      "ceiling_ft": 4700,
      "hazards": [
        "BR",
        "FZRA",
        "SN",
        "RA"
      ],
      "severityScore": 85,
      "metarRaw": "METAR EYKA 251850Z 13009KT 9999 OVC047 M09/M12 Q1015",
      "tafRaw": "TAF EYKA 251700Z 2518/2618 12009KT 8000 SCT025 \n  BECMG 2519/2521 SCT015 BKN030 \n  TEMPO 2521/2602 5000 -SN BR SCT010 OVC015 \n  PROB40 \n  TEMPO 2521/2602 OVC010 \n  BECMG 2610/2613 3000 SN -FZRA OVC010 \n  TEMPO 2613/2618 1500 BKN005"
    },
    {
      "icao": "LKPR",
      "iata": "PRG",
      "name": "Václav Havel Airport Prague",
      "lat": 50.100874,
      "lon": 14.259911,
      "updatedAt": "251830Z",
      "visibility_m": 3800,
      "taf_visibility_m": 1200,
      "worst_visibility_m": 1200,
      "ceiling_ft": 400,
      "hazards": [
        "BR",
        "RA",
        "SN"
      ],
      "severityScore": 85,
      "metarRaw": "METAR LKPR 251830Z 07008KT 3800 -RA BR FEW003 OVC004 02/02 Q0995 NOSIG",
      "tafRaw": "TAF LKPR 251700Z 2518/2624 06006KT 4000 -RA BR OVC008 \n  TEMPO 2518/2602 2000 RA BR BKN003 \n  PROB40 \n  TEMPO 2600/2602 1200 -RASN \n  BECMG 2604/2606 19010KT 9999 BKN015 \n  TEMPO 2612/2619 6000 -SN BKN008"
    },
    {
      "icao": "EPLB",
      "iata": "LUZ",
      "name": "Lublin Airport",
      "lat": 51.240157,
      "lon": 22.713461,
      "updatedAt": "251830Z",
      "visibility_m": 6000,
      "taf_visibility_m": 2500,
      "worst_visibility_m": 2500,
      "ceiling_ft": 900,
      "hazards": [
        "BR",
        "FZRA",
        "RA"
      ],
      "severityScore": 82,
      "metarRaw": "METAR EPLB 251830Z 11013KT 6000 OVC009 M04/M05 Q1009",
      "tafRaw": "TAF EPLB 251730Z 2518/2618 10012KT 8000 BKN010 BKN030 \n  PROB40 \n  TEMPO 2518/2521 4000 BR BKN008 \n  TEMPO 2521/2608 2500 -FZRA BR BKN005 \n  PROB40 \n  TEMPO 2521/2608 BKN003 \n  TEMPO 2608/2618 3500 RA BR BKN006 \n  PROB30 \n  TEMPO 2608/2618 -FZRA"
    },
    {
      "icao": "EPRA",
      "iata": "RDO",
      "name": "Warsaw Radom Airport",
      "lat": 51.38937,
      "lon": 21.214742,
      "updatedAt": "251830Z",
      "visibility_m": 9000,
      "taf_visibility_m": 5000,
      "worst_visibility_m": 5000,
      "ceiling_ft": 700,
      "hazards": [
        "RA",
        "BR",
        "FZRA"
      ],
      "severityScore": 82,
      "metarRaw": "METAR EPRA 251830Z 10011KT 9000 BKN007 M03/M05 Q1007",
      "tafRaw": "TAF EPRA 251730Z 2518/2603 10010KT 8000 OVC007 \n  BECMG 2520/2522 5000 -FZRA BR OVC005"
    },
    {
      "icao": "EDJA",
      "iata": "FMM",
      "name": "Memmingen Allgau Airport",
      "lat": 47.988092,
      "lon": 10.238248,
      "updatedAt": "251820Z",
      "visibility_m": 2200,
      "taf_visibility_m": 800,
      "worst_visibility_m": 800,
      "ceiling_ft": 200,
      "hazards": [
        "SN"
      ],
      "severityScore": 78,
      "metarRaw": "METAR EDJA 251820Z 23005KT 2200 +SN BKN002 OVC006 M00/M01 Q0994",
      "tafRaw": "TAF EDJA 251700Z 2518/2603 26003KT 0800 +SN OVC002 \n  BECMG 2518/2521 23009KT 3000 NSW OVC005 \n  TEMPO 2521/2603 2000 SN \n  BECMG 2521/2524 OVC010 \n  PROB30 \n  TEMPO 2523/2603 6000 OVC020"
    },
    {
      "icao": "EPWR",
      "iata": "WRO",
      "name": "Copernicus Wrocław Airport",
      "lat": 51.103719,
      "lon": 16.882096,
      "updatedAt": "251830Z",
      "visibility_m": 5000,
      "taf_visibility_m": 1200,
      "worst_visibility_m": 1200,
      "ceiling_ft": 100,
      "hazards": [
        "BR",
        "RA",
        "DZ"
      ],
      "severityScore": 77,
      "metarRaw": "METAR EPWR 251830Z 04003KT 5000 BR FEW009 01/00 Q1000",
      "tafRaw": "TAF EPWR 251730Z 2518/2618 08007KT 7000 OVC010 \n  BECMG 2518/2520 4000 -RA BR OVC007 \n  TEMPO 2520/2602 1300 RA BR OVC004 \n  BECMG 2602/2604 15012KT 2000 BR OVC004 \n  TEMPO 2602/2608 1200 -RADZ BR OVC001 \n  BECMG 2608/2610 7000 BKN013 \n  TEMPO 2610/2618 21012KT SCT030"
    },
    {
      "icao": "LHBP",
      "iata": "BUD",
      "name": "Budapest Liszt Ferenc International Airport",
      "lat": 47.43018,
      "lon": 19.262393,
      "updatedAt": "251830Z",
      "visibility_m": 6000,
      "taf_visibility_m": 1400,
      "worst_visibility_m": 1400,
      "ceiling_ft": 400,
      "hazards": [
        "RA",
        "BR",
        "DZ"
      ],
      "severityScore": 77,
      "metarRaw": "METAR LHBP 251830Z 09010KT 9999 -RA NSC 05/03 Q1001 TEMPO 6000 RA",
      "tafRaw": "TAF LHBP 251715Z 2518/2618 07010KT 9999 -RA FEW020 BKN060 \n  TEMPO 2518/2521 10016G26KT \n  TEMPO 2518/2603 4000 RA BKN008 OVC030 \n  TEMPO 2603/2609 04005KT 1400 RADZ BR OVC004 \n  BECMG 2609/2612 VRB02KT 3000 BR BKN004 OVC010 \n  BECMG 2615/2618 31006KT 5000 BR BKN010"
    },
    {
      "icao": "LPPT",
      "iata": "LIS",
      "name": "Lisbon Humberto Delgado Airport",
      "lat": 38.7813,
      "lon": -9.13592,
      "updatedAt": "251830Z",
      "visibility_m": 10000,
      "taf_visibility_m": 1200,
      "worst_visibility_m": 1200,
      "ceiling_ft": 200,
      "hazards": [
        "BR",
        "RA",
        "DZ"
      ],
      "severityScore": 77,
      "metarRaw": "METAR LPPT 251830Z 28005KT 9999 FEW010 14/12 Q1014",
      "tafRaw": "TAF LPPT 251700Z 2518/2624 25008KT 9999 SCT008 BKN015 \n  TEMPO 2518/2609 3000 RADZ BR SCT002 BKN004 \n  PROB40 \n  TEMPO 2520/2606 1200 DZ BR BKN002 \n  BECMG 2609/2611 23017KT SCT012 BKN025 \n  TEMPO 2611/2624 23020G32KT 5000 RA BR SCT006 BKN012"
    },
    {
      "icao": "LQTZ",
      "iata": "TZL",
      "name": "Tuzla International Airport",
      "lat": 44.459858,
      "lon": 18.723627,
      "updatedAt": "251830Z",
      "visibility_m": 9000,
      "taf_visibility_m": 400,
      "worst_visibility_m": 400,
      "ceiling_ft": 5500,
      "hazards": [
        "RA",
        "FG",
        "BR"
      ],
      "severityScore": 77,
      "metarRaw": "METAR LQTZ 251830Z 18015G28KT 150V220 9000 RA FEW035 BKN055 10/08 Q0999",
      "tafRaw": "TAF LQTZ 251700Z 2518/2618 12005KT 9999 BKN050 TX10/2518Z TN03/2605Z \n  TEMPO 2518/2521 4000 RA \n  TEMPO 2600/2610 2000 BR \n  PROB40 \n  TEMPO 2602/2608 0400 FG BKN002"
    },
    {
      "icao": "LICA",
      "iata": "SUF",
      "name": "Lamezia Terme Sant'Eufemia International Airport",
      "lat": 38.906214,
      "lon": 16.246007,
      "updatedAt": "251850Z",
      "visibility_m": 10000,
      "taf_visibility_m": 4000,
      "worst_visibility_m": 4000,
      "ceiling_ft": 3000,
      "hazards": [
        "RA",
        "TSRA",
        "SHRA",
        "TS"
      ],
      "severityScore": 76,
      "metarRaw": "METAR LICA 251850Z AUTO 29009KT 9999 -RA OVC060/// 11/07 Q1004",
      "tafRaw": "TAF LICA 251700Z 2518/2618 26013KT 9999 SCT015 BKN030 \n  TEMPO 2518/2523 SHRA \n  TEMPO 2523/2612 4000 TSRA \n  TEMPO 2600/2606 26018G28KT \n  TEMPO 2612/2618 SHRA \n  BECMG 2613/2615 VRB05KT"
    },
    {
      "icao": "LICJ",
      "iata": "PMO",
      "name": "Falcone–Borsellino Airport",
      "lat": 38.175999,
      "lon": 13.091,
      "updatedAt": "251850Z",
      "visibility_m": 10000,
      "taf_visibility_m": 4000,
      "worst_visibility_m": 4000,
      "ceiling_ft": 2500,
      "hazards": [
        "RA",
        "TSRA",
        "SHRA",
        "TS"
      ],
      "severityScore": 76,
      "metarRaw": "METAR LICJ 251850Z 25013KT 9999 -RA SCT030 SCT060 13/09 Q1005 RERA",
      "tafRaw": "TAF LICJ 251700Z 2518/2618 26018KT 9999 BKN025 \n  TEMPO 2518/2521 4000 SHRA \n  TEMPO 2521/2618 4000 TSRA \n  BECMG 2523/2601 20018G28KT \n  BECMG 2613/2615 32020KT"
    },
    {
      "icao": "LIRF",
      "iata": "FCO",
      "name": "Rome–Fiumicino Leonardo da Vinci International Airport",
      "lat": 41.804532,
      "lon": 12.251998,
      "updatedAt": "251850Z",
      "visibility_m": 4000,
      "taf_visibility_m": 4000,
      "worst_visibility_m": 4000,
      "ceiling_ft": null,
      "hazards": [
        "RA",
        "SHRA",
        "TSRA",
        "TS"
      ],
      "severityScore": 76,
      "metarRaw": "METAR LIRF 251850Z 22012KT 9999 -RA VCSH SCT025TCU SCT030 12/07 Q0998 TEMPO 4000 SHRA",
      "tafRaw": "TAF LIRF 251700Z 2518/2624 21014KT 9999 SCT030 \n  TEMPO 2518/2521 4000 TSRA \n  BECMG 2520/2522 27013KT \n  BECMG 2600/2602 VRB06KT \n  TEMPO 2602/2606 4000 SHRA \n  TEMPO 2606/2612 4000 TSRA"
    },
    {
      "icao": "LIRN",
      "iata": "NAP",
      "name": "Naples International Airport",
      "lat": 40.886002,
      "lon": 14.2908,
      "updatedAt": "251850Z",
      "visibility_m": 10000,
      "taf_visibility_m": 4000,
      "worst_visibility_m": 4000,
      "ceiling_ft": 2000,
      "hazards": [
        "RA",
        "TSRA",
        "SHRA",
        "TS"
      ],
      "severityScore": 76,
      "metarRaw": "METAR LIRN 251850Z VRB02KT 9999 -RA FEW015 SCT035 10/07 Q1001 NOSIG",
      "tafRaw": "TAF LIRN 251700Z 2518/2618 19012KT 9999 BKN020 \n  TEMPO 2518/2524 4000 TSRA \n  TEMPO 2600/2609 4000 SHRA \n  BECMG 2602/2604 VRB05KT \n  TEMPO 2609/2613 4000 TSRA \n  TEMPO 2613/2616 SHRA"
    },
    {
      "icao": "LYPG",
      "iata": "TGD",
      "name": "Podgorica Airport / Podgorica Golubovci Airbase",
      "lat": 42.359402,
      "lon": 19.2519,
      "updatedAt": "251830Z",
      "visibility_m": 10000,
      "taf_visibility_m": 2000,
      "worst_visibility_m": 2000,
      "ceiling_ft": 8000,
      "hazards": [
        "RA",
        "TSRA",
        "SHRA",
        "TS"
      ],
      "severityScore": 76,
      "metarRaw": "METAR LYPG 251830Z 15017KT 9999 -RA FEW033 SCT050 OVC080 15/09 Q1002 TEMPO 15027KT",
      "tafRaw": "TAF LYPG 251700Z 2518/2618 15012KT 9999 FEW030 SCT040 OVC080 TX12/2613Z TN08/2605Z \n  TEMPO 2518/2601 16015G30KT 2000 TSRA FEW015 SCT025CB BKN033 \n  BECMG 2601/2603 34006KT \n  PROB30 \n  TEMPO 2601/2608 5000 SHRA FEW030TCU BKN040"
    },
    {
      "icao": "EGNM",
      "iata": "LBA",
      "name": "Leeds Bradford Airport",
      "lat": 53.865898,
      "lon": -1.66057,
      "updatedAt": "251850Z",
      "visibility_m": 3000,
      "taf_visibility_m": 2500,
      "worst_visibility_m": 2500,
      "ceiling_ft": 700,
      "hazards": [
        "BR",
        "SN",
        "RA",
        "DZ"
      ],
      "severityScore": 75,
      "metarRaw": "METAR EGNM 251850Z 07010KT 3000 BR OVC007 03/02 Q0999",
      "tafRaw": "TAF EGNM 251704Z 2518/2618 09010KT 6000 BKN014 \n  TEMPO 2518/2606 2500 -RADZ BR BKN004 \n  PROB30 \n  TEMPO 2520/2606 RASN \n  BECMG 2603/2606 BKN030 \n  PROB30 \n  TEMPO 2606/2618 BKN012 \n  BECMG 2611/2614 15012KT"
    },
    {
      "icao": "EYPA",
      "iata": "PLQ",
      "name": "Palanga International Airport",
      "lat": 55.973202,
      "lon": 21.093901,
      "updatedAt": "251850Z",
      "visibility_m": 10000,
      "taf_visibility_m": 3000,
      "worst_visibility_m": 3000,
      "ceiling_ft": 4000,
      "hazards": [
        "BR",
        "FZRA",
        "SN",
        "RA"
      ],
      "severityScore": 75,
      "metarRaw": "METAR EYPA 251850Z 12007KT 9999 OVC040 M06/M09 Q1012",
      "tafRaw": "TAF EYPA 251700Z 2518/2618 11007KT 8000 BKN015 \n  TEMPO 2519/2602 SCT010 \n  PROB40 \n  TEMPO 2519/2602 BKN010 \n  TEMPO 2610/2618 3000 SN BR OVC010 \n  PROB40 \n  TEMPO 2610/2618 -FZRA"
    },
    {
      "icao": "EDDK",
      "iata": "CGN",
      "name": "Cologne Bonn Airport",
      "lat": 50.865898,
      "lon": 7.14274,
      "updatedAt": "251850Z",
      "visibility_m": 10000,
      "taf_visibility_m": 2000,
      "worst_visibility_m": 2000,
      "ceiling_ft": 400,
      "hazards": [
        "BR",
        "SN",
        "DZ"
      ],
      "severityScore": 73,
      "metarRaw": "METAR EDDK 251850Z AUTO 12005KT CAVOK M00/M04 Q0997 NOSIG",
      "tafRaw": "TAF EDDK 251700Z 2518/2624 VRB03KT CAVOK \n  BECMG 2602/2605 30005KT BKN012 \n  TEMPO 2608/2613 4000 -SN BKN009 \n  BECMG 2613/2616 4000 BR BKN007 \n  PROB30 \n  TEMPO 2615/2624 2000 DZ BKN004 \n  BECMG 2618/2621 VRB03KT"
    },
    {
      "icao": "EDDS",
      "iata": "STR",
      "name": "Stuttgart Airport",
      "lat": 48.689899,
      "lon": 9.22196,
      "updatedAt": "251850Z",
      "visibility_m": 1300,
      "taf_visibility_m": 1200,
      "worst_visibility_m": 1200,
      "ceiling_ft": 400,
      "hazards": [
        "BR",
        "SN"
      ],
      "severityScore": 73,
      "metarRaw": "METAR EDDS 251850Z AUTO 00000KT 1400 1300 R07/1900N SN BR BKN004 M01/M01 Q0994 TEMPO -SN",
      "tafRaw": "TAF EDDS 251700Z 2518/2618 VRB03KT 6000 OVC010 \n  TEMPO 2518/2524 1200 SN OVC003 \n  TEMPO 2600/2607 2000 -SN BR OVC003 \n  PROB40 \n  TEMPO 2607/2612 2500 BR BKN003 \n  BECMG 2608/2610 23005KT"
    },
    {
      "icao": "EPMO",
      "iata": "WMI",
      "name": "Modlin Airport",
      "lat": 52.451099,
      "lon": 20.6518,
      "updatedAt": "251830Z",
      "visibility_m": 6000,
      "taf_visibility_m": 2500,
      "worst_visibility_m": 2500,
      "ceiling_ft": 1200,
      "hazards": [
        "BR",
        "FZRA",
        "RA"
      ],
      "severityScore": 69,
      "metarRaw": "METAR EPMO 251830Z 10009KT 6000 OVC012 M05/M06 Q1008",
      "tafRaw": "TAF EPMO 251730Z 2518/2618 09010KT 5000 BR BKN010 BKN020 \n  TEMPO 2518/2523 4000 BR BKN009 \n  TEMPO 2523/2610 2500 -FZRA BR BKN003 BKN006 \n  PROB40 2610/2618 4000 -RA BR BKN005 \n  PROB30 \n  TEMPO 2610/2618 -FZRA \n  BECMG 2615/2617 16003KT"
    },
    {
      "icao": "EPWA",
      "iata": "WAW",
      "name": "Warsaw Chopin Airport",
      "lat": 52.165699,
      "lon": 20.9671,
      "updatedAt": "251830Z",
      "visibility_m": 10000,
      "taf_visibility_m": 2500,
      "worst_visibility_m": 2500,
      "ceiling_ft": 1400,
      "hazards": [
        "BR",
        "FZRA",
        "RA"
      ],
      "severityScore": 69,
      "metarRaw": "METAR EPWA 251830Z 11013KT 9999 BKN014 M04/M06 Q1008 NOSIG",
      "tafRaw": "TAF EPWA 251730Z 2518/2618 10012KT 8000 BKN012 BKN025 \n  PROB40 2518/2522 4500 BR BKN009 \n  TEMPO 2522/2609 2500 -FZRA BR BKN004 BKN007 \n  PROB40 \n  TEMPO 2609/2618 4000 -RA BR BKN008 \n  BECMG 2615/2617 16003KT"
    },
    {
      "icao": "LEMD",
      "iata": "MAD",
      "name": "Adolfo Suárez Madrid–Barajas Airport",
      "lat": 40.471926,
      "lon": -3.56264,
      "updatedAt": "251830Z",
      "visibility_m": 10000,
      "taf_visibility_m": 3000,
      "worst_visibility_m": 3000,
      "ceiling_ft": 400,
      "hazards": [
        "BR",
        "RA",
        "DZ"
      ],
      "severityScore": 67,
      "metarRaw": "METAR LEMD 251830Z 28017KT 9999 FEW060 10/M00 Q1008 NOSIG",
      "tafRaw": "TAF LEMD 251700Z 2518/2624 27010KT 9999 FEW050 TX11/2616Z TN03/2606Z \n  TEMPO 2518/2520 27015G30KT \n  PROB30 \n  TEMPO 2600/2605 23015G25KT \n  PROB30 \n  TEMPO 2603/2608 4000 BR BKN005 BKN010 \n  TEMPO 2608/2620 3000 DZRA RA BKN004 BKN010"
    },
    {
      "icao": "LRTR",
      "iata": "TSR",
      "name": "Timişoara Traian Vuia Airport",
      "lat": 45.809898,
      "lon": 21.3379,
      "updatedAt": "251830Z",
      "visibility_m": 10000,
      "taf_visibility_m": 1500,
      "worst_visibility_m": 1500,
      "ceiling_ft": 200,
      "hazards": [
        "BR",
        "RA"
      ],
      "severityScore": 67,
      "metarRaw": "METAR LRTR 251830Z 10014KT CAVOK 07/03 Q1002",
      "tafRaw": "TAF LRTR 251700Z 2518/2618 10010KT 9999 BKN045 \n  PROB30 \n  TEMPO 2523/2604 5000 -RA BR \n  BECMG 2608/2610 VRB04KT 5000 -RA BR BKN010 OVC030 \n  PROB40 \n  TEMPO 2612/2618 1500 RA BR BKN002 OVC030"
    },
    {
      "icao": "LZKZ",
      "iata": "KSC",
      "name": "Košice International Airport",
      "lat": 48.663101,
      "lon": 21.2411,
      "updatedAt": "251830Z",
      "visibility_m": 10000,
      "taf_visibility_m": 1400,
      "worst_visibility_m": 1400,
      "ceiling_ft": 400,
      "hazards": [
        "BR",
        "RA"
      ],
      "severityScore": 67,
      "metarRaw": "METAR LZKZ 251830Z 35010KT 9999 SCT048 05/02 Q1004 NOSIG",
      "tafRaw": "TAF LZKZ 251715Z 2518/2618 36008KT 9999 BKN028 \n  TEMPO 2523/2618 2800 -RA BR BKN008 \n  BECMG 2600/2602 23006KT \n  PROB40 \n  TEMPO 2609/2613 1400 RA BR OVC004 \n  BECMG 2610/2612 VRB02KT"
    },
    {
      "icao": "LIMC",
      "iata": "MXP",
      "name": "Milan Malpensa International Airport",
      "lat": 45.6306,
      "lon": 8.72811,
      "updatedAt": "251850Z",
      "visibility_m": 8000,
      "taf_visibility_m": 400,
      "worst_visibility_m": 400,
      "ceiling_ft": 2000,
      "hazards": [
        "FG",
        "BR"
      ],
      "severityScore": 65,
      "metarRaw": "METAR LIMC 251850Z 29003KT 8000 SCT010 BKN020 05/04 Q0997 NOSIG",
      "tafRaw": "TAF LIMC 251700Z 2518/2624 VRB05KT 3000 BR BKN006 \n  BECMG 2520/2522 0400 FG BKN002 \n  BECMG 2611/2613 6000 SCT020 \n  BECMG 2616/2618 3000 BR \n  BECMG 2619/2621 0600 FG OVC003"
    },
    {
      "icao": "EHEH",
      "iata": "EIN",
      "name": "Eindhoven Airport",
      "lat": 51.4500999451,
      "lon": 5.37452983856,
      "updatedAt": null,
      "visibility_m": null,
      "taf_visibility_m": 1500,
      "worst_visibility_m": 1500,
      "ceiling_ft": 700,
      "hazards": [
        "BR",
        "SN"
      ],
      "severityScore": 63,
      "metarRaw": null,
      "tafRaw": "TAF EHEH 251711Z 2518/2624 09006KT 6000 NSC \n  BECMG 2601/2603 3500 BR BKN010 \n  PROB30 \n  TEMPO 2602/2605 1500 SCT004 BKN007 \n  PROB30 \n  TEMPO 2611/2615 2000 BR -SN SCT004 BKN007"
    },
    {
      "icao": "LGAV",
      "iata": "ATH",
      "name": "Athens Eleftherios Venizelos International Airport",
      "lat": 37.936401,
      "lon": 23.9445,
      "updatedAt": "251850Z",
      "visibility_m": 10000,
      "taf_visibility_m": 4000,
      "worst_visibility_m": 4000,
      "ceiling_ft": 2000,
      "hazards": [
        "TSRA",
        "RA",
        "TS"
      ],
      "severityScore": 62,
      "metarRaw": "METAR LGAV 251850Z VRB01KT 9999 SCT025 13/10 Q1013 NOSIG",
      "tafRaw": "TAF LGAV 251700Z 2518/2618 17015KT 9999 FEW018 SCT040 \n  TEMPO 2521/2606 16022G32KT \n  BECMG 2612/2614 25005KT \n  BECMG 2602/2604 BKN020 BKN070 \n  PROB40 \n  TEMPO 2600/2615 5000 RA SCT016 FEW018TCU BKN070 \n  PROB40 \n  TEMPO 2602/2612 4000 TSRA FEW018CB BKN020 BKN070"
    },
    {
      "icao": "LGTS",
      "iata": "SKG",
      "name": "Thessaloniki Macedonia International Airport",
      "lat": 40.51928,
      "lon": 22.970009,
      "updatedAt": "251850Z",
      "visibility_m": 10000,
      "taf_visibility_m": 3000,
      "worst_visibility_m": 3000,
      "ceiling_ft": 2500,
      "hazards": [
        "TS",
        "TSRA",
        "RA"
      ],
      "severityScore": 62,
      "metarRaw": "METAR LGTS 251850Z VRB02KT 9999 FEW012 SCT025 10/09 Q1012 NOSIG",
      "tafRaw": "TAF LGTS 251700Z 2518/2618 14005KT 9999 FEW008 BKN025 \n  TEMPO 2520/2618 5000 RA \n  PROB40 \n  TEMPO 2606/2618 3000 TSRA FEW006 FEW015CB OVC025"
    },
    {
      "icao": "LIMJ",
      "iata": "GOA",
      "name": "Genoa Cristoforo Colombo Airport",
      "lat": 44.412039,
      "lon": 8.840732,
      "updatedAt": "251850Z",
      "visibility_m": 10000,
      "taf_visibility_m": 4000,
      "worst_visibility_m": 4000,
      "ceiling_ft": 3500,
      "hazards": [
        "RA",
        "TSRA",
        "TS"
      ],
      "severityScore": 62,
      "metarRaw": "METAR LIMJ 251850Z 04004KT 330V070 9999 -RA SCT028 BKN035 09/07 Q0997",
      "tafRaw": "TAF LIMJ 251700Z 2518/2618 15008KT 9999 SCT020 \n  TEMPO 2518/2524 4000 TSRA \n  BECMG 2522/2524 02014KT"
    },
    {
      "icao": "EGKK",
      "iata": "LGW",
      "name": "London Gatwick Airport",
      "lat": 51.148771,
      "lon": -0.192089,
      "updatedAt": "251850Z",
      "visibility_m": 10000,
      "taf_visibility_m": 4000,
      "worst_visibility_m": 4000,
      "ceiling_ft": 1100,
      "hazards": [
        "BR",
        "RA",
        "SHRA",
        "DZ"
      ],
      "severityScore": 58,
      "metarRaw": "METAR EGKK 251850Z 08009KT 9999 BKN011 05/04 Q0995",
      "tafRaw": "TAF EGKK 251655Z 2518/2624 06009KT 9999 SCT010 BKN030 \n  TEMPO 2518/2610 7000 -RADZ BKN010 \n  PROB30 \n  TEMPO 2600/2610 4000 RADZ BR BKN006 \n  PROB30 \n  TEMPO 2610/2621 7000 SHRA -RADZ BKN010 \n  BECMG 2615/2618 14010KT \n  BECMG 2621/2624 14015G25KT \n  TEMPO 2621/2624 6000 RA -RADZ BKN010 \n  PROB30 \n  TEMPO 2623/2624 4000 +RA BKN007"
    },
    {
      "icao": "EGBB",
      "iata": "BHX",
      "name": "Birmingham Airport",
      "lat": 52.453899,
      "lon": -1.74803,
      "updatedAt": "251850Z",
      "visibility_m": 5000,
      "taf_visibility_m": 4000,
      "worst_visibility_m": 4000,
      "ceiling_ft": 700,
      "hazards": [
        "DZ",
        "BR",
        "RA"
      ],
      "severityScore": 57,
      "metarRaw": "METAR EGBB 251850Z 07007KT 5000 -DZ BKN007 05/04 Q0997",
      "tafRaw": "TAF EGBB 251654Z 2518/2618 07007KT 9999 BKN010 \n  TEMPO 2518/2603 7000 -RADZ BKN008 \n  PROB30 \n  TEMPO 2518/2603 4000 BR BKN004 \n  PROB30 \n  TEMPO 2603/2609 4000 BR BKN008 \n  BECMG 2609/2612 13010KT SCT015 \n  PROB30 2609/2612 7000 \n  PROB40 \n  TEMPO 2612/2618 BKN014"
    },
    {
      "icao": "EPKT",
      "iata": "KTW",
      "name": "Katowice Wojciech Korfanty International Airport",
      "lat": 50.476015,
      "lon": 19.080705,
      "updatedAt": "251830Z",
      "visibility_m": 4900,
      "taf_visibility_m": 1400,
      "worst_visibility_m": 1400,
      "ceiling_ft": 900,
      "hazards": [
        "BR",
        "RA"
      ],
      "severityScore": 57,
      "metarRaw": "METAR EPKT 251830Z 08008KT 4900 -RA BR FEW005 SCT040 01/01 Q1001",
      "tafRaw": "TAF EPKT 251730Z 2518/2618 09009KT 5000 BR BKN040 \n  TEMPO 2518/2522 2500 RA BR BKN009 \n  TEMPO 2522/2603 4000 -RA BR BKN012 \n  TEMPO 2603/2608 1400 BR"
    },
    {
      "icao": "LBSF",
      "iata": "SOF",
      "name": "Sofia Airport",
      "lat": 42.696357,
      "lon": 23.417671,
      "updatedAt": "251830Z",
      "visibility_m": 10000,
      "taf_visibility_m": 3000,
      "worst_visibility_m": 3000,
      "ceiling_ft": 400,
      "hazards": [
        "BR",
        "RA"
      ],
      "severityScore": 57,
      "metarRaw": "METAR LBSF 251830Z AUTO 12005KT 9999 NSC 05/01 Q1009 NOSIG",
      "tafRaw": "TAF LBSF 251700Z 2518/2618 09010KT 9999 SCT015 BKN070 \n  BECMG 2519/2521 VRB04KT \n  PROB30 \n  TEMPO 2521/2602 3000 BR BKN004 \n  TEMPO 2610/2618 4000 RA BKN012 OVC030"
    },
    {
      "icao": "LPFR",
      "iata": "FAO",
      "name": "Faro - Gago Coutinho International Airport",
      "lat": 37.015909,
      "lon": -7.970939,
      "updatedAt": "251830Z",
      "visibility_m": 10000,
      "taf_visibility_m": 3000,
      "worst_visibility_m": 3000,
      "ceiling_ft": 800,
      "hazards": [
        "BR",
        "RA",
        "DZ"
      ],
      "severityScore": 57,
      "metarRaw": "METAR LPFR 251830Z 24018KT 9999 SCT007 SCT015 15/14 Q1016",
      "tafRaw": "TAF LPFR 251700Z 2518/2618 24012KT 9999 SCT008 BKN015 \n  BECMG 2518/2520 27017KT \n  TEMPO 2518/2618 3000 RADZ BR SCT004 BKN008 \n  TEMPO 2520/2618 26020G32KT"
    },
    {
      "icao": "LFLL",
      "iata": "LYS",
      "name": "Lyon Saint-Exupéry Airport",
      "lat": 45.725996,
      "lon": 5.090139,
      "updatedAt": "251830Z",
      "visibility_m": 10000,
      "taf_visibility_m": 400,
      "worst_visibility_m": 400,
      "ceiling_ft": 4300,
      "hazards": [
        "FG"
      ],
      "severityScore": 55,
      "metarRaw": "METAR LFLL 251830Z 17009KT 9999 BKN043 BKN060 07/04 Q0995 NOSIG",
      "tafRaw": "TAF LFLL 251700Z 2518/2624 18010KT 9999 BKN040 \n  BECMG 2522/2524 VRB02KT \n  PROB30 \n  TEMPO 2600/2606 0400 BCFG \n  BECMG 2622/2624 13006KT"
    },
    {
      "icao": "LIMF",
      "iata": "TRN",
      "name": "Turin Airport",
      "lat": 45.200802,
      "lon": 7.64963,
      "updatedAt": "251850Z",
      "visibility_m": 10000,
      "taf_visibility_m": 600,
      "worst_visibility_m": 600,
      "ceiling_ft": 13000,
      "hazards": [
        "FG",
        "BR"
      ],
      "severityScore": 55,
      "metarRaw": "METAR LIMF 251850Z VRB01KT 9999 BKN130 05/03 Q0996",
      "tafRaw": "TAF LIMF 251700Z 2518/2618 VRB04KT 7000 FEW010 BKN030 \n  BECMG 2518/2520 2000 BR \n  TEMPO 2521/2608 0600 FG BKN002 \n  BECMG 2610/2612 7000"
    },
    {
      "icao": "LRTM",
      "iata": "TGM",
      "name": "Târgu Mureş Transilvania International Airport",
      "lat": 46.467701,
      "lon": 24.4125,
      "updatedAt": "251830Z",
      "visibility_m": 5000,
      "taf_visibility_m": 1500,
      "worst_visibility_m": 1500,
      "ceiling_ft": 200,
      "hazards": [
        "BR"
      ],
      "severityScore": 55,
      "metarRaw": "METAR LRTM 251830Z AUTO 08009KT 5000 NCD 03/00 Q1007",
      "tafRaw": "TAF LRTM 251400Z 2515/2524 VRB04KT 5000 BR NSC \n  TEMPO 2516/2519 1500 BR BKN002"
    },
    {
      "icao": "LIPY",
      "iata": "AOI",
      "name": "Marche Airport",
      "lat": 43.616299,
      "lon": 13.3623,
      "updatedAt": "251850Z",
      "visibility_m": 10000,
      "taf_visibility_m": 4000,
      "worst_visibility_m": 4000,
      "ceiling_ft": 800,
      "hazards": [
        "SHRA",
        "RA"
      ],
      "severityScore": 51,
      "metarRaw": "METAR LIPY 251850Z AUTO 17005KT 130V200 9999 OVC092/// 11/06 Q0998",
      "tafRaw": "TAF LIPY 251700Z 2518/2618 VRB06KT 8000 SCT050 \n  TEMPO 2519/2603 4000 SHRA BKN008 \n  BECMG 2606/2608 32010KT"
    },
    {
      "icao": "LMML",
      "iata": "MLA",
      "name": "Malta International Airport",
      "lat": 35.857498,
      "lon": 14.4775,
      "updatedAt": "251845Z",
      "visibility_m": 10000,
      "taf_visibility_m": 4000,
      "worst_visibility_m": 4000,
      "ceiling_ft": null,
      "hazards": [
        "SHRA",
        "TS",
        "RA"
      ],
      "severityScore": 51,
      "metarRaw": "METAR LMML 251845Z 27015KT 9999 FEW039 12/07 Q1007 NOSIG",
      "tafRaw": "TAF LMML 251700Z 2518/2618 28020G30KT 9999 SCT020 \n  TEMPO 2518/2618 6000 SHRA SHGS BKN015TCU \n  PROB30 \n  TEMPO 2600/2618 4000 TSRAGS BKN014CB \n  BECMG 2615/2618 29026G40KT"
    },
    {
      "icao": "LFOB",
      "iata": "BVA",
      "name": "Beauvais Tillé airport",
      "lat": 49.454399,
      "lon": 2.11278,
      "updatedAt": "251830Z",
      "visibility_m": 4600,
      "taf_visibility_m": null,
      "worst_visibility_m": 4600,
      "ceiling_ft": 400,
      "hazards": [
        "BR"
      ],
      "severityScore": 50,
      "metarRaw": "METAR LFOB 251830Z AUTO 08009KT 4600 BR OVC004 05/05 Q0993 TEMPO OVC006",
      "tafRaw": null
    },
    {
      "icao": "EGPD",
      "iata": "ABZ",
      "name": "Aberdeen International Airport",
      "lat": 57.2019,
      "lon": -2.19778,
      "updatedAt": "251850Z",
      "visibility_m": 4000,
      "taf_visibility_m": 4000,
      "worst_visibility_m": 4000,
      "ceiling_ft": 800,
      "hazards": [
        "RA",
        "DZ"
      ],
      "severityScore": 47,
      "metarRaw": "METAR EGPD 251850Z AUTO 12011KT 9999 -RA FEW010 SCT019 BKN027 04/02 Q1005 TEMPO 4000 RA BKN008",
      "tafRaw": "TAF EGPD 251656Z 2518/2618 11009KT 9999 SCT014 BKN025 \n  TEMPO 2518/2618 6000 -RADZ BKN012 \n  PROB40 \n  TEMPO 2518/2521 12015G25KT 4000 RADZ BKN008 \n  PROB40 \n  TEMPO 2607/2615 4000 RADZ BKN008 \n  BECMG 2612/2615 13016G30KT"
    },
    {
      "icao": "LFLS",
      "iata": "GNB",
      "name": "Grenoble Alpes Isère Airport",
      "lat": 45.3629,
      "lon": 5.32937,
      "updatedAt": "251830Z",
      "visibility_m": 3000,
      "taf_visibility_m": 3000,
      "worst_visibility_m": 3000,
      "ceiling_ft": 800,
      "hazards": [
        "BR",
        "RA"
      ],
      "severityScore": 47,
      "metarRaw": "METAR LFLS 251830Z AUTO VRB03KT 9999 SCT016 BKN040 OVC049 06/03 Q0996 TEMPO 3000 BR BKN008",
      "tafRaw": "TAF LFLS 251400Z 2515/2615 24008KT 9999 SCT050 BKN080 \n  TEMPO 2515/2519 RA BKN020 \n  PROB40 \n  TEMPO 2516/2518 3000 BKN014 \n  TEMPO 2519/2609 3000 BR BKN008 \n  BECMG 2523/2601 09005KT \n  PROB40 \n  TEMPO 2609/2612 BKN014"
    },
    {
      "icao": "LIRZ",
      "iata": "PEG",
      "name": "Perugia San Francesco d'Assisi – Umbria International Airport",
      "lat": 43.095901,
      "lon": 12.5132,
      "updatedAt": "251850Z",
      "visibility_m": 10000,
      "taf_visibility_m": 3000,
      "worst_visibility_m": 3000,
      "ceiling_ft": 3000,
      "hazards": [
        "RA",
        "SHRA",
        "FG"
      ],
      "severityScore": 46,
      "metarRaw": "METAR LIRZ 251850Z AUTO 08005KT 9999 -RA BKN036/// 07/06 Q0998",
      "tafRaw": "TAF LIRZ 251700Z 2518/2618 19012KT 9999 BKN030 \n  TEMPO 2518/2524 4000 SHRA \n  BECMG 2519/2521 VRB05KT \n  TEMPO 2602/2608 3000 BCFG \n  TEMPO 2609/2612 SHRA \n  BECMG 2612/2614 02010KT"
    },
    {
      "icao": "LQSA",
      "iata": "SJJ",
      "name": "Sarajevo International Airport",
      "lat": 43.8246,
      "lon": 18.331499,
      "updatedAt": "251830Z",
      "visibility_m": 3000,
      "taf_visibility_m": 1200,
      "worst_visibility_m": 1200,
      "ceiling_ft": 4500,
      "hazards": [
        "RA",
        "SHRA",
        "BR"
      ],
      "severityScore": 46,
      "metarRaw": "METAR LQSA 251830Z 12007KT 090V170 7000 -RA FEW030 BKN045 05/05 Q1001 WS ALL RWY TEMPO 3000 SHRA SCT010 FEW035TCU BKN045",
      "tafRaw": "TAF LQSA 251700Z 2518/2618 11006KT 9999 BKN050 TX09/2613Z TN01/2606Z \n  PROB40 \n  TEMPO 2518/2521 17012KT 3000 SHRA SCT010 FEW035TCU BKN045 \n  PROB30 \n  TEMPO 2521/2602 4000 RA BKN012 OVC030 \n  PROB40 \n  TEMPO 2602/2609 1200 BR BKN003 \n  PROB40 \n  TEMPO 2616/2618 4000 RA BKN010 OVC025"
    },
    {
      "icao": "LZIB",
      "iata": "BTS",
      "name": "M. R. Štefánik Airport",
      "lat": 48.1702,
      "lon": 17.2127,
      "updatedAt": "251830Z",
      "visibility_m": 6000,
      "taf_visibility_m": 1000,
      "worst_visibility_m": 1000,
      "ceiling_ft": 1000,
      "hazards": [
        "RA",
        "BR"
      ],
      "severityScore": 44,
      "metarRaw": "METAR LZIB 251830Z 05008KT 6000 RA FEW007 SCT009 BKN010 04/03 Q0999 NOSIG",
      "tafRaw": "TAF LZIB 251715Z 2518/2618 06010KT 9999 FEW007 BKN010 OVC017 \n  TEMPO 2518/2602 2500 -RA BR BKN006 \n  PROB40 \n  TEMPO 2518/2523 12015G25KT 1000 RA BR OVC002 \n  BECMG 2602/2603 16006KT 2500 BR OVC006 \n  TEMPO 2603/2608 1200 BR OVC003 \n  BECMG 2607/2609 VRB02KT 7000 NSW FEW010 \n  BECMG 2614/2616 4000 BR BKN012 BKN022"
    },
    {
      "icao": "LZTT",
      "iata": "TAT",
      "name": "Poprad-Tatry Airport",
      "lat": 49.073601,
      "lon": 20.2411,
      "updatedAt": "251830Z",
      "visibility_m": 7000,
      "taf_visibility_m": 1400,
      "worst_visibility_m": 1400,
      "ceiling_ft": 1300,
      "hazards": [
        "BR",
        "RA"
      ],
      "severityScore": 44,
      "metarRaw": "METAR LZTT 251830Z 07003KT 7000 SCT006 BKN013 02/01 Q1003",
      "tafRaw": "TAF LZTT 251715Z 2518/2618 18004KT 9999 FEW005 OVC020 \n  TEMPO 2518/2610 2500 -RA BR OVC008 \n  PROB40 \n  TEMPO 2523/2602 1400 RA BR OVC003 \n  BECMG 2610/2612 4000 FEW005 \n  TEMPO 2610/2618 2000 BR OVC006"
    },
    {
      "icao": "EETN",
      "iata": "TLL",
      "name": "Lennart Meri Tallinn Airport",
      "lat": 59.413246,
      "lon": 24.83264,
      "updatedAt": "251850Z",
      "visibility_m": 4000,
      "taf_visibility_m": 2000,
      "worst_visibility_m": 2000,
      "ceiling_ft": 500,
      "hazards": [
        "SN"
      ],
      "severityScore": 43,
      "metarRaw": "METAR EETN 251850Z 14006KT CAVOK M12/M13 Q1016 TEMPO 4000 SN",
      "tafRaw": "TAF EETN 251730Z 2518/2618 17008KT 9999 BKN040 \n  BECMG 2520/2522 5000 SN BKN015 \n  TEMPO 2600/2606 2000 SN OVC005 \n  BECMG 2608/2610 9999 NSW SCT008 BKN015 \n  PROB40 \n  TEMPO 2611/2616 BKN005 OVC010 \n  BECMG 2611/2613 VRB02KT \n  BECMG 2616/2618 35010KT"
    },
    {
      "icao": "EDNY",
      "iata": "FDH",
      "name": "Bodensee Airport Friedrichshafen",
      "lat": 47.671299,
      "lon": 9.51149,
      "updatedAt": "251850Z",
      "visibility_m": 6000,
      "taf_visibility_m": 4500,
      "worst_visibility_m": 4500,
      "ceiling_ft": 1900,
      "hazards": [
        "RA",
        "SN"
      ],
      "severityScore": 42,
      "metarRaw": "METAR EDNY 251850Z 00000KT 6000 -RA FEW013 BKN019 OVC029 02/01 Q0996",
      "tafRaw": "TAF EDNY 251700Z 2518/2603 25002KT 9999 OVC030 \n  PROB30 \n  TEMPO 2518/2603 4500 RASN BKN012"
    },
    {
      "icao": "EPKK",
      "iata": "KRK",
      "name": "Kraków John Paul II International Airport",
      "lat": 50.077702,
      "lon": 19.7848,
      "updatedAt": "251830Z",
      "visibility_m": 5000,
      "taf_visibility_m": 1400,
      "worst_visibility_m": 1400,
      "ceiling_ft": 6300,
      "hazards": [
        "BR",
        "RA",
        "DZ"
      ],
      "severityScore": 42,
      "metarRaw": "METAR EPKK 251830Z 06007KT 5000 BR BKN063 02/00 Q1002",
      "tafRaw": "TAF EPKK 251730Z 2518/2618 06010KT 5000 BR FEW005 BKN030 \n  TEMPO 2518/2602 2900 -RA BR \n  BECMG 2603/2606 VRB02KT \n  PROB40 2603/2609 1400 -RADZ BR BKN003"
    },
    {
      "icao": "ENTC",
      "iata": "TOS",
      "name": "Tromsø Airport, Langnes",
      "lat": 69.683296,
      "lon": 18.9189,
      "updatedAt": "251850Z",
      "visibility_m": 1000,
      "taf_visibility_m": 1000,
      "worst_visibility_m": 1000,
      "ceiling_ft": 5800,
      "hazards": [
        "SN",
        "SHSN"
      ],
      "severityScore": 38,
      "metarRaw": "METAR ENTC 251850Z 35015KT 9999 -SN BKN058 M02/M06 Q1012 TEMPO 1000 BKN008TCU RMK WIND 2600FT 01017KT",
      "tafRaw": "TAF ENTC 251700Z 2518/2618 03008KT 9999 SCT015 BKN030 \n  TEMPO 2518/2603 1000 SHSN BKN009 FEW015CB \n  TEMPO 2603/2618 4000 -SHSN BKN014"
    },
    {
      "icao": "LYNI",
      "iata": "INI",
      "name": "Niš Constantine the Great Airport",
      "lat": 43.336538,
      "lon": 21.856242,
      "updatedAt": "251830Z",
      "visibility_m": 10000,
      "taf_visibility_m": 4000,
      "worst_visibility_m": 4000,
      "ceiling_ft": 800,
      "hazards": [
        "RA"
      ],
      "severityScore": 37,
      "metarRaw": "METAR LYNI 251830Z 10009KT CAVOK 11/05 Q1006 NOSIG",
      "tafRaw": "TAF LYNI 251700Z 2518/2618 10008KT 9999 SCT040 SCT090 TX10/2613Z TN06/2606Z \n  BECMG 2615/2617 4000 RA BKN008"
    },
    {
      "icao": "LCLK",
      "iata": "LCA",
      "name": "Larnaca International Airport",
      "lat": 34.875099,
      "lon": 33.624901,
      "updatedAt": "251830Z",
      "visibility_m": 10000,
      "taf_visibility_m": 5000,
      "worst_visibility_m": 5000,
      "ceiling_ft": 900,
      "hazards": [
        "BR"
      ],
      "severityScore": 35,
      "metarRaw": "METAR LCLK 251830Z 31005KT 240V020 9999 FEW012 SCT017 13/12 Q1022 NOSIG",
      "tafRaw": "TAF LCLK 251730Z 2518/2618 35007KT 9999 FEW030 \n  PROB30 \n  TEMPO 2520/2606 BKN012 \n  PROB30 2523/2605 5000 BR BKN009 \n  BECMG 2606/2610 09012KT"
    },
    {
      "icao": "LQBK",
      "iata": "BNX",
      "name": "Banja Luka International Airport",
      "lat": 44.941399,
      "lon": 17.297501,
      "updatedAt": "251830Z",
      "visibility_m": 1500,
      "taf_visibility_m": null,
      "worst_visibility_m": 1500,
      "ceiling_ft": null,
      "hazards": [
        "FG"
      ],
      "severityScore": 35,
      "metarRaw": "METAR LQBK 251830Z 15003KT 1500 0650N R16/1100D MIFG NSC 05/05 Q0997 NOSIG",
      "tafRaw": null
    },
    {
      "icao": "LHDC",
      "iata": "DEB",
      "name": "Debrecen International Airport",
      "lat": 47.488899,
      "lon": 21.615299,
      "updatedAt": "251815Z",
      "visibility_m": 10000,
      "taf_visibility_m": 3000,
      "worst_visibility_m": 3000,
      "ceiling_ft": 1500,
      "hazards": [
        "BR",
        "RA"
      ],
      "severityScore": 34,
      "metarRaw": "METAR LHDC 251815Z AUTO 07008KT CAVOK 06/02 Q1003 NOSIG",
      "tafRaw": "TAF LHDC 251715Z 2518/2603 06008KT 8000 SCT045 BKN080 \n  TEMPO 2518/2524 3000 RA BR BKN015 OVC060"
    },
    {
      "icao": "LKMT",
      "iata": "OSR",
      "name": "Leoš Janáček Airport Ostrava",
      "lat": 49.696301,
      "lon": 18.111099,
      "updatedAt": "251830Z",
      "visibility_m": 4000,
      "taf_visibility_m": 1800,
      "worst_visibility_m": 1800,
      "ceiling_ft": 1400,
      "hazards": [
        "BR",
        "RA"
      ],
      "severityScore": 34,
      "metarRaw": "METAR LKMT 251830Z 03007KT 4000 BR NSC 01/00 Q0999 NOSIG",
      "tafRaw": "TAF LKMT 251700Z 2518/2618 02006KT 3500 BR SCT006 BKN027 \n  TEMPO 2518/2603 1800 -RA BR BKN014 \n  BECMG 2603/2605 21010KT 9999 BKN030 \n  BECMG 2613/2615 SCT040"
    },
    {
      "icao": "LRSB",
      "iata": "SBZ",
      "name": "Sibiu International Airport",
      "lat": 45.785841,
      "lon": 24.086666,
      "updatedAt": "251830Z",
      "visibility_m": 10000,
      "taf_visibility_m": 5000,
      "worst_visibility_m": 5000,
      "ceiling_ft": 1500,
      "hazards": [
        "BR",
        "RA"
      ],
      "severityScore": 34,
      "metarRaw": "METAR LRSB 251830Z COR 10009KT CAVOK 09/02 Q1006",
      "tafRaw": "TAF LRSB 251700Z 2518/2618 13012KT 9999 SCT070 \n  PROB30 \n  TEMPO 2610/2615 5000 -RA BR BKN015 BKN050 \n  BECMG 2615/2617 VRB04KT 5000 -RA BR BKN015 BKN040"
    },
    {
      "icao": "EFTU",
      "iata": "TKU",
      "name": "Turku Airport",
      "lat": 60.514099,
      "lon": 22.2628,
      "updatedAt": "251850Z",
      "visibility_m": 10000,
      "taf_visibility_m": 3000,
      "worst_visibility_m": 3000,
      "ceiling_ft": 1200,
      "hazards": [
        "SN"
      ],
      "severityScore": 30,
      "metarRaw": "METAR EFTU 251850Z AUTO 09004KT CAVOK M12/M13 Q1015",
      "tafRaw": "TAF EFTU 251733Z 2518/2618 10005KT 9999 SCT025 \n  TEMPO 2518/2524 3000 -SN BKN012 \n  TEMPO 2600/2603 6000 -SN BKN012 \n  PROB30 \n  TEMPO 2603/2609 6000 -SN"
    },
    {
      "icao": "EKCH",
      "iata": "CPH",
      "name": "Copenhagen Kastrup Airport",
      "lat": 55.617900848389,
      "lon": 12.656000137329,
      "updatedAt": "251850Z",
      "visibility_m": 10000,
      "taf_visibility_m": 2000,
      "worst_visibility_m": 2000,
      "ceiling_ft": 1200,
      "hazards": [
        "SN"
      ],
      "severityScore": 30,
      "metarRaw": "METAR EKCH 251850Z AUTO 08014KT 9999 NCD 00/M03 Q1008 NOSIG",
      "tafRaw": "TAF EKCH 251727Z 2518/2618 10011KT 9999 OVC015 \n  BECMG 2522/2524 04015KT \n  TEMPO 2600/2610 05016G26KT \n  BECMG 2614/2616 2000 SN OVC012 \n  TEMPO 2616/2618 5000 OVC015"
    },
    {
      "icao": "ESMS",
      "iata": "MMX",
      "name": "Malmö Sturup Airport",
      "lat": 55.535564,
      "lon": 13.376327,
      "updatedAt": "251850Z",
      "visibility_m": 10000,
      "taf_visibility_m": 2000,
      "worst_visibility_m": 2000,
      "ceiling_ft": 1800,
      "hazards": [
        "SN"
      ],
      "severityScore": 30,
      "metarRaw": "METAR ESMS 251850Z 08015KT 9999 OVC018 00/M03 Q1007",
      "tafRaw": "TAF ESMS 251727Z 2518/2618 08015KT 9000 OVC018 \n  TEMPO 2518/2604 OVC012 \n  TEMPO 2606/2618 07020G32KT OVC012 \n  BECMG 2614/2616 2000 SN"
    },
    {
      "icao": "ESSA",
      "iata": "ARN",
      "name": "Stockholm-Arlanda Airport",
      "lat": 59.64849,
      "lon": 17.928829,
      "updatedAt": "251850Z",
      "visibility_m": 5000,
      "taf_visibility_m": 4000,
      "worst_visibility_m": 4000,
      "ceiling_ft": 1200,
      "hazards": [
        "SN"
      ],
      "severityScore": 30,
      "metarRaw": "METAR ESSA 251850Z 01006KT 5000 -SN FEW008 BKN012 M05/M06 Q1013 TEMPO 9000 BKN012",
      "tafRaw": "TAF ESSA 251730Z 2518/2618 05008KT 9000 -SN BKN030 \n  TEMPO 2518/2601 4000 VV012"
    },
    {
      "icao": "LFPO",
      "iata": "ORY",
      "name": "Paris-Orly Airport",
      "lat": 48.72333,
      "lon": 2.37944,
      "updatedAt": "251830Z",
      "visibility_m": 8000,
      "taf_visibility_m": null,
      "worst_visibility_m": 8000,
      "ceiling_ft": 700,
      "hazards": [],
      "severityScore": 30,
      "metarRaw": "METAR LFPO 251830Z 14002KT 8000 BKN007 06/06 Q0993 NOSIG",
      "tafRaw": null
    },
    {
      "icao": "UBBB",
      "iata": "GYD",
      "name": "Heydar Aliyev International Airport",
      "lat": 40.467498779296875,
      "lon": 50.04669952392578,
      "updatedAt": "251830Z",
      "visibility_m": 10000,
      "taf_visibility_m": 3000,
      "worst_visibility_m": 3000,
      "ceiling_ft": 2500,
      "hazards": [
        "BR",
        "FG"
      ],
      "severityScore": 30,
      "metarRaw": "METAR UBBB 251830Z 33008KT 9999 OVC025 06/05 Q1022 NOSIG",
      "tafRaw": "TAF UBBB 251704Z 2518/2618 31008KT 9999 SCT012 BKN030 TX08/2610Z TN02/2601Z \n  TEMPO 2520/2524 SCT007 \n  BECMG 2600/2601 17008KT \n  TEMPO 2601/2605 3000 BR BCFG SCT005 \n  TEMPO 2606/2611 19014G24KT \n  BECMG 2611/2613 34014KT"
    },
    {
      "icao": "LATI",
      "iata": "TIA",
      "name": "Tirana International Airport Mother Teresa",
      "lat": 41.4147,
      "lon": 19.7206,
      "updatedAt": "251850Z",
      "visibility_m": 10000,
      "taf_visibility_m": 5000,
      "worst_visibility_m": 5000,
      "ceiling_ft": 4000,
      "hazards": [
        "SHRA",
        "RA"
      ],
      "severityScore": 26,
      "metarRaw": "METAR LATI 251850Z 17011KT 9999 SCT078 17/03 Q1003 NOSIG",
      "tafRaw": "TAF LATI 251700Z 2518/2618 16012KT 9999 SCT040 BKN080 TX14/2612Z TN08/2605Z \n  TEMPO 2520/2604 18015G25KT \n  TEMPO 2600/2606 5000 SHRA FEW010 SCT025TCU BKN040"
    },
    {
      "icao": "LEBL",
      "iata": "BCN",
      "name": "Josep Tarradellas Barcelona-El Prat Airport",
      "lat": 41.2971,
      "lon": 2.07846,
      "updatedAt": "251830Z",
      "visibility_m": 10000,
      "taf_visibility_m": 4000,
      "worst_visibility_m": 4000,
      "ceiling_ft": 3000,
      "hazards": [
        "SHRA",
        "RA"
      ],
      "severityScore": 26,
      "metarRaw": "METAR LEBL 251830Z 30006KT 9999 SCT040 SCT050 10/06 Q0999 NOSIG",
      "tafRaw": "TAF LEBL 251700Z 2518/2618 26012KT 9999 SCT050 TX16/2612Z TN09/2606Z \n  PROB40 \n  TEMPO 2518/2519 4000 SHRA FEW020TCU BKN030 \n  BECMG 2521/2524 31020KT \n  TEMPO 2521/2610 31028G42KT \n  BECMG 2608/2611 27010KT"
    },
    {
      "icao": "LICC",
      "iata": "CTA",
      "name": "Catania-Fontanarossa Airport",
      "lat": 37.466801,
      "lon": 15.0664,
      "updatedAt": "251850Z",
      "visibility_m": 10000,
      "taf_visibility_m": 10000,
      "worst_visibility_m": 10000,
      "ceiling_ft": null,
      "hazards": [
        "SHRA",
        "RA"
      ],
      "severityScore": 26,
      "metarRaw": "METAR LICC 251850Z 27011KT 9999 FEW030 11/09 Q1004",
      "tafRaw": "TAF LICC 251700Z 2518/2618 26015KT 9999 SCT030 \n  TEMPO 2606/2618 SHRA"
    },
    {
      "icao": "LTFM",
      "iata": "IST",
      "name": "İstanbul Airport",
      "lat": 41.261297,
      "lon": 28.741951,
      "updatedAt": "251850Z",
      "visibility_m": 10000,
      "taf_visibility_m": 4000,
      "worst_visibility_m": 4000,
      "ceiling_ft": 2500,
      "hazards": [
        "SHRA",
        "RA"
      ],
      "severityScore": 26,
      "metarRaw": "METAR LTFM 251850Z 17006KT CAVOK 11/08 Q1015 NOSIG",
      "tafRaw": "TAF LTFM 251640Z 2518/2624 18010KT CAVOK \n  BECMG 2611/2613 11007KT SCT035 BKN090 \n  PROB30 \n  TEMPO 2616/2618 -SHRA BKN025 BKN080 \n  BECMG 2618/2621 19015G25KT \n  TEMPO 2618/2622 4000 SHRA FEW018TCU BKN025"
    },
    {
      "icao": "OMDB",
      "iata": "DXB",
      "name": "Dubai International Airport",
      "lat": 25.2527999878,
      "lon": 55.3643989563,
      "updatedAt": "251830Z",
      "visibility_m": 10000,
      "taf_visibility_m": 4000,
      "worst_visibility_m": 4000,
      "ceiling_ft": null,
      "hazards": [
        "SHRA",
        "RA"
      ],
      "severityScore": 26,
      "metarRaw": "METAR OMDB 251830Z 09006KT 9999 SCT045 20/16 Q1013 BECMG 28015KT",
      "tafRaw": "TAF OMDB 251700Z 2518/2700 VRB02KT 8000 FEW030 \n  PROB30 \n  TEMPO 2518/2609 VRB18G28KT 4000 SHRA BLDU FEW030TCU \n  BECMG 2520/2522 28012KT \n  BECMG 2616/2618 22005KT"
    },
    {
      "icao": "UGKO",
      "iata": "KUT",
      "name": "David the Builder Kutaisi International Airport",
      "lat": 42.177448,
      "lon": 42.485353,
      "updatedAt": "251830Z",
      "visibility_m": 10000,
      "taf_visibility_m": 2000,
      "worst_visibility_m": 2000,
      "ceiling_ft": 5300,
      "hazards": [
        "SHRA",
        "RA"
      ],
      "severityScore": 26,
      "metarRaw": "METAR UGKO 251830Z 10004KT 9999 SCT047 BKN053 06/05 Q1022 NOSIG",
      "tafRaw": "TAF UGKO 251700Z 2518/2618 08007KT 9999 BKN050 TX15/2611Z TN03/2604Z \n  PROB40 \n  TEMPO 2521/2604 2000 SHRA BKN017CB \n  BECMG 2605/2608 CAVOK \n  TEMPO 2615/2618 08017KT"
    },
    {
      "icao": "GCTS",
      "iata": "TFS",
      "name": "Tenerife Sur Airport",
      "lat": 28.0445,
      "lon": -16.5725,
      "updatedAt": "251830Z",
      "visibility_m": 10000,
      "taf_visibility_m": 10000,
      "worst_visibility_m": 10000,
      "ceiling_ft": null,
      "hazards": [
        "TS"
      ],
      "severityScore": 25,
      "metarRaw": "METAR GCTS 251830Z 10011KT 9999 FEW040 18/10 Q1027 NOSIG",
      "tafRaw": "TAF GCTS 251400Z 2515/2615 11010KT 9999 SCT035 TX22/2614Z TN14/2606Z \n  TEMPO 2515/2519 02007KT \n  BECMG 2519/2521 02007KT"
    },
    {
      "icao": "EKBI",
      "iata": "BLL",
      "name": "Billund Airport",
      "lat": 55.740335,
      "lon": 9.157019,
      "updatedAt": "251850Z",
      "visibility_m": 10000,
      "taf_visibility_m": 7000,
      "worst_visibility_m": 7000,
      "ceiling_ft": 700,
      "hazards": [],
      "severityScore": 25,
      "metarRaw": "METAR EKBI 251850Z AUTO 09014KT 9999 OVC008/// 01/M01 Q1006",
      "tafRaw": "TAF EKBI 251727Z 2518/2618 08012KT 7000 BKN007 \n  TEMPO 2518/2602 BKN010 \n  BECMG 2602/2604 BKN015 \n  TEMPO 2604/2615 05015G25KT BKN012"
    },
    {
      "icao": "HESX",
      "iata": "SPX",
      "name": "Sphinx International Airport",
      "lat": 30.108179,
      "lon": 30.895728,
      "updatedAt": "251800Z",
      "visibility_m": 10000,
      "taf_visibility_m": 800,
      "worst_visibility_m": 800,
      "ceiling_ft": null,
      "hazards": [],
      "severityScore": 25,
      "metarRaw": "METAR HESX 251800Z 08008KT CAVOK 16/07 Q1018 NOSIG",
      "tafRaw": "TAF HESX 251700Z 2518/2624 17006KT 8000 NSC \n  TEMPO 2522/2608 3000 HZ \n  PROB40 \n  TEMPO 2602/2606 1000 \n  BECMG 2608/2610 18018KT \n  TEMPO 2608/2620 20020G30KT 3000 SA \n  PROB40 \n  TEMPO 2610/2618 1000 \n  PROB30 \n  TEMPO 2612/2616 0800 SS"
    },
    {
      "icao": "BKPR",
      "iata": "PRN",
      "name": "Priština Adem Jashari International Airport",
      "lat": 42.5728,
      "lon": 21.035801,
      "updatedAt": "251900Z",
      "visibility_m": 10000,
      "taf_visibility_m": 4000,
      "worst_visibility_m": 4000,
      "ceiling_ft": 1200,
      "hazards": [
        "RA"
      ],
      "severityScore": 24,
      "metarRaw": "METAR BKPR 251900Z 16022KT CAVOK 09/06 Q1005 NOSIG",
      "tafRaw": "TAF BKPR 251730Z 2518/2618 17008KT 9999 FEW012 SCT030 BKN070 \n  TEMPO 2518/2604 17018G28KT \n  TEMPO 2612/2618 4000 RA BKN012 BKN030"
    },
    {
      "icao": "EGGP",
      "iata": "LPL",
      "name": "Liverpool John Lennon Airport",
      "lat": 53.334863,
      "lon": -2.849637,
      "updatedAt": "251850Z",
      "visibility_m": 10000,
      "taf_visibility_m": 6000,
      "worst_visibility_m": 6000,
      "ceiling_ft": 1700,
      "hazards": [
        "RA"
      ],
      "severityScore": 24,
      "metarRaw": "METAR EGGP 251850Z 08007KT 9999 OVC017 05/03 Q0998",
      "tafRaw": "TAF EGGP 251658Z 2518/2618 08010KT 9999 SCT015 \n  TEMPO 2518/2521 BKN014 \n  PROB30 \n  TEMPO 2518/2521 8000 -RA BKN008 \n  TEMPO 2521/2610 6000 \n  BECMG 2606/2609 15010KT \n  PROB30 \n  TEMPO 2614/2618 16015G25KT"
    },
    {
      "icao": "LIPQ",
      "iata": "TRS",
      "name": "Trieste–Friuli Venezia Giulia Airport",
      "lat": 45.827499,
      "lon": 13.4722,
      "updatedAt": "251850Z",
      "visibility_m": 9000,
      "taf_visibility_m": 4000,
      "worst_visibility_m": 4000,
      "ceiling_ft": 1500,
      "hazards": [
        "RA"
      ],
      "severityScore": 24,
      "metarRaw": "METAR LIPQ 251850Z AUTO 12005KT 9000 BKN018/// 06/06 Q0998",
      "tafRaw": "TAF LIPQ 251700Z 2518/2618 VRB06KT 8000 BKN015 \n  TEMPO 2520/2607 4000 RA"
    },
    {
      "icao": "LWOH",
      "iata": "OHD",
      "name": "Ohrid St. Paul the Apostle Airport",
      "lat": 41.18,
      "lon": 20.7423,
      "updatedAt": "251850Z",
      "visibility_m": 10000,
      "taf_visibility_m": 5000,
      "worst_visibility_m": 5000,
      "ceiling_ft": 1000,
      "hazards": [
        "RA"
      ],
      "severityScore": 24,
      "metarRaw": "METAR LWOH 251850Z 15006KT 130V190 9999 FEW040 SCT090 08/05 Q1007",
      "tafRaw": "TAF LWOH 251730Z 2518/2618 16010KT 9999 FEW040 SCT090 \n  BECMG 2520/2522 SCT020 BKN040 OVC070 \n  BECMG 2602/2604 5000 RA BKN010 OVC030"
    },
    {
      "icao": "LWSK",
      "iata": "SKP",
      "name": "Skopje International Airport",
      "lat": 41.958087,
      "lon": 21.622581,
      "updatedAt": "251850Z",
      "visibility_m": 10000,
      "taf_visibility_m": 5000,
      "worst_visibility_m": 5000,
      "ceiling_ft": 1500,
      "hazards": [
        "RA"
      ],
      "severityScore": 24,
      "metarRaw": "METAR LWSK 251850Z COR VRB02KT 9999 SCT020 10/07 Q1008 NOSIG",
      "tafRaw": "TAF LWSK 251730Z 2518/2618 15012KT 9999 SCT020 \n  TEMPO 2518/2523 16015G25KT \n  BECMG 2600/2602 5000 RA BKN015 OVC030"
    },
    {
      "icao": "LRSM",
      "iata": "SUJ",
      "name": "Satu Mare International Airport",
      "lat": 47.7033,
      "lon": 22.8857,
      "updatedAt": "251830Z",
      "visibility_m": 10000,
      "taf_visibility_m": 5000,
      "worst_visibility_m": 5000,
      "ceiling_ft": 4500,
      "hazards": [
        "BR",
        "RA"
      ],
      "severityScore": 22,
      "metarRaw": "METAR LRSM 251830Z AUTO 15004KT 110V170 9999 BKN170/// 07/01 Q1004",
      "tafRaw": "TAF LRSM 251400Z 2515/2524 12006KT 9999 BKN045 \n  PROB40 \n  TEMPO 2516/2518 5000 -RA BR"
    },
    {
      "icao": "LYBE",
      "iata": "BEG",
      "name": "Belgrade Nikola Tesla Airport",
      "lat": 44.818401,
      "lon": 20.309099,
      "updatedAt": "251830Z",
      "visibility_m": 10000,
      "taf_visibility_m": 4000,
      "worst_visibility_m": 4000,
      "ceiling_ft": 1200,
      "hazards": [
        "BR"
      ],
      "severityScore": 22,
      "metarRaw": "METAR LYBE 251830Z 13020KT CAVOK 10/03 Q1001 NOSIG",
      "tafRaw": "TAF LYBE 251700Z 2518/2618 12014KT CAVOK TX10/2613Z TN05/2606Z \n  TEMPO 2518/2605 12016G26KT \n  BECMG 2610/2612 12004KT \n  BECMG 2616/2618 4000 BR BKN012"
    },
    {
      "icao": "LIME",
      "iata": "BGY",
      "name": "Milan Bergamo Airport / Antonio Locatelli Air Base",
      "lat": 45.670725,
      "lon": 9.709223,
      "updatedAt": "251850Z",
      "visibility_m": 8000,
      "taf_visibility_m": 2000,
      "worst_visibility_m": 2000,
      "ceiling_ft": 6000,
      "hazards": [
        "FG"
      ],
      "severityScore": 20,
      "metarRaw": "METAR LIME 251850Z 10002KT 8000 BKN060 04/04 Q0997 NOSIG",
      "tafRaw": "TAF LIME 251700Z 2518/2618 VRB05KT 6000 BKN010 \n  PROB40 \n  TEMPO 2520/2608 2000 BCFG BKN004"
    },
    {
      "icao": "ENTO",
      "iata": "TRF",
      "name": "Sandefjord Airport, Torp",
      "lat": 59.186699,
      "lon": 10.2586,
      "updatedAt": "251850Z",
      "visibility_m": 10000,
      "taf_visibility_m": 10000,
      "worst_visibility_m": 10000,
      "ceiling_ft": 4600,
      "hazards": [
        "SN"
      ],
      "severityScore": 18,
      "metarRaw": "METAR ENTO 251850Z 36004KT 9999 SCT021 OVC046 M05/M07 Q1014 NOSIG",
      "tafRaw": "TAF ENTO 251700Z 2518/2618 02008KT 9999 -SN SCT020 BKN040"
    },
    {
      "icao": "ESKN",
      "iata": "NYO",
      "name": "Stockholm Skavsta Airport",
      "lat": 58.789656,
      "lon": 16.911479,
      "updatedAt": "251850Z",
      "visibility_m": 10000,
      "taf_visibility_m": 2500,
      "worst_visibility_m": 2500,
      "ceiling_ft": 2200,
      "hazards": [
        "SN"
      ],
      "severityScore": 18,
      "metarRaw": "METAR ESKN 251850Z VRB03KT 9999 OVC022 M04/M05 Q1012",
      "tafRaw": "TAF ESKN 251730Z 2518/2618 03006KT 9999 -SN FEW012 BKN030 \n  PROB40 2518/2522 2500 VV010"
    },
    {
      "icao": "EGPF",
      "iata": "GLA",
      "name": "Glasgow Airport",
      "lat": 55.871899,
      "lon": -4.43306,
      "updatedAt": "251850Z",
      "visibility_m": 10000,
      "taf_visibility_m": 7000,
      "worst_visibility_m": 7000,
      "ceiling_ft": 2200,
      "hazards": [
        "RA"
      ],
      "severityScore": 12,
      "metarRaw": "METAR EGPF 251850Z AUTO 08013KT 9999 FEW017 BKN022 OVC033 06/03 Q1001",
      "tafRaw": "TAF EGPF 251701Z 2518/2618 08015KT 9999 SCT025 \n  TEMPO 2518/2524 8000 -RA \n  PROB30 \n  TEMPO 2518/2524 BKN014 \n  PROB30 \n  TEMPO 2518/2521 09018G28KT \n  BECMG 2600/2603 09005KT \n  PROB30 2600/2618 7000 \n  BECMG 2612/2615 09015KT"
    },
    {
      "icao": "LEMG",
      "iata": "AGP",
      "name": "Málaga-Costa del Sol Airport",
      "lat": 36.6749,
      "lon": -4.49911,
      "updatedAt": "251830Z",
      "visibility_m": 10000,
      "taf_visibility_m": 10000,
      "worst_visibility_m": 10000,
      "ceiling_ft": 4500,
      "hazards": [
        "RA"
      ],
      "severityScore": 12,
      "metarRaw": "METAR LEMG 251830Z 26001KT 9999 FEW025 SCT048 14/09 Q1016 NOSIG",
      "tafRaw": "TAF LEMG 251700Z 2518/2618 27004KT 9999 BKN045 TX20/2614Z TN12/2607Z \n  PROB30 \n  TEMPO 2523/2602 RA \n  BECMG 2609/2611 33010KT \n  BECMG 2615/2617 27005KT"
    },
    {
      "icao": "LIBD",
      "iata": "BRI",
      "name": "Bari Karol Wojtyła International Airport",
      "lat": 41.138901,
      "lon": 16.760599,
      "updatedAt": "251850Z",
      "visibility_m": 9000,
      "taf_visibility_m": 10000,
      "worst_visibility_m": 9000,
      "ceiling_ft": null,
      "hazards": [
        "RA"
      ],
      "severityScore": 12,
      "metarRaw": "METAR LIBD 251850Z 19004KT 9000 NSC 09/07 Q1001",
      "tafRaw": "TAF LIBD 251700Z 2518/2618 19008KT 9999 SCT030 \n  TEMPO 2518/2521 RA \n  BECMG 2610/2612 33010KT"
    },
    {
      "icao": "LIRP",
      "iata": "PSA",
      "name": "Pisa International Airport",
      "lat": 43.683899,
      "lon": 10.3927,
      "updatedAt": "251845Z",
      "visibility_m": 10000,
      "taf_visibility_m": 7000,
      "worst_visibility_m": 7000,
      "ceiling_ft": 2500,
      "hazards": [
        "RA"
      ],
      "severityScore": 12,
      "metarRaw": "METAR LIRP 251845Z 11005KT 9999 FEW030 08/08 Q0998 NOSIG",
      "tafRaw": "TAF LIRP 251700Z 2518/2618 10005KT 9999 SCT030 \n  BECMG 2521/2523 09005KT \n  PROB40 \n  TEMPO 2603/2607 7000 RA BKN025 \n  BECMG 2613/2615 15005KT CAVOK"
    },
    {
      "icao": "ENBR",
      "iata": "BGO",
      "name": "Bergen Airport, Flesland",
      "lat": 60.2934,
      "lon": 5.21814,
      "updatedAt": "251850Z",
      "visibility_m": 10000,
      "taf_visibility_m": 10000,
      "worst_visibility_m": 10000,
      "ceiling_ft": 4200,
      "hazards": [
        "BR"
      ],
      "severityScore": 10,
      "metarRaw": "METAR ENBR 251850Z 10003KT 9999 BKN042 M02/M09 Q1011 NOSIG RMK WIND 1200FT 12003KT",
      "tafRaw": "TAF ENBR 251700Z 2518/2618 07004KT 9999 BKN045"
    },
    {
      "icao": "LECH",
      "iata": "CDT",
      "name": "Castellón-Costa Azahar Airport",
      "lat": 40.213889,
      "lon": 0.073333,
      "updatedAt": "251830Z",
      "visibility_m": 9000,
      "taf_visibility_m": null,
      "worst_visibility_m": 9000,
      "ceiling_ft": null,
      "hazards": [],
      "severityScore": 5,
      "metarRaw": "METAR LECH 251830Z AUTO 28014KT 9000 NSC 12/01 Q1001",
      "tafRaw": null
    },
    {
      "icao": "LEZG",
      "iata": "ZAZ",
      "name": "Zaragoza Airport",
      "lat": 41.666199,
      "lon": -1.04155,
      "updatedAt": "251830Z",
      "visibility_m": 10000,
      "taf_visibility_m": null,
      "worst_visibility_m": 10000,
      "ceiling_ft": 5000,
      "hazards": [],
      "severityScore": 5,
      "metarRaw": "METAR LEZG 251830Z 28019KT 9999 VCSH FEW030TCU BKN050 07/05 Q1004 NOSIG",
      "tafRaw": null
    },
    {
      "icao": "LEZL",
      "iata": "SVQ",
      "name": "Sevilla Airport",
      "lat": 37.417999,
      "lon": -5.89311,
      "updatedAt": "251830Z",
      "visibility_m": 10000,
      "taf_visibility_m": null,
      "worst_visibility_m": 10000,
      "ceiling_ft": null,
      "hazards": [],
      "severityScore": 5,
      "metarRaw": "METAR LEZL 251830Z 25014KT 9999 FEW015 15/13 Q1016 NOSIG",
      "tafRaw": null
    },
    {
      "icao": "BIKF",
      "iata": "KEF",
      "name": "Keflavik International Airport",
      "lat": 63.985001,
      "lon": -22.6056,
      "updatedAt": "251830Z",
      "visibility_m": 10000,
      "taf_visibility_m": 10000,
      "worst_visibility_m": 10000,
      "ceiling_ft": null,
      "hazards": [],
      "severityScore": 0,
      "metarRaw": "METAR BIKF 251830Z 09017KT CAVOK 03/M01 Q1005",
      "tafRaw": "TAF BIKF 251632Z 2518/2618 08015KT 9999 FEW025 TX05/2615Z TN02/2602Z \n  TEMPO 2518/2618 09020G30KT"
    },
    {
      "icao": "GCFV",
      "iata": "FUE",
      "name": "Fuerteventura Airport",
      "lat": 28.4527,
      "lon": -13.8638,
      "updatedAt": "251830Z",
      "visibility_m": 10000,
      "taf_visibility_m": 10000,
      "worst_visibility_m": 10000,
      "ceiling_ft": null,
      "hazards": [],
      "severityScore": 0,
      "metarRaw": "METAR GCFV 251830Z 03009KT 9999 FEW035 18/10 Q1026",
      "tafRaw": "TAF GCFV 251400Z 2515/2615 04010KT 9999 FEW035 TX20/2614Z TN14/2606Z \n  BECMG 2519/2521 33005KT"
    },
    {
      "icao": "GCLP",
      "iata": "LPA",
      "name": "Gran Canaria Airport",
      "lat": 27.9319,
      "lon": -15.3866,
      "updatedAt": "251830Z",
      "visibility_m": 10000,
      "taf_visibility_m": 10000,
      "worst_visibility_m": 10000,
      "ceiling_ft": null,
      "hazards": [],
      "severityScore": 0,
      "metarRaw": "METAR GCLP 251830Z 02013KT 9999 FEW035 18/10 Q1026 NOSIG",
      "tafRaw": "TAF GCLP 251400Z 2515/2615 05012KT 9999 FEW030 TX20/2614Z TN13/2606Z \n  BECMG 2519/2521 33008KT"
    },
    {
      "icao": "GMAD",
      "iata": "AGA",
      "name": "Al Massira Airport",
      "lat": 30.322478,
      "lon": -9.412003,
      "updatedAt": "251830Z",
      "visibility_m": 10000,
      "taf_visibility_m": 10000,
      "worst_visibility_m": 10000,
      "ceiling_ft": null,
      "hazards": [],
      "severityScore": 0,
      "metarRaw": "METAR GMAD 251830Z 26008KT 9999 FEW033 14/12 Q1024 NOSIG",
      "tafRaw": "TAF GMAD 251700Z 2518/2624 20007KT 9999 FEW033 \n  BECMG 2605/2607 07005KT"
    },
    {
      "icao": "GMMN",
      "iata": "CMN",
      "name": "Mohammed V International Airport",
      "lat": 33.3675,
      "lon": -7.58997,
      "updatedAt": "251830Z",
      "visibility_m": 10000,
      "taf_visibility_m": 10000,
      "worst_visibility_m": 10000,
      "ceiling_ft": 3000,
      "hazards": [],
      "severityScore": 0,
      "metarRaw": "METAR GMMN 251830Z 20007KT 9999 BKN030 12/10 Q1025 NOSIG",
      "tafRaw": "TAF GMMN 251700Z 2518/2624 22010KT 9999 BKN030 \n  TEMPO 2519/2608 18008KT BKN020"
    },
    {
      "icao": "GMMX",
      "iata": "RAK",
      "name": "Marrakesh Menara Airport",
      "lat": 31.604807,
      "lon": -8.035788,
      "updatedAt": "251830Z",
      "visibility_m": 10000,
      "taf_visibility_m": 8000,
      "worst_visibility_m": 8000,
      "ceiling_ft": null,
      "hazards": [],
      "severityScore": 0,
      "metarRaw": "METAR GMMX 251830Z 30005KT CAVOK 13/07 Q1025 NOSIG",
      "tafRaw": "TAF GMMX 251100Z 2512/2618 12006KT 8000 NSC \n  TEMPO 2516/2520 34016KT"
    },
    {
      "icao": "ENAL",
      "iata": "AES",
      "name": "Ålesund Airport, Vigra",
      "lat": 62.5625,
      "lon": 6.1197,
      "updatedAt": "251850Z",
      "visibility_m": 10000,
      "taf_visibility_m": 10000,
      "worst_visibility_m": 10000,
      "ceiling_ft": 3000,
      "hazards": [],
      "severityScore": 0,
      "metarRaw": "METAR ENAL 251850Z 07012KT 9999 BKN030 01/M06 Q1012",
      "tafRaw": "TAF ENAL 251700Z 2518/2603 06008KT 9999 BKN040"
    },
    {
      "icao": "ENGM",
      "iata": "OSL",
      "name": "Oslo-Gardermoen International Airport",
      "lat": 60.193901,
      "lon": 11.1004,
      "updatedAt": "251850Z",
      "visibility_m": 10000,
      "taf_visibility_m": 10000,
      "worst_visibility_m": 10000,
      "ceiling_ft": 3800,
      "hazards": [],
      "severityScore": 0,
      "metarRaw": "METAR ENGM 251850Z 35002KT 9999 BKN038 M07/M09 Q1013 NOSIG",
      "tafRaw": "TAF ENGM 251700Z 2518/2618 02005KT 9999 BKN040"
    },
    {
      "icao": "ENHD",
      "iata": "HAU",
      "name": "Haugesund Airport, Karmøy",
      "lat": 59.345299,
      "lon": 5.20836,
      "updatedAt": "251850Z",
      "visibility_m": 10000,
      "taf_visibility_m": 10000,
      "worst_visibility_m": 10000,
      "ceiling_ft": null,
      "hazards": [],
      "severityScore": 0,
      "metarRaw": "METAR ENHD 251850Z /////KT CAVOK M03/M12 Q1012 RMK WIND RWY 31 07006KT",
      "tafRaw": "TAF ENHD 251400Z 2515/2523 11009KT CAVOK"
    },
    {
      "icao": "ENVA",
      "iata": "TRD",
      "name": "Trondheim Airport, Værnes",
      "lat": 63.457802,
      "lon": 10.924,
      "updatedAt": "251850Z",
      "visibility_m": 10000,
      "taf_visibility_m": 10000,
      "worst_visibility_m": 10000,
      "ceiling_ft": null,
      "hazards": [],
      "severityScore": 0,
      "metarRaw": "METAR ENVA 251850Z 11008KT CAVOK M11/M15 Q1015 RMK WIND 670FT 15007KT",
      "tafRaw": "TAF ENVA 251700Z 2518/2618 10006KT 9999 FEW035"
    },
    {
      "icao": "ENZV",
      "iata": "SVG",
      "name": "Stavanger Airport, Sola",
      "lat": 58.876701,
      "lon": 5.63778,
      "updatedAt": "251850Z",
      "visibility_m": 10000,
      "taf_visibility_m": 10000,
      "worst_visibility_m": 10000,
      "ceiling_ft": null,
      "hazards": [],
      "severityScore": 0,
      "metarRaw": "METAR ENZV 251850Z 07005KT CAVOK M02/M10 Q1011 NOSIG",
      "tafRaw": "TAF ENZV 251700Z 2518/2618 07007KT CAVOK"
    },
    {
      "icao": "ESGG",
      "iata": "GOT",
      "name": "Göteborg Landvetter Airport",
      "lat": 57.6628,
      "lon": 12.2798,
      "updatedAt": "251850Z",
      "visibility_m": 10000,
      "taf_visibility_m": 10000,
      "worst_visibility_m": 10000,
      "ceiling_ft": 2100,
      "hazards": [],
      "severityScore": 0,
      "metarRaw": "METAR ESGG 251850Z 06007KT 9999 BKN021 M03/M08 Q1010",
      "tafRaw": "TAF ESGG 251730Z 2518/2618 07008KT 9999 OVC018"
    },
    {
      "icao": "HEGN",
      "iata": "HRG",
      "name": "Hurghada International Airport",
      "lat": 27.176776,
      "lon": 33.796692,
      "updatedAt": "251800Z",
      "visibility_m": 10000,
      "taf_visibility_m": 10000,
      "worst_visibility_m": 10000,
      "ceiling_ft": null,
      "hazards": [],
      "severityScore": 0,
      "metarRaw": "METAR HEGN 251800Z 00000KT CAVOK 17/05 Q1019 NOSIG",
      "tafRaw": "TAF HEGN 251700Z 2518/2624 28010KT CAVOK \n  BECMG 2609/2611 12012KT"
    },
    {
      "icao": "HEMA",
      "iata": "RMF",
      "name": "Marsa Alam International Airport",
      "lat": 25.555548,
      "lon": 34.59245,
      "updatedAt": "251800Z",
      "visibility_m": 10000,
      "taf_visibility_m": 10000,
      "worst_visibility_m": 10000,
      "ceiling_ft": null,
      "hazards": [],
      "severityScore": 0,
      "metarRaw": "METAR HEMA 251800Z 32007KT CAVOK 19/06 Q1019 NOSIG",
      "tafRaw": "TAF HEMA 251700Z 2518/2624 29010KT CAVOK"
    },
    {
      "icao": "HESH",
      "iata": "SSH",
      "name": "Sharm El Sheikh International Airport",
      "lat": 27.977272,
      "lon": 34.394717,
      "updatedAt": "251800Z",
      "visibility_m": 10000,
      "taf_visibility_m": 10000,
      "worst_visibility_m": 10000,
      "ceiling_ft": null,
      "hazards": [],
      "severityScore": 0,
      "metarRaw": "METAR HESH 251800Z 24002KT CAVOK 19/M01 Q1019 NOSIG",
      "tafRaw": "TAF HESH 251700Z 2518/2624 35008KT CAVOK"
    },
    {
      "icao": "LCPH",
      "iata": "PFO",
      "name": "Paphos International Airport",
      "lat": 34.717999,
      "lon": 32.485699,
      "updatedAt": "251830Z",
      "visibility_m": 10000,
      "taf_visibility_m": 10000,
      "worst_visibility_m": 10000,
      "ceiling_ft": null,
      "hazards": [],
      "severityScore": 0,
      "metarRaw": "METAR LCPH 251830Z 07005KT 9999 FEW022 12/10 Q1021 NOSIG",
      "tafRaw": "TAF LCPH 251730Z 2518/2618 06009KT 9999 FEW030 \n  BECMG 2606/2610 12014KT"
    },
    {
      "icao": "LEAL",
      "iata": "ALC",
      "name": "Alicante-Elche Miguel Hernández Airport",
      "lat": 38.2822,
      "lon": -0.558156,
      "updatedAt": "251830Z",
      "visibility_m": 10000,
      "taf_visibility_m": 10000,
      "worst_visibility_m": 10000,
      "ceiling_ft": null,
      "hazards": [],
      "severityScore": 0,
      "metarRaw": "METAR LEAL 251830Z 27016KT 9999 FEW012 SCT050 17/06 Q1007 NOSIG",
      "tafRaw": "TAF LEAL 251700Z 2518/2618 29018KT CAVOK TX20/2613Z TN11/2606Z \n  TEMPO 2518/2601 29015G25KT \n  TEMPO 2518/2523 29020G30KT \n  BECMG 2600/2602 24009KT \n  PROB30 \n  TEMPO 2616/2618 27015G25KT"
    },
    {
      "icao": "LEVC",
      "iata": "VLC",
      "name": "Valencia Airport",
      "lat": 39.4893,
      "lon": -0.481625,
      "updatedAt": "251830Z",
      "visibility_m": 10000,
      "taf_visibility_m": 10000,
      "worst_visibility_m": 10000,
      "ceiling_ft": null,
      "hazards": [],
      "severityScore": 0,
      "metarRaw": "METAR LEVC 251830Z 25015KT 9999 FEW030 14/06 Q1003 NOSIG",
      "tafRaw": "TAF LEVC 251700Z 2518/2618 27017KT 9999 SCT050 TX19/2613Z TN11/2606Z \n  TEMPO 2518/2519 27015G25KT \n  TEMPO 2519/2524 28015G25KT \n  BECMG 2602/2604 26007KT"
    },
    {
      "icao": "LFMN",
      "iata": "NCE",
      "name": "Nice-Côte d'Azur Airport",
      "lat": 43.658401,
      "lon": 7.21587,
      "updatedAt": "251830Z",
      "visibility_m": 10000,
      "taf_visibility_m": 10000,
      "worst_visibility_m": 10000,
      "ceiling_ft": 17000,
      "hazards": [],
      "severityScore": 0,
      "metarRaw": "METAR LFMN 251830Z 31006KT 9999 FEW043 BKN170 09/06 Q0996 NOSIG",
      "tafRaw": "TAF LFMN 251400Z 2515/2621 21010KT 9999 FEW036 \n  BECMG 2521/2523 33010KT \n  PROB40 \n  TEMPO 2605/2608 BKN025 \n  BECMG 2611/2613 20010KT \n  BECMG 2618/2620 34010KT"
    },
    {
      "icao": "LIBG",
      "iata": "TAR",
      "name": "Taranto-Grottaglie Marcello Arlotta Airport",
      "lat": 40.517502,
      "lon": 17.4032,
      "updatedAt": "251750Z",
      "visibility_m": 7000,
      "taf_visibility_m": 7000,
      "worst_visibility_m": 7000,
      "ceiling_ft": 4000,
      "hazards": [],
      "severityScore": 0,
      "metarRaw": "METAR LIBG 251750Z VRB02KT 7000 BKN040 10/09 Q1002",
      "tafRaw": "TAF LIBG 251700Z 2518/2603 29007KT 7000 BKN020"
    },
    {
      "icao": "LIBP",
      "iata": "PSR",
      "name": "Abruzzo Airport",
      "lat": 42.431079,
      "lon": 14.182981,
      "updatedAt": "251850Z",
      "visibility_m": 10000,
      "taf_visibility_m": 10000,
      "worst_visibility_m": 10000,
      "ceiling_ft": null,
      "hazards": [],
      "severityScore": 0,
      "metarRaw": "METAR LIBP 251850Z AUTO VRB02KT 9999 NCD 10/07 Q0999",
      "tafRaw": "TAF LIBP 251700Z 2518/2618 23014KT 9999 FEW040 \n  TEMPO 2600/2606 23015G25KT \n  BECMG 2606/2608 VRB05KT \n  BECMG 2610/2612 35010KT"
    },
    {
      "icao": "LLBG",
      "iata": "TLV",
      "name": "Ben Gurion International Airport",
      "lat": 32.011398,
      "lon": 34.8867,
      "updatedAt": "251850Z",
      "visibility_m": 10000,
      "taf_visibility_m": 10000,
      "worst_visibility_m": 10000,
      "ceiling_ft": null,
      "hazards": [],
      "severityScore": 0,
      "metarRaw": "METAR LLBG 251850Z VRB02KT CAVOK 14/09 Q1020 NOSIG",
      "tafRaw": "TAF LLBG 251705Z 2518/2618 VRB03KT CAVOK \n  BECMG 2519/2522 14007KT \n  PROB40 \n  TEMPO 2522/2609 VRB03KT \n  BECMG 2609/2611 29008KT \n  BECMG 2613/2615 14005KT TX23/2612Z TN10/2603Z"
    },
    {
      "icao": "LPMA",
      "iata": "FNC",
      "name": "Cristiano Ronaldo International Airport",
      "lat": 32.697812,
      "lon": -16.774613,
      "updatedAt": "251830Z",
      "visibility_m": 10000,
      "taf_visibility_m": 10000,
      "worst_visibility_m": 10000,
      "ceiling_ft": null,
      "hazards": [],
      "severityScore": 0,
      "metarRaw": "METAR LPMA 251830Z 34006KT 9999 SCT016 17/10 Q1024",
      "tafRaw": "TAF LPMA 251700Z 2518/2618 VRB05KT 9999 SCT015 \n  BECMG 2610/2612 23015KT \n  TEMPO 2612/2618 23020G32KT"
    },
    {
      "icao": "LPPS",
      "iata": "PXO",
      "name": "Porto Santo Airport",
      "lat": 33.0733985901,
      "lon": -16.3500003815,
      "updatedAt": "251830Z",
      "visibility_m": 10000,
      "taf_visibility_m": 10000,
      "worst_visibility_m": 10000,
      "ceiling_ft": 2500,
      "hazards": [],
      "severityScore": 0,
      "metarRaw": "METAR LPPS 251830Z 28013KT 9999 FEW015 SCT030 17/11 Q1024",
      "tafRaw": "TAF LPPS 251700Z 2518/2624 27013KT 9999 FEW015 SCT030 \n  BECMG 2610/2612 20012KT SCT012 BKN025"
    },
    {
      "icao": "LRBV",
      "iata": "GHV",
      "name": "Brașov-Ghimbav International Airport",
      "lat": 45.70558,
      "lon": 25.522871,
      "updatedAt": "251830Z",
      "visibility_m": 10000,
      "taf_visibility_m": 10000,
      "worst_visibility_m": 10000,
      "ceiling_ft": null,
      "hazards": [],
      "severityScore": 0,
      "metarRaw": "METAR LRBV 251830Z 13011KT CAVOK 04/02 Q1008",
      "tafRaw": "TAF LRBV 251700Z 2518/2603 16010KT CAVOK \n  BECMG 2519/2521 VRB04KT"
    },
    {
      "icao": "LRCL",
      "iata": "CLJ",
      "name": "Cluj Avram Iancu International Airport",
      "lat": 46.787425,
      "lon": 23.684292,
      "updatedAt": "251830Z",
      "visibility_m": 10000,
      "taf_visibility_m": 10000,
      "worst_visibility_m": 10000,
      "ceiling_ft": null,
      "hazards": [],
      "severityScore": 0,
      "metarRaw": "METAR LRCL 251830Z 08007KT CAVOK 04/00 Q1006",
      "tafRaw": "TAF LRCL 251700Z 2518/2603 08006KT 9999 SCT060"
    },
    {
      "icao": "OEJN",
      "iata": "JED",
      "name": "King Abdulaziz International Airport",
      "lat": 21.6796,
      "lon": 39.156502,
      "updatedAt": "251800Z",
      "visibility_m": 10000,
      "taf_visibility_m": 3000,
      "worst_visibility_m": 3000,
      "ceiling_ft": null,
      "hazards": [],
      "severityScore": 0,
      "metarRaw": "METAR OEJN 251800Z 01004KT CAVOK 24/13 Q1014 NOSIG",
      "tafRaw": "TAF OEJN 251700Z 2518/2624 VRB03KT CAVOK \n  BECMG 2520/2522 09012KT 7000 NSC \n  PROB30 \n  TEMPO 2600/2610 3000 DU \n  BECMG 2612/2614 25010KT"
    },
    {
      "icao": "OEMA",
      "iata": "MED",
      "name": "Prince Mohammad Bin Abdulaziz Airport",
      "lat": 24.5534,
      "lon": 39.705101,
      "updatedAt": "251800Z",
      "visibility_m": 10000,
      "taf_visibility_m": 7000,
      "worst_visibility_m": 7000,
      "ceiling_ft": null,
      "hazards": [],
      "severityScore": 0,
      "metarRaw": "METAR OEMA 251800Z 08005KT CAVOK 19/M06 Q1022 NOSIG",
      "tafRaw": "TAF OEMA 251700Z 2518/2624 07008KT 9999 FEW045 \n  BECMG 2606/2608 10012KT 7000 NSC"
    },
    {
      "icao": "OJAI",
      "iata": "AMM",
      "name": "Queen Alia International Airport",
      "lat": 31.7226009369,
      "lon": 35.9931983948,
      "updatedAt": "251800Z",
      "visibility_m": 5000,
      "taf_visibility_m": 3000,
      "worst_visibility_m": 3000,
      "ceiling_ft": null,
      "hazards": [],
      "severityScore": 0,
      "metarRaw": "METAR OJAI 251800Z 06008KT 5000 HZ NSC 09/03 Q1023 NOSIG",
      "tafRaw": "TAF OJAI 251700Z 2518/2624 13010KT 5000 HZ NSC \n  PROB40 \n  TEMPO 2608/2618 15018KT 3000 BLDU"
    },
    {
      "icao": "OMAA",
      "iata": "AUH",
      "name": "Zayed International Airport",
      "lat": 24.440966,
      "lon": 54.649237,
      "updatedAt": "251830Z",
      "visibility_m": 10000,
      "taf_visibility_m": 3000,
      "worst_visibility_m": 3000,
      "ceiling_ft": null,
      "hazards": [],
      "severityScore": 0,
      "metarRaw": "METAR OMAA 251830Z 23008KT CAVOK 23/11 Q1014 BECMG 29015KT",
      "tafRaw": "TAF OMAA 251700Z 2518/2700 20008KT 8000 FEW035 \n  BECMG 2518/2520 28013KT \n  PROB30 \n  TEMPO 2518/2613 28018G28KT 3000 BLDU \n  BECMG 2621/2623 VRB02KT"
    }
  ],
  "stats": {
    "icaoCount": 159,
    "metarReturned": 158,
    "tafReturned": 153,
    "stationsWritten": 159,
    "missingMetar": 1,
    "missingTaf": 6
  },
  "errors": []
}