{
  "generatedAt": "2026-01-20T12:51:03.441Z",
  "stations": [
    {
      "icao": "EDDS",
      "iata": "STR",
      "name": "Stuttgart Airport",
      "lat": 48.689899,
      "lon": 9.22196,
      "updatedAt": "201220Z",
      "visibility_m": 10000,
      "taf_visibility_m": 300,
      "worst_visibility_m": 300,
      "ceiling_ft": 200,
      "hazards": [
        "FZFG",
        "FG"
      ],
      "severityScore": 100,
      "metarRaw": "METAR EDDS 201220Z AUTO VRB02KT CAVOK 05/M01 Q1017 NOSIG",
      "tafRaw": "TAF EDDS 201100Z 2012/2112 VRB03KT CAVOK \n  PROB40 \n  TEMPO 2100/2109 0300 FZFG VV002"
    },
    {
      "icao": "EDFH",
      "iata": "HHN",
      "name": "Frankfurt-Hahn Airport",
      "lat": 49.946353,
      "lon": 7.261734,
      "updatedAt": "201220Z",
      "visibility_m": 300,
      "taf_visibility_m": 200,
      "worst_visibility_m": 200,
      "ceiling_ft": 100,
      "hazards": [
        "FZFG",
        "FG"
      ],
      "severityScore": 100,
      "metarRaw": "METAR EDFH 201220Z 16010KT 0300 R21/0325N FZFG VV/// M01/M01 Q1016",
      "tafRaw": "TAF EDFH 201100Z 2012/2112 15010KT 0200 FZFG VV001 \n  PROB30 \n  TEMPO 2012/2018 3000 BCFG SCT003"
    },
    {
      "icao": "EDSB",
      "iata": "FKB",
      "name": "Karlsruhe Baden-Baden Airport",
      "lat": 48.7794,
      "lon": 8.0805,
      "updatedAt": "201220Z",
      "visibility_m": 7000,
      "taf_visibility_m": 200,
      "worst_visibility_m": 200,
      "ceiling_ft": 400,
      "hazards": [
        "FZFG",
        "BR",
        "FG"
      ],
      "severityScore": 100,
      "metarRaw": "METAR EDSB 201220Z VRB02KT 7000 OVC004 M00/M01 Q1019",
      "tafRaw": "TAF EDSB 201100Z 2012/2112 VRB03KT 8000 OVC002 \n  PROB40 \n  TEMPO 2012/2018 SCT002 BKN005 \n  TEMPO 2018/2111 0200 FZFG VV001 \n  PROB30 \n  TEMPO 2110/2112 1200 BR SCT001 BKN005"
    },
    {
      "icao": "EETN",
      "iata": "TLL",
      "name": "Lennart Meri Tallinn Airport",
      "lat": 59.413246,
      "lon": 24.83264,
      "updatedAt": "201250Z",
      "visibility_m": 4000,
      "taf_visibility_m": 1200,
      "worst_visibility_m": 1200,
      "ceiling_ft": 600,
      "hazards": [
        "BR",
        "SN",
        "FZDZ",
        "DZ"
      ],
      "severityScore": 100,
      "metarRaw": "METAR EETN 201250Z VRB01KT 6000 OVC006 M06/M07 Q1026 TEMPO 4000 BR",
      "tafRaw": "TAF EETN 201130Z 2012/2112 VRB02KT 9999 OVC005 \n  TEMPO 2012/2018 3000 BR BKN010 \n  TEMPO 2018/2022 BKN004 BKN015 \n  TEMPO 2023/2106 1200 -FZDZ SN OVC004 \n  BECMG 2103/2105 08010KT \n  BECMG 2107/2109 SCT010 OVC025"
    },
    {
      "icao": "EFTU",
      "iata": "TKU",
      "name": "Turku Airport",
      "lat": 60.514099,
      "lon": 22.2628,
      "updatedAt": "201220Z",
      "visibility_m": 7000,
      "taf_visibility_m": 2500,
      "worst_visibility_m": 2500,
      "ceiling_ft": 300,
      "hazards": [
        "BR",
        "SN",
        "FZDZ",
        "DZ"
      ],
      "severityScore": 100,
      "metarRaw": "METAR EFTU 201220Z AUTO 13005KT 7000 OVC003 M03/M04 Q1025",
      "tafRaw": "TAF EFTU 201133Z 2012/2112 12005KT 8000 OVC003 \n  TEMPO 2012/2015 5000 BR BKN005 \n  PROB40 2012/2015 3000 -FZDZSN BR \n  BECMG 2015/2017 BKN006 \n  TEMPO 2017/2021 BKN012 \n  TEMPO 2021/2105 2500 -FZDZSN BR BKN004 \n  BECMG 2101/2103 06010KT"
    },
    {
      "icao": "EHEH",
      "iata": "EIN",
      "name": "Eindhoven Airport",
      "lat": 51.4500999451,
      "lon": 5.37452983856,
      "updatedAt": "201225Z",
      "visibility_m": 1100,
      "taf_visibility_m": 400,
      "worst_visibility_m": 400,
      "ceiling_ft": 100,
      "hazards": [
        "BR",
        "FZFG",
        "FG"
      ],
      "severityScore": 100,
      "metarRaw": "METAR EHEH 201225Z AUTO 15004KT 100V160 1100 R21/1000D BR BKN001 OVC002 00/00 Q1016 RED NOSIG RMK TREND REMOTE BY EHWX LVP CHARLIE",
      "tafRaw": "TAF EHEH 201115Z 2012/2118 13006KT 0400 FZFG OVC001 \n  BECMG 2012/2014 2500 BR BKN003 \n  BECMG 2014/2016 6000 NSW NSC"
    },
    {
      "icao": "ENTC",
      "iata": "TOS",
      "name": "Tromsø Airport, Langnes",
      "lat": 69.683296,
      "lon": 18.9189,
      "updatedAt": "201220Z",
      "visibility_m": 3500,
      "taf_visibility_m": 300,
      "worst_visibility_m": 300,
      "ceiling_ft": 100,
      "hazards": [
        "FG",
        "FZFG"
      ],
      "severityScore": 100,
      "metarRaw": "METAR ENTC 201220Z 07002KT 9999 BCFG NSC M06/M07 Q1027 TEMPO 3500 BCFG RMK WIND 2600FT 17003KT",
      "tafRaw": "TAF ENTC 201100Z 2012/2112 VRB02KT 9999 FEW004 \n  TEMPO 2012/2015 3500 BCFG VV003 \n  PROB40 2021/2108 0300 FZFG VV001"
    },
    {
      "icao": "EPGD",
      "iata": "GDN",
      "name": "Gdańsk Lech Wałęsa Airport",
      "lat": 54.377602,
      "lon": 18.4662,
      "updatedAt": "201230Z",
      "visibility_m": 8000,
      "taf_visibility_m": 300,
      "worst_visibility_m": 300,
      "ceiling_ft": null,
      "hazards": [
        "FZFG",
        "BR",
        "FG"
      ],
      "severityScore": 100,
      "metarRaw": "METAR EPGD 201230Z 14003KT 8000 NSC M04/M09 Q1024",
      "tafRaw": "TAF EPGD 201130Z 2012/2112 VRB02KT 8000 NSC \n  TEMPO 2019/2109 2500 BR \n  PROB40 2022/2108 0300 FZFG"
    },
    {
      "icao": "EPKK",
      "iata": "KRK",
      "name": "Kraków John Paul II International Airport",
      "lat": 50.077702,
      "lon": 19.7848,
      "updatedAt": "201230Z",
      "visibility_m": 4500,
      "taf_visibility_m": 500,
      "worst_visibility_m": 500,
      "ceiling_ft": 100,
      "hazards": [
        "FZFG",
        "BR",
        "FG"
      ],
      "severityScore": 100,
      "metarRaw": "METAR EPKK 201230Z 09005KT 4500 HZ NSC M01/M09 Q1027",
      "tafRaw": "TAF EPKK 201130Z 2012/2112 06004KT 4000 HZ NSC \n  BECMG 2012/2015 6000 \n  BECMG 2016/2018 3000 BR \n  TEMPO 2018/2024 1200 BR \n  BECMG 2100/2103 1200 BR \n  TEMPO 2100/2107 0500 FZFG BKN001 \n  BECMG 2107/2110 7000"
    },
    {
      "icao": "EPMO",
      "iata": "WMI",
      "name": "Modlin Airport",
      "lat": 52.451099,
      "lon": 20.6518,
      "updatedAt": "201230Z",
      "visibility_m": 6000,
      "taf_visibility_m": 300,
      "worst_visibility_m": 300,
      "ceiling_ft": 100,
      "hazards": [
        "FZFG",
        "BR",
        "FG"
      ],
      "severityScore": 100,
      "metarRaw": "METAR EPMO 201230Z 12005KT 6000 NSC M00/M06 Q1027",
      "tafRaw": "TAF EPMO 201130Z 2012/2112 13008KT 7000 NSC \n  BECMG 2017/2020 4000 BR \n  TEMPO 2020/2107 1500 BR \n  PROB40 2021/2107 0300 FZFG VV001 \n  BECMG 2108/2111 7000"
    },
    {
      "icao": "LBWN",
      "iata": "VAR",
      "name": "Varna Airport",
      "lat": 43.232101,
      "lon": 27.8251,
      "updatedAt": "201230Z",
      "visibility_m": 10000,
      "taf_visibility_m": 500,
      "worst_visibility_m": 500,
      "ceiling_ft": 200,
      "hazards": [
        "FZFG",
        "BR",
        "FG"
      ],
      "severityScore": 100,
      "metarRaw": "METAR LBWN 201230Z 26004KT 210V300 CAVOK 02/M06 Q1034 NOSIG",
      "tafRaw": "TAF LBWN 201100Z 2012/2112 VRB04KT CAVOK \n  BECMG 2023/2101 3000 BR BKN012 \n  TEMPO 2101/2107 0500 FZFG BKN002 \n  BECMG 2110/2112 11010KT 9999 BKN020"
    },
    {
      "icao": "LEMD",
      "iata": "MAD",
      "name": "Adolfo Suárez Madrid–Barajas Airport",
      "lat": 40.471926,
      "lon": -3.56264,
      "updatedAt": "201230Z",
      "visibility_m": 10000,
      "taf_visibility_m": 800,
      "worst_visibility_m": 800,
      "ceiling_ft": 300,
      "hazards": [
        "FG",
        "BR",
        "RA",
        "DZ"
      ],
      "severityScore": 100,
      "metarRaw": "METAR LEMD 201230Z 18002KT CAVOK 09/00 Q1016 NOSIG",
      "tafRaw": "TAF LEMD 201100Z 2012/2118 VRB03KT CAVOK TX12/2014Z TNM02/2106Z \n  PROB30 \n  TEMPO 2104/2108 0800 FG BKN003 \n  TEMPO 2103/2112 3000 BR BCFG BKN005 BKN010 \n  TEMPO 2108/2118 DZRA BKN010 \n  BECMG 2109/2111 20010KT"
    },
    {
      "icao": "LFLL",
      "iata": "LYS",
      "name": "Lyon Saint-Exupéry Airport",
      "lat": 45.725996,
      "lon": 5.090139,
      "updatedAt": "201230Z",
      "visibility_m": 600,
      "taf_visibility_m": 400,
      "worst_visibility_m": 400,
      "ceiling_ft": 100,
      "hazards": [
        "FG",
        "BR"
      ],
      "severityScore": 100,
      "metarRaw": "METAR LFLL 201230Z 04004KT 010V070 0600 R35L/0750D R17R/1100U R35R/0650N R17L/1200U FG VV/// 02/02 Q1017 BECMG 0800 OVC001",
      "tafRaw": "TAF LFLL 201100Z 2012/2118 VRB02KT 0800 FG OVC001 \n  TEMPO 2012/2013 0400 FG VV/// \n  PROB40 \n  TEMPO 2013/2017 3000 BR OVC003 \n  BECMG 2017/2019 0400 FG VV/// \n  PROB40 \n  TEMPO 2023/2103 15006KT 2000 BCFG SCT001 \n  FM210300 15008KT 6000 FEW001 \n  PROB40 \n  TEMPO 2103/2108 VRB03KT 0600 BCFG \n  FM210800 17010KT CAVOK \n  TEMPO 2112/2117 18015G25KT"
    },
    {
      "icao": "LFSB",
      "iata": "BSL",
      "name": "EuroAirport Basel–Mulhouse–Freiburg",
      "lat": 47.60068,
      "lon": 7.521117,
      "updatedAt": "201230Z",
      "visibility_m": 10000,
      "taf_visibility_m": 500,
      "worst_visibility_m": 500,
      "ceiling_ft": 100,
      "hazards": [
        "FZFG",
        "BR",
        "FG"
      ],
      "severityScore": 100,
      "metarRaw": "METAR LFSB 201230Z AUTO 00000KT CAVOK 07/00 Q1017 NOSIG",
      "tafRaw": "TAF LFSB 201100Z 2012/2112 34003KT CAVOK \n  BECMG 2018/2020 3000 BR OVC003 \n  TEMPO 2020/2104 1200 BR OVC001 \n  PROB40 \n  TEMPO 2020/2103 0500 FZFG VV///"
    },
    {
      "icao": "LHBP",
      "iata": "BUD",
      "name": "Budapest Liszt Ferenc International Airport",
      "lat": 47.43018,
      "lon": 19.262393,
      "updatedAt": "201230Z",
      "visibility_m": 7000,
      "taf_visibility_m": 400,
      "worst_visibility_m": 400,
      "ceiling_ft": 100,
      "hazards": [
        "FZFG",
        "BR",
        "FZDZ",
        "FG",
        "DZ"
      ],
      "severityScore": 100,
      "metarRaw": "METAR LHBP 201230Z 13006KT 7000 NSC M04/M07 Q1032 NOSIG",
      "tafRaw": "TAF LHBP 201115Z 2012/2112 08006KT 5000 BR SCT006 \n  TEMPO 2012/2017 12005KT 7000 NSW NSC \n  TEMPO 2017/2106 VRB03KT 1200 -SG -FZDZ BR OVC002 \n  PROB30 \n  TEMPO 2020/2106 0400 FZFG VV001 \n  BECMG 2106/2109 CAVOK"
    },
    {
      "icao": "LQSA",
      "iata": "SJJ",
      "name": "Sarajevo International Airport",
      "lat": 43.8246,
      "lon": 18.331499,
      "updatedAt": "201230Z",
      "visibility_m": 7000,
      "taf_visibility_m": 500,
      "worst_visibility_m": 500,
      "ceiling_ft": 100,
      "hazards": [
        "FZFG",
        "BR",
        "FG"
      ],
      "severityScore": 100,
      "metarRaw": "METAR LQSA 201230Z VRB02KT 7000 SCT014 M03/M07 Q1026 NOSIG",
      "tafRaw": "TAF LQSA 201100Z 2012/2112 VRB02KT 7000 OVC012 TXM00/2112Z TNM09/2106Z \n  PROB40 2012/2016 BKN015 \n  PROB40 \n  TEMPO 2020/2109 3000 BR \n  PROB30 2103/2107 0500 FZFG BKN001"
    },
    {
      "icao": "LQTZ",
      "iata": "TZL",
      "name": "Tuzla International Airport",
      "lat": 44.459858,
      "lon": 18.723627,
      "updatedAt": "201230Z",
      "visibility_m": 7000,
      "taf_visibility_m": 300,
      "worst_visibility_m": 300,
      "ceiling_ft": 2600,
      "hazards": [
        "FZFG",
        "BR",
        "FG"
      ],
      "severityScore": 100,
      "metarRaw": "METAR LQTZ 201230Z VRB02KT 7000 SCT013 BKN026 M03/M05 Q1029",
      "tafRaw": "TAF LQTZ 201100Z 2012/2112 28005KT 7000 BKN015 TXM02/2014Z TNM09/2105Z \n  TEMPO 2012/2017 OVC009 \n  TEMPO 2020/2110 3000 BR BKN005 \n  PROB40 \n  TEMPO 2023/2109 0300 FZFG VV002"
    },
    {
      "icao": "LRBC",
      "iata": "BCM",
      "name": "Bacău George Enescu International  Airport",
      "lat": 46.5219,
      "lon": 26.910299,
      "updatedAt": "201230Z",
      "visibility_m": 10000,
      "taf_visibility_m": 600,
      "worst_visibility_m": 600,
      "ceiling_ft": 200,
      "hazards": [
        "FZFG",
        "BR",
        "FG"
      ],
      "severityScore": 100,
      "metarRaw": "METAR LRBC 201230Z 17004KT CAVOK 00/M07 Q1032",
      "tafRaw": "TAF LRBC 201100Z 2012/2021 15008KT CAVOK \n  BECMG 2014/2016 5000 BR \n  BECMG 2017/2019 1500 BR \n  TEMPO 2019/2021 0600 FZFG VV002"
    },
    {
      "icao": "LRBS",
      "iata": "BBU",
      "name": "Bucharest Băneasa Aurel Vlaicu International Airport",
      "lat": 44.503133,
      "lon": 26.102944,
      "updatedAt": "201230Z",
      "visibility_m": 10000,
      "taf_visibility_m": 600,
      "worst_visibility_m": 600,
      "ceiling_ft": 100,
      "hazards": [
        "FZFG",
        "BR",
        "FG"
      ],
      "severityScore": 100,
      "metarRaw": "METAR LRBS 201230Z 25008KT CAVOK 02/M05 Q1034 NOSIG",
      "tafRaw": "TAF LRBS 201100Z 2012/2112 25008KT CAVOK \n  BECMG 2016/2018 5000 BR \n  BECMG 2018/2020 3000 BR \n  BECMG 2020/2022 1500 BR \n  TEMPO 2100/2106 0600 FZFG BKN001 \n  BECMG 2107/2109 3000 \n  BECMG 2109/2111 9999 NSW"
    },
    {
      "icao": "LROP",
      "iata": "OTP",
      "name": "Bucharest Henri Coandă International Airport",
      "lat": 44.571792,
      "lon": 26.103285,
      "updatedAt": "201230Z",
      "visibility_m": 9000,
      "taf_visibility_m": 600,
      "worst_visibility_m": 600,
      "ceiling_ft": 100,
      "hazards": [
        "FZFG",
        "BR",
        "FG"
      ],
      "severityScore": 100,
      "metarRaw": "METAR LROP 201230Z 24010KT 9000 NSC 02/M07 Q1033 NOSIG",
      "tafRaw": "TAF LROP 201100Z 2012/2112 25008KT CAVOK \n  BECMG 2016/2018 5000 BR \n  BECMG 2018/2020 3000 BR \n  BECMG 2020/2022 1500 BR \n  TEMPO 2100/2106 0600 FZFG BKN001 \n  BECMG 2107/2109 3000 \n  BECMG 2109/2111 9999 NSW"
    },
    {
      "icao": "LRSB",
      "iata": "SBZ",
      "name": "Sibiu International Airport",
      "lat": 45.785841,
      "lon": 24.086666,
      "updatedAt": "201230Z",
      "visibility_m": 10000,
      "taf_visibility_m": 300,
      "worst_visibility_m": 300,
      "ceiling_ft": 100,
      "hazards": [
        "FZFG",
        "BR",
        "FG"
      ],
      "severityScore": 100,
      "metarRaw": "METAR LRSB 201230Z 26002KT CAVOK M02/M07 Q1031",
      "tafRaw": "TAF LRSB 201100Z 2012/2112 VRB04KT CAVOK \n  BECMG 2015/2017 3000 BR BKN005 \n  BECMG 2017/2019 1500 BR OVC002 \n  BECMG 2019/2021 0600 FZFG OVC001 \n  TEMPO 2101/2106 0300 FZFG \n  BECMG 2106/2108 1500 BR \n  BECMG 2108/2110 5000 \n  BECMG 2110/2112 9999 NSW"
    },
    {
      "icao": "LRSV",
      "iata": "SCV",
      "name": "Suceava Stefan cel Mare Airport",
      "lat": 47.6875,
      "lon": 26.35409927368164,
      "updatedAt": "201230Z",
      "visibility_m": 8000,
      "taf_visibility_m": 300,
      "worst_visibility_m": 300,
      "ceiling_ft": 100,
      "hazards": [
        "FZFG",
        "BR",
        "FG"
      ],
      "severityScore": 100,
      "metarRaw": "METAR LRSV 201230Z 14002KT 8000 NSC M01/M07 Q1029",
      "tafRaw": "TAF LRSV 201100Z 2012/2021 VRB04KT CAVOK \n  BECMG 2014/2016 3000 BR \n  BECMG 2016/2018 0800 FZFG VV002 \n  TEMPO 2018/2021 0300 FZFG VV001"
    },
    {
      "icao": "LRTR",
      "iata": "TSR",
      "name": "Timişoara Traian Vuia Airport",
      "lat": 45.809898,
      "lon": 21.3379,
      "updatedAt": "201230Z",
      "visibility_m": 10000,
      "taf_visibility_m": 800,
      "worst_visibility_m": 800,
      "ceiling_ft": 200,
      "hazards": [
        "FZFG",
        "BR",
        "FG"
      ],
      "severityScore": 100,
      "metarRaw": "METAR LRTR 201230Z COR 10004KT CAVOK 01/M04 Q1031",
      "tafRaw": "TAF LRTR 201100Z 2012/2112 10006KT CAVOK \n  BECMG 2020/2022 3000 BR BKN005 \n  PROB30 \n  TEMPO 2100/2106 0800 FZFG BKN002 \n  BECMG 2106/2108 5000 BKN015 \n  BECMG 2108/2110 CAVOK"
    },
    {
      "icao": "LUKK",
      "iata": "RMO",
      "name": "Chişinău International Airport",
      "lat": 46.9277,
      "lon": 28.931,
      "updatedAt": "201230Z",
      "visibility_m": 10000,
      "taf_visibility_m": 800,
      "worst_visibility_m": 800,
      "ceiling_ft": 300,
      "hazards": [
        "FZFG",
        "BR",
        "FG"
      ],
      "severityScore": 100,
      "metarRaw": "METAR LUKK 201230Z 10003KT CAVOK M06/M11 Q1033 NOSIG",
      "tafRaw": "TAF LUKK 201102Z 2012/2112 VRB05KT CAVOK \n  BECMG 2016/2018 3000 BR BKN008 \n  BECMG 2018/2020 1500 BR OVC003 \n  TEMPO 2023/2106 0800 FZFG VV/// \n  BECMG 2106/2108 18010KT CAVOK"
    },
    {
      "icao": "LZKZ",
      "iata": "KSC",
      "name": "Košice International Airport",
      "lat": 48.663101,
      "lon": 21.2411,
      "updatedAt": "201230Z",
      "visibility_m": 2500,
      "taf_visibility_m": 200,
      "worst_visibility_m": 200,
      "ceiling_ft": 100,
      "hazards": [
        "BR",
        "FZFG",
        "FG"
      ],
      "severityScore": 100,
      "metarRaw": "METAR LZKZ 201230Z 13002KT 3000 BR NSC M08/M09 Q1032 TEMPO 2500 BR",
      "tafRaw": "TAF LZKZ 201115Z 2012/2112 22004KT 6000 NSC \n  TEMPO 2012/2013 2500 BR FEW002 \n  BECMG 2018/2020 2500 BR FEW001 \n  PROB30 \n  TEMPO 2020/2108 0200 FZFG OVC001"
    },
    {
      "icao": "UAAA",
      "iata": "ALA",
      "name": "Almaty International Airport",
      "lat": 43.354267,
      "lon": 77.042828,
      "updatedAt": "201237Z",
      "visibility_m": 3200,
      "taf_visibility_m": 200,
      "worst_visibility_m": 200,
      "ceiling_ft": 20000,
      "hazards": [
        "BR",
        "FZFG",
        "FG"
      ],
      "severityScore": 100,
      "metarRaw": "SPECI UAAA 201237Z VRB01MPS 3200 BR SCT100 BKN200 M07/M10 Q1024 NOSIG",
      "tafRaw": "TAF UAAA 201101Z 2012/2112 16003MPS 1000 BR FU SCT020 BKN100 TXM05/2108Z TNM15/2102Z \n  TEMPO 2013/2101 06003MPS 0200 FZFG VV001 \n  TEMPO 2101/2106 34003MPS 0200 FZFG VV001 \n  FM210600 34003G08MPS 3100 BR FU SCT050 BKN100"
    },
    {
      "icao": "LICC",
      "iata": "CTA",
      "name": "Catania-Fontanarossa Airport",
      "lat": 37.466801,
      "lon": 15.0664,
      "updatedAt": "201220Z",
      "visibility_m": 3000,
      "taf_visibility_m": 4000,
      "worst_visibility_m": 3000,
      "ceiling_ft": 1500,
      "hazards": [
        "BR",
        "RA",
        "TSRA",
        "SHRA",
        "TS"
      ],
      "severityScore": 98,
      "metarRaw": "METAR LICC 201220Z 07031KT 3000 -RA BR BKN015 BKN040 12/10 Q1011",
      "tafRaw": "TAF LICC 201100Z 2012/2112 08030G50KT 4000 RA BKN015 \n  TEMPO 2018/2106 TSRA BKN008 \n  BECMG 2100/2102 06015G25KT \n  BECMG 2109/2111 7000 NSW SCT020 \n  TEMPO 2109/2112 4000 SHRA"
    },
    {
      "icao": "ESKN",
      "iata": "NYO",
      "name": "Stockholm Skavsta Airport",
      "lat": 58.789656,
      "lon": 16.911479,
      "updatedAt": "201220Z",
      "visibility_m": 10000,
      "taf_visibility_m": 4000,
      "worst_visibility_m": 4000,
      "ceiling_ft": 900,
      "hazards": [
        "SN",
        "FZDZ",
        "DZ"
      ],
      "severityScore": 81,
      "metarRaw": "METAR ESKN 201220Z 05004KT 020V080 9999 BKN009 00/M01 Q1023",
      "tafRaw": "TAF ESKN 201130Z 2012/2112 12006KT 8000 OVC010 \n  TEMPO 2012/2018 OVC008 \n  BECMG 2018/2020 03010KT \n  PROB40 2018/2024 -FZDZ BKN007 \n  PROB40 2100/2112 4000 -SN"
    },
    {
      "icao": "LPPT",
      "iata": "LIS",
      "name": "Lisbon Humberto Delgado Airport",
      "lat": 38.7813,
      "lon": -9.13592,
      "updatedAt": "201230Z",
      "visibility_m": 10000,
      "taf_visibility_m": 2000,
      "worst_visibility_m": 2000,
      "ceiling_ft": 400,
      "hazards": [
        "BR",
        "RA",
        "SHRA",
        "DZ"
      ],
      "severityScore": 81,
      "metarRaw": "METAR LPPT 201230Z 23008KT 210V270 9999 FEW022 SCT028 14/10 Q1019",
      "tafRaw": "TAF LPPT 201100Z 2012/2118 25010KT 9999 SCT035 \n  TEMPO 2018/2022 8000 -RA SCT012 BKN030 \n  BECMG 2022/2024 22012KT SCT008 BKN015 \n  TEMPO 2022/2112 22015G25KT 5000 RA BR SCT004 BKN008 \n  PROB30 \n  TEMPO 2106/2112 2000 RADZ BR SCT002 BKN004 \n  BECMG 2112/2114 30015KT SCT030 \n  TEMPO 2112/2118 8000 SHRA SCT008 BKN015 FEW030TCU"
    },
    {
      "icao": "EDNY",
      "iata": "FDH",
      "name": "Bodensee Airport Friedrichshafen",
      "lat": 47.671299,
      "lon": 9.51149,
      "updatedAt": "201220Z",
      "visibility_m": 10000,
      "taf_visibility_m": 1200,
      "worst_visibility_m": 1200,
      "ceiling_ft": 100,
      "hazards": [
        "BR",
        "FG"
      ],
      "severityScore": 75,
      "metarRaw": "METAR EDNY 201220Z COR 21003KT 160V260 9999 FEW006 01/M01 Q1019",
      "tafRaw": "TAF EDNY 201100Z 2012/2021 VRB03KT 2500 BR FEW002 BKN005 \n  PROB40 \n  TEMPO 2012/2016 6000 SCT003 \n  BECMG 2016/2019 BKN002 OVC005 \n  PROB40 \n  TEMPO 2018/2021 1200 BCFG BKN001"
    },
    {
      "icao": "ENAL",
      "iata": "AES",
      "name": "Ålesund Airport, Vigra",
      "lat": 62.5625,
      "lon": 6.1197,
      "updatedAt": "201220Z",
      "visibility_m": 10000,
      "taf_visibility_m": 200,
      "worst_visibility_m": 200,
      "ceiling_ft": 2000,
      "hazards": [
        "FG"
      ],
      "severityScore": 75,
      "metarRaw": "METAR ENAL 201220Z 17006KT 9999 SCT007 BKN020 05/04 Q1020",
      "tafRaw": "TAF ENAL 201100Z 2012/2021 16005KT 9999 BKN009 \n  BECMG 2013/2016 BKN020 \n  PROB30 2016/2021 0200 FG VV002"
    },
    {
      "icao": "ESSA",
      "iata": "ARN",
      "name": "Stockholm-Arlanda Airport",
      "lat": 59.64849,
      "lon": 17.928829,
      "updatedAt": "201220Z",
      "visibility_m": 10000,
      "taf_visibility_m": 4000,
      "worst_visibility_m": 4000,
      "ceiling_ft": 1100,
      "hazards": [
        "SN",
        "FZDZ",
        "DZ"
      ],
      "severityScore": 68,
      "metarRaw": "METAR ESSA 201220Z 07005KT 050V130 9999 OVC011 M02/M04 Q1024 NOSIG",
      "tafRaw": "TAF ESSA 201130Z 2012/2112 10005KT 9999 OVC010 \n  PROB40 2012/2018 BKN008 \n  BECMG 2015/2017 04010KT \n  BECMG 2020/2022 BKN015 \n  PROB40 2018/2024 -FZDZ BKN012 \n  PROB40 2100/2112 4000 -SN"
    },
    {
      "icao": "LPPR",
      "iata": "OPO",
      "name": "Francisco de Sá Carneiro Airport",
      "lat": 41.2481002808,
      "lon": -8.68138980865,
      "updatedAt": "201230Z",
      "visibility_m": 5000,
      "taf_visibility_m": 1500,
      "worst_visibility_m": 1500,
      "ceiling_ft": 1800,
      "hazards": [
        "BR",
        "RA",
        "SHRA",
        "DZ"
      ],
      "severityScore": 68,
      "metarRaw": "METAR LPPR 201230Z 18014KT 5000 -RA BR SCT014 BKN018 OVC030 10/09 Q1017",
      "tafRaw": "TAF LPPR 201100Z 2012/2112 19015KT 8000 -RA SCT008 BKN025 \n  TEMPO 2012/2109 3000 RADZ BR SCT002 BKN004 \n  PROB40 \n  TEMPO 2100/2109 20020G35KT 1500 RA BR BKN002 \n  BECMG 2109/2112 27015KT 9999 NSW SCT020 \n  TEMPO 2109/2112 8000 SHRA SCT008 BKN012 FEW025TCU"
    },
    {
      "icao": "LKPR",
      "iata": "PRG",
      "name": "Václav Havel Airport Prague",
      "lat": 50.100874,
      "lon": 14.259911,
      "updatedAt": "201230Z",
      "visibility_m": 10000,
      "taf_visibility_m": 2000,
      "worst_visibility_m": 2000,
      "ceiling_ft": 300,
      "hazards": [
        "BR",
        "FG"
      ],
      "severityScore": 65,
      "metarRaw": "METAR LKPR 201230Z 14007KT CAVOK M02/M07 Q1023 NOSIG",
      "tafRaw": "TAF LKPR 201100Z 2012/2118 13006KT CAVOK \n  TEMPO 2101/2108 4000 BR SCT004 \n  PROB30 \n  TEMPO 2102/2107 2000 BCFG BKN003 \n  BECMG 2115/2117 VRB02KT"
    },
    {
      "icao": "LGAV",
      "iata": "ATH",
      "name": "Athens Eleftherios Venizelos International Airport",
      "lat": 37.936401,
      "lon": 23.9445,
      "updatedAt": "201220Z",
      "visibility_m": 10000,
      "taf_visibility_m": 2000,
      "worst_visibility_m": 2000,
      "ceiling_ft": 4000,
      "hazards": [
        "TSRA",
        "RA",
        "TS"
      ],
      "severityScore": 62,
      "metarRaw": "METAR LGAV 201220Z 05017KT 9999 FEW025 BKN040 09/00 Q1027 NOSIG",
      "tafRaw": "TAF LGAV 201100Z 2012/2112 05018KT 9999 FEW018 BKN025 \n  PROB40 \n  TEMPO 2022/2106 5000 RA FEW010 FEW018TCU BKN025 BKN070 \n  PROB30 \n  TEMPO 2101/2106 4000 TSRA SCT008 FEW018CB BKN020 \n  BECMG 2108/2110 14018G28KT \n  PROB40 \n  TEMPO 2106/2112 3000 RA SCT010 FEW018TCU BKN020 OVC070 \n  PROB40 \n  TEMPO 2109/2112 2000 TSRA SCT008 SCT018CB BKN020 OVC050"
    },
    {
      "icao": "LICA",
      "iata": "SUF",
      "name": "Lamezia Terme Sant'Eufemia International Airport",
      "lat": 38.906214,
      "lon": 16.246007,
      "updatedAt": "201220Z",
      "visibility_m": 10000,
      "taf_visibility_m": 4000,
      "worst_visibility_m": 4000,
      "ceiling_ft": 3000,
      "hazards": [
        "RA",
        "TSRA",
        "TS"
      ],
      "severityScore": 62,
      "metarRaw": "METAR LICA 201220Z AUTO 07022G33KT 9999 -RA BKN041/// 10/06 Q1015",
      "tafRaw": "TAF LICA 201100Z 2012/2112 08025G48KT 8000 RA BKN030 \n  TEMPO 2108/2112 4000 TSRA \n  BECMG 2109/2111 08018G30KT"
    },
    {
      "icao": "LFBD",
      "iata": "BOD",
      "name": "Bordeaux–Mérignac Airport",
      "lat": 44.82865,
      "lon": -0.715356,
      "updatedAt": "201230Z",
      "visibility_m": 10000,
      "taf_visibility_m": 4000,
      "worst_visibility_m": 4000,
      "ceiling_ft": 300,
      "hazards": [
        "SHRA",
        "RA"
      ],
      "severityScore": 61,
      "metarRaw": "METAR LFBD 201230Z AUTO 13010KT 9999 BKN003 BKN110 08/08 Q1015 BECMG SCT015",
      "tafRaw": "TAF LFBD 201100Z 2012/2118 15008KT 8000 BKN005 TX14/2114Z TN07/2105Z \n  BECMG 2012/2014 SCT015 \n  PROB30 \n  TEMPO 2103/2108 BKN010 \n  TEMPO 2114/2118 18015G25KT 4000 SHRA BKN030TCU"
    },
    {
      "icao": "LIMF",
      "iata": "TRN",
      "name": "Turin Airport",
      "lat": 45.200802,
      "lon": 7.64963,
      "updatedAt": "201220Z",
      "visibility_m": 6000,
      "taf_visibility_m": 900,
      "worst_visibility_m": 900,
      "ceiling_ft": 6000,
      "hazards": [
        "FZFG",
        "FG"
      ],
      "severityScore": 60,
      "metarRaw": "METAR LIMF 201220Z VRB02KT 6000 OVC060 05/M01 Q1024",
      "tafRaw": "TAF LIMF 201100Z 2012/2112 VRB04KT 9999 BKN060 \n  TEMPO 2106/2111 0900 FZFG BKN002"
    },
    {
      "icao": "EGPD",
      "iata": "ABZ",
      "name": "Aberdeen International Airport",
      "lat": 57.2019,
      "lon": -2.19778,
      "updatedAt": "201220Z",
      "visibility_m": 6000,
      "taf_visibility_m": 3000,
      "worst_visibility_m": 3000,
      "ceiling_ft": 400,
      "hazards": [
        "BR",
        "RA"
      ],
      "severityScore": 57,
      "metarRaw": "METAR EGPD 201220Z AUTO 15012KT 6000 OVC004 08/07 Q1007 TEMPO BKN008",
      "tafRaw": "TAF EGPD 201056Z 2012/2112 14012KT 3000 BR BKN004 \n  BECMG 2012/2015 9999 NSW BKN012 \n  PROB30 \n  TEMPO 2012/2015 15015G25KT \n  BECMG 2015/2018 14018G30KT BKN016 \n  PROB30 \n  TEMPO 2018/2103 BKN012 \n  TEMPO 2103/2112 6000 -RA BKN012 \n  PROB40 \n  TEMPO 2103/2112 4000 RA BKN006 \n  PROB40 \n  TEMPO 2107/2110 14022G40KT"
    },
    {
      "icao": "EYVI",
      "iata": "VNO",
      "name": "Vilnius International Airport",
      "lat": 54.634102,
      "lon": 25.285801,
      "updatedAt": "201220Z",
      "visibility_m": 7000,
      "taf_visibility_m": 1500,
      "worst_visibility_m": 1500,
      "ceiling_ft": 200,
      "hazards": [
        "BR"
      ],
      "severityScore": 55,
      "metarRaw": "METAR EYVI 201220Z 18006KT 7000 NSC M11/M12 Q1027 NOSIG",
      "tafRaw": "TAF EYVI 201100Z 2012/2112 VRB04KT 5000 BR NSC \n  TEMPO 2020/2106 1500 BKN002"
    },
    {
      "icao": "LGTS",
      "iata": "SKG",
      "name": "Thessaloniki Macedonia International Airport",
      "lat": 40.51928,
      "lon": 22.970009,
      "updatedAt": "201220Z",
      "visibility_m": 10000,
      "taf_visibility_m": 3000,
      "worst_visibility_m": 3000,
      "ceiling_ft": 2000,
      "hazards": [
        "TS",
        "RA",
        "SN"
      ],
      "severityScore": 55,
      "metarRaw": "METAR LGTS 201220Z 28004KT 9999 FEW025 08/M03 Q1031 NOSIG",
      "tafRaw": "TAF LGTS 201100Z 2012/2112 11010KT 9999 SCT030 \n  BECMG 2017/2019 FEW010 BKN025 \n  PROB40 \n  TEMPO 2100/2112 5000 RA \n  PROB30 \n  TEMPO 2103/2106 3000 SNRA SCT008 BKN020 \n  BECMG 2110/2112 34013KT"
    },
    {
      "icao": "LFLS",
      "iata": "GNB",
      "name": "Grenoble Alpes Isère Airport",
      "lat": 45.3629,
      "lon": 5.32937,
      "updatedAt": "201230Z",
      "visibility_m": 3800,
      "taf_visibility_m": null,
      "worst_visibility_m": 3800,
      "ceiling_ft": 200,
      "hazards": [
        "BR"
      ],
      "severityScore": 50,
      "metarRaw": "METAR LFLS 201230Z AUTO 31003KT 280V350 3800 BR BKN002 03/03 Q1016 BECMG CAVOK",
      "tafRaw": null
    },
    {
      "icao": "EGGP",
      "iata": "LPL",
      "name": "Liverpool John Lennon Airport",
      "lat": 53.334863,
      "lon": -2.849637,
      "updatedAt": "201220Z",
      "visibility_m": 10000,
      "taf_visibility_m": 4000,
      "worst_visibility_m": 4000,
      "ceiling_ft": 600,
      "hazards": [
        "RA",
        "DZ"
      ],
      "severityScore": 47,
      "metarRaw": "METAR EGGP 201220Z 14019KT 9999 SCT027 08/03 Q1002",
      "tafRaw": "TAF EGGP 201102Z 2012/2112 14018G28KT 9999 BKN025 \n  PROB40 \n  TEMPO 2015/2019 15028G38KT \n  TEMPO 2017/2102 7000 RA \n  PROB30 \n  TEMPO 2017/2101 4000 +RA BKN010 \n  BECMG 2019/2022 15010KT \n  PROB30 \n  TEMPO 2101/2106 BKN006 \n  TEMPO 2106/2110 BKN008 \n  BECMG 2108/2111 11018G28KT \n  TEMPO 2110/2112 7000 RA -RADZ \n  PROB30 \n  TEMPO 2110/2112 4000 +RA BKN010"
    },
    {
      "icao": "EGGW",
      "iata": "LTN",
      "name": "London Luton Airport",
      "lat": 51.874699,
      "lon": -0.368333,
      "updatedAt": "201220Z",
      "visibility_m": 10000,
      "taf_visibility_m": 3000,
      "worst_visibility_m": 3000,
      "ceiling_ft": 2300,
      "hazards": [
        "BR",
        "RA",
        "SHRA",
        "DZ"
      ],
      "severityScore": 46,
      "metarRaw": "METAR EGGW 201220Z AUTO 16016G26KT 9999 BKN023 OVC027 09/05 Q1008",
      "tafRaw": "TAF EGGW 201106Z 2012/2112 15016G26KT 9999 SCT012 BKN022 \n  TEMPO 2020/2101 6000 RA BKN010 \n  PROB30 \n  TEMPO 2021/2101 4000 +RA RADZ BKN008 \n  BECMG 2023/2102 19012KT \n  TEMPO 2101/2106 5000 SHRA BKN008 \n  BECMG 2103/2106 13005KT \n  PROB30 2103/2107 3000 BR BKN004 \n  BECMG 2107/2110 14015G25KT BKN010 \n  TEMPO 2109/2112 4500 RADZ BKN003"
    },
    {
      "icao": "EKBI",
      "iata": "BLL",
      "name": "Billund Airport",
      "lat": 55.740335,
      "lon": 9.157019,
      "updatedAt": "201220Z",
      "visibility_m": 10000,
      "taf_visibility_m": 4000,
      "worst_visibility_m": 4000,
      "ceiling_ft": 400,
      "hazards": [
        "BR"
      ],
      "severityScore": 45,
      "metarRaw": "METAR EKBI 201220Z AUTO 10006KT 9999 NCD 02/M01 Q1020",
      "tafRaw": "TAF EKBI 201127Z 2012/2112 10004KT 6000 NSC \n  PROB40 2023/2112 4000 BR BKN004"
    },
    {
      "icao": "EYPA",
      "iata": "PLQ",
      "name": "Palanga International Airport",
      "lat": 55.973202,
      "lon": 21.093901,
      "updatedAt": "201250Z",
      "visibility_m": 5000,
      "taf_visibility_m": 3000,
      "worst_visibility_m": 3000,
      "ceiling_ft": 300,
      "hazards": [
        "BR"
      ],
      "severityScore": 45,
      "metarRaw": "METAR EYPA 201250Z 12006KT 5000 BR OVC003 M08/M11 Q1026",
      "tafRaw": "TAF EYPA 201103Z 2012/2112 VRB05KT 5000 BR BKN005 \n  TEMPO 2012/2018 3000 BKN002 \n  BECMG 2018/2020 SCT005 \n  TEMPO 2100/2109 BKN005"
    },
    {
      "icao": "LOWW",
      "iata": "VIE",
      "name": "Vienna International Airport",
      "lat": 48.110298,
      "lon": 16.5697,
      "updatedAt": "201220Z",
      "visibility_m": 10000,
      "taf_visibility_m": 4000,
      "worst_visibility_m": 4000,
      "ceiling_ft": 400,
      "hazards": [
        "BR"
      ],
      "severityScore": 45,
      "metarRaw": "METAR LOWW 201220Z 14019KT 9999 FEW010 M04/M07 Q1028 NOSIG",
      "tafRaw": "TAF LOWW 201115Z 2012/2118 13018KT 9999 FEW005 SCT008 TXM05/2114Z TNM07/2107Z \n  TEMPO 2012/2118 BKN008 \n  PROB30 \n  TEMPO 2018/2110 4000 BR BKN004"
    },
    {
      "icao": "LZIB",
      "iata": "BTS",
      "name": "M. R. Štefánik Airport",
      "lat": 48.1702,
      "lon": 17.2127,
      "updatedAt": "201230Z",
      "visibility_m": 10000,
      "taf_visibility_m": 2000,
      "worst_visibility_m": 2000,
      "ceiling_ft": 300,
      "hazards": [
        "BR"
      ],
      "severityScore": 45,
      "metarRaw": "METAR LZIB 201230Z 10011KT 9999 SCT015 M02/M06 Q1030 NOSIG",
      "tafRaw": "TAF LZIB 201115Z 2012/2112 11009KT 8000 SCT010 \n  TEMPO 2012/2014 BKN008 \n  BECMG 2018/2020 4000 BR BKN006 \n  PROB30 \n  TEMPO 2104/2109 2000 BR BKN003 \n  TEMPO 2109/2112 SCT006"
    },
    {
      "icao": "BIKF",
      "iata": "KEF",
      "name": "Keflavik International Airport",
      "lat": 63.985001,
      "lon": -22.6056,
      "updatedAt": "201230Z",
      "visibility_m": 10000,
      "taf_visibility_m": 3500,
      "worst_visibility_m": 3500,
      "ceiling_ft": 2500,
      "hazards": [
        "SHRA",
        "RA",
        "SN"
      ],
      "severityScore": 44,
      "metarRaw": "METAR BIKF 201230Z 11012KT 9999 -SHRA FEW012 BKN025 BKN046 04/02 Q1002",
      "tafRaw": "TAF BIKF 201022Z 2012/2112 14015KT 9999 -SHRA FEW015 BKN035 TX05/2012Z TN01/2022Z \n  PROB40 \n  TEMPO 2012/2016 3500 SHRASN BKN010CB \n  BECMG 2016/2018 07010KT"
    },
    {
      "icao": "UGKO",
      "iata": "KUT",
      "name": "David the Builder Kutaisi International Airport",
      "lat": 42.177448,
      "lon": 42.485353,
      "updatedAt": "201230Z",
      "visibility_m": 10000,
      "taf_visibility_m": 3000,
      "worst_visibility_m": 3000,
      "ceiling_ft": 4000,
      "hazards": [
        "SHRA",
        "SN",
        "RA"
      ],
      "severityScore": 44,
      "metarRaw": "METAR UGKO 201230Z 27006KT 9999 SCT025 OVC040 06/01 Q1022 NOSIG",
      "tafRaw": "TAF UGKO 201100Z 2012/2112 26007KT 9999 SCT020 BKN045 TX06/2012Z TN01/2106Z \n  TEMPO 2012/2020 26017KT 5000 SHRA BKN017CB OVC040 \n  TEMPO 2020/2104 26019KT 3000 SHSNRA SCT008 BKN020CB OVC030 \n  TEMPO 2108/2112 BKN080"
    },
    {
      "icao": "EGKK",
      "iata": "LGW",
      "name": "London Gatwick Airport",
      "lat": 51.148771,
      "lon": -0.192089,
      "updatedAt": "201220Z",
      "visibility_m": 10000,
      "taf_visibility_m": 4000,
      "worst_visibility_m": 4000,
      "ceiling_ft": 1800,
      "hazards": [
        "RA",
        "SHRA"
      ],
      "severityScore": 38,
      "metarRaw": "METAR EGKK 201220Z 16012KT 130V200 9999 BKN018 09/06 Q1009",
      "tafRaw": "TAF EGKK 201101Z 2012/2118 16009KT 9999 SCT020 \n  TEMPO 2016/2024 14018G28KT \n  TEMPO 2019/2024 6000 RA BKN012 \n  PROB40 \n  TEMPO 2020/2024 4000 +RA BKN008 \n  PROB30 \n  TEMPO 2100/2106 17015G25KT 5000 SHRA BKN012 \n  TEMPO 2107/2118 7000 RA BKN010 \n  BECMG 2108/2111 15015G26KT \n  PROB40 \n  TEMPO 2108/2118 4000 +RA BKN008"
    },
    {
      "icao": "LPMA",
      "iata": "FNC",
      "name": "Cristiano Ronaldo International Airport",
      "lat": 32.697812,
      "lon": -16.774613,
      "updatedAt": "201230Z",
      "visibility_m": 10000,
      "taf_visibility_m": 8000,
      "worst_visibility_m": 8000,
      "ceiling_ft": 1400,
      "hazards": [
        "SHRA",
        "RA"
      ],
      "severityScore": 38,
      "metarRaw": "METAR LPMA 201230Z 21006KT 9999 SCT015 17/08 Q1027",
      "tafRaw": "TAF LPMA 201100Z 2012/2112 34010KT 9999 SCT016 \n  BECMG 2012/2014 20007KT \n  BECMG 2020/2022 VRB05KT SCT016 SCT030 \n  TEMPO 2100/2112 8000 SHRA BKN014"
    },
    {
      "icao": "EGPF",
      "iata": "GLA",
      "name": "Glasgow Airport",
      "lat": 55.871899,
      "lon": -4.43306,
      "updatedAt": "201220Z",
      "visibility_m": 10000,
      "taf_visibility_m": 4000,
      "worst_visibility_m": 4000,
      "ceiling_ft": 800,
      "hazards": [
        "RA"
      ],
      "severityScore": 37,
      "metarRaw": "METAR EGPF 201220Z AUTO 08009KT 9999 SCT035 08/05 Q1003",
      "tafRaw": "TAF EGPF 201053Z 2012/2112 09010KT 9999 SCT025 \n  BECMG 2014/2017 10015G25KT \n  PROB30 \n  TEMPO 2021/2024 7000 -RA BKN012 \n  BECMG 2100/2103 10008KT \n  TEMPO 2100/2106 6000 -RA BKN012 \n  PROB30 \n  TEMPO 2100/2106 4000 RA BKN008"
    },
    {
      "icao": "ESGG",
      "iata": "GOT",
      "name": "Göteborg Landvetter Airport",
      "lat": 57.6628,
      "lon": 12.2798,
      "updatedAt": "201220Z",
      "visibility_m": 9000,
      "taf_visibility_m": 4000,
      "worst_visibility_m": 4000,
      "ceiling_ft": 600,
      "hazards": [
        "BR"
      ],
      "severityScore": 35,
      "metarRaw": "METAR ESGG 201220Z 06003KT 030V110 9000 BKN006 M01/M03 Q1022",
      "tafRaw": "TAF ESGG 200830Z 2009/2109 11007KT 6000 OVC004 \n  TEMPO 2009/2018 4000 BR OVC006 \n  TEMPO 2018/2109 BKN010"
    },
    {
      "icao": "EGNM",
      "iata": "LBA",
      "name": "Leeds Bradford Airport",
      "lat": 53.865898,
      "lon": -1.66057,
      "updatedAt": "201220Z",
      "visibility_m": 10000,
      "taf_visibility_m": 2000,
      "worst_visibility_m": 2000,
      "ceiling_ft": 3500,
      "hazards": [
        "BR",
        "RA",
        "DZ"
      ],
      "severityScore": 32,
      "metarRaw": "METAR EGNM 201220Z 13014KT 9999 SCT010 BKN035 07/06 Q1005",
      "tafRaw": "TAF EGNM 201102Z 2012/2112 13013KT 9999 BKN008 \n  BECMG 2012/2015 BKN015 \n  BECMG 2013/2016 14017G27KT \n  PROB40 \n  TEMPO 2015/2020 BKN012 \n  TEMPO 2020/2105 6000 RA -RADZ BKN012 \n  PROB40 \n  TEMPO 2022/2105 3000 +RA RADZ BKN007 \n  BECMG 2023/2103 15009KT \n  TEMPO 2105/2112 6000 -RADZ BKN008 \n  PROB30 \n  TEMPO 2105/2112 2000 BR BKN004"
    },
    {
      "icao": "GCTS",
      "iata": "TFS",
      "name": "Tenerife Sur Airport",
      "lat": 28.0445,
      "lon": -16.5725,
      "updatedAt": "201230Z",
      "visibility_m": 10000,
      "taf_visibility_m": null,
      "worst_visibility_m": 10000,
      "ceiling_ft": null,
      "hazards": [
        "TS"
      ],
      "severityScore": 30,
      "metarRaw": "METAR GCTS 201230Z 08021KT 050V110 9999 FEW040 20/08 Q1026 NOSIG",
      "tafRaw": null
    },
    {
      "icao": "LBPD",
      "iata": "PDV",
      "name": "Plovdiv International Airport",
      "lat": 42.067799,
      "lon": 24.8508,
      "updatedAt": "201230Z",
      "visibility_m": 10000,
      "taf_visibility_m": 5000,
      "worst_visibility_m": 5000,
      "ceiling_ft": 1300,
      "hazards": [
        "SN"
      ],
      "severityScore": 30,
      "metarRaw": "METAR LBPD 201230Z AUTO 10005KT 060V140 9999 NCD 02/M05 Q1033 NOSIG",
      "tafRaw": "TAF LBPD 201100Z 2012/2112 10008KT CAVOK \n  PROB30 \n  TEMPO 2106/2109 5000 SN BKN013"
    },
    {
      "icao": "LWOH",
      "iata": "OHD",
      "name": "Ohrid St. Paul the Apostle Airport",
      "lat": 41.18,
      "lon": 20.7423,
      "updatedAt": "201250Z",
      "visibility_m": 10000,
      "taf_visibility_m": 5000,
      "worst_visibility_m": 5000,
      "ceiling_ft": 1000,
      "hazards": [
        "SN"
      ],
      "severityScore": 30,
      "metarRaw": "METAR LWOH 201250Z 07007KT 010V110 9999 FEW033 04/M05 Q1025",
      "tafRaw": "TAF LWOH 201125Z 2012/2112 04012KT 9999 SCT035 \n  BECMG 2022/2024 BKN020 OVC040 \n  TEMPO 2102/2112 5000 SN BKN010 OVC030"
    },
    {
      "icao": "LWSK",
      "iata": "SKP",
      "name": "Skopje International Airport",
      "lat": 41.958087,
      "lon": 21.622581,
      "updatedAt": "201250Z",
      "visibility_m": 10000,
      "taf_visibility_m": 5000,
      "worst_visibility_m": 5000,
      "ceiling_ft": 1500,
      "hazards": [
        "SN"
      ],
      "severityScore": 30,
      "metarRaw": "METAR LWSK 201250Z 17005KT 110V220 CAVOK 05/M04 Q1030 NOSIG",
      "tafRaw": "TAF LWSK 201125Z 2012/2112 VRB02KT CAVOK \n  TEMPO 2012/2018 16012KT \n  BECMG 2101/2103 SCT040 OVC070 \n  TEMPO 2103/2109 5000 -SN BKN015 OVC040"
    },
    {
      "icao": "UBBB",
      "iata": "GYD",
      "name": "Heydar Aliyev International Airport",
      "lat": 40.467498779296875,
      "lon": 50.04669952392578,
      "updatedAt": "201230Z",
      "visibility_m": 8000,
      "taf_visibility_m": 3000,
      "worst_visibility_m": 3000,
      "ceiling_ft": 3000,
      "hazards": [
        "RA",
        "SN"
      ],
      "severityScore": 30,
      "metarRaw": "METAR UBBB 201230Z 34024KT 8000 -RA SCT012 OVC030 03/01 Q1021 NOSIG",
      "tafRaw": "TAF UBBB 201055Z 2012/2112 35020G30KT 8000 SCT010 OVC025 TX03/2012Z TN01/2101Z \n  TEMPO 2012/2018 02024G34KT 3000 -RASN BKN007 OVC020 \n  TEMPO 2018/2106 33024G34KT 3000 -SN BKN005 OVC017 \n  BECMG 2108/2110 33016KT 9999 BKN030"
    },
    {
      "icao": "LMML",
      "iata": "MLA",
      "name": "Malta International Airport",
      "lat": 35.857498,
      "lon": 14.4775,
      "updatedAt": "201245Z",
      "visibility_m": 5000,
      "taf_visibility_m": null,
      "worst_visibility_m": 5000,
      "ceiling_ft": 1800,
      "hazards": [
        "RA"
      ],
      "severityScore": 29,
      "metarRaw": "METAR LMML 201245Z 08027G42KT 5000 -RA DU SCT012 BKN018 13/12 Q1003 NOSIG",
      "tafRaw": null
    },
    {
      "icao": "LEAL",
      "iata": "ALC",
      "name": "Alicante-Elche Miguel Hernández Airport",
      "lat": 38.2822,
      "lon": -0.558156,
      "updatedAt": "201230Z",
      "visibility_m": 10000,
      "taf_visibility_m": 4000,
      "worst_visibility_m": 4000,
      "ceiling_ft": null,
      "hazards": [
        "RA",
        "SHRA"
      ],
      "severityScore": 26,
      "metarRaw": "METAR LEAL 201230Z 29011KT 250V320 9999 SCT051 16/05 Q1011 NOSIG",
      "tafRaw": "TAF LEAL 201100Z 2012/2112 30009KT 9999 FEW040 TX15/2013Z TN10/2106Z \n  TEMPO 2017/2103 4000 RA SHRA FEW020TCU \n  BECMG 2020/2022 34012KT \n  TEMPO 2020/2105 32015G25KT"
    },
    {
      "icao": "LEVC",
      "iata": "VLC",
      "name": "Valencia Airport",
      "lat": 39.4893,
      "lon": -0.481625,
      "updatedAt": "201230Z",
      "visibility_m": 10000,
      "taf_visibility_m": 4000,
      "worst_visibility_m": 4000,
      "ceiling_ft": 6000,
      "hazards": [
        "RA",
        "SHRA"
      ],
      "severityScore": 26,
      "metarRaw": "METAR LEVC 201230Z VRB02KT 9999 BKN060 15/03 Q1012 NOSIG",
      "tafRaw": "TAF LEVC 201100Z 2012/2112 30008KT 9999 SCT050 TX15/2013Z TN09/2106Z \n  TEMPO 2016/2101 4000 RA SHRA FEW020TCU"
    },
    {
      "icao": "LICJ",
      "iata": "PMO",
      "name": "Falcone–Borsellino Airport",
      "lat": 38.175999,
      "lon": 13.091,
      "updatedAt": "201220Z",
      "visibility_m": 10000,
      "taf_visibility_m": 4000,
      "worst_visibility_m": 4000,
      "ceiling_ft": 4000,
      "hazards": [
        "SHRA",
        "RA"
      ],
      "severityScore": 26,
      "metarRaw": "METAR LICJ 201220Z 08027KT 9999 BKN040 15/07 Q1006",
      "tafRaw": "TAF LICJ 201100Z 2012/2112 08030G58KT 9999 BKN040 \n  TEMPO 2012/2112 4000 SHRA \n  BECMG 2104/2106 07020G35KT \n  BECMG 2110/2112 06013KT"
    },
    {
      "icao": "EBCI",
      "iata": "CRL",
      "name": "Brussels South Charleroi Airport",
      "lat": 50.461963,
      "lon": 4.459562,
      "updatedAt": "201220Z",
      "visibility_m": 8000,
      "taf_visibility_m": 10000,
      "worst_visibility_m": 8000,
      "ceiling_ft": 500,
      "hazards": [],
      "severityScore": 25,
      "metarRaw": "METAR EBCI 201220Z 18008KT 8000 FEW005 04/01 Q1016 TEMPO BKN005",
      "tafRaw": "TAF EBCI 201110Z 2012/2118 15006KT CAVOK"
    },
    {
      "icao": "LFOB",
      "iata": "BVA",
      "name": "Beauvais Tillé airport",
      "lat": 49.454399,
      "lon": 2.11278,
      "updatedAt": "201230Z",
      "visibility_m": 10000,
      "taf_visibility_m": 4500,
      "worst_visibility_m": 4500,
      "ceiling_ft": 1000,
      "hazards": [
        "RA"
      ],
      "severityScore": 24,
      "metarRaw": "METAR LFOB 201230Z AUTO 13011KT 9999 OVC010 07/05 Q1014 NOSIG",
      "tafRaw": "TAF LFOB 201100Z 2012/2112 14010KT 9999 OVC010 \n  BECMG 2018/2021 16010G20KT OVC045 \n  PROB40 \n  TEMPO 2102/2106 4500 -RA BKN013 OVC045"
    },
    {
      "icao": "LPFR",
      "iata": "FAO",
      "name": "Faro - Gago Coutinho International Airport",
      "lat": 37.015909,
      "lon": -7.970939,
      "updatedAt": "201230Z",
      "visibility_m": 10000,
      "taf_visibility_m": 6000,
      "worst_visibility_m": 6000,
      "ceiling_ft": 1800,
      "hazards": [
        "RA"
      ],
      "severityScore": 24,
      "metarRaw": "METAR LPFR 201230Z 26010KT 9999 FEW030 14/09 Q1020",
      "tafRaw": "TAF LPFR 201100Z 2012/2112 25010KT 9999 FEW045 \n  BECMG 2018/2021 30010KT SCT040 \n  TEMPO 2018/2103 8000 -RA SCT012 BKN030 \n  BECMG 2103/2106 22012KT 6000 -RA SCT008 BKN018"
    },
    {
      "icao": "LPPS",
      "iata": "PXO",
      "name": "Porto Santo Airport",
      "lat": 33.0733985901,
      "lon": -16.3500003815,
      "updatedAt": "201230Z",
      "visibility_m": 10000,
      "taf_visibility_m": 6000,
      "worst_visibility_m": 6000,
      "ceiling_ft": 1200,
      "hazards": [
        "RA"
      ],
      "severityScore": 24,
      "metarRaw": "METAR LPPS 201230Z 29007KT 9999 FEW015 17/08 Q1027",
      "tafRaw": "TAF LPPS 201100Z 2012/2118 34010KT 9999 SCT015 SCT030 \n  PROB30 \n  TEMPO 2012/2118 6000 -RA BKN012 \n  BECMG 2102/2104 29013KT"
    },
    {
      "icao": "EPRA",
      "iata": "RDO",
      "name": "Warsaw Radom Airport",
      "lat": 51.38937,
      "lon": 21.214742,
      "updatedAt": "201230Z",
      "visibility_m": 10000,
      "taf_visibility_m": 5000,
      "worst_visibility_m": 5000,
      "ceiling_ft": null,
      "hazards": [
        "RA",
        "BR"
      ],
      "severityScore": 22,
      "metarRaw": "METAR EPRA 201230Z 15005KT CAVOK M03/M10 Q1028",
      "tafRaw": "TAF EPRA 201130Z 2012/2021 16006KT 8000 NSC \n  BECMG 2016/2018 5000 BR"
    },
    {
      "icao": "LIBR",
      "iata": "BDS",
      "name": "Brindisi Airport",
      "lat": 40.6576,
      "lon": 17.947001,
      "updatedAt": "201220Z",
      "visibility_m": 10000,
      "taf_visibility_m": 10000,
      "worst_visibility_m": 10000,
      "ceiling_ft": null,
      "hazards": [
        "BR",
        "RA"
      ],
      "severityScore": 22,
      "metarRaw": "METAR LIBR 201220Z 16006KT 9999 FEW038 11/00 Q1020",
      "tafRaw": "TAF LIBR 201100Z 2012/2112 10008KT 9999 SCT040 \n  BECMG 2100/2102 04012KT RA \n  TEMPO 2106/2112 05016G26KT"
    },
    {
      "icao": "LIPR",
      "iata": "RMI",
      "name": "Federico Fellini International Airport",
      "lat": 44.020024,
      "lon": 12.612198,
      "updatedAt": "201220Z",
      "visibility_m": 3500,
      "taf_visibility_m": 10000,
      "worst_visibility_m": 3500,
      "ceiling_ft": 2000,
      "hazards": [
        "BR",
        "RA"
      ],
      "severityScore": 22,
      "metarRaw": "METAR LIPR 201220Z 30012KT 3500 -RA BR FEW007 BKN020 04/03 Q1023",
      "tafRaw": "TAF LIPR 201100Z 2012/2112 30010KT 9999 BKN030"
    },
    {
      "icao": "EPLB",
      "iata": "LUZ",
      "name": "Lublin Airport",
      "lat": 51.240157,
      "lon": 22.713461,
      "updatedAt": "201230Z",
      "visibility_m": 10000,
      "taf_visibility_m": 1500,
      "worst_visibility_m": 1500,
      "ceiling_ft": null,
      "hazards": [
        "BR"
      ],
      "severityScore": 20,
      "metarRaw": "METAR EPLB 201230Z 20004KT CAVOK M02/M08 Q1029",
      "tafRaw": "TAF EPLB 201130Z 2012/2112 21008KT 8000 NSC \n  BECMG 2016/2019 4000 BR \n  TEMPO 2019/2109 1500 BR"
    },
    {
      "icao": "LIMC",
      "iata": "MXP",
      "name": "Milan Malpensa International Airport",
      "lat": 45.6306,
      "lon": 8.72811,
      "updatedAt": "201220Z",
      "visibility_m": 10000,
      "taf_visibility_m": 4000,
      "worst_visibility_m": 4000,
      "ceiling_ft": null,
      "hazards": [
        "FG"
      ],
      "severityScore": 20,
      "metarRaw": "METAR LIMC 201220Z 28004KT 9999 SCT080 06/M01 Q1025 NOSIG",
      "tafRaw": "TAF LIMC 201100Z 2012/2118 VRB04KT 9999 SCT050 \n  TEMPO 2104/2108 4000 BCFG"
    },
    {
      "icao": "LIPX",
      "iata": "VRN",
      "name": "Verona Villafranca Valerio Catullo Airport",
      "lat": 45.394955,
      "lon": 10.887303,
      "updatedAt": "201220Z",
      "visibility_m": 10000,
      "taf_visibility_m": 2000,
      "worst_visibility_m": 2000,
      "ceiling_ft": 7500,
      "hazards": [
        "FG"
      ],
      "severityScore": 20,
      "metarRaw": "METAR LIPX 201220Z 22005KT 9999 BKN075 05/M04 Q1025",
      "tafRaw": "TAF LIPX 201100Z 2012/2112 VRB04KT 9999 SCT070 \n  TEMPO 2100/2111 2000 BCFG"
    },
    {
      "icao": "LFPO",
      "iata": "ORY",
      "name": "Paris-Orly Airport",
      "lat": 48.72333,
      "lon": 2.37944,
      "updatedAt": "201130Z",
      "visibility_m": 10000,
      "taf_visibility_m": null,
      "worst_visibility_m": 10000,
      "ceiling_ft": 1300,
      "hazards": [],
      "severityScore": 17,
      "metarRaw": "METAR LFPO 201130Z 13007KT 100V160 9999 BKN013 07/05 Q1015 NOSIG",
      "tafRaw": null
    },
    {
      "icao": "GMMN",
      "iata": "CMN",
      "name": "Mohammed V International Airport",
      "lat": 33.3675,
      "lon": -7.58997,
      "updatedAt": "201230Z",
      "visibility_m": 10000,
      "taf_visibility_m": 4000,
      "worst_visibility_m": 4000,
      "ceiling_ft": 2000,
      "hazards": [
        "RA"
      ],
      "severityScore": 12,
      "metarRaw": "METAR GMMN 201230Z 21012KT 9999 BKN020 11/09 Q1023 NOSIG",
      "tafRaw": "TAF GMMN 201100Z 2012/2118 22010KT 9999 BKN020 \n  TEMPO 2012/2019 4000 RA SCT010 BKN016 \n  BECMG 2019/2022 18006KT \n  TEMPO 2111/2118 22012KT 4000 RA SCT010 BKN016"
    },
    {
      "icao": "EGBB",
      "iata": "BHX",
      "name": "Birmingham Airport",
      "lat": 52.453899,
      "lon": -1.74803,
      "updatedAt": "201220Z",
      "visibility_m": 10000,
      "taf_visibility_m": 3000,
      "worst_visibility_m": 3000,
      "ceiling_ft": 2300,
      "hazards": [
        "RA"
      ],
      "severityScore": 12,
      "metarRaw": "METAR EGBB 201220Z 15019KT 9999 BKN023 09/05 Q1005",
      "tafRaw": "TAF EGBB 201056Z 2012/2112 15018G28KT 9999 SCT020 \n  TEMPO 2016/2103 6000 RA BKN014 \n  PROB30 \n  TEMPO 2019/2024 3000 +RA BKN009 \n  BECMG 2022/2101 16010KT \n  PROB30 \n  TEMPO 2100/2108 BKN009 \n  BECMG 2108/2111 16018G28KT \n  TEMPO 2108/2112 6000 RA BKN010 \n  PROB30 \n  TEMPO 2108/2112 3000 +RA BKN008"
    },
    {
      "icao": "EKCH",
      "iata": "CPH",
      "name": "Copenhagen Kastrup Airport",
      "lat": 55.617900848389,
      "lon": 12.656000137329,
      "updatedAt": "201220Z",
      "visibility_m": 10000,
      "taf_visibility_m": 10000,
      "worst_visibility_m": 10000,
      "ceiling_ft": 1200,
      "hazards": [],
      "severityScore": 12,
      "metarRaw": "METAR EKCH 201220Z AUTO 14004KT 9999 NCD 02/M01 Q1022 NOSIG",
      "tafRaw": "TAF EKCH 201127Z 2012/2112 14008KT CAVOK \n  TEMPO 2106/2112 BKN012"
    },
    {
      "icao": "ENGM",
      "iata": "OSL",
      "name": "Oslo-Gardermoen International Airport",
      "lat": 60.193901,
      "lon": 11.1004,
      "updatedAt": "201220Z",
      "visibility_m": 10000,
      "taf_visibility_m": 10000,
      "worst_visibility_m": 10000,
      "ceiling_ft": 1300,
      "hazards": [],
      "severityScore": 12,
      "metarRaw": "METAR ENGM 201220Z 09004G16KT 040V120 9999 OVC013 M03/M06 Q1024 NOSIG",
      "tafRaw": "TAF ENGM 201100Z 2012/2112 03005KT 9999 BKN012 \n  TEMPO 2012/2112 BKN016"
    },
    {
      "icao": "ENTO",
      "iata": "TRF",
      "name": "Sandefjord Airport, Torp",
      "lat": 59.186699,
      "lon": 10.2586,
      "updatedAt": "201220Z",
      "visibility_m": 10000,
      "taf_visibility_m": 10000,
      "worst_visibility_m": 10000,
      "ceiling_ft": 1500,
      "hazards": [],
      "severityScore": 12,
      "metarRaw": "METAR ENTO 201220Z 04004KT 020V080 9999 BKN015 M02/M05 Q1024 NOSIG",
      "tafRaw": "TAF ENTO 201100Z 2012/2112 03005KT 9999 BKN012 \n  TEMPO 2012/2112 BKN016"
    },
    {
      "icao": "ESMS",
      "iata": "MMX",
      "name": "Malmö Sturup Airport",
      "lat": 55.535564,
      "lon": 13.376327,
      "updatedAt": "201220Z",
      "visibility_m": 10000,
      "taf_visibility_m": 10000,
      "worst_visibility_m": 10000,
      "ceiling_ft": 1200,
      "hazards": [],
      "severityScore": 12,
      "metarRaw": "METAR ESMS 201220Z 14005KT 100V160 CAVOK 01/M02 Q1021",
      "tafRaw": "TAF ESMS 201127Z 2012/2112 14005KT CAVOK \n  TEMPO 2104/2112 BKN012"
    },
    {
      "icao": "HESX",
      "iata": "SPX",
      "name": "Sphinx International Airport",
      "lat": 30.108179,
      "lon": 30.895728,
      "updatedAt": "201200Z",
      "visibility_m": 10000,
      "taf_visibility_m": 3000,
      "worst_visibility_m": 3000,
      "ceiling_ft": 10000,
      "hazards": [
        "RA"
      ],
      "severityScore": 12,
      "metarRaw": "METAR HESX 201200Z 06013KT CAVOK 17/06 Q1019 NOSIG",
      "tafRaw": "TAF HESX 201100Z 2012/2118 06014KT 8000 NSC \n  PROB40 \n  TEMPO 2015/2024 5000 -RA FEW030 BKN100 BKN200 \n  TEMPO 2102/2108 07004KT 3000 HZ"
    },
    {
      "icao": "LEBL",
      "iata": "BCN",
      "name": "Josep Tarradellas Barcelona-El Prat Airport",
      "lat": 41.2971,
      "lon": 2.07846,
      "updatedAt": "201230Z",
      "visibility_m": 6000,
      "taf_visibility_m": 3000,
      "worst_visibility_m": 3000,
      "ceiling_ft": 2500,
      "hazards": [
        "RA"
      ],
      "severityScore": 12,
      "metarRaw": "METAR LEBL 201230Z 34011KT 6000 RA FEW024 BKN025 09/08 Q1012 NOSIG",
      "tafRaw": "TAF LEBL 201100Z 2012/2112 01013KT 9999 SCT020 BKN030 TX13/2013Z TN08/2106Z \n  PROB40 \n  TEMPO 2012/2018 04018G30KT \n  TEMPO 2012/2016 3000 RA FEW020TCU BKN025 \n  BECMG 2020/2023 35008KT"
    },
    {
      "icao": "LIBD",
      "iata": "BRI",
      "name": "Bari Karol Wojtyła International Airport",
      "lat": 41.138901,
      "lon": 16.760599,
      "updatedAt": "201220Z",
      "visibility_m": 10000,
      "taf_visibility_m": 10000,
      "worst_visibility_m": 10000,
      "ceiling_ft": null,
      "hazards": [
        "RA"
      ],
      "severityScore": 12,
      "metarRaw": "METAR LIBD 201220Z 09008KT CAVOK 10/04 Q1020",
      "tafRaw": "TAF LIBD 201100Z 2012/2112 11010KT 9999 SCT040 \n  BECMG 2100/2102 RA"
    },
    {
      "icao": "LIPY",
      "iata": "AOI",
      "name": "Marche Airport",
      "lat": 43.616299,
      "lon": 13.3623,
      "updatedAt": "201220Z",
      "visibility_m": 10000,
      "taf_visibility_m": 10000,
      "worst_visibility_m": 10000,
      "ceiling_ft": 3000,
      "hazards": [
        "RA"
      ],
      "severityScore": 12,
      "metarRaw": "METAR LIPY 201220Z AUTO 04005KT 9999 SCT056/// 10/08 Q1022",
      "tafRaw": "TAF LIPY 201100Z 2012/2112 09010KT 9999 BKN030 \n  BECMG 2017/2019 VRB05KT \n  BECMG 2022/2024 32010KT \n  TEMPO 2023/2106 RA"
    },
    {
      "icao": "LIRF",
      "iata": "FCO",
      "name": "Rome–Fiumicino Leonardo da Vinci International Airport",
      "lat": 41.804532,
      "lon": 12.251998,
      "updatedAt": "201220Z",
      "visibility_m": 10000,
      "taf_visibility_m": 10000,
      "worst_visibility_m": 10000,
      "ceiling_ft": null,
      "hazards": [
        "RA"
      ],
      "severityScore": 12,
      "metarRaw": "METAR LIRF 201220Z 07004KT 050V110 CAVOK 15/02 Q1016 NOSIG",
      "tafRaw": "TAF LIRF 201100Z 2012/2118 VRB05KT 9999 SCT050 \n  BECMG 2020/2022 04010KT \n  TEMPO 2103/2114 RA \n  BECMG 2110/2112 VRB05KT"
    },
    {
      "icao": "LIRN",
      "iata": "NAP",
      "name": "Naples International Airport",
      "lat": 40.886002,
      "lon": 14.2908,
      "updatedAt": "201220Z",
      "visibility_m": 10000,
      "taf_visibility_m": 10000,
      "worst_visibility_m": 10000,
      "ceiling_ft": 7000,
      "hazards": [
        "RA"
      ],
      "severityScore": 12,
      "metarRaw": "METAR LIRN 201220Z 05013KT CAVOK 11/02 Q1016 NOSIG",
      "tafRaw": "TAF LIRN 201100Z 2012/2112 05015G26KT 9999 BKN070 \n  TEMPO 2019/2106 RA"
    },
    {
      "icao": "LJLJ",
      "iata": "LJU",
      "name": "Ljubljana Jože Pučnik Airport",
      "lat": 46.223701,
      "lon": 14.4576,
      "updatedAt": "201230Z",
      "visibility_m": 10000,
      "taf_visibility_m": 10000,
      "worst_visibility_m": 10000,
      "ceiling_ft": 1800,
      "hazards": [],
      "severityScore": 12,
      "metarRaw": "METAR LJLJ 201230Z 11003KT 070V160 9999 OVC018 M04/M08 Q1027 NOSIG",
      "tafRaw": "TAF LJLJ 201100Z 2012/2112 12003KT 9999 OVC018"
    },
    {
      "icao": "LTFM",
      "iata": "IST",
      "name": "İstanbul Airport",
      "lat": 41.261297,
      "lon": 28.741951,
      "updatedAt": "201220Z",
      "visibility_m": 10000,
      "taf_visibility_m": 10000,
      "worst_visibility_m": 10000,
      "ceiling_ft": 3000,
      "hazards": [
        "RA"
      ],
      "severityScore": 12,
      "metarRaw": "METAR LTFM 201220Z 02016KT 9999 SCT016 BKN030 04/01 Q1033 NOSIG RMK RWY17L 01015KT RWY34L 01015KT RWY16R 01014KT RWY36 01016KT RWY18 02015KT",
      "tafRaw": "TAF LTFM 201040Z 2012/2118 04014KT 9999 SCT016 BKN032 \n  TEMPO 2012/2016 -RA BKN014 BKN025 \n  BECMG 2019/2022 10008KT \n  BECMG 2022/2101 SCT035 \n  BECMG 2109/2112 CAVOK"
    },
    {
      "icao": "LYPG",
      "iata": "TGD",
      "name": "Podgorica Airport / Podgorica Golubovci Airbase",
      "lat": 42.359402,
      "lon": 19.2519,
      "updatedAt": "201230Z",
      "visibility_m": 10000,
      "taf_visibility_m": 5000,
      "worst_visibility_m": 5000,
      "ceiling_ft": null,
      "hazards": [
        "RA"
      ],
      "severityScore": 12,
      "metarRaw": "METAR LYPG 201230Z VRB02KT CAVOK 08/M06 Q1023 NOSIG",
      "tafRaw": "TAF LYPG 201100Z 2012/2112 16005KT CAVOK TX10/2013Z TN00/2023Z \n  PROB40 \n  TEMPO 2108/2112 5000 RA"
    },
    {
      "icao": "ENBR",
      "iata": "BGO",
      "name": "Bergen Airport, Flesland",
      "lat": 60.2934,
      "lon": 5.21814,
      "updatedAt": "201220Z",
      "visibility_m": 10000,
      "taf_visibility_m": 10000,
      "worst_visibility_m": 10000,
      "ceiling_ft": 3000,
      "hazards": [
        "BR"
      ],
      "severityScore": 10,
      "metarRaw": "METAR ENBR 201220Z VRB02KT 9999 FEW010 03/02 Q1020 NOSIG RMK WIND 1200FT 13009KT",
      "tafRaw": "TAF ENBR 201100Z 2012/2112 14005KT 9999 FEW015 BKN030"
    },
    {
      "icao": "EPKT",
      "iata": "KTW",
      "name": "Katowice Wojciech Korfanty International Airport",
      "lat": 50.476015,
      "lon": 19.080705,
      "updatedAt": "201230Z",
      "visibility_m": 10000,
      "taf_visibility_m": 2500,
      "worst_visibility_m": 2500,
      "ceiling_ft": null,
      "hazards": [
        "BR"
      ],
      "severityScore": 10,
      "metarRaw": "METAR EPKT 201230Z 14007KT CAVOK 02/M07 Q1026",
      "tafRaw": "TAF EPKT 201130Z 2012/2112 18007KT CAVOK \n  TEMPO 2018/2107 2500 BR"
    },
    {
      "icao": "EPRZ",
      "iata": "RZE",
      "name": "Rzeszów-Jasionka Airport",
      "lat": 50.109791,
      "lon": 22.024155,
      "updatedAt": "201230Z",
      "visibility_m": 5000,
      "taf_visibility_m": 3000,
      "worst_visibility_m": 3000,
      "ceiling_ft": null,
      "hazards": [
        "BR"
      ],
      "severityScore": 10,
      "metarRaw": "METAR EPRZ 201230Z 08005KT 5000 HZ NSC M03/M09 Q1029",
      "tafRaw": "TAF EPRZ 201130Z 2012/2112 09004KT 4500 BR NSC \n  BECMG 2012/2014 7000 \n  TEMPO 2016/2107 3000 BR"
    },
    {
      "icao": "EPSY",
      "iata": "SZY",
      "name": "Olsztyn-Mazury Airport",
      "lat": 53.481899,
      "lon": 20.9377,
      "updatedAt": "201230Z",
      "visibility_m": 4900,
      "taf_visibility_m": 2000,
      "worst_visibility_m": 2000,
      "ceiling_ft": null,
      "hazards": [
        "BR"
      ],
      "severityScore": 10,
      "metarRaw": "METAR EPSY 201230Z 17007KT 4900 BR NSC M04/M09 Q1027",
      "tafRaw": "TAF EPSY 201130Z 2012/2021 18005KT 8000 NSC \n  TEMPO 2012/2021 4000 BR \n  PROB40 \n  TEMPO 2012/2021 2000 BR"
    },
    {
      "icao": "EPWA",
      "iata": "WAW",
      "name": "Warsaw Chopin Airport",
      "lat": 52.165699,
      "lon": 20.9671,
      "updatedAt": "201230Z",
      "visibility_m": 7000,
      "taf_visibility_m": 1800,
      "worst_visibility_m": 1800,
      "ceiling_ft": null,
      "hazards": [
        "BR"
      ],
      "severityScore": 10,
      "metarRaw": "METAR EPWA 201230Z 14006KT 7000 NSC M03/M08 Q1028 NOSIG",
      "tafRaw": "TAF EPWA 201130Z 2012/2112 13008KT 7000 NSC \n  BECMG 2020/2023 4000 BR \n  PROB40 2021/2106 1800 BR \n  BECMG 2107/2109 7000"
    },
    {
      "icao": "EYKA",
      "iata": "KUN",
      "name": "Kaunas International Airport",
      "lat": 54.963965,
      "lon": 24.08582,
      "updatedAt": "201250Z",
      "visibility_m": 6000,
      "taf_visibility_m": 3000,
      "worst_visibility_m": 3000,
      "ceiling_ft": null,
      "hazards": [
        "BR"
      ],
      "severityScore": 10,
      "metarRaw": "METAR EYKA 201250Z VRB02KT 6000 NSC M06/M11 Q1027",
      "tafRaw": "TAF EYKA 201100Z 2012/2112 VRB04KT 5000 BR NSC \n  TEMPO 2021/2106 3000 SCT002"
    },
    {
      "icao": "LHDC",
      "iata": "DEB",
      "name": "Debrecen International Airport",
      "lat": 47.488899,
      "lon": 21.615299,
      "updatedAt": "201215Z",
      "visibility_m": 5000,
      "taf_visibility_m": 2500,
      "worst_visibility_m": 2500,
      "ceiling_ft": null,
      "hazards": [
        "BR"
      ],
      "severityScore": 10,
      "metarRaw": "METAR LHDC 201215Z AUTO 05004KT 020V100 5000 BR NCD M04/M05 Q1033 BECMG 6000 NSW",
      "tafRaw": "TAF LHDC 201115Z 2012/2021 04004KT 3500 BR SCT004 \n  BECMG 2012/2015 7000 NSW NSC \n  TEMPO 2015/2021 2500 BR"
    },
    {
      "icao": "LRIA",
      "iata": "IAS",
      "name": "Iaşi Airport",
      "lat": 47.180278,
      "lon": 27.620833,
      "updatedAt": "201230Z",
      "visibility_m": 8000,
      "taf_visibility_m": 3000,
      "worst_visibility_m": 3000,
      "ceiling_ft": null,
      "hazards": [
        "BR"
      ],
      "severityScore": 10,
      "metarRaw": "METAR LRIA 201230Z 08004KT 020V120 8000 NSC M05/M10 Q1033",
      "tafRaw": "TAF LRIA 201100Z 2012/2021 VRB04KT 5000 BR NSC \n  TEMPO 2012/2015 9999 NSW \n  BECMG 2016/2018 5000 BR \n  TEMPO 2018/2021 3000 BR"
    },
    {
      "icao": "LRCL",
      "iata": "CLJ",
      "name": "Cluj Avram Iancu International Airport",
      "lat": 46.787425,
      "lon": 23.684292,
      "updatedAt": "201230Z",
      "visibility_m": 10000,
      "taf_visibility_m": 5000,
      "worst_visibility_m": 5000,
      "ceiling_ft": null,
      "hazards": [
        "BR"
      ],
      "severityScore": 10,
      "metarRaw": "METAR LRCL 201230Z 09001KT CAVOK M06/M11 Q1032",
      "tafRaw": "TAF LRCL 201100Z 2012/2021 VRB04KT CAVOK \n  BECMG 2017/2019 5000 BR"
    },
    {
      "icao": "LRSM",
      "iata": "SUJ",
      "name": "Satu Mare International Airport",
      "lat": 47.7033,
      "lon": 22.8857,
      "updatedAt": "201230Z",
      "visibility_m": 4000,
      "taf_visibility_m": 3000,
      "worst_visibility_m": 3000,
      "ceiling_ft": null,
      "hazards": [
        "BR"
      ],
      "severityScore": 10,
      "metarRaw": "METAR LRSM 201230Z 06002KT 4000 BR NSC M07/M09 Q1033",
      "tafRaw": "TAF LRSM 201100Z 2012/2021 VRB04KT 3000 BR NSC \n  TEMPO 2012/2015 7000 NSW"
    },
    {
      "icao": "LRTM",
      "iata": "TGM",
      "name": "Târgu Mureş Transilvania International Airport",
      "lat": 46.467701,
      "lon": 24.4125,
      "updatedAt": "201230Z",
      "visibility_m": 4000,
      "taf_visibility_m": 3000,
      "worst_visibility_m": 3000,
      "ceiling_ft": null,
      "hazards": [
        "BR"
      ],
      "severityScore": 10,
      "metarRaw": "METAR LRTM 201230Z 23003KT 4000 BR NSC M07/M11 Q1033",
      "tafRaw": "TAF LRTM 201100Z 2012/2021 VRB04KT 3000 BR NSC \n  TEMPO 2012/2016 7000 NSW"
    },
    {
      "icao": "LTAC",
      "iata": "ESB",
      "name": "Esenboğa International Airport",
      "lat": 40.128101,
      "lon": 32.995098,
      "updatedAt": "201220Z",
      "visibility_m": 10000,
      "taf_visibility_m": 4000,
      "worst_visibility_m": 4000,
      "ceiling_ft": null,
      "hazards": [
        "BR"
      ],
      "severityScore": 10,
      "metarRaw": "METAR LTAC 201220Z VRB03KT 9999 FEW040 03/M10 Q1026 NOSIG RMK RWY21C VRB04KT RWY03L VRB04KT RWY21R VRB03KT RWY03R 16003KT 100V220 RWY21L VRB02KT",
      "tafRaw": "TAF LTAC 201040Z 2012/2112 VRB02KT 9999 FEW040 \n  BECMG 2014/2016 CAVOK \n  PROB30 2104/2108 4000 BR \n  BECMG 2107/2110 SCT040 SCT100"
    },
    {
      "icao": "UDSG",
      "iata": "LWN",
      "name": "Shirak International Airport",
      "lat": 40.750401,
      "lon": 43.859299,
      "updatedAt": "201230Z",
      "visibility_m": 10000,
      "taf_visibility_m": 5000,
      "worst_visibility_m": 5000,
      "ceiling_ft": 3000,
      "hazards": [
        "BR"
      ],
      "severityScore": 10,
      "metarRaw": "METAR UDSG 201230Z 04006KT 9999 SCT040 M03/M09 Q1015 NOSIG",
      "tafRaw": "TAF UDSG 201058Z 2012/2112 36006KT 9999 BKN040 \n  TEMPO 2012/2015 05016KT \n  TEMPO 2015/2023 05006KT 5000 BR OVC030"
    },
    {
      "icao": "UDYZ",
      "iata": "EVN",
      "name": "Zvartnots International Airport",
      "lat": 40.148941,
      "lon": 44.397887,
      "updatedAt": "201230Z",
      "visibility_m": 10000,
      "taf_visibility_m": 3500,
      "worst_visibility_m": 3500,
      "ceiling_ft": null,
      "hazards": [
        "BR"
      ],
      "severityScore": 10,
      "metarRaw": "METAR UDYZ 201230Z VRB01KT 9999 SCT046 02/M06 Q1016 NOSIG",
      "tafRaw": "TAF UDYZ 201100Z 2012/2112 VRB06KT 6000 SCT040 \n  TEMPO 2015/2106 3500 BR"
    },
    {
      "icao": "ENZV",
      "iata": "SVG",
      "name": "Stavanger Airport, Sola",
      "lat": 58.876701,
      "lon": 5.63778,
      "updatedAt": "201220Z",
      "visibility_m": 10000,
      "taf_visibility_m": null,
      "worst_visibility_m": 10000,
      "ceiling_ft": null,
      "hazards": [],
      "severityScore": 5,
      "metarRaw": "METAR ENZV 201220Z 08003KT CAVOK 00/M03 Q1020 NOSIG",
      "tafRaw": null
    },
    {
      "icao": "LECH",
      "iata": "CDT",
      "name": "Castellón-Costa Azahar Airport",
      "lat": 40.213889,
      "lon": 0.073333,
      "updatedAt": "201230Z",
      "visibility_m": 10000,
      "taf_visibility_m": null,
      "worst_visibility_m": 10000,
      "ceiling_ft": 6000,
      "hazards": [],
      "severityScore": 5,
      "metarRaw": "METAR LECH 201230Z AUTO 35014KT 310V030 9999 SCT050 BKN060 11/03 Q1012",
      "tafRaw": null
    },
    {
      "icao": "BKPR",
      "iata": "PRN",
      "name": "Priština Adem Jashari International Airport",
      "lat": 42.5728,
      "lon": 21.035801,
      "updatedAt": "201230Z",
      "visibility_m": 10000,
      "taf_visibility_m": 10000,
      "worst_visibility_m": 10000,
      "ceiling_ft": null,
      "hazards": [],
      "severityScore": 0,
      "metarRaw": "METAR BKPR 201230Z 10014KT CAVOK 03/M04 Q1027 NOSIG",
      "tafRaw": "TAF BKPR 201130Z 2012/2112 13010KT CAVOK"
    },
    {
      "icao": "GCFV",
      "iata": "FUE",
      "name": "Fuerteventura Airport",
      "lat": 28.4527,
      "lon": -13.8638,
      "updatedAt": "201230Z",
      "visibility_m": 10000,
      "taf_visibility_m": 10000,
      "worst_visibility_m": 10000,
      "ceiling_ft": null,
      "hazards": [],
      "severityScore": 0,
      "metarRaw": "METAR GCFV 201230Z 02016KT 9999 FEW030 SCT040 20/10 Q1025",
      "tafRaw": "TAF GCFV 200800Z 2009/2109 03015KT 9999 FEW030 TX21/2014Z TN14/2106Z \n  TEMPO 2009/2010 33009KT \n  BECMG 2021/2023 33009KT"
    },
    {
      "icao": "GCLP",
      "iata": "LPA",
      "name": "Gran Canaria Airport",
      "lat": 27.9319,
      "lon": -15.3866,
      "updatedAt": "201230Z",
      "visibility_m": 10000,
      "taf_visibility_m": 10000,
      "worst_visibility_m": 10000,
      "ceiling_ft": 4900,
      "hazards": [],
      "severityScore": 0,
      "metarRaw": "METAR GCLP 201230Z 01018KT 9999 SCT038 BKN049 19/10 Q1026 NOSIG",
      "tafRaw": "TAF GCLP 200800Z 2009/2109 02015KT 9999 SCT035 TX20/2014Z TN16/2106Z \n  PROB30 \n  TEMPO 2009/2015 02015G25KT \n  BECMG 2023/2101 36005KT"
    },
    {
      "icao": "GMAD",
      "iata": "AGA",
      "name": "Al Massira Airport",
      "lat": 30.322478,
      "lon": -9.412003,
      "updatedAt": "201230Z",
      "visibility_m": 10000,
      "taf_visibility_m": 10000,
      "worst_visibility_m": 10000,
      "ceiling_ft": null,
      "hazards": [],
      "severityScore": 0,
      "metarRaw": "METAR GMAD 201230Z 16004KT 120V210 CAVOK 16/08 Q1021 NOSIG",
      "tafRaw": "TAF GMAD 201100Z 2012/2118 28010KT CAVOK"
    },
    {
      "icao": "GMMX",
      "iata": "RAK",
      "name": "Marrakesh Menara Airport",
      "lat": 31.604807,
      "lon": -8.035788,
      "updatedAt": "201230Z",
      "visibility_m": 8000,
      "taf_visibility_m": 10000,
      "worst_visibility_m": 8000,
      "ceiling_ft": null,
      "hazards": [],
      "severityScore": 0,
      "metarRaw": "METAR GMMX 201230Z 13005KT 090V170 8000 NSC 13/04 Q1023 NOSIG",
      "tafRaw": "TAF GMMX 201100Z 2012/2118 04006KT CAVOK"
    },
    {
      "icao": "EDDB",
      "iata": "BER",
      "name": "Berlin Brandenburg Willy Brandt Airport",
      "lat": 52.361738,
      "lon": 13.502341,
      "updatedAt": "201220Z",
      "visibility_m": 10000,
      "taf_visibility_m": 10000,
      "worst_visibility_m": 10000,
      "ceiling_ft": null,
      "hazards": [],
      "severityScore": 0,
      "metarRaw": "METAR EDDB 201220Z AUTO 15009KT 130V190 CAVOK 01/M06 Q1021 NOSIG",
      "tafRaw": "TAF EDDB 201100Z 2012/2112 14007KT CAVOK"
    },
    {
      "icao": "EDDH",
      "iata": "HAM",
      "name": "Hamburg Helmut Schmidt Airport",
      "lat": 53.630402,
      "lon": 9.98823,
      "updatedAt": "201220Z",
      "visibility_m": 10000,
      "taf_visibility_m": 10000,
      "worst_visibility_m": 10000,
      "ceiling_ft": null,
      "hazards": [],
      "severityScore": 0,
      "metarRaw": "METAR EDDH 201220Z AUTO 10003KT 070V150 CAVOK 04/M03 Q1019 NOSIG",
      "tafRaw": "TAF EDDH 201100Z 2012/2118 12006KT CAVOK"
    },
    {
      "icao": "EDDK",
      "iata": "CGN",
      "name": "Cologne Bonn Airport",
      "lat": 50.865898,
      "lon": 7.14274,
      "updatedAt": "201220Z",
      "visibility_m": 10000,
      "taf_visibility_m": 10000,
      "worst_visibility_m": 10000,
      "ceiling_ft": null,
      "hazards": [],
      "severityScore": 0,
      "metarRaw": "METAR EDDK 201220Z AUTO 13011KT 100V160 CAVOK 05/M02 Q1017 NOSIG",
      "tafRaw": "TAF EDDK 201100Z 2012/2118 13008KT CAVOK"
    },
    {
      "icao": "EDDN",
      "iata": "NUE",
      "name": "Nuremberg Airport",
      "lat": 49.498699,
      "lon": 11.078056,
      "updatedAt": "201220Z",
      "visibility_m": 10000,
      "taf_visibility_m": 10000,
      "worst_visibility_m": 10000,
      "ceiling_ft": null,
      "hazards": [],
      "severityScore": 0,
      "metarRaw": "METAR EDDN 201220Z AUTO 11008KT CAVOK 04/M08 Q1019 NOSIG",
      "tafRaw": "TAF EDDN 201100Z 2012/2112 11007KT CAVOK"
    },
    {
      "icao": "EDJA",
      "iata": "FMM",
      "name": "Memmingen Allgau Airport",
      "lat": 47.988092,
      "lon": 10.238248,
      "updatedAt": "201220Z",
      "visibility_m": 10000,
      "taf_visibility_m": 10000,
      "worst_visibility_m": 10000,
      "ceiling_ft": null,
      "hazards": [],
      "severityScore": 0,
      "metarRaw": "METAR EDJA 201220Z VRB01KT CAVOK 06/M01 Q1017",
      "tafRaw": "TAF EDJA 201100Z 2012/2021 04003KT CAVOK"
    },
    {
      "icao": "EDLW",
      "iata": "DTM",
      "name": "Dortmund Airport",
      "lat": 51.518299,
      "lon": 7.61224,
      "updatedAt": "201220Z",
      "visibility_m": 10000,
      "taf_visibility_m": 10000,
      "worst_visibility_m": 10000,
      "ceiling_ft": null,
      "hazards": [],
      "severityScore": 0,
      "metarRaw": "METAR EDLW 201220Z 01004KT CAVOK 06/M01 Q1016",
      "tafRaw": "TAF EDLW 201100Z 2012/2112 14005KT CAVOK"
    },
    {
      "icao": "EHBK",
      "iata": "MST",
      "name": "Maastricht Aachen Airport",
      "lat": 50.911701,
      "lon": 5.77014,
      "updatedAt": "201225Z",
      "visibility_m": 10000,
      "taf_visibility_m": 10000,
      "worst_visibility_m": 10000,
      "ceiling_ft": null,
      "hazards": [],
      "severityScore": 0,
      "metarRaw": "METAR EHBK 201225Z AUTO 20009KT 9999 NSC 05/00 Q1016 NOSIG",
      "tafRaw": "TAF EHBK 201106Z 2012/2118 18005KT CAVOK"
    },
    {
      "icao": "ENHD",
      "iata": "HAU",
      "name": "Haugesund Airport, Karmøy",
      "lat": 59.345299,
      "lon": 5.20836,
      "updatedAt": "201220Z",
      "visibility_m": 10000,
      "taf_visibility_m": 10000,
      "worst_visibility_m": 10000,
      "ceiling_ft": null,
      "hazards": [],
      "severityScore": 0,
      "metarRaw": "METAR ENHD 201220Z 10008KT CAVOK 02/M02 Q1020",
      "tafRaw": "TAF ENHD 201100Z 2012/2021 12005KT 9999 SCT040"
    },
    {
      "icao": "ENVA",
      "iata": "TRD",
      "name": "Trondheim Airport, Værnes",
      "lat": 63.457802,
      "lon": 10.924,
      "updatedAt": "201220Z",
      "visibility_m": 10000,
      "taf_visibility_m": 10000,
      "worst_visibility_m": 10000,
      "ceiling_ft": null,
      "hazards": [],
      "severityScore": 0,
      "metarRaw": "METAR ENVA 201220Z 13006KT CAVOK 01/M04 Q1023 NOSIG RMK WIND 670FT 09008KT",
      "tafRaw": "TAF ENVA 201100Z 2012/2112 12008KT CAVOK \n  PROB40 \n  TEMPO 2021/2112 16018G28KT"
    },
    {
      "icao": "EPPO",
      "iata": "POZ",
      "name": "Poznań-Ławica Airport",
      "lat": 52.421598,
      "lon": 16.823359,
      "updatedAt": "201230Z",
      "visibility_m": 10000,
      "taf_visibility_m": 10000,
      "worst_visibility_m": 10000,
      "ceiling_ft": null,
      "hazards": [],
      "severityScore": 0,
      "metarRaw": "METAR EPPO 201230Z 16010KT CAVOK 03/M08 Q1024",
      "tafRaw": "TAF EPPO 201130Z 2012/2112 16010KT CAVOK"
    },
    {
      "icao": "EPSC",
      "iata": "SZZ",
      "name": "Solidarity Szczecin–Goleniów Airport",
      "lat": 53.584702,
      "lon": 14.9022,
      "updatedAt": "201230Z",
      "visibility_m": 10000,
      "taf_visibility_m": 10000,
      "worst_visibility_m": 10000,
      "ceiling_ft": null,
      "hazards": [],
      "severityScore": 0,
      "metarRaw": "METAR EPSC 201230Z 14010KT CAVOK 01/M07 Q1022",
      "tafRaw": "TAF EPSC 201130Z 2012/2112 15007KT CAVOK"
    },
    {
      "icao": "EPWR",
      "iata": "WRO",
      "name": "Copernicus Wrocław Airport",
      "lat": 51.103719,
      "lon": 16.882096,
      "updatedAt": "201230Z",
      "visibility_m": 10000,
      "taf_visibility_m": 10000,
      "worst_visibility_m": 10000,
      "ceiling_ft": null,
      "hazards": [],
      "severityScore": 0,
      "metarRaw": "METAR EPWR 201230Z 14011KT CAVOK 03/M06 Q1024",
      "tafRaw": "TAF EPWR 201130Z 2012/2112 12014KT CAVOK \n  TEMPO 2012/2103 16015G25KT \n  BECMG 2103/2106 12004KT"
    },
    {
      "icao": "HEGN",
      "iata": "HRG",
      "name": "Hurghada International Airport",
      "lat": 27.176776,
      "lon": 33.796692,
      "updatedAt": "201200Z",
      "visibility_m": 10000,
      "taf_visibility_m": 10000,
      "worst_visibility_m": 10000,
      "ceiling_ft": null,
      "hazards": [],
      "severityScore": 0,
      "metarRaw": "METAR HEGN 201200Z 36010KT CAVOK 21/06 Q1018 NOSIG",
      "tafRaw": "TAF HEGN 201100Z 2012/2118 35014KT CAVOK"
    },
    {
      "icao": "HEMA",
      "iata": "RMF",
      "name": "Marsa Alam International Airport",
      "lat": 25.555548,
      "lon": 34.59245,
      "updatedAt": "201200Z",
      "visibility_m": 10000,
      "taf_visibility_m": 10000,
      "worst_visibility_m": 10000,
      "ceiling_ft": null,
      "hazards": [],
      "severityScore": 0,
      "metarRaw": "METAR HEMA 201200Z 35015KT 9999 SCT020 22/12 Q1017 NOSIG",
      "tafRaw": "TAF HEMA 201100Z 2012/2118 36015KT CAVOK"
    },
    {
      "icao": "HESH",
      "iata": "SSH",
      "name": "Sharm El Sheikh International Airport",
      "lat": 27.977272,
      "lon": 34.394717,
      "updatedAt": "201200Z",
      "visibility_m": 10000,
      "taf_visibility_m": 10000,
      "worst_visibility_m": 10000,
      "ceiling_ft": null,
      "hazards": [],
      "severityScore": 0,
      "metarRaw": "METAR HESH 201200Z 36008KT CAVOK 22/07 Q1017 NOSIG",
      "tafRaw": "TAF HESH 201100Z 2012/2118 01012KT CAVOK"
    },
    {
      "icao": "LATI",
      "iata": "TIA",
      "name": "Tirana International Airport Mother Teresa",
      "lat": 41.4147,
      "lon": 19.7206,
      "updatedAt": "201250Z",
      "visibility_m": 10000,
      "taf_visibility_m": 10000,
      "worst_visibility_m": 10000,
      "ceiling_ft": null,
      "hazards": [],
      "severityScore": 0,
      "metarRaw": "METAR LATI 201250Z 36005KT CAVOK 12/M08 Q1021 NOSIG",
      "tafRaw": "TAF LATI 201100Z 2012/2112 VRB05KT CAVOK TX13/2012Z TN01/2105Z"
    },
    {
      "icao": "LBSF",
      "iata": "SOF",
      "name": "Sofia Airport",
      "lat": 42.696357,
      "lon": 23.417671,
      "updatedAt": "201230Z",
      "visibility_m": 10000,
      "taf_visibility_m": 10000,
      "worst_visibility_m": 10000,
      "ceiling_ft": null,
      "hazards": [],
      "severityScore": 0,
      "metarRaw": "METAR LBSF 201230Z 12011KT 090V150 CAVOK 03/M09 Q1030 NOSIG",
      "tafRaw": "TAF LBSF 201100Z 2012/2112 11012KT CAVOK"
    },
    {
      "icao": "LCLK",
      "iata": "LCA",
      "name": "Larnaca International Airport",
      "lat": 34.875099,
      "lon": 33.624901,
      "updatedAt": "201230Z",
      "visibility_m": 10000,
      "taf_visibility_m": 10000,
      "worst_visibility_m": 10000,
      "ceiling_ft": null,
      "hazards": [],
      "severityScore": 0,
      "metarRaw": "METAR LCLK 201230Z 01010G23KT 340V080 9999 FEW030 14/00 Q1024 NOSIG",
      "tafRaw": "TAF LCLK 201130Z 2012/2112 03014KT 9999 FEW025 \n  BECMG 2016/2018 33009KT \n  BECMG 2106/2108 05016KT"
    },
    {
      "icao": "LCPH",
      "iata": "PFO",
      "name": "Paphos International Airport",
      "lat": 34.717999,
      "lon": 32.485699,
      "updatedAt": "201230Z",
      "visibility_m": 10000,
      "taf_visibility_m": 10000,
      "worst_visibility_m": 10000,
      "ceiling_ft": null,
      "hazards": [],
      "severityScore": 0,
      "metarRaw": "METAR LCPH 201230Z 17005KT 150V240 9999 FEW040 14/M02 Q1023 NOSIG",
      "tafRaw": "TAF LCPH 201130Z 2012/2112 15010KT 9999 FEW020 \n  BECMG 2013/2017 05009KT \n  BECMG 2108/2110 10018KT"
    },
    {
      "icao": "LEBB",
      "iata": "BIO",
      "name": "Bilbao Airport",
      "lat": 43.301102,
      "lon": -2.91061,
      "updatedAt": "201230Z",
      "visibility_m": 10000,
      "taf_visibility_m": 10000,
      "worst_visibility_m": 10000,
      "ceiling_ft": null,
      "hazards": [],
      "severityScore": 0,
      "metarRaw": "METAR LEBB 201230Z 15008KT 080V210 CAVOK 14/03 Q1014 NOSIG",
      "tafRaw": "TAF LEBB 201100Z 2012/2112 20008KT 9999 SCT040 TX13/2013Z TN09/2021Z \n  PROB40 \n  TEMPO 2012/2018 20015G25KT \n  TEMPO 2018/2112 20018G33KT \n  PROB40 \n  TEMPO 2106/2112 20022G43KT"
    },
    {
      "icao": "LEMG",
      "iata": "AGP",
      "name": "Málaga-Costa del Sol Airport",
      "lat": 36.6749,
      "lon": -4.49911,
      "updatedAt": "201230Z",
      "visibility_m": 10000,
      "taf_visibility_m": 10000,
      "worst_visibility_m": 10000,
      "ceiling_ft": null,
      "hazards": [],
      "severityScore": 0,
      "metarRaw": "METAR LEMG 201230Z 29014KT 250V320 9999 FEW030 14/04 Q1017 NOSIG",
      "tafRaw": "TAF LEMG 201100Z 2012/2112 29012KT CAVOK TX14/2014Z TN07/2106Z \n  PROB30 \n  TEMPO 2012/2016 29015G25KT \n  BECMG 2108/2110 VRB03KT"
    },
    {
      "icao": "LEXJ",
      "iata": "SDR",
      "name": "Seve Ballesteros-Santander Airport",
      "lat": 43.427101,
      "lon": -3.82001,
      "updatedAt": "201230Z",
      "visibility_m": 10000,
      "taf_visibility_m": 10000,
      "worst_visibility_m": 10000,
      "ceiling_ft": null,
      "hazards": [],
      "severityScore": 0,
      "metarRaw": "METAR LEXJ 201230Z 19009KT 150V240 CAVOK 13/02 Q1012",
      "tafRaw": "TAF LEXJ 200800Z 2009/2109 22009KT 9999 SCT040 TX13/2014Z TN06/2009Z \n  PROB40 \n  TEMPO 2012/2020 20018G30KT \n  TEMPO 2020/2109 20018G32KT \n  PROB30 \n  TEMPO 2100/2109 20024G42KT"
    },
    {
      "icao": "LEZG",
      "iata": "ZAZ",
      "name": "Zaragoza Airport",
      "lat": 41.666199,
      "lon": -1.04155,
      "updatedAt": "201230Z",
      "visibility_m": 10000,
      "taf_visibility_m": 10000,
      "worst_visibility_m": 10000,
      "ceiling_ft": null,
      "hazards": [],
      "severityScore": 0,
      "metarRaw": "METAR LEZG 201230Z 28010KT 250V320 9999 SCT070 11/04 Q1015 NOSIG",
      "tafRaw": "TAF LEZG 201100Z 2012/2112 30010KT 9999 FEW040 TX10/2015Z TN05/2106Z \n  BECMG 2013/2016 VRB04KT \n  BECMG 2108/2110 13010KT"
    },
    {
      "icao": "LEZL",
      "iata": "SVQ",
      "name": "Sevilla Airport",
      "lat": 37.417999,
      "lon": -5.89311,
      "updatedAt": "201230Z",
      "visibility_m": 10000,
      "taf_visibility_m": 10000,
      "worst_visibility_m": 10000,
      "ceiling_ft": null,
      "hazards": [],
      "severityScore": 0,
      "metarRaw": "METAR LEZL 201230Z 22003KT CAVOK 12/06 Q1019 NOSIG",
      "tafRaw": "TAF LEZL 200800Z 2009/2109 VRB04KT CAVOK TX15/2015Z TN04/2107Z \n  TEMPO 2014/2018 26010KT"
    },
    {
      "icao": "LFMN",
      "iata": "NCE",
      "name": "Nice-Côte d'Azur Airport",
      "lat": 43.658401,
      "lon": 7.21587,
      "updatedAt": "201230Z",
      "visibility_m": 10000,
      "taf_visibility_m": 10000,
      "worst_visibility_m": 10000,
      "ceiling_ft": 23000,
      "hazards": [],
      "severityScore": 0,
      "metarRaw": "METAR LFMN 201230Z 09025KT 9999 SCT070 BKN230 15/06 Q1016 NOSIG",
      "tafRaw": "TAF LFMN 200800Z 2009/2115 08015G25KT 9999 SCT100 \n  TEMPO 2009/2019 10025KT \n  BECMG 2021/2024 34010KT \n  BECMG 2111/2113 14006KT"
    },
    {
      "icao": "LIBG",
      "iata": "TAR",
      "name": "Taranto-Grottaglie Marcello Arlotta Airport",
      "lat": 40.517502,
      "lon": 17.4032,
      "updatedAt": "201150Z",
      "visibility_m": 10000,
      "taf_visibility_m": 10000,
      "worst_visibility_m": 10000,
      "ceiling_ft": null,
      "hazards": [],
      "severityScore": 0,
      "metarRaw": "METAR LIBG 201150Z 15007KT 9999 FEW040 11/02 Q1021",
      "tafRaw": "TAF LIBG 201100Z 2012/2021 09008KT 9999 SCT040"
    },
    {
      "icao": "LIBP",
      "iata": "PSR",
      "name": "Abruzzo Airport",
      "lat": 42.431079,
      "lon": 14.182981,
      "updatedAt": "201220Z",
      "visibility_m": 10000,
      "taf_visibility_m": 10000,
      "worst_visibility_m": 10000,
      "ceiling_ft": 5000,
      "hazards": [],
      "severityScore": 0,
      "metarRaw": "METAR LIBP 201220Z AUTO 03006KT 9999 FEW046/// 11/07 Q1021",
      "tafRaw": "TAF LIBP 201100Z 2012/2112 VRB05KT 9999 BKN050"
    },
    {
      "icao": "LIME",
      "iata": "BGY",
      "name": "Milan Bergamo Airport / Antonio Locatelli Air Base",
      "lat": 45.670725,
      "lon": 9.709223,
      "updatedAt": "201220Z",
      "visibility_m": 10000,
      "taf_visibility_m": 10000,
      "worst_visibility_m": 10000,
      "ceiling_ft": null,
      "hazards": [],
      "severityScore": 0,
      "metarRaw": "METAR LIME 201220Z VRB04KT 9999 FEW080 06/M03 Q1024 NOSIG",
      "tafRaw": "TAF LIME 201100Z 2012/2112 VRB04KT 9999 SCT060"
    },
    {
      "icao": "LIMJ",
      "iata": "GOA",
      "name": "Genoa Cristoforo Colombo Airport",
      "lat": 44.412039,
      "lon": 8.840732,
      "updatedAt": "201220Z",
      "visibility_m": 10000,
      "taf_visibility_m": 10000,
      "worst_visibility_m": 10000,
      "ceiling_ft": 7000,
      "hazards": [],
      "severityScore": 0,
      "metarRaw": "METAR LIMJ 201220Z 36012KT 330V030 9999 BKN070 10/M00 Q1021",
      "tafRaw": "TAF LIMJ 201100Z 2012/2112 02015KT 9999 FEW080 \n  TEMPO 2012/2018 02015G28KT"
    },
    {
      "icao": "LIPE",
      "iata": "BLQ",
      "name": "Bologna Guglielmo Marconi Airport",
      "lat": 44.5354,
      "lon": 11.2887,
      "updatedAt": "201220Z",
      "visibility_m": 8000,
      "taf_visibility_m": 8000,
      "worst_visibility_m": 8000,
      "ceiling_ft": 2600,
      "hazards": [],
      "severityScore": 0,
      "metarRaw": "METAR LIPE 201220Z 27005KT 8000 OVC026 03/M01 Q1025",
      "tafRaw": "TAF LIPE 201100Z 2012/2112 28006KT 8000 BKN030"
    },
    {
      "icao": "LIPH",
      "iata": "TSF",
      "name": "Treviso Antonio Canova Airport",
      "lat": 45.648399,
      "lon": 12.1944,
      "updatedAt": "201220Z",
      "visibility_m": 10000,
      "taf_visibility_m": 10000,
      "worst_visibility_m": 10000,
      "ceiling_ft": null,
      "hazards": [],
      "severityScore": 0,
      "metarRaw": "METAR LIPH 201220Z 06006KT CAVOK 07/M06 Q1025",
      "tafRaw": "TAF LIPH 201100Z 2012/2112 04007KT CAVOK"
    },
    {
      "icao": "LIPQ",
      "iata": "TRS",
      "name": "Trieste–Friuli Venezia Giulia Airport",
      "lat": 45.827499,
      "lon": 13.4722,
      "updatedAt": "201220Z",
      "visibility_m": 10000,
      "taf_visibility_m": 10000,
      "worst_visibility_m": 10000,
      "ceiling_ft": null,
      "hazards": [],
      "severityScore": 0,
      "metarRaw": "METAR LIPQ 201220Z AUTO 12008KT 9999 NCD 08/M07 Q1024",
      "tafRaw": "TAF LIPQ 201100Z 2012/2112 VRB05KT CAVOK"
    },
    {
      "icao": "LIPZ",
      "iata": "VCE",
      "name": "Venice Marco Polo Airport",
      "lat": 45.505299,
      "lon": 12.3519,
      "updatedAt": "201220Z",
      "visibility_m": 10000,
      "taf_visibility_m": 10000,
      "worst_visibility_m": 10000,
      "ceiling_ft": null,
      "hazards": [],
      "severityScore": 0,
      "metarRaw": "METAR LIPZ 201220Z 07007KT CAVOK 06/M04 Q1025 NOSIG",
      "tafRaw": "TAF LIPZ 201100Z 2012/2118 02008KT CAVOK"
    },
    {
      "icao": "LIRP",
      "iata": "PSA",
      "name": "Pisa International Airport",
      "lat": 43.683899,
      "lon": 10.3927,
      "updatedAt": "201215Z",
      "visibility_m": 10000,
      "taf_visibility_m": 10000,
      "worst_visibility_m": 10000,
      "ceiling_ft": 8000,
      "hazards": [],
      "severityScore": 0,
      "metarRaw": "METAR LIRP 201215Z 08016KT 9999 BKN080 12/03 Q1018 NOSIG",
      "tafRaw": "TAF LIRP 201100Z 2012/2112 08017KT 9999 BKN080 \n  TEMPO 2012/2018 08017G27KT \n  BECMG 2104/2106 08007KT"
    },
    {
      "icao": "LIRZ",
      "iata": "PEG",
      "name": "Perugia San Francesco d'Assisi – Umbria International Airport",
      "lat": 43.095901,
      "lon": 12.5132,
      "updatedAt": "201220Z",
      "visibility_m": 10000,
      "taf_visibility_m": 10000,
      "worst_visibility_m": 10000,
      "ceiling_ft": null,
      "hazards": [],
      "severityScore": 0,
      "metarRaw": "METAR LIRZ 201220Z AUTO 06017KT 9999 NCD 12/00 Q1017",
      "tafRaw": "TAF LIRZ 201100Z 2012/2112 05018G32KT 9999 SCT070 \n  BECMG 2018/2020 05013KT"
    },
    {
      "icao": "LKMT",
      "iata": "OSR",
      "name": "Leoš Janáček Airport Ostrava",
      "lat": 49.696301,
      "lon": 18.111099,
      "updatedAt": "201230Z",
      "visibility_m": 10000,
      "taf_visibility_m": 10000,
      "worst_visibility_m": 10000,
      "ceiling_ft": null,
      "hazards": [],
      "severityScore": 0,
      "metarRaw": "METAR LKMT 201230Z 20012KT CAVOK 02/M07 Q1027 NOSIG",
      "tafRaw": "TAF LKMT 201100Z 2012/2112 23014KT CAVOK"
    },
    {
      "icao": "LLBG",
      "iata": "TLV",
      "name": "Ben Gurion International Airport",
      "lat": 32.011398,
      "lon": 34.8867,
      "updatedAt": "201250Z",
      "visibility_m": 10000,
      "taf_visibility_m": 10000,
      "worst_visibility_m": 10000,
      "ceiling_ft": null,
      "hazards": [],
      "severityScore": 0,
      "metarRaw": "METAR LLBG 201250Z 01005KT 320V050 9999 FEW050 14/02 Q1022 NOSIG RMK SCT066",
      "tafRaw": "TAF LLBG 201106Z 2012/2112 36010KT CAVOK \n  BECMG 2016/2018 VRB04KT \n  BECMG 2107/2109 12008KT \n  PROB40 \n  TEMPO 2109/2112 12015KT TX15/2012Z TN04/2104Z"
    },
    {
      "icao": "LQBK",
      "iata": "BNX",
      "name": "Banja Luka International Airport",
      "lat": 44.941399,
      "lon": 17.297501,
      "updatedAt": "201230Z",
      "visibility_m": 10000,
      "taf_visibility_m": 10000,
      "worst_visibility_m": 10000,
      "ceiling_ft": 2300,
      "hazards": [],
      "severityScore": 0,
      "metarRaw": "METAR LQBK 201230Z 33004KT 300V010 9999 OVC023 M02/M05 Q1030 NOSIG",
      "tafRaw": "TAF LQBK 201100Z 2012/2112 VRB03KT 9999 BKN020 TXM01/2014Z TNM06/2106Z"
    },
    {
      "icao": "LRBV",
      "iata": "GHV",
      "name": "Brașov-Ghimbav International Airport",
      "lat": 45.70558,
      "lon": 25.522871,
      "updatedAt": "201230Z",
      "visibility_m": 10000,
      "taf_visibility_m": 10000,
      "worst_visibility_m": 10000,
      "ceiling_ft": null,
      "hazards": [],
      "severityScore": 0,
      "metarRaw": "METAR LRBV 201230Z 25002KT CAVOK M02/M07 Q1030",
      "tafRaw": "TAF LRBV 201100Z 2012/2021 VRB04KT CAVOK"
    },
    {
      "icao": "LRCV",
      "iata": "CRA",
      "name": "Craiova International Airport",
      "lat": 44.3181,
      "lon": 23.888599,
      "updatedAt": "201230Z",
      "visibility_m": 10000,
      "taf_visibility_m": 10000,
      "worst_visibility_m": 10000,
      "ceiling_ft": null,
      "hazards": [],
      "severityScore": 0,
      "metarRaw": "METAR LRCV 201230Z 03003KT CAVOK 01/M05 Q1033",
      "tafRaw": "TAF LRCV 201100Z 2012/2021 VRB04KT CAVOK"
    },
    {
      "icao": "LYBE",
      "iata": "BEG",
      "name": "Belgrade Nikola Tesla Airport",
      "lat": 44.818401,
      "lon": 20.309099,
      "updatedAt": "201230Z",
      "visibility_m": 10000,
      "taf_visibility_m": 10000,
      "worst_visibility_m": 10000,
      "ceiling_ft": null,
      "hazards": [],
      "severityScore": 0,
      "metarRaw": "METAR LYBE 201230Z 13011KT CAVOK 04/M06 Q1030 NOSIG",
      "tafRaw": "TAF LYBE 201100Z 2012/2112 12012KT CAVOK TX05/2112Z TNM05/2106Z"
    },
    {
      "icao": "LYNI",
      "iata": "INI",
      "name": "Niš Constantine the Great Airport",
      "lat": 43.336538,
      "lon": 21.856242,
      "updatedAt": "201230Z",
      "visibility_m": 10000,
      "taf_visibility_m": 10000,
      "worst_visibility_m": 10000,
      "ceiling_ft": null,
      "hazards": [],
      "severityScore": 0,
      "metarRaw": "METAR LYNI 201230Z 20004KT 140V240 CAVOK 04/M05 Q1030 NOSIG",
      "tafRaw": "TAF LYNI 201100Z 2012/2112 08006KT CAVOK TX05/2112Z TNM08/2106Z"
    },
    {
      "icao": "LZTT",
      "iata": "TAT",
      "name": "Poprad-Tatry Airport",
      "lat": 49.073601,
      "lon": 20.2411,
      "updatedAt": "201230Z",
      "visibility_m": 10000,
      "taf_visibility_m": 10000,
      "worst_visibility_m": 10000,
      "ceiling_ft": null,
      "hazards": [],
      "severityScore": 0,
      "metarRaw": "METAR LZTT 201230Z 15006KT 130V190 CAVOK M01/M07 Q1026 NOSIG",
      "tafRaw": "TAF LZTT 201115Z 2012/2112 VRB02KT CAVOK \n  PROB30 \n  TEMPO 2012/2016 26010KT"
    },
    {
      "icao": "OEJN",
      "iata": "JED",
      "name": "King Abdulaziz International Airport",
      "lat": 21.6796,
      "lon": 39.156502,
      "updatedAt": "201200Z",
      "visibility_m": 10000,
      "taf_visibility_m": 7000,
      "worst_visibility_m": 7000,
      "ceiling_ft": null,
      "hazards": [],
      "severityScore": 0,
      "metarRaw": "METAR OEJN 201200Z 31010KT CAVOK 30/10 Q1013 NOSIG",
      "tafRaw": "TAF OEJN 201100Z 2012/2118 34014KT 7000 FEW040 \n  BECMG 2020/2022 03006KT \n  BECMG 2110/2112 32012KT"
    },
    {
      "icao": "OEMA",
      "iata": "MED",
      "name": "Prince Mohammad Bin Abdulaziz Airport",
      "lat": 24.5534,
      "lon": 39.705101,
      "updatedAt": "201200Z",
      "visibility_m": 10000,
      "taf_visibility_m": 7000,
      "worst_visibility_m": 7000,
      "ceiling_ft": null,
      "hazards": [],
      "severityScore": 0,
      "metarRaw": "METAR OEMA 201200Z 28009KT CAVOK 25/M11 Q1016 NOSIG",
      "tafRaw": "TAF OEMA 201100Z 2012/2118 30010KT CAVOK \n  BECMG 2020/2022 VRB03KT \n  BECMG 2106/2108 10015KT 7000 NSC"
    },
    {
      "icao": "OJAI",
      "iata": "AMM",
      "name": "Queen Alia International Airport",
      "lat": 31.7226009369,
      "lon": 35.9931983948,
      "updatedAt": "201200Z",
      "visibility_m": 5000,
      "taf_visibility_m": 4000,
      "worst_visibility_m": 4000,
      "ceiling_ft": null,
      "hazards": [],
      "severityScore": 0,
      "metarRaw": "METAR OJAI 201200Z 28008KT 5000 HZ SCT030 10/M01 Q1021 NOSIG",
      "tafRaw": "TAF OJAI 201100Z 2012/2118 07010KT 5000 HZ SCT030 \n  PROB40 \n  TEMPO 2012/2017 29006KT \n  PROB40 \n  TEMPO 2106/2118 12020KT 4000 BLDU"
    },
    {
      "icao": "OMAA",
      "iata": "AUH",
      "name": "Zayed International Airport",
      "lat": 24.440966,
      "lon": 54.649237,
      "updatedAt": "201200Z",
      "visibility_m": 10000,
      "taf_visibility_m": 8000,
      "worst_visibility_m": 8000,
      "ceiling_ft": null,
      "hazards": [],
      "severityScore": 0,
      "metarRaw": "METAR OMAA 201200Z 31011KT CAVOK 24/12 Q1013 NOSIG",
      "tafRaw": "TAF OMAA 201100Z 2012/2118 30010KT 8000 NSC \n  BECMG 2016/2018 24006KT \n  BECMG 2104/2106 32015KT"
    },
    {
      "icao": "OMDB",
      "iata": "DXB",
      "name": "Dubai International Airport",
      "lat": 25.2527999878,
      "lon": 55.3643989563,
      "updatedAt": "201230Z",
      "visibility_m": 10000,
      "taf_visibility_m": 8000,
      "worst_visibility_m": 8000,
      "ceiling_ft": null,
      "hazards": [],
      "severityScore": 0,
      "metarRaw": "METAR OMDB 201230Z 29012KT CAVOK 24/11 Q1014 NOSIG",
      "tafRaw": "TAF OMDB 201100Z 2012/2118 29012KT 8000 NSC \n  PROB30 2018/2105 21007KT \n  PROB40 2108/2118 29018G28KT"
    }
  ],
  "stats": {
    "icaoCount": 159,
    "metarReturned": 159,
    "tafReturned": 153,
    "stationsWritten": 159,
    "missingMetar": 0,
    "missingTaf": 6
  },
  "errors": []
}