{
  "generatedAt": "2026-01-28T17:22:43.225Z",
  "stations": [
    {
      "icao": "EBCI",
      "iata": "CRL",
      "name": "Brussels South Charleroi Airport",
      "lat": 50.461963,
      "lon": 4.459562,
      "updatedAt": "281650Z",
      "visibility_m": 400,
      "taf_visibility_m": 800,
      "worst_visibility_m": 400,
      "ceiling_ft": 200,
      "hazards": [
        "FG",
        "BR"
      ],
      "severityScore": 100,
      "metarRaw": "METAR EBCI 281650Z 36005KT 0800 R24/1900N FG SCT001 OVC002 04/04 Q0995 TEMPO 0400 FG",
      "tafRaw": "TAF EBCI 281101Z 2812/2918 02003KT 1200 BR MIFG SCT002 BKN003 \n  PROB40 \n  TEMPO 2812/2815 0800 FG SCT001 BKN002 \n  TEMPO 2813/2818 4500 BR SCT005 BKN006 \n  PROB30 \n  TEMPO 2900/2909 0850 FG -SG BKN001 \n  BECMG 2912/2914 4500 BR SCT005 BKN007 \n  BECMG 2914/2916 6000 NSW SCT007 BKN010"
    },
    {
      "icao": "EDFH",
      "iata": "HHN",
      "name": "Frankfurt-Hahn Airport",
      "lat": 49.946353,
      "lon": 7.261734,
      "updatedAt": "281650Z",
      "visibility_m": 8000,
      "taf_visibility_m": 300,
      "worst_visibility_m": 300,
      "ceiling_ft": 200,
      "hazards": [
        "RA",
        "FG",
        "SN",
        "DZ"
      ],
      "severityScore": 100,
      "metarRaw": "METAR EDFH 281650Z 04004KT 010V080 8000 -RA BKN002 01/01 Q0992",
      "tafRaw": "TAF EDFH 281100Z 2812/2912 05005KT 2000 -RADZ OVC004 \n  TEMPO 2812/2818 0400 DZRA FG VV001 \n  TEMPO 2818/2912 0300 -SN FG OVC000 \n  BECMG 2819/2822 VRB03KT \n  BECMG 2905/2908 15005KT"
    },
    {
      "icao": "EGBB",
      "iata": "BHX",
      "name": "Birmingham Airport",
      "lat": 52.453899,
      "lon": -1.74803,
      "updatedAt": "281650Z",
      "visibility_m": 10000,
      "taf_visibility_m": 300,
      "worst_visibility_m": 300,
      "ceiling_ft": 300,
      "hazards": [
        "FG",
        "BR"
      ],
      "severityScore": 100,
      "metarRaw": "METAR EGBB 281650Z 14004KT CAVOK 05/03 Q0995",
      "tafRaw": "TAF EGBB 281658Z 2818/2918 14004KT 9999 FEW025 \n  TEMPO 2820/2910 3000 BR \n  PROB30 2821/2824 0300 FG VV/// \n  PROB40 2900/2910 0300 FG VV/// \n  BECMG 2902/2905 6000 BKN003 \n  BECMG 2908/2911 9999 SCT010 \n  PROB30 \n  TEMPO 2911/2913 BKN009"
    },
    {
      "icao": "EGKK",
      "iata": "LGW",
      "name": "London Gatwick Airport",
      "lat": 51.148771,
      "lon": -0.192089,
      "updatedAt": "281650Z",
      "visibility_m": 10000,
      "taf_visibility_m": 300,
      "worst_visibility_m": 300,
      "ceiling_ft": 4900,
      "hazards": [
        "FZFG",
        "FG",
        "BR"
      ],
      "severityScore": 100,
      "metarRaw": "METAR EGKK 281650Z VRB02KT 9999 BKN049 08/05 Q0995",
      "tafRaw": "TAF EGKK 281701Z 2818/2924 09004KT 9999 FEW035 \n  BECMG 2818/2821 3000 BR \n  BECMG 2821/2824 0300 FG FZFG VV/// \n  BECMG 2908/2911 9999 NSW SCT030 \n  PROB30 \n  TEMPO 2911/2914 BKN006 \n  TEMPO 2920/2924 BKN012"
    },
    {
      "icao": "EGNM",
      "iata": "LBA",
      "name": "Leeds Bradford Airport",
      "lat": 53.865898,
      "lon": -1.66057,
      "updatedAt": "281650Z",
      "visibility_m": 150,
      "taf_visibility_m": 100,
      "worst_visibility_m": 100,
      "ceiling_ft": 400,
      "hazards": [
        "FG",
        "BR",
        "DZ"
      ],
      "severityScore": 100,
      "metarRaw": "METAR EGNM 281650Z VRB01KT 0150 R32/0325N FG VV/// 02/02 Q0995",
      "tafRaw": "TAF EGNM 281658Z 2818/2918 VRB02KT 0100 FG VV/// \n  TEMPO 2818/2909 DZ \n  BECMG 2909/2912 11010KT 4000 BR BKN004 \n  BECMG 2912/2915 9999 NSW BKN020"
    },
    {
      "icao": "EHBK",
      "iata": "MST",
      "name": "Maastricht Aachen Airport",
      "lat": 50.911701,
      "lon": 5.77014,
      "updatedAt": "281655Z",
      "visibility_m": 900,
      "taf_visibility_m": 600,
      "worst_visibility_m": 600,
      "ceiling_ft": 0,
      "hazards": [
        "FG",
        "BR",
        "SN",
        "RA",
        "DZ"
      ],
      "severityScore": 100,
      "metarRaw": "METAR EHBK 281655Z AUTO 01006KT 310V030 0900 R21/1300U FG VV000 04/04 Q0995 BECMG 1200 BR OVC001",
      "tafRaw": "TAF EHBK 281105Z 2812/2918 01005KT 2000 BR BKN001 \n  PROB30 2812/2816 0600 FG BKN000 \n  BECMG 2815/2818 4000 BKN004 \n  PROB30 \n  TEMPO 2817/2822 2000 BR -DZRA \n  PROB40 \n  TEMPO 2822/2910 1400 SN BR BKN002 \n  BECMG 2909/2912 9999 NSW BKN007 \n  BECMG 2913/2916 BKN016"
    },
    {
      "icao": "LBSF",
      "iata": "SOF",
      "name": "Sofia Airport",
      "lat": 42.696357,
      "lon": 23.417671,
      "updatedAt": "281700Z",
      "visibility_m": 10000,
      "taf_visibility_m": 400,
      "worst_visibility_m": 400,
      "ceiling_ft": 200,
      "hazards": [
        "FZFG",
        "FG",
        "BR",
        "RA"
      ],
      "severityScore": 100,
      "metarRaw": "METAR LBSF 281700Z AUTO VRB01KT 9999 NSC 01/00 Q1002 NOSIG",
      "tafRaw": "TAF LBSF 281700Z 2818/2918 VRB04KT CAVOK \n  BECMG 2822/2824 3000 BR SCT015 \n  TEMPO 2900/2906 0500 FG SCT002 BKN005 \n  PROB30 2901/2906 0400 FZFG BKN002 \n  BECMG 2908/2910 7000 NSW SCT030 \n  PROB40 \n  TEMPO 2910/2916 5000 RA BKN020 OVC040"
    },
    {
      "icao": "LFLS",
      "iata": "GNB",
      "name": "Grenoble Alpes Isère Airport",
      "lat": 45.3629,
      "lon": 5.32937,
      "updatedAt": "281700Z",
      "visibility_m": 4000,
      "taf_visibility_m": 400,
      "worst_visibility_m": 400,
      "ceiling_ft": 800,
      "hazards": [
        "RA",
        "DZ",
        "FZFG",
        "BR",
        "FG"
      ],
      "severityScore": 100,
      "metarRaw": "METAR LFLS 281700Z AUTO VRB02KT 9999 -DZ OVC014 04/03 Q0993 TEMPO 4000 RA OVC008",
      "tafRaw": "TAF LFLS 281400Z 2815/2915 VRB05KT 6000 -RA SCT012 OVC020 \n  TEMPO 2815/2902 4000 RA OVC012 \n  PROB40 \n  TEMPO 2815/2902 OVC008 \n  FM290200 VRB02KT 8000 BKN012 \n  TEMPO 2902/2909 09005KT 3000 BR OVC006 \n  PROB30 \n  TEMPO 2904/2908 0400 FZFG VV/// \n  BECMG 2909/2911 SCT014"
    },
    {
      "icao": "LFOB",
      "iata": "BVA",
      "name": "Beauvais Tillé airport",
      "lat": 49.454399,
      "lon": 2.11278,
      "updatedAt": "281700Z",
      "visibility_m": 3000,
      "taf_visibility_m": 400,
      "worst_visibility_m": 400,
      "ceiling_ft": 1000,
      "hazards": [
        "BR",
        "FZFG",
        "FG"
      ],
      "severityScore": 100,
      "metarRaw": "METAR LFOB 281700Z AUTO 31003KT CAVOK 03/03 Q0995 TEMPO BKN010 BECMG 3000 BR",
      "tafRaw": "TAF LFOB 281100Z 2812/2912 VRB03KT CAVOK \n  PROB30 2812/2818 BKN010 \n  BECMG 2818/2821 3000 BR \n  PROB40 \n  TEMPO 2821/2909 0700 FG VV/// \n  PROB30 \n  TEMPO 2823/2906 0400 FZFG \n  BECMG 2909/2912 9999 NSW BKN012"
    },
    {
      "icao": "LFPO",
      "iata": "ORY",
      "name": "Paris-Orly Airport",
      "lat": 48.72333,
      "lon": 2.37944,
      "updatedAt": "281700Z",
      "visibility_m": 10000,
      "taf_visibility_m": 300,
      "worst_visibility_m": 300,
      "ceiling_ft": 400,
      "hazards": [
        "FG",
        "BR"
      ],
      "severityScore": 100,
      "metarRaw": "METAR LFPO 281700Z AUTO 34004KT CAVOK 06/04 Q0995 NOSIG",
      "tafRaw": "TAF LFPO 281700Z 2818/2924 VRB03KT CAVOK \n  BECMG 2821/2824 2500 BR \n  BECMG 2900/2903 0800 FG VV/// \n  PROB40 2903/2910 0300 \n  BECMG 2911/2913 16006KT 6000 NSW BKN004 \n  BECMG 2916/2918 CAVOK \n  PROB40 \n  TEMPO 2916/2924 BKN012"
    },
    {
      "icao": "LIPE",
      "iata": "BLQ",
      "name": "Bologna Guglielmo Marconi Airport",
      "lat": 44.5354,
      "lon": 11.2887,
      "updatedAt": "281650Z",
      "visibility_m": 3000,
      "taf_visibility_m": 800,
      "worst_visibility_m": 800,
      "ceiling_ft": 500,
      "hazards": [
        "BR",
        "RA",
        "DZ",
        "FG"
      ],
      "severityScore": 100,
      "metarRaw": "METAR LIPE 281650Z 27009KT 3000 RA BR BKN005 07/07 Q0990 REDZ",
      "tafRaw": "TAF LIPE 281700Z 2818/2918 VRB05KT 6000 BKN006 \n  BECMG 2818/2820 3000 BR \n  TEMPO 2822/2908 0800 FG BKN002 \n  BECMG 2908/2910 8000 SCT020"
    },
    {
      "icao": "LOWW",
      "iata": "VIE",
      "name": "Vienna International Airport",
      "lat": 48.110298,
      "lon": 16.5697,
      "updatedAt": "281650Z",
      "visibility_m": 2000,
      "taf_visibility_m": 600,
      "worst_visibility_m": 600,
      "ceiling_ft": 400,
      "hazards": [
        "BR",
        "FG",
        "RA",
        "DZ",
        "SN"
      ],
      "severityScore": 100,
      "metarRaw": "METAR LOWW 281650Z VRB02KT 4000 BR SCT003 OVC004 01/01 Q0993 TEMPO 2000 BR",
      "tafRaw": "TAF LOWW 281715Z 2818/2924 14007KT 3000 BR OVC003 TX02/2901Z TN00/2924Z \n  TEMPO 2818/2824 1200 -DZ \n  PROB30 \n  TEMPO 2819/2824 0600 FG OVC001 \n  FM290000 VRB04KT 4000 -RA OVC005 \n  BECMG 2906/2908 34008KT \n  TEMPO 2906/2917 2000 RASN VV003 \n  PROB30 \n  TEMPO 2912/2917 1200 -SNRA \n  BECMG 2917/2919 6000 NSW SCT003 BKN012"
    },
    {
      "icao": "LRIA",
      "iata": "IAS",
      "name": "Iaşi Airport",
      "lat": 47.180278,
      "lon": 27.620833,
      "updatedAt": "281700Z",
      "visibility_m": 200,
      "taf_visibility_m": null,
      "worst_visibility_m": 200,
      "ceiling_ft": 100,
      "hazards": [
        "FG"
      ],
      "severityScore": 100,
      "metarRaw": "METAR LRIA 281700Z 09005KT 0200 R14/0600N FG VV001 02/01 Q1001",
      "tafRaw": null
    },
    {
      "icao": "LRBC",
      "iata": "BCM",
      "name": "Bacău George Enescu International  Airport",
      "lat": 46.5219,
      "lon": 26.910299,
      "updatedAt": "281700Z",
      "visibility_m": 700,
      "taf_visibility_m": 200,
      "worst_visibility_m": 200,
      "ceiling_ft": 200,
      "hazards": [
        "FG"
      ],
      "severityScore": 100,
      "metarRaw": "METAR LRBC 281700Z 08003KT 0700 R16/0800N FG VV002 01/01 Q1000",
      "tafRaw": "TAF LRBC 281400Z 2815/2824 17008KT 0200 FG VV001 \n  TEMPO 2815/2817 0600 OVC002"
    },
    {
      "icao": "LRBS",
      "iata": "BBU",
      "name": "Bucharest Băneasa Aurel Vlaicu International Airport",
      "lat": 44.503133,
      "lon": 26.102944,
      "updatedAt": "281700Z",
      "visibility_m": 8000,
      "taf_visibility_m": 600,
      "worst_visibility_m": 600,
      "ceiling_ft": 200,
      "hazards": [
        "FG",
        "BR",
        "RA"
      ],
      "severityScore": 100,
      "metarRaw": "METAR LRBS 281700Z 00000KT 8000 NSC 06/05 Q1002 NOSIG",
      "tafRaw": "TAF LRBS 281100Z 2812/2912 24008KT 9999 SCT020 \n  BECMG 2815/2817 3000 BR \n  BECMG 2817/2819 1500 BR BKN005 \n  TEMPO 2820/2824 0600 FG OVC002 \n  TEMPO 2900/2904 3000 -RA BR BKN005 BKN030 \n  PROB40 \n  TEMPO 2904/2907 0600 FG BKN002 \n  BECMG 2907/2909 5000 SCT010"
    },
    {
      "icao": "LROP",
      "iata": "OTP",
      "name": "Bucharest Henri Coandă International Airport",
      "lat": 44.571792,
      "lon": 26.103285,
      "updatedAt": "281700Z",
      "visibility_m": 3000,
      "taf_visibility_m": 600,
      "worst_visibility_m": 600,
      "ceiling_ft": 200,
      "hazards": [
        "BR",
        "FG",
        "RA"
      ],
      "severityScore": 100,
      "metarRaw": "METAR LROP 281700Z 30001KT 5000 MIFG NSC 04/04 Q1002 BECMG 3000 BR",
      "tafRaw": "TAF LROP 281100Z 2812/2912 24008KT 9999 SCT020 \n  BECMG 2815/2817 3000 BR \n  BECMG 2817/2819 1500 BR BKN005 \n  TEMPO 2820/2824 0600 FG OVC002 \n  TEMPO 2900/2904 3000 -RA BR BKN005 BKN030 \n  PROB40 \n  TEMPO 2904/2907 0600 FG BKN002 \n  BECMG 2907/2909 5000 SCT010"
    },
    {
      "icao": "LRSB",
      "iata": "SBZ",
      "name": "Sibiu International Airport",
      "lat": 45.785841,
      "lon": 24.086666,
      "updatedAt": "281700Z",
      "visibility_m": 5000,
      "taf_visibility_m": 800,
      "worst_visibility_m": 800,
      "ceiling_ft": 500,
      "hazards": [
        "BR",
        "FG",
        "FZRA",
        "RA"
      ],
      "severityScore": 100,
      "metarRaw": "METAR LRSB 281700Z 27004KT 5000 BR NSC 03/03 Q0999",
      "tafRaw": "TAF LRSB 281100Z 2812/2912 VRB04KT 9999 SCT005 \n  TEMPO 2812/2815 5000 BR \n  BECMG 2815/2817 3000 BR BKN010 \n  PROB40 \n  TEMPO 2818/2822 0800 FG BKN005 \n  TEMPO 2822/2906 1500 -RA BR BKN010 BKN030 \n  PROB30 \n  TEMPO 2822/2903 -FZRA \n  BECMG 2908/2910 5000 SCT010 SCT035"
    },
    {
      "icao": "LRSV",
      "iata": "SCV",
      "name": "Suceava Stefan cel Mare Airport",
      "lat": 47.6875,
      "lon": 26.35409927368164,
      "updatedAt": "281700Z",
      "visibility_m": 200,
      "taf_visibility_m": 100,
      "worst_visibility_m": 100,
      "ceiling_ft": 100,
      "hazards": [
        "FZFG",
        "FG"
      ],
      "severityScore": 100,
      "metarRaw": "METAR LRSV 281700Z 14003KT 0200 R34/0400N FZFG VV001 M00/M00 Q0999",
      "tafRaw": "TAF LRSV 281400Z 2815/2824 VRB04KT 0100 FG VV001"
    },
    {
      "icao": "LRTM",
      "iata": "TGM",
      "name": "Târgu Mureş Transilvania International Airport",
      "lat": 46.467701,
      "lon": 24.4125,
      "updatedAt": "281700Z",
      "visibility_m": 350,
      "taf_visibility_m": 150,
      "worst_visibility_m": 150,
      "ceiling_ft": 100,
      "hazards": [
        "FG"
      ],
      "severityScore": 100,
      "metarRaw": "METAR LRTM 281700Z 22003KT 0350 R07/0600N FG BKN001 OVC004 01/01 Q0999",
      "tafRaw": "TAF LRTM 281400Z 2815/2824 VRB04KT 0300 FG BKN001 OVC005 \n  TEMPO 2815/2817 0600 \n  TEMPO 2817/2824 0150 FG OVC001"
    },
    {
      "icao": "LYPG",
      "iata": "TGD",
      "name": "Podgorica Airport / Podgorica Golubovci Airbase",
      "lat": 42.359402,
      "lon": 19.2519,
      "updatedAt": "281700Z",
      "visibility_m": 2500,
      "taf_visibility_m": 500,
      "worst_visibility_m": 500,
      "ceiling_ft": 4000,
      "hazards": [
        "BR",
        "RA",
        "FG",
        "TSRA",
        "TS"
      ],
      "severityScore": 100,
      "metarRaw": "METAR LYPG 281700Z 17003KT 120V210 2500 1200S R18/P2000N R36/2000D RA BR FEW010 BKN040 OVC070 08/08 Q0998 NOSIG",
      "tafRaw": "TAF LYPG 281700Z 2818/2918 16006KT 2000 BR FEW010 BKN040 OVC070 TX13/2913Z TN04/2905Z \n  TEMPO 2818/2902 4000 RA \n  PROB40 \n  TEMPO 2819/2823 16015G25KT TSRA FEW010 FEW027CB BKN040 \n  PROB40 \n  TEMPO 2903/2907 0500 FG \n  BECMG 2908/2910 9999 NSW"
    },
    {
      "icao": "LZKZ",
      "iata": "KSC",
      "name": "Košice International Airport",
      "lat": 48.663101,
      "lon": 21.2411,
      "updatedAt": "281700Z",
      "visibility_m": 6000,
      "taf_visibility_m": 1400,
      "worst_visibility_m": 1400,
      "ceiling_ft": 900,
      "hazards": [
        "FZFG",
        "BR",
        "SN",
        "RA",
        "FG"
      ],
      "severityScore": 100,
      "metarRaw": "METAR LZKZ 281700Z 26002KT 6000 OVC009 00/00 Q0998 NOSIG",
      "tafRaw": "TAF LZKZ 281715Z 2818/2918 VRB02KT 5000 BR BKN009 OVC014 \n  TEMPO 2818/2912 2800 -SN BR OVC009 \n  PROB40 \n  TEMPO 2900/2906 1400 RASN FZFG BKN001 OVC004 \n  TEMPO 2913/2918 2500 -RA BR BKN005 BKN011"
    },
    {
      "icao": "UAAA",
      "iata": "ALA",
      "name": "Almaty International Airport",
      "lat": 43.354267,
      "lon": 77.042828,
      "updatedAt": "281700Z",
      "visibility_m": 150,
      "taf_visibility_m": 200,
      "worst_visibility_m": 150,
      "ceiling_ft": 200,
      "hazards": [
        "FZFG",
        "FG",
        "BR"
      ],
      "severityScore": 100,
      "metarRaw": "METAR UAAA 281700Z VRB01MPS 0150 R23L/0550N FZFG VV002 M02/M02 Q1025 NOSIG RMK QBB060",
      "tafRaw": "TAF UAAA 281706Z 2818/2918 20003MPS 0200 FZFG VV001 TXM01/2909Z TNM07/2902Z \n  TEMPO 2818/2906 0600 VV003 \n  FM290600 04003G08MPS 1200 BR FU SCT011 BKN020 \n  TEMPO 2906/2912 3100 \n  TEMPO 2913/2917 0300 FZFG VV002"
    },
    {
      "icao": "UDSG",
      "iata": "LWN",
      "name": "Shirak International Airport",
      "lat": 40.750401,
      "lon": 43.859299,
      "updatedAt": "281700Z",
      "visibility_m": 3100,
      "taf_visibility_m": 200,
      "worst_visibility_m": 200,
      "ceiling_ft": 100,
      "hazards": [
        "BR",
        "FZFG",
        "FG"
      ],
      "severityScore": 100,
      "metarRaw": "METAR UDSG 281700Z 17003KT 3100 BR SCT040 M13/M14 Q1015 NOSIG",
      "tafRaw": "TAF UDSG 281700Z 2818/2918 VRB06KT 2000 BR BKN020 \n  TEMPO 2818/2821 0600 FZFG VV003 \n  TEMPO 2821/2908 0200 FZFG VV001"
    },
    {
      "icao": "LRCV",
      "iata": "CRA",
      "name": "Craiova International Airport",
      "lat": 44.3181,
      "lon": 23.888599,
      "updatedAt": "281700Z",
      "visibility_m": 350,
      "taf_visibility_m": null,
      "worst_visibility_m": 350,
      "ceiling_ft": 100,
      "hazards": [
        "FG"
      ],
      "severityScore": 95,
      "metarRaw": "METAR LRCV 281700Z 09005KT 0350 R26/0400N FG BKN001 03/03 Q1001",
      "tafRaw": null
    },
    {
      "icao": "LBPD",
      "iata": "PDV",
      "name": "Plovdiv International Airport",
      "lat": 42.067799,
      "lon": 24.8508,
      "updatedAt": "281700Z",
      "visibility_m": 10000,
      "taf_visibility_m": 800,
      "worst_visibility_m": 800,
      "ceiling_ft": 500,
      "hazards": [
        "BR",
        "RA",
        "FG"
      ],
      "severityScore": 92,
      "metarRaw": "METAR LBPD 281700Z AUTO VRB02KT 9999 OVC110/// 07/05 Q1003 NOSIG",
      "tafRaw": "TAF LBPD 281700Z 2818/2918 VRB04KT CAVOK \n  BECMG 2819/2821 3000 BR SCT015 \n  TEMPO 2900/2907 0800 BCFG SCT002 BKN005 \n  BECMG 2909/2911 30010KT 5000 RA SCT020 OVC050"
    },
    {
      "icao": "LPPT",
      "iata": "LIS",
      "name": "Lisbon Humberto Delgado Airport",
      "lat": 38.7813,
      "lon": -9.13592,
      "updatedAt": "281700Z",
      "visibility_m": 10000,
      "taf_visibility_m": 1500,
      "worst_visibility_m": 1500,
      "ceiling_ft": 300,
      "hazards": [
        "BR",
        "SHRA",
        "RA",
        "DZ"
      ],
      "severityScore": 91,
      "metarRaw": "METAR LPPT 281700Z 23013KT 9999 FEW012 SCT015 15/12 Q1006",
      "tafRaw": "TAF LPPT 281700Z 2818/2924 23012KT 9999 BKN016 \n  BECMG 2818/2820 23017KT SCT006 BKN012 \n  TEMPO 2818/2914 3000 -RADZ SCT003 BKN006 \n  PROB40 \n  TEMPO 2820/2908 24018G30KT 1500 DZRA BR SCT002 BKN003 \n  BECMG 2914/2916 27015KT SCT025 \n  TEMPO 2916/2920 8000 SHRA BKN015 \n  BECMG 2918/2921 29007KT"
    },
    {
      "icao": "EPKK",
      "iata": "KRK",
      "name": "Kraków John Paul II International Airport",
      "lat": 50.077702,
      "lon": 19.7848,
      "updatedAt": "281700Z",
      "visibility_m": 4500,
      "taf_visibility_m": 2000,
      "worst_visibility_m": 2000,
      "ceiling_ft": 1000,
      "hazards": [
        "BR",
        "SN",
        "FZDZ",
        "RA",
        "DZ"
      ],
      "severityScore": 90,
      "metarRaw": "METAR EPKK 281700Z 07005KT 4500 BR BKN010 01/M01 Q0998",
      "tafRaw": "TAF EPKK 281430Z 2815/2915 06007KT 9999 BKN040 \n  BECMG 2815/2818 4000 -SNRA BR BKN010 \n  TEMPO 2818/2909 2000 -SN BR BKN004 \n  PROB30 \n  TEMPO 2820/2909 -FZDZ \n  BECMG 2909/2912 9999 \n  TEMPO 2912/2915 3000 -SN BR BKN004"
    },
    {
      "icao": "LUKK",
      "iata": "RMO",
      "name": "Chişinău International Airport",
      "lat": 46.9277,
      "lon": 28.931,
      "updatedAt": "281700Z",
      "visibility_m": 1500,
      "taf_visibility_m": null,
      "worst_visibility_m": 1500,
      "ceiling_ft": 200,
      "hazards": [
        "BR",
        "DZ",
        "FG"
      ],
      "severityScore": 90,
      "metarRaw": "METAR LUKK 281700Z 17007KT 1500 0600SW R08/0700N -DZ BR PRFG OVC002 02/02 Q1002 NOSIG",
      "tafRaw": null
    },
    {
      "icao": "LFLL",
      "iata": "LYS",
      "name": "Lyon Saint-Exupéry Airport",
      "lat": 45.725996,
      "lon": 5.090139,
      "updatedAt": "281700Z",
      "visibility_m": 4000,
      "taf_visibility_m": 500,
      "worst_visibility_m": 500,
      "ceiling_ft": 1400,
      "hazards": [
        "RA",
        "FG",
        "BR"
      ],
      "severityScore": 89,
      "metarRaw": "METAR LFLL 281700Z 34007KT 5000 RA FEW010 OVC018 06/05 Q0994 TEMPO 4000 BKN014",
      "tafRaw": "TAF LFLL 281700Z 2818/2924 34007KT 9999 BKN020 OVC042 \n  PROB40 \n  TEMPO 2818/2821 4000 RA BKN014 \n  PROB40 \n  TEMPO 2903/2910 4000 BR BKN012 \n  PROB30 2906/2910 0500 FG BKN002 \n  FM291200 VRB02KT CAVOK"
    },
    {
      "icao": "EGGW",
      "iata": "LTN",
      "name": "London Luton Airport",
      "lat": 51.874699,
      "lon": -0.368333,
      "updatedAt": "281650Z",
      "visibility_m": 10000,
      "taf_visibility_m": 300,
      "worst_visibility_m": 300,
      "ceiling_ft": 4500,
      "hazards": [
        "FG",
        "BR",
        "DZ"
      ],
      "severityScore": 85,
      "metarRaw": "METAR EGGW 281650Z AUTO 11004KT 9999 OVC045 06/04 Q0995",
      "tafRaw": "TAF EGGW 281701Z 2818/2918 12006KT 9999 SCT035 \n  TEMPO 2818/2902 3000 BR MIFG \n  PROB30 2820/2902 0300 FG VV/// \n  BECMG 2902/2905 2000 BR BKN002 \n  TEMPO 2902/2909 0300 DZ FG OVC001 \n  BECMG 2909/2912 9999 NSW FEW010 BKN020 \n  TEMPO 2910/2918 8000 BKN010"
    },
    {
      "icao": "LPPR",
      "iata": "OPO",
      "name": "Francisco de Sá Carneiro Airport",
      "lat": 41.2481002808,
      "lon": -8.68138980865,
      "updatedAt": "281700Z",
      "visibility_m": 8000,
      "taf_visibility_m": 2000,
      "worst_visibility_m": 2000,
      "ceiling_ft": 300,
      "hazards": [
        "BR",
        "SHRA",
        "RA",
        "DZ"
      ],
      "severityScore": 81,
      "metarRaw": "METAR LPPR 281700Z 22009KT 8000 VCSH FEW015 FEW020TCU SCT025 13/10 Q1002",
      "tafRaw": "TAF LPPR 281700Z 2818/2918 22010KT 9999 SCT025 \n  BECMG 2818/2820 18015KT 8000 -RADZ SCT008 BKN015 \n  TEMPO 2820/2910 4000 RADZ BR SCT004 BKN008 FEW018CB \n  BECMG 2822/2824 25015KT \n  PROB40 \n  TEMPO 2822/2906 26023G33KT 2000 RADZ BR BKN003 \n  BECMG 2910/2912 9999 NSW SCT020 \n  TEMPO 2912/2918 6000 SHRA BKN012 FEW022CB"
    },
    {
      "icao": "LIPH",
      "iata": "TSF",
      "name": "Treviso Antonio Canova Airport",
      "lat": 45.648399,
      "lon": 12.1944,
      "updatedAt": "281650Z",
      "visibility_m": 10000,
      "taf_visibility_m": 800,
      "worst_visibility_m": 800,
      "ceiling_ft": 1000,
      "hazards": [
        "FG",
        "BR",
        "RA"
      ],
      "severityScore": 79,
      "metarRaw": "METAR LIPH 281650Z 05006KT 9999 SCT005 BKN010 09/09 Q0989",
      "tafRaw": "TAF LIPH 281700Z 2818/2918 VRB05KT 6000 BKN010 \n  TEMPO 2818/2822 4000 -RA \n  BECMG 2822/2824 3000 BR \n  TEMPO 2900/2910 0800 FG BKN002 \n  BECMG 2909/2911 7000 SCT020 \n  BECMG 2916/2918 3000 BR"
    },
    {
      "icao": "LIRN",
      "iata": "NAP",
      "name": "Naples International Airport",
      "lat": 40.886002,
      "lon": 14.2908,
      "updatedAt": "281650Z",
      "visibility_m": 10000,
      "taf_visibility_m": 4000,
      "worst_visibility_m": 4000,
      "ceiling_ft": 3500,
      "hazards": [
        "RA",
        "TSRA",
        "SHRA",
        "TS"
      ],
      "severityScore": 76,
      "metarRaw": "METAR LIRN 281650Z 22012KT 9999 -RA BKN035 13/08 Q0997 NOSIG",
      "tafRaw": "TAF LIRN 281100Z 2812/2912 23018G30KT 9999 SCT030 \n  PROB40 \n  TEMPO 2812/2815 4000 TSRA \n  BECMG 2818/2820 23010KT \n  TEMPO 2823/2909 SHRA \n  BECMG 2901/2903 04012KT \n  BECMG 2906/2908 34015KT"
    },
    {
      "icao": "EDDS",
      "iata": "STR",
      "name": "Stuttgart Airport",
      "lat": 48.689899,
      "lon": 9.22196,
      "updatedAt": "281650Z",
      "visibility_m": 4000,
      "taf_visibility_m": 1200,
      "worst_visibility_m": 1200,
      "ceiling_ft": 700,
      "hazards": [
        "RA",
        "DZ",
        "SN"
      ],
      "severityScore": 75,
      "metarRaw": "METAR EDDS 281650Z AUTO 33006KT 8000 BKN007 03/02 Q0990 TEMPO 4000 -RADZ",
      "tafRaw": "TAF EDDS 281100Z 2812/2912 34003KT 9999 OVC025 \n  TEMPO 2812/2815 BKN007 \n  BECMG 2815/2818 OVC005 \n  TEMPO 2815/2818 3000 RADZ OVC002 \n  BECMG 2818/2821 4000 -SN OVC002 \n  TEMPO 2820/2909 1200 SN OVC001"
    },
    {
      "icao": "EHEH",
      "iata": "EIN",
      "name": "Eindhoven Airport",
      "lat": 51.4500999451,
      "lon": 5.37452983856,
      "updatedAt": null,
      "visibility_m": null,
      "taf_visibility_m": 1800,
      "worst_visibility_m": 1800,
      "ceiling_ft": 200,
      "hazards": [
        "BR",
        "SN",
        "RA"
      ],
      "severityScore": 75,
      "metarRaw": null,
      "tafRaw": "TAF EHEH 281143Z 2812/2918 05004KT 3000 BR BKN005 OVC006 \n  TEMPO 2812/2814 1800 BKN002 OVC003 \n  BECMG 2814/2816 6000 NSW \n  TEMPO 2822/2910 2000 -SN -RASN BKN003 OVC005"
    },
    {
      "icao": "LGTS",
      "iata": "SKG",
      "name": "Thessaloniki Macedonia International Airport",
      "lat": 40.51928,
      "lon": 22.970009,
      "updatedAt": "281650Z",
      "visibility_m": 10000,
      "taf_visibility_m": 3000,
      "worst_visibility_m": 3000,
      "ceiling_ft": 2000,
      "hazards": [
        "TS",
        "BR",
        "TSRA",
        "RA"
      ],
      "severityScore": 72,
      "metarRaw": "METAR LGTS 281650Z 15003KT 9999 FEW030 12/05 Q1005 NOSIG",
      "tafRaw": "TAF LGTS 281700Z 2818/2918 34008KT 9999 FEW010 BKN025 \n  PROB40 \n  TEMPO 2818/2821 5000 RA \n  PROB40 2822/2902 3000 BR SCT008 SCT025 \n  TEMPO 2903/2918 5000 RA \n  PROB30 \n  TEMPO 2910/2914 3000 TSRA FEW008 FEW018CB BKN020"
    },
    {
      "icao": "LZIB",
      "iata": "BTS",
      "name": "M. R. Štefánik Airport",
      "lat": 48.1702,
      "lon": 17.2127,
      "updatedAt": "281700Z",
      "visibility_m": 10000,
      "taf_visibility_m": 1400,
      "worst_visibility_m": 1400,
      "ceiling_ft": 1000,
      "hazards": [
        "BR",
        "RA",
        "DZ",
        "SN"
      ],
      "severityScore": 72,
      "metarRaw": "METAR LZIB 281700Z 04011KT 9999 FEW010 SCT020 BKN034 03/01 Q0994 TEMPO BKN010",
      "tafRaw": "TAF LZIB 281715Z 2818/2918 06009KT 9999 BKN014 OVC030 \n  TEMPO 2818/2820 4000 -DZ BR SCT009 BKN014 \n  BECMG 2822/2900 2500 -RA BR BKN009 OVC014 \n  TEMPO 2903/2918 1400 -RASN BR BKN004 OVC009 \n  BECMG 2910/2912 30005KT"
    },
    {
      "icao": "LIPX",
      "iata": "VRN",
      "name": "Verona Villafranca Valerio Catullo Airport",
      "lat": 45.394955,
      "lon": 10.887303,
      "updatedAt": "281650Z",
      "visibility_m": 9000,
      "taf_visibility_m": 800,
      "worst_visibility_m": 800,
      "ceiling_ft": 2500,
      "hazards": [
        "RA",
        "FG",
        "BR"
      ],
      "severityScore": 67,
      "metarRaw": "METAR LIPX 281650Z VRB02KT 9000 -RA OVC025 07/06 Q0990",
      "tafRaw": "TAF LIPX 281700Z 2818/2918 24006KT 3000 BR BKN014 \n  TEMPO 2821/2907 0800 FG BKN008 \n  BECMG 2907/2909 6000 SCT020"
    },
    {
      "icao": "OJAI",
      "iata": "AMM",
      "name": "Queen Alia International Airport",
      "lat": 31.7226009369,
      "lon": 35.9931983948,
      "updatedAt": "281700Z",
      "visibility_m": 4000,
      "taf_visibility_m": 600,
      "worst_visibility_m": 600,
      "ceiling_ft": 3000,
      "hazards": [
        "FG",
        "BR",
        "RA"
      ],
      "severityScore": 67,
      "metarRaw": "METAR OJAI 281700Z 26010KT 4000 HZ SCT030 09/05 Q1018 NOSIG",
      "tafRaw": "TAF OJAI 281700Z 2818/2924 24014KT 3000 BR SCT025TCU BKN030 \n  TEMPO 2818/2910 27018KT 2000 RA BR \n  PROB40 2900/2907 0600 FG \n  BECMG 2912/2914 5000 HZ FEW025TCU SCT030"
    },
    {
      "icao": "LRCL",
      "iata": "CLJ",
      "name": "Cluj Avram Iancu International Airport",
      "lat": 46.787425,
      "lon": 23.684292,
      "updatedAt": "281700Z",
      "visibility_m": 7000,
      "taf_visibility_m": 350,
      "worst_visibility_m": 350,
      "ceiling_ft": 5000,
      "hazards": [
        "FG",
        "BR"
      ],
      "severityScore": 65,
      "metarRaw": "METAR LRCL 281700Z AUTO 05002KT 7000 FEW004 BKN050 01/01 Q0999",
      "tafRaw": "TAF LRCL 281400Z 2815/2824 08005KT 9999 OVC005 \n  BECMG 2815/2817 3000 BR OVC002 \n  BECMG 2817/2819 0600 FG OVC001 \n  TEMPO 2819/2824 0350 FG"
    },
    {
      "icao": "LIPZ",
      "iata": "VCE",
      "name": "Venice Marco Polo Airport",
      "lat": 45.505299,
      "lon": 12.3519,
      "updatedAt": "281650Z",
      "visibility_m": 8000,
      "taf_visibility_m": 1200,
      "worst_visibility_m": 1200,
      "ceiling_ft": 1500,
      "hazards": [
        "RA",
        "BR",
        "FG"
      ],
      "severityScore": 64,
      "metarRaw": "METAR LIPZ 281650Z 23003KT 8000 -RA BKN015 08/08 Q0989 NOSIG",
      "tafRaw": "TAF LIPZ 281700Z 2818/2924 22007KT 6000 BKN010 \n  TEMPO 2818/2909 1200 BCFG BKN004 \n  BECMG 2917/2919 3000 BR SCT010"
    },
    {
      "icao": "EPGD",
      "iata": "GDN",
      "name": "Gdańsk Lech Wałęsa Airport",
      "lat": 54.377602,
      "lon": 18.4662,
      "updatedAt": "281700Z",
      "visibility_m": 9000,
      "taf_visibility_m": 3000,
      "worst_visibility_m": 3000,
      "ceiling_ft": 400,
      "hazards": [
        "BR",
        "SN"
      ],
      "severityScore": 63,
      "metarRaw": "METAR EPGD 281700Z 03009KT 9000 OVC004 M03/M04 Q1003",
      "tafRaw": "TAF EPGD 281130Z 2812/2912 05008KT 9999 BKN007 \n  TEMPO 2812/2912 3000 -SN BR BKN004 \n  PROB40 \n  TEMPO 2812/2818 BKN012 \n  PROB40 \n  TEMPO 2908/2912 BKN012"
    },
    {
      "icao": "EYVI",
      "iata": "VNO",
      "name": "Vilnius International Airport",
      "lat": 54.634102,
      "lon": 25.285801,
      "updatedAt": "281720Z",
      "visibility_m": 10000,
      "taf_visibility_m": 1500,
      "worst_visibility_m": 1500,
      "ceiling_ft": 800,
      "hazards": [
        "SN",
        "BR"
      ],
      "severityScore": 63,
      "metarRaw": "METAR EYVI 281720Z 04009KT 9999 -SN BKN008 OVC031 M07/M08 Q1002 NOSIG",
      "tafRaw": "TAF EYVI 281702Z 2818/2918 04010KT 5000 SN BR SCT005 OVC020 \n  TEMPO 2818/2820 1500 BKN005 \n  BECMG 2820/2821 8000 NSW \n  TEMPO 2821/2906 5000 SN BKN005 \n  BECMG 2907/2910 BKN020"
    },
    {
      "icao": "EDDK",
      "iata": "CGN",
      "name": "Cologne Bonn Airport",
      "lat": 50.865898,
      "lon": 7.14274,
      "updatedAt": "281650Z",
      "visibility_m": 2500,
      "taf_visibility_m": null,
      "worst_visibility_m": 2500,
      "ceiling_ft": 400,
      "hazards": [
        "RA",
        "DZ"
      ],
      "severityScore": 62,
      "metarRaw": "METAR EDDK 281650Z AUTO 35005KT 9999 -RA BKN007 BKN011 OVC016 04/03 Q0994 TEMPO 2500 RADZ BKN004",
      "tafRaw": null
    },
    {
      "icao": "EPRA",
      "iata": "RDO",
      "name": "Warsaw Radom Airport",
      "lat": 51.38937,
      "lon": 21.214742,
      "updatedAt": "281700Z",
      "visibility_m": 3000,
      "taf_visibility_m": null,
      "worst_visibility_m": 3000,
      "ceiling_ft": 300,
      "hazards": [
        "BR",
        "RA"
      ],
      "severityScore": 62,
      "metarRaw": "METAR EPRA 281700Z 02003KT 3000 BR OVC003 M00/M01 Q1000",
      "tafRaw": null
    },
    {
      "icao": "LEVC",
      "iata": "VLC",
      "name": "Valencia Airport",
      "lat": 39.4893,
      "lon": -0.481625,
      "updatedAt": "281700Z",
      "visibility_m": 10000,
      "taf_visibility_m": 3000,
      "worst_visibility_m": 3000,
      "ceiling_ft": 2500,
      "hazards": [
        "TSRA",
        "RA",
        "TS"
      ],
      "severityScore": 62,
      "metarRaw": "METAR LEVC 281700Z 27018KT 250V310 9999 FEW030 12/03 Q1000 NOSIG",
      "tafRaw": "TAF LEVC 281100Z 2812/2912 15005KT 9999 FEW030 TX17/2814Z TN09/2907Z \n  TEMPO 2812/2814 4000 RA BKN025 \n  PROB30 \n  TEMPO 2812/2814 3000 TSRA FEW030CB \n  BECMG 2812/2815 28020KT \n  TEMPO 2813/2817 28025G43KT \n  TEMPO 2817/2824 27018G28KT \n  BECMG 2821/2824 28010KT \n  BECMG 2902/2905 20006KT"
    },
    {
      "icao": "LGAV",
      "iata": "ATH",
      "name": "Athens Eleftherios Venizelos International Airport",
      "lat": 37.936401,
      "lon": 23.9445,
      "updatedAt": "281650Z",
      "visibility_m": 10000,
      "taf_visibility_m": 4000,
      "worst_visibility_m": 4000,
      "ceiling_ft": 2000,
      "hazards": [
        "TSRA",
        "RA",
        "TS"
      ],
      "severityScore": 62,
      "metarRaw": "METAR LGAV 281650Z 21008KT 9999 FEW025 14/08 Q1008 NOSIG",
      "tafRaw": "TAF LGAV 281700Z 2818/2918 22010KT 9999 FEW018 SCT070 \n  TEMPO 2900/2912 20016G26KT \n  PROB40 \n  TEMPO 2900/2912 5000 RA FEW018TCU SCT018 BKN070 \n  PROB40 \n  TEMPO 2909/2912 4000 TSRA FEW016CB BKN020 OVC070"
    },
    {
      "icao": "LHBP",
      "iata": "BUD",
      "name": "Budapest Liszt Ferenc International Airport",
      "lat": 47.43018,
      "lon": 19.262393,
      "updatedAt": "281700Z",
      "visibility_m": 4500,
      "taf_visibility_m": null,
      "worst_visibility_m": 4500,
      "ceiling_ft": 400,
      "hazards": [
        "BR",
        "RA"
      ],
      "severityScore": 62,
      "metarRaw": "METAR LHBP 281700Z 07006KT 4500 -RA BR BKN004 OVC036 03/02 Q0997 NOSIG",
      "tafRaw": null
    },
    {
      "icao": "LLBG",
      "iata": "TLV",
      "name": "Ben Gurion International Airport",
      "lat": 32.011398,
      "lon": 34.8867,
      "updatedAt": "281720Z",
      "visibility_m": 7000,
      "taf_visibility_m": 4000,
      "worst_visibility_m": 4000,
      "ceiling_ft": 3000,
      "hazards": [
        "RA",
        "TSRA",
        "TS"
      ],
      "severityScore": 62,
      "metarRaw": "METAR LLBG 281720Z 12005KT 9999 SCT028 SCT032 15/12 Q1017 TEMPO 7000 RA FEW025TCU BKN030",
      "tafRaw": "TAF LLBG 281108Z 2812/2912 22017KT 8000 SCT035 \n  PROB40 \n  TEMPO 2812/2816 25020G30KT 4000 TSRA FEW025CB BKN030 \n  BECMG 2816/2818 18008KT 9999 SCT030 \n  PROB40 \n  TEMPO 2818/2906 21015G25KT 6000 RA FEW025TCU BKN030 \n  PROB40 \n  TEMPO 2906/2912 23012KT 8000 RA BKN030 TX16/2812Z TN11/2904Z"
    },
    {
      "icao": "LQSA",
      "iata": "SJJ",
      "name": "Sarajevo International Airport",
      "lat": 43.8246,
      "lon": 18.331499,
      "updatedAt": "281700Z",
      "visibility_m": 10000,
      "taf_visibility_m": 3000,
      "worst_visibility_m": 3000,
      "ceiling_ft": 800,
      "hazards": [
        "BR",
        "RA",
        "SHRA"
      ],
      "severityScore": 61,
      "metarRaw": "METAR LQSA 281700Z 17013KT 9999 SCT055 09/03 Q0993 TEMPO 15015G25KT",
      "tafRaw": "TAF LQSA 281700Z 2818/2918 15012KT 9999 SCT050 TX10/2914Z TN03/2905Z \n  TEMPO 2818/2823 16015G25KT SHRA FEW018 FEW030TCU BKN040 \n  BECMG 2823/2901 VRB02KT \n  PROB30 \n  TEMPO 2900/2907 3000 -RA BR BKN008 \n  PROB30 \n  TEMPO 2912/2918 SHRA FEW030 BKN040"
    },
    {
      "icao": "EDLW",
      "iata": "DTM",
      "name": "Dortmund Airport",
      "lat": 51.518299,
      "lon": 7.61224,
      "updatedAt": "281650Z",
      "visibility_m": 3400,
      "taf_visibility_m": null,
      "worst_visibility_m": 3400,
      "ceiling_ft": 400,
      "hazards": [
        "SN"
      ],
      "severityScore": 58,
      "metarRaw": "METAR EDLW 281650Z 01007KT 3400 -SN OVC004 00/M00 Q0995",
      "tafRaw": null
    },
    {
      "icao": "LIPQ",
      "iata": "TRS",
      "name": "Trieste–Friuli Venezia Giulia Airport",
      "lat": 45.827499,
      "lon": 13.4722,
      "updatedAt": "281650Z",
      "visibility_m": 9000,
      "taf_visibility_m": 2000,
      "worst_visibility_m": 2000,
      "ceiling_ft": 400,
      "hazards": [
        "RA",
        "BR"
      ],
      "severityScore": 57,
      "metarRaw": "METAR LIPQ 281650Z AUTO 13007KT 9000 RA OVC011/// 11/10 Q0989",
      "tafRaw": "TAF LIPQ 281700Z 2818/2918 12010KT 6000 RA OVC012 \n  BECMG 2900/2903 VRB05KT NSW \n  TEMPO 2903/2908 2000 BR OVC004"
    },
    {
      "icao": "EPLB",
      "iata": "LUZ",
      "name": "Lublin Airport",
      "lat": 51.240157,
      "lon": 22.713461,
      "updatedAt": "281700Z",
      "visibility_m": 2300,
      "taf_visibility_m": 1200,
      "worst_visibility_m": 1200,
      "ceiling_ft": 200,
      "hazards": [
        "BR"
      ],
      "severityScore": 55,
      "metarRaw": "METAR EPLB 281700Z 34004KT 2300 BR OVC002 00/M00 Q0999",
      "tafRaw": "TAF EPLB 281130Z 2812/2912 VRB02KT 6000 BKN010 \n  BECMG 2812/2814 4000 BR BKN007 \n  TEMPO 2813/2817 2000 BR BKN004 \n  TEMPO 2817/2903 1200 -SG BR BKN003 \n  BECMG 2900/2903 04010KT \n  BECMG 2905/2908 7000"
    },
    {
      "icao": "ENTC",
      "iata": "TOS",
      "name": "Tromsø Airport, Langnes",
      "lat": 69.683296,
      "lon": 18.9189,
      "updatedAt": "281650Z",
      "visibility_m": 10000,
      "taf_visibility_m": 2500,
      "worst_visibility_m": 2500,
      "ceiling_ft": 800,
      "hazards": [
        "SHSN",
        "SN"
      ],
      "severityScore": 53,
      "metarRaw": "METAR ENTC 281650Z VRB02KT 9999 BKN008 M07/M09 Q1015 TEMPO BKN012 RMK WIND 2600FT 05006KT",
      "tafRaw": "TAF ENTC 281100Z 2812/2912 22015KT 9999 FEW010 SCT015 \n  BECMG 2812/2814 22005KT \n  TEMPO 2812/2815 FEW030CB \n  PROB40 \n  TEMPO 2812/2815 3500 -SHSN VV010 \n  PROB40 \n  TEMPO 2821/2912 2500 -SHSN BKN014 FEW020CB"
    },
    {
      "icao": "EPWA",
      "iata": "WAW",
      "name": "Warsaw Chopin Airport",
      "lat": 52.165699,
      "lon": 20.9671,
      "updatedAt": "281700Z",
      "visibility_m": 9000,
      "taf_visibility_m": 4000,
      "worst_visibility_m": 4000,
      "ceiling_ft": 800,
      "hazards": [
        "BR",
        "SN"
      ],
      "severityScore": 53,
      "metarRaw": "METAR EPWA 281700Z 02006KT 330V050 9000 BKN008 01/M01 Q1000 NOSIG",
      "tafRaw": "TAF EPWA 281430Z 2815/2915 35008KT 6000 BKN010 \n  PROB40 2815/2818 4500 BR BKN009 \n  BECMG 2816/2819 BKN020 \n  TEMPO 2819/2906 4000 -SN BR BKN007 BKN012 \n  BECMG 2907/2910 05010KT"
    },
    {
      "icao": "LKMT",
      "iata": "OSR",
      "name": "Leoš Janáček Airport Ostrava",
      "lat": 49.696301,
      "lon": 18.111099,
      "updatedAt": "281700Z",
      "visibility_m": 3500,
      "taf_visibility_m": 2000,
      "worst_visibility_m": 2000,
      "ceiling_ft": 1600,
      "hazards": [
        "BR",
        "SN",
        "RA"
      ],
      "severityScore": 52,
      "metarRaw": "METAR LKMT 281700Z 02007KT 3500 BR OVC016 01/00 Q0997 NOSIG",
      "tafRaw": "TAF LKMT 281700Z 2818/2918 03009KT 4000 BR SCT008 BKN016 \n  TEMPO 2818/2820 6000 BKN030 \n  BECMG 2901/2903 -SNRA BKN006 OVC014 \n  PROB40 \n  TEMPO 2903/2908 2000 SNRA BR OVC004"
    },
    {
      "icao": "LCLK",
      "iata": "LCA",
      "name": "Larnaca International Airport",
      "lat": 34.875099,
      "lon": 33.624901,
      "updatedAt": "281700Z",
      "visibility_m": 10000,
      "taf_visibility_m": 4000,
      "worst_visibility_m": 4000,
      "ceiling_ft": null,
      "hazards": [
        "TS",
        "SHRA",
        "RA"
      ],
      "severityScore": 51,
      "metarRaw": "METAR LCLK 281700Z 29003KT 9999 FEW025 SCT050 13/12 Q1013 NOSIG",
      "tafRaw": "TAF LCLK 281130Z 2812/2912 20010KT 8000 FEW020 SCT040 \n  PROB40 2812/2818 5000 DU \n  PROB30 \n  TEMPO 2812/2815 4000 SHRA TS SCT025TCU FEW030CB \n  BECMG 2816/2818 32006KT \n  BECMG 2908/2910 20012KT"
    },
    {
      "icao": "EDNY",
      "iata": "FDH",
      "name": "Bodensee Airport Friedrichshafen",
      "lat": 47.671299,
      "lon": 9.51149,
      "updatedAt": "281650Z",
      "visibility_m": 5000,
      "taf_visibility_m": 1000,
      "worst_visibility_m": 1000,
      "ceiling_ft": 2500,
      "hazards": [
        "BR",
        "SN",
        "RA"
      ],
      "severityScore": 50,
      "metarRaw": "METAR EDNY 281650Z VRB01KT 5000 BR FEW015 OVC025 02/01 Q0991",
      "tafRaw": "TAF EDNY 281400Z 2815/2824 VRB03KT 7000 SCT010 BKN015 \n  BECMG 2815/2818 4000 -SNRA BKN007 \n  PROB40 \n  TEMPO 2818/2821 1000 SN OVC003 \n  BECMG 2819/2821 27005KT \n  PROB40 \n  TEMPO 2821/2824 OVC003"
    },
    {
      "icao": "LKPR",
      "iata": "PRG",
      "name": "Václav Havel Airport Prague",
      "lat": 50.100874,
      "lon": 14.259911,
      "updatedAt": "281700Z",
      "visibility_m": 7000,
      "taf_visibility_m": 1000,
      "worst_visibility_m": 1000,
      "ceiling_ft": 1500,
      "hazards": [
        "BR",
        "SN"
      ],
      "severityScore": 50,
      "metarRaw": "METAR LKPR 281700Z 07009KT 7000 SCT011 OVC015 00/M01 Q0995 NOSIG",
      "tafRaw": "TAF LKPR 281700Z 2818/2924 06008KT 6000 BKN012 \n  TEMPO 2818/2902 4000 BR BKN008 \n  BECMG 2903/2905 5000 -SN BR BKN008 \n  TEMPO 2905/2924 2500 -SN BR OVC004 \n  PROB30 \n  TEMPO 2905/2924 1000 -SN BR OVC002"
    },
    {
      "icao": "LZTT",
      "iata": "TAT",
      "name": "Poprad-Tatry Airport",
      "lat": 49.073601,
      "lon": 20.2411,
      "updatedAt": "281700Z",
      "visibility_m": 2500,
      "taf_visibility_m": 1400,
      "worst_visibility_m": 1400,
      "ceiling_ft": 1400,
      "hazards": [
        "SN",
        "BR"
      ],
      "severityScore": 50,
      "metarRaw": "METAR LZTT 281700Z VRB02KT 9999 FEW011 BKN020 01/M01 Q0995 BECMG 2500 -SN BKN014",
      "tafRaw": "TAF LZTT 281715Z 2818/2918 07005KT 9999 SCT009 BKN025 \n  TEMPO 2818/2918 2500 -SN BR FEW005 OVC014 \n  PROB40 \n  TEMPO 2906/2918 09003KT 1400 SN BR BKN004 OVC009"
    },
    {
      "icao": "EGPD",
      "iata": "ABZ",
      "name": "Aberdeen International Airport",
      "lat": 57.2019,
      "lon": -2.19778,
      "updatedAt": "281650Z",
      "visibility_m": 4000,
      "taf_visibility_m": 6000,
      "worst_visibility_m": 4000,
      "ceiling_ft": 500,
      "hazards": [
        "RA",
        "DZ"
      ],
      "severityScore": 47,
      "metarRaw": "METAR EGPD 281650Z 13010KT 080V150 4000 RA BKN005 06/05 Q0997 TEMPO 6000 -RA BKN008",
      "tafRaw": "TAF EGPD 281658Z 2818/2918 13011KT 9999 BKN010 \n  TEMPO 2818/2821 6000 -RADZ BKN008 \n  BECMG 2821/2824 BKN018 \n  PROB40 \n  TEMPO 2821/2918 6000 -RA \n  TEMPO 2900/2912 BKN014 \n  PROB30 \n  TEMPO 2906/2918 14015G25KT"
    },
    {
      "icao": "LHDC",
      "iata": "DEB",
      "name": "Debrecen International Airport",
      "lat": 47.488899,
      "lon": 21.615299,
      "updatedAt": "281645Z",
      "visibility_m": 10000,
      "taf_visibility_m": 4000,
      "worst_visibility_m": 4000,
      "ceiling_ft": 800,
      "hazards": [
        "BR",
        "RA"
      ],
      "severityScore": 47,
      "metarRaw": "METAR LHDC 281645Z AUTO 07009KT CAVOK 04/03 Q0998 NOSIG",
      "tafRaw": "TAF LHDC 281415Z 2815/2824 13006KT 9999 BKN045 OVC080 \n  BECMG 2815/2816 07008KT \n  TEMPO 2815/2824 4000 RA BR BKN008 OVC030"
    },
    {
      "icao": "EFTU",
      "iata": "TKU",
      "name": "Turku Airport",
      "lat": 60.514099,
      "lon": 22.2628,
      "updatedAt": "281720Z",
      "visibility_m": 10000,
      "taf_visibility_m": null,
      "worst_visibility_m": 10000,
      "ceiling_ft": 1000,
      "hazards": [
        "SHSN",
        "SN"
      ],
      "severityScore": 45,
      "metarRaw": "METAR EFTU 281720Z AUTO 09009KT 9999 -SHSN OVC010 M11/M13 Q1017",
      "tafRaw": null
    },
    {
      "icao": "EGGP",
      "iata": "LPL",
      "name": "Liverpool John Lennon Airport",
      "lat": 53.334863,
      "lon": -2.849637,
      "updatedAt": "281650Z",
      "visibility_m": 10000,
      "taf_visibility_m": 4000,
      "worst_visibility_m": 4000,
      "ceiling_ft": 400,
      "hazards": [
        "BR"
      ],
      "severityScore": 45,
      "metarRaw": "METAR EGGP 281650Z 10005KT 9999 FEW036 06/03 Q0994",
      "tafRaw": "TAF EGGP 281657Z 2818/2918 11005KT 9999 FEW035 \n  TEMPO 2818/2901 7000 \n  PROB30 \n  TEMPO 2821/2901 4000 BR \n  TEMPO 2901/2911 7000 BKN008 \n  PROB30 \n  TEMPO 2901/2910 4000 BR BKN004 \n  PROB40 \n  TEMPO 2912/2918 12015G25KT"
    },
    {
      "icao": "LIME",
      "iata": "BGY",
      "name": "Milan Bergamo Airport / Antonio Locatelli Air Base",
      "lat": 45.670725,
      "lon": 9.709223,
      "updatedAt": "281650Z",
      "visibility_m": 6000,
      "taf_visibility_m": 2000,
      "worst_visibility_m": 2000,
      "ceiling_ft": 2200,
      "hazards": [
        "RA",
        "BR",
        "FG"
      ],
      "severityScore": 42,
      "metarRaw": "METAR LIME 281650Z 22005KT 6000 -RA SCT010 BKN022 06/05 Q0990 NOSIG",
      "tafRaw": "TAF LIME 281700Z 2818/2918 VRB04KT 6000 SCT010 BKN025 \n  TEMPO 2818/2823 3000 BR \n  TEMPO 2823/2907 2000 BCFG BKN008"
    },
    {
      "icao": "EDDN",
      "iata": "NUE",
      "name": "Nuremberg Airport",
      "lat": 49.498699,
      "lon": 11.078056,
      "updatedAt": "281650Z",
      "visibility_m": 10000,
      "taf_visibility_m": 1200,
      "worst_visibility_m": 1200,
      "ceiling_ft": 1000,
      "hazards": [
        "SN"
      ],
      "severityScore": 40,
      "metarRaw": "METAR EDDN 281650Z AUTO 04006KT 360V070 CAVOK 03/M00 Q0991 BECMG BKN010",
      "tafRaw": "TAF EDDN 281100Z 2812/2912 05005KT CAVOK \n  TEMPO 2817/2902 BKN012 \n  BECMG 2820/2824 VRB02KT \n  BECMG 2902/2904 3000 -SN OVC007 \n  TEMPO 2903/2909 1200 SN \n  TEMPO 2903/2912 OVC004"
    },
    {
      "icao": "EDJA",
      "iata": "FMM",
      "name": "Memmingen Allgau Airport",
      "lat": 47.988092,
      "lon": 10.238248,
      "updatedAt": "281650Z",
      "visibility_m": 7000,
      "taf_visibility_m": 1000,
      "worst_visibility_m": 1000,
      "ceiling_ft": 1200,
      "hazards": [
        "SN"
      ],
      "severityScore": 40,
      "metarRaw": "METAR EDJA 281650Z 22001KT 7000 SCT008 OVC012 00/M01 Q0990",
      "tafRaw": "TAF EDJA 281400Z 2815/2824 29004KT 9000 SCT005 OVC010 \n  TEMPO 2815/2817 BKN005 \n  BECMG 2817/2819 3000 -SN OVC003 \n  TEMPO 2820/2824 1000 SN OVC001"
    },
    {
      "icao": "EPKT",
      "iata": "KTW",
      "name": "Katowice Wojciech Korfanty International Airport",
      "lat": 50.476015,
      "lon": 19.080705,
      "updatedAt": "281700Z",
      "visibility_m": 5000,
      "taf_visibility_m": null,
      "worst_visibility_m": 5000,
      "ceiling_ft": 500,
      "hazards": [
        "BR"
      ],
      "severityScore": 40,
      "metarRaw": "METAR EPKT 281700Z 05008KT 5000 BR BKN005 00/M01 Q0998",
      "tafRaw": null
    },
    {
      "icao": "EYKA",
      "iata": "KUN",
      "name": "Kaunas International Airport",
      "lat": 54.963965,
      "lon": 24.08582,
      "updatedAt": "281720Z",
      "visibility_m": 10000,
      "taf_visibility_m": 5000,
      "worst_visibility_m": 5000,
      "ceiling_ft": 1500,
      "hazards": [
        "SN",
        "BR"
      ],
      "severityScore": 40,
      "metarRaw": "METAR EYKA 281720Z 03008KT 340V060 9999 -SN OVC015 M08/M10 Q1004",
      "tafRaw": "TAF EYKA 281702Z 2818/2918 03009KT 8000 OVC015 \n  TEMPO 2818/2904 5000 SN BR BKN010 \n  BECMG 2911/2913 SCT020"
    },
    {
      "icao": "EDSB",
      "iata": "FKB",
      "name": "Karlsruhe Baden-Baden Airport",
      "lat": 48.7794,
      "lon": 8.0805,
      "updatedAt": "281650Z",
      "visibility_m": 5000,
      "taf_visibility_m": null,
      "worst_visibility_m": 5000,
      "ceiling_ft": 1700,
      "hazards": [
        "BR",
        "RA"
      ],
      "severityScore": 39,
      "metarRaw": "METAR EDSB 281650Z 02005KT 5000 RA BR SCT006 OVC017 04/03 Q0992",
      "tafRaw": null
    },
    {
      "icao": "LEBL",
      "iata": "BCN",
      "name": "Josep Tarradellas Barcelona-El Prat Airport",
      "lat": 41.2971,
      "lon": 2.07846,
      "updatedAt": "281700Z",
      "visibility_m": 10000,
      "taf_visibility_m": 3000,
      "worst_visibility_m": 3000,
      "ceiling_ft": 1400,
      "hazards": [
        "RA",
        "SHRA"
      ],
      "severityScore": 38,
      "metarRaw": "METAR LEBL 281700Z COR 31022G33KT 280V340 9999 FEW030 10/01 Q0994 NOSIG",
      "tafRaw": "TAF LEBL 281100Z 2812/2912 23008KT 9999 FEW020 TX11/2812Z TN07/2906Z \n  TEMPO 2812/2818 3000 RA SHRA BKN014 FEW020TCU \n  BECMG 2813/2815 33010KT \n  TEMPO 2820/2824 31020G30KT \n  TEMPO 2823/2903 27007KT \n  BECMG 2823/2901 VRB04KT"
    },
    {
      "icao": "LTAC",
      "iata": "ESB",
      "name": "Esenboğa International Airport",
      "lat": 40.128101,
      "lon": 32.995098,
      "updatedAt": "281650Z",
      "visibility_m": 10000,
      "taf_visibility_m": 2000,
      "worst_visibility_m": 2000,
      "ceiling_ft": 8000,
      "hazards": [
        "BR",
        "SHRA",
        "RA"
      ],
      "severityScore": 36,
      "metarRaw": "METAR LTAC 281650Z VRB02KT 9999 SCT030 BKN080 05/03 Q1010 NOSIG RMK RWY21C 00000KT RWY03L 00000KT RWY21R VRB01KT RWY03R 00000KT RWY21L 00000KT",
      "tafRaw": "TAF LTAC 281640Z 2818/2918 VRB02KT 9999 SCT040 BKN100 \n  PROB30 2902/2906 2000 BR \n  TEMPO 2913/2917 20020G30KT -SHRA FEW025CB BKN030 BKN080"
    },
    {
      "icao": "EPSY",
      "iata": "SZY",
      "name": "Olsztyn-Mazury Airport",
      "lat": 53.481899,
      "lon": 20.9377,
      "updatedAt": "281700Z",
      "visibility_m": 6000,
      "taf_visibility_m": 5000,
      "worst_visibility_m": 5000,
      "ceiling_ft": 500,
      "hazards": [
        "BR"
      ],
      "severityScore": 35,
      "metarRaw": "METAR EPSY 281700Z 01008KT 6000 OVC005 M05/M05 Q1001",
      "tafRaw": "TAF EPSY 281430Z 2815/2824 02008KT 5000 BR OVC005 \n  PROB30 \n  TEMPO 2815/2824 6000 BKN010"
    },
    {
      "icao": "LIPR",
      "iata": "RMI",
      "name": "Federico Fellini International Airport",
      "lat": 44.020024,
      "lon": 12.612198,
      "updatedAt": "281650Z",
      "visibility_m": 10000,
      "taf_visibility_m": 2000,
      "worst_visibility_m": 2000,
      "ceiling_ft": 500,
      "hazards": [
        "BR"
      ],
      "severityScore": 35,
      "metarRaw": "METAR LIPR 281650Z AUTO 25005KT 9999 BKN100/// 10/07 Q0989",
      "tafRaw": "TAF LIPR 281700Z 2818/2918 21007KT 8000 SCT040 \n  TEMPO 2905/2910 2000 BR BKN005"
    },
    {
      "icao": "OMAA",
      "iata": "AUH",
      "name": "Zayed International Airport",
      "lat": 24.440966,
      "lon": 54.649237,
      "updatedAt": "281700Z",
      "visibility_m": 10000,
      "taf_visibility_m": 3000,
      "worst_visibility_m": 3000,
      "ceiling_ft": 700,
      "hazards": [
        "BR"
      ],
      "severityScore": 35,
      "metarRaw": "METAR OMAA 281700Z 05006KT 360V070 CAVOK 20/14 Q1019 NOSIG",
      "tafRaw": "TAF OMAA 281700Z 2818/3000 07005KT 8000 NSC \n  PROB30 2900/2905 3000 BR BKN007 \n  BECMG 2905/2907 16010KT \n  BECMG 2908/2909 25006KT \n  BECMG 2911/2913 31010KT \n  BECMG 2917/2919 VRB02KT"
    },
    {
      "icao": "LRTR",
      "iata": "TSR",
      "name": "Timişoara Traian Vuia Airport",
      "lat": 45.809898,
      "lon": 21.3379,
      "updatedAt": "281700Z",
      "visibility_m": 10000,
      "taf_visibility_m": 5000,
      "worst_visibility_m": 5000,
      "ceiling_ft": 1500,
      "hazards": [
        "BR",
        "RA"
      ],
      "severityScore": 34,
      "metarRaw": "METAR LRTR 281700Z 10005KT CAVOK 07/04 Q0997 NOSIG",
      "tafRaw": "TAF LRTR 281100Z 2812/2912 11010KT CAVOK \n  TEMPO 2900/2906 5000 -RA BR BKN015 BKN040 \n  BECMG 2909/2911 18006KT"
    },
    {
      "icao": "LEZG",
      "iata": "ZAZ",
      "name": "Zaragoza Airport",
      "lat": 41.666199,
      "lon": -1.04155,
      "updatedAt": "281700Z",
      "visibility_m": 10000,
      "taf_visibility_m": 1500,
      "worst_visibility_m": 1500,
      "ceiling_ft": 8000,
      "hazards": [
        "BR",
        "RA"
      ],
      "severityScore": 32,
      "metarRaw": "METAR LEZG 281700Z 35002KT 9999 SCT040 BKN080 07/06 Q0999 NOSIG",
      "tafRaw": "TAF LEZG 281100Z 2812/2912 09009KT 9999 FEW040 TX08/2813Z TN06/2900Z \n  TEMPO 2812/2818 3000 RA BR BKN010 \n  PROB30 \n  TEMPO 2812/2816 1500 +RA BKN005 \n  BECMG 2813/2816 27006KT \n  PROB40 \n  TEMPO 2818/2903 3000 BR BKN008 \n  TEMPO 2820/2904 25010KT \n  PROB40 \n  TEMPO 2903/2906 4000 RA BKN040"
    },
    {
      "icao": "LPFR",
      "iata": "FAO",
      "name": "Faro - Gago Coutinho International Airport",
      "lat": 37.015909,
      "lon": -7.970939,
      "updatedAt": "281700Z",
      "visibility_m": 2500,
      "taf_visibility_m": 2000,
      "worst_visibility_m": 2000,
      "ceiling_ft": 3000,
      "hazards": [
        "BR",
        "RA",
        "DZ"
      ],
      "severityScore": 32,
      "metarRaw": "METAR LPFR 281700Z 26015KT 2500 -RA BR SCT012 BKN030 14/14 Q1009",
      "tafRaw": "TAF LPFR 281700Z 2818/2918 26015KT 8000 SCT012 BKN030 \n  BECMG 2818/2820 SCT008 BKN018 \n  TEMPO 2818/2918 26020G30KT 2000 RADZ BR SCT004 BKN008"
    },
    {
      "icao": "UDYZ",
      "iata": "EVN",
      "name": "Zvartnots International Airport",
      "lat": 40.148941,
      "lon": 44.397887,
      "updatedAt": "281700Z",
      "visibility_m": 3800,
      "taf_visibility_m": 1000,
      "worst_visibility_m": 1000,
      "ceiling_ft": 1100,
      "hazards": [
        "BR"
      ],
      "severityScore": 32,
      "metarRaw": "METAR UDYZ 281700Z 20003KT 160V230 3800 BR BKN011 M04/M06 Q1018 NOSIG",
      "tafRaw": "TAF UDYZ 281700Z 2818/2918 VRB04KT 3000 BR BKN010 \n  TEMPO 2900/2906 1000 BR BKN005"
    },
    {
      "icao": "EDDB",
      "iata": "BER",
      "name": "Berlin Brandenburg Willy Brandt Airport",
      "lat": 52.361738,
      "lon": 13.502341,
      "updatedAt": "281650Z",
      "visibility_m": 10000,
      "taf_visibility_m": null,
      "worst_visibility_m": 10000,
      "ceiling_ft": 900,
      "hazards": [],
      "severityScore": 30,
      "metarRaw": "METAR EDDB 281650Z AUTO 08010KT 9999 OVC013 M01/M03 Q1001 TEMPO BKN009",
      "tafRaw": null
    },
    {
      "icao": "EETN",
      "iata": "TLL",
      "name": "Lennart Meri Tallinn Airport",
      "lat": 59.413246,
      "lon": 24.83264,
      "updatedAt": "281720Z",
      "visibility_m": 10000,
      "taf_visibility_m": 5000,
      "worst_visibility_m": 5000,
      "ceiling_ft": 1200,
      "hazards": [
        "SN"
      ],
      "severityScore": 30,
      "metarRaw": "METAR EETN 281720Z 08012KT 9999 OVC015 M07/M09 Q1014 TEMPO OVC012",
      "tafRaw": "TAF EETN 281130Z 2812/2912 07012KT 9999 OVC008 \n  TEMPO 2812/2821 BKN012 \n  PROB40 \n  TEMPO 2812/2819 5000 SN \n  TEMPO 2821/2906 BKN015 \n  BECMG 2906/2908 FEW010 BKN015"
    },
    {
      "icao": "EPSC",
      "iata": "SZZ",
      "name": "Solidarity Szczecin–Goleniów Airport",
      "lat": 53.584702,
      "lon": 14.9022,
      "updatedAt": "281700Z",
      "visibility_m": 6000,
      "taf_visibility_m": null,
      "worst_visibility_m": 6000,
      "ceiling_ft": 500,
      "hazards": [],
      "severityScore": 30,
      "metarRaw": "METAR EPSC 281700Z 04004KT 010V080 6000 FEW003 OVC005 M01/M01 Q1002",
      "tafRaw": null
    },
    {
      "icao": "LIMC",
      "iata": "MXP",
      "name": "Milan Malpensa International Airport",
      "lat": 45.6306,
      "lon": 8.72811,
      "updatedAt": "281650Z",
      "visibility_m": 7000,
      "taf_visibility_m": 2000,
      "worst_visibility_m": 2000,
      "ceiling_ft": 2000,
      "hazards": [
        "BR",
        "FG"
      ],
      "severityScore": 30,
      "metarRaw": "METAR LIMC 281650Z 32004KT 7000 FEW006 OVC020 05/05 Q0990 NOSIG",
      "tafRaw": "TAF LIMC 281700Z 2818/2924 VRB05KT 6000 BKN020 \n  TEMPO 2818/2820 2000 BR \n  TEMPO 2820/2907 2000 BCFG BKN004 \n  BECMG 2920/2922 2000 BR"
    },
    {
      "icao": "LCPH",
      "iata": "PFO",
      "name": "Paphos International Airport",
      "lat": 34.717999,
      "lon": 32.485699,
      "updatedAt": "281700Z",
      "visibility_m": 10000,
      "taf_visibility_m": 4000,
      "worst_visibility_m": 4000,
      "ceiling_ft": null,
      "hazards": [
        "SHRA",
        "RA"
      ],
      "severityScore": 26,
      "metarRaw": "METAR LCPH 281700Z 31017KT 250V320 9999 FEW030 SCT040 16/10 Q1013 NOSIG",
      "tafRaw": "TAF LCPH 281130Z 2812/2912 24006KT 5000 DU SCT030 SCT040 \n  PROB30 \n  TEMPO 2812/2818 4000 SHRA SCT025TCU FEW030CB \n  BECMG 2813/2816 29016KT 8000 \n  BECMG 2819/2821 33006KT \n  PROB30 \n  TEMPO 2908/2912 5000 SHRA \n  BECMG 2908/2910 20011KT"
    },
    {
      "icao": "LEBB",
      "iata": "BIO",
      "name": "Bilbao Airport",
      "lat": 43.301102,
      "lon": -2.91061,
      "updatedAt": "281700Z",
      "visibility_m": 3000,
      "taf_visibility_m": 3000,
      "worst_visibility_m": 3000,
      "ceiling_ft": null,
      "hazards": [
        "RA",
        "SHRA"
      ],
      "severityScore": 26,
      "metarRaw": "METAR LEBB 281700Z VRB02KT 9999 FEW045 SCT062 11/07 Q0997 TEMPO 3000 RA",
      "tafRaw": "TAF LEBB 281100Z 2812/2912 22009KT 9999 FEW030 TX10/2816Z TN08/2906Z \n  PROB30 \n  TEMPO 2812/2819 3000 SHRA SCT030TCU \n  PROB30 \n  TEMPO 2814/2817 32010KT \n  PROB40 \n  TEMPO 2821/2912 20015G25KT \n  PROB30 \n  TEMPO 2900/2907 3000 SHRA SCT035TCU"
    },
    {
      "icao": "LEXJ",
      "iata": "SDR",
      "name": "Seve Ballesteros-Santander Airport",
      "lat": 43.427101,
      "lon": -3.82001,
      "updatedAt": "281700Z",
      "visibility_m": 10000,
      "taf_visibility_m": 3000,
      "worst_visibility_m": 3000,
      "ceiling_ft": null,
      "hazards": [
        "SHRA",
        "RA"
      ],
      "severityScore": 26,
      "metarRaw": "METAR LEXJ 281700Z 23003KT 190V260 9999 SCT062 SCT080 12/05 Q0997",
      "tafRaw": "TAF LEXJ 281400Z 2815/2915 20009KT 9999 FEW040 TX16/2914Z TN09/2905Z \n  PROB40 2815/2816 27010KT \n  PROB30 \n  TEMPO 2815/2816 26015G25KT 3000 SHRA SCT030TCU \n  PROB30 \n  TEMPO 2821/2909 22015G25KT \n  PROB40 \n  TEMPO 2903/2909 3000 SHRA SCT030TCU"
    },
    {
      "icao": "LFBD",
      "iata": "BOD",
      "name": "Bordeaux–Mérignac Airport",
      "lat": 44.82865,
      "lon": -0.715356,
      "updatedAt": "281700Z",
      "visibility_m": 10000,
      "taf_visibility_m": 4000,
      "worst_visibility_m": 4000,
      "ceiling_ft": 2700,
      "hazards": [
        "SHRA",
        "RA"
      ],
      "severityScore": 26,
      "metarRaw": "METAR LFBD 281700Z AUTO 10004KT 9999 BKN027 09/06 Q0996 NOSIG",
      "tafRaw": "TAF LFBD 281100Z 2812/2918 VRB03KT 9999 BKN008 TX12/2815Z TN06/2906Z \n  BECMG 2812/2814 BKN015 \n  BECMG 2814/2816 BKN030 \n  BECMG 2816/2818 CAVOK \n  TEMPO 2819/2905 4000 SHRA FEW025CB BKN030TCU \n  TEMPO 2912/2918 24015G30KT 4000 SHRA BKN010 BKN030TCU"
    },
    {
      "icao": "LICA",
      "iata": "SUF",
      "name": "Lamezia Terme Sant'Eufemia International Airport",
      "lat": 38.906214,
      "lon": 16.246007,
      "updatedAt": "281650Z",
      "visibility_m": 10000,
      "taf_visibility_m": 4000,
      "worst_visibility_m": 4000,
      "ceiling_ft": null,
      "hazards": [
        "RA",
        "SHRA"
      ],
      "severityScore": 26,
      "metarRaw": "METAR LICA 281650Z AUTO 27016KT 9999 FEW036/// SCT077/// BKN180/// 15/10 Q1003",
      "tafRaw": "TAF LICA 281100Z 2812/2912 27016KT 9999 SCT040 \n  TEMPO 2812/2815 4000 RA \n  BECMG 2819/2821 VRB05KT \n  TEMPO 2900/2912 SHRA \n  BECMG 2905/2907 27024G38KT"
    },
    {
      "icao": "LICJ",
      "iata": "PMO",
      "name": "Falcone–Borsellino Airport",
      "lat": 38.175999,
      "lon": 13.091,
      "updatedAt": "281650Z",
      "visibility_m": 10000,
      "taf_visibility_m": 10000,
      "worst_visibility_m": 10000,
      "ceiling_ft": null,
      "hazards": [
        "SHRA",
        "RA"
      ],
      "severityScore": 26,
      "metarRaw": "METAR LICJ 281650Z 21017KT 9999 FEW065 14/08 Q1001",
      "tafRaw": "TAF LICJ 281100Z 2812/2912 23022G32KT 9999 SCT040 \n  BECMG 2815/2817 23016KT \n  BECMG 2819/2821 21022G35KT \n  TEMPO 2821/2904 SHRA \n  BECMG 2904/2906 29025G35KT"
    },
    {
      "icao": "LIRF",
      "iata": "FCO",
      "name": "Rome–Fiumicino Leonardo da Vinci International Airport",
      "lat": 41.804532,
      "lon": 12.251998,
      "updatedAt": "281650Z",
      "visibility_m": 9000,
      "taf_visibility_m": 10000,
      "worst_visibility_m": 9000,
      "ceiling_ft": 3500,
      "hazards": [
        "SHRA",
        "RA"
      ],
      "severityScore": 26,
      "metarRaw": "METAR LIRF 281650Z 25019KT 9000 BKN035 13/07 Q0995 NOSIG",
      "tafRaw": "TAF LIRF 281700Z 2818/2924 24016KT 9999 SCT030 \n  TEMPO 2818/2819 24016G26KT \n  BECMG 2821/2823 08007KT \n  TEMPO 2900/2907 SHRA \n  BECMG 2911/2913 30010KT \n  BECMG 2916/2918 VRB05KT"
    },
    {
      "icao": "LIRZ",
      "iata": "PEG",
      "name": "Perugia San Francesco d'Assisi – Umbria International Airport",
      "lat": 43.095901,
      "lon": 12.5132,
      "updatedAt": "281650Z",
      "visibility_m": 10000,
      "taf_visibility_m": 4000,
      "worst_visibility_m": 4000,
      "ceiling_ft": 2500,
      "hazards": [
        "RA",
        "SHRA"
      ],
      "severityScore": 26,
      "metarRaw": "METAR LIRZ 281650Z AUTO 15010KT 9999 -RA SCT017/// BKN028/// BKN078/// 07/06 Q0993",
      "tafRaw": "TAF LIRZ 281100Z 2812/2912 20016KT 7000 BKN025 \n  TEMPO 2812/2821 4000 SHRA \n  TEMPO 2900/2904 RA"
    },
    {
      "icao": "LTFM",
      "iata": "IST",
      "name": "İstanbul Airport",
      "lat": 41.261297,
      "lon": 28.741951,
      "updatedAt": "281650Z",
      "visibility_m": 10000,
      "taf_visibility_m": 3500,
      "worst_visibility_m": 3500,
      "ceiling_ft": 2500,
      "hazards": [
        "SHRA",
        "RA"
      ],
      "severityScore": 26,
      "metarRaw": "METAR LTFM 281650Z 20009KT 9999 FEW038 11/08 Q1007 NOSIG RMK RWY17L 18009KT 140V220 RWY34L 20010KT RWY16R 22008KT RWY36 20008KT RWY18 21012KT",
      "tafRaw": "TAF LTFM 281640Z 2818/2924 21014KT CAVOK \n  BECMG 2820/2823 20020G35KT \n  BECMG 2900/2903 SCT035 BKN100 \n  BECMG 2907/2910 -SHRA BKN032 BKN080 \n  BECMG 2911/2914 14017G28KT \n  TEMPO 2911/2915 3500 SHRA FEW022TCU BKN025 \n  BECMG 2919/2922 20020G35KT"
    },
    {
      "icao": "GCTS",
      "iata": "TFS",
      "name": "Tenerife Sur Airport",
      "lat": 28.0445,
      "lon": -16.5725,
      "updatedAt": "281700Z",
      "visibility_m": 10000,
      "taf_visibility_m": 10000,
      "worst_visibility_m": 10000,
      "ceiling_ft": 3000,
      "hazards": [
        "TS"
      ],
      "severityScore": 25,
      "metarRaw": "METAR GCTS 281700Z 16008KT 9999 BKN030 21/15 Q1022 NOSIG",
      "tafRaw": "TAF GCTS 281400Z 2815/2915 17007KT 9999 SCT030 TX23/2914Z TN16/2906Z \n  PROB30 \n  TEMPO 2815/2817 08010KT \n  PROB30 \n  TEMPO 2912/2915 24010KT"
    },
    {
      "icao": "HEMA",
      "iata": "RMF",
      "name": "Marsa Alam International Airport",
      "lat": 25.555548,
      "lon": 34.59245,
      "updatedAt": "281700Z",
      "visibility_m": 3000,
      "taf_visibility_m": 800,
      "worst_visibility_m": 800,
      "ceiling_ft": null,
      "hazards": [],
      "severityScore": 25,
      "metarRaw": "METAR HEMA 281700Z 00000KT 3000 DU NSC 19/03 Q1018 NOSIG",
      "tafRaw": "TAF HEMA 281100Z 2812/2918 36018KT 6000 NSC \n  TEMPO 2812/2818 4000 SA \n  TEMPO 2812/2815 2000 \n  PROB30 \n  TEMPO 2812/2814 0800 SS"
    },
    {
      "icao": "HESH",
      "iata": "SSH",
      "name": "Sharm El Sheikh International Airport",
      "lat": 27.977272,
      "lon": 34.394717,
      "updatedAt": "281700Z",
      "visibility_m": 6000,
      "taf_visibility_m": 800,
      "worst_visibility_m": 800,
      "ceiling_ft": null,
      "hazards": [],
      "severityScore": 25,
      "metarRaw": "METAR HESH 281700Z 28003KT 6000 NSC 19/02 Q1018 NOSIG",
      "tafRaw": "TAF HESH 281100Z 2812/2918 36012KT 6000 NSC \n  TEMPO 2812/2818 4000 SA \n  TEMPO 2812/2815 2000 \n  PROB30 \n  TEMPO 2812/2814 0800 SS"
    },
    {
      "icao": "BIKF",
      "iata": "KEF",
      "name": "Keflavik International Airport",
      "lat": 63.985001,
      "lon": -22.6056,
      "updatedAt": "281700Z",
      "visibility_m": 10000,
      "taf_visibility_m": 7000,
      "worst_visibility_m": 7000,
      "ceiling_ft": 1700,
      "hazards": [
        "RA"
      ],
      "severityScore": 24,
      "metarRaw": "METAR BIKF 281700Z 06019KT CAVOK 04/M05 Q0998",
      "tafRaw": "TAF BIKF 281647Z 2818/2918 05014KT 9999 FEW025 TX06/2918Z TN02/2904Z \n  TEMPO 2818/2821 07020G30KT \n  TEMPO 2915/2918 7000 RA BKN017 \n  BECMG 2916/2918 10013KT"
    },
    {
      "icao": "LBWN",
      "iata": "VAR",
      "name": "Varna Airport",
      "lat": 43.232101,
      "lon": 27.8251,
      "updatedAt": "281700Z",
      "visibility_m": 10000,
      "taf_visibility_m": 5000,
      "worst_visibility_m": 5000,
      "ceiling_ft": 1000,
      "hazards": [
        "RA"
      ],
      "severityScore": 24,
      "metarRaw": "METAR LBWN 281700Z AUTO 12007KT 9999 BKN043/// 06/06 Q1004 NOSIG",
      "tafRaw": "TAF LBWN 281700Z 2818/2918 12010KT 9999 SCT040 \n  BECMG 2818/2820 VRB04KT \n  PROB30 \n  TEMPO 2901/2905 5000 RA BKN015 OVC040 \n  BECMG 2910/2912 10010KT 5000 RA BKN010 OVC030"
    },
    {
      "icao": "LEZL",
      "iata": "SVQ",
      "name": "Sevilla Airport",
      "lat": 37.417999,
      "lon": -5.89311,
      "updatedAt": "281700Z",
      "visibility_m": 10000,
      "taf_visibility_m": 4000,
      "worst_visibility_m": 4000,
      "ceiling_ft": 1000,
      "hazards": [
        "RA"
      ],
      "severityScore": 24,
      "metarRaw": "METAR LEZL 281700Z 23013KT 9999 FEW045 17/14 Q1008 NOSIG",
      "tafRaw": "TAF LEZL 281400Z 2815/2915 24012KT 9999 SCT020 TX18/2915Z TN14/2907Z \n  PROB30 \n  TEMPO 2818/2824 4000 RA BKN014 \n  PROB40 \n  TEMPO 2900/2910 BKN010 \n  TEMPO 2904/2915 24016G28KT"
    },
    {
      "icao": "LFSB",
      "iata": "BSL",
      "name": "EuroAirport Basel–Mulhouse–Freiburg",
      "lat": 47.60068,
      "lon": 7.521117,
      "updatedAt": "281700Z",
      "visibility_m": 4000,
      "taf_visibility_m": 4000,
      "worst_visibility_m": 4000,
      "ceiling_ft": 1400,
      "hazards": [
        "RA"
      ],
      "severityScore": 24,
      "metarRaw": "METAR LFSB 281700Z AUTO 27003KT 9999 -RA BKN014 BKN019 OVC024 03/03 Q0992 TEMPO 4000 -RA",
      "tafRaw": "TAF LFSB 281700Z 2818/2918 26005KT 9999 OVC020 \n  TEMPO 2818/2903 4000 -RA BKN012 \n  TEMPO 2903/2908 5000 -RA"
    },
    {
      "icao": "LIRP",
      "iata": "PSA",
      "name": "Pisa International Airport",
      "lat": 43.683899,
      "lon": 10.3927,
      "updatedAt": "281645Z",
      "visibility_m": 10000,
      "taf_visibility_m": 6000,
      "worst_visibility_m": 6000,
      "ceiling_ft": 1500,
      "hazards": [
        "RA"
      ],
      "severityScore": 24,
      "metarRaw": "METAR LIRP 281645Z 22011KT 9999 -RA SCT020 SCT025 10/09 Q0992 NOSIG",
      "tafRaw": "TAF LIRP 281700Z 2818/2918 24010KT 9999 SCT020 SCT040 \n  TEMPO 2818/2824 6000 RA BKN015 \n  BECMG 2823/2901 11007KT \n  TEMPO 2903/2915 6000 RA BKN015"
    },
    {
      "icao": "EGPF",
      "iata": "GLA",
      "name": "Glasgow Airport",
      "lat": 55.871899,
      "lon": -4.43306,
      "updatedAt": "281650Z",
      "visibility_m": 10000,
      "taf_visibility_m": 4000,
      "worst_visibility_m": 4000,
      "ceiling_ft": 1400,
      "hazards": [
        "BR"
      ],
      "severityScore": 22,
      "metarRaw": "METAR EGPF 281650Z AUTO 07007KT 9999 NCD 06/03 Q0996",
      "tafRaw": "TAF EGPF 281658Z 2818/2918 09005KT 9999 SCT040 \n  PROB30 2818/2903 4000 BR \n  PROB30 \n  TEMPO 2903/2906 BKN014"
    },
    {
      "icao": "LATI",
      "iata": "TIA",
      "name": "Tirana International Airport Mother Teresa",
      "lat": 41.4147,
      "lon": 19.7206,
      "updatedAt": "281720Z",
      "visibility_m": 10000,
      "taf_visibility_m": 4000,
      "worst_visibility_m": 4000,
      "ceiling_ft": 6000,
      "hazards": [
        "RA",
        "BR"
      ],
      "severityScore": 22,
      "metarRaw": "METAR LATI 281720Z 16009KT 9999 RA SCT035 OVC060 11/08 Q1000 NOSIG",
      "tafRaw": "TAF LATI 281700Z 2818/2918 16012KT 9999 SCT030 BKN070 TX13/2912Z TN07/2905Z \n  TEMPO 2818/2822 RA \n  BECMG 2821/2822 VRB05KT \n  TEMPO 2915/2918 4000 RA BR FEW010 BKN025"
    },
    {
      "icao": "LIBR",
      "iata": "BDS",
      "name": "Brindisi Airport",
      "lat": 40.6576,
      "lon": 17.947001,
      "updatedAt": "281650Z",
      "visibility_m": 10000,
      "taf_visibility_m": 4000,
      "worst_visibility_m": 4000,
      "ceiling_ft": null,
      "hazards": [
        "BR",
        "RA"
      ],
      "severityScore": 22,
      "metarRaw": "METAR LIBR 281650Z 19008KT CAVOK 13/10 Q0998",
      "tafRaw": "TAF LIBR 281700Z 2818/2918 17012KT 9999 SCT030 \n  TEMPO 2907/2918 4000 RA \n  BECMG 2910/2912 20015KT"
    },
    {
      "icao": "LJLJ",
      "iata": "LJU",
      "name": "Ljubljana Jože Pučnik Airport",
      "lat": 46.223701,
      "lon": 14.4576,
      "updatedAt": "281700Z",
      "visibility_m": 6000,
      "taf_visibility_m": 3000,
      "worst_visibility_m": 3000,
      "ceiling_ft": 3000,
      "hazards": [
        "RA",
        "BR"
      ],
      "severityScore": 22,
      "metarRaw": "METAR LJLJ 281700Z 29004KT 280V350 6000 -RA FEW002 SCT010 BKN030 05/04 Q0991 NOSIG",
      "tafRaw": "TAF LJLJ 281700Z 2818/2918 29005KT 7000 -RA FEW002 SCT015 OVC030 \n  TEMPO 2818/2900 3000 RA BR SCT003 BKN013 OVC025 \n  BECMG 2902/2904 NSW \n  PROB40 \n  TEMPO 2904/2918 -RA"
    },
    {
      "icao": "LQTZ",
      "iata": "TZL",
      "name": "Tuzla International Airport",
      "lat": 44.459858,
      "lon": 18.723627,
      "updatedAt": "281700Z",
      "visibility_m": 10000,
      "taf_visibility_m": 2000,
      "worst_visibility_m": 2000,
      "ceiling_ft": 6500,
      "hazards": [
        "BR",
        "RA"
      ],
      "severityScore": 22,
      "metarRaw": "METAR LQTZ 281700Z 10007KT 9999 BKN065 10/04 Q0992",
      "tafRaw": "TAF LQTZ 281700Z 2818/2918 10006KT 9999 SCT060 TX11/2913Z TN03/2905Z \n  PROB40 \n  TEMPO 2818/2900 4000 -RA BR \n  PROB30 \n  TEMPO 2900/2908 2000 BR"
    },
    {
      "icao": "LRBV",
      "iata": "GHV",
      "name": "Brașov-Ghimbav International Airport",
      "lat": 45.70558,
      "lon": 25.522871,
      "updatedAt": "281700Z",
      "visibility_m": 10000,
      "taf_visibility_m": 3000,
      "worst_visibility_m": 3000,
      "ceiling_ft": 1000,
      "hazards": [
        "BR"
      ],
      "severityScore": 22,
      "metarRaw": "METAR LRBV 281700Z 12004KT 090V150 CAVOK 04/02 Q0999",
      "tafRaw": "TAF LRBV 281400Z 2815/2824 11007KT CAVOK \n  BECMG 2816/2818 3000 BR BKN010"
    },
    {
      "icao": "LRSM",
      "iata": "SUJ",
      "name": "Satu Mare International Airport",
      "lat": 47.7033,
      "lon": 22.8857,
      "updatedAt": "281700Z",
      "visibility_m": 10000,
      "taf_visibility_m": 5000,
      "worst_visibility_m": 5000,
      "ceiling_ft": 4500,
      "hazards": [
        "RA",
        "BR"
      ],
      "severityScore": 22,
      "metarRaw": "METAR LRSM 281700Z 29003KT 9999 -RA BKN045 04/02 Q0999",
      "tafRaw": "TAF LRSM 281400Z 2815/2824 11005KT 9999 BKN040 \n  PROB40 \n  TEMPO 2815/2817 5000 -RA BR"
    },
    {
      "icao": "UBBB",
      "iata": "GYD",
      "name": "Heydar Aliyev International Airport",
      "lat": 40.467498779296875,
      "lon": 50.04669952392578,
      "updatedAt": "281700Z",
      "visibility_m": 10000,
      "taf_visibility_m": 4000,
      "worst_visibility_m": 4000,
      "ceiling_ft": 2300,
      "hazards": [
        "BR",
        "RA"
      ],
      "severityScore": 22,
      "metarRaw": "METAR UBBB 281700Z 16008KT 9999 OVC023 07/05 Q1017 NOSIG",
      "tafRaw": "TAF UBBB 281701Z 2818/2918 15005KT 9999 SCT012 BKN025 TX09/2910Z TN04/2901Z \n  TEMPO 2818/2906 18010KT 4000 -RA BR BKN005 OVC017 \n  TEMPO 2906/2918 18010KT BKN010 OVC020"
    },
    {
      "icao": "ENGM",
      "iata": "OSL",
      "name": "Oslo-Gardermoen International Airport",
      "lat": 60.193901,
      "lon": 11.1004,
      "updatedAt": "281650Z",
      "visibility_m": 10000,
      "taf_visibility_m": 10000,
      "worst_visibility_m": 10000,
      "ceiling_ft": 2900,
      "hazards": [
        "SN"
      ],
      "severityScore": 18,
      "metarRaw": "METAR ENGM 281650Z 02007KT 9999 -SN OVC029 M09/M12 Q1015 NOSIG",
      "tafRaw": "TAF ENGM 281100Z 2812/2912 02007KT 9999 -SN BKN025"
    },
    {
      "icao": "ENTO",
      "iata": "TRF",
      "name": "Sandefjord Airport, Torp",
      "lat": 59.186699,
      "lon": 10.2586,
      "updatedAt": "281650Z",
      "visibility_m": 10000,
      "taf_visibility_m": 10000,
      "worst_visibility_m": 10000,
      "ceiling_ft": 2900,
      "hazards": [
        "SN"
      ],
      "severityScore": 18,
      "metarRaw": "METAR ENTO 281650Z 36010KT 9999 -SN OVC029 M07/M10 Q1014 NOSIG",
      "tafRaw": "TAF ENTO 281100Z 2812/2912 02008KT 9999 -SN BKN025"
    },
    {
      "icao": "EPPO",
      "iata": "POZ",
      "name": "Poznań-Ławica Airport",
      "lat": 52.421598,
      "lon": 16.823359,
      "updatedAt": "281700Z",
      "visibility_m": 8000,
      "taf_visibility_m": null,
      "worst_visibility_m": 8000,
      "ceiling_ft": 1000,
      "hazards": [],
      "severityScore": 17,
      "metarRaw": "METAR EPPO 281700Z 08007KT 8000 OVC010 M01/M03 Q1001",
      "tafRaw": null
    },
    {
      "icao": "EPRZ",
      "iata": "RZE",
      "name": "Rzeszów-Jasionka Airport",
      "lat": 50.109791,
      "lon": 22.024155,
      "updatedAt": "281700Z",
      "visibility_m": 10000,
      "taf_visibility_m": null,
      "worst_visibility_m": 10000,
      "ceiling_ft": 1500,
      "hazards": [],
      "severityScore": 17,
      "metarRaw": "METAR EPRZ 281700Z 29002KT 9999 OVC015 02/00 Q0998",
      "tafRaw": null
    },
    {
      "icao": "ESMS",
      "iata": "MMX",
      "name": "Malmö Sturup Airport",
      "lat": 55.535564,
      "lon": 13.376327,
      "updatedAt": "281650Z",
      "visibility_m": 10000,
      "taf_visibility_m": null,
      "worst_visibility_m": 10000,
      "ceiling_ft": 1300,
      "hazards": [],
      "severityScore": 17,
      "metarRaw": "METAR ESMS 281650Z 06012KT 9999 OVC013 M01/M04 Q1006",
      "tafRaw": null
    },
    {
      "icao": "LQBK",
      "iata": "BNX",
      "name": "Banja Luka International Airport",
      "lat": 44.941399,
      "lon": 17.297501,
      "updatedAt": "281700Z",
      "visibility_m": 10000,
      "taf_visibility_m": null,
      "worst_visibility_m": 10000,
      "ceiling_ft": 4700,
      "hazards": [
        "RA"
      ],
      "severityScore": 17,
      "metarRaw": "METAR LQBK 281700Z 29004KT 9999 RA FEW040 BKN047 07/06 Q0992 NOSIG",
      "tafRaw": null
    },
    {
      "icao": "EPMO",
      "iata": "WMI",
      "name": "Modlin Airport",
      "lat": 52.451099,
      "lon": 20.6518,
      "updatedAt": "281700Z",
      "visibility_m": 5000,
      "taf_visibility_m": null,
      "worst_visibility_m": 5000,
      "ceiling_ft": 2200,
      "hazards": [
        "BR"
      ],
      "severityScore": 15,
      "metarRaw": "METAR EPMO 281700Z 34004KT 300V360 5000 BR SCT008 BKN022 M00/M01 Q1001",
      "tafRaw": null
    },
    {
      "icao": "GMAD",
      "iata": "AGA",
      "name": "Al Massira Airport",
      "lat": 30.322478,
      "lon": -9.412003,
      "updatedAt": "281700Z",
      "visibility_m": 6000,
      "taf_visibility_m": 8000,
      "worst_visibility_m": 6000,
      "ceiling_ft": 1600,
      "hazards": [],
      "severityScore": 12,
      "metarRaw": "METAR GMAD 281700Z 25015KT 6000 BKN016 18/17 Q1019 NOSIG",
      "tafRaw": "TAF GMAD 281700Z 2818/2924 23012KT 8000 BKN016"
    },
    {
      "icao": "GMMN",
      "iata": "CMN",
      "name": "Mohammed V International Airport",
      "lat": 33.3675,
      "lon": -7.58997,
      "updatedAt": "281700Z",
      "visibility_m": 10000,
      "taf_visibility_m": 3000,
      "worst_visibility_m": 3000,
      "ceiling_ft": 2000,
      "hazards": [
        "RA"
      ],
      "severityScore": 12,
      "metarRaw": "METAR GMMN 281700Z 24016KT 9999 BKN020 17/14 Q1017 NOSIG",
      "tafRaw": "TAF GMMN 281700Z 2818/2924 24016KT 9999 BKN020 \n  PROB40 \n  TEMPO 2822/2910 3000 RA BKN014 BKN033"
    },
    {
      "icao": "EDDH",
      "iata": "HAM",
      "name": "Hamburg Helmut Schmidt Airport",
      "lat": 53.630402,
      "lon": 9.98823,
      "updatedAt": "281650Z",
      "visibility_m": 10000,
      "taf_visibility_m": 10000,
      "worst_visibility_m": 10000,
      "ceiling_ft": 1000,
      "hazards": [],
      "severityScore": 12,
      "metarRaw": "METAR EDDH 281650Z AUTO 08010KT 050V110 9999 BKN010 01/M01 Q1001 TEMPO OVC015",
      "tafRaw": "TAF EDDH 281100Z 2812/2918 09011KT 9999 OVC013 \n  TEMPO 2812/2817 OVC015 \n  TEMPO 2817/2909 OVC008 \n  PROB30 \n  TEMPO 2817/2909 OVC015 \n  TEMPO 2909/2918 OVC015 \n  PROB30 \n  TEMPO 2916/2918 BKN009"
    },
    {
      "icao": "EKCH",
      "iata": "CPH",
      "name": "Copenhagen Kastrup Airport",
      "lat": 55.617900848389,
      "lon": 12.656000137329,
      "updatedAt": "281650Z",
      "visibility_m": 10000,
      "taf_visibility_m": 10000,
      "worst_visibility_m": 10000,
      "ceiling_ft": 1800,
      "hazards": [],
      "severityScore": 12,
      "metarRaw": "METAR EKCH 281650Z AUTO 04015KT 9999 OVC022/// M01/M04 Q1007 NOSIG",
      "tafRaw": "TAF EKCH 281427Z 2815/2915 05015KT 9999 BKN018"
    },
    {
      "icao": "EPWR",
      "iata": "WRO",
      "name": "Copernicus Wrocław Airport",
      "lat": 51.103719,
      "lon": 16.882096,
      "updatedAt": "281700Z",
      "visibility_m": 10000,
      "taf_visibility_m": 10000,
      "worst_visibility_m": 10000,
      "ceiling_ft": 1300,
      "hazards": [],
      "severityScore": 12,
      "metarRaw": "METAR EPWR 281700Z 06006KT 030V090 9999 BKN013 01/M02 Q0999",
      "tafRaw": "TAF EPWR 281430Z 2815/2915 08008KT 9999 BKN020 \n  TEMPO 2815/2818 BKN013 \n  TEMPO 2818/2909 BKN008 BKN013"
    },
    {
      "icao": "ESSA",
      "iata": "ARN",
      "name": "Stockholm-Arlanda Airport",
      "lat": 59.64849,
      "lon": 17.928829,
      "updatedAt": "281650Z",
      "visibility_m": 10000,
      "taf_visibility_m": 10000,
      "worst_visibility_m": 10000,
      "ceiling_ft": 1400,
      "hazards": [],
      "severityScore": 12,
      "metarRaw": "METAR ESSA 281650Z 35005KT CAVOK M10/M11 Q1015 NOSIG",
      "tafRaw": "TAF ESSA 281430Z 2815/2915 03010KT 9999 FEW020 \n  BECMG 2821/2823 BKN014"
    },
    {
      "icao": "EYPA",
      "iata": "PLQ",
      "name": "Palanga International Airport",
      "lat": 55.973202,
      "lon": 21.093901,
      "updatedAt": "281720Z",
      "visibility_m": 10000,
      "taf_visibility_m": 9000,
      "worst_visibility_m": 9000,
      "ceiling_ft": 1500,
      "hazards": [],
      "severityScore": 12,
      "metarRaw": "METAR EYPA 281720Z 06010KT CAVOK M08/M12 Q1007",
      "tafRaw": "TAF EYPA 281702Z 2818/2918 06012KT 9000 SCT015 \n  TEMPO 2818/2906 SCT010 BKN015"
    },
    {
      "icao": "LIBD",
      "iata": "BRI",
      "name": "Bari Karol Wojtyła International Airport",
      "lat": 41.138901,
      "lon": 16.760599,
      "updatedAt": "281650Z",
      "visibility_m": 10000,
      "taf_visibility_m": 4000,
      "worst_visibility_m": 4000,
      "ceiling_ft": null,
      "hazards": [
        "RA"
      ],
      "severityScore": 12,
      "metarRaw": "METAR LIBD 281650Z 22015KT CAVOK 13/05 Q0996",
      "tafRaw": "TAF LIBD 281700Z 2818/2918 20010KT 9999 SCT040 \n  BECMG 2900/2902 14010KT \n  TEMPO 2902/2918 4000 RA \n  BECMG 2904/2906 VRB05KT \n  BECMG 2910/2912 29014KT"
    },
    {
      "icao": "LIBP",
      "iata": "PSR",
      "name": "Abruzzo Airport",
      "lat": 42.431079,
      "lon": 14.182981,
      "updatedAt": "281650Z",
      "visibility_m": 10000,
      "taf_visibility_m": 4000,
      "worst_visibility_m": 4000,
      "ceiling_ft": null,
      "hazards": [
        "RA"
      ],
      "severityScore": 12,
      "metarRaw": "METAR LIBP 281650Z AUTO 23021G34KT 9999 NCD 13/03 Q0991",
      "tafRaw": "TAF LIBP 281700Z 2818/2918 23016KT 9999 SCT080 \n  TEMPO 2818/2821 23018G28KT \n  BECMG 2900/2902 VRB05KT \n  TEMPO 2912/2916 4000 -RA"
    },
    {
      "icao": "LICC",
      "iata": "CTA",
      "name": "Catania-Fontanarossa Airport",
      "lat": 37.466801,
      "lon": 15.0664,
      "updatedAt": "281650Z",
      "visibility_m": 10000,
      "taf_visibility_m": 10000,
      "worst_visibility_m": 10000,
      "ceiling_ft": null,
      "hazards": [
        "RA"
      ],
      "severityScore": 12,
      "metarRaw": "METAR LICC 281650Z 25015KT 9999 SCT120 16/12 Q1002",
      "tafRaw": "TAF LICC 281100Z 2812/2912 25012KT 9999 SCT030 \n  TEMPO 2812/2815 25016G28KT \n  TEMPO 2822/2908 RA \n  BECMG 2901/2903 26020G34KT"
    },
    {
      "icao": "LIMJ",
      "iata": "GOA",
      "name": "Genoa Cristoforo Colombo Airport",
      "lat": 44.412039,
      "lon": 8.840732,
      "updatedAt": "281650Z",
      "visibility_m": 10000,
      "taf_visibility_m": 4000,
      "worst_visibility_m": 4000,
      "ceiling_ft": 4200,
      "hazards": [
        "RA"
      ],
      "severityScore": 12,
      "metarRaw": "METAR LIMJ 281650Z 04006KT 9999 SCT035 BKN042 08/04 Q0991",
      "tafRaw": "TAF LIMJ 281700Z 2818/2918 04008KT 4000 RA SCT040"
    },
    {
      "icao": "LMML",
      "iata": "MLA",
      "name": "Malta International Airport",
      "lat": 35.857498,
      "lon": 14.4775,
      "updatedAt": "281715Z",
      "visibility_m": 10000,
      "taf_visibility_m": 7000,
      "worst_visibility_m": 7000,
      "ceiling_ft": null,
      "hazards": [
        "RA"
      ],
      "severityScore": 12,
      "metarRaw": "METAR LMML 281715Z 23010KT CAVOK 15/12 Q1005 NOSIG",
      "tafRaw": "TAF LMML 281700Z 2818/2918 24012KT 9999 FEW028 \n  TEMPO 2818/2901 7000 RA \n  BECMG 2902/2905 27023KT \n  TEMPO 2905/2918 27030G40KT"
    },
    {
      "icao": "LPPS",
      "iata": "PXO",
      "name": "Porto Santo Airport",
      "lat": 33.0733985901,
      "lon": -16.3500003815,
      "updatedAt": "281700Z",
      "visibility_m": 10000,
      "taf_visibility_m": 10000,
      "worst_visibility_m": 10000,
      "ceiling_ft": 1000,
      "hazards": [],
      "severityScore": 12,
      "metarRaw": "METAR LPPS 281700Z 28014KT 9999 FEW013 SCT030 18/15 Q1018",
      "tafRaw": "TAF LPPS 281700Z 2818/2924 27015KT 9999 SCT012 SCT030 \n  PROB30 \n  TEMPO 2818/2924 BKN010"
    },
    {
      "icao": "LWOH",
      "iata": "OHD",
      "name": "Ohrid St. Paul the Apostle Airport",
      "lat": 41.18,
      "lon": 20.7423,
      "updatedAt": "281720Z",
      "visibility_m": 10000,
      "taf_visibility_m": 5000,
      "worst_visibility_m": 5000,
      "ceiling_ft": 4000,
      "hazards": [
        "RA"
      ],
      "severityScore": 12,
      "metarRaw": "METAR LWOH 281720Z 16019KT 9999 -RA OVC040 08/06 Q1001",
      "tafRaw": "TAF LWOH 281445Z 2815/2915 VRB03KT 9999 -RA BKN040 \n  TEMPO 2818/2824 18008KT 5000 +RA BKN010 OVC025 \n  BECMG 2900/2902 NSW"
    },
    {
      "icao": "LYBE",
      "iata": "BEG",
      "name": "Belgrade Nikola Tesla Airport",
      "lat": 44.818401,
      "lon": 20.309099,
      "updatedAt": "281700Z",
      "visibility_m": 10000,
      "taf_visibility_m": 10000,
      "worst_visibility_m": 10000,
      "ceiling_ft": null,
      "hazards": [
        "RA"
      ],
      "severityScore": 12,
      "metarRaw": "METAR LYBE 281700Z 13013KT CAVOK 10/03 Q0995 NOSIG",
      "tafRaw": "TAF LYBE 281700Z 2818/2918 12014KT CAVOK TX14/2913Z TN06/2906Z \n  TEMPO 2820/2901 RA \n  BECMG 2900/2902 18006KT"
    },
    {
      "icao": "LYNI",
      "iata": "INI",
      "name": "Niš Constantine the Great Airport",
      "lat": 43.336538,
      "lon": 21.856242,
      "updatedAt": "281700Z",
      "visibility_m": 10000,
      "taf_visibility_m": 10000,
      "worst_visibility_m": 10000,
      "ceiling_ft": 8000,
      "hazards": [
        "RA"
      ],
      "severityScore": 12,
      "metarRaw": "METAR LYNI 281700Z 17004KT 140V200 9999 FEW060 08/00 Q1000 NOSIG",
      "tafRaw": "TAF LYNI 281700Z 2818/2918 15008KT 9999 BKN080 TX14/2913Z TN03/2906Z \n  TEMPO 2818/2821 RA"
    },
    {
      "icao": "ENBR",
      "iata": "BGO",
      "name": "Bergen Airport, Flesland",
      "lat": 60.2934,
      "lon": 5.21814,
      "updatedAt": "281650Z",
      "visibility_m": 10000,
      "taf_visibility_m": 10000,
      "worst_visibility_m": 10000,
      "ceiling_ft": null,
      "hazards": [
        "BR"
      ],
      "severityScore": 10,
      "metarRaw": "METAR ENBR 281650Z 04003KT CAVOK M03/M06 Q1009 NOSIG RMK WIND 1200FT 34004KT",
      "tafRaw": "TAF ENBR 281100Z 2812/2912 14005KT CAVOK"
    },
    {
      "icao": "LFMN",
      "iata": "NCE",
      "name": "Nice-Côte d'Azur Airport",
      "lat": 43.658401,
      "lon": 7.21587,
      "updatedAt": "281700Z",
      "visibility_m": 10000,
      "taf_visibility_m": 10000,
      "worst_visibility_m": 10000,
      "ceiling_ft": 2300,
      "hazards": [
        "DZ"
      ],
      "severityScore": 10,
      "metarRaw": "METAR LFMN 281700Z 32008KT 9999 -DZ SCT013 OVC023 09/08 Q0990 NOSIG",
      "tafRaw": "TAF LFMN 281400Z 2815/2921 24010KT 9999 BKN020 \n  BECMG 2817/2819 33010KT NSC \n  BECMG 2910/2912 VRB05KT \n  BECMG 2917/2919 33010KT"
    },
    {
      "icao": "LIMF",
      "iata": "TRN",
      "name": "Turin Airport",
      "lat": 45.200802,
      "lon": 7.64963,
      "updatedAt": "281650Z",
      "visibility_m": 8000,
      "taf_visibility_m": 3000,
      "worst_visibility_m": 3000,
      "ceiling_ft": 5000,
      "hazards": [
        "BR"
      ],
      "severityScore": 10,
      "metarRaw": "METAR LIMF 281650Z 10003KT 8000 SCT020 BKN050 05/03 Q0990",
      "tafRaw": "TAF LIMF 281700Z 2818/2918 VRB04KT 7000 BKN040 \n  TEMPO 2819/2908 3000 BR"
    },
    {
      "icao": "BKPR",
      "iata": "PRN",
      "name": "Priština Adem Jashari International Airport",
      "lat": 42.5728,
      "lon": 21.035801,
      "updatedAt": null,
      "visibility_m": null,
      "taf_visibility_m": null,
      "worst_visibility_m": null,
      "ceiling_ft": null,
      "hazards": [],
      "severityScore": 5,
      "metarRaw": null,
      "tafRaw": null
    },
    {
      "icao": "EKBI",
      "iata": "BLL",
      "name": "Billund Airport",
      "lat": 55.740335,
      "lon": 9.157019,
      "updatedAt": "281650Z",
      "visibility_m": 10000,
      "taf_visibility_m": null,
      "worst_visibility_m": 10000,
      "ceiling_ft": null,
      "hazards": [],
      "severityScore": 5,
      "metarRaw": "METAR EKBI 281650Z AUTO 09014KT 9999 OVC013/// M01/M03 Q1006",
      "tafRaw": null
    },
    {
      "icao": "LEAL",
      "iata": "ALC",
      "name": "Alicante-Elche Miguel Hernández Airport",
      "lat": 38.2822,
      "lon": -0.558156,
      "updatedAt": "281700Z",
      "visibility_m": 10000,
      "taf_visibility_m": null,
      "worst_visibility_m": 10000,
      "ceiling_ft": null,
      "hazards": [],
      "severityScore": 5,
      "metarRaw": "METAR LEAL 281700Z 25019KT 210V290 9999 FEW060 18/02 Q0999 WS R28 NOSIG",
      "tafRaw": null
    },
    {
      "icao": "LECH",
      "iata": "CDT",
      "name": "Castellón-Costa Azahar Airport",
      "lat": 40.213889,
      "lon": 0.073333,
      "updatedAt": "281700Z",
      "visibility_m": 10000,
      "taf_visibility_m": null,
      "worst_visibility_m": 10000,
      "ceiling_ft": null,
      "hazards": [],
      "severityScore": 5,
      "metarRaw": "METAR LECH 281700Z AUTO 07006KT 9999 SCT056 08/02 Q0998",
      "tafRaw": null
    },
    {
      "icao": "LEMD",
      "iata": "MAD",
      "name": "Adolfo Suárez Madrid–Barajas Airport",
      "lat": 40.471926,
      "lon": -3.56264,
      "updatedAt": "281700Z",
      "visibility_m": 10000,
      "taf_visibility_m": null,
      "worst_visibility_m": 10000,
      "ceiling_ft": 5500,
      "hazards": [],
      "severityScore": 5,
      "metarRaw": "METAR LEMD 281700Z 29014KT 260V320 9999 FEW045 BKN055 09/02 Q1002 NOSIG",
      "tafRaw": null
    },
    {
      "icao": "LWSK",
      "iata": "SKP",
      "name": "Skopje International Airport",
      "lat": 41.958087,
      "lon": 21.622581,
      "updatedAt": "281720Z",
      "visibility_m": 10000,
      "taf_visibility_m": null,
      "worst_visibility_m": 10000,
      "ceiling_ft": 6000,
      "hazards": [],
      "severityScore": 5,
      "metarRaw": "METAR LWSK 281720Z VRB02KT 9999 FEW006 BKN060 04/02 Q1003 NOSIG",
      "tafRaw": null
    },
    {
      "icao": "GCFV",
      "iata": "FUE",
      "name": "Fuerteventura Airport",
      "lat": 28.4527,
      "lon": -13.8638,
      "updatedAt": "281700Z",
      "visibility_m": 10000,
      "taf_visibility_m": 10000,
      "worst_visibility_m": 10000,
      "ceiling_ft": 2500,
      "hazards": [],
      "severityScore": 0,
      "metarRaw": "METAR GCFV 281700Z 30010KT 260V330 9999 FEW020 BKN025 20/15 Q1021",
      "tafRaw": "TAF GCFV 281400Z 2815/2915 31013KT 9999 FEW020 BKN030 TX23/2914Z TN14/2906Z \n  BECMG 2817/2819 32003KT \n  TEMPO 2911/2915 33013KT"
    },
    {
      "icao": "GCLP",
      "iata": "LPA",
      "name": "Gran Canaria Airport",
      "lat": 27.9319,
      "lon": -15.3866,
      "updatedAt": "281700Z",
      "visibility_m": 10000,
      "taf_visibility_m": 10000,
      "worst_visibility_m": 10000,
      "ceiling_ft": 3000,
      "hazards": [],
      "severityScore": 0,
      "metarRaw": "METAR GCLP 281700Z 03009KT 9999 FEW020 BKN030 20/16 Q1021 NOSIG",
      "tafRaw": "TAF GCLP 281400Z 2815/2915 10004KT 9999 FEW020 BKN030 TX22/2914Z TN15/2906Z \n  BECMG 2911/2914 01013KT"
    },
    {
      "icao": "GMMX",
      "iata": "RAK",
      "name": "Marrakesh Menara Airport",
      "lat": 31.604807,
      "lon": -8.035788,
      "updatedAt": "281700Z",
      "visibility_m": 10000,
      "taf_visibility_m": 8000,
      "worst_visibility_m": 8000,
      "ceiling_ft": null,
      "hazards": [],
      "severityScore": 0,
      "metarRaw": "METAR GMMX 281700Z 28009KT 9999 SCT020 SCT090 18/12 Q1019 NOSIG",
      "tafRaw": "TAF GMMX 281100Z 2812/2918 06006KT 8000 SCT033 SCT100 \n  TEMPO 2815/2821 34016KT"
    },
    {
      "icao": "ENAL",
      "iata": "AES",
      "name": "Ålesund Airport, Vigra",
      "lat": 62.5625,
      "lon": 6.1197,
      "updatedAt": "281650Z",
      "visibility_m": 10000,
      "taf_visibility_m": 10000,
      "worst_visibility_m": 10000,
      "ceiling_ft": 2400,
      "hazards": [],
      "severityScore": 0,
      "metarRaw": "METAR ENAL 281650Z 15011KT 9999 BKN024 00/M06 Q1009",
      "tafRaw": "TAF ENAL 281400Z 2815/2824 16006KT 9999 SCT020"
    },
    {
      "icao": "ENHD",
      "iata": "HAU",
      "name": "Haugesund Airport, Karmøy",
      "lat": 59.345299,
      "lon": 5.20836,
      "updatedAt": "281650Z",
      "visibility_m": 10000,
      "taf_visibility_m": 10000,
      "worst_visibility_m": 10000,
      "ceiling_ft": null,
      "hazards": [],
      "severityScore": 0,
      "metarRaw": "METAR ENHD 281650Z 09006KT CAVOK M02/M13 Q1009",
      "tafRaw": "TAF ENHD 281400Z 2815/2823 10008KT CAVOK"
    },
    {
      "icao": "ENVA",
      "iata": "TRD",
      "name": "Trondheim Airport, Værnes",
      "lat": 63.457802,
      "lon": 10.924,
      "updatedAt": "281650Z",
      "visibility_m": 10000,
      "taf_visibility_m": 10000,
      "worst_visibility_m": 10000,
      "ceiling_ft": null,
      "hazards": [],
      "severityScore": 0,
      "metarRaw": "METAR ENVA 281650Z 10005KT 080V160 CAVOK M10/M17 Q1012 NOSIG RMK WIND 670FT 10009KT",
      "tafRaw": "TAF ENVA 281100Z 2812/2912 10008KT CAVOK"
    },
    {
      "icao": "ENZV",
      "iata": "SVG",
      "name": "Stavanger Airport, Sola",
      "lat": 58.876701,
      "lon": 5.63778,
      "updatedAt": "281650Z",
      "visibility_m": 10000,
      "taf_visibility_m": 10000,
      "worst_visibility_m": 10000,
      "ceiling_ft": 4200,
      "hazards": [],
      "severityScore": 0,
      "metarRaw": "METAR ENZV 281650Z 14006KT 9999 BKN042 M03/M14 Q1009 NOSIG",
      "tafRaw": "TAF ENZV 281100Z 2812/2912 14006KT CAVOK"
    },
    {
      "icao": "ESGG",
      "iata": "GOT",
      "name": "Göteborg Landvetter Airport",
      "lat": 57.6628,
      "lon": 12.2798,
      "updatedAt": "281650Z",
      "visibility_m": 10000,
      "taf_visibility_m": 10000,
      "worst_visibility_m": 10000,
      "ceiling_ft": null,
      "hazards": [],
      "severityScore": 0,
      "metarRaw": "METAR ESGG 281650Z 05007KT CAVOK M05/M09 Q1009",
      "tafRaw": "TAF ESGG 281430Z 2815/2915 07012KT CAVOK"
    },
    {
      "icao": "ESKN",
      "iata": "NYO",
      "name": "Stockholm Skavsta Airport",
      "lat": 58.789656,
      "lon": 16.911479,
      "updatedAt": "281650Z",
      "visibility_m": 10000,
      "taf_visibility_m": 10000,
      "worst_visibility_m": 10000,
      "ceiling_ft": 3500,
      "hazards": [],
      "severityScore": 0,
      "metarRaw": "METAR ESKN 281650Z 04007KT 9999 BKN035 M04/M08 Q1014",
      "tafRaw": "TAF ESKN 281430Z 2815/2915 02008KT 9999 BKN035 \n  PROB40 2816/2822 BKN014"
    },
    {
      "icao": "HEGN",
      "iata": "HRG",
      "name": "Hurghada International Airport",
      "lat": 27.176776,
      "lon": 33.796692,
      "updatedAt": "281700Z",
      "visibility_m": 2000,
      "taf_visibility_m": 4000,
      "worst_visibility_m": 2000,
      "ceiling_ft": null,
      "hazards": [],
      "severityScore": 0,
      "metarRaw": "METAR HEGN 281700Z 34008KT 2000 DU NSC 20/07 Q1019 NOSIG",
      "tafRaw": "TAF HEGN 281700Z 2818/2924 35008KT 6000 NSC \n  TEMPO 2818/2824 4000 DU"
    },
    {
      "icao": "HESX",
      "iata": "SPX",
      "name": "Sphinx International Airport",
      "lat": 30.108179,
      "lon": 30.895728,
      "updatedAt": "281700Z",
      "visibility_m": 10000,
      "taf_visibility_m": 4000,
      "worst_visibility_m": 4000,
      "ceiling_ft": null,
      "hazards": [],
      "severityScore": 0,
      "metarRaw": "METAR HESX 281700Z 26009KT CAVOK 16/05 Q1017 NOSIG",
      "tafRaw": "TAF HESX 281700Z 2818/2924 24009KT 9999 SCT020 \n  BECMG 2908/2910 20012KT \n  TEMPO 2908/2920 22012G22KT 4000 SA"
    },
    {
      "icao": "LEMG",
      "iata": "AGP",
      "name": "Málaga-Costa del Sol Airport",
      "lat": 36.6749,
      "lon": -4.49911,
      "updatedAt": "281700Z",
      "visibility_m": 10000,
      "taf_visibility_m": 10000,
      "worst_visibility_m": 10000,
      "ceiling_ft": null,
      "hazards": [],
      "severityScore": 0,
      "metarRaw": "METAR LEMG 281700Z 27006KT 240V300 9999 SCT070 15/10 Q1007 NOSIG",
      "tafRaw": "TAF LEMG 281100Z 2812/2912 29012KT 9999 SCT020 TX19/2814Z TN13/2907Z \n  PROB30 \n  TEMPO 2812/2818 29015G25KT \n  BECMG 2817/2819 VRB03KT"
    },
    {
      "icao": "LIBG",
      "iata": "TAR",
      "name": "Taranto-Grottaglie Marcello Arlotta Airport",
      "lat": 40.517502,
      "lon": 17.4032,
      "updatedAt": "281650Z",
      "visibility_m": 10000,
      "taf_visibility_m": 10000,
      "worst_visibility_m": 10000,
      "ceiling_ft": null,
      "hazards": [],
      "severityScore": 0,
      "metarRaw": "METAR LIBG 281650Z 19005KT CAVOK 13/10 Q0998",
      "tafRaw": "TAF LIBG 281700Z 2818/2903 21012KT 9999 FEW020 \n  BECMG 2820/2822 VRB05KT"
    },
    {
      "icao": "LIPY",
      "iata": "AOI",
      "name": "Marche Airport",
      "lat": 43.616299,
      "lon": 13.3623,
      "updatedAt": "281650Z",
      "visibility_m": 10000,
      "taf_visibility_m": 10000,
      "worst_visibility_m": 10000,
      "ceiling_ft": 7000,
      "hazards": [],
      "severityScore": 0,
      "metarRaw": "METAR LIPY 281650Z AUTO 23010KT 9999 BKN069/// OVC110/// 11/05 Q0990",
      "tafRaw": "TAF LIPY 281700Z 2818/2918 22013KT 9999 FEW040 BKN070 \n  BECMG 2822/2824 VRB05KT"
    },
    {
      "icao": "LPMA",
      "iata": "FNC",
      "name": "Cristiano Ronaldo International Airport",
      "lat": 32.697812,
      "lon": -16.774613,
      "updatedAt": "281700Z",
      "visibility_m": 10000,
      "taf_visibility_m": 10000,
      "worst_visibility_m": 10000,
      "ceiling_ft": null,
      "hazards": [],
      "severityScore": 0,
      "metarRaw": "METAR LPMA 281700Z 06004KT 020V100 9999 FEW014 20/14 Q1018",
      "tafRaw": "TAF LPMA 281700Z 2818/2918 VRB05KT 9999 SCT015"
    },
    {
      "icao": "OEJN",
      "iata": "JED",
      "name": "King Abdulaziz International Airport",
      "lat": 21.6796,
      "lon": 39.156502,
      "updatedAt": "281700Z",
      "visibility_m": 10000,
      "taf_visibility_m": 7000,
      "worst_visibility_m": 7000,
      "ceiling_ft": null,
      "hazards": [],
      "severityScore": 0,
      "metarRaw": "METAR OEJN 281700Z 35012KT CAVOK 25/15 Q1016 NOSIG",
      "tafRaw": "TAF OEJN 281700Z 2818/2924 04005KT 7000 SCT040 \n  BECMG 2908/2910 33013KT CAVOK \n  BECMG 2920/2922 04006KT"
    },
    {
      "icao": "OEMA",
      "iata": "MED",
      "name": "Prince Mohammad Bin Abdulaziz Airport",
      "lat": 24.5534,
      "lon": 39.705101,
      "updatedAt": "281700Z",
      "visibility_m": 10000,
      "taf_visibility_m": 7000,
      "worst_visibility_m": 7000,
      "ceiling_ft": null,
      "hazards": [],
      "severityScore": 0,
      "metarRaw": "METAR OEMA 281700Z 23007KT CAVOK 24/M06 Q1018 NOSIG",
      "tafRaw": "TAF OEMA 281700Z 2818/2924 30004KT 7000 NSC \n  BECMG 2904/2906 12008KT CAVOK"
    },
    {
      "icao": "OMDB",
      "iata": "DXB",
      "name": "Dubai International Airport",
      "lat": 25.2527999878,
      "lon": 55.3643989563,
      "updatedAt": "281700Z",
      "visibility_m": 10000,
      "taf_visibility_m": 8000,
      "worst_visibility_m": 8000,
      "ceiling_ft": null,
      "hazards": [],
      "severityScore": 0,
      "metarRaw": "METAR OMDB 281700Z 05009KT CAVOK 22/14 Q1019 NOSIG",
      "tafRaw": "TAF OMDB 281700Z 2818/3000 08005KT 8000 NSC \n  BECMG 2904/2906 18010KT \n  BECMG 2909/2911 29010KT \n  BECMG 2916/2918 10005KT"
    },
    {
      "icao": "UGKO",
      "iata": "KUT",
      "name": "David the Builder Kutaisi International Airport",
      "lat": 42.177448,
      "lon": 42.485353,
      "updatedAt": "281700Z",
      "visibility_m": 10000,
      "taf_visibility_m": 10000,
      "worst_visibility_m": 10000,
      "ceiling_ft": null,
      "hazards": [],
      "severityScore": 0,
      "metarRaw": "METAR UGKO 281700Z 10012KT CAVOK 10/M01 Q1009 NOSIG",
      "tafRaw": "TAF UGKO 281700Z 2818/2918 09006KT CAVOK TX16/2911Z TN03/2905Z \n  TEMPO 2818/2820 08016KT"
    }
  ],
  "stats": {
    "icaoCount": 159,
    "metarReturned": 157,
    "tafReturned": 136,
    "stationsWritten": 159,
    "missingMetar": 2,
    "missingTaf": 23
  },
  "errors": []
}