{
  "generatedAt": "2026-02-02T17:55:14.020Z",
  "stations": [
    {
      "icao": "EDFH",
      "iata": "HHN",
      "name": "Frankfurt-Hahn Airport",
      "lat": 49.946353,
      "lon": 7.261734,
      "updatedAt": "021720Z",
      "visibility_m": 6000,
      "taf_visibility_m": 300,
      "worst_visibility_m": 300,
      "ceiling_ft": 300,
      "hazards": [
        "FZFG",
        "FG",
        "BR",
        "FZRA",
        "RA"
      ],
      "severityScore": 100,
      "metarRaw": "METAR EDFH 021720Z 11011KT 6000 SCT001 OVC003 00/M00 Q0999",
      "tafRaw": "TAF EDFH 021700Z 0218/0318 12013KT 7000 OVC004 \n  BECMG 0218/0221 0700 FZFG OVC001 \n  TEMPO 0220/0304 0300 FZFG \n  TEMPO 0223/0311 12015G25KT \n  BECMG 0303/0305 3000 BR SCT001 OVC020 \n  TEMPO 0305/0312 0400 RA FG OVC001 \n  PROB30 \n  TEMPO 0305/0312 -FZRA \n  TEMPO 0312/0318 1200 -RA BKN001"
    },
    {
      "icao": "EGNM",
      "iata": "LBA",
      "name": "Leeds Bradford Airport",
      "lat": 53.865898,
      "lon": -1.66057,
      "updatedAt": "021750Z",
      "visibility_m": 900,
      "taf_visibility_m": 300,
      "worst_visibility_m": 300,
      "ceiling_ft": 100,
      "hazards": [
        "FG",
        "BR",
        "SN",
        "RA"
      ],
      "severityScore": 100,
      "metarRaw": "METAR EGNM 021750Z 07009G20KT 030V100 0900 R14/P1500N FG OVC001 03/03 Q0998",
      "tafRaw": "TAF EGNM 021656Z 0218/0318 10015KT 3600 BR OVC005 \n  PROB40 \n  TEMPO 0218/0307 0300 -RASN FG OVC000 \n  BECMG 0307/0310 9999 NSW SCT003 \n  PROB40 \n  TEMPO 0307/0315 2000 -SN BR BKN003 \n  TEMPO 0315/0318 1200 -SN BR BKN002"
    },
    {
      "icao": "LBPD",
      "iata": "PDV",
      "name": "Plovdiv International Airport",
      "lat": 42.067799,
      "lon": 24.8508,
      "updatedAt": "021730Z",
      "visibility_m": 10000,
      "taf_visibility_m": 500,
      "worst_visibility_m": 500,
      "ceiling_ft": 200,
      "hazards": [
        "FZFG",
        "BR",
        "FG"
      ],
      "severityScore": 100,
      "metarRaw": "METAR LBPD 021730Z AUTO 07005KT 9999 OVC036/// M00/M00 Q1014 NOSIG",
      "tafRaw": "TAF LBPD 021700Z 0218/0318 10010KT 7000 SCT015 BKN040 \n  BECMG 0219/0221 VRB03KT 3000 BR SCT005 BKN015 \n  TEMPO 0222/0306 0500 FZFG BKN002 OVC005 \n  TEMPO 0306/0311 1500 BR SCT003 BKN007"
    },
    {
      "icao": "LBSF",
      "iata": "SOF",
      "name": "Sofia Airport",
      "lat": 42.696357,
      "lon": 23.417671,
      "updatedAt": "021730Z",
      "visibility_m": 10000,
      "taf_visibility_m": 600,
      "worst_visibility_m": 600,
      "ceiling_ft": 500,
      "hazards": [
        "FZFG",
        "BR",
        "FG"
      ],
      "severityScore": 100,
      "metarRaw": "METAR LBSF 021730Z AUTO VRB03KT 9999 FEW022/// BKN036/// OVC041/// M03/M05 Q1012 NOSIG",
      "tafRaw": "TAF LBSF 021700Z 0218/0318 VRB03KT 8000 BKN020 OVC040 \n  TEMPO 0222/0307 3000 BR SCT007 BKN015 \n  PROB30 0302/0306 0600 FZFG SCT002 BKN005 \n  BECMG 0308/0310 10010KT SCT050 BKN070"
    },
    {
      "icao": "LEBL",
      "iata": "BCN",
      "name": "Josep Tarradellas Barcelona-El Prat Airport",
      "lat": 41.2971,
      "lon": 2.07846,
      "updatedAt": "021730Z",
      "visibility_m": 4000,
      "taf_visibility_m": 3000,
      "worst_visibility_m": 3000,
      "ceiling_ft": 900,
      "hazards": [
        "BR",
        "DZ",
        "TSRA",
        "RA",
        "SHRA",
        "TS"
      ],
      "severityScore": 100,
      "metarRaw": "METAR LEBL 021730Z 34004KT 300V040 4000 DZ BR BKN009 11/11 Q0993 NOSIG",
      "tafRaw": "TAF LEBL 021700Z 0218/0318 VRB04KT 9999 SCT015 TX15/0314Z TN08/0306Z \n  BECMG 0218/0220 25008KT \n  TEMPO 0218/0221 4000 BR SCT010 \n  PROB40 \n  TEMPO 0218/0222 3000 RA SHRA BKN012 FEW020TCU \n  PROB30 \n  TEMPO 0218/0221 3000 TSRA FEW020CB \n  BECMG 0309/0312 21010KT"
    },
    {
      "icao": "LPPT",
      "iata": "LIS",
      "name": "Lisbon Humberto Delgado Airport",
      "lat": 38.7813,
      "lon": -9.13592,
      "updatedAt": "021730Z",
      "visibility_m": 10000,
      "taf_visibility_m": 2000,
      "worst_visibility_m": 2000,
      "ceiling_ft": 400,
      "hazards": [
        "BR",
        "RA",
        "SHRA",
        "TS",
        "DZ"
      ],
      "severityScore": 100,
      "metarRaw": "METAR LPPT 021730Z 25012KT 9999 FEW025 12/07 Q1001",
      "tafRaw": "TAF LPPT 021700Z 0218/0324 26013KT 9999 FEW018 SCT025 \n  TEMPO 0218/0316 5000 SHRA BKN015 FEW020CB BKN030 \n  PROB30 \n  TEMPO 0218/0303 VRB15G25KT 2000 TSRAGS BKN008 SCT018CB \n  BECMG 0316/0318 18012KT 6000 -RA SCT006 BKN012 \n  TEMPO 0318/0324 2000 RADZ BR SCT002 BKN004 \n  PROB40 \n  TEMPO 0320/0324 19020G37KT"
    },
    {
      "icao": "LZTT",
      "iata": "TAT",
      "name": "Poprad-Tatry Airport",
      "lat": 49.073601,
      "lon": 20.2411,
      "updatedAt": "021730Z",
      "visibility_m": 10000,
      "taf_visibility_m": 500,
      "worst_visibility_m": 500,
      "ceiling_ft": 1200,
      "hazards": [
        "FZFG",
        "SN",
        "FG"
      ],
      "severityScore": 100,
      "metarRaw": "METAR LZTT 021730Z 10004KT 9999 FEW011 BKN014 M03/M05 Q1009 BECMG BKN012",
      "tafRaw": "TAF LZTT 021715Z 0218/0318 VRB02KT 9999 SCT013 BKN040 \n  TEMPO 0220/0307 BKN009 \n  PROB30 \n  TEMPO 0301/0307 0500 FZFG OVC001 \n  TEMPO 0316/0318 2500 -SN BKN013"
    },
    {
      "icao": "UAAA",
      "iata": "ALA",
      "name": "Almaty International Airport",
      "lat": 43.354267,
      "lon": 77.042828,
      "updatedAt": "021730Z",
      "visibility_m": 2700,
      "taf_visibility_m": 600,
      "worst_visibility_m": 600,
      "ceiling_ft": 5000,
      "hazards": [
        "BR",
        "FZFG",
        "SHRA",
        "FG",
        "RA"
      ],
      "severityScore": 100,
      "metarRaw": "METAR UAAA 021730Z 13002MPS 2700 BR FU SCT200 M01/M05 Q1017 NOSIG",
      "tafRaw": "TAF UAAA 021703Z 0218/0318 20003MPS 1500 BR FU SCT050 BKN100 TX06/0309Z TNM06/0302Z \n  TEMPO 0218/0304 0600 FZFG SCT011 BKN050 \n  FM030600 26003G08MPS 9999 SCT050CB BKN100 \n  TEMPO 0306/0312 4000 FU \n  TEMPO 0312/0318 20003MPS 3100 -SHRA BR BKN011CB OVC050"
    },
    {
      "icao": "UDSG",
      "iata": "LWN",
      "name": "Shirak International Airport",
      "lat": 40.750401,
      "lon": 43.859299,
      "updatedAt": "021730Z",
      "visibility_m": 1900,
      "taf_visibility_m": 200,
      "worst_visibility_m": 200,
      "ceiling_ft": 3000,
      "hazards": [
        "BR",
        "SN",
        "RA",
        "FZFG",
        "FG"
      ],
      "severityScore": 100,
      "metarRaw": "METAR UDSG 021730Z 12003KT 1900 SNRA BR OVC030 00/00 Q1015 NOSIG",
      "tafRaw": "TAF UDSG 021700Z 0218/0318 VRB06KT 1500 BR OVC020 \n  TEMPO 0218/0303 0200 SN FZFG VV002"
    },
    {
      "icao": "LEZL",
      "iata": "SVQ",
      "name": "Sevilla Airport",
      "lat": 37.417999,
      "lon": -5.89311,
      "updatedAt": "021730Z",
      "visibility_m": 10000,
      "taf_visibility_m": 2000,
      "worst_visibility_m": 2000,
      "ceiling_ft": 1000,
      "hazards": [
        "BR",
        "TSRA",
        "SHRA",
        "TS",
        "RA"
      ],
      "severityScore": 98,
      "metarRaw": "METAR LEZL 021730Z 24018KT CAVOK 14/05 Q1005 NOSIG",
      "tafRaw": "TAF LEZL 021400Z 0215/0315 23009KT 9999 SCT025 TX16/0215Z TN10/0307Z \n  PROB40 \n  TEMPO 0215/0222 23015G25KT 3000 SHRA FEW020CB \n  PROB40 \n  TEMPO 0217/0222 2000 TSRA SCT020CB \n  PROB30 \n  TEMPO 0300/0309 4000 BR BKN010"
    },
    {
      "icao": "LZIB",
      "iata": "BTS",
      "name": "M. R. Štefánik Airport",
      "lat": 48.1702,
      "lon": 17.2127,
      "updatedAt": "021730Z",
      "visibility_m": 9000,
      "taf_visibility_m": 2000,
      "worst_visibility_m": 2000,
      "ceiling_ft": 800,
      "hazards": [
        "FZRA",
        "SN",
        "RA"
      ],
      "severityScore": 90,
      "metarRaw": "METAR LZIB 021730Z 12010KT 9000 BKN008 BKN014 02/01 Q1009 NOSIG",
      "tafRaw": "TAF LZIB 021715Z 0218/0318 12012KT 9999 BKN008 OVC013 \n  TEMPO 0307/0311 2000 SN BKN004 \n  TEMPO 0310/0315 12015G25KT BKN013 \n  TEMPO 0311/0318 -FZRA"
    },
    {
      "icao": "UDYZ",
      "iata": "EVN",
      "name": "Zvartnots International Airport",
      "lat": 40.148941,
      "lon": 44.397887,
      "updatedAt": "021730Z",
      "visibility_m": 500,
      "taf_visibility_m": null,
      "worst_visibility_m": 500,
      "ceiling_ft": null,
      "hazards": [
        "FG",
        "SHRA",
        "RA"
      ],
      "severityScore": 86,
      "metarRaw": "METAR UDYZ 021730Z 33001KT 0500 0450W R08/1300U -SHRA FG BKN036CB 01/01 Q1016 NOSIG",
      "tafRaw": null
    },
    {
      "icao": "LKPR",
      "iata": "PRG",
      "name": "Václav Havel Airport Prague",
      "lat": 50.100874,
      "lon": 14.259911,
      "updatedAt": "021730Z",
      "visibility_m": 7000,
      "taf_visibility_m": 900,
      "worst_visibility_m": 900,
      "ceiling_ft": 1700,
      "hazards": [
        "FZFG",
        "BR",
        "FG"
      ],
      "severityScore": 82,
      "metarRaw": "METAR LKPR 021730Z 09010KT 7000 FEW014 OVC017 M01/M02 Q1006 NOSIG",
      "tafRaw": "TAF LKPR 021700Z 0218/0324 08008KT 8000 SCT009 OVC014 \n  TEMPO 0218/0222 4500 BR BKN009 \n  BECMG 0222/0224 2500 BR OVC007 \n  TEMPO 0300/0308 0900 FZFG OVC003 \n  BECMG 0309/0311 12012KT 7000 BKN016 \n  TEMPO 0311/0318 9999 BKN022 \n  BECMG 0320/0322 BKN011"
    },
    {
      "icao": "OJAI",
      "iata": "AMM",
      "name": "Queen Alia International Airport",
      "lat": 31.7226009369,
      "lon": 35.9931983948,
      "updatedAt": "021700Z",
      "visibility_m": 3000,
      "taf_visibility_m": 1500,
      "worst_visibility_m": 1500,
      "ceiling_ft": 2500,
      "hazards": [
        "BR",
        "TSRA",
        "RA",
        "TS"
      ],
      "severityScore": 82,
      "metarRaw": "METAR OJAI 021700Z 27010KT 3000 HZ NSC 14/03 Q1017 NOSIG",
      "tafRaw": "TAF OJAI 021700Z 0218/0324 27012KT 3000 HZ NSC \n  PROB40 0218/0300 28014KT 1500 DU \n  PROB40 \n  TEMPO 0303/0316 2000 RA FEW025TCU BKN030 \n  PROB40 \n  TEMPO 0305/0316 27018G28KT 2000 TSRA FEW020CB BKN025 \n  PROB30 \n  TEMPO 0316/0324 4000 BR"
    },
    {
      "icao": "LQSA",
      "iata": "SJJ",
      "name": "Sarajevo International Airport",
      "lat": 43.8246,
      "lon": 18.331499,
      "updatedAt": "021730Z",
      "visibility_m": 10000,
      "taf_visibility_m": 1200,
      "worst_visibility_m": 1200,
      "ceiling_ft": 400,
      "hazards": [
        "RA",
        "FG"
      ],
      "severityScore": 77,
      "metarRaw": "METAR LQSA 021730Z VRB02KT CAVOK M00/M01 Q1009 NOSIG",
      "tafRaw": "TAF LQSA 021700Z 0218/0318 VRB02KT CAVOK TX11/0314Z TNM03/0301Z \n  PROB30 \n  TEMPO 0218/0301 1200 BCFG BKN004 \n  PROB30 \n  TEMPO 0301/0308 14010KT \n  PROB40 \n  TEMPO 0308/0315 15015KT \n  PROB40 \n  TEMPO 0315/0318 RA"
    },
    {
      "icao": "EGPD",
      "iata": "ABZ",
      "name": "Aberdeen International Airport",
      "lat": 57.2019,
      "lon": -2.19778,
      "updatedAt": "021750Z",
      "visibility_m": 5000,
      "taf_visibility_m": 3000,
      "worst_visibility_m": 3000,
      "ceiling_ft": 400,
      "hazards": [
        "RA",
        "DZ",
        "SN"
      ],
      "severityScore": 75,
      "metarRaw": "METAR EGPD 021750Z COR AUTO 11014KT 5000 -RADZ BKN007/// OVC020/// //////TCU 04/02 Q1006 RERA TEMPO BKN004",
      "tafRaw": "TAF EGPD 021654Z 0218/0318 11013KT 9999 SCT012 BKN018 \n  TEMPO 0218/0318 12016G28KT \n  TEMPO 0218/0303 8000 -RADZ BKN010 \n  PROB40 \n  TEMPO 0218/0303 4000 RADZ BKN006 \n  TEMPO 0303/0318 5000 -RASN BKN008 \n  PROB40 \n  TEMPO 0306/0318 3000 RASN BKN004"
    },
    {
      "icao": "LIMF",
      "iata": "TRN",
      "name": "Turin Airport",
      "lat": 45.200802,
      "lon": 7.64963,
      "updatedAt": "021720Z",
      "visibility_m": 4000,
      "taf_visibility_m": 800,
      "worst_visibility_m": 800,
      "ceiling_ft": 4500,
      "hazards": [
        "BR",
        "DZ",
        "RA",
        "SN"
      ],
      "severityScore": 75,
      "metarRaw": "METAR LIMF 021720Z 01001KT 4000 -DZ BR OVC045 05/01 Q1007",
      "tafRaw": "TAF LIMF 021700Z 0218/0318 VRB05KT 3000 RA OVC010 \n  TEMPO 0302/0308 0800 SNRA OVC003 \n  BECMG 0306/0308 NSW \n  BECMG 0308/0310 7000 SCT015"
    },
    {
      "icao": "EHEH",
      "iata": "EIN",
      "name": "Eindhoven Airport",
      "lat": 51.4500999451,
      "lon": 5.37452983856,
      "updatedAt": null,
      "visibility_m": null,
      "taf_visibility_m": 4000,
      "worst_visibility_m": 4000,
      "ceiling_ft": 600,
      "hazards": [
        "FZRA",
        "RA"
      ],
      "severityScore": 72,
      "metarRaw": null,
      "tafRaw": "TAF EHEH 021126Z 0212/0318 09010KT 9999 BKN030 \n  TEMPO 0212/0214 SCT015 \n  BECMG 0306/0308 BKN018 \n  PROB40 \n  TEMPO 0308/0313 4000 RA SCT006 BKN012 \n  PROB30 \n  TEMPO 0308/0312 FZRA \n  TEMPO 0316/0318 4000 RA SCT004 BKN006"
    },
    {
      "icao": "LQBK",
      "iata": "BNX",
      "name": "Banja Luka International Airport",
      "lat": 44.941399,
      "lon": 17.297501,
      "updatedAt": "021730Z",
      "visibility_m": 10000,
      "taf_visibility_m": 2000,
      "worst_visibility_m": 2000,
      "ceiling_ft": 1200,
      "hazards": [
        "BR",
        "FZRA",
        "RA"
      ],
      "severityScore": 69,
      "metarRaw": "METAR LQBK 021730Z 01003KT 9999 BKN012 OVC017 01/M01 Q1011 NOSIG",
      "tafRaw": "TAF LQBK 021700Z 0218/0318 07005KT 9999 BKN012 TX08/0314Z TNM01/0305Z \n  TEMPO 0300/0309 3000 BR \n  PROB30 \n  TEMPO 0302/0306 2000 -FZRA BR BKN009 \n  BECMG 0309/0311 SCT020"
    },
    {
      "icao": "LTFM",
      "iata": "IST",
      "name": "İstanbul Airport",
      "lat": 41.261297,
      "lon": 28.741951,
      "updatedAt": "021720Z",
      "visibility_m": 10000,
      "taf_visibility_m": 10000,
      "worst_visibility_m": 10000,
      "ceiling_ft": 700,
      "hazards": [
        "SN",
        "RA",
        "SHSN"
      ],
      "severityScore": 65,
      "metarRaw": "METAR LTFM 021720Z 35022KT 9999 -SHRASN BKN007 BKN022 02/00 Q1013 NOSIG RMK RWY17L 31022KT RWY34L 34020KT RWY16R 35017KT RWY36 35021KT RWY18 35022KT",
      "tafRaw": "TAF LTFM 021640Z 0218/0324 34020G32KT 9999 -SHRASN BKN007 BKN022 \n  TEMPO 0218/0222 -SHSN \n  BECMG 0220/0223 34015KT \n  PROB30 \n  TEMPO 0222/0302 -SHSN \n  BECMG 0309/0312 VRB02KT SCT035"
    },
    {
      "icao": "GMMX",
      "iata": "RAK",
      "name": "Marrakesh Menara Airport",
      "lat": 31.604807,
      "lon": -8.035788,
      "updatedAt": "021730Z",
      "visibility_m": 2500,
      "taf_visibility_m": 2500,
      "worst_visibility_m": 2500,
      "ceiling_ft": 2000,
      "hazards": [
        "RA",
        "TSRA",
        "TS"
      ],
      "severityScore": 62,
      "metarRaw": "METAR GMMX 021730Z 22005KT 180V260 6000 SCT013 BKN020 11/09 Q1014 TEMPO 2500 RA",
      "tafRaw": "TAF GMMX 021700Z 0218/0324 22006KT 5000 SCT013 BKN020 \n  TEMPO 0218/0223 30016G27KT 2500 TSRA SCT013 BKN020 FEW026CB \n  BECMG 0301/0303 8000 SCT023 BKN030 \n  TEMPO 0304/0313 3000 RA BKN013"
    },
    {
      "icao": "LCPH",
      "iata": "PFO",
      "name": "Paphos International Airport",
      "lat": 34.717999,
      "lon": 32.485699,
      "updatedAt": "021730Z",
      "visibility_m": 10000,
      "taf_visibility_m": 3000,
      "worst_visibility_m": 3000,
      "ceiling_ft": 3500,
      "hazards": [
        "TSRA",
        "RA",
        "TS"
      ],
      "severityScore": 62,
      "metarRaw": "METAR LCPH 021730Z 26015KT 250V320 9999 FEW025TCU BKN035 17/13 Q1012 NOSIG",
      "tafRaw": "TAF LCPH 021730Z 0218/0318 25020KT 9999 DU FEW020 \n  TEMPO 0218/0306 5000 RA SCT025TCU FEW030CB \n  PROB30 \n  TEMPO 0218/0303 3000 TSRA SCT025CB \n  BECMG 0223/0301 31020KT \n  PROB30 \n  TEMPO 0223/0318 30020G30KT"
    },
    {
      "icao": "LFLS",
      "iata": "GNB",
      "name": "Grenoble Alpes Isère Airport",
      "lat": 45.3629,
      "lon": 5.32937,
      "updatedAt": "021730Z",
      "visibility_m": 10000,
      "taf_visibility_m": 2000,
      "worst_visibility_m": 2000,
      "ceiling_ft": 10000,
      "hazards": [
        "TSRA",
        "RA",
        "TS"
      ],
      "severityScore": 62,
      "metarRaw": "METAR LFLS 021730Z AUTO VRB03KT 9999 FEW049 OVC100 08/06 Q0995 NOSIG",
      "tafRaw": "TAF LFLS 021400Z 0215/0315 21010KT 9999 BKN050 \n  TEMPO 0303/0305 19020G40KT 4000 RA SCT035CB BKN040 \n  PROB40 \n  TEMPO 0303/0305 19025G50KT \n  PROB30 \n  TEMPO 0303/0305 2000 +TSRA \n  TEMPO 0305/0309 19015G30KT RA BKN015 OVC030"
    },
    {
      "icao": "LLBG",
      "iata": "TLV",
      "name": "Ben Gurion International Airport",
      "lat": 32.011398,
      "lon": 34.8867,
      "updatedAt": "021750Z",
      "visibility_m": 6000,
      "taf_visibility_m": 5000,
      "worst_visibility_m": 5000,
      "ceiling_ft": 2500,
      "hazards": [
        "TSRA",
        "RA",
        "TS"
      ],
      "severityScore": 62,
      "metarRaw": "METAR LLBG 021750Z 24006KT 6000 NSC 17/10 Q1017 NOSIG",
      "tafRaw": "TAF LLBG 021702Z 0218/0318 24005KT 5000 DU NSC \n  BECMG 0219/0221 20008KT 9999 NSW SCT025 \n  PROB40 \n  TEMPO 0302/0308 22015G25KT 5000 TSRA FEW015 FEW020CB BKN025 \n  BECMG 0308/0310 27015KT SCT030 \n  PROB40 \n  TEMPO 0310/0313 7000 RA FEW025TCU BKN030 TX18/0312Z TN13/0304Z"
    },
    {
      "icao": "EGGW",
      "iata": "LTN",
      "name": "London Luton Airport",
      "lat": 51.874699,
      "lon": -0.368333,
      "updatedAt": "021750Z",
      "visibility_m": 10000,
      "taf_visibility_m": 2000,
      "worst_visibility_m": 2000,
      "ceiling_ft": 900,
      "hazards": [
        "SHRA",
        "DZ",
        "RA"
      ],
      "severityScore": 61,
      "metarRaw": "METAR EGGW 021750Z AUTO 09011KT 060V120 9999 BKN009 OVC027 06/05 Q0994",
      "tafRaw": "TAF EGGW 021656Z 0218/0318 09009KT 9999 BKN015 \n  TEMPO 0218/0222 BKN008 \n  PROB30 \n  TEMPO 0218/0220 8000 -SHRA \n  BECMG 0302/0305 BKN010 \n  PROB30 \n  TEMPO 0302/0305 6000 -DZ BKN008 \n  TEMPO 0305/0315 5000 -RADZ BKN008 \n  TEMPO 0315/0318 5000 -RADZ BKN006 \n  PROB30 \n  TEMPO 0316/0318 2000 RADZ BKN002"
    },
    {
      "icao": "LPPR",
      "iata": "OPO",
      "name": "Francisco de Sá Carneiro Airport",
      "lat": 41.2481002808,
      "lon": -8.68138980865,
      "updatedAt": "021730Z",
      "visibility_m": 10000,
      "taf_visibility_m": 1500,
      "worst_visibility_m": 1500,
      "ceiling_ft": 3000,
      "hazards": [
        "SHRA",
        "RA",
        "TS"
      ],
      "severityScore": 61,
      "metarRaw": "METAR LPPR 021730Z 25010KT 220V290 9999 -SHRA FEW015 FEW018CB BKN030 09/07 Q0995 RESHRA",
      "tafRaw": "TAF LPPR 021700Z 0218/0318 25012KT 9999 FEW015 SCT030 \n  TEMPO 0218/0318 5000 SHRA BKN012 FEW018CB BKN030 \n  PROB40 \n  TEMPO 0218/0312 26017G32KT 1500 +TSRAGS BKN008 SCT015CB \n  BECMG 0316/0318 19010KT 8000 -RA SCT008 BKN015"
    },
    {
      "icao": "LIMC",
      "iata": "MXP",
      "name": "Milan Malpensa International Airport",
      "lat": 45.6306,
      "lon": 8.72811,
      "updatedAt": "021720Z",
      "visibility_m": 5000,
      "taf_visibility_m": 1200,
      "worst_visibility_m": 1200,
      "ceiling_ft": 2500,
      "hazards": [
        "BR",
        "RA",
        "DZ",
        "SN"
      ],
      "severityScore": 60,
      "metarRaw": "METAR LIMC 021720Z 22003KT 200V260 5000 DZ BR BKN025 05/03 Q1007 BECMG RA",
      "tafRaw": "TAF LIMC 021700Z 0218/0324 VRB05KT 3000 RA OVC010 \n  PROB30 \n  TEMPO 0305/0309 1200 RASN OVC003 \n  BECMG 0310/0312 6000 NSW OVC020 \n  BECMG 0318/0320 3000 BR"
    },
    {
      "icao": "EGKK",
      "iata": "LGW",
      "name": "London Gatwick Airport",
      "lat": 51.148771,
      "lon": -0.192089,
      "updatedAt": "021750Z",
      "visibility_m": 10000,
      "taf_visibility_m": 3000,
      "worst_visibility_m": 3000,
      "ceiling_ft": 300,
      "hazards": [
        "RA",
        "DZ"
      ],
      "severityScore": 57,
      "metarRaw": "METAR EGKK 021750Z 09009KT 9999 SCT015 06/05 Q0993",
      "tafRaw": "TAF EGKK 021657Z 0218/0324 08010KT 9999 SCT015 BKN030 \n  PROB30 \n  TEMPO 0221/0224 BKN010 \n  BECMG 0300/0303 BKN010 \n  TEMPO 0302/0318 6000 -RADZ BKN007 \n  PROB40 \n  TEMPO 0303/0321 3000 RADZ \n  BECMG 0314/0317 VRB03KT \n  PROB40 \n  TEMPO 0317/0321 BKN003 \n  PROB30 \n  TEMPO 0321/0324 6000 BKN003"
    },
    {
      "icao": "LFSB",
      "iata": "BSL",
      "name": "EuroAirport Basel–Mulhouse–Freiburg",
      "lat": 47.60068,
      "lon": 7.521117,
      "updatedAt": "021730Z",
      "visibility_m": 10000,
      "taf_visibility_m": 4000,
      "worst_visibility_m": 4000,
      "ceiling_ft": 400,
      "hazards": [
        "BR",
        "RA"
      ],
      "severityScore": 57,
      "metarRaw": "METAR LFSB 021730Z AUTO 02003KT 340V070 9999 FEW054 06/04 Q0998 NOSIG",
      "tafRaw": "TAF LFSB 021700Z 0218/0318 04004KT CAVOK \n  TEMPO 0220/0223 4000 RA \n  TEMPO 0223/0310 OVC004 \n  PROB40 \n  TEMPO 0223/0308 4000 BR \n  BECMG 0308/0310 16010KT"
    },
    {
      "icao": "LQTZ",
      "iata": "TZL",
      "name": "Tuzla International Airport",
      "lat": 44.459858,
      "lon": 18.723627,
      "updatedAt": "021730Z",
      "visibility_m": 10000,
      "taf_visibility_m": 2000,
      "worst_visibility_m": 2000,
      "ceiling_ft": 2500,
      "hazards": [
        "BR",
        "FZRA",
        "RA"
      ],
      "severityScore": 57,
      "metarRaw": "METAR LQTZ 021730Z 12007KT 9999 BKN025 01/M01 Q1011",
      "tafRaw": "TAF LQTZ 021700Z 0218/0318 06005KT 9999 BKN020 TX10/0314Z TNM02/0305Z \n  TEMPO 0221/0309 3000 BR \n  PROB30 \n  TEMPO 0303/0306 2000 -FZRA BR BKN009 \n  TEMPO 0309/0315 12010KT"
    },
    {
      "icao": "GMAD",
      "iata": "AGA",
      "name": "Al Massira Airport",
      "lat": 30.322478,
      "lon": -9.412003,
      "updatedAt": "021730Z",
      "visibility_m": 1500,
      "taf_visibility_m": 6000,
      "worst_visibility_m": 1500,
      "ceiling_ft": 300,
      "hazards": [
        "DZ"
      ],
      "severityScore": 55,
      "metarRaw": "METAR GMAD 021730Z 32006KT 1500 R27/1700N DZ BKN003 BKN016 14/14 Q1013 NOSIG",
      "tafRaw": "TAF GMAD 021700Z 0218/0324 30008KT 6000 BKN003 BKN016 \n  BECMG 0304/0306 06008KT 8000 SCT020"
    },
    {
      "icao": "EDLW",
      "iata": "DTM",
      "name": "Dortmund Airport",
      "lat": 51.518299,
      "lon": 7.61224,
      "updatedAt": "021720Z",
      "visibility_m": 10000,
      "taf_visibility_m": 2500,
      "worst_visibility_m": 2500,
      "ceiling_ft": 700,
      "hazards": [
        "RA",
        "SN"
      ],
      "severityScore": 55,
      "metarRaw": "METAR EDLW 021720Z 05009KT CAVOK 02/M01 Q1002",
      "tafRaw": "TAF EDLW 021700Z 0218/0318 07009KT 9999 SCT030 \n  BECMG 0311/0314 BKN012 \n  TEMPO 0312/0318 4500 -RA BKN007 \n  PROB30 \n  TEMPO 0312/0316 2500 RASN"
    },
    {
      "icao": "EYKA",
      "iata": "KUN",
      "name": "Kaunas International Airport",
      "lat": 54.963965,
      "lon": 24.08582,
      "updatedAt": "021750Z",
      "visibility_m": 8000,
      "taf_visibility_m": 1500,
      "worst_visibility_m": 1500,
      "ceiling_ft": 200,
      "hazards": [
        "BR"
      ],
      "severityScore": 55,
      "metarRaw": "METAR EYKA 021750Z 24002KT 8000 NSC M18/M20 Q1021",
      "tafRaw": "TAF EYKA 021700Z 0218/0318 VRB04KT 5000 BR NSC \n  TEMPO 0218/0306 3000 SCT002 \n  PROB40 \n  TEMPO 0218/0306 1500 BKN002 \n  BECMG 0306/0308 8000 NSW \n  TEMPO 0308/0315 FEW005 \n  TEMPO 0315/0318 5000 BR FEW002"
    },
    {
      "icao": "LRSM",
      "iata": "SUJ",
      "name": "Satu Mare International Airport",
      "lat": 47.7033,
      "lon": 22.8857,
      "updatedAt": "021730Z",
      "visibility_m": 6000,
      "taf_visibility_m": 3000,
      "worst_visibility_m": 3000,
      "ceiling_ft": 500,
      "hazards": [
        "BR",
        "SN"
      ],
      "severityScore": 53,
      "metarRaw": "METAR LRSM 021730Z AUTO 24008KT 6000 SG SCT004/// OVC006/// M00/M02 Q1013",
      "tafRaw": "TAF LRSM 021400Z 0215/0224 24006KT 9999 BKN010 OVC030 \n  TEMPO 0215/0218 5000 -SN BR BKN005 OVC020 \n  BECMG 0218/0220 3000 BR BKN005 OVC020"
    },
    {
      "icao": "LPFR",
      "iata": "FAO",
      "name": "Faro - Gago Coutinho International Airport",
      "lat": 37.015909,
      "lon": -7.970939,
      "updatedAt": "021730Z",
      "visibility_m": 10000,
      "taf_visibility_m": 3000,
      "worst_visibility_m": 3000,
      "ceiling_ft": 3000,
      "hazards": [
        "RA",
        "SHRA",
        "TS"
      ],
      "severityScore": 51,
      "metarRaw": "METAR LPFR 021730Z 28019KT 9999 FEW012 FEW020CB BKN030 13/08 Q1005",
      "tafRaw": "TAF LPFR 021700Z 0218/0318 27018KT 9999 FEW018 SCT030 \n  TEMPO 0218/0316 26025G37KT 7000 SHRA BKN015 FEW020CB \n  PROB30 \n  TEMPO 0218/0224 3000 TSRAGS BKN010 SCT018CB \n  BECMG 0316/0318 21015KT 8000 -RA SCT008 BKN015"
    },
    {
      "icao": "LHBP",
      "iata": "BUD",
      "name": "Budapest Liszt Ferenc International Airport",
      "lat": 47.43018,
      "lon": 19.262393,
      "updatedAt": "021730Z",
      "visibility_m": 10000,
      "taf_visibility_m": 1400,
      "worst_visibility_m": 1400,
      "ceiling_ft": 10000,
      "hazards": [
        "SN",
        "RA",
        "DZ"
      ],
      "severityScore": 50,
      "metarRaw": "METAR LHBP 021730Z 14006KT 9999 SCT026 BKN100 01/M02 Q1012 NOSIG",
      "tafRaw": "TAF LHBP 021715Z 0218/0318 12006KT 9999 BKN040 \n  TEMPO 0218/0224 BKN008 BKN025 \n  BECMG 0304/0308 10012KT 6000 -SN BKN005 OVC020 \n  TEMPO 0308/0312 1400 +SN VV003 \n  BECMG 0312/0315 -RASN -RA BKN006 OVC030 \n  TEMPO 0315/0318 5000 RADZ OVC004"
    },
    {
      "icao": "LOWW",
      "iata": "VIE",
      "name": "Vienna International Airport",
      "lat": 48.110298,
      "lon": 16.5697,
      "updatedAt": "021720Z",
      "visibility_m": 9000,
      "taf_visibility_m": 1200,
      "worst_visibility_m": 1200,
      "ceiling_ft": 1100,
      "hazards": [
        "BR",
        "SN"
      ],
      "severityScore": 50,
      "metarRaw": "METAR LOWW 021720Z 14016KT 9000 FEW009 BKN011 02/M00 Q1007 NOSIG",
      "tafRaw": "TAF LOWW 021715Z 0218/0324 13015KT 8000 BKN012 TX02/0218Z TNM00/0308Z \n  TEMPO 0222/0324 4000 BR OVC005 \n  PROB30 \n  TEMPO 0222/0312 1200 -SN BR BKN003 \n  PROB40 \n  TEMPO 0307/0318 16020G30KT"
    },
    {
      "icao": "EBCI",
      "iata": "CRL",
      "name": "Brussels South Charleroi Airport",
      "lat": 50.461963,
      "lon": 4.459562,
      "updatedAt": "021720Z",
      "visibility_m": 10000,
      "taf_visibility_m": 4500,
      "worst_visibility_m": 4500,
      "ceiling_ft": 1200,
      "hazards": [
        "RA",
        "SHRA",
        "DZ"
      ],
      "severityScore": 48,
      "metarRaw": "METAR EBCI 021720Z 09007KT 9999 FEW015 SCT020 06/03 Q0997 NOSIG",
      "tafRaw": "TAF EBCI 021720Z 0218/0324 12005KT 9999 FEW020 BKN035 \n  PROB40 \n  TEMPO 0303/0309 4500 -RADZ SCT006 BKN012 \n  BECMG 0309/0311 18012KT \n  PROB30 \n  TEMPO 0309/0316 4500 RA SCT008 BKN012 \n  PROB30 \n  TEMPO 0316/0320 SHRA BKN014TCU"
    },
    {
      "icao": "EDSB",
      "iata": "FKB",
      "name": "Karlsruhe Baden-Baden Airport",
      "lat": 48.7794,
      "lon": 8.0805,
      "updatedAt": "021720Z",
      "visibility_m": 7000,
      "taf_visibility_m": 4500,
      "worst_visibility_m": 4500,
      "ceiling_ft": 400,
      "hazards": [
        "RA"
      ],
      "severityScore": 47,
      "metarRaw": "METAR EDSB 021720Z 02011KT 7000 SCT007 02/01 Q1000",
      "tafRaw": "TAF EDSB 021700Z 0218/0318 03010KT 9999 BKN008 \n  PROB30 \n  TEMPO 0218/0309 BKN004 \n  BECMG 0300/0302 SCT004 OVC040 \n  PROB30 \n  TEMPO 0309/0317 4500 -RA BKN004 OVC030 \n  BECMG 0309/0312 20004KT"
    },
    {
      "icao": "EGBB",
      "iata": "BHX",
      "name": "Birmingham Airport",
      "lat": 52.453899,
      "lon": -1.74803,
      "updatedAt": "021750Z",
      "visibility_m": 5000,
      "taf_visibility_m": 4000,
      "worst_visibility_m": 4000,
      "ceiling_ft": 800,
      "hazards": [
        "RA",
        "DZ"
      ],
      "severityScore": 47,
      "metarRaw": "METAR EGBB 021750Z 09010KT 5000 -RADZ BKN008 06/05 Q0995",
      "tafRaw": "TAF EGBB 021659Z 0218/0318 08012KT 9999 BKN012 \n  TEMPO 0218/0310 6000 -RADZ BKN008 \n  PROB40 \n  TEMPO 0218/0224 4000 RADZ BKN004 \n  TEMPO 0310/0318 4000 RA BKN008"
    },
    {
      "icao": "EHBK",
      "iata": "MST",
      "name": "Maastricht Aachen Airport",
      "lat": 50.911701,
      "lon": 5.77014,
      "updatedAt": "021725Z",
      "visibility_m": 10000,
      "taf_visibility_m": 6000,
      "worst_visibility_m": 6000,
      "ceiling_ft": 800,
      "hazards": [
        "RA",
        "DZ"
      ],
      "severityScore": 47,
      "metarRaw": "METAR EHBK 021725Z AUTO 09009KT 9999 NCD 04/02 Q0999 NOSIG",
      "tafRaw": "TAF EHBK 021718Z 0218/0324 09012KT CAVOK \n  TEMPO 0307/0312 7000 RA \n  PROB30 \n  TEMPO 0308/0311 BKN008 \n  BECMG 0317/0319 20008KT \n  TEMPO 0317/0319 6000 RADZ BKN008"
    },
    {
      "icao": "LYBE",
      "iata": "BEG",
      "name": "Belgrade Nikola Tesla Airport",
      "lat": 44.818401,
      "lon": 20.309099,
      "updatedAt": "021730Z",
      "visibility_m": 10000,
      "taf_visibility_m": 10000,
      "worst_visibility_m": 10000,
      "ceiling_ft": null,
      "hazards": [
        "FZRA",
        "RA"
      ],
      "severityScore": 47,
      "metarRaw": "METAR LYBE 021730Z 11009KT CAVOK M01/M05 Q1013 NOSIG",
      "tafRaw": "TAF LYBE 021700Z 0218/0318 12009KT CAVOK TX05/0312Z TNM03/0306Z \n  PROB30 0306/0309 -FZRA"
    },
    {
      "icao": "LEMD",
      "iata": "MAD",
      "name": "Adolfo Suárez Madrid–Barajas Airport",
      "lat": 40.471926,
      "lon": -3.56264,
      "updatedAt": "021730Z",
      "visibility_m": 10000,
      "taf_visibility_m": 4000,
      "worst_visibility_m": 4000,
      "ceiling_ft": 2500,
      "hazards": [
        "BR",
        "RA",
        "SHRA",
        "DZ"
      ],
      "severityScore": 46,
      "metarRaw": "METAR LEMD 021730Z 22013G23KT 190V260 9999 SCT018 BKN025 06/03 Q0997 NOSIG",
      "tafRaw": "TAF LEMD 021700Z 0218/0324 22010KT 9999 SCT020 TX08/0314Z TN04/0306Z \n  TEMPO 0218/0301 22015G25KT \n  PROB30 \n  TEMPO 0300/0312 4000 DZRA BR BKN014 \n  TEMPO 0310/0318 23015G25KT \n  PROB30 \n  TEMPO 0312/0318 DZ SHRA FEW025TCU \n  TEMPO 0318/0324 RA DZRA BKN010"
    },
    {
      "icao": "EETN",
      "iata": "TLL",
      "name": "Lennart Meri Tallinn Airport",
      "lat": 59.413246,
      "lon": 24.83264,
      "updatedAt": "021750Z",
      "visibility_m": 10000,
      "taf_visibility_m": 2000,
      "worst_visibility_m": 2000,
      "ceiling_ft": 300,
      "hazards": [
        "BR"
      ],
      "severityScore": 45,
      "metarRaw": "METAR EETN 021750Z 35007KT CAVOK M09/M14 Q1024 NOSIG",
      "tafRaw": "TAF EETN 021730Z 0218/0318 03012KT CAVOK \n  PROB40 \n  TEMPO 0302/0312 2000 BR BKN003"
    },
    {
      "icao": "EYVI",
      "iata": "VNO",
      "name": "Vilnius International Airport",
      "lat": 54.634102,
      "lon": 25.285801,
      "updatedAt": "021750Z",
      "visibility_m": 8000,
      "taf_visibility_m": 1500,
      "worst_visibility_m": 1500,
      "ceiling_ft": 500,
      "hazards": [
        "BR"
      ],
      "severityScore": 45,
      "metarRaw": "METAR EYVI 021750Z VRB02KT 8000 NSC M18/M20 Q1018 NOSIG",
      "tafRaw": "TAF EYVI 021700Z 0218/0318 VRB04KT 5000 BR NSC \n  TEMPO 0218/0224 3000 FEW002 SCT005 \n  PROB40 \n  TEMPO 0221/0224 1500 BKN015 \n  TEMPO 0300/0306 3000 SCT002 \n  BECMG 0306/0309 8000 NSW SCT010 \n  TEMPO 0309/0318 SCT005 BKN010 \n  PROB40 \n  TEMPO 0309/0312 BKN005"
    },
    {
      "icao": "UBBB",
      "iata": "GYD",
      "name": "Heydar Aliyev International Airport",
      "lat": 40.467498779296875,
      "lon": 50.04669952392578,
      "updatedAt": "021730Z",
      "visibility_m": 10000,
      "taf_visibility_m": 4000,
      "worst_visibility_m": 4000,
      "ceiling_ft": 1000,
      "hazards": [
        "BR",
        "FG"
      ],
      "severityScore": 42,
      "metarRaw": "METAR UBBB 021730Z 18024G34KT 9999 BKN010 09/07 Q1011 NOSIG",
      "tafRaw": "TAF UBBB 021710Z 0218/0318 19022G32KT 8000 BKN012 BKN030 TX10/0310Z TN06/0300Z \n  TEMPO 0218/0306 21028G38KT 4000 BR BCFG OVC006 \n  BECMG 0306/0308 32014KT \n  TEMPO 0312/0318 34020G30KT BKN008"
    },
    {
      "icao": "LRBV",
      "iata": "GHV",
      "name": "Brașov-Ghimbav International Airport",
      "lat": 45.70558,
      "lon": 25.522871,
      "updatedAt": "021730Z",
      "visibility_m": 10000,
      "taf_visibility_m": 5000,
      "worst_visibility_m": 5000,
      "ceiling_ft": 1500,
      "hazards": [
        "BR",
        "SN"
      ],
      "severityScore": 40,
      "metarRaw": "METAR LRBV 021730Z 06004KT 9999 SCT025 M02/M07 Q1011",
      "tafRaw": "TAF LRBV 021700Z 0218/0303 VRB04KT 9999 SCT030 \n  PROB30 \n  TEMPO 0218/0221 5000 -SN BKN015 BKN030 \n  TEMPO 0300/0303 5000 BR"
    },
    {
      "icao": "LRCL",
      "iata": "CLJ",
      "name": "Cluj Avram Iancu International Airport",
      "lat": 46.787425,
      "lon": 23.684292,
      "updatedAt": "021730Z",
      "visibility_m": 3000,
      "taf_visibility_m": 3000,
      "worst_visibility_m": 3000,
      "ceiling_ft": 1000,
      "hazards": [
        "BR",
        "SN"
      ],
      "severityScore": 40,
      "metarRaw": "METAR LRCL 021730Z VRB01KT 3000 -SN BR OVC010 00/M01 Q1012",
      "tafRaw": "TAF LRCL 021700Z 0218/0303 VRB04KT 3000 -SN BKN010 OVC030 \n  BECMG 0218/0220 5000 \n  BECMG 0220/0222 9999 NSW SCT015 BKN030 \n  TEMPO 0223/0303 3000 BR"
    },
    {
      "icao": "LPPS",
      "iata": "PXO",
      "name": "Porto Santo Airport",
      "lat": 33.0733985901,
      "lon": -16.3500003815,
      "updatedAt": "021730Z",
      "visibility_m": 10000,
      "taf_visibility_m": 8000,
      "worst_visibility_m": 8000,
      "ceiling_ft": 1300,
      "hazards": [
        "SHRA",
        "RA"
      ],
      "severityScore": 38,
      "metarRaw": "METAR LPPS 021730Z 31016KT 9999 FEW015 FEW018TCU 15/12 Q1014",
      "tafRaw": "TAF LPPS 021700Z 0218/0324 30020KT 9999 SCT015 SCT030 \n  PROB40 \n  TEMPO 0218/0221 30023G33KT \n  PROB30 \n  TEMPO 0218/0224 8000 SHRA BKN013 FEW018TCU \n  BECMG 0224/0302 30015KT \n  TEMPO 0302/0309 30017G27KT \n  BECMG 0309/0312 27020KT SCT013 BKN030 \n  TEMPO 0315/0324 27022G32KT"
    },
    {
      "icao": "LGTS",
      "iata": "SKG",
      "name": "Thessaloniki Macedonia International Airport",
      "lat": 40.51928,
      "lon": 22.970009,
      "updatedAt": "021720Z",
      "visibility_m": 10000,
      "taf_visibility_m": 5000,
      "worst_visibility_m": 5000,
      "ceiling_ft": 2500,
      "hazards": [
        "TS",
        "RA"
      ],
      "severityScore": 37,
      "metarRaw": "METAR LGTS 021720Z 29003KT 9999 FEW025 09/04 Q1012 NOSIG",
      "tafRaw": "TAF LGTS 021700Z 0218/0318 14013KT 9999 BKN030 \n  PROB30 \n  TEMPO 0300/0312 5000 RA FEW012 BKN025 \n  BECMG 0300/0302 VRB03KT"
    },
    {
      "icao": "LFBD",
      "iata": "BOD",
      "name": "Bordeaux–Mérignac Airport",
      "lat": 44.82865,
      "lon": -0.715356,
      "updatedAt": "021730Z",
      "visibility_m": 1500,
      "taf_visibility_m": 2500,
      "worst_visibility_m": 1500,
      "ceiling_ft": 2000,
      "hazards": [
        "RA",
        "SHRA"
      ],
      "severityScore": 36,
      "metarRaw": "METAR LFBD 021730Z AUTO 21010KT 9999 -RA FEW028/// BKN066/// OVC078/// ///TCU 12/10 Q0989 TEMPO VRB20G35KT 1500 RA BKN020",
      "tafRaw": "TAF LFBD 021700Z 0218/0324 20010KT CAVOK TX13/0314Z TN06/0307Z \n  TEMPO 0218/0220 24015G25KT 2500 -RA BKN020 \n  TEMPO 0220/0305 24015G25KT 3500 -SHRA BKN030TCU \n  BECMG 0316/0318 14005KT"
    },
    {
      "icao": "LFPO",
      "iata": "ORY",
      "name": "Paris-Orly Airport",
      "lat": 48.72333,
      "lon": 2.37944,
      "updatedAt": "021730Z",
      "visibility_m": 10000,
      "taf_visibility_m": 2500,
      "worst_visibility_m": 2500,
      "ceiling_ft": 4300,
      "hazards": [
        "RA",
        "SHRA",
        "DZ"
      ],
      "severityScore": 36,
      "metarRaw": "METAR LFPO 021730Z 09008KT 9999 BKN043 OVC120 09/06 Q0993 NOSIG",
      "tafRaw": "TAF LFPO 021700Z 0218/0324 10008KT 9999 SCT025 \n  BECMG 0221/0223 -RA BKN012 \n  TEMPO 0223/0309 4000 BKN008 \n  PROB40 \n  TEMPO 0302/0306 2500 -DZRA OVC004 \n  PROB40 \n  TEMPO 0306/0310 2500 RA \n  BECMG 0309/0311 22010G20KT BKN016 \n  PROB30 \n  TEMPO 0315/0319 4000 -SHRA SCT020TCU"
    },
    {
      "icao": "LHDC",
      "iata": "DEB",
      "name": "Debrecen International Airport",
      "lat": 47.488899,
      "lon": 21.615299,
      "updatedAt": "021715Z",
      "visibility_m": 10000,
      "taf_visibility_m": 3500,
      "worst_visibility_m": 3500,
      "ceiling_ft": 900,
      "hazards": [
        "BR"
      ],
      "severityScore": 35,
      "metarRaw": "METAR LHDC 021715Z AUTO 20007KT 9999 BKN009 M01/M02 Q1014 NOSIG",
      "tafRaw": "TAF LHDC 021715Z 0218/0303 20006KT 9999 SCT008 BKN020 \n  TEMPO 0218/0303 3500 BR BKN004 \n  BECMG 0222/0301 13004KT"
    },
    {
      "icao": "LIPQ",
      "iata": "TRS",
      "name": "Trieste–Friuli Venezia Giulia Airport",
      "lat": 45.827499,
      "lon": 13.4722,
      "updatedAt": "021720Z",
      "visibility_m": 10000,
      "taf_visibility_m": 4000,
      "worst_visibility_m": 4000,
      "ceiling_ft": 1200,
      "hazards": [
        "BR",
        "RA"
      ],
      "severityScore": 34,
      "metarRaw": "METAR LIPQ 021720Z AUTO 11003KT 9999 OVC058/// 07/02 Q1008",
      "tafRaw": "TAF LIPQ 021700Z 0218/0318 VRB05KT 9999 BKN040 \n  BECMG 0221/0223 4000 RA BKN012 \n  BECMG 0302/0304 05010KT \n  BECMG 0316/0318 BR \n  BECMG 0316/0318 NSW"
    },
    {
      "icao": "LIME",
      "iata": "BGY",
      "name": "Milan Bergamo Airport / Antonio Locatelli Air Base",
      "lat": 45.670725,
      "lon": 9.709223,
      "updatedAt": "021720Z",
      "visibility_m": 5000,
      "taf_visibility_m": 1300,
      "worst_visibility_m": 1300,
      "ceiling_ft": 3000,
      "hazards": [
        "RA",
        "BR"
      ],
      "severityScore": 32,
      "metarRaw": "METAR LIME 021720Z VRB02KT 5000 -RA FEW018 BKN030 05/03 Q1007 NOSIG",
      "tafRaw": "TAF LIME 021700Z 0218/0318 VRB05KT 3000 RA OVC015 \n  TEMPO 0306/0310 1300 BR OVC005 \n  BECMG 0309/0311 5000 BR \n  BECMG 0309/0311 NSW"
    },
    {
      "icao": "EDJA",
      "iata": "FMM",
      "name": "Memmingen Allgau Airport",
      "lat": 47.988092,
      "lon": 10.238248,
      "updatedAt": "021720Z",
      "visibility_m": 10000,
      "taf_visibility_m": 1200,
      "worst_visibility_m": 1200,
      "ceiling_ft": null,
      "hazards": [
        "FG"
      ],
      "severityScore": 30,
      "metarRaw": "METAR EDJA 021720Z 05007KT CAVOK 00/M02 Q1000",
      "tafRaw": "TAF EDJA 021700Z 0218/0303 06006KT CAVOK \n  PROB40 \n  TEMPO 0222/0302 1200 BCFG"
    },
    {
      "icao": "LJLJ",
      "iata": "LJU",
      "name": "Ljubljana Jože Pučnik Airport",
      "lat": 46.223701,
      "lon": 14.4576,
      "updatedAt": "021730Z",
      "visibility_m": 10000,
      "taf_visibility_m": 10000,
      "worst_visibility_m": 10000,
      "ceiling_ft": 4300,
      "hazards": [
        "RA",
        "SN"
      ],
      "severityScore": 30,
      "metarRaw": "METAR LJLJ 021730Z VRB01KT 9999 FEW030 BKN043 M00/M01 Q1008 NOSIG",
      "tafRaw": "TAF LJLJ 021700Z 0218/0318 VRB02KT 9999 SCT030 \n  PROB40 \n  TEMPO 0301/0308 -RASN BKN010 OVC030 \n  TEMPO 0308/0318 RA BKN008 OVC030"
    },
    {
      "icao": "LZKZ",
      "iata": "KSC",
      "name": "Košice International Airport",
      "lat": 48.663101,
      "lon": 21.2411,
      "updatedAt": "021730Z",
      "visibility_m": 10000,
      "taf_visibility_m": 2000,
      "worst_visibility_m": 2000,
      "ceiling_ft": 1400,
      "hazards": [
        "SN"
      ],
      "severityScore": 30,
      "metarRaw": "METAR LZKZ 021730Z 07005KT 9999 OVC016 M02/M08 Q1012 TEMPO BKN014",
      "tafRaw": "TAF LZKZ 021715Z 0218/0318 04005KT 9999 BKN018 \n  TEMPO 0300/0307 BKN013 \n  TEMPO 0316/0318 2000 SN BKN012"
    },
    {
      "icao": "ENTC",
      "iata": "TOS",
      "name": "Tromsø Airport, Langnes",
      "lat": 69.683296,
      "lon": 18.9189,
      "updatedAt": "021720Z",
      "visibility_m": 10000,
      "taf_visibility_m": 2000,
      "worst_visibility_m": 2000,
      "ceiling_ft": 3700,
      "hazards": [
        "SHSN",
        "SN"
      ],
      "severityScore": 28,
      "metarRaw": "METAR ENTC 021720Z 19009KT 9999 BKN037 M00/M03 Q1023 NOSIG RMK WIND 2600FT 28006KT",
      "tafRaw": "TAF ENTC 021700Z 0218/0318 20009KT 9999 FEW025 BKN035 \n  PROB40 \n  TEMPO 0218/0223 2000 -SHSN BKN008 FEW020TCU"
    },
    {
      "icao": "ESKN",
      "iata": "NYO",
      "name": "Stockholm Skavsta Airport",
      "lat": 58.789656,
      "lon": 16.911479,
      "updatedAt": "021750Z",
      "visibility_m": 10000,
      "taf_visibility_m": 1200,
      "worst_visibility_m": 1200,
      "ceiling_ft": 2500,
      "hazards": [
        "SN"
      ],
      "severityScore": 28,
      "metarRaw": "METAR ESKN 021750Z 03005KT 9999 -SN FEW010 BKN025 M06/M08 Q1026",
      "tafRaw": "TAF ESKN 021730Z 0218/0318 07005KT 9000 -SN BKN025 \n  PROB40 0218/0312 1200 SN BKN014"
    },
    {
      "icao": "LKMT",
      "iata": "OSR",
      "name": "Leoš Janáček Airport Ostrava",
      "lat": 49.696301,
      "lon": 18.111099,
      "updatedAt": "021730Z",
      "visibility_m": 10000,
      "taf_visibility_m": 4500,
      "worst_visibility_m": 4500,
      "ceiling_ft": 3200,
      "hazards": [
        "BR",
        "SN"
      ],
      "severityScore": 28,
      "metarRaw": "METAR LKMT 021730Z 03008KT 9999 OVC032 M07/M10 Q1012 NOSIG",
      "tafRaw": "TAF LKMT 021700Z 0218/0318 03006KT 9999 OVC035 \n  PROB40 \n  TEMPO 0219/0305 4500 -SN BR BKN016 OVC022"
    },
    {
      "icao": "LRBS",
      "iata": "BBU",
      "name": "Bucharest Băneasa Aurel Vlaicu International Airport",
      "lat": 44.503133,
      "lon": 26.102944,
      "updatedAt": "021730Z",
      "visibility_m": 5000,
      "taf_visibility_m": 3000,
      "worst_visibility_m": 3000,
      "ceiling_ft": 4500,
      "hazards": [
        "SN",
        "BR"
      ],
      "severityScore": 28,
      "metarRaw": "METAR LRBS 021730Z 31005KT 270V340 CAVOK M05/M10 Q1018 TEMPO 5000 -SN",
      "tafRaw": "TAF LRBS 021700Z 0218/0318 VRB04KT 9999 BKN045 \n  PROB40 \n  TEMPO 0218/0222 5000 -SN \n  PROB30 \n  TEMPO 0301/0306 3000 BR"
    },
    {
      "icao": "LRCV",
      "iata": "CRA",
      "name": "Craiova International Airport",
      "lat": 44.3181,
      "lon": 23.888599,
      "updatedAt": "021730Z",
      "visibility_m": 10000,
      "taf_visibility_m": 3000,
      "worst_visibility_m": 3000,
      "ceiling_ft": 4300,
      "hazards": [
        "SN",
        "BR"
      ],
      "severityScore": 28,
      "metarRaw": "METAR LRCV 021730Z 16003KT 9999 -SN FEW038 BKN043 M07/M09 Q1017",
      "tafRaw": "TAF LRCV 021700Z 0218/0303 VRB04KT 9999 SCT040 \n  TEMPO 0218/0220 5000 -SN BKN015 BKN040 \n  BECMG 0222/0224 5000 BR \n  TEMPO 0300/0303 3000 BR"
    },
    {
      "icao": "LROP",
      "iata": "OTP",
      "name": "Bucharest Henri Coandă International Airport",
      "lat": 44.571792,
      "lon": 26.103285,
      "updatedAt": "021730Z",
      "visibility_m": 5000,
      "taf_visibility_m": 3000,
      "worst_visibility_m": 3000,
      "ceiling_ft": 4500,
      "hazards": [
        "SN",
        "BR"
      ],
      "severityScore": 28,
      "metarRaw": "METAR LROP 021730Z 31005KT CAVOK M05/M11 Q1017 TEMPO 5000 -SN",
      "tafRaw": "TAF LROP 021700Z 0218/0318 VRB04KT 9999 BKN045 \n  PROB40 \n  TEMPO 0218/0222 5000 -SN \n  PROB30 \n  TEMPO 0301/0306 3000 BR"
    },
    {
      "icao": "BIKF",
      "iata": "KEF",
      "name": "Keflavik International Airport",
      "lat": 63.985001,
      "lon": -22.6056,
      "updatedAt": "021730Z",
      "visibility_m": 10000,
      "taf_visibility_m": 10000,
      "worst_visibility_m": 10000,
      "ceiling_ft": 3600,
      "hazards": [
        "SHRA",
        "RA"
      ],
      "severityScore": 26,
      "metarRaw": "METAR BIKF 021730Z 09011KT 9999 FEW023 BKN036 BKN240 07/04 Q1004",
      "tafRaw": "TAF BIKF 021650Z 0218/0318 09017KT 9999 FEW020 BKN035 TX07/0218Z TN04/0306Z \n  PROB40 \n  TEMPO 0223/0306 SHRA SCT014 BKN018 \n  BECMG 0307/0309 10022G32KT"
    },
    {
      "icao": "LFLL",
      "iata": "LYS",
      "name": "Lyon Saint-Exupéry Airport",
      "lat": 45.725996,
      "lon": 5.090139,
      "updatedAt": "021730Z",
      "visibility_m": 10000,
      "taf_visibility_m": 2000,
      "worst_visibility_m": 2000,
      "ceiling_ft": 7000,
      "hazards": [
        "RA",
        "SHRA"
      ],
      "severityScore": 26,
      "metarRaw": "METAR LFLL 021730Z 13008KT 9999 -RA FEW050 BKN070 09/06 Q0995 NOSIG",
      "tafRaw": "TAF LFLL 021700Z 0218/0324 16008KT CAVOK \n  TEMPO 0302/0308 18020G35KT 4000 RA SCT030TCU BKN040 \n  PROB40 \n  TEMPO 0303/0305 18025G45KT 2000 SCT025CB BKN040 \n  TEMPO 0310/0315 18015G25KT \n  TEMPO 0318/0322 18015G25KT FEW050CB BKN060 \n  PROB30 \n  TEMPO 0318/0322 18020G35KT 3000 SHRA"
    },
    {
      "icao": "LIRF",
      "iata": "FCO",
      "name": "Rome–Fiumicino Leonardo da Vinci International Airport",
      "lat": 41.804532,
      "lon": 12.251998,
      "updatedAt": "021720Z",
      "visibility_m": 10000,
      "taf_visibility_m": 4000,
      "worst_visibility_m": 4000,
      "ceiling_ft": null,
      "hazards": [
        "SHRA",
        "RA"
      ],
      "severityScore": 26,
      "metarRaw": "METAR LIRF 021720Z 13006KT CAVOK 11/06 Q1008 NOSIG",
      "tafRaw": "TAF LIRF 021700Z 0218/0324 16015KT CAVOK \n  TEMPO 0302/0309 16016G26KT \n  TEMPO 0309/0324 4000 SHRA"
    },
    {
      "icao": "LIRP",
      "iata": "PSA",
      "name": "Pisa International Airport",
      "lat": 43.683899,
      "lon": 10.3927,
      "updatedAt": "021715Z",
      "visibility_m": 10000,
      "taf_visibility_m": 3500,
      "worst_visibility_m": 3500,
      "ceiling_ft": 5000,
      "hazards": [
        "RA",
        "SHRA"
      ],
      "severityScore": 26,
      "metarRaw": "METAR LIRP 021715Z 12007KT 9999 SCT040 BKN050 08/05 Q1006 NOSIG",
      "tafRaw": "TAF LIRP 021700Z 0218/0318 13007KT 9999 SCT030 BKN040 \n  BECMG 0303/0305 14015KT 6000 RA BKN015 \n  TEMPO 0306/0310 30010KT 3500 SHRA FEW010CB \n  BECMG 0313/0315 14005KT 8000 NSW SCT020 BKN060"
    },
    {
      "icao": "LIRZ",
      "iata": "PEG",
      "name": "Perugia San Francesco d'Assisi – Umbria International Airport",
      "lat": 43.095901,
      "lon": 12.5132,
      "updatedAt": "021720Z",
      "visibility_m": 10000,
      "taf_visibility_m": 4000,
      "worst_visibility_m": 4000,
      "ceiling_ft": null,
      "hazards": [
        "SHRA",
        "RA"
      ],
      "severityScore": 26,
      "metarRaw": "METAR LIRZ 021720Z AUTO VRB02KT 9999 BKN075/// 09/04 Q1007",
      "tafRaw": "TAF LIRZ 021700Z 0218/0318 VRB06KT 9999 SCT040 \n  TEMPO 0312/0318 4000 SHRA"
    },
    {
      "icao": "LTAC",
      "iata": "ESB",
      "name": "Esenboğa International Airport",
      "lat": 40.128101,
      "lon": 32.995098,
      "updatedAt": "021720Z",
      "visibility_m": 10000,
      "taf_visibility_m": 10000,
      "worst_visibility_m": 10000,
      "ceiling_ft": 3500,
      "hazards": [
        "SHRA",
        "RA"
      ],
      "severityScore": 26,
      "metarRaw": "METAR LTAC 021720Z 19004KT 150V250 9999 -SHRA FEW030CB BKN035 BKN080 06/05 Q1004 NOSIG RMK RWY21C 16006KT RWY03L 19004KT RWY21R 16005KT RWY03R 18004KT RWY21L 17005KT",
      "tafRaw": "TAF LTAC 021640Z 0218/0318 VRB02KT 9999 SCT040 BKN100 \n  TEMPO 0218/0222 20015KT -SHRA FEW025CB BKN035 BKN080 \n  TEMPO 0222/0301 28012KT -SHRA SCT010 BKN025 BKN080"
    },
    {
      "icao": "UGKO",
      "iata": "KUT",
      "name": "David the Builder Kutaisi International Airport",
      "lat": 42.177448,
      "lon": 42.485353,
      "updatedAt": "021730Z",
      "visibility_m": 10000,
      "taf_visibility_m": 2000,
      "worst_visibility_m": 2000,
      "ceiling_ft": 5200,
      "hazards": [
        "RA",
        "SHRA"
      ],
      "severityScore": 26,
      "metarRaw": "METAR UGKO 021730Z 08023G35KT 9999 BKN052 12/05 Q1005 NOSIG",
      "tafRaw": "TAF UGKO 021700Z 0218/0318 08017KT 9999 BKN050 TX11/0218Z TN05/0318Z \n  TEMPO 0218/0221 08025G35KT RA SCT020 BKN035 \n  BECMG 0221/0224 08007KT \n  BECMG 0305/0308 25010KT \n  TEMPO 0306/0310 4000 SHRA BKN020CB OVC045 \n  TEMPO 0310/0318 2000 SHRA BKN017CB OVC030"
    },
    {
      "icao": "GCTS",
      "iata": "TFS",
      "name": "Tenerife Sur Airport",
      "lat": 28.0445,
      "lon": -16.5725,
      "updatedAt": "021730Z",
      "visibility_m": 10000,
      "taf_visibility_m": 10000,
      "worst_visibility_m": 10000,
      "ceiling_ft": 3000,
      "hazards": [
        "TS"
      ],
      "severityScore": 25,
      "metarRaw": "METAR GCTS 021730Z 10010KT 9999 BKN030 21/13 Q1016 NOSIG",
      "tafRaw": "TAF GCTS 021400Z 0215/0315 12008KT 9999 BKN030 TX23/0314Z TN15/0306Z \n  PROB30 \n  TEMPO 0215/0218 25010KT \n  PROB40 \n  TEMPO 0300/0305 23010KT"
    },
    {
      "icao": "EGGP",
      "iata": "LPL",
      "name": "Liverpool John Lennon Airport",
      "lat": 53.334863,
      "lon": -2.849637,
      "updatedAt": "021750Z",
      "visibility_m": 8000,
      "taf_visibility_m": 6000,
      "worst_visibility_m": 6000,
      "ceiling_ft": 2200,
      "hazards": [
        "RA",
        "DZ"
      ],
      "severityScore": 22,
      "metarRaw": "METAR EGGP 021750Z 09013KT 8000 FEW016 BKN022 BKN028 06/03 Q0996",
      "tafRaw": "TAF EGGP 021655Z 0218/0318 10014KT 9999 BKN030 \n  TEMPO 0218/0312 8000 BKN012 \n  TEMPO 0316/0318 6000 -RADZ BKN009"
    },
    {
      "icao": "EGPF",
      "iata": "GLA",
      "name": "Glasgow Airport",
      "lat": 55.871899,
      "lon": -4.43306,
      "updatedAt": "021750Z",
      "visibility_m": 10000,
      "taf_visibility_m": 6000,
      "worst_visibility_m": 6000,
      "ceiling_ft": 2900,
      "hazards": [
        "RA",
        "DZ"
      ],
      "severityScore": 22,
      "metarRaw": "METAR EGPF 021750Z AUTO 07014KT 9999 SCT025 BKN029 06/04 Q1000",
      "tafRaw": "TAF EGPF 021701Z 0218/0318 08012KT 9999 SCT030 \n  PROB30 \n  TEMPO 0218/0307 6000 -RADZ BKN012 \n  PROB30 \n  TEMPO 0220/0306 09015G25KT \n  PROB30 \n  TEMPO 0307/0318 8000 -RADZ \n  PROB30 \n  TEMPO 0312/0318 09015G25KT"
    },
    {
      "icao": "EPLB",
      "iata": "LUZ",
      "name": "Lublin Airport",
      "lat": 51.240157,
      "lon": 22.713461,
      "updatedAt": "021730Z",
      "visibility_m": 10000,
      "taf_visibility_m": 4500,
      "worst_visibility_m": 4500,
      "ceiling_ft": 1400,
      "hazards": [
        "BR"
      ],
      "severityScore": 22,
      "metarRaw": "METAR EPLB 021730Z 00000KT CAVOK M16/M20 Q1018",
      "tafRaw": "TAF EPLB 021730Z 0218/0318 06006KT CAVOK \n  PROB30 0300/0307 4500 BR \n  BECMG 0316/0318 BKN014"
    },
    {
      "icao": "LFOB",
      "iata": "BVA",
      "name": "Beauvais Tillé airport",
      "lat": 49.454399,
      "lon": 2.11278,
      "updatedAt": "021730Z",
      "visibility_m": 10000,
      "taf_visibility_m": 4000,
      "worst_visibility_m": 4000,
      "ceiling_ft": 3300,
      "hazards": [
        "RA",
        "DZ"
      ],
      "severityScore": 22,
      "metarRaw": "METAR LFOB 021730Z AUTO 09010KT 9999 OVC033 07/05 Q0993 NOSIG",
      "tafRaw": "TAF LFOB 021700Z 0218/0318 10010KT 9999 BKN030 \n  BECMG 0220/0223 BKN012 OVC016 \n  TEMPO 0223/0301 4000 RADZ BKN006 \n  TEMPO 0304/0318 4000 RA BKN007 \n  PROB40 \n  TEMPO 0304/0310 BKN004 \n  BECMG 0306/0309 22010KT"
    },
    {
      "icao": "LIPH",
      "iata": "TSF",
      "name": "Treviso Antonio Canova Airport",
      "lat": 45.648399,
      "lon": 12.1944,
      "updatedAt": "021720Z",
      "visibility_m": 10000,
      "taf_visibility_m": 4000,
      "worst_visibility_m": 4000,
      "ceiling_ft": 5000,
      "hazards": [
        "BR",
        "RA"
      ],
      "severityScore": 22,
      "metarRaw": "METAR LIPH 021720Z VRB02KT 9999 BKN050 07/02 Q1008",
      "tafRaw": "TAF LIPH 021700Z 0218/0318 VRB05KT 9999 BKN040 \n  BECMG 0220/0222 03012KT 4000 RA BKN012 \n  BECMG 0316/0318 VRB05KT BR \n  BECMG 0316/0318 NSW"
    },
    {
      "icao": "LIPX",
      "iata": "VRN",
      "name": "Verona Villafranca Valerio Catullo Airport",
      "lat": 45.394955,
      "lon": 10.887303,
      "updatedAt": "021720Z",
      "visibility_m": 9000,
      "taf_visibility_m": 3000,
      "worst_visibility_m": 3000,
      "ceiling_ft": 4300,
      "hazards": [
        "RA",
        "BR"
      ],
      "severityScore": 22,
      "metarRaw": "METAR LIPX 021720Z 05002KT 9000 -RA OVC043 05/03 Q1008",
      "tafRaw": "TAF LIPX 021700Z 0218/0318 VRB05KT 6000 RA OVC030 \n  BECMG 0221/0223 08010KT \n  BECMG 0308/0310 VRB05KT NSW \n  TEMPO 0309/0313 3000 BR OVC010"
    },
    {
      "icao": "LRSV",
      "iata": "SCV",
      "name": "Suceava Stefan cel Mare Airport",
      "lat": 47.6875,
      "lon": 26.35409927368164,
      "updatedAt": "021730Z",
      "visibility_m": 10000,
      "taf_visibility_m": 3000,
      "worst_visibility_m": 3000,
      "ceiling_ft": 1000,
      "hazards": [
        "BR"
      ],
      "severityScore": 22,
      "metarRaw": "METAR LRSV 021730Z 03005KT CAVOK M12/M15 Q1015",
      "tafRaw": "TAF LRSV 021700Z 0218/0303 06006KT CAVOK \n  BECMG 0218/0220 5000 BR BKN015 \n  PROB30 \n  TEMPO 0222/0303 3000 BR BKN010"
    },
    {
      "icao": "LRTR",
      "iata": "TSR",
      "name": "Timişoara Traian Vuia Airport",
      "lat": 45.809898,
      "lon": 21.3379,
      "updatedAt": "021730Z",
      "visibility_m": 10000,
      "taf_visibility_m": 5000,
      "worst_visibility_m": 5000,
      "ceiling_ft": null,
      "hazards": [
        "BR",
        "RA"
      ],
      "severityScore": 22,
      "metarRaw": "METAR LRTR 021730Z 11005KT 9999 SCT010 M02/M02 Q1014",
      "tafRaw": "TAF LRTR 021700Z 0218/0318 VRB04KT 9999 SCT010 \n  BECMG 0307/0309 11010KT \n  PROB40 \n  TEMPO 0312/0318 5000 -RA BR"
    },
    {
      "icao": "LYPG",
      "iata": "TGD",
      "name": "Podgorica Airport / Podgorica Golubovci Airbase",
      "lat": 42.359402,
      "lon": 19.2519,
      "updatedAt": "021730Z",
      "visibility_m": 10000,
      "taf_visibility_m": 3000,
      "worst_visibility_m": 3000,
      "ceiling_ft": null,
      "hazards": [
        "BR",
        "RA"
      ],
      "severityScore": 22,
      "metarRaw": "METAR LYPG 021730Z VRB02KT 9999 SCT040 SCT070 05/03 Q1011 NOSIG",
      "tafRaw": "TAF LYPG 021700Z 0218/0318 24005KT 9999 SCT050 TX09/0312Z TN02/0302Z \n  TEMPO 0220/0302 3000 BR \n  PROB40 \n  TEMPO 0311/0318 5000 RA"
    },
    {
      "icao": "ENGM",
      "iata": "OSL",
      "name": "Oslo-Gardermoen International Airport",
      "lat": 60.193901,
      "lon": 11.1004,
      "updatedAt": "021720Z",
      "visibility_m": 10000,
      "taf_visibility_m": 10000,
      "worst_visibility_m": 10000,
      "ceiling_ft": 3300,
      "hazards": [
        "SN"
      ],
      "severityScore": 18,
      "metarRaw": "METAR ENGM 021720Z 08004KT 9999 -SN BKN033 M08/M12 Q1024 NOSIG",
      "tafRaw": "TAF ENGM 021700Z 0218/0318 05005KT 9999 -SN BKN030"
    },
    {
      "icao": "ENTO",
      "iata": "TRF",
      "name": "Sandefjord Airport, Torp",
      "lat": 59.186699,
      "lon": 10.2586,
      "updatedAt": "021720Z",
      "visibility_m": 2700,
      "taf_visibility_m": 2500,
      "worst_visibility_m": 2500,
      "ceiling_ft": 2200,
      "hazards": [
        "SN"
      ],
      "severityScore": 18,
      "metarRaw": "METAR ENTO 021720Z 07004KT 040V110 2700 -SN OVC022 M06/M09 Q1023 TEMPO 6000",
      "tafRaw": "TAF ENTO 021700Z 0218/0318 07005KT 8000 -SN BKN025 \n  TEMPO 0218/0318 2500 VV012"
    },
    {
      "icao": "EPSC",
      "iata": "SZZ",
      "name": "Solidarity Szczecin–Goleniów Airport",
      "lat": 53.584702,
      "lon": 14.9022,
      "updatedAt": "021730Z",
      "visibility_m": 10000,
      "taf_visibility_m": 10000,
      "worst_visibility_m": 10000,
      "ceiling_ft": 2500,
      "hazards": [
        "SN"
      ],
      "severityScore": 18,
      "metarRaw": "METAR EPSC 021730Z 09010KT 9999 BKN025 M09/M16 Q1016",
      "tafRaw": "TAF EPSC 021730Z 0218/0318 08012KT 9999 SCT025 \n  PROB40 \n  TEMPO 0218/0221 10015G25KT -SN BKN020 \n  PROB40 \n  TEMPO 0309/0315 10015G25KT"
    },
    {
      "icao": "ESSA",
      "iata": "ARN",
      "name": "Stockholm-Arlanda Airport",
      "lat": 59.64849,
      "lon": 17.928829,
      "updatedAt": "021750Z",
      "visibility_m": 10000,
      "taf_visibility_m": 4000,
      "worst_visibility_m": 4000,
      "ceiling_ft": 3300,
      "hazards": [
        "SN"
      ],
      "severityScore": 18,
      "metarRaw": "METAR ESSA 021750Z 06005KT 9999 FEW018 SCT023 BKN033 M10/M13 Q1027 NOSIG",
      "tafRaw": "TAF ESSA 021730Z 0218/0318 04005KT 9999 BKN025 \n  PROB40 0218/0224 4000 -SN \n  PROB40 0314/0318 4000 -SN"
    },
    {
      "icao": "LBWN",
      "iata": "VAR",
      "name": "Varna Airport",
      "lat": 43.232101,
      "lon": 27.8251,
      "updatedAt": "021730Z",
      "visibility_m": 10000,
      "taf_visibility_m": 10000,
      "worst_visibility_m": 10000,
      "ceiling_ft": 4000,
      "hazards": [
        "SN"
      ],
      "severityScore": 18,
      "metarRaw": "METAR LBWN 021730Z AUTO 27006KT 230V300 9999 -SN BKN044/// M06/M09 Q1016 NOSIG",
      "tafRaw": "TAF LBWN 021700Z 0218/0318 34010KT 9999 SCT020 BKN040 \n  BECMG 0218/0220 VRB04KT \n  BECMG 0308/0310 13010KT"
    },
    {
      "icao": "LRSB",
      "iata": "SBZ",
      "name": "Sibiu International Airport",
      "lat": 45.785841,
      "lon": 24.086666,
      "updatedAt": "021730Z",
      "visibility_m": 10000,
      "taf_visibility_m": 5000,
      "worst_visibility_m": 5000,
      "ceiling_ft": 2000,
      "hazards": [
        "SN"
      ],
      "severityScore": 18,
      "metarRaw": "METAR LRSB 021730Z 10003KT 9999 BKN020 OVC040 M00/M03 Q1011",
      "tafRaw": "TAF LRSB 021700Z 0218/0318 VRB04KT 9999 BKN020 OVC040 \n  PROB30 \n  TEMPO 0218/0221 5000 -SN BKN015 OVC030"
    },
    {
      "icao": "GMMN",
      "iata": "CMN",
      "name": "Mohammed V International Airport",
      "lat": 33.3675,
      "lon": -7.58997,
      "updatedAt": "021730Z",
      "visibility_m": 10000,
      "taf_visibility_m": 4000,
      "worst_visibility_m": 4000,
      "ceiling_ft": 2000,
      "hazards": [
        "RA"
      ],
      "severityScore": 12,
      "metarRaw": "METAR GMMN 021730Z 25008KT 9999 BKN020 14/11 Q1012 NOSIG",
      "tafRaw": "TAF GMMN 021700Z 0218/0324 26010KT 9999 BKN020 \n  BECMG 0218/0221 20010KT 8000 SCT010 BKN016 \n  TEMPO 0222/0312 22014KT 4000 RA SCT005 BKN016"
    },
    {
      "icao": "EDDB",
      "iata": "BER",
      "name": "Berlin Brandenburg Willy Brandt Airport",
      "lat": 52.361738,
      "lon": 13.502341,
      "updatedAt": "021750Z",
      "visibility_m": 10000,
      "taf_visibility_m": 10000,
      "worst_visibility_m": 10000,
      "ceiling_ft": 1300,
      "hazards": [],
      "severityScore": 12,
      "metarRaw": "METAR EDDB 021750Z AUTO 09012KT 9999 BKN017 OVC044 M08/M12 Q1013 TEMPO BKN013",
      "tafRaw": "TAF EDDB 021700Z 0218/0318 08012KT 9999 BKN030 \n  PROB30 \n  TEMPO 0303/0315 08015G25KT"
    },
    {
      "icao": "EDDH",
      "iata": "HAM",
      "name": "Hamburg Helmut Schmidt Airport",
      "lat": 53.630402,
      "lon": 9.98823,
      "updatedAt": "021750Z",
      "visibility_m": 10000,
      "taf_visibility_m": 10000,
      "worst_visibility_m": 10000,
      "ceiling_ft": 1700,
      "hazards": [],
      "severityScore": 12,
      "metarRaw": "METAR EDDH 021750Z AUTO 10011KT 060V120 9999 BKN017 OVC036 M08/M11 Q1011 NOSIG",
      "tafRaw": "TAF EDDH 021700Z 0218/0324 09013KT 9999 BKN020 \n  TEMPO 0218/0306 BKN013 \n  TEMPO 0304/0324 09015G25KT \n  PROB30 \n  TEMPO 0322/0324 BKN013"
    },
    {
      "icao": "EDDK",
      "iata": "CGN",
      "name": "Cologne Bonn Airport",
      "lat": 50.865898,
      "lon": 7.14274,
      "updatedAt": "021750Z",
      "visibility_m": 10000,
      "taf_visibility_m": 4500,
      "worst_visibility_m": 4500,
      "ceiling_ft": 2400,
      "hazards": [
        "RA"
      ],
      "severityScore": 12,
      "metarRaw": "METAR EDDK 021750Z AUTO 11011KT 080V140 9999 BKN024 04/M02 Q1001 NOSIG",
      "tafRaw": "TAF EDDK 021700Z 0218/0324 11010KT 9999 BKN025 \n  PROB40 \n  TEMPO 0310/0320 4500 RA BKN010"
    },
    {
      "icao": "EPKK",
      "iata": "KRK",
      "name": "Kraków John Paul II International Airport",
      "lat": 50.077702,
      "lon": 19.7848,
      "updatedAt": "021730Z",
      "visibility_m": 10000,
      "taf_visibility_m": 10000,
      "worst_visibility_m": 10000,
      "ceiling_ft": 1300,
      "hazards": [],
      "severityScore": 12,
      "metarRaw": "METAR EPKK 021730Z 06011KT CAVOK M10/M15 Q1014",
      "tafRaw": "TAF EPKK 021730Z 0218/0318 06010KT CAVOK \n  PROB40 \n  TEMPO 0223/0309 BKN013"
    },
    {
      "icao": "EPKT",
      "iata": "KTW",
      "name": "Katowice Wojciech Korfanty International Airport",
      "lat": 50.476015,
      "lon": 19.080705,
      "updatedAt": "021730Z",
      "visibility_m": 10000,
      "taf_visibility_m": 10000,
      "worst_visibility_m": 10000,
      "ceiling_ft": 1300,
      "hazards": [],
      "severityScore": 12,
      "metarRaw": "METAR EPKT 021730Z 09014KT CAVOK M09/M16 Q1013",
      "tafRaw": "TAF EPKT 021730Z 0218/0318 09010KT CAVOK \n  PROB40 \n  TEMPO 0220/0309 BKN013"
    },
    {
      "icao": "EPRA",
      "iata": "RDO",
      "name": "Warsaw Radom Airport",
      "lat": 51.38937,
      "lon": 21.214742,
      "updatedAt": "021730Z",
      "visibility_m": 10000,
      "taf_visibility_m": 10000,
      "worst_visibility_m": 10000,
      "ceiling_ft": null,
      "hazards": [
        "RA"
      ],
      "severityScore": 12,
      "metarRaw": "METAR EPRA 021730Z 06007KT CAVOK M16/M22 Q1018",
      "tafRaw": "TAF EPRA 021730Z 0218/0303 08008KT CAVOK"
    },
    {
      "icao": "LIMJ",
      "iata": "GOA",
      "name": "Genoa Cristoforo Colombo Airport",
      "lat": 44.412039,
      "lon": 8.840732,
      "updatedAt": "021720Z",
      "visibility_m": 7000,
      "taf_visibility_m": 4000,
      "worst_visibility_m": 4000,
      "ceiling_ft": 2700,
      "hazards": [
        "RA"
      ],
      "severityScore": 12,
      "metarRaw": "METAR LIMJ 021720Z 05014KT 7000 -RA SCT020 BKN027 06/04 Q1006",
      "tafRaw": "TAF LIMJ 021700Z 0218/0318 04015KT 7000 RA BKN015 \n  TEMPO 0218/0306 4000 +RA \n  PROB40 \n  TEMPO 0222/0310 04015G28KT \n  BECMG 0304/0306 NSW"
    },
    {
      "icao": "LIPE",
      "iata": "BLQ",
      "name": "Bologna Guglielmo Marconi Airport",
      "lat": 44.5354,
      "lon": 11.2887,
      "updatedAt": "021720Z",
      "visibility_m": 10000,
      "taf_visibility_m": 4000,
      "worst_visibility_m": 4000,
      "ceiling_ft": 3800,
      "hazards": [
        "RA"
      ],
      "severityScore": 12,
      "metarRaw": "METAR LIPE 021720Z 07006KT 9999 BKN038 08/04 Q1007",
      "tafRaw": "TAF LIPE 021700Z 0218/0318 VRB05KT 8000 SCT040 \n  TEMPO 0218/0312 4000 RA"
    },
    {
      "icao": "LIPR",
      "iata": "RMI",
      "name": "Federico Fellini International Airport",
      "lat": 44.020024,
      "lon": 12.612198,
      "updatedAt": "021720Z",
      "visibility_m": 10000,
      "taf_visibility_m": 3000,
      "worst_visibility_m": 3000,
      "ceiling_ft": null,
      "hazards": [
        "RA"
      ],
      "severityScore": 12,
      "metarRaw": "METAR LIPR 021720Z 12004KT 9999 SCT070 08/05 Q1007",
      "tafRaw": "TAF LIPR 021700Z 0218/0318 14010KT 9999 SCT040 \n  TEMPO 0223/0315 3000 RA \n  BECMG 0316/0318 VRB05KT"
    },
    {
      "icao": "LIPZ",
      "iata": "VCE",
      "name": "Venice Marco Polo Airport",
      "lat": 45.505299,
      "lon": 12.3519,
      "updatedAt": "021720Z",
      "visibility_m": 10000,
      "taf_visibility_m": 4000,
      "worst_visibility_m": 4000,
      "ceiling_ft": 6000,
      "hazards": [
        "RA"
      ],
      "severityScore": 12,
      "metarRaw": "METAR LIPZ 021720Z 09002KT 9999 BKN060 06/02 Q1008 NOSIG",
      "tafRaw": "TAF LIPZ 021700Z 0218/0324 VRB05KT 9999 SCT040 \n  BECMG 0220/0222 05015KT 4000 RA \n  BECMG 0314/0316 VRB05KT 8000 NSW"
    },
    {
      "icao": "LPMA",
      "iata": "FNC",
      "name": "Cristiano Ronaldo International Airport",
      "lat": 32.697812,
      "lon": -16.774613,
      "updatedAt": "021730Z",
      "visibility_m": 10000,
      "taf_visibility_m": 10000,
      "worst_visibility_m": 10000,
      "ceiling_ft": 1500,
      "hazards": [],
      "severityScore": 12,
      "metarRaw": "METAR LPMA 021730Z 24004KT 140V270 9999 BKN015 17/09 Q1014",
      "tafRaw": "TAF LPMA 021700Z 0218/0318 VRB05KT 9999 SCT015 \n  PROB40 \n  TEMPO 0218/0224 34015KT BKN015 FEW018CB \n  TEMPO 0312/0318 21010KT"
    },
    {
      "icao": "LWOH",
      "iata": "OHD",
      "name": "Ohrid St. Paul the Apostle Airport",
      "lat": 41.18,
      "lon": 20.7423,
      "updatedAt": "021750Z",
      "visibility_m": 6000,
      "taf_visibility_m": 10000,
      "worst_visibility_m": 6000,
      "ceiling_ft": 3000,
      "hazards": [
        "RA"
      ],
      "severityScore": 12,
      "metarRaw": "METAR LWOH 021750Z VRB02KT 6000 -RA SCT010 OVC030 03/03 Q1010",
      "tafRaw": "TAF LWOH 021735Z 0218/0318 VRB03KT 9999 SCT015 BKN035"
    },
    {
      "icao": "BKPR",
      "iata": "PRN",
      "name": "Priština Adem Jashari International Airport",
      "lat": 42.5728,
      "lon": 21.035801,
      "updatedAt": "021730Z",
      "visibility_m": 10000,
      "taf_visibility_m": 2000,
      "worst_visibility_m": 2000,
      "ceiling_ft": 2500,
      "hazards": [
        "BR"
      ],
      "severityScore": 10,
      "metarRaw": "METAR BKPR 021730Z 16005KT 9999 BKN025 M00/M02 Q1011 NOSIG",
      "tafRaw": "TAF BKPR 021730Z 0218/0318 15006KT 9999 BKN030 \n  TEMPO 0302/0308 2000 BR SCT010 BKN030"
    },
    {
      "icao": "ENBR",
      "iata": "BGO",
      "name": "Bergen Airport, Flesland",
      "lat": 60.2934,
      "lon": 5.21814,
      "updatedAt": "021720Z",
      "visibility_m": 10000,
      "taf_visibility_m": 10000,
      "worst_visibility_m": 10000,
      "ceiling_ft": 4300,
      "hazards": [
        "BR"
      ],
      "severityScore": 10,
      "metarRaw": "METAR ENBR 021720Z 07005KT 9999 BKN043 M04/M16 Q1018 NOSIG RMK WIND 1200FT 11007KT",
      "tafRaw": "TAF ENBR 021700Z 0218/0318 09005KT 9999 SCT045"
    },
    {
      "icao": "EPGD",
      "iata": "GDN",
      "name": "Gdańsk Lech Wałęsa Airport",
      "lat": 54.377602,
      "lon": 18.4662,
      "updatedAt": "021730Z",
      "visibility_m": 10000,
      "taf_visibility_m": 2000,
      "worst_visibility_m": 2000,
      "ceiling_ft": null,
      "hazards": [
        "BR"
      ],
      "severityScore": 10,
      "metarRaw": "METAR EPGD 021730Z 08008KT CAVOK M14/M23 Q1021",
      "tafRaw": "TAF EPGD 021730Z 0218/0318 09010KT CAVOK \n  BECMG 0221/0224 VRB02KT \n  PROB40 0222/0308 2000 BR \n  BECMG 0306/0309 09010KT \n  PROB40 0315/0318 2000 BR"
    },
    {
      "icao": "EPMO",
      "iata": "WMI",
      "name": "Modlin Airport",
      "lat": 52.451099,
      "lon": 20.6518,
      "updatedAt": "021730Z",
      "visibility_m": 10000,
      "taf_visibility_m": 4500,
      "worst_visibility_m": 4500,
      "ceiling_ft": null,
      "hazards": [
        "BR"
      ],
      "severityScore": 10,
      "metarRaw": "METAR EPMO 021730Z 06009KT CAVOK M17/M21 Q1020",
      "tafRaw": "TAF EPMO 021730Z 0218/0318 06008KT CAVOK \n  PROB30 0300/0307 4500 BR"
    },
    {
      "icao": "EPSY",
      "iata": "SZY",
      "name": "Olsztyn-Mazury Airport",
      "lat": 53.481899,
      "lon": 20.9377,
      "updatedAt": "021730Z",
      "visibility_m": 10000,
      "taf_visibility_m": 4000,
      "worst_visibility_m": 4000,
      "ceiling_ft": null,
      "hazards": [
        "BR"
      ],
      "severityScore": 10,
      "metarRaw": "METAR EPSY 021730Z 03004KT CAVOK M16/M21 Q1021",
      "tafRaw": "TAF EPSY 021730Z 0218/0303 02004KT CAVOK \n  PROB40 0222/0303 4000 BR"
    },
    {
      "icao": "LGAV",
      "iata": "ATH",
      "name": "Athens Eleftherios Venizelos International Airport",
      "lat": 37.936401,
      "lon": 23.9445,
      "updatedAt": "021750Z",
      "visibility_m": 10000,
      "taf_visibility_m": 5000,
      "worst_visibility_m": 5000,
      "ceiling_ft": null,
      "hazards": [
        "BR"
      ],
      "severityScore": 10,
      "metarRaw": "METAR LGAV 021750Z VRB01KT 9999 FEW020 SCT040 10/06 Q1012 NOSIG",
      "tafRaw": "TAF LGAV 021700Z 0218/0318 VRB05KT 9999 SCT020 \n  PROB30 0300/0306 5000 BR SCT006 \n  BECMG 0307/0309 17010KT"
    },
    {
      "icao": "LIBR",
      "iata": "BDS",
      "name": "Brindisi Airport",
      "lat": 40.6576,
      "lon": 17.947001,
      "updatedAt": "021720Z",
      "visibility_m": 10000,
      "taf_visibility_m": 10000,
      "worst_visibility_m": 10000,
      "ceiling_ft": null,
      "hazards": [
        "BR"
      ],
      "severityScore": 10,
      "metarRaw": "METAR LIBR 021720Z 19003KT CAVOK 10/05 Q1011",
      "tafRaw": "TAF LIBR 021700Z 0218/0318 VRB05KT 9999 FEW030 \n  BECMG 0219/0221 16010KT \n  TEMPO 0309/0318 16018G28KT"
    },
    {
      "icao": "ENZV",
      "iata": "SVG",
      "name": "Stavanger Airport, Sola",
      "lat": 58.876701,
      "lon": 5.63778,
      "updatedAt": "021720Z",
      "visibility_m": 10000,
      "taf_visibility_m": null,
      "worst_visibility_m": 10000,
      "ceiling_ft": null,
      "hazards": [],
      "severityScore": 5,
      "metarRaw": "METAR ENZV 021720Z 09010KT CAVOK M04/M13 Q1019 NOSIG",
      "tafRaw": null
    },
    {
      "icao": "LECH",
      "iata": "CDT",
      "name": "Castellón-Costa Azahar Airport",
      "lat": 40.213889,
      "lon": 0.073333,
      "updatedAt": "021730Z",
      "visibility_m": 9000,
      "taf_visibility_m": null,
      "worst_visibility_m": 9000,
      "ceiling_ft": null,
      "hazards": [],
      "severityScore": 5,
      "metarRaw": "METAR LECH 021730Z AUTO 26011KT 230V300 9000 NSC 12/03 Q0995",
      "tafRaw": null
    },
    {
      "icao": "LEVC",
      "iata": "VLC",
      "name": "Valencia Airport",
      "lat": 39.4893,
      "lon": -0.481625,
      "updatedAt": "021730Z",
      "visibility_m": 10000,
      "taf_visibility_m": null,
      "worst_visibility_m": 10000,
      "ceiling_ft": null,
      "hazards": [],
      "severityScore": 5,
      "metarRaw": "METAR LEVC 021730Z 25009KT 220V290 9999 FEW020 SCT047 13/04 Q0998 NOSIG",
      "tafRaw": null
    },
    {
      "icao": "LEXJ",
      "iata": "SDR",
      "name": "Seve Ballesteros-Santander Airport",
      "lat": 43.427101,
      "lon": -3.82001,
      "updatedAt": "021730Z",
      "visibility_m": 10000,
      "taf_visibility_m": null,
      "worst_visibility_m": 10000,
      "ceiling_ft": null,
      "hazards": [],
      "severityScore": 5,
      "metarRaw": "METAR LEXJ 021730Z 33003KT 200V360 9999 SCT051 11/07 Q0989",
      "tafRaw": null
    },
    {
      "icao": "LFMN",
      "iata": "NCE",
      "name": "Nice-Côte d'Azur Airport",
      "lat": 43.658401,
      "lon": 7.21587,
      "updatedAt": "021730Z",
      "visibility_m": 10000,
      "taf_visibility_m": null,
      "worst_visibility_m": 10000,
      "ceiling_ft": 3600,
      "hazards": [],
      "severityScore": 5,
      "metarRaw": "METAR LFMN 021730Z COR 34004KT 9999 FEW011 BKN036 08/07 Q1004 NOSIG",
      "tafRaw": null
    },
    {
      "icao": "GCFV",
      "iata": "FUE",
      "name": "Fuerteventura Airport",
      "lat": 28.4527,
      "lon": -13.8638,
      "updatedAt": "021730Z",
      "visibility_m": 10000,
      "taf_visibility_m": 10000,
      "worst_visibility_m": 10000,
      "ceiling_ft": null,
      "hazards": [],
      "severityScore": 0,
      "metarRaw": "METAR GCFV 021730Z 31013KT 280V350 9999 VCSH SCT025 BKN030TCU 19/13 Q1016",
      "tafRaw": "TAF GCFV 021400Z 0215/0315 33014KT 9999 SCT030 TX22/0314Z TN16/0306Z \n  TEMPO 0215/0220 30015G25KT \n  BECMG 0219/0222 33004KT"
    },
    {
      "icao": "GCLP",
      "iata": "LPA",
      "name": "Gran Canaria Airport",
      "lat": 27.9319,
      "lon": -15.3866,
      "updatedAt": "021730Z",
      "visibility_m": 10000,
      "taf_visibility_m": 10000,
      "worst_visibility_m": 10000,
      "ceiling_ft": 3800,
      "hazards": [],
      "severityScore": 0,
      "metarRaw": "METAR GCLP 021730Z 01018KT 9999 FEW018 SCT025 BKN038 18/14 Q1016 NOSIG",
      "tafRaw": "TAF GCLP 021400Z 0215/0315 35018KT 9999 SCT030 TX22/0314Z TN15/0306Z \n  TEMPO 0215/0217 VRB05KT \n  PROB30 \n  TEMPO 0216/0221 36020G30KT \n  TEMPO 0303/0309 35008KT \n  BECMG 0311/0313 05015KT"
    },
    {
      "icao": "EDDN",
      "iata": "NUE",
      "name": "Nuremberg Airport",
      "lat": 49.498699,
      "lon": 11.078056,
      "updatedAt": "021750Z",
      "visibility_m": 10000,
      "taf_visibility_m": 10000,
      "worst_visibility_m": 10000,
      "ceiling_ft": 2500,
      "hazards": [],
      "severityScore": 0,
      "metarRaw": "METAR EDDN 021750Z AUTO 09006KT 9999 OVC025 00/M03 Q1003 NOSIG",
      "tafRaw": "TAF EDDN 021700Z 0218/0318 10007KT 9999 SCT015 BKN035 \n  PROB40 \n  TEMPO 0303/0308 BKN008"
    },
    {
      "icao": "EDDS",
      "iata": "STR",
      "name": "Stuttgart Airport",
      "lat": 48.689899,
      "lon": 9.22196,
      "updatedAt": "021750Z",
      "visibility_m": 10000,
      "taf_visibility_m": 10000,
      "worst_visibility_m": 10000,
      "ceiling_ft": null,
      "hazards": [],
      "severityScore": 0,
      "metarRaw": "METAR EDDS 021750Z AUTO 07007KT 9999 FEW016 01/M01 Q1000 NOSIG",
      "tafRaw": "TAF EDDS 021700Z 0218/0318 07003KT 9999 FEW015 \n  BECMG 0308/0311 17005KT"
    },
    {
      "icao": "EDNY",
      "iata": "FDH",
      "name": "Bodensee Airport Friedrichshafen",
      "lat": 47.671299,
      "lon": 9.51149,
      "updatedAt": "021720Z",
      "visibility_m": 10000,
      "taf_visibility_m": 10000,
      "worst_visibility_m": 10000,
      "ceiling_ft": null,
      "hazards": [],
      "severityScore": 0,
      "metarRaw": "METAR EDNY 021720Z 04007KT CAVOK 06/02 Q0999",
      "tafRaw": "TAF EDNY 021700Z 0218/0303 04003KT CAVOK"
    },
    {
      "icao": "EFTU",
      "iata": "TKU",
      "name": "Turku Airport",
      "lat": 60.514099,
      "lon": 22.2628,
      "updatedAt": "021750Z",
      "visibility_m": 10000,
      "taf_visibility_m": 10000,
      "worst_visibility_m": 10000,
      "ceiling_ft": null,
      "hazards": [],
      "severityScore": 0,
      "metarRaw": "METAR EFTU 021750Z AUTO 02003KT CAVOK M17/M20 Q1027",
      "tafRaw": "TAF EFTU 021735Z 0218/0318 01004KT CAVOK"
    },
    {
      "icao": "EKBI",
      "iata": "BLL",
      "name": "Billund Airport",
      "lat": 55.740335,
      "lon": 9.157019,
      "updatedAt": "021750Z",
      "visibility_m": 10000,
      "taf_visibility_m": 10000,
      "worst_visibility_m": 10000,
      "ceiling_ft": null,
      "hazards": [],
      "severityScore": 0,
      "metarRaw": "METAR EKBI 021750Z AUTO 09019G34KT 9999 FEW028/// M05/M10 Q1014",
      "tafRaw": "TAF EKBI 021727Z 0218/0318 10020KT 9999 SCT025 \n  TEMPO 0218/0318 10022G33KT"
    },
    {
      "icao": "EKCH",
      "iata": "CPH",
      "name": "Copenhagen Kastrup Airport",
      "lat": 55.617900848389,
      "lon": 12.656000137329,
      "updatedAt": "021750Z",
      "visibility_m": 10000,
      "taf_visibility_m": 10000,
      "worst_visibility_m": 10000,
      "ceiling_ft": null,
      "hazards": [],
      "severityScore": 0,
      "metarRaw": "METAR EKCH 021750Z AUTO 09021KT 9999 NCD M05/M10 Q1018 TEMPO 10018G28KT",
      "tafRaw": "TAF EKCH 021727Z 0218/0318 10018KT 9999 SCT025 \n  TEMPO 0218/0318 11022G35KT"
    },
    {
      "icao": "ENAL",
      "iata": "AES",
      "name": "Ålesund Airport, Vigra",
      "lat": 62.5625,
      "lon": 6.1197,
      "updatedAt": "021720Z",
      "visibility_m": 10000,
      "taf_visibility_m": 10000,
      "worst_visibility_m": 10000,
      "ceiling_ft": null,
      "hazards": [],
      "severityScore": 0,
      "metarRaw": "METAR ENAL 021720Z 14010KT CAVOK M03/M11 Q1018",
      "tafRaw": "TAF ENAL 021700Z 0218/0303 15008KT CAVOK"
    },
    {
      "icao": "ENHD",
      "iata": "HAU",
      "name": "Haugesund Airport, Karmøy",
      "lat": 59.345299,
      "lon": 5.20836,
      "updatedAt": "021720Z",
      "visibility_m": 10000,
      "taf_visibility_m": 10000,
      "worst_visibility_m": 10000,
      "ceiling_ft": null,
      "hazards": [],
      "severityScore": 0,
      "metarRaw": "METAR ENHD 021720Z 11015KT CAVOK M04/M15 Q1019",
      "tafRaw": "TAF ENHD 021400Z 0215/0223 12010KT CAVOK"
    },
    {
      "icao": "ENVA",
      "iata": "TRD",
      "name": "Trondheim Airport, Værnes",
      "lat": 63.457802,
      "lon": 10.924,
      "updatedAt": "021720Z",
      "visibility_m": 10000,
      "taf_visibility_m": 10000,
      "worst_visibility_m": 10000,
      "ceiling_ft": null,
      "hazards": [],
      "severityScore": 0,
      "metarRaw": "METAR ENVA 021720Z 09008KT 050V120 CAVOK M07/M14 Q1021 NOSIG RMK WIND 670FT 13013KT",
      "tafRaw": "TAF ENVA 021700Z 0218/0318 09007KT CAVOK"
    },
    {
      "icao": "EPPO",
      "iata": "POZ",
      "name": "Poznań-Ławica Airport",
      "lat": 52.421598,
      "lon": 16.823359,
      "updatedAt": "021730Z",
      "visibility_m": 10000,
      "taf_visibility_m": 10000,
      "worst_visibility_m": 10000,
      "ceiling_ft": 3200,
      "hazards": [],
      "severityScore": 0,
      "metarRaw": "METAR EPPO 021730Z 08014KT 9999 OVC032 M09/M18 Q1016",
      "tafRaw": "TAF EPPO 021730Z 0218/0318 09014KT 9999 OVC035 \n  PROB40 \n  TEMPO 0310/0318 10015G25KT"
    },
    {
      "icao": "EPRZ",
      "iata": "RZE",
      "name": "Rzeszów-Jasionka Airport",
      "lat": 50.109791,
      "lon": 22.024155,
      "updatedAt": "021730Z",
      "visibility_m": 10000,
      "taf_visibility_m": 10000,
      "worst_visibility_m": 10000,
      "ceiling_ft": 2600,
      "hazards": [],
      "severityScore": 0,
      "metarRaw": "METAR EPRZ 021730Z 05008KT 9999 BKN026 M10/M17 Q1016",
      "tafRaw": "TAF EPRZ 021730Z 0218/0318 09010KT 9999 OVC020 \n  TEMPO 0220/0309 BKN012"
    },
    {
      "icao": "EPWA",
      "iata": "WAW",
      "name": "Warsaw Chopin Airport",
      "lat": 52.165699,
      "lon": 20.9671,
      "updatedAt": "021730Z",
      "visibility_m": 10000,
      "taf_visibility_m": 10000,
      "worst_visibility_m": 10000,
      "ceiling_ft": null,
      "hazards": [],
      "severityScore": 0,
      "metarRaw": "METAR EPWA 021730Z 07007KT CAVOK M13/M19 Q1019 NOSIG",
      "tafRaw": "TAF EPWA 021730Z 0218/0318 07008KT CAVOK"
    },
    {
      "icao": "EPWR",
      "iata": "WRO",
      "name": "Copernicus Wrocław Airport",
      "lat": 51.103719,
      "lon": 16.882096,
      "updatedAt": "021730Z",
      "visibility_m": 10000,
      "taf_visibility_m": 10000,
      "worst_visibility_m": 10000,
      "ceiling_ft": 3000,
      "hazards": [],
      "severityScore": 0,
      "metarRaw": "METAR EPWR 021730Z 10007KT 9999 OVC030 M05/M12 Q1013",
      "tafRaw": "TAF EPWR 021730Z 0218/0318 10007KT 9999 OVC030 \n  PROB40 0301/0310 BKN013"
    },
    {
      "icao": "ESGG",
      "iata": "GOT",
      "name": "Göteborg Landvetter Airport",
      "lat": 57.6628,
      "lon": 12.2798,
      "updatedAt": "021750Z",
      "visibility_m": 10000,
      "taf_visibility_m": 10000,
      "worst_visibility_m": 10000,
      "ceiling_ft": null,
      "hazards": [],
      "severityScore": 0,
      "metarRaw": "METAR ESGG 021750Z 08007KT 050V110 CAVOK M08/M13 Q1021",
      "tafRaw": "TAF ESGG 021730Z 0218/0318 10010KT CAVOK"
    },
    {
      "icao": "ESMS",
      "iata": "MMX",
      "name": "Malmö Sturup Airport",
      "lat": 55.535564,
      "lon": 13.376327,
      "updatedAt": "021750Z",
      "visibility_m": 10000,
      "taf_visibility_m": 10000,
      "worst_visibility_m": 10000,
      "ceiling_ft": null,
      "hazards": [],
      "severityScore": 0,
      "metarRaw": "METAR ESMS 021750Z 10017KT CAVOK M05/M11 Q1018",
      "tafRaw": "TAF ESMS 021727Z 0218/0318 10018KT 9999 SCT025 \n  TEMPO 0218/0318 11020G32KT"
    },
    {
      "icao": "EYPA",
      "iata": "PLQ",
      "name": "Palanga International Airport",
      "lat": 55.973202,
      "lon": 21.093901,
      "updatedAt": "021750Z",
      "visibility_m": 10000,
      "taf_visibility_m": 6000,
      "worst_visibility_m": 6000,
      "ceiling_ft": null,
      "hazards": [],
      "severityScore": 0,
      "metarRaw": "METAR EYPA 021750Z 01004KT CAVOK M16/M18 Q1024",
      "tafRaw": "TAF EYPA 021700Z 0218/0318 VRB04KT 6000 NSC"
    },
    {
      "icao": "HEGN",
      "iata": "HRG",
      "name": "Hurghada International Airport",
      "lat": 27.176776,
      "lon": 33.796692,
      "updatedAt": "021700Z",
      "visibility_m": 10000,
      "taf_visibility_m": 2000,
      "worst_visibility_m": 2000,
      "ceiling_ft": null,
      "hazards": [],
      "severityScore": 0,
      "metarRaw": "METAR HEGN 021700Z 00000KT CAVOK 23/17 Q1015 NOSIG",
      "tafRaw": "TAF HEGN 021700Z 0218/0324 32010G25KT CAVOK \n  TEMPO 0300/0315 4000 SA NSC \n  TEMPO 0300/0309 2000"
    },
    {
      "icao": "HEMA",
      "iata": "RMF",
      "name": "Marsa Alam International Airport",
      "lat": 25.555548,
      "lon": 34.59245,
      "updatedAt": "021700Z",
      "visibility_m": 10000,
      "taf_visibility_m": 4000,
      "worst_visibility_m": 4000,
      "ceiling_ft": null,
      "hazards": [],
      "severityScore": 0,
      "metarRaw": "METAR HEMA 021700Z 15003KT CAVOK 23/18 Q1014 NOSIG",
      "tafRaw": "TAF HEMA 021700Z 0218/0324 31008G20KT CAVOK \n  TEMPO 0303/0315 4000 SA NSC"
    },
    {
      "icao": "HESH",
      "iata": "SSH",
      "name": "Sharm El Sheikh International Airport",
      "lat": 27.977272,
      "lon": 34.394717,
      "updatedAt": "021700Z",
      "visibility_m": 10000,
      "taf_visibility_m": 4000,
      "worst_visibility_m": 4000,
      "ceiling_ft": null,
      "hazards": [],
      "severityScore": 0,
      "metarRaw": "METAR HESH 021700Z 16012KT CAVOK 24/15 Q1013 NOSIG",
      "tafRaw": "TAF HESH 021700Z 0218/0324 33008G20KT CAVOK \n  TEMPO 0303/0315 4000 SA NSC"
    },
    {
      "icao": "HESX",
      "iata": "SPX",
      "name": "Sphinx International Airport",
      "lat": 30.108179,
      "lon": 30.895728,
      "updatedAt": "021700Z",
      "visibility_m": 10000,
      "taf_visibility_m": 3000,
      "worst_visibility_m": 3000,
      "ceiling_ft": null,
      "hazards": [],
      "severityScore": 0,
      "metarRaw": "METAR HESX 021700Z 27008KT CAVOK 19/03 Q1017 NOSIG",
      "tafRaw": "TAF HESX 021700Z 0218/0324 26011KT CAVOK \n  TEMPO 0218/0224 4000 SA NSC \n  TEMPO 0300/0307 VRB03KT 3000 HZ NSC"
    },
    {
      "icao": "LATI",
      "iata": "TIA",
      "name": "Tirana International Airport Mother Teresa",
      "lat": 41.4147,
      "lon": 19.7206,
      "updatedAt": "021750Z",
      "visibility_m": 10000,
      "taf_visibility_m": 10000,
      "worst_visibility_m": 10000,
      "ceiling_ft": 6200,
      "hazards": [],
      "severityScore": 0,
      "metarRaw": "METAR LATI 021750Z 16004KT 9999 SCT036 BKN062 09/05 Q1012 NOSIG",
      "tafRaw": "TAF LATI 021700Z 0218/0318 VRB05KT 9999 FEW040 BKN080 TX16/0312Z TN05/0304Z"
    },
    {
      "icao": "LCLK",
      "iata": "LCA",
      "name": "Larnaca International Airport",
      "lat": 34.875099,
      "lon": 33.624901,
      "updatedAt": "021730Z",
      "visibility_m": 10000,
      "taf_visibility_m": 10000,
      "worst_visibility_m": 10000,
      "ceiling_ft": null,
      "hazards": [],
      "severityScore": 0,
      "metarRaw": "METAR LCLK 021730Z 22007KT 190V250 9999 FEW030 16/13 Q1012 NOSIG",
      "tafRaw": "TAF LCLK 021730Z 0218/0318 23014KT 9999 FEW020 \n  BECMG 0310/0312 30018KT"
    },
    {
      "icao": "LEAL",
      "iata": "ALC",
      "name": "Alicante-Elche Miguel Hernández Airport",
      "lat": 38.2822,
      "lon": -0.558156,
      "updatedAt": "021730Z",
      "visibility_m": 10000,
      "taf_visibility_m": 10000,
      "worst_visibility_m": 10000,
      "ceiling_ft": null,
      "hazards": [],
      "severityScore": 0,
      "metarRaw": "METAR LEAL 021730Z 23013KT 200V260 CAVOK 15/03 Q1000 NOSIG",
      "tafRaw": "TAF LEAL 021700Z 0218/0318 25015KT 9999 FEW030 TX16/0313Z TN05/0306Z \n  BECMG 0218/0220 26005KT"
    },
    {
      "icao": "LEBB",
      "iata": "BIO",
      "name": "Bilbao Airport",
      "lat": 43.301102,
      "lon": -2.91061,
      "updatedAt": "021730Z",
      "visibility_m": 10000,
      "taf_visibility_m": 10000,
      "worst_visibility_m": 10000,
      "ceiling_ft": null,
      "hazards": [],
      "severityScore": 0,
      "metarRaw": "METAR LEBB 021730Z 20012G23KT 120V250 9999 FEW060 14/04 Q0989 NOSIG",
      "tafRaw": "TAF LEBB 021700Z 0218/0318 21009KT 9999 SCT040 TX14/0314Z TN09/0307Z \n  TEMPO 0218/0313 21017G27KT \n  PROB40 \n  TEMPO 0311/0318 21015G25KT"
    },
    {
      "icao": "LEMG",
      "iata": "AGP",
      "name": "Málaga-Costa del Sol Airport",
      "lat": 36.6749,
      "lon": -4.49911,
      "updatedAt": "021730Z",
      "visibility_m": 10000,
      "taf_visibility_m": 10000,
      "worst_visibility_m": 10000,
      "ceiling_ft": null,
      "hazards": [],
      "severityScore": 0,
      "metarRaw": "METAR LEMG 021730Z 16003KT 120V240 9999 FEW040 12/09 Q1006 NOSIG",
      "tafRaw": "TAF LEMG 021700Z 0218/0318 29005KT 9999 SCT025 TX17/0314Z TN09/0307Z"
    },
    {
      "icao": "LEZG",
      "iata": "ZAZ",
      "name": "Zaragoza Airport",
      "lat": 41.666199,
      "lon": -1.04155,
      "updatedAt": "021730Z",
      "visibility_m": 10000,
      "taf_visibility_m": 10000,
      "worst_visibility_m": 10000,
      "ceiling_ft": 8000,
      "hazards": [],
      "severityScore": 0,
      "metarRaw": "METAR LEZG 021730Z 20008KT 9999 SCT070 BKN080 10/06 Q0994 NOSIG",
      "tafRaw": "TAF LEZG 021700Z 0218/0318 23009KT 9999 FEW050 TX13/0314Z TN04/0306Z"
    },
    {
      "icao": "LIBD",
      "iata": "BRI",
      "name": "Bari Karol Wojtyła International Airport",
      "lat": 41.138901,
      "lon": 16.760599,
      "updatedAt": "021720Z",
      "visibility_m": 10000,
      "taf_visibility_m": 10000,
      "worst_visibility_m": 10000,
      "ceiling_ft": null,
      "hazards": [],
      "severityScore": 0,
      "metarRaw": "METAR LIBD 021720Z 15005KT CAVOK 08/06 Q1010",
      "tafRaw": "TAF LIBD 021700Z 0218/0318 18010KT 9999 FEW030 \n  TEMPO 0310/0316 18015G25KT"
    },
    {
      "icao": "LIBG",
      "iata": "TAR",
      "name": "Taranto-Grottaglie Marcello Arlotta Airport",
      "lat": 40.517502,
      "lon": 17.4032,
      "updatedAt": "021650Z",
      "visibility_m": 10000,
      "taf_visibility_m": 10000,
      "worst_visibility_m": 10000,
      "ceiling_ft": null,
      "hazards": [],
      "severityScore": 0,
      "metarRaw": "METAR LIBG 021650Z 08003KT CAVOK 09/04 Q1011",
      "tafRaw": "TAF LIBG 021700Z 0218/0303 VRB05KT 9999 FEW040"
    },
    {
      "icao": "LIBP",
      "iata": "PSR",
      "name": "Abruzzo Airport",
      "lat": 42.431079,
      "lon": 14.182981,
      "updatedAt": "021720Z",
      "visibility_m": 10000,
      "taf_visibility_m": 10000,
      "worst_visibility_m": 10000,
      "ceiling_ft": null,
      "hazards": [],
      "severityScore": 0,
      "metarRaw": "METAR LIBP 021720Z AUTO 10002KT 9999 NCD 08/02 Q1009",
      "tafRaw": "TAF LIBP 021700Z 0218/0318 VRB05KT 9999 FEW030"
    },
    {
      "icao": "LICA",
      "iata": "SUF",
      "name": "Lamezia Terme Sant'Eufemia International Airport",
      "lat": 38.906214,
      "lon": 16.246007,
      "updatedAt": "021720Z",
      "visibility_m": 10000,
      "taf_visibility_m": 10000,
      "worst_visibility_m": 10000,
      "ceiling_ft": 5000,
      "hazards": [],
      "severityScore": 0,
      "metarRaw": "METAR LICA 021720Z VRB02KT 9999 SCT025 BKN050 12/10 Q1012",
      "tafRaw": "TAF LICA 021700Z 0218/0318 VRB05KT 9999 SCT025 \n  BECMG 0220/0222 07014KT"
    },
    {
      "icao": "LICC",
      "iata": "CTA",
      "name": "Catania-Fontanarossa Airport",
      "lat": 37.466801,
      "lon": 15.0664,
      "updatedAt": "021720Z",
      "visibility_m": 10000,
      "taf_visibility_m": 10000,
      "worst_visibility_m": 10000,
      "ceiling_ft": null,
      "hazards": [],
      "severityScore": 0,
      "metarRaw": "METAR LICC 021720Z 28005KT CAVOK 13/09 Q1012",
      "tafRaw": "TAF LICC 021700Z 0218/0318 24014KT 9999 FEW040"
    },
    {
      "icao": "LICJ",
      "iata": "PMO",
      "name": "Falcone–Borsellino Airport",
      "lat": 38.175999,
      "lon": 13.091,
      "updatedAt": "021720Z",
      "visibility_m": 10000,
      "taf_visibility_m": 10000,
      "worst_visibility_m": 10000,
      "ceiling_ft": null,
      "hazards": [],
      "severityScore": 0,
      "metarRaw": "METAR LICJ 021720Z 19008KT CAVOK 14/06 Q1010",
      "tafRaw": "TAF LICJ 021700Z 0218/0318 20013KT 9999 SCT030 \n  BECMG 0222/0224 20018G28KT \n  BECMG 0312/0314 20012KT"
    },
    {
      "icao": "LIPY",
      "iata": "AOI",
      "name": "Marche Airport",
      "lat": 43.616299,
      "lon": 13.3623,
      "updatedAt": "021720Z",
      "visibility_m": 10000,
      "taf_visibility_m": 10000,
      "worst_visibility_m": 10000,
      "ceiling_ft": null,
      "hazards": [],
      "severityScore": 0,
      "metarRaw": "METAR LIPY 021720Z AUTO 15004KT 100V200 9999 BKN088/// OVC150/// 09/04 Q1008",
      "tafRaw": "TAF LIPY 021700Z 0218/0318 14010KT 9999 FEW040 \n  BECMG 0312/0314 VRB05KT"
    },
    {
      "icao": "LIRN",
      "iata": "NAP",
      "name": "Naples International Airport",
      "lat": 40.886002,
      "lon": 14.2908,
      "updatedAt": "021720Z",
      "visibility_m": 10000,
      "taf_visibility_m": 10000,
      "worst_visibility_m": 10000,
      "ceiling_ft": null,
      "hazards": [],
      "severityScore": 0,
      "metarRaw": "METAR LIRN 021720Z VRB01KT 9999 FEW025 11/06 Q1010 NOSIG",
      "tafRaw": "TAF LIRN 021700Z 0218/0318 VRB05KT 9999 SCT030 \n  BECMG 0303/0305 16012KT"
    },
    {
      "icao": "LMML",
      "iata": "MLA",
      "name": "Malta International Airport",
      "lat": 35.857498,
      "lon": 14.4775,
      "updatedAt": "021745Z",
      "visibility_m": 10000,
      "taf_visibility_m": 10000,
      "worst_visibility_m": 10000,
      "ceiling_ft": null,
      "hazards": [],
      "severityScore": 0,
      "metarRaw": "METAR LMML 021745Z 20007KT 170V230 CAVOK 14/10 Q1013 NOSIG",
      "tafRaw": "TAF LMML 021700Z 0218/0318 22012KT 9999 FEW020 \n  BECMG 0315/0318 13015KT"
    },
    {
      "icao": "LRIA",
      "iata": "IAS",
      "name": "Iaşi Airport",
      "lat": 47.180278,
      "lon": 27.620833,
      "updatedAt": "021730Z",
      "visibility_m": 10000,
      "taf_visibility_m": 10000,
      "worst_visibility_m": 10000,
      "ceiling_ft": null,
      "hazards": [],
      "severityScore": 0,
      "metarRaw": "METAR LRIA 021730Z 36004KT CAVOK M09/M15 Q1018",
      "tafRaw": "TAF LRIA 021700Z 0218/0303 01006KT CAVOK \n  BECMG 0300/0302 12010KT"
    },
    {
      "icao": "LRBC",
      "iata": "BCM",
      "name": "Bacău George Enescu International  Airport",
      "lat": 46.5219,
      "lon": 26.910299,
      "updatedAt": "021730Z",
      "visibility_m": 10000,
      "taf_visibility_m": 10000,
      "worst_visibility_m": 10000,
      "ceiling_ft": null,
      "hazards": [],
      "severityScore": 0,
      "metarRaw": "METAR LRBC 021730Z 33006KT CAVOK M07/M13 Q1017",
      "tafRaw": "TAF LRBC 021700Z 0218/0303 01008KT CAVOK \n  BECMG 0301/0303 16010KT"
    },
    {
      "icao": "LRTM",
      "iata": "TGM",
      "name": "Târgu Mureş Transilvania International Airport",
      "lat": 46.467701,
      "lon": 24.4125,
      "updatedAt": "021730Z",
      "visibility_m": 10000,
      "taf_visibility_m": 10000,
      "worst_visibility_m": 10000,
      "ceiling_ft": null,
      "hazards": [],
      "severityScore": 0,
      "metarRaw": "METAR LRTM 021730Z AUTO 23003KT 9999 BKN020/// 00/M01 Q1012",
      "tafRaw": "TAF LRTM 021700Z 0218/0303 VRB04KT 9999 SCT020"
    },
    {
      "icao": "LUKK",
      "iata": "RMO",
      "name": "Chişinău International Airport",
      "lat": 46.9277,
      "lon": 28.931,
      "updatedAt": "021730Z",
      "visibility_m": 10000,
      "taf_visibility_m": 10000,
      "worst_visibility_m": 10000,
      "ceiling_ft": null,
      "hazards": [],
      "severityScore": 0,
      "metarRaw": "METAR LUKK 021730Z 02010KT CAVOK M09/M15 Q1018 NOSIG",
      "tafRaw": "TAF LUKK 021703Z 0218/0318 VRB06KT CAVOK"
    },
    {
      "icao": "LWSK",
      "iata": "SKP",
      "name": "Skopje International Airport",
      "lat": 41.958087,
      "lon": 21.622581,
      "updatedAt": "021750Z",
      "visibility_m": 10000,
      "taf_visibility_m": 10000,
      "worst_visibility_m": 10000,
      "ceiling_ft": 7000,
      "hazards": [],
      "severityScore": 0,
      "metarRaw": "METAR LWSK 021750Z 03006KT 9999 FEW040 BKN070 02/M01 Q1013 NOSIG",
      "tafRaw": "TAF LWSK 021735Z 0218/0318 VRB03KT 9999 FEW040 SCT080"
    },
    {
      "icao": "LYNI",
      "iata": "INI",
      "name": "Niš Constantine the Great Airport",
      "lat": 43.336538,
      "lon": 21.856242,
      "updatedAt": "021730Z",
      "visibility_m": 10000,
      "taf_visibility_m": 10000,
      "worst_visibility_m": 10000,
      "ceiling_ft": 8500,
      "hazards": [],
      "severityScore": 0,
      "metarRaw": "METAR LYNI 021730Z 11004KT 9999 SCT033 BKN085 M02/M06 Q1014 NOSIG",
      "tafRaw": "TAF LYNI 021700Z 0218/0318 09006KT 9999 SCT030 TX06/0312Z TNM05/0306Z"
    },
    {
      "icao": "OEJN",
      "iata": "JED",
      "name": "King Abdulaziz International Airport",
      "lat": 21.6796,
      "lon": 39.156502,
      "updatedAt": "021700Z",
      "visibility_m": 10000,
      "taf_visibility_m": 4000,
      "worst_visibility_m": 4000,
      "ceiling_ft": null,
      "hazards": [],
      "severityScore": 0,
      "metarRaw": "METAR OEJN 021700Z 28004KT CAVOK 27/20 Q1014 NOSIG",
      "tafRaw": "TAF OEJN 021700Z 0218/0324 02006KT 7000 FEW040 \n  PROB30 \n  TEMPO 0300/0305 4000 HZ \n  BECMG 0306/0308 32010KT SCT040 \n  BECMG 0318/0320 VRB03KT"
    },
    {
      "icao": "OEMA",
      "iata": "MED",
      "name": "Prince Mohammad Bin Abdulaziz Airport",
      "lat": 24.5534,
      "lon": 39.705101,
      "updatedAt": "021700Z",
      "visibility_m": 10000,
      "taf_visibility_m": 10000,
      "worst_visibility_m": 10000,
      "ceiling_ft": null,
      "hazards": [],
      "severityScore": 0,
      "metarRaw": "METAR OEMA 021700Z 25010KT CAVOK 27/13 Q1017 NOSIG",
      "tafRaw": "TAF OEMA 021700Z 0218/0324 VRB03KT 9999 FEW040 \n  BECMG 0308/0310 32015KT SCT040 \n  BECMG 0318/0320 VRB03KT"
    },
    {
      "icao": "OMAA",
      "iata": "AUH",
      "name": "Zayed International Airport",
      "lat": 24.440966,
      "lon": 54.649237,
      "updatedAt": "021730Z",
      "visibility_m": 10000,
      "taf_visibility_m": 4000,
      "worst_visibility_m": 4000,
      "ceiling_ft": null,
      "hazards": [],
      "severityScore": 0,
      "metarRaw": "METAR OMAA 021730Z 35003KT CAVOK 22/08 Q1018 NOSIG",
      "tafRaw": "TAF OMAA 021700Z 0218/0400 02005KT 8000 NSC \n  PROB30 0223/0305 16005KT 4000 HZ \n  BECMG 0310/0312 34010KT \n  BECMG 0317/0319 06005KT"
    },
    {
      "icao": "OMDB",
      "iata": "DXB",
      "name": "Dubai International Airport",
      "lat": 25.2527999878,
      "lon": 55.3643989563,
      "updatedAt": "021730Z",
      "visibility_m": 10000,
      "taf_visibility_m": 4000,
      "worst_visibility_m": 4000,
      "ceiling_ft": null,
      "hazards": [],
      "severityScore": 0,
      "metarRaw": "METAR OMDB 021730Z 01004KT 330V130 CAVOK 22/12 Q1019 NOSIG",
      "tafRaw": "TAF OMDB 021700Z 0218/0400 09005KT 8000 NSC \n  PROB30 0301/0305 4000 HZ \n  BECMG 0309/0311 32010KT \n  BECMG 0316/0318 09005KT"
    }
  ],
  "stats": {
    "icaoCount": 159,
    "metarReturned": 158,
    "tafReturned": 153,
    "stationsWritten": 159,
    "missingMetar": 1,
    "missingTaf": 6
  },
  "errors": []
}