{
  "generatedAt": "2026-01-15T10:56:40.659Z",
  "stations": [
    {
      "icao": "BKPR",
      "iata": "PRN",
      "name": "Priština Adem Jashari International Airport",
      "updatedAt": null,
      "visibility_m": null,
      "taf_visibility_m": 150,
      "worst_visibility_m": 150,
      "ceiling_ft": 200,
      "hazards": [
        "FZFG",
        "BR",
        "FG"
      ],
      "severityScore": 100,
      "metarRaw": null,
      "tafRaw": "TAF BKPR 150530Z 1506/1606 VRB03KT 9999 SCT060 \n  TEMPO 1506/1509 4000 BR \n  BECMG 1519/1521 3000 BR \n  PROB40 1601/1606 0150 FZFG BKN002"
    },
    {
      "icao": "EDDB",
      "iata": "BER",
      "name": "Berlin Brandenburg Airport",
      "updatedAt": "151050Z",
      "visibility_m": 500,
      "taf_visibility_m": 700,
      "worst_visibility_m": 500,
      "ceiling_ft": 100,
      "hazards": [
        "FG",
        "BR"
      ],
      "severityScore": 100,
      "metarRaw": "METAR EDDB 151050Z AUTO 15006KT 0900 0500 R24R/P2000N R24L/1200D FG OVC002 04/04 Q1015 TEMPO 3000 BR BKN001",
      "tafRaw": "TAF EDDB 150500Z 1506/1606 14006KT 8000 SCT015 OVC020 \n  TEMPO 1506/1513 3000 BR BKN003 \n  PROB30 \n  TEMPO 1517/1522 0700 FG"
    },
    {
      "icao": "EETN",
      "iata": "TLL",
      "name": "Lennart Meri Tallinn Airport",
      "updatedAt": "151050Z",
      "visibility_m": 10000,
      "taf_visibility_m": 1000,
      "worst_visibility_m": 1000,
      "ceiling_ft": 900,
      "hazards": [
        "SN",
        "BR",
        "SHSN",
        "FZDZ",
        "DZ"
      ],
      "severityScore": 100,
      "metarRaw": "METAR EETN 151050Z 17010KT 9999 DRSN OVC009 M10/M11 Q1019 NOSIG",
      "tafRaw": "TAF EETN 150530Z 1506/1606 16012KT 2000 SN SCT010 BKN020 \n  TEMPO 1506/1508 1000 +SHSN BKN008 SCT018CB \n  BECMG 1508/1509 9000 BKN007 OVC015 \n  PROB40 \n  TEMPO 1509/1516 3000 SG -FZDZ \n  TEMPO 1519/1606 3000 -FZDZ BR BKN004"
    },
    {
      "icao": "EGGP",
      "iata": "LPL",
      "name": "Liverpool John Lennon Airport",
      "updatedAt": "151050Z",
      "visibility_m": 10000,
      "taf_visibility_m": 300,
      "worst_visibility_m": 300,
      "ceiling_ft": 200,
      "hazards": [
        "FG",
        "BR"
      ],
      "severityScore": 100,
      "metarRaw": "METAR EGGP 151050Z 17005KT 9999 FEW035 06/04 Q1000",
      "tafRaw": "TAF EGGP 150503Z 1506/1606 16006KT 9999 SCT025 \n  PROB30 1508/1512 8000 \n  BECMG 1512/1515 8000 \n  TEMPO 1516/1603 3000 BR MIFG BKN002 \n  PROB30 1519/1603 0300 FG VV/// \n  PROB30 \n  TEMPO 1603/1606 3000 BR BKN004"
    },
    {
      "icao": "EGGW",
      "iata": "LTN",
      "name": "London Luton Airport",
      "updatedAt": "151050Z",
      "visibility_m": 4100,
      "taf_visibility_m": 300,
      "worst_visibility_m": 300,
      "ceiling_ft": 100,
      "hazards": [
        "RA",
        "DZ",
        "FG"
      ],
      "severityScore": 100,
      "metarRaw": "METAR EGGW 151050Z AUTO 16007KT 130V200 4100 RADZ BKN005/// OVC009/// //////TCU 08/07 Q1002",
      "tafRaw": "TAF EGGW 150457Z 1506/1606 19010KT 9999 SCT004 BKN020 \n  TEMPO 1506/1522 6000 RA BKN003 \n  PROB40 \n  TEMPO 1506/1512 3000 +RA BKN001 \n  PROB30 \n  TEMPO 1512/1518 3000 +RA \n  TEMPO 1516/1520 17018G28KT \n  BECMG 1518/1521 29010KT \n  PROB40 \n  TEMPO 1522/1606 0300 FG BKN001 \n  BECMG 1603/1606 17008KT"
    },
    {
      "icao": "ENGM",
      "iata": "OSL",
      "name": "Oslo-Gardermoen International Airport",
      "updatedAt": "151050Z",
      "visibility_m": 500,
      "taf_visibility_m": 300,
      "worst_visibility_m": 300,
      "ceiling_ft": 400,
      "hazards": [
        "FZFG",
        "FG",
        "BR",
        "SN"
      ],
      "severityScore": 100,
      "metarRaw": "METAR ENGM 151050Z 01004KT 350V050 2100 0800E PRFG BKN009 M07/M08 Q1008 TEMPO 0500 FZFG BKN004",
      "tafRaw": "TAF ENGM 150500Z 1506/1606 VRB03KT 0300 FZFG VV001 \n  PROB30 1506/1509 6000 NSW SCT002 \n  BECMG 1509/1511 8000 NSW BKN005 \n  TEMPO 1511/1606 2000 -SN BR BKN003"
    },
    {
      "icao": "EPPO",
      "iata": "POZ",
      "name": "Poznań-Ławica Airport",
      "updatedAt": "151030Z",
      "visibility_m": 450,
      "taf_visibility_m": null,
      "worst_visibility_m": 450,
      "ceiling_ft": 200,
      "hazards": [
        "FZFG",
        "FG"
      ],
      "severityScore": 100,
      "metarRaw": "METAR EPPO 151030Z 11007KT 0450 R28/0750U FZFG VV002 M00/M01 Q1018",
      "tafRaw": null
    },
    {
      "icao": "EPWR",
      "iata": "WRO",
      "name": "Copernicus Wrocław Airport",
      "updatedAt": "151030Z",
      "visibility_m": 3000,
      "taf_visibility_m": 100,
      "worst_visibility_m": 100,
      "ceiling_ft": 100,
      "hazards": [
        "BR",
        "FG",
        "RA",
        "DZ"
      ],
      "severityScore": 100,
      "metarRaw": "METAR EPWR 151030Z 12007KT 3000 BR SCT035 02/02 Q1018",
      "tafRaw": "TAF EPWR 150830Z 1509/1609 12005KT 2500 BR BKN045 \n  BECMG 1509/1511 6000 \n  TEMPO 1511/1516 4000 -RADZ BR BKN007 \n  TEMPO 1518/1520 1200 BR \n  BECMG 1520/1523 0800 FG \n  BECMG 1523/1602 0400 FG BKN002 \n  TEMPO 1523/1609 0100 FG BKN001"
    },
    {
      "icao": "ESGG",
      "iata": "GOT",
      "name": "Göteborg Landvetter Airport",
      "updatedAt": "151050Z",
      "visibility_m": 10000,
      "taf_visibility_m": 300,
      "worst_visibility_m": 300,
      "ceiling_ft": 1800,
      "hazards": [
        "FG",
        "BR",
        "DZ",
        "RA"
      ],
      "severityScore": 100,
      "metarRaw": "METAR ESGG 151050Z 16010KT 9999 FEW007 BKN018 02/01 Q1010",
      "tafRaw": "TAF ESGG 150830Z 1509/1609 18006KT 8000 SCT004 \n  PROB40 1509/1512 BKN004 \n  BECMG 1513/1515 BKN005 \n  TEMPO 1515/1518 2000 -RADZ BR BKN003 \n  PROB40 1518/1608 0300 -DZ FG VV002 \n  PROB40 1608/1609 BKN004"
    },
    {
      "icao": "LEZG",
      "iata": "ZAZ",
      "name": "Zaragoza Airport",
      "updatedAt": "151030Z",
      "visibility_m": 10000,
      "taf_visibility_m": 350,
      "worst_visibility_m": 350,
      "ceiling_ft": 100,
      "hazards": [
        "FG",
        "BR"
      ],
      "severityScore": 100,
      "metarRaw": "METAR LEZG 151030Z 11007KT 080V140 CAVOK 06/05 Q1018 NOSIG",
      "tafRaw": "TAF LEZG 150500Z 1506/1606 VRB04KT 9999 FEW020 TX17/1514Z TN05/1506Z \n  TEMPO 1506/1512 3000 BR BKN004 BKN007 BKN012 \n  TEMPO 1506/1512 0350 FG VV001 \n  BECMG 1510/1512 19012KT \n  TEMPO 1518/1606 2000 BR \n  BECMG 1600/1602 VRB03KT"
    },
    {
      "icao": "LEZL",
      "iata": "SVQ",
      "name": "Sevilla Airport",
      "updatedAt": "151030Z",
      "visibility_m": 1500,
      "taf_visibility_m": 500,
      "worst_visibility_m": 500,
      "ceiling_ft": 200,
      "hazards": [
        "BR",
        "FG",
        "RA"
      ],
      "severityScore": 100,
      "metarRaw": "METAR LEZL 151030Z 03003KT 360V060 1500 BR VV002 08/08 Q1022 BECMG 5000 BR",
      "tafRaw": "TAF LEZL 150800Z 1509/1609 07003KT 0500 FG VV001 TX14/1515Z TN08/1607Z \n  BECMG 1509/1511 4000 BR BKN006 \n  BECMG 1511/1513 9999 NSW SCT020 \n  BECMG 1514/1516 22010KT \n  PROB30 \n  TEMPO 1521/1609 4000 RA BR BKN010"
    },
    {
      "icao": "LFBD",
      "iata": "BOD",
      "name": "Bordeaux–Mérignac Airport",
      "updatedAt": "151030Z",
      "visibility_m": 10000,
      "taf_visibility_m": 500,
      "worst_visibility_m": 500,
      "ceiling_ft": 200,
      "hazards": [
        "FG",
        "BR",
        "SHRA",
        "RA"
      ],
      "severityScore": 100,
      "metarRaw": "METAR LFBD 151030Z AUTO 14008KT CAVOK 09/07 Q1011 NOSIG",
      "tafRaw": "TAF LFBD 150500Z 1506/1612 18005KT 6000 NSC TX13/1514Z TN05/1506Z \n  TEMPO 1506/1510 3000 BR BKN002 \n  PROB40 1506/1509 0500 FG VV/// \n  BECMG 1509/1511 19010KT CAVOK \n  TEMPO 1516/1612 4000 -SHRA BKN040TCU \n  PROB30 \n  TEMPO 1516/1522 20010G20KT \n  PROB30 \n  TEMPO 1523/1605 BKN007"
    },
    {
      "icao": "LHBP",
      "iata": "BUD",
      "name": "Budapest Liszt Ferenc International Airport",
      "updatedAt": "151030Z",
      "visibility_m": 3000,
      "taf_visibility_m": 300,
      "worst_visibility_m": 300,
      "ceiling_ft": 600,
      "hazards": [
        "BR",
        "FZFG",
        "FZRA",
        "FZDZ",
        "FG",
        "RA",
        "DZ"
      ],
      "severityScore": 100,
      "metarRaw": "METAR LHBP 151030Z 06005KT 3000 BR BKN006 M01/M03 Q1022 NOSIG",
      "tafRaw": "TAF LHBP 150515Z 1506/1606 09005KT 5000 BR SCT005 BKN080 \n  PROB40 1506/1515 0500 -FZDZ FZFG VV001 \n  PROB30 \n  TEMPO 1506/1509 SG \n  BECMG 1509/1512 OVC005 \n  TEMPO 1515/1606 1200 -FZRADZ BCFG OVC002 \n  PROB40 \n  TEMPO 1518/1524 FZRA \n  PROB30 1600/1606 0300 FZFG VV001"
    },
    {
      "icao": "LHDC",
      "iata": "DEB",
      "name": "Debrecen International Airport",
      "updatedAt": "151015Z",
      "visibility_m": 3400,
      "taf_visibility_m": 500,
      "worst_visibility_m": 500,
      "ceiling_ft": 3800,
      "hazards": [
        "BR",
        "FZFG",
        "FZDZ",
        "FG",
        "DZ"
      ],
      "severityScore": 100,
      "metarRaw": "METAR LHDC 151015Z AUTO 00000KT 3400 BR OVC038 M00/M00 Q1022 NOSIG",
      "tafRaw": "TAF LHDC 150815Z 1509/1518 VRB03KT 5000 BR SCT005 OVC035 \n  TEMPO 1509/1518 1400 -FZDZ BR BKN004 OVC015 \n  PROB40 \n  TEMPO 1515/1518 0500 FZFG VV001"
    },
    {
      "icao": "LKPR",
      "iata": "PRG",
      "name": "Václav Havel Airport Prague",
      "updatedAt": "151030Z",
      "visibility_m": 3000,
      "taf_visibility_m": 300,
      "worst_visibility_m": 300,
      "ceiling_ft": 4000,
      "hazards": [
        "BR",
        "RA",
        "FZFG",
        "FG"
      ],
      "severityScore": 100,
      "metarRaw": "METAR LKPR 151030Z 18003KT 3000 -RA BR FEW024 OVC040 04/04 Q1017 NOSIG",
      "tafRaw": "TAF LKPR 150800Z 1509/1615 12004KT 6000 OVC040 \n  TEMPO 1509/1516 2500 -RA BR SCT004 BKN012 \n  BECMG 1516/1518 1500 BR SCT002 \n  TEMPO 1518/1609 VRB02KT 0300 FZFG OVC002 \n  BECMG 1610/1612 4000 BR OVC005"
    },
    {
      "icao": "LOWW",
      "iata": "VIE",
      "name": "Vienna International Airport",
      "updatedAt": "151050Z",
      "visibility_m": 900,
      "taf_visibility_m": 300,
      "worst_visibility_m": 300,
      "ceiling_ft": 200,
      "hazards": [
        "FZFG",
        "BR",
        "FG",
        "FZDZ",
        "DZ"
      ],
      "severityScore": 100,
      "metarRaw": "METAR LOWW 151050Z VRB02KT 0900 R16/0800D R29/1000D FZFG FEW000 SCT001 BKN002 M02/M02 Q1021 TEMPO 1300 BR",
      "tafRaw": "TAF LOWW 150815Z 1509/1615 15004KT 0800 FZFG SCT001 OVC002 TX00/1613Z TNM02/1509Z \n  TEMPO 1509/1512 0500 VV001 \n  PROB30 \n  TEMPO 1511/1516 1500 -FZDZ BR \n  TEMPO 1516/1612 0500 VV001 \n  PROB30 \n  TEMPO 1523/1608 13008KT 0300 -FZDZ FZFG \n  BECMG 1608/1610 13012KT"
    },
    {
      "icao": "LRSB",
      "iata": "SBZ",
      "name": "Sibiu International Airport",
      "updatedAt": "151030Z",
      "visibility_m": 4000,
      "taf_visibility_m": 1500,
      "worst_visibility_m": 1500,
      "ceiling_ft": 1100,
      "hazards": [
        "BR",
        "SN",
        "FZRA",
        "RA",
        "DZ"
      ],
      "severityScore": 100,
      "metarRaw": "METAR LRSB 151030Z 01004KT 4000 BR SCT009 OVC011 02/01 Q1021",
      "tafRaw": "TAF LRSB 150500Z 1506/1606 VRB04KT 9999 BKN045 \n  BECMG 1507/1509 BKN015 BKN035 \n  PROB40 \n  TEMPO 1509/1512 5000 -RASN BR \n  TEMPO 1512/1518 5000 -RADZ BR BKN005 OVC020 \n  BECMG 1518/1520 5000 BR BKN010 OVC020 \n  PROB40 \n  TEMPO 1600/1606 1500 -FZRADZ"
    },
    {
      "icao": "LRTM",
      "iata": "TGM",
      "name": "Târgu Mureş Transilvania International Airport",
      "updatedAt": "151030Z",
      "visibility_m": 1400,
      "taf_visibility_m": 800,
      "worst_visibility_m": 800,
      "ceiling_ft": 700,
      "hazards": [
        "BR",
        "SN",
        "FZFG",
        "FG"
      ],
      "severityScore": 100,
      "metarRaw": "METAR LRTM 151030Z 00000KT 1400 R07/1500U -SN BR BKN007 OVC025 01/M01 Q1022",
      "tafRaw": "TAF LRTM 150800Z 1509/1518 VRB04KT 1500 -SN BR BKN010 OVC025 \n  TEMPO 1509/1510 0800 SN FZFG BKN005 OVC015 \n  BECMG 1513/1515 3000 BR"
    },
    {
      "icao": "LRTR",
      "iata": "TSR",
      "name": "Timişoara Traian Vuia Airport",
      "updatedAt": "151030Z",
      "visibility_m": 4000,
      "taf_visibility_m": 600,
      "worst_visibility_m": 600,
      "ceiling_ft": 200,
      "hazards": [
        "BR",
        "FZFG",
        "RA",
        "FG"
      ],
      "severityScore": 100,
      "metarRaw": "METAR LRTR 151030Z VRB01KT 4000 BR NSC 04/02 Q1022",
      "tafRaw": "TAF LRTR 150500Z 1506/1606 VRB04KT 1500 BR SCT020 \n  PROB30 \n  TEMPO 1506/1508 0600 FZFG BKN002 \n  BECMG 1508/1509 5000 \n  BECMG 1509/1511 9999 NSW \n  BECMG 1522/1524 5000 -RA BR BKN015 OVC040 \n  TEMPO 1601/1606 1500 RA BR BKN010 OVC030"
    },
    {
      "icao": "UAAA",
      "iata": "ALA",
      "name": "Almaty International Airport",
      "updatedAt": "151030Z",
      "visibility_m": 2400,
      "taf_visibility_m": 300,
      "worst_visibility_m": 300,
      "ceiling_ft": 700,
      "hazards": [
        "BR",
        "SN",
        "FZFG",
        "SHSN",
        "FZDZ",
        "FG",
        "DZ"
      ],
      "severityScore": 100,
      "metarRaw": "METAR UAAA 151030Z 01002MPS 340V040 2400 -SN BR BKN007 OVC016 M07/M08 Q1021 NOSIG",
      "tafRaw": "TAF UAAA 150505Z 1506/1606 02003G08MPS 3100 BR FU BKN011CB OVC020 TXM04/1509Z TNM10/1603Z \n  TEMPO 1506/1509 0800 -FZDZ FZFG OVC003 \n  TEMPO 1509/1513 1500 OVC003 \n  BECMG 1513/1514 32003G08MPS 1500 \n  TEMPO 1513/1524 0500 FZFG VV002 \n  TEMPO 1600/1606 28004G09MPS 0300 SHSN FZFG BKN004 OVC011CB"
    },
    {
      "icao": "LPPT",
      "iata": "LIS",
      "name": "Lisbon Humberto Delgado Airport",
      "updatedAt": "151030Z",
      "visibility_m": 10000,
      "taf_visibility_m": 3000,
      "worst_visibility_m": 3000,
      "ceiling_ft": 3600,
      "hazards": [
        "BR",
        "TSRA",
        "RA",
        "SHRA",
        "TS",
        "DZ"
      ],
      "severityScore": 96,
      "metarRaw": "METAR LPPT 151030Z 21010KT 9999 SCT028 BKN036 13/09 Q1019",
      "tafRaw": "TAF LPPT 150500Z 1506/1612 21005KT 9999 BKN035 \n  BECMG 1512/1514 21015KT 8000 -RA SCT012 BKN018 \n  TEMPO 1514/1517 21018G28KT 3000 RADZ BR SCT002 BKN005 FEW020TCU \n  BECMG 1517/1519 31012KT 9999 NSW SCT015 \n  BECMG 1522/1524 28010KT \n  TEMPO 1603/1612 28015G25KT 8000 SHRA BKN015 FEW018CB \n  PROB30 \n  TEMPO 1606/1612 3000 +TSRA SCT018CB"
    },
    {
      "icao": "EPLB",
      "iata": "LUZ",
      "name": "Lublin Airport",
      "updatedAt": "151030Z",
      "visibility_m": 2000,
      "taf_visibility_m": 1400,
      "worst_visibility_m": 1400,
      "ceiling_ft": 400,
      "hazards": [
        "BR",
        "FZDZ",
        "DZ"
      ],
      "severityScore": 93,
      "metarRaw": "METAR EPLB 151030Z 07003KT 2000 BR BKN004 OVC006 M03/M03 Q1021",
      "tafRaw": "TAF EPLB 150530Z 1506/1606 VRB02KT 2500 BR OVC002 \n  TEMPO 1506/1509 1400 -FZDZ BR \n  BECMG 1508/1511 5000 BR BKN006 \n  PROB40 1511/1518 BKN010 \n  BECMG 1513/1516 12010KT"
    },
    {
      "icao": "LPPR",
      "iata": "OPO",
      "name": "Francisco de Sá Carneiro Airport",
      "updatedAt": "151030Z",
      "visibility_m": 3500,
      "taf_visibility_m": 1500,
      "worst_visibility_m": 1500,
      "ceiling_ft": 1200,
      "hazards": [
        "BR",
        "RA",
        "SHRA",
        "TS",
        "DZ"
      ],
      "severityScore": 93,
      "metarRaw": "METAR LPPR 151030Z 18021KT 3500 -RA BR FEW010 BKN012 OVC020 10/09 Q1014",
      "tafRaw": "TAF LPPR 150500Z 1506/1606 18010KT 9999 SCT018 BKN030 \n  BECMG 1506/1508 17020KT 8000 -RA SCT008 BKN016 \n  TEMPO 1508/1514 17025G35KT 3000 RADZ BR SCT003 BKN006 \n  PROB40 \n  TEMPO 1511/1514 17030G40KT 1500 +RA BKN003 FEW018CB \n  BECMG 1514/1516 31013KT 9999 NSW SCT018 \n  BECMG 1519/1521 VRB02KT \n  TEMPO 1521/1606 5000 SHRA SCT012 FEW020CB BKN030 \n  PROB40 \n  TEMPO 1600/1606 VRB15G25KT 2000 +TSRAGS BKN012 SCT016CB"
    },
    {
      "icao": "EDDH",
      "iata": "HAM",
      "name": "Hamburg Helmut Schmidt Airport",
      "updatedAt": "151050Z",
      "visibility_m": 4000,
      "taf_visibility_m": 1200,
      "worst_visibility_m": 1200,
      "ceiling_ft": 300,
      "hazards": [
        "BR",
        "SHRA",
        "RA",
        "DZ"
      ],
      "severityScore": 91,
      "metarRaw": "METAR EDDH 151050Z AUTO 15008KT 5000 -SHRA BR SCT003 BKN025 BKN035 FEW///TCU 05/04 Q1011 RESHRA TEMPO 4000 BKN003",
      "tafRaw": "TAF EDDH 150500Z 1506/1612 16010KT 9999 BKN007 \n  TEMPO 1506/1516 4000 BR \n  PROB40 \n  TEMPO 1506/1511 2500 -DZRA BKN003 \n  PROB30 \n  TEMPO 1506/1511 1200 -DZ \n  BECMG 1511/1514 SCT020"
    },
    {
      "icao": "LIPR",
      "iata": "RMI",
      "name": "Federico Fellini International Airport",
      "updatedAt": "151050Z",
      "visibility_m": 3500,
      "taf_visibility_m": 500,
      "worst_visibility_m": 500,
      "ceiling_ft": 700,
      "hazards": [
        "BR",
        "FG"
      ],
      "severityScore": 90,
      "metarRaw": "METAR LIPR 151050Z 32008KT 3500 BR SCT006 SCT010 07/06 Q1023",
      "tafRaw": "TAF LIPR 150500Z 1506/1606 VRB05KT 3000 BR BKN050 \n  PROB40 \n  TEMPO 1506/1509 0600 FG BKN008 \n  BECMG 1516/1518 0500 FG BKN007"
    },
    {
      "icao": "LIPY",
      "iata": "AOI",
      "name": "Marche Airport",
      "updatedAt": "151050Z",
      "visibility_m": 10000,
      "taf_visibility_m": 500,
      "worst_visibility_m": 500,
      "ceiling_ft": 500,
      "hazards": [
        "FG",
        "BR"
      ],
      "severityScore": 90,
      "metarRaw": "METAR LIPY 151050Z AUTO VRB03KT 9999 SCT078/// 14/08 Q1022",
      "tafRaw": "TAF LIPY 150500Z 1506/1606 VRB05KT 3000 BR BKN060 \n  BECMG 1508/1510 8000 \n  BECMG 1520/1522 3000 BR \n  TEMPO 1603/1606 0500 FG BKN005"
    },
    {
      "icao": "LQSA",
      "iata": "SJJ",
      "name": "Sarajevo International Airport",
      "updatedAt": "151030Z",
      "visibility_m": 8000,
      "taf_visibility_m": 700,
      "worst_visibility_m": 700,
      "ceiling_ft": 400,
      "hazards": [
        "FG",
        "BR"
      ],
      "severityScore": 90,
      "metarRaw": "METAR LQSA 151030Z 00000KT 8000 SCT045 06/02 Q1024 NOSIG",
      "tafRaw": "TAF LQSA 150500Z 1506/1606 VRB02KT 8000 FEW012 SCT060 TX08/1514Z TN00/1506Z \n  PROB30 1506/1508 3000 BR BKN004 \n  TEMPO 1521/1606 2500 BR BKN008 \n  PROB30 1604/1606 0700 FG BKN004"
    },
    {
      "icao": "LIMC",
      "iata": "MXP",
      "name": "Milan Malpensa International Airport",
      "updatedAt": "151050Z",
      "visibility_m": 900,
      "taf_visibility_m": 1200,
      "worst_visibility_m": 900,
      "ceiling_ft": 300,
      "hazards": [
        "FG",
        "BR",
        "RA"
      ],
      "severityScore": 87,
      "metarRaw": "METAR LIMC 151050Z VRB02KT 0900 R35R/P2000N R17L/P2000N R35L/P2000N FG OVC003 07/06 Q1022 NOSIG",
      "tafRaw": "TAF LIMC 150500Z 1506/1612 VRB05KT 8000 BKN030 \n  TEMPO 1506/1521 4000 -RA BKN010 \n  TEMPO 1521/1612 1200 -RA BR BKN008"
    },
    {
      "icao": "LEMD",
      "iata": "MAD",
      "name": "Adolfo Suárez Madrid–Barajas Airport",
      "updatedAt": "151042Z",
      "visibility_m": 1000,
      "taf_visibility_m": null,
      "worst_visibility_m": 1000,
      "ceiling_ft": 300,
      "hazards": [
        "BR",
        "FG"
      ],
      "severityScore": 80,
      "metarRaw": "SPECI LEMD 151042Z 16005KT 110V200 1600 1000 BCFG BKN003 OVC006 04/04 Q1019 BECMG 3000 BR BKN004",
      "tafRaw": null
    },
    {
      "icao": "EGBB",
      "iata": "BHX",
      "name": "Birmingham Airport",
      "updatedAt": "151050Z",
      "visibility_m": 9000,
      "taf_visibility_m": 1200,
      "worst_visibility_m": 1200,
      "ceiling_ft": 100,
      "hazards": [
        "DZ",
        "BR",
        "RA"
      ],
      "severityScore": 77,
      "metarRaw": "METAR EGBB 151050Z 14005KT 9000 -DZ FEW049 06/06 Q1001",
      "tafRaw": "TAF EGBB 150502Z 1506/1606 18009KT 9999 SCT010 \n  TEMPO 1506/1511 6000 BKN008 \n  PROB40 \n  TEMPO 1506/1511 1200 BR BKN002 \n  TEMPO 1511/1521 6000 RA BKN009 \n  PROB40 \n  TEMPO 1511/1520 4000 +RA BKN004 \n  BECMG 1514/1517 35010KT \n  BECMG 1520/1523 20006KT \n  TEMPO 1520/1606 4000 BR BKN004 \n  PROB30 \n  TEMPO 1521/1606 BKN001"
    },
    {
      "icao": "EKBI",
      "iata": "BLL",
      "name": "Billund Airport",
      "updatedAt": "151050Z",
      "visibility_m": 4700,
      "taf_visibility_m": 1200,
      "worst_visibility_m": 1200,
      "ceiling_ft": 300,
      "hazards": [
        "DZ",
        "BR",
        "RA"
      ],
      "severityScore": 77,
      "metarRaw": "METAR EKBI 151050Z AUTO 15010KT 4700 -DZ OVC002/// 03/03 Q1007",
      "tafRaw": "TAF EKBI 150827Z 1509/1609 14010KT 1200 -RADZ BR OVC003 \n  TEMPO 1509/1523 3000 BKN005 \n  BECMG 1523/1601 9999 NSW SCT008 \n  TEMPO 1601/1609 4000 BR BKN004"
    },
    {
      "icao": "ESMS",
      "iata": "MMX",
      "name": "Malmö Sturup Airport",
      "updatedAt": "151050Z",
      "visibility_m": 10000,
      "taf_visibility_m": 1000,
      "worst_visibility_m": 1000,
      "ceiling_ft": 200,
      "hazards": [
        "BR",
        "RA",
        "DZ"
      ],
      "severityScore": 77,
      "metarRaw": "METAR ESMS 151050Z 15011KT CAVOK 03/02 Q1013",
      "tafRaw": "TAF ESMS 150827Z 1509/1609 18006KT 9999 FEW020 \n  BECMG 1509/1511 BKN012 \n  BECMG 1511/1513 1000 -RADZ BR BKN006 \n  TEMPO 1514/1607 4000 BKN002 \n  BECMG 1607/1609 9999 NSW FEW020"
    },
    {
      "icao": "LRCL",
      "iata": "CLJ",
      "name": "Cluj Avram Iancu International Airport",
      "updatedAt": "151030Z",
      "visibility_m": 1400,
      "taf_visibility_m": 1500,
      "worst_visibility_m": 1400,
      "ceiling_ft": 600,
      "hazards": [
        "SN",
        "RA",
        "BR"
      ],
      "severityScore": 75,
      "metarRaw": "METAR LRCL 151030Z COR 07002KT 1400 R25/1900N -RASN OVC006 M00/M01 Q1022",
      "tafRaw": "TAF LRCL 150800Z 1509/1518 VRB04KT 1500 -SN BR BKN005 OVC015 \n  BECMG 1511/1513 3000 BR BKN010 OVC020"
    },
    {
      "icao": "EGNM",
      "iata": "LBA",
      "name": "Leeds Bradford Airport",
      "updatedAt": "151050Z",
      "visibility_m": 10000,
      "taf_visibility_m": 4000,
      "worst_visibility_m": 4000,
      "ceiling_ft": 400,
      "hazards": [
        "BR",
        "RA",
        "DZ"
      ],
      "severityScore": 67,
      "metarRaw": "METAR EGNM 151050Z 21005KT 170V230 9999 FEW012 06/04 Q1000",
      "tafRaw": "TAF EGNM 150504Z 1505/1524 21010KT 9999 SCT020 \n  PROB40 \n  TEMPO 1505/1515 8000 BKN009 \n  BECMG 1509/1512 VRB03KT \n  PROB40 \n  TEMPO 1515/1520 4000 RADZ BR BKN004 \n  PROB40 \n  TEMPO 1520/1524 4000 BR BKN004"
    },
    {
      "icao": "EKCH",
      "iata": "CPH",
      "name": "Copenhagen Kastrup Airport",
      "updatedAt": "151050Z",
      "visibility_m": 10000,
      "taf_visibility_m": 1200,
      "worst_visibility_m": 1200,
      "ceiling_ft": 800,
      "hazards": [
        "BR",
        "RA",
        "DZ"
      ],
      "severityScore": 67,
      "metarRaw": "METAR EKCH 151050Z 14011KT 9999 BKN012 04/02 Q1013 BECMG BKN008",
      "tafRaw": "TAF EKCH 150827Z 1509/1609 16006KT 9999 SCT020 \n  BECMG 1510/1513 15015KT BKN008 \n  BECMG 1513/1515 1200 -RADZ BR BKN003 \n  TEMPO 1515/1522 5000 NSW BKN005 \n  TEMPO 1522/1602 6000 NSW BKN020 \n  TEMPO 1602/1609 3000 BKN005"
    },
    {
      "icao": "LIME",
      "iata": "BGY",
      "name": "Milan Bergamo Airport / Antonio Locatelli Air Base",
      "updatedAt": "151050Z",
      "visibility_m": 2100,
      "taf_visibility_m": 600,
      "worst_visibility_m": 600,
      "ceiling_ft": 3000,
      "hazards": [
        "BR",
        "RA",
        "FG"
      ],
      "severityScore": 67,
      "metarRaw": "METAR LIME 151050Z VRB01KT 2100 -RA BR SCT010 OVC030 06/05 Q1022 NOSIG",
      "tafRaw": "TAF LIME 150500Z 1506/1606 VRB04KT 4000 BR FEW005 BKN040 \n  TEMPO 1506/1518 2000 -RA \n  TEMPO 1518/1606 0600 FG BKN004"
    },
    {
      "icao": "LIPX",
      "iata": "VRN",
      "name": "Verona Villafranca Valerio Catullo Airport",
      "updatedAt": "151050Z",
      "visibility_m": 6000,
      "taf_visibility_m": 600,
      "worst_visibility_m": 600,
      "ceiling_ft": 8000,
      "hazards": [
        "FG",
        "BR",
        "RA"
      ],
      "severityScore": 67,
      "metarRaw": "METAR LIPX 151050Z 22005KT 6000 OVC080 07/04 Q1023",
      "tafRaw": "TAF LIPX 150500Z 1506/1606 VRB04KT 3000 BR FEW010 BKN050 \n  TEMPO 1506/1516 1200 -RA \n  BECMG 1516/1518 0600 FG BKN004"
    },
    {
      "icao": "LPFR",
      "iata": "FAO",
      "name": "Faro Airport",
      "updatedAt": "151030Z",
      "visibility_m": 10000,
      "taf_visibility_m": 3000,
      "worst_visibility_m": 3000,
      "ceiling_ft": 300,
      "hazards": [
        "BR",
        "RA",
        "DZ"
      ],
      "severityScore": 67,
      "metarRaw": "METAR LPFR 151030Z 28003KT 9999 FEW012 13/10 Q1022",
      "tafRaw": "TAF LPFR 150500Z 1506/1606 01005KT 9999 FEW012 \n  PROB30 \n  TEMPO 1506/1508 3000 BR BKN003 \n  BECMG 1511/1513 21007KT BKN040 \n  BECMG 1517/1519 23018KT SCT015 BKN030 \n  TEMPO 1519/1524 4000 RADZ BR SCT008 BKN012 \n  BECMG 1600/1602 31012KT SCT015"
    },
    {
      "icao": "EPWA",
      "iata": "WAW",
      "name": "Warsaw Chopin Airport",
      "updatedAt": "151030Z",
      "visibility_m": 2000,
      "taf_visibility_m": 400,
      "worst_visibility_m": 400,
      "ceiling_ft": 3000,
      "hazards": [
        "BR",
        "FG"
      ],
      "severityScore": 65,
      "metarRaw": "METAR EPWA 151030Z 09004KT 040V120 2000 BR SCT003 BKN030 00/M00 Q1020 NOSIG",
      "tafRaw": "TAF EPWA 150830Z 1509/1609 VRB02KT 6000 BKN020 \n  TEMPO 1509/1515 1200 BR BKN005 \n  PROB40 1509/1511 0400 FG BKN002 \n  BECMG 1513/1516 13010KT \n  TEMPO 1515/1605 BKN006"
    },
    {
      "icao": "LYNI",
      "iata": "INI",
      "name": "Niš Constantine the Great Airport",
      "updatedAt": "151030Z",
      "visibility_m": 10000,
      "taf_visibility_m": 500,
      "worst_visibility_m": 500,
      "ceiling_ft": 7000,
      "hazards": [
        "FG",
        "BR"
      ],
      "severityScore": 65,
      "metarRaw": "METAR LYNI 151030Z VRB02KT 9999 FEW050 BKN070 08/04 Q1024 NOSIG",
      "tafRaw": "TAF LYNI 150500Z 1506/1606 11004KT 5000 BR BKN045 TX07/1513Z TN00/1606Z \n  TEMPO 1509/1515 8000 NSW \n  BECMG 1518/1520 2000 \n  TEMPO 1600/1606 0500 FG"
    },
    {
      "icao": "EPSY",
      "iata": "SZY",
      "name": "Olsztyn-Mazury Airport",
      "updatedAt": "151030Z",
      "visibility_m": 3000,
      "taf_visibility_m": 2500,
      "worst_visibility_m": 2500,
      "ceiling_ft": 400,
      "hazards": [
        "BR",
        "SN"
      ],
      "severityScore": 63,
      "metarRaw": "METAR EPSY 151030Z VRB03KT 3000 BR BKN004 OVC033 M05/M05 Q1020",
      "tafRaw": "TAF EPSY 150830Z 1509/1518 14004KT 4500 BR OVC004 \n  PROB40 \n  TEMPO 1509/1513 2500 -SN BR OVC003"
    },
    {
      "icao": "LUKK",
      "iata": "RMO",
      "name": "Chişinău International Airport",
      "updatedAt": "151030Z",
      "visibility_m": 4000,
      "taf_visibility_m": 1200,
      "worst_visibility_m": 1200,
      "ceiling_ft": 700,
      "hazards": [
        "BR",
        "SN"
      ],
      "severityScore": 63,
      "metarRaw": "METAR LUKK 151030Z 05007KT 360V080 9999 OVC010 M05/M07 Q1022 TEMPO 4000 SN BR BKN007",
      "tafRaw": "TAF LUKK 150506Z 1506/1606 03008KT 4000 SN BR BKN015 \n  TEMPO 1506/1512 1200 BKN007 \n  BECMG 1516/1518 CAVOK"
    },
    {
      "icao": "EGKK",
      "iata": "LGW",
      "name": "London Gatwick Airport",
      "updatedAt": "151050Z",
      "visibility_m": 8000,
      "taf_visibility_m": 3000,
      "worst_visibility_m": 3000,
      "ceiling_ft": 700,
      "hazards": [
        "RA",
        "SHRA",
        "DZ"
      ],
      "severityScore": 61,
      "metarRaw": "METAR EGKK 151050Z 19007KT 8000 -RA BKN007 BKN015 08/08 Q1003",
      "tafRaw": "TAF EGKK 150456Z 1506/1612 21009KT 9999 SCT010 \n  PROB30 \n  TEMPO 1506/1508 6000 -RADZ BKN006 \n  TEMPO 1508/1523 6000 -RADZ RA BKN007 \n  PROB30 \n  TEMPO 1508/1523 3000 RADZ +RA BKN004 \n  BECMG 1511/1514 15010KT \n  PROB30 \n  TEMPO 1512/1518 19020G30KT \n  BECMG 1517/1520 25010KT \n  PROB30 \n  TEMPO 1523/1603 6000 BKN007 \n  BECMG 1600/1603 17006KT \n  PROB40 \n  TEMPO 1603/1612 6000 SHRA BKN008"
    },
    {
      "icao": "ENBR",
      "iata": "BGO",
      "name": "Bergen Airport, Flesland",
      "updatedAt": "151050Z",
      "visibility_m": 10000,
      "taf_visibility_m": 4000,
      "worst_visibility_m": 4000,
      "ceiling_ft": 900,
      "hazards": [
        "BR",
        "RA",
        "SHRA"
      ],
      "severityScore": 61,
      "metarRaw": "METAR ENBR 151050Z 13007KT CAVOK 05/M01 Q0999 NOSIG RMK WIND 1200FT 14025KT",
      "tafRaw": "TAF ENBR 150500Z 1506/1606 14015KT 9999 -SHRA FEW015TCU BKN025 \n  TEMPO 1512/1522 15018G28KT 4000 RA BKN009 SCT015CB \n  BECMG 1601/1603 10005KT"
    },
    {
      "icao": "ENTO",
      "iata": "TRF",
      "name": "Sandefjord Airport, Torp",
      "updatedAt": "151050Z",
      "visibility_m": 1500,
      "taf_visibility_m": null,
      "worst_visibility_m": 1500,
      "ceiling_ft": 300,
      "hazards": [
        "BR"
      ],
      "severityScore": 60,
      "metarRaw": "METAR ENTO 151050Z 01004KT 3000 BR VV003 M03/M03 Q1008 TEMPO 1500 BR",
      "tafRaw": null
    },
    {
      "icao": "EGPD",
      "iata": "ABZ",
      "name": "Aberdeen International Airport",
      "updatedAt": "151050Z",
      "visibility_m": 10000,
      "taf_visibility_m": 4000,
      "worst_visibility_m": 4000,
      "ceiling_ft": 600,
      "hazards": [
        "BR",
        "RA",
        "DZ"
      ],
      "severityScore": 57,
      "metarRaw": "METAR EGPD 151050Z COR AUTO 22010KT 170V260 9999 FEW027 06/02 Q0994 NOSIG",
      "tafRaw": "TAF EGPD 150455Z 1506/1606 20008KT 9999 FEW015 \n  TEMPO 1506/1508 8000 -RA BKN008 \n  PROB30 \n  TEMPO 1506/1507 4000 RADZ BKN006 \n  PROB30 \n  TEMPO 1521/1606 5000 BR"
    },
    {
      "icao": "LRBV",
      "iata": "GHV",
      "name": "Brașov-Ghimbav International Airport",
      "updatedAt": "151030Z",
      "visibility_m": 5000,
      "taf_visibility_m": 3000,
      "worst_visibility_m": 3000,
      "ceiling_ft": 700,
      "hazards": [
        "BR",
        "RA",
        "DZ"
      ],
      "severityScore": 57,
      "metarRaw": "METAR LRBV 151030Z 28004KT 240V320 5000 -RADZ BR BKN007 OVC011 03/01 Q1020",
      "tafRaw": "TAF LRBV 150800Z 1509/1518 29008KT 5000 BR BKN010 OVC025 \n  TEMPO 1509/1512 3000 -RA BR BKN005 OVC020"
    },
    {
      "icao": "EYPA",
      "iata": "PLQ",
      "name": "Palanga International Airport",
      "updatedAt": "151050Z",
      "visibility_m": 6000,
      "taf_visibility_m": 3000,
      "worst_visibility_m": 3000,
      "ceiling_ft": 2600,
      "hazards": [
        "SN",
        "FZDZ",
        "DZ"
      ],
      "severityScore": 56,
      "metarRaw": "METAR EYPA 151050Z 16008KT 6000 OVC026 M05/M06 Q1019",
      "tafRaw": "TAF EYPA 150500Z 1506/1606 16010KT 6000 BKN005 \n  BECMG 1507/1510 SCT005 BKN015 \n  BECMG 1511/1513 BKN005 OVC010 \n  TEMPO 1513/1517 3000 SN -FZDZ OVC005 \n  BECMG 1520/1521 BKN020 \n  TEMPO 1521/1606 BKN005"
    },
    {
      "icao": "GMMN",
      "iata": "CMN",
      "name": "Mohammed V International Airport",
      "updatedAt": "151030Z",
      "visibility_m": 8000,
      "taf_visibility_m": 800,
      "worst_visibility_m": 800,
      "ceiling_ft": null,
      "hazards": [
        "FG",
        "BR"
      ],
      "severityScore": 55,
      "metarRaw": "METAR GMMN 151030Z 21006KT 180V240 8000 FEW016 13/11 Q1023 NOSIG",
      "tafRaw": "TAF GMMN 150500Z 1506/1612 20004KT 2000 BR FEW003 SCT020 \n  PROB30 \n  TEMPO 1506/1508 0800 FG SCT003 SCT020 \n  BECMG 1510/1514 28010KT SCT030 \n  BECMG 1520/1524 18004KT SCT016"
    },
    {
      "icao": "LIBR",
      "iata": "BDS",
      "name": "Brindisi Airport",
      "updatedAt": "151050Z",
      "visibility_m": 10000,
      "taf_visibility_m": 800,
      "worst_visibility_m": 800,
      "ceiling_ft": null,
      "hazards": [
        "BR",
        "FG"
      ],
      "severityScore": 55,
      "metarRaw": "METAR LIBR 151050Z 19005KT 160V220 9999 SCT020 14/09 Q1023",
      "tafRaw": "TAF LIBR 150500Z 1506/1606 VRB06KT 9000 FEW025 \n  TEMPO 1506/1508 2000 BCFG \n  BECMG 1520/1522 3000 BR \n  PROB40 \n  TEMPO 1603/1606 0800 FG"
    },
    {
      "icao": "LIPE",
      "iata": "BLQ",
      "name": "Bologna Guglielmo Marconi Airport",
      "updatedAt": "151050Z",
      "visibility_m": 3000,
      "taf_visibility_m": 800,
      "worst_visibility_m": 800,
      "ceiling_ft": 6500,
      "hazards": [
        "BR",
        "FG"
      ],
      "severityScore": 55,
      "metarRaw": "METAR LIPE 151050Z VRB02KT 3000 BR FEW010 BKN065 06/05 Q1023",
      "tafRaw": "TAF LIPE 150500Z 1506/1606 VRB04KT 4000 BR SCT020 BKN060 \n  TEMPO 1506/1509 0800 FG \n  BECMG 1512/1514 6000 \n  BECMG 1517/1519 2000 BR"
    },
    {
      "icao": "LRBS",
      "iata": "BBU",
      "name": "Bucharest Băneasa Aurel Vlaicu International Airport",
      "updatedAt": "151030Z",
      "visibility_m": 8000,
      "taf_visibility_m": 3000,
      "worst_visibility_m": 3000,
      "ceiling_ft": 500,
      "hazards": [
        "BR",
        "SN"
      ],
      "severityScore": 53,
      "metarRaw": "METAR LRBS 151030Z 06009KT 8000 NSC 01/M04 Q1020 NOSIG",
      "tafRaw": "TAF LRBS 150500Z 1506/1606 25006KT 5000 BR NSC \n  BECMG 1507/1509 9999 NSW \n  BECMG 1510/1512 07010KT \n  BECMG 1518/1520 5000 BR BKN010 \n  TEMPO 1602/1606 3000 -SN BR BKN005 OVC035"
    },
    {
      "icao": "LROP",
      "iata": "OTP",
      "name": "Bucharest Henri Coandă International Airport",
      "updatedAt": "151030Z",
      "visibility_m": 6000,
      "taf_visibility_m": 3000,
      "worst_visibility_m": 3000,
      "ceiling_ft": 500,
      "hazards": [
        "BR",
        "SN"
      ],
      "severityScore": 53,
      "metarRaw": "METAR LROP 151030Z 08008KT 6000 NSC 01/M04 Q1020 NOSIG",
      "tafRaw": "TAF LROP 150500Z 1506/1606 25006KT 5000 BR NSC \n  BECMG 1507/1509 9999 NSW \n  BECMG 1510/1512 07010KT \n  BECMG 1518/1520 5000 BR BKN010 \n  TEMPO 1602/1606 3000 -SN BR BKN005 OVC035"
    },
    {
      "icao": "LRSV",
      "iata": "SCV",
      "name": "Suceava Stefan cel Mare Airport",
      "updatedAt": "151030Z",
      "visibility_m": 4000,
      "taf_visibility_m": 3000,
      "worst_visibility_m": 3000,
      "ceiling_ft": 600,
      "hazards": [
        "BR",
        "SN"
      ],
      "severityScore": 53,
      "metarRaw": "METAR LRSV 151030Z 07005KT 4000 BR OVC006 M06/M07 Q1020",
      "tafRaw": "TAF LRSV 150800Z 1509/1518 05005KT 3000 -SN BKN005 OVC020 \n  BECMG 1509/1511 5000 BKN010 OVC025 \n  TEMPO 1511/1514 7000 NSW BKN015 OVC030 \n  BECMG 1514/1516 3000 -SN BKN005 OVC020"
    },
    {
      "icao": "UGKO",
      "iata": "KUT",
      "name": "David the Builder Kutaisi International Airport",
      "updatedAt": "151030Z",
      "visibility_m": 10000,
      "taf_visibility_m": 2000,
      "worst_visibility_m": 2000,
      "ceiling_ft": 800,
      "hazards": [
        "SHSN",
        "SN"
      ],
      "severityScore": 53,
      "metarRaw": "METAR UGKO 151030Z VRB02KT 9999 BKN008 05/01 Q1024 NOSIG",
      "tafRaw": "TAF UGKO 150500Z 1506/1606 08007KT 9999 BKN050 TX06/1511Z TNM01/1602Z \n  TEMPO 1506/1509 BKN010 \n  BECMG 1509/1511 CAVOK \n  BECMG 1522/1524 OVC040 \n  TEMPO 1602/1606 2000 SHSN SCT010 BKN023CB"
    },
    {
      "icao": "LRSM",
      "iata": "SUJ",
      "name": "Satu Mare International Airport",
      "updatedAt": "151030Z",
      "visibility_m": 2000,
      "taf_visibility_m": null,
      "worst_visibility_m": 2000,
      "ceiling_ft": 200,
      "hazards": [
        "BR"
      ],
      "severityScore": 50,
      "metarRaw": "METAR LRSM 151030Z 00000KT 2000 BR BKN002 01/M00 Q1023",
      "tafRaw": null
    },
    {
      "icao": "EFTU",
      "iata": "TKU",
      "name": "Turku Airport",
      "updatedAt": "151050Z",
      "visibility_m": 2400,
      "taf_visibility_m": null,
      "worst_visibility_m": 2400,
      "ceiling_ft": 600,
      "hazards": [
        "SN"
      ],
      "severityScore": 48,
      "metarRaw": "METAR EFTU 151050Z AUTO 14007KT 110V170 2400 -SN OVC006 M03/M04 Q1014",
      "tafRaw": null
    },
    {
      "icao": "EPMO",
      "iata": "WMI",
      "name": "Modlin Airport",
      "updatedAt": "151030Z",
      "visibility_m": 1000,
      "taf_visibility_m": null,
      "worst_visibility_m": 1000,
      "ceiling_ft": 3300,
      "hazards": [
        "BR",
        "FG"
      ],
      "severityScore": 45,
      "metarRaw": "METAR EPMO 151030Z 09005KT 1000 0900E R08/1100N BCFG BR SCT002 BKN033 M02/M02 Q1020",
      "tafRaw": null
    },
    {
      "icao": "EPSC",
      "iata": "SZZ",
      "name": "Solidarity Szczecin–Goleniów Airport",
      "updatedAt": "151030Z",
      "visibility_m": 10000,
      "taf_visibility_m": 2000,
      "worst_visibility_m": 2000,
      "ceiling_ft": 1900,
      "hazards": [
        "BR",
        "RA",
        "DZ"
      ],
      "severityScore": 44,
      "metarRaw": "METAR EPSC 151030Z 13011KT 9999 BKN019 01/M00 Q1016",
      "tafRaw": "TAF EPSC 150530Z 1506/1606 14010KT 6000 NSC \n  PROB40 1506/1509 2000 BR BKN003 \n  BECMG 1509/1511 BKN005 \n  TEMPO 1511/1518 2000 -RADZ BR OVC002 \n  TEMPO 1518/1606 2500 BR BKN002"
    },
    {
      "icao": "LPPS",
      "iata": "PXO",
      "name": "Porto Santo Airport",
      "updatedAt": "151030Z",
      "visibility_m": 10000,
      "taf_visibility_m": 5000,
      "worst_visibility_m": 5000,
      "ceiling_ft": 1200,
      "hazards": [
        "BR",
        "RA",
        "DZ"
      ],
      "severityScore": 44,
      "metarRaw": "METAR LPPS 151030Z 30008KT 9999 SCT014 SCT030 16/12 Q1026",
      "tafRaw": "TAF LPPS 150500Z 1506/1612 32007KT 9999 SCT015 \n  TEMPO 1506/1521 FEW015 BKN030 \n  BECMG 1506/1508 28012KT \n  BECMG 1521/1523 5000 RADZ BR SCT006 BKN012 \n  BECMG 1601/1603 34015KT 9999 NSW SCT015"
    },
    {
      "icao": "EPRA",
      "iata": "RDO",
      "name": "Warsaw Radom Airport",
      "updatedAt": "151030Z",
      "visibility_m": 10000,
      "taf_visibility_m": 6000,
      "worst_visibility_m": 6000,
      "ceiling_ft": 1800,
      "hazards": [
        "RA",
        "SN"
      ],
      "severityScore": 42,
      "metarRaw": "METAR EPRA 151030Z 27003KT 9999 BKN018 02/M01 Q1020",
      "tafRaw": "TAF EPRA 150830Z 1509/1518 27005KT 9999 BKN025 \n  PROB40 \n  TEMPO 1509/1512 6000 -SN BKN012 OVC020 \n  BECMG 1515/1518 15010KT"
    },
    {
      "icao": "LIPQ",
      "iata": "TRS",
      "name": "Trieste–Friuli Venezia Giulia Airport",
      "updatedAt": "151050Z",
      "visibility_m": 10000,
      "taf_visibility_m": 1200,
      "worst_visibility_m": 1200,
      "ceiling_ft": 3000,
      "hazards": [
        "BR",
        "FG"
      ],
      "severityScore": 40,
      "metarRaw": "METAR LIPQ 151050Z AUTO VRB02KT 9999 BKN041/// BKN071/// 09/07 Q1023",
      "tafRaw": "TAF LIPQ 150500Z 1506/1606 VRB04KT 2000 BR BKN030 \n  BECMG 1509/1511 7000 \n  BECMG 1516/1518 3000 BR \n  TEMPO 1602/1606 1200 BCFG"
    },
    {
      "icao": "ENZV",
      "iata": "SVG",
      "name": "Stavanger Airport, Sola",
      "updatedAt": "151050Z",
      "visibility_m": 4000,
      "taf_visibility_m": 4000,
      "worst_visibility_m": 4000,
      "ceiling_ft": 900,
      "hazards": [
        "RA"
      ],
      "severityScore": 37,
      "metarRaw": "METAR ENZV 151050Z 14019KT 9999 -RA FEW010 SCT025 BKN035 05/M00 Q1000 TEMPO 4000 RA BKN009 SCT018CB",
      "tafRaw": "TAF ENZV 150500Z 1506/1606 16012KT 9999 SCT030 \n  BECMG 1509/1511 15020G35KT \n  TEMPO 1510/1517 4000 RA BKN009 SCT018CB \n  BECMG 1514/1516 14015KT \n  PROB40 1600/1606 RA BKN012"
    },
    {
      "icao": "ESKN",
      "iata": "NYO",
      "name": "Stockholm Skavsta Airport",
      "updatedAt": "151050Z",
      "visibility_m": 10000,
      "taf_visibility_m": 2500,
      "worst_visibility_m": 2500,
      "ceiling_ft": 700,
      "hazards": [
        "BR"
      ],
      "severityScore": 35,
      "metarRaw": "METAR ESKN 151050Z 20006KT 9999 BKN007 02/01 Q1013",
      "tafRaw": "TAF ESKN 150830Z 1509/1609 19006KT 9999 OVC020 \n  TEMPO 1509/1515 BKN007 \n  TEMPO 1515/1520 2500 BR BKN003 \n  TEMPO 1520/1609 BKN006"
    },
    {
      "icao": "LGTS",
      "iata": "SKG",
      "name": "Thessaloniki Macedonia International Airport",
      "updatedAt": "151050Z",
      "visibility_m": 10000,
      "taf_visibility_m": 4000,
      "worst_visibility_m": 4000,
      "ceiling_ft": null,
      "hazards": [
        "TS",
        "BR"
      ],
      "severityScore": 35,
      "metarRaw": "METAR LGTS 151050Z VRB03KT CAVOK 09/04 Q1024 NOSIG",
      "tafRaw": "TAF LGTS 150500Z 1506/1606 VRB03KT 9999 FEW030 \n  PROB30 1603/1606 4000 BR SCT008"
    },
    {
      "icao": "LKMT",
      "iata": "OSR",
      "name": "Ostrava Leos Janáček Airport",
      "updatedAt": "151030Z",
      "visibility_m": 5000,
      "taf_visibility_m": 4500,
      "worst_visibility_m": 4500,
      "ceiling_ft": 600,
      "hazards": [
        "BR"
      ],
      "severityScore": 35,
      "metarRaw": "METAR LKMT 151030Z 22010KT 5000 BR SCT026 01/M00 Q1019 NOSIG",
      "tafRaw": "TAF LKMT 150500Z 1506/1606 23011KT 8000 BKN025 \n  PROB40 \n  TEMPO 1506/1606 4500 BR OVC006"
    },
    {
      "icao": "LPMA",
      "iata": "FNC",
      "name": "Madeira International Airport Cristiano Ronaldo",
      "updatedAt": "151030Z",
      "visibility_m": 10000,
      "taf_visibility_m": 8000,
      "worst_visibility_m": 8000,
      "ceiling_ft": 1300,
      "hazards": [
        "RA",
        "DZ"
      ],
      "severityScore": 34,
      "metarRaw": "METAR LPMA 151030Z VRB05KT 9999 SCT015 18/09 Q1026",
      "tafRaw": "TAF LPMA 150500Z 1506/1606 32007KT 9999 SCT015 \n  PROB40 \n  TEMPO 1506/1509 VRB05KT BKN013 \n  BECMG 1509/1511 VRB05KT \n  BECMG 1521/1524 BKN015 \n  TEMPO 1600/1602 8000 RADZ SCT008 BKN013 \n  BECMG 1602/1604 36012KT SCT015"
    },
    {
      "icao": "EDNY",
      "iata": "FDH",
      "name": "Friedrichshafen Airport",
      "updatedAt": "151050Z",
      "visibility_m": 10000,
      "taf_visibility_m": 1200,
      "worst_visibility_m": 1200,
      "ceiling_ft": null,
      "hazards": [
        "FG"
      ],
      "severityScore": 30,
      "metarRaw": "METAR EDNY 151050Z 09005KT CAVOK 08/03 Q1017",
      "tafRaw": "TAF EDNY 150800Z 1509/1518 VRB03KT 8000 SCT045 \n  PROB30 \n  TEMPO 1516/1518 1200 BCFG"
    },
    {
      "icao": "LIBP",
      "iata": "PSR",
      "name": "Abruzzo Airport",
      "updatedAt": "151050Z",
      "visibility_m": 10000,
      "taf_visibility_m": 2000,
      "worst_visibility_m": 2000,
      "ceiling_ft": null,
      "hazards": [
        "BR",
        "FG"
      ],
      "severityScore": 30,
      "metarRaw": "METAR LIBP 151050Z AUTO 24003KT 210V270 9999 NCD 14/05 Q1024",
      "tafRaw": "TAF LIBP 150500Z 1506/1606 VRB05KT CAVOK \n  PROB40 \n  TEMPO 1506/1508 2000 BCFG \n  BECMG 1520/1522 4000 BR"
    },
    {
      "icao": "LIMF",
      "iata": "TRN",
      "name": "Turin Airport",
      "updatedAt": "151050Z",
      "visibility_m": 10000,
      "taf_visibility_m": 1200,
      "worst_visibility_m": 1200,
      "ceiling_ft": 5500,
      "hazards": [
        "FG"
      ],
      "severityScore": 30,
      "metarRaw": "METAR LIMF 151050Z 12004KT 9999 BKN055 06/01 Q1022",
      "tafRaw": "TAF LIMF 150500Z 1506/1606 VRB03KT 8000 SCT050 \n  TEMPO 1518/1606 1200 BCFG BKN010"
    },
    {
      "icao": "LRBC",
      "iata": "BCM",
      "name": "Bacău George Enescu International  Airport",
      "updatedAt": "151030Z",
      "visibility_m": 7000,
      "taf_visibility_m": 5000,
      "worst_visibility_m": 5000,
      "ceiling_ft": 1600,
      "hazards": [
        "SN"
      ],
      "severityScore": 30,
      "metarRaw": "METAR LRBC 151030Z 35008KT 7000 -SN OVC016 M02/M06 Q1021",
      "tafRaw": "TAF LRBC 150800Z 1509/1518 36007KT 7000 BKN045 \n  TEMPO 1509/1511 5000 -SN BKN015 BKN045 \n  TEMPO 1515/1518 5000 -SN BKN010 BKN040"
    },
    {
      "icao": "EDFH",
      "iata": "HHN",
      "name": "Frankfurt-Hahn Airport",
      "updatedAt": "151050Z",
      "visibility_m": 10000,
      "taf_visibility_m": null,
      "worst_visibility_m": 10000,
      "ceiling_ft": 1000,
      "hazards": [
        "RA"
      ],
      "severityScore": 29,
      "metarRaw": "METAR EDFH 151050Z 21012KT 190V250 9999 -RA FEW007 BKN010 OVC025 08/06 Q1013",
      "tafRaw": null
    },
    {
      "icao": "EYKA",
      "iata": "KUN",
      "name": "Kaunas International Airport",
      "updatedAt": "151050Z",
      "visibility_m": 7000,
      "taf_visibility_m": 3000,
      "worst_visibility_m": 3000,
      "ceiling_ft": 2600,
      "hazards": [
        "SN",
        "BR"
      ],
      "severityScore": 28,
      "metarRaw": "METAR EYKA 151050Z 17007KT 140V220 7000 -SN OVC026 M10/M13 Q1022",
      "tafRaw": "TAF EYKA 150513Z 1506/1606 15009KT 8000 SCT010 BKN015 \n  TEMPO 1506/1512 5000 SN BR SCT005 BKN010 \n  PROB40 \n  TEMPO 1506/1512 3000 OVC005"
    },
    {
      "icao": "LRIA",
      "iata": "IAS",
      "name": "Iaşi Airport",
      "updatedAt": "151030Z",
      "visibility_m": 6000,
      "taf_visibility_m": 3000,
      "worst_visibility_m": 3000,
      "ceiling_ft": 2400,
      "hazards": [
        "SN",
        "BR"
      ],
      "severityScore": 28,
      "metarRaw": "METAR LRIA 151030Z 32006KT 6000 -SN FEW006 BKN024 OVC041 M05/M06 Q1022",
      "tafRaw": "TAF LRIA 150800Z 1509/1518 VRB04KT 5000 -SN OVC025 \n  TEMPO 1509/1511 3000 SN BKN010 OVC020 \n  TEMPO 1511/1514 7000 NSW \n  TEMPO 1514/1518 3000 -SN BR BKN005 OVC020"
    },
    {
      "icao": "LTAC",
      "iata": "ESB",
      "name": "Esenboğa International Airport",
      "updatedAt": "151050Z",
      "visibility_m": 10000,
      "taf_visibility_m": 2000,
      "worst_visibility_m": 2000,
      "ceiling_ft": 9000,
      "hazards": [
        "BR",
        "SN"
      ],
      "severityScore": 28,
      "metarRaw": "METAR LTAC 151050Z 26008KT 9999 SCT010 SCT035 BKN090 02/M01 Q1022 NOSIG",
      "tafRaw": "TAF LTAC 150440Z 1506/1606 22008KT 9999 FEW010 SCT040 BKN100 \n  TEMPO 1506/1509 4000 BR \n  TEMPO 1602/1606 2000 -SN BR FEW008 BKN030 BKN080"
    },
    {
      "icao": "UDYZ",
      "iata": "EVN",
      "name": "Zvartnots International Airport",
      "updatedAt": "151030Z",
      "visibility_m": 10000,
      "taf_visibility_m": 2300,
      "worst_visibility_m": 2300,
      "ceiling_ft": 3000,
      "hazards": [
        "BR",
        "SN"
      ],
      "severityScore": 28,
      "metarRaw": "METAR UDYZ 151030Z 08003KT 360V120 9999 FEW046 02/M09 Q1020 NOSIG",
      "tafRaw": "TAF UDYZ 150500Z 1506/1606 VRB06KT 9999 BKN040 \n  TEMPO 1506/1518 2300 -SN BR BKN030"
    },
    {
      "icao": "ENHD",
      "iata": "HAU",
      "name": "Haugesund Airport, Karmøy",
      "updatedAt": "151050Z",
      "visibility_m": 10000,
      "taf_visibility_m": 4000,
      "worst_visibility_m": 4000,
      "ceiling_ft": 3500,
      "hazards": [
        "SHRA",
        "RA"
      ],
      "severityScore": 26,
      "metarRaw": "METAR ENHD 151050Z 14020G33KT 9999 -SHRA BKN035 05/00 Q0999",
      "tafRaw": "TAF ENHD 150800Z 1509/1518 14018KT 9999 -SHRA FEW020 BKN030 \n  TEMPO 1510/1518 14022G32KT 4000 RA BKN009 SCT020CB"
    },
    {
      "icao": "LTFM",
      "iata": "IST",
      "name": "İstanbul Airport",
      "updatedAt": "151050Z",
      "visibility_m": 10000,
      "taf_visibility_m": 4000,
      "worst_visibility_m": 4000,
      "ceiling_ft": 7000,
      "hazards": [
        "SHRA",
        "RA"
      ],
      "severityScore": 26,
      "metarRaw": "METAR LTFM 151050Z 22018KT 9999 FEW025 BKN070 11/06 Q1021 NOSIG",
      "tafRaw": "TAF LTFM 150440Z 1506/1612 22017KT 9999 BKN040 \n  BECMG 1506/1509 SCT017 BKN070 \n  TEMPO 1507/1511 23015G25KT \n  BECMG 1520/1523 04006KT BKN006 BKN022 \n  BECMG 1605/1608 05017KT -SHRA \n  TEMPO 1608/1612 4000 SHRA"
    },
    {
      "icao": "GCTS",
      "iata": "TFS",
      "name": "Tenerife Sur Airport",
      "updatedAt": "151030Z",
      "visibility_m": 10000,
      "taf_visibility_m": 10000,
      "worst_visibility_m": 10000,
      "ceiling_ft": 4000,
      "hazards": [
        "TS"
      ],
      "severityScore": 25,
      "metarRaw": "METAR GCTS 151030Z 01006KT 340V050 9999 BKN040 18/09 Q1026 NOSIG",
      "tafRaw": "TAF GCTS 150800Z 1509/1609 06015KT 9999 SCT040 TX22/1514Z TN14/1606Z \n  BECMG 1520/1522 03005KT"
    },
    {
      "icao": "UBBB",
      "iata": "GYD",
      "name": "Heydar Aliyev International Airport",
      "updatedAt": "151030Z",
      "visibility_m": 10000,
      "taf_visibility_m": 10000,
      "worst_visibility_m": 10000,
      "ceiling_ft": 600,
      "hazards": [],
      "severityScore": 25,
      "metarRaw": "METAR UBBB 151030Z 35014KT CAVOK 06/M02 Q1023 NOSIG",
      "tafRaw": "TAF UBBB 151051Z 1512/1612 01010KT 9999 SCT030 TX05/1512Z TN01/1601Z \n  BECMG 1513/1515 VRB04KT \n  TEMPO 1515/1518 04005KT \n  TEMPO 1518/1602 23005KT BKN006 \n  BECMG 1602/1604 19008KT \n  TEMPO 1606/1612 22014KT"
    },
    {
      "icao": "LBWN",
      "iata": "VAR",
      "name": "Varna Airport",
      "updatedAt": "151030Z",
      "visibility_m": 10000,
      "taf_visibility_m": 5000,
      "worst_visibility_m": 5000,
      "ceiling_ft": 1500,
      "hazards": [
        "RA"
      ],
      "severityScore": 24,
      "metarRaw": "METAR LBWN 151030Z 29016KT 9999 SCT045 11/04 Q1019 NOSIG",
      "tafRaw": "TAF LBWN 150500Z 1506/1606 VRB03KT 9999 SCT040 \n  BECMG 1506/1508 27012KT \n  BECMG 1514/1516 VRB03KT \n  BECMG 1602/1604 04010KT BKN015 OVC030 \n  TEMPO 1604/1606 5000 RA"
    },
    {
      "icao": "LIRP",
      "iata": "PSA",
      "name": "Pisa International Airport",
      "updatedAt": "151045Z",
      "visibility_m": 10000,
      "taf_visibility_m": 10000,
      "worst_visibility_m": 10000,
      "ceiling_ft": 1500,
      "hazards": [
        "RA"
      ],
      "severityScore": 24,
      "metarRaw": "METAR LIRP 151045Z 09005KT 9999 SCT020 SCT030 12/11 Q1021 NOSIG",
      "tafRaw": "TAF LIRP 150500Z 1506/1606 12005KT 9999 SCT030 BKN060 \n  TEMPO 1514/1520 RA BKN015"
    },
    {
      "icao": "EBCI",
      "iata": "CRL",
      "name": "Brussels South Charleroi Airport",
      "updatedAt": "151050Z",
      "visibility_m": 10000,
      "taf_visibility_m": 2500,
      "worst_visibility_m": 2500,
      "ceiling_ft": 3700,
      "hazards": [
        "RA",
        "DZ"
      ],
      "severityScore": 22,
      "metarRaw": "METAR EBCI 151050Z 20013KT 9999 FEW021 BKN037 09/05 Q1010 NOSIG",
      "tafRaw": "TAF EBCI 150500Z 1506/1612 20011KT 9999 SCT010 SCT020 \n  TEMPO 1506/1508 2500 -RADZ BKN004 \n  TEMPO 1523/1604 19016G27KT 4000 RA -RADZ BKN006"
    },
    {
      "icao": "EPRZ",
      "iata": "RZE",
      "name": "Rzeszów-Jasionka Airport",
      "updatedAt": "151030Z",
      "visibility_m": 10000,
      "taf_visibility_m": 2000,
      "worst_visibility_m": 2000,
      "ceiling_ft": 1000,
      "hazards": [
        "BR"
      ],
      "severityScore": 22,
      "metarRaw": "METAR EPRZ 151030Z 32005KT 9999 OVC010 02/00 Q1020",
      "tafRaw": "TAF EPRZ 150530Z 1506/1606 26010KT 2000 BR OVC003 \n  TEMPO 1506/1508 4000 BR BKN007 \n  BECMG 1508/1511 09010KT 6000 BKN012 \n  BECMG 1511/1514 BKN020 \n  TEMPO 1523/1606 2000 BR BKN013"
    },
    {
      "icao": "ESSA",
      "iata": "ARN",
      "name": "Stockholm-Arlanda Airport",
      "updatedAt": "151050Z",
      "visibility_m": 10000,
      "taf_visibility_m": 2000,
      "worst_visibility_m": 2000,
      "ceiling_ft": 1000,
      "hazards": [
        "BR"
      ],
      "severityScore": 22,
      "metarRaw": "METAR ESSA 151050Z 22007KT 9999 BKN010 01/M01 Q1012 NOSIG",
      "tafRaw": "TAF ESSA 150830Z 1509/1609 24008KT 9999 SCT010 BKN015 \n  TEMPO 1509/1518 BKN009 \n  PROB40 1518/1524 2000 BR BKN003 \n  BECMG 1519/1521 18010KT \n  TEMPO 1600/1609 BKN010"
    },
    {
      "icao": "LEBB",
      "iata": "BIO",
      "name": "Bilbao Airport",
      "updatedAt": "151030Z",
      "visibility_m": 10000,
      "taf_visibility_m": 3000,
      "worst_visibility_m": 3000,
      "ceiling_ft": null,
      "hazards": [
        "BR",
        "RA"
      ],
      "severityScore": 22,
      "metarRaw": "METAR LEBB 151030Z 23012G26KT 140V280 9999 FEW032 15/03 Q1011 NOSIG",
      "tafRaw": "TAF LEBB 150500Z 1506/1606 20009KT 9999 FEW025 TX13/1512Z TN05/1506Z \n  TEMPO 1506/1517 20018G29KT \n  TEMPO 1509/1515 20024G44KT \n  TEMPO 1513/1520 3000 RA \n  PROB30 \n  TEMPO 1603/1606 3000 BR"
    },
    {
      "icao": "LFOB",
      "iata": "BVA",
      "name": "Beauvais Tillé airport",
      "updatedAt": "151030Z",
      "visibility_m": 4000,
      "taf_visibility_m": 4000,
      "worst_visibility_m": 4000,
      "ceiling_ft": 1300,
      "hazards": [
        "DZ"
      ],
      "severityScore": 22,
      "metarRaw": "METAR LFOB 151030Z AUTO 19014G25KT 9999 SCT016 BKN022 BKN040 09/07 Q1009 TEMPO 4000 DZ BKN013",
      "tafRaw": "TAF LFOB 150500Z 1506/1606 22012G22KT 9999 OVC011 \n  BECMG 1506/1509 BKN020 \n  TEMPO 1510/1513 4000 DZ BKN013"
    },
    {
      "icao": "LRCV",
      "iata": "CRA",
      "name": "Craiova International Airport",
      "updatedAt": "151030Z",
      "visibility_m": 10000,
      "taf_visibility_m": 3000,
      "worst_visibility_m": 3000,
      "ceiling_ft": 1000,
      "hazards": [
        "BR"
      ],
      "severityScore": 22,
      "metarRaw": "METAR LRCV 151030Z 29011KT CAVOK 09/05 Q1020",
      "tafRaw": "TAF LRCV 150800Z 1509/1518 27010KT CAVOK \n  TEMPO 1509/1510 5000 BR \n  BECMG 1516/1518 08010KT 3000 BR BKN010"
    },
    {
      "icao": "EDDS",
      "iata": "STR",
      "name": "Stuttgart Airport",
      "updatedAt": "151050Z",
      "visibility_m": 10000,
      "taf_visibility_m": 1800,
      "worst_visibility_m": 1800,
      "ceiling_ft": 3000,
      "hazards": [
        "FG"
      ],
      "severityScore": 20,
      "metarRaw": "METAR EDDS 151050Z AUTO 23004KT 160V270 CAVOK 11/05 Q1015 NOSIG",
      "tafRaw": "TAF EDDS 150500Z 1506/1606 22004KT 9999 BKN030 \n  PROB40 \n  TEMPO 1602/1606 1800 BCFG"
    },
    {
      "icao": "LFPO",
      "iata": "ORY",
      "name": "Paris-Orly Airport",
      "updatedAt": "151030Z",
      "visibility_m": 10000,
      "taf_visibility_m": null,
      "worst_visibility_m": 10000,
      "ceiling_ft": 1400,
      "hazards": [],
      "severityScore": 17,
      "metarRaw": "METAR LFPO 151030Z 19011KT 9999 BKN014 BKN026 BKN033 10/07 Q1010 NOSIG",
      "tafRaw": null
    },
    {
      "icao": "LZKZ",
      "iata": "KSC",
      "name": "Košice International Airport",
      "updatedAt": "151030Z",
      "visibility_m": 6000,
      "taf_visibility_m": null,
      "worst_visibility_m": 6000,
      "ceiling_ft": 1800,
      "hazards": [],
      "severityScore": 17,
      "metarRaw": "METAR LZKZ 151030Z 00000KT 6000 BKN018 M01/M03 Q1022 NOSIG",
      "tafRaw": null
    },
    {
      "icao": "EPKK",
      "iata": "KRK",
      "name": "Kraków John Paul II International Airport",
      "updatedAt": "151030Z",
      "visibility_m": 4000,
      "taf_visibility_m": null,
      "worst_visibility_m": 4000,
      "ceiling_ft": null,
      "hazards": [
        "BR"
      ],
      "severityScore": 15,
      "metarRaw": "METAR EPKK 151030Z 04005KT 4000 BR NSC 00/M00 Q1020",
      "tafRaw": null
    },
    {
      "icao": "EPKT",
      "iata": "KTW",
      "name": "Katowice Wojciech Korfanty International Airport",
      "updatedAt": "151030Z",
      "visibility_m": 5000,
      "taf_visibility_m": null,
      "worst_visibility_m": 5000,
      "ceiling_ft": null,
      "hazards": [
        "BR"
      ],
      "severityScore": 15,
      "metarRaw": "METAR EPKT 151030Z 11004KT 5000 BR SCT006 03/01 Q1019",
      "tafRaw": null
    },
    {
      "icao": "LZIB",
      "iata": "BTS",
      "name": "M. R. Štefánik Airport",
      "updatedAt": "151030Z",
      "visibility_m": 2800,
      "taf_visibility_m": null,
      "worst_visibility_m": 2800,
      "ceiling_ft": null,
      "hazards": [
        "BR"
      ],
      "severityScore": 15,
      "metarRaw": "METAR LZIB 151030Z 12004KT 2800 BR SCT003 M01/M02 Q1021 BECMG 4000 BR FEW005",
      "tafRaw": null
    },
    {
      "icao": "EDSB",
      "iata": "FKB",
      "name": "Karlsruhe Baden-Baden Airport",
      "updatedAt": "151050Z",
      "visibility_m": 10000,
      "taf_visibility_m": 10000,
      "worst_visibility_m": 10000,
      "ceiling_ft": 3000,
      "hazards": [
        "RA"
      ],
      "severityScore": 12,
      "metarRaw": "METAR EDSB 151050Z 19011KT CAVOK 12/07 Q1015",
      "tafRaw": "TAF EDSB 150500Z 1506/1606 21004KT 9999 BKN030 \n  TEMPO 1506/1507 RA"
    },
    {
      "icao": "EHBK",
      "iata": "MST",
      "name": "Maastricht Aachen Airport",
      "updatedAt": "151025Z",
      "visibility_m": 10000,
      "taf_visibility_m": 10000,
      "worst_visibility_m": 10000,
      "ceiling_ft": 1200,
      "hazards": [],
      "severityScore": 12,
      "metarRaw": "METAR EHBK 151025Z AUTO 20013KT 9999 FEW018 10/07 Q1010 NOSIG",
      "tafRaw": "TAF EHBK 150504Z 1506/1612 19010KT 9999 BKN020 \n  PROB30 \n  TEMPO 1506/1510 BKN012 \n  BECMG 1514/1517 16010KT \n  BECMG 1600/1603 21014KT"
    },
    {
      "icao": "EHEH",
      "iata": "EIN",
      "name": "Eindhoven Airport",
      "updatedAt": "151025Z",
      "visibility_m": 10000,
      "taf_visibility_m": 10000,
      "worst_visibility_m": 10000,
      "ceiling_ft": 1300,
      "hazards": [],
      "severityScore": 12,
      "metarRaw": "METAR EHEH 151025Z AUTO 20010KT 170V230 9999 FEW011 BKN013 OVC016 10/08 Q1009 GRN TEMPO SCT010 FEW012CB RMK TREND REMOTE BY EHWX",
      "tafRaw": "TAF EHEH 150554Z 1506/1612 18009KT 9999 OVC025 \n  BECMG 1506/1508 SCT012 BKN016 \n  PROB30 \n  TEMPO 1508/1511 SCT008 FEW012CB \n  BECMG 1513/1515 BKN020 \n  BECMG 1522/1524 19012G25KT \n  PROB40 \n  TEMPO 1600/1606 SCT015 BKN018 \n  BECMG 1604/1606 20006KT"
    },
    {
      "icao": "EYVI",
      "iata": "VNO",
      "name": "Vilnius International Airport",
      "updatedAt": "151050Z",
      "visibility_m": 10000,
      "taf_visibility_m": 7000,
      "worst_visibility_m": 7000,
      "ceiling_ft": 1000,
      "hazards": [],
      "severityScore": 12,
      "metarRaw": "METAR EYVI 151050Z 16011KT CAVOK M13/M16 Q1022 NOSIG",
      "tafRaw": "TAF EYVI 150506Z 1506/1606 17009KT 7000 NSC \n  BECMG 1507/1510 BKN015 \n  TEMPO 1510/1521 OVC010 \n  BECMG 1522/1524 SCT015 \n  TEMPO 1600/1606 SCT010"
    },
    {
      "icao": "LEMG",
      "iata": "AGP",
      "name": "Málaga-Costa del Sol Airport",
      "updatedAt": "151030Z",
      "visibility_m": 10000,
      "taf_visibility_m": 10000,
      "worst_visibility_m": 10000,
      "ceiling_ft": null,
      "hazards": [
        "RA"
      ],
      "severityScore": 12,
      "metarRaw": "METAR LEMG 151030Z 30005KT 9999 FEW030 12/09 Q1021 NOSIG",
      "tafRaw": "TAF LEMG 150500Z 1506/1606 29006KT 9999 FEW030 TX18/1514Z TN07/1507Z \n  PROB30 \n  TEMPO 1513/1519 RA"
    },
    {
      "icao": "LIMJ",
      "iata": "GOA",
      "name": "Genoa Cristoforo Colombo Airport",
      "updatedAt": "151050Z",
      "visibility_m": 10000,
      "taf_visibility_m": 3000,
      "worst_visibility_m": 3000,
      "ceiling_ft": 3000,
      "hazards": [
        "RA"
      ],
      "severityScore": 12,
      "metarRaw": "METAR LIMJ 151050Z 06010KT 9999 SCT024 SCT040 12/08 Q1021",
      "tafRaw": "TAF LIMJ 150500Z 1506/1606 04010KT 9999 BKN030 \n  TEMPO 1506/1518 4000 RA \n  TEMPO 1603/1606 3000 RA"
    },
    {
      "icao": "LJLJ",
      "iata": "LJU",
      "name": "Ljubljana Jože Pučnik Airport",
      "updatedAt": "151030Z",
      "visibility_m": 10000,
      "taf_visibility_m": 10000,
      "worst_visibility_m": 10000,
      "ceiling_ft": 6000,
      "hazards": [
        "RA"
      ],
      "severityScore": 12,
      "metarRaw": "METAR LJLJ 151030Z 29003KT 9999 FEW040 BKN060 01/01 Q1021 NOSIG",
      "tafRaw": "TAF LJLJ 150500Z 1506/1606 30003KT 9999 FEW010 SCT045 \n  PROB30 \n  TEMPO 1512/1606 -RA"
    },
    {
      "icao": "HESX",
      "iata": "SPX",
      "name": "Sphinx International Airport",
      "updatedAt": "151000Z",
      "visibility_m": 10000,
      "taf_visibility_m": 3000,
      "worst_visibility_m": 3000,
      "ceiling_ft": null,
      "hazards": [
        "BR"
      ],
      "severityScore": 10,
      "metarRaw": "METAR HESX 151000Z 24006KT 9999 FEW030 SCT100 16/08 Q1025 NOSIG",
      "tafRaw": "TAF HESX 150500Z 1506/1612 34008KT 9999 SCT025 \n  TEMPO 1606/1608 VRB03KT 3000 BR NSC"
    },
    {
      "icao": "LBPD",
      "iata": "PDV",
      "name": "Plovdiv International Airport",
      "updatedAt": "151030Z",
      "visibility_m": 10000,
      "taf_visibility_m": 3000,
      "worst_visibility_m": 3000,
      "ceiling_ft": 7000,
      "hazards": [
        "BR"
      ],
      "severityScore": 10,
      "metarRaw": "METAR LBPD 151030Z AUTO 29017KT 9999 NCD 15/02 Q1021 NOSIG",
      "tafRaw": "TAF LBPD 150500Z 1506/1606 VRB04KT 9999 BKN070 \n  TEMPO 1506/1507 3000 BR SCT015 \n  BECMG 1509/1511 28010KT \n  BECMG 1518/1520 VRB04KT \n  TEMPO 1600/1606 3000 BR SCT015"
    },
    {
      "icao": "LBSF",
      "iata": "SOF",
      "name": "Sofia Airport",
      "updatedAt": "151030Z",
      "visibility_m": 10000,
      "taf_visibility_m": 3000,
      "worst_visibility_m": 3000,
      "ceiling_ft": null,
      "hazards": [
        "BR"
      ],
      "severityScore": 10,
      "metarRaw": "METAR LBSF 151030Z VRB03KT CAVOK 09/02 Q1022 NOSIG",
      "tafRaw": "TAF LBSF 150500Z 1506/1606 VRB04KT 9999 SCT060 \n  TEMPO 1506/1507 3000 BR SCT010 \n  BECMG 1511/1513 30010KT \n  BECMG 1517/1519 VRB04KT \n  TEMPO 1600/1606 3000 BR SCT010"
    },
    {
      "icao": "LEAL",
      "iata": "ALC",
      "name": "Alicante-Elche Miguel Hernández Airport",
      "updatedAt": "151030Z",
      "visibility_m": 10000,
      "taf_visibility_m": 3000,
      "worst_visibility_m": 3000,
      "ceiling_ft": null,
      "hazards": [
        "BR"
      ],
      "severityScore": 10,
      "metarRaw": "METAR LEAL 151030Z VRB02KT CAVOK 16/08 Q1020 NOSIG",
      "tafRaw": "TAF LEAL 150500Z 1506/1606 VRB04KT CAVOK TX18/1513Z TN07/1506Z \n  PROB40 \n  TEMPO 1518/1524 3000 BR"
    },
    {
      "icao": "LEBL",
      "iata": "BCN",
      "name": "Josep Tarradellas Barcelona-El Prat Airport",
      "updatedAt": "151030Z",
      "visibility_m": 10000,
      "taf_visibility_m": 3000,
      "worst_visibility_m": 3000,
      "ceiling_ft": null,
      "hazards": [
        "BR"
      ],
      "severityScore": 10,
      "metarRaw": "METAR LEBL 151030Z 32005KT 270V010 9999 FEW015 11/08 Q1018 NOSIG",
      "tafRaw": "TAF LEBL 150500Z 1506/1606 34008KT 9999 FEW015 TX15/1512Z TN05/1506Z \n  TEMPO 1506/1508 3000 BR SCT002 \n  BECMG 1510/1512 21010KT \n  BECMG 1520/1522 34006KT"
    },
    {
      "icao": "LIBD",
      "iata": "BRI",
      "name": "Bari Karol Wojtyła International Airport",
      "updatedAt": "151050Z",
      "visibility_m": 10000,
      "taf_visibility_m": 4000,
      "worst_visibility_m": 4000,
      "ceiling_ft": null,
      "hazards": [
        "BR"
      ],
      "severityScore": 10,
      "metarRaw": "METAR LIBD 151050Z 02004KT 350V060 CAVOK 12/08 Q1023",
      "tafRaw": "TAF LIBD 150500Z 1506/1606 VRB06KT 9999 FEW040 \n  PROB30 \n  TEMPO 1506/1508 4000 BR"
    },
    {
      "icao": "LIPH",
      "iata": "TSF",
      "name": "Treviso Antonio Canova Airport",
      "updatedAt": "151050Z",
      "visibility_m": 7000,
      "taf_visibility_m": 2000,
      "worst_visibility_m": 2000,
      "ceiling_ft": 8000,
      "hazards": [
        "BR"
      ],
      "severityScore": 10,
      "metarRaw": "METAR LIPH 151050Z 18004KT 7000 BKN080 08/04 Q1023",
      "tafRaw": "TAF LIPH 150500Z 1506/1606 VRB04KT 3000 BR SCT040 \n  BECMG 1508/1510 8000 \n  BECMG 1519/1521 2000 BR"
    },
    {
      "icao": "LIPZ",
      "iata": "VCE",
      "name": "Venice Marco Polo Airport",
      "updatedAt": "151050Z",
      "visibility_m": 7000,
      "taf_visibility_m": 4000,
      "worst_visibility_m": 4000,
      "ceiling_ft": null,
      "hazards": [
        "BR"
      ],
      "severityScore": 10,
      "metarRaw": "METAR LIPZ 151050Z VRB02KT 7000 SCT070 08/03 Q1023 NOSIG",
      "tafRaw": "TAF LIPZ 150500Z 1506/1612 VRB04KT 8000 SCT040 \n  TEMPO 1506/1510 4000 BR \n  TEMPO 1521/1607 4000 BR"
    },
    {
      "icao": "LQTZ",
      "iata": "TZL",
      "name": "Tuzla International Airport",
      "updatedAt": "151030Z",
      "visibility_m": 7000,
      "taf_visibility_m": 3000,
      "worst_visibility_m": 3000,
      "ceiling_ft": 5800,
      "hazards": [
        "BR"
      ],
      "severityScore": 10,
      "metarRaw": "METAR LQTZ 151030Z VRB02KT 7000 OVC058 04/03 Q1023",
      "tafRaw": "TAF LQTZ 150500Z 1506/1606 VRB02KT 9999 SCT040 TX08/1513Z TN00/1605Z \n  PROB40 1600/1606 3000 BR"
    },
    {
      "icao": "LYBE",
      "iata": "BEG",
      "name": "Belgrade Nikola Tesla Airport",
      "updatedAt": "151030Z",
      "visibility_m": 10000,
      "taf_visibility_m": 3000,
      "worst_visibility_m": 3000,
      "ceiling_ft": null,
      "hazards": [
        "BR"
      ],
      "severityScore": 10,
      "metarRaw": "METAR LYBE 151030Z 00000KT CAVOK 07/02 Q1023 NOSIG",
      "tafRaw": "TAF LYBE 150500Z 1506/1606 18005KT 8000 NSC TX08/1513Z TN03/1506Z \n  PROB40 \n  TEMPO 1506/1509 3000 BR"
    },
    {
      "icao": "LYPG",
      "iata": "TGD",
      "name": "Podgorica Airport / Podgorica Golubovci Airbase",
      "updatedAt": "151030Z",
      "visibility_m": 10000,
      "taf_visibility_m": 2000,
      "worst_visibility_m": 2000,
      "ceiling_ft": 7000,
      "hazards": [
        "BR"
      ],
      "severityScore": 10,
      "metarRaw": "METAR LYPG 151030Z VRB01KT 9999 BKN070 10/06 Q1026 NOSIG",
      "tafRaw": "TAF LYPG 150500Z 1506/1606 17005KT 9999 SCT034 SCT070 TX12/1513Z TN04/1506Z \n  TEMPO 1506/1507 2000 BR"
    },
    {
      "icao": "OJAI",
      "iata": "AMM",
      "name": "Queen Alia International Airport",
      "updatedAt": "151000Z",
      "visibility_m": 5000,
      "taf_visibility_m": 3000,
      "worst_visibility_m": 3000,
      "ceiling_ft": null,
      "hazards": [
        "BR"
      ],
      "severityScore": 10,
      "metarRaw": "METAR OJAI 151000Z 28010KT 5000 HZ SCT030 10/03 Q1024 NOSIG",
      "tafRaw": "TAF OJAI 150500Z 1506/1612 27012KT 5000 HZ SCT030 \n  PROB40 1602/1606 3000 BR \n  BECMG 1606/1608 14010KT"
    },
    {
      "icao": "UDSG",
      "iata": "LWN",
      "name": "Shirak International Airport",
      "updatedAt": "151030Z",
      "visibility_m": 10000,
      "taf_visibility_m": 5000,
      "worst_visibility_m": 5000,
      "ceiling_ft": null,
      "hazards": [
        "BR"
      ],
      "severityScore": 10,
      "metarRaw": "METAR UDSG 151030Z 09004KT 9999 NSC M08/M14 Q1019 NOSIG",
      "tafRaw": "TAF UDSG 150458Z 1506/1606 VRB06KT 9999 FEW040 \n  TEMPO 1506/1510 5000 BR"
    },
    {
      "icao": "EDDN",
      "iata": "NUE",
      "name": "Nuremberg Airport",
      "updatedAt": "151050Z",
      "visibility_m": 10000,
      "taf_visibility_m": null,
      "worst_visibility_m": 10000,
      "ceiling_ft": 4400,
      "hazards": [],
      "severityScore": 5,
      "metarRaw": "METAR EDDN 151050Z AUTO 14006KT 9999 FEW033 BKN044 06/04 Q1016 NOSIG",
      "tafRaw": null
    },
    {
      "icao": "EGPF",
      "iata": "GLA",
      "name": "Glasgow Airport",
      "updatedAt": "151050Z",
      "visibility_m": 10000,
      "taf_visibility_m": null,
      "worst_visibility_m": 10000,
      "ceiling_ft": null,
      "hazards": [],
      "severityScore": 5,
      "metarRaw": "METAR EGPF 151050Z AUTO 21017KT 9999 FEW048 06/04 Q0996",
      "tafRaw": null
    },
    {
      "icao": "EPGD",
      "iata": "GDN",
      "name": "Gdańsk Lech Wałęsa Airport",
      "updatedAt": "151030Z",
      "visibility_m": 10000,
      "taf_visibility_m": null,
      "worst_visibility_m": 10000,
      "ceiling_ft": null,
      "hazards": [],
      "severityScore": 5,
      "metarRaw": "METAR EPGD 151030Z 15005KT 9999 FEW016 02/00 Q1018",
      "tafRaw": null
    },
    {
      "icao": "LECH",
      "iata": "CDT",
      "name": "Castellón-Costa Azahar Airport",
      "updatedAt": "151030Z",
      "visibility_m": 9000,
      "taf_visibility_m": null,
      "worst_visibility_m": 9000,
      "ceiling_ft": null,
      "hazards": [],
      "severityScore": 5,
      "metarRaw": "METAR LECH 151030Z AUTO 19003KT 160V230 9000 NCD 11/05 Q1019",
      "tafRaw": null
    },
    {
      "icao": "LEXJ",
      "iata": "SDR",
      "name": "Seve Ballesteros-Santander Airport",
      "updatedAt": "151030Z",
      "visibility_m": 10000,
      "taf_visibility_m": null,
      "worst_visibility_m": 10000,
      "ceiling_ft": null,
      "hazards": [],
      "severityScore": 5,
      "metarRaw": "METAR LEXJ 151030Z 22021G42KT 170V250 CAVOK 15/03 Q1009",
      "tafRaw": null
    },
    {
      "icao": "LZTT",
      "iata": "TAT",
      "name": "Poprad-Tatry Airport",
      "updatedAt": "151030Z",
      "visibility_m": 10000,
      "taf_visibility_m": null,
      "worst_visibility_m": 10000,
      "ceiling_ft": null,
      "hazards": [],
      "severityScore": 5,
      "metarRaw": "METAR LZTT 151030Z 03002KT 9999 FEW009 SCT014 01/M01 Q1019 NOSIG",
      "tafRaw": null
    },
    {
      "icao": "BIKF",
      "iata": "KEF",
      "name": "Keflavik International Airport",
      "updatedAt": "151030Z",
      "visibility_m": 10000,
      "taf_visibility_m": 10000,
      "worst_visibility_m": 10000,
      "ceiling_ft": null,
      "hazards": [],
      "severityScore": 0,
      "metarRaw": "METAR BIKF 151030Z 03015KT CAVOK M00/M05 Q0987",
      "tafRaw": "TAF BIKF 151034Z 1512/1612 02018KT 9999 FEW025 SCT045 TX02/1606Z TN00/1512Z"
    },
    {
      "icao": "GCFV",
      "iata": "FUE",
      "name": "Fuerteventura Airport",
      "updatedAt": "151030Z",
      "visibility_m": 10000,
      "taf_visibility_m": 10000,
      "worst_visibility_m": 10000,
      "ceiling_ft": null,
      "hazards": [],
      "severityScore": 0,
      "metarRaw": "METAR GCFV 151030Z 36013KT 9999 FEW035 SCT044 19/09 Q1025",
      "tafRaw": "TAF GCFV 150800Z 1509/1609 04011KT 9999 SCT040 TX20/1514Z TN15/1606Z \n  TEMPO 1521/1609 34006KT"
    },
    {
      "icao": "GCLP",
      "iata": "LPA",
      "name": "Gran Canaria Airport",
      "updatedAt": "151030Z",
      "visibility_m": 10000,
      "taf_visibility_m": 10000,
      "worst_visibility_m": 10000,
      "ceiling_ft": 4000,
      "hazards": [],
      "severityScore": 0,
      "metarRaw": "METAR GCLP 151030Z 03017KT 9999 BKN040 19/09 Q1025 NOSIG",
      "tafRaw": "TAF GCLP 150800Z 1509/1609 02016KT 9999 SCT040 TX20/1514Z TN15/1606Z"
    },
    {
      "icao": "GMAD",
      "iata": "AGA",
      "name": "Al Massira Airport",
      "updatedAt": "151030Z",
      "visibility_m": 10000,
      "taf_visibility_m": 8000,
      "worst_visibility_m": 8000,
      "ceiling_ft": null,
      "hazards": [],
      "severityScore": 0,
      "metarRaw": "METAR GMAD 151030Z 04004KT 9999 FEW030 14/13 Q1022 NOSIG",
      "tafRaw": "TAF GMAD 150500Z 1506/1612 06008KT 8000 SCT020"
    },
    {
      "icao": "GMMX",
      "iata": "RAK",
      "name": "Menara Airport",
      "updatedAt": "151030Z",
      "visibility_m": 10000,
      "taf_visibility_m": 8000,
      "worst_visibility_m": 8000,
      "ceiling_ft": null,
      "hazards": [],
      "severityScore": 0,
      "metarRaw": "METAR GMMX 151030Z 09003KT 030V140 CAVOK 13/09 Q1023 NOSIG",
      "tafRaw": "TAF GMMX 150500Z 1506/1612 06006KT 8000 SCT026 \n  TEMPO 1515/1521 34016KT"
    },
    {
      "icao": "EDDK",
      "iata": "CGN",
      "name": "Cologne Bonn Airport",
      "updatedAt": "151050Z",
      "visibility_m": 10000,
      "taf_visibility_m": 10000,
      "worst_visibility_m": 10000,
      "ceiling_ft": 3700,
      "hazards": [],
      "severityScore": 0,
      "metarRaw": "METAR EDDK 151050Z AUTO 15008KT 9999 SCT029 BKN037 BKN046 10/08 Q1012 NOSIG",
      "tafRaw": "TAF EDDK 150500Z 1506/1612 15010KT 9999 SCT025"
    },
    {
      "icao": "EDJA",
      "iata": "FMM",
      "name": "Memmingen Allgau Airport",
      "updatedAt": "151050Z",
      "visibility_m": 10000,
      "taf_visibility_m": 10000,
      "worst_visibility_m": 10000,
      "ceiling_ft": null,
      "hazards": [],
      "severityScore": 0,
      "metarRaw": "METAR EDJA 151050Z 24008KT CAVOK 09/03 Q1017",
      "tafRaw": "TAF EDJA 150800Z 1509/1518 22006KT CAVOK \n  BECMG 1514/1516 09004KT"
    },
    {
      "icao": "EDLW",
      "iata": "DTM",
      "name": "Dortmund Airport",
      "updatedAt": "151050Z",
      "visibility_m": 10000,
      "taf_visibility_m": 10000,
      "worst_visibility_m": 10000,
      "ceiling_ft": null,
      "hazards": [],
      "severityScore": 0,
      "metarRaw": "METAR EDLW 151050Z 19013KT 9999 SCT039 11/07 Q1010",
      "tafRaw": "TAF EDLW 150500Z 1506/1606 18013KT 9999 SCT030"
    },
    {
      "icao": "ENAL",
      "iata": "AES",
      "name": "Ålesund Airport, Vigra",
      "updatedAt": "151050Z",
      "visibility_m": 10000,
      "taf_visibility_m": 10000,
      "worst_visibility_m": 10000,
      "ceiling_ft": null,
      "hazards": [],
      "severityScore": 0,
      "metarRaw": "METAR ENAL 151050Z 14009KT CAVOK 06/M01 Q0998",
      "tafRaw": "TAF ENAL 150800Z 1509/1518 13008KT 9999 SCT050"
    },
    {
      "icao": "ENTC",
      "iata": "TOS",
      "name": "Tromsø Airport, Langnes",
      "updatedAt": "151050Z",
      "visibility_m": 10000,
      "taf_visibility_m": 10000,
      "worst_visibility_m": 10000,
      "ceiling_ft": null,
      "hazards": [],
      "severityScore": 0,
      "metarRaw": "METAR ENTC 151050Z 00000KT CAVOK M04/M08 Q1007 NOSIG RMK WIND 2600FT 17012KT",
      "tafRaw": "TAF ENTC 150500Z 1506/1606 20008KT CAVOK \n  TEMPO 1512/1522 20018KT"
    },
    {
      "icao": "ENVA",
      "iata": "TRD",
      "name": "Trondheim Airport, Værnes",
      "updatedAt": "151050Z",
      "visibility_m": 10000,
      "taf_visibility_m": 10000,
      "worst_visibility_m": 10000,
      "ceiling_ft": null,
      "hazards": [],
      "severityScore": 0,
      "metarRaw": "METAR ENVA 151050Z 08005KT 020V110 CAVOK M02/M06 Q1004 NOSIG RMK WIND 670FT 09011KT",
      "tafRaw": "TAF ENVA 150500Z 1506/1606 12008KT CAVOK \n  TEMPO 1516/1524 16015G28KT"
    },
    {
      "icao": "HEGN",
      "iata": "HRG",
      "name": "Hurghada International Airport",
      "updatedAt": "151000Z",
      "visibility_m": 10000,
      "taf_visibility_m": 6000,
      "worst_visibility_m": 6000,
      "ceiling_ft": null,
      "hazards": [],
      "severityScore": 0,
      "metarRaw": "METAR HEGN 151000Z 35010KT CAVOK 19/07 Q1023 NOSIG",
      "tafRaw": "TAF HEGN 150500Z 1506/1612 31010G20KT 6000 FEW025"
    },
    {
      "icao": "HEMA",
      "iata": "RMF",
      "name": "Marsa Alam International Airport",
      "updatedAt": "151000Z",
      "visibility_m": 10000,
      "taf_visibility_m": 6000,
      "worst_visibility_m": 6000,
      "ceiling_ft": null,
      "hazards": [],
      "severityScore": 0,
      "metarRaw": "METAR HEMA 151000Z 34023KT 9999 FEW020 SCT025 21/09 Q1022 NOSIG",
      "tafRaw": "TAF HEMA 150500Z 1506/1612 33010G20KT 6000 FEW025"
    },
    {
      "icao": "HESH",
      "iata": "SSH",
      "name": "Sharm El Sheikh International Airport",
      "updatedAt": "151000Z",
      "visibility_m": 10000,
      "taf_visibility_m": 10000,
      "worst_visibility_m": 10000,
      "ceiling_ft": null,
      "hazards": [],
      "severityScore": 0,
      "metarRaw": "METAR HESH 151000Z 02012KT CAVOK 20/05 Q1024 NOSIG",
      "tafRaw": "TAF HESH 150500Z 1506/1612 35010KT CAVOK"
    },
    {
      "icao": "LATI",
      "iata": "TIA",
      "name": "Tirana International Airport Mother Teresa",
      "updatedAt": "151050Z",
      "visibility_m": 10000,
      "taf_visibility_m": 10000,
      "worst_visibility_m": 10000,
      "ceiling_ft": 11000,
      "hazards": [],
      "severityScore": 0,
      "metarRaw": "METAR LATI 151050Z VRB01KT 9999 BKN110 14/04 Q1025 NOSIG",
      "tafRaw": "TAF LATI 150500Z 1506/1606 VRB05KT CAVOK TX15/1512Z TN03/1506Z"
    },
    {
      "icao": "LCLK",
      "iata": "LCA",
      "name": "Larnaca International Airport",
      "updatedAt": "151030Z",
      "visibility_m": 10000,
      "taf_visibility_m": 10000,
      "worst_visibility_m": 10000,
      "ceiling_ft": null,
      "hazards": [],
      "severityScore": 0,
      "metarRaw": "METAR LCLK 151030Z 04006KT 9999 FEW050 16/04 Q1023 NOSIG",
      "tafRaw": "TAF LCLK 150530Z 1506/1606 32007KT 9999 FEW030 \n  BECMG 1507/1511 16010KT \n  BECMG 1514/1518 31006KT"
    },
    {
      "icao": "LCPH",
      "iata": "PFO",
      "name": "Paphos International Airport",
      "updatedAt": "151030Z",
      "visibility_m": 10000,
      "taf_visibility_m": 10000,
      "worst_visibility_m": 10000,
      "ceiling_ft": null,
      "hazards": [],
      "severityScore": 0,
      "metarRaw": "METAR LCPH 151030Z 21005KT 160V250 9999 FEW040 SCT045 18/07 Q1023 NOSIG",
      "tafRaw": "TAF LCPH 150530Z 1506/1606 03007KT 9999 SCT030 \n  BECMG 1508/1512 29010KT \n  BECMG 1514/1518 02006KT"
    },
    {
      "icao": "LEVC",
      "iata": "VLC",
      "name": "Valencia Airport",
      "updatedAt": "151030Z",
      "visibility_m": 10000,
      "taf_visibility_m": 10000,
      "worst_visibility_m": 10000,
      "ceiling_ft": null,
      "hazards": [],
      "severityScore": 0,
      "metarRaw": "METAR LEVC 151030Z 25005KT 200V320 CAVOK 13/05 Q1019 NOSIG",
      "tafRaw": "TAF LEVC 150500Z 1506/1606 VRB04KT CAVOK TX18/1512Z TN05/1506Z \n  TEMPO 1512/1520 20010KT"
    },
    {
      "icao": "LFLL",
      "iata": "LYS",
      "name": "Lyon Saint-Exupéry Airport",
      "updatedAt": "151030Z",
      "visibility_m": 10000,
      "taf_visibility_m": 10000,
      "worst_visibility_m": 10000,
      "ceiling_ft": null,
      "hazards": [],
      "severityScore": 0,
      "metarRaw": "METAR LFLL 151030Z 17012KT 140V200 9999 FEW050 12/06 Q1016 BECMG 18015G25KT",
      "tafRaw": "TAF LFLL 150500Z 1506/1612 19012KT CAVOK \n  BECMG 1510/1512 18018G30KT \n  BECMG 1602/1604 18008KT"
    },
    {
      "icao": "LFLS",
      "iata": "GNB",
      "name": "Grenoble Alpes Isère Airport",
      "updatedAt": "151030Z",
      "visibility_m": 10000,
      "taf_visibility_m": 10000,
      "worst_visibility_m": 10000,
      "ceiling_ft": null,
      "hazards": [],
      "severityScore": 0,
      "metarRaw": "METAR LFLS 151030Z AUTO 07006KT 040V100 CAVOK 10/05 Q1017 BECMG 22012KT",
      "tafRaw": "TAF LFLS 150800Z 1509/1609 08006KT CAVOK \n  BECMG 1510/1512 22012KT \n  TEMPO 1517/1522 28010KT \n  FM152200 08005KT CAVOK \n  PROB40 \n  TEMPO 1522/1524 28010KT"
    },
    {
      "icao": "LFMN",
      "iata": "NCE",
      "name": "Nice-Côte d'Azur Airport",
      "updatedAt": "151030Z",
      "visibility_m": 10000,
      "taf_visibility_m": 10000,
      "worst_visibility_m": 10000,
      "ceiling_ft": null,
      "hazards": [],
      "severityScore": 0,
      "metarRaw": "METAR LFMN 151030Z 33011KT CAVOK 13/04 Q1020 BECMG 12005KT",
      "tafRaw": "TAF LFMN 150800Z 1509/1615 33010KT CAVOK \n  BECMG 1511/1513 12005KT \n  BECMG 1518/1520 33010KT \n  BECMG 1611/1613 09015KT"
    },
    {
      "icao": "LFSB",
      "iata": "BSL",
      "name": "EuroAirport Basel–Mulhouse–Freiburg",
      "updatedAt": "151030Z",
      "visibility_m": 10000,
      "taf_visibility_m": 10000,
      "worst_visibility_m": 10000,
      "ceiling_ft": 4000,
      "hazards": [],
      "severityScore": 0,
      "metarRaw": "METAR LFSB 151030Z AUTO 17005KT 140V200 9999 FEW056 10/05 Q1016 NOSIG",
      "tafRaw": "TAF LFSB 150500Z 1506/1606 18005KT 9999 OVC040 \n  PROB30 \n  TEMPO 1511/1518 12010KT"
    },
    {
      "icao": "LGAV",
      "iata": "ATH",
      "name": "Athens Eleftherios Venizelos International Airport",
      "updatedAt": "151050Z",
      "visibility_m": 10000,
      "taf_visibility_m": 10000,
      "worst_visibility_m": 10000,
      "ceiling_ft": null,
      "hazards": [],
      "severityScore": 0,
      "metarRaw": "METAR LGAV 151050Z 09005KT 9999 FEW030 15/07 Q1024 NOSIG",
      "tafRaw": "TAF LGAV 150500Z 1506/1606 VRB05KT 9999 FEW016 SCT025"
    },
    {
      "icao": "LIBG",
      "iata": "TAR",
      "name": "Taranto-Grottaglie Marcello Arlotta Airport",
      "updatedAt": "150950Z",
      "visibility_m": 10000,
      "taf_visibility_m": 10000,
      "worst_visibility_m": 10000,
      "ceiling_ft": null,
      "hazards": [],
      "severityScore": 0,
      "metarRaw": "METAR LIBG 150950Z VRB01KT 9999 FEW020 14/14 Q1024",
      "tafRaw": "TAF LIBG 150800Z 1509/1518 VRB05KT 9999 FEW030"
    },
    {
      "icao": "LICA",
      "iata": "SUF",
      "name": "Lamezia Terme Sant'Eufemia International Airport",
      "updatedAt": "151050Z",
      "visibility_m": 10000,
      "taf_visibility_m": 10000,
      "worst_visibility_m": 10000,
      "ceiling_ft": null,
      "hazards": [],
      "severityScore": 0,
      "metarRaw": "METAR LICA 151050Z AUTO 07011KT 9999 NCD 16/07 Q1023",
      "tafRaw": "TAF LICA 150500Z 1506/1606 VRB05KT CAVOK"
    },
    {
      "icao": "LICC",
      "iata": "CTA",
      "name": "Catania-Fontanarossa Airport",
      "updatedAt": "151050Z",
      "visibility_m": 10000,
      "taf_visibility_m": 10000,
      "worst_visibility_m": 10000,
      "ceiling_ft": null,
      "hazards": [],
      "severityScore": 0,
      "metarRaw": "METAR LICC 151050Z VRB05KT 9999 SCT040 18/14 Q1023",
      "tafRaw": "TAF LICC 150500Z 1506/1606 25010KT 9999 FEW040 \n  BECMG 1512/1514 VRB05KT"
    },
    {
      "icao": "LICJ",
      "iata": "PMO",
      "name": "Falcone–Borsellino Airport",
      "updatedAt": "151050Z",
      "visibility_m": 10000,
      "taf_visibility_m": 10000,
      "worst_visibility_m": 10000,
      "ceiling_ft": null,
      "hazards": [],
      "severityScore": 0,
      "metarRaw": "METAR LICJ 151050Z 03007KT CAVOK 15/09 Q1022",
      "tafRaw": "TAF LICJ 150500Z 1506/1606 VRB06KT CAVOK \n  BECMG 1510/1512 05010KT \n  BECMG 1516/1518 VRB05KT"
    },
    {
      "icao": "LIRF",
      "iata": "FCO",
      "name": "Rome–Fiumicino Leonardo da Vinci International Airport",
      "updatedAt": "151050Z",
      "visibility_m": 10000,
      "taf_visibility_m": 10000,
      "worst_visibility_m": 10000,
      "ceiling_ft": null,
      "hazards": [],
      "severityScore": 0,
      "metarRaw": "METAR LIRF 151050Z 12009KT 9999 FEW030 SCT050 15/09 Q1023 NOSIG",
      "tafRaw": "TAF LIRF 150500Z 1506/1612 09007KT 9999 SCT050 \n  BECMG 1510/1512 15012KT \n  BECMG 1519/1521 08007KT"
    },
    {
      "icao": "LIRN",
      "iata": "NAP",
      "name": "Naples International Airport",
      "updatedAt": "151050Z",
      "visibility_m": 10000,
      "taf_visibility_m": 10000,
      "worst_visibility_m": 10000,
      "ceiling_ft": null,
      "hazards": [],
      "severityScore": 0,
      "metarRaw": "METAR LIRN 151050Z 02003KT 340V050 CAVOK 14/06 Q1023 NOSIG",
      "tafRaw": "TAF LIRN 150500Z 1506/1606 VRB05KT 9999 SCT040"
    },
    {
      "icao": "LIRZ",
      "iata": "PEG",
      "name": "Perugia San Francesco d'Assisi – Umbria International Airport",
      "updatedAt": "151050Z",
      "visibility_m": 10000,
      "taf_visibility_m": 10000,
      "worst_visibility_m": 10000,
      "ceiling_ft": 4000,
      "hazards": [],
      "severityScore": 0,
      "metarRaw": "METAR LIRZ 151050Z AUTO 14005KT 100V160 9999 BKN070/// 13/07 Q1022",
      "tafRaw": "TAF LIRZ 150500Z 1506/1606 VRB05KT 9999 BKN040"
    },
    {
      "icao": "LLBG",
      "iata": "TLV",
      "name": "Ben Gurion International Airport",
      "updatedAt": "151050Z",
      "visibility_m": 10000,
      "taf_visibility_m": 10000,
      "worst_visibility_m": 10000,
      "ceiling_ft": 3500,
      "hazards": [],
      "severityScore": 0,
      "metarRaw": "METAR LLBG 151050Z VRB02KT 9999 SCT045 18/06 Q1023 NOSIG",
      "tafRaw": "TAF LLBG 150501Z 1506/1606 VRB04KT 9999 FEW045 \n  PROB40 \n  TEMPO 1506/1509 12005KT BKN040 \n  BECMG 1509/1511 32010KT \n  BECMG 1515/1517 VRB04KT SCT040 \n  TEMPO 1520/1606 16007KT BKN035 TX18/1512Z TN11/1604Z"
    },
    {
      "icao": "LMML",
      "iata": "MLA",
      "name": "Malta International Airport",
      "updatedAt": "151045Z",
      "visibility_m": 10000,
      "taf_visibility_m": 10000,
      "worst_visibility_m": 10000,
      "ceiling_ft": null,
      "hazards": [],
      "severityScore": 0,
      "metarRaw": "METAR LMML 151045Z 13012KT 9999 FEW018 18/14 Q1023 NOSIG",
      "tafRaw": "TAF LMML 150500Z 1506/1606 15010KT 9999 FEW020"
    },
    {
      "icao": "LQBK",
      "iata": "BNX",
      "name": "Banja Luka International Airport",
      "updatedAt": "151030Z",
      "visibility_m": 10000,
      "taf_visibility_m": 10000,
      "worst_visibility_m": 10000,
      "ceiling_ft": null,
      "hazards": [],
      "severityScore": 0,
      "metarRaw": "METAR LQBK 151030Z 02005KT 350V050 CAVOK 04/02 Q1021 NOSIG",
      "tafRaw": "TAF LQBK 150500Z 1506/1606 15006KT 9999 SCT040 TX10/1513Z TN02/1605Z"
    },
    {
      "icao": "LWOH",
      "iata": "OHD",
      "name": "Ohrid St. Paul the Apostle Airport",
      "updatedAt": "151050Z",
      "visibility_m": 10000,
      "taf_visibility_m": 10000,
      "worst_visibility_m": 10000,
      "ceiling_ft": null,
      "hazards": [],
      "severityScore": 0,
      "metarRaw": "METAR LWOH 151050Z 15004KT 120V180 9999 FEW033 07/03 Q1025",
      "tafRaw": "TAF LWOH 150825Z 1509/1609 VRB02KT 9999 FEW020"
    },
    {
      "icao": "LWSK",
      "iata": "SKP",
      "name": "Skopje International Airport",
      "updatedAt": "151050Z",
      "visibility_m": 10000,
      "taf_visibility_m": 6000,
      "worst_visibility_m": 6000,
      "ceiling_ft": null,
      "hazards": [],
      "severityScore": 0,
      "metarRaw": "METAR LWSK 151050Z VRB01KT CAVOK 07/01 Q1025 NOSIG",
      "tafRaw": "TAF LWSK 150825Z 1509/1609 VRB02KT CAVOK \n  PROB30 \n  TEMPO 1509/1511 6000 NSC"
    },
    {
      "icao": "OEJN",
      "iata": "JED",
      "name": "King Abdulaziz International Airport",
      "updatedAt": "151000Z",
      "visibility_m": 10000,
      "taf_visibility_m": 7000,
      "worst_visibility_m": 7000,
      "ceiling_ft": null,
      "hazards": [],
      "severityScore": 0,
      "metarRaw": "METAR OEJN 151000Z 33008KT CAVOK 27/06 Q1014 NOSIG",
      "tafRaw": "TAF OEJN 150500Z 1506/1612 33010KT CAVOK \n  BECMG 1518/1520 08012KT 7000 NSC \n  BECMG 1608/1610 29010KT"
    },
    {
      "icao": "OEMA",
      "iata": "MED",
      "name": "Prince Mohammad Bin Abdulaziz Airport",
      "updatedAt": "151000Z",
      "visibility_m": 10000,
      "taf_visibility_m": 3000,
      "worst_visibility_m": 3000,
      "ceiling_ft": null,
      "hazards": [],
      "severityScore": 0,
      "metarRaw": "METAR OEMA 151000Z 10006KT CAVOK 20/M02 Q1022 NOSIG",
      "tafRaw": "TAF OEMA 150500Z 1506/1612 08015KT 7000 NSC \n  PROB40 \n  TEMPO 1506/1512 3000 BLDU \n  BECMG 1600/1602 09005KT CAVOK"
    },
    {
      "icao": "OMAA",
      "iata": "AUH",
      "name": "Zayed International Airport",
      "updatedAt": "151000Z",
      "visibility_m": 10000,
      "taf_visibility_m": 8000,
      "worst_visibility_m": 8000,
      "ceiling_ft": null,
      "hazards": [],
      "severityScore": 0,
      "metarRaw": "METAR OMAA 151000Z 26011KT 220V290 CAVOK 28/05 Q1015 NOSIG",
      "tafRaw": "TAF OMAA 150500Z 1506/1612 VRB02KT 8000 FEW045 \n  BECMG 1508/1510 32013KT"
    },
    {
      "icao": "OMDB",
      "iata": "DXB",
      "name": "Dubai International Airport",
      "updatedAt": "151030Z",
      "visibility_m": 10000,
      "taf_visibility_m": 8000,
      "worst_visibility_m": 8000,
      "ceiling_ft": null,
      "hazards": [],
      "severityScore": 0,
      "metarRaw": "METAR OMDB 151030Z 27011KT CAVOK 27/06 Q1015 NOSIG",
      "tafRaw": "TAF OMDB 150500Z 1506/1612 19005KT 8000 NSC \n  BECMG 1507/1509 28013KT \n  PROB30 \n  TEMPO 1606/1612 29018G28KT"
    }
  ],
  "stats": {
    "icaoCount": 159,
    "metarReturned": 158,
    "tafReturned": 141,
    "stationsWritten": 159,
    "missingMetar": 1,
    "missingTaf": 18
  },
  "errors": []
}