{
  "generatedAt": "2026-01-16T13:03:22.661Z",
  "stations": [
    {
      "icao": "EDDB",
      "iata": "BER",
      "name": "Berlin Brandenburg Airport",
      "updatedAt": "161250Z",
      "visibility_m": 10000,
      "taf_visibility_m": 400,
      "worst_visibility_m": 400,
      "ceiling_ft": 100,
      "hazards": [
        "FZFG",
        "BR",
        "FG"
      ],
      "severityScore": 100,
      "metarRaw": "METAR EDDB 161250Z AUTO 15007KT 130V200 CAVOK 08/05 Q1018 NOSIG",
      "tafRaw": "TAF EDDB 161100Z 1612/1712 12007KT CAVOK \n  BECMG 1703/1705 3500 BR BKN004 \n  PROB30 \n  TEMPO 1704/1708 0400 FZFG OVC001 \n  TEMPO 1709/1712 6000 BKN006"
    },
    {
      "icao": "EFTU",
      "iata": "TKU",
      "name": "Turku Airport",
      "updatedAt": "161250Z",
      "visibility_m": 10000,
      "taf_visibility_m": 300,
      "worst_visibility_m": 300,
      "ceiling_ft": 1300,
      "hazards": [
        "FG",
        "BR",
        "FZRA",
        "SN",
        "RA",
        "DZ"
      ],
      "severityScore": 100,
      "metarRaw": "METAR EFTU 161250Z AUTO 18011KT 140V210 9999 OVC013 M00/M02 Q1026",
      "tafRaw": "TAF EFTU 161131Z 1612/1712 18010KT 9999 BKN016 \n  TEMPO 1612/1622 BKN013 \n  TEMPO 1622/1702 7000 -FZRA OVC008 \n  BECMG 1702/1704 2000 -FZRASN BKN006 \n  BECMG 1704/1706 4000 -DZRA BR BKN003 \n  BECMG 1708/1710 0300 FG VV001"
    },
    {
      "icao": "EGNM",
      "iata": "LBA",
      "name": "Leeds Bradford Airport",
      "updatedAt": "161250Z",
      "visibility_m": 10000,
      "taf_visibility_m": 300,
      "worst_visibility_m": 300,
      "ceiling_ft": 300,
      "hazards": [
        "FG",
        "BR",
        "RA",
        "DZ"
      ],
      "severityScore": 100,
      "metarRaw": "METAR EGNM 161250Z 15006KT 110V170 9999 SCT013 07/04 Q1005",
      "tafRaw": "TAF EGNM 161124Z 1612/1712 15005KT 9999 SCT015 \n  PROB30 \n  TEMPO 1612/1618 8000 BKN009 \n  BECMG 1618/1621 6000 BKN006 \n  TEMPO 1618/1623 3000 BR BKN003 \n  PROB40 1619/1712 0300 FG VV/// \n  TEMPO 1623/1712 4000 RA -RADZ BR BKN003"
    },
    {
      "icao": "EGPD",
      "iata": "ABZ",
      "name": "Aberdeen International Airport",
      "updatedAt": "161250Z",
      "visibility_m": 10000,
      "taf_visibility_m": 300,
      "worst_visibility_m": 300,
      "ceiling_ft": 400,
      "hazards": [
        "FG",
        "BR",
        "RA",
        "DZ"
      ],
      "severityScore": 100,
      "metarRaw": "METAR EGPD 161250Z COR AUTO VRB01KT 9999 NCD 00/M01 Q1004 NOSIG",
      "tafRaw": "TAF EGPD 161100Z 1612/1712 VRB03KT 9999 FEW040 \n  PROB30 \n  TEMPO 1615/1617 6000 -RADZ BKN014 \n  TEMPO 1617/1706 3000 BR \n  PROB30 1620/1701 0300 FG VV/// \n  BECMG 1621/1624 15010KT \n  PROB30 \n  TEMPO 1701/1706 BKN006 \n  TEMPO 1706/1712 6000 -RADZ BKN006 \n  PROB30 \n  TEMPO 1706/1712 3000 BR RADZ BKN004"
    },
    {
      "icao": "EKBI",
      "iata": "BLL",
      "name": "Billund Airport",
      "updatedAt": "161250Z",
      "visibility_m": 6000,
      "taf_visibility_m": 400,
      "worst_visibility_m": 400,
      "ceiling_ft": 100,
      "hazards": [
        "RA",
        "FG",
        "BR",
        "DZ"
      ],
      "severityScore": 100,
      "metarRaw": "METAR EKBI 161250Z AUTO 21011KT 180V250 6000 -RA OVC009/// 06/05 Q1011",
      "tafRaw": "TAF EKBI 161205Z 1612/1712 20012KT 8000 BKN015 \n  TEMPO 1612/1615 21015G25KT 4000 -RADZ BR BKN007 \n  BECMG 1617/1620 3000 BR \n  BECMG 1621/1624 10005KT \n  TEMPO 1702/1706 BKN010 \n  BECMG 1708/1710 2000 BKN002 \n  TEMPO 1710/1712 0400 FG BKN001"
    },
    {
      "icao": "ENTO",
      "iata": "TRF",
      "name": "Sandefjord Airport, Torp",
      "updatedAt": "161250Z",
      "visibility_m": 2200,
      "taf_visibility_m": 700,
      "worst_visibility_m": 700,
      "ceiling_ft": 200,
      "hazards": [
        "BR",
        "RA",
        "FZFG",
        "FG",
        "DZ"
      ],
      "severityScore": 100,
      "metarRaw": "METAR ENTO 161250Z 17017KT 2200 +RA OVC002 04/04 Q1007 TEMPO 17017G27KT 4000 RA BR",
      "tafRaw": "TAF ENTO 161100Z 1612/1712 17015KT 6000 -RA SCT003 BKN006 \n  TEMPO 1612/1620 18018G28KT 2000 RADZ BR OVC003 \n  BECMG 1620/1622 VRB05KT FEW008 SCT060 \n  PROB30 1706/1712 0700 FZFG VV002"
    },
    {
      "icao": "EPGD",
      "iata": "GDN",
      "name": "Gdańsk Lech Wałęsa Airport",
      "updatedAt": "161230Z",
      "visibility_m": 550,
      "taf_visibility_m": 400,
      "worst_visibility_m": 400,
      "ceiling_ft": 100,
      "hazards": [
        "FZFG",
        "FG",
        "BR"
      ],
      "severityScore": 100,
      "metarRaw": "METAR EPGD 161230Z 15010KT 0550 R29/0650N FZFG OVC001 M02/M02 Q1023",
      "tafRaw": "TAF EPGD 161130Z 1612/1712 16010KT 0600 FZFG OVC002 \n  PROB40 1612/1704 0400 FZFG OVC001 \n  BECMG 1709/1712 3000 BR BKN005 \n  PROB30 1710/1712 CAVOK"
    },
    {
      "icao": "EPKK",
      "iata": "KRK",
      "name": "Kraków John Paul II International Airport",
      "updatedAt": "161230Z",
      "visibility_m": 10000,
      "taf_visibility_m": 600,
      "worst_visibility_m": 600,
      "ceiling_ft": 200,
      "hazards": [
        "FZFG",
        "BR",
        "FG"
      ],
      "severityScore": 100,
      "metarRaw": "METAR EPKK 161230Z 07010KT CAVOK 02/M01 Q1023",
      "tafRaw": "TAF EPKK 161130Z 1612/1712 07010KT CAVOK \n  BECMG 1616/1619 BKN007 \n  TEMPO 1618/1708 3000 BR OVC002 \n  PROB40 \n  TEMPO 1621/1706 0600 FZFG \n  BECMG 1708/1711 CAVOK"
    },
    {
      "icao": "EPKT",
      "iata": "KTW",
      "name": "Katowice Wojciech Korfanty International Airport",
      "updatedAt": "161230Z",
      "visibility_m": 10000,
      "taf_visibility_m": 400,
      "worst_visibility_m": 400,
      "ceiling_ft": 100,
      "hazards": [
        "FZFG",
        "FG",
        "BR"
      ],
      "severityScore": 100,
      "metarRaw": "METAR EPKT 161230Z VRB01KT CAVOK 05/01 Q1023",
      "tafRaw": "TAF EPKT 161130Z 1612/1712 13005KT CAVOK \n  BECMG 1615/1618 3500 BR BKN005 \n  TEMPO 1618/1709 0800 FG OVC001 \n  PROB30 \n  TEMPO 1700/1709 0400 FZFG \n  BECMG 1709/1712 CAVOK"
    },
    {
      "icao": "EPPO",
      "iata": "POZ",
      "name": "Poznań-Ławica Airport",
      "updatedAt": "161230Z",
      "visibility_m": 8000,
      "taf_visibility_m": 400,
      "worst_visibility_m": 400,
      "ceiling_ft": 100,
      "hazards": [
        "FG",
        "BR"
      ],
      "severityScore": 100,
      "metarRaw": "METAR EPPO 161230Z 12011KT 8000 NSC 05/02 Q1021",
      "tafRaw": "TAF EPPO 161130Z 1612/1712 13008KT CAVOK \n  BECMG 1616/1618 1200 BR BKN006 \n  TEMPO 1620/1710 0400 FG BKN001 \n  BECMG 1710/1712 4000 BR"
    },
    {
      "icao": "EPSC",
      "iata": "SZZ",
      "name": "Solidarity Szczecin–Goleniów Airport",
      "updatedAt": "161230Z",
      "visibility_m": 3200,
      "taf_visibility_m": 500,
      "worst_visibility_m": 500,
      "ceiling_ft": 300,
      "hazards": [
        "BR",
        "FG"
      ],
      "severityScore": 100,
      "metarRaw": "METAR EPSC 161230Z 14014KT 3200 BR OVC003 03/02 Q1019",
      "tafRaw": "TAF EPSC 161130Z 1612/1712 14014KT 3500 BR OVC002 \n  PROB40 1612/1615 5000 BR BKN005 \n  BECMG 1615/1618 0500 FG OVC001 \n  BECMG 1710/1712 3000 BR BKN005"
    },
    {
      "icao": "EPWR",
      "iata": "WRO",
      "name": "Copernicus Wrocław Airport",
      "updatedAt": "161230Z",
      "visibility_m": 10000,
      "taf_visibility_m": 300,
      "worst_visibility_m": 300,
      "ceiling_ft": 100,
      "hazards": [
        "FG",
        "BR"
      ],
      "severityScore": 100,
      "metarRaw": "METAR EPWR 161230Z 12011KT CAVOK 05/02 Q1021",
      "tafRaw": "TAF EPWR 161130Z 1612/1712 13006KT CAVOK \n  BECMG 1615/1617 2000 BR \n  BECMG 1617/1620 0500 FG OVC003 \n  TEMPO 1620/1709 0300 FG OVC001 \n  BECMG 1709/1711 CAVOK"
    },
    {
      "icao": "ESGG",
      "iata": "GOT",
      "name": "Göteborg Landvetter Airport",
      "updatedAt": "161250Z",
      "visibility_m": 7000,
      "taf_visibility_m": 200,
      "worst_visibility_m": 200,
      "ceiling_ft": 700,
      "hazards": [
        "FG",
        "BR",
        "RA"
      ],
      "severityScore": 100,
      "metarRaw": "METAR ESGG 161250Z 16010KT 7000 OVC007 04/04 Q1011",
      "tafRaw": "TAF ESGG 161130Z 1612/1712 16010KT 9000 BKN002 \n  PROB40 1612/1615 17015G25KT BKN015 \n  TEMPO 1612/1616 3000 RA BKN007 \n  TEMPO 1616/1624 1200 BR \n  BECMG 1619/1621 22005KT \n  TEMPO 1700/1710 0200 FG VV002 \n  PROB40 1710/1712 1200 BR"
    },
    {
      "icao": "LFOB",
      "iata": "BVA",
      "name": "Beauvais Tillé airport",
      "updatedAt": "161230Z",
      "visibility_m": 10000,
      "taf_visibility_m": 400,
      "worst_visibility_m": 400,
      "ceiling_ft": 800,
      "hazards": [
        "FG",
        "BR",
        "RA"
      ],
      "severityScore": 100,
      "metarRaw": "METAR LFOB 161230Z AUTO 20010KT 170V240 9999 BKN019 BKN220 10/06 Q1012 TEMPO BKN008",
      "tafRaw": "TAF LFOB 161100Z 1612/1712 VRB03KT 9999 BKN020 \n  BECMG 1612/1614 18010KT BKN013 OVC018 \n  PROB40 \n  TEMPO 1614/1618 BKN008 \n  BECMG 1616/1619 12005KT \n  BECMG 1619/1623 4000 BR OVC002 \n  TEMPO 1622/1703 -RA \n  PROB30 1622/1624 0800 FG \n  PROB40 1700/1711 0400 FG VV///"
    },
    {
      "icao": "LHBP",
      "iata": "BUD",
      "name": "Budapest Liszt Ferenc International Airport",
      "updatedAt": "161300Z",
      "visibility_m": 1300,
      "taf_visibility_m": 300,
      "worst_visibility_m": 300,
      "ceiling_ft": 200,
      "hazards": [
        "BR",
        "FZFG",
        "FG",
        "FZDZ",
        "DZ"
      ],
      "severityScore": 100,
      "metarRaw": "METAR LHBP 161300Z VRB02KT 1300 R13R/P2000N R13L/1700U BR OVC002 02/01 Q1024 NOSIG",
      "tafRaw": "TAF LHBP 161115Z 1612/1712 08005KT 3000 BR SCT004 OVC010 \n  TEMPO 1612/1707 0500 -DZ FG OVC001 \n  PROB40 1618/1707 0300 -FZDZ FZFG VV001 \n  TEMPO 1707/1712 6000 NSW SCT006 BKN025"
    },
    {
      "icao": "LIPR",
      "iata": "RMI",
      "name": "Federico Fellini International Airport",
      "updatedAt": "161250Z",
      "visibility_m": 3500,
      "taf_visibility_m": 300,
      "worst_visibility_m": 300,
      "ceiling_ft": 600,
      "hazards": [
        "BR",
        "FG"
      ],
      "severityScore": 100,
      "metarRaw": "METAR LIPR 161250Z VRB01KT 3500 BR BKN006 07/06 Q1022",
      "tafRaw": "TAF LIPR 161100Z 1612/1712 VRB04KT 2000 BR BKN020 \n  TEMPO 1616/1709 0300 FG BKN001"
    },
    {
      "icao": "LIPY",
      "iata": "AOI",
      "name": "Marche Airport",
      "updatedAt": "161250Z",
      "visibility_m": 4400,
      "taf_visibility_m": 200,
      "worst_visibility_m": 200,
      "ceiling_ft": 200,
      "hazards": [
        "BR",
        "FG"
      ],
      "severityScore": 100,
      "metarRaw": "METAR LIPY 161250Z AUTO 35004KT 320V040 4400 R22/1400U BR OVC005/// 09/09 Q1021",
      "tafRaw": "TAF LIPY 161100Z 1612/1712 VRB05KT 0200 FG OVC002 \n  TEMPO 1612/1618 3000 BR BKN006 \n  BECMG 1708/1710 3000 BR BKN006"
    },
    {
      "icao": "LKPR",
      "iata": "PRG",
      "name": "Václav Havel Airport Prague",
      "updatedAt": "161230Z",
      "visibility_m": 6000,
      "taf_visibility_m": 500,
      "worst_visibility_m": 500,
      "ceiling_ft": 600,
      "hazards": [
        "FG",
        "BR",
        "DZ"
      ],
      "severityScore": 100,
      "metarRaw": "METAR LKPR 161230Z 10005KT 070V130 6000 SCT005 OVC006 00/00 Q1021 NOSIG",
      "tafRaw": "TAF LKPR 161100Z 1612/1718 11005KT 4000 BR BKN004 \n  TEMPO 1612/1617 6000 BKN007 \n  BECMG 1617/1619 1200 BR OVC002 \n  TEMPO 1620/1708 0500 -DZ FG"
    },
    {
      "icao": "LOWW",
      "iata": "VIE",
      "name": "Vienna International Airport",
      "updatedAt": "161250Z",
      "visibility_m": 3000,
      "taf_visibility_m": 300,
      "worst_visibility_m": 300,
      "ceiling_ft": 400,
      "hazards": [
        "BR",
        "FG",
        "DZ"
      ],
      "severityScore": 100,
      "metarRaw": "METAR LOWW 161250Z 15008KT 3000 BR FEW002 OVC004 M00/M01 Q1023 NOSIG",
      "tafRaw": "TAF LOWW 161115Z 1612/1718 14008KT 0500 FG OVC002 TX02/1710Z TNM00/1612Z \n  TEMPO 1612/1616 1500 -DZ BR \n  TEMPO 1616/1707 0300 -DZ FG VV001 \n  BECMG 1708/1710 4000 BR BKN005 \n  TEMPO 1710/1715 13015G25KT 8000 SCT005 BKN030 \n  TEMPO 1715/1718 9999 NSW SCT010"
    },
    {
      "icao": "LQBK",
      "iata": "BNX",
      "name": "Banja Luka International Airport",
      "updatedAt": "161230Z",
      "visibility_m": 10000,
      "taf_visibility_m": 400,
      "worst_visibility_m": 400,
      "ceiling_ft": 200,
      "hazards": [
        "FG",
        "BR"
      ],
      "severityScore": 100,
      "metarRaw": "METAR LQBK 161230Z 32002KT CAVOK 08/04 Q1022 NOSIG",
      "tafRaw": "TAF LQBK 161100Z 1612/1712 04005KT CAVOK TX10/1614Z TNM00/1706Z \n  TEMPO 1621/1708 3000 BR BKN005 \n  PROB30 \n  TEMPO 1700/1706 0400 FG BKN002 \n  TEMPO 1708/1712 BKN013"
    },
    {
      "icao": "LQSA",
      "iata": "SJJ",
      "name": "Sarajevo International Airport",
      "updatedAt": "161230Z",
      "visibility_m": 7000,
      "taf_visibility_m": 300,
      "worst_visibility_m": 300,
      "ceiling_ft": 300,
      "hazards": [
        "FZFG",
        "BR",
        "FG"
      ],
      "severityScore": 100,
      "metarRaw": "METAR LQSA 161230Z VRB01KT 7000 FEW045 07/01 Q1022 NOSIG",
      "tafRaw": "TAF LQSA 161100Z 1612/1712 VRB02KT 6000 FEW008 TX06/1614Z TNM01/1705Z \n  BECMG 1617/1620 2000 BR \n  PROB40 1702/1709 0300 FZFG BKN003 \n  BECMG 1709/1711 6000 NSW"
    },
    {
      "icao": "LQTZ",
      "iata": "TZL",
      "name": "Tuzla International Airport",
      "updatedAt": "161230Z",
      "visibility_m": 7000,
      "taf_visibility_m": 300,
      "worst_visibility_m": 300,
      "ceiling_ft": 200,
      "hazards": [
        "FZFG",
        "FG",
        "BR"
      ],
      "severityScore": 100,
      "metarRaw": "METAR LQTZ 161230Z VRB01KT 7000 FEW055 10/03 Q1022",
      "tafRaw": "TAF LQTZ 161100Z 1612/1712 12005KT 6000 SCT065 TX08/1613Z TNM02/1705Z \n  TEMPO 1616/1710 2000 BR \n  PROB30 \n  TEMPO 1617/1620 0600 FG \n  PROB30 \n  TEMPO 1623/1709 0300 FZFG BKN002 \n  PROB40 1710/1712 BKN007"
    },
    {
      "icao": "LZIB",
      "iata": "BTS",
      "name": "M. R. Štefánik Airport",
      "updatedAt": "161300Z",
      "visibility_m": 300,
      "taf_visibility_m": 500,
      "worst_visibility_m": 300,
      "ceiling_ft": 100,
      "hazards": [
        "FG",
        "DZ",
        "FZFG",
        "BR",
        "FZRA",
        "RA"
      ],
      "severityScore": 100,
      "metarRaw": "METAR LZIB 161300Z 04007KT 0600 R31/0800N R22/0900N -DZ FG BKN001 OVC002 01/01 Q1024 TEMPO 0300 -DZ FG",
      "tafRaw": "TAF LZIB 161115Z 1612/1712 05005KT 2500 BR BKN014 \n  TEMPO 1612/1621 1400 BR OVC003 \n  PROB40 \n  TEMPO 1612/1700 0500 FZFG OVC001 \n  TEMPO 1623/1706 2500 FZRA BKN009 BKN014 \n  BECMG 1708/1710 10007KT 6000 SCT014 BKN025"
    },
    {
      "icao": "LZTT",
      "iata": "TAT",
      "name": "Poprad-Tatry Airport",
      "updatedAt": "161300Z",
      "visibility_m": 800,
      "taf_visibility_m": 300,
      "worst_visibility_m": 300,
      "ceiling_ft": 300,
      "hazards": [
        "FG",
        "FZFG",
        "BR"
      ],
      "severityScore": 100,
      "metarRaw": "METAR LZTT 161300Z VRB02KT 0800 R27/P2000N FG OVC003 01/00 Q1023 NOSIG",
      "tafRaw": "TAF LZTT 161115Z 1612/1712 VRB02KT 2500 BR OVC006 \n  TEMPO 1612/1706 2500 BR BKN009 OVC014 \n  PROB40 \n  TEMPO 1612/1706 0300 FZFG OVC002"
    },
    {
      "icao": "UAAA",
      "iata": "ALA",
      "name": "Almaty International Airport",
      "updatedAt": "161230Z",
      "visibility_m": 1600,
      "taf_visibility_m": 800,
      "worst_visibility_m": 800,
      "ceiling_ft": 700,
      "hazards": [
        "BR",
        "SN",
        "FZFG",
        "BLSN",
        "SHSN",
        "FG"
      ],
      "severityScore": 100,
      "metarRaw": "METAR UAAA 161230Z 26005MPS 1600 R23L/P2000 SN BR BKN007 OVC029 M13/M15 Q1019 NOSIG",
      "tafRaw": "TAF UAAA 161102Z 1612/1712 28003G08MPS 3100 -SHSN BR BKN011CB OVC030 TXM16/1708Z TNM18/1703Z \n  TEMPO 1612/1624 34005G12MPS 0800 SHSN FZFG BKN003 OVC011CB \n  TEMPO 1700/1712 34008G13MPS 1000 SHSN BLSN BKN005 OVC011CB"
    },
    {
      "icao": "GMMN",
      "iata": "CMN",
      "name": "Mohammed V International Airport",
      "updatedAt": "161230Z",
      "visibility_m": 3000,
      "taf_visibility_m": 3000,
      "worst_visibility_m": 3000,
      "ceiling_ft": 400,
      "hazards": [
        "RA",
        "TSRA",
        "TS"
      ],
      "severityScore": 97,
      "metarRaw": "METAR GMMN 161230Z 23014KT 200V260 3000 -RA BKN004 BKN020 13/11 Q1020 NOSIG",
      "tafRaw": "TAF GMMN 161100Z 1612/1718 210015KT 8000 SCT010 BKN020 \n  TEMPO 1612/1619 20017G28KT 4000 RA SCT016TCU BKN023 \n  PROB30 1619/1624 3000 TSRA SCT016TCU FEW020CB BKN023 \n  BECMG 1706/1709 5000 RA SCT010 SCT016TCU BKN023"
    },
    {
      "icao": "LKMT",
      "iata": "OSR",
      "name": "Ostrava Leos Janáček Airport",
      "updatedAt": "161230Z",
      "visibility_m": 7000,
      "taf_visibility_m": 400,
      "worst_visibility_m": 400,
      "ceiling_ft": 2000,
      "hazards": [
        "FZFG",
        "BR",
        "FG"
      ],
      "severityScore": 95,
      "metarRaw": "METAR LKMT 161230Z 19006KT 7000 FEW016 OVC020 03/02 Q1023 NOSIG",
      "tafRaw": "TAF LKMT 161100Z 1612/1712 22006KT 5000 BR SCT010 OVC015 \n  TEMPO 1616/1620 2000 BR BKN004 OVC010 \n  BECMG 1618/1620 VRB02KT 5000 BR OVC010 \n  PROB40 1621/1708 0400 FZFG VV002"
    },
    {
      "icao": "LFBD",
      "iata": "BOD",
      "name": "Bordeaux–Mérignac Airport",
      "updatedAt": "161230Z",
      "visibility_m": 10000,
      "taf_visibility_m": 500,
      "worst_visibility_m": 500,
      "ceiling_ft": 1200,
      "hazards": [
        "SHRA",
        "RA",
        "FG"
      ],
      "severityScore": 93,
      "metarRaw": "METAR LFBD 161230Z AUTO 12006KT 9999 FEW007/// BKN027/// OVC043/// ///TCU 09/08 Q1011 TEMPO SHRA BKN012 BKN030TCU",
      "tafRaw": "TAF LFBD 161100Z 1612/1718 14006KT 9999 BKN030 TX11/1615Z TN05/1704Z \n  TEMPO 1612/1615 SHRA BKN012 BKN030TCU \n  TEMPO 1702/1710 0500 FG VV/// \n  TEMPO 1710/1718 3000 RA BKN007"
    },
    {
      "icao": "LHDC",
      "iata": "DEB",
      "name": "Debrecen International Airport",
      "updatedAt": "161215Z",
      "visibility_m": 9000,
      "taf_visibility_m": 700,
      "worst_visibility_m": 700,
      "ceiling_ft": 2900,
      "hazards": [
        "SHRA",
        "RA",
        "FG",
        "BR",
        "DZ"
      ],
      "severityScore": 91,
      "metarRaw": "METAR LHDC 161215Z AUTO 07005KT 9000 -SHRA FEW012 OVC029 04/02 Q1024 NOSIG",
      "tafRaw": "TAF LHDC 161115Z 1612/1621 06006KT 6000 OVC025 \n  TEMPO 1612/1615 2500 -DZ BR OVC008 \n  PROB40 \n  TEMPO 1615/1621 0700 -DZ FG VV002"
    },
    {
      "icao": "LIPE",
      "iata": "BLQ",
      "name": "Bologna Guglielmo Marconi Airport",
      "updatedAt": "161250Z",
      "visibility_m": 2000,
      "taf_visibility_m": 300,
      "worst_visibility_m": 300,
      "ceiling_ft": 1000,
      "hazards": [
        "BR",
        "FG"
      ],
      "severityScore": 87,
      "metarRaw": "METAR LIPE 161250Z 29005KT 2000 BR SCT007 BKN010 08/06 Q1021",
      "tafRaw": "TAF LIPE 161100Z 1612/1712 VRB04KT 2000 BR BKN020 \n  TEMPO 1616/1709 0300 FG BKN001"
    },
    {
      "icao": "EDDS",
      "iata": "STR",
      "name": "Stuttgart Airport",
      "updatedAt": "161250Z",
      "visibility_m": 10000,
      "taf_visibility_m": 800,
      "worst_visibility_m": 800,
      "ceiling_ft": null,
      "hazards": [
        "FZFG",
        "BR",
        "FG"
      ],
      "severityScore": 85,
      "metarRaw": "METAR EDDS 161250Z AUTO 08003KT CAVOK 10/04 Q1016 NOSIG",
      "tafRaw": "TAF EDDS 161100Z 1612/1712 VRB03KT CAVOK \n  TEMPO 1620/1708 2000 BR \n  PROB30 \n  TEMPO 1703/1707 0800 FZFG"
    },
    {
      "icao": "EGKK",
      "iata": "LGW",
      "name": "London Gatwick Airport",
      "updatedAt": "161250Z",
      "visibility_m": 10000,
      "taf_visibility_m": 4000,
      "worst_visibility_m": 4000,
      "ceiling_ft": 400,
      "hazards": [
        "BR",
        "SHRA",
        "RA",
        "DZ"
      ],
      "severityScore": 81,
      "metarRaw": "METAR EGKK 161250Z 20007KT 170V240 9999 SCT015 09/07 Q1008",
      "tafRaw": "TAF EGKK 161059Z 1612/1718 16008KT 9999 SCT045 \n  PROB30 \n  TEMPO 1612/1617 6000 SHRA BKN010 \n  PROB30 \n  TEMPO 1617/1623 BKN008 \n  TEMPO 1623/1712 7000 -RADZ BKN007 \n  PROB30 \n  TEMPO 1704/1712 4000 RADZ BR BKN004 \n  TEMPO 1712/1714 6000 SHRA BKN007 \n  PROB30 \n  TEMPO 1714/1718 BKN007"
    },
    {
      "icao": "LFPO",
      "iata": "ORY",
      "name": "Paris-Orly Airport",
      "updatedAt": "161230Z",
      "visibility_m": 10000,
      "taf_visibility_m": 800,
      "worst_visibility_m": 800,
      "ceiling_ft": 3100,
      "hazards": [
        "FG",
        "BR",
        "SHRA",
        "RA"
      ],
      "severityScore": 81,
      "metarRaw": "METAR LFPO 161230Z AUTO 20008KT 180V240 9999 FEW018 OVC031 11/07 Q1012",
      "tafRaw": "TAF LFPO 160500Z 1606/1712 21010KT 9999 SCT012 BKN020 \n  TEMPO 1606/1612 BKN012 \n  PROB40 \n  TEMPO 1606/1610 BKN007 \n  BECMG 1616/1618 15005KT CAVOK \n  PROB30 1620/1624 -SHRA SCT008 BKN050TCU \n  BECMG 1702/1705 4000 BR BKN006 \n  TEMPO 1705/1710 2500 BR BKN003 \n  PROB40 \n  TEMPO 1706/1709 0800 FG BKN002 \n  BECMG 1710/1712 9999 NSW BKN010"
    },
    {
      "icao": "EDSB",
      "iata": "FKB",
      "name": "Karlsruhe Baden-Baden Airport",
      "updatedAt": "161250Z",
      "visibility_m": 10000,
      "taf_visibility_m": 800,
      "worst_visibility_m": 800,
      "ceiling_ft": 100,
      "hazards": [
        "FG"
      ],
      "severityScore": 80,
      "metarRaw": "METAR EDSB 161250Z 00000KT CAVOK 12/05 Q1016",
      "tafRaw": "TAF EDSB 161100Z 1612/1712 VRB03KT CAVOK \n  PROB30 \n  TEMPO 1623/1705 0800 FG OVC001 \n  TEMPO 1705/1712 BKN005"
    },
    {
      "icao": "ENGM",
      "iata": "OSL",
      "name": "Oslo-Gardermoen International Airport",
      "updatedAt": "161250Z",
      "visibility_m": 4500,
      "taf_visibility_m": null,
      "worst_visibility_m": 4500,
      "ceiling_ft": 300,
      "hazards": [
        "BR",
        "RA",
        "SN"
      ],
      "severityScore": 80,
      "metarRaw": "METAR ENGM 161250Z VRB01KT 4500 -RASN OVC003 01/00 Q1008 TEMPO RA BR BKN005",
      "tafRaw": null
    },
    {
      "icao": "LIMC",
      "iata": "MXP",
      "name": "Milan Malpensa International Airport",
      "updatedAt": "161250Z",
      "visibility_m": 2000,
      "taf_visibility_m": 2000,
      "worst_visibility_m": 2000,
      "ceiling_ft": 200,
      "hazards": [
        "FG",
        "BR",
        "RA"
      ],
      "severityScore": 77,
      "metarRaw": "METAR LIMC 161250Z 23004KT 2000 BCFG OVC002 07/06 Q1021 NOSIG",
      "tafRaw": "TAF LIMC 161100Z 1612/1718 VRB05KT 2000 -RA BR BKN003 \n  BECMG 1708/1710 4000 SCT015"
    },
    {
      "icao": "LEBL",
      "iata": "BCN",
      "name": "Josep Tarradellas Barcelona-El Prat Airport",
      "updatedAt": "161230Z",
      "visibility_m": 10000,
      "taf_visibility_m": 2000,
      "worst_visibility_m": 2000,
      "ceiling_ft": 2000,
      "hazards": [
        "TSRA",
        "SHRA",
        "TS",
        "RA"
      ],
      "severityScore": 76,
      "metarRaw": "METAR LEBL 161230Z 33004KT 260V030 9999 FEW030 SCT060 14/06 Q1014 NOSIG",
      "tafRaw": "TAF LEBL 161100Z 1612/1712 VRB04KT 9999 FEW015 SCT050 TX12/1612Z TN09/1706Z \n  TEMPO 1612/1614 32009KT \n  BECMG 1701/1703 13014KT \n  TEMPO 1620/1712 3000 SHRA FEW015TCU BKN020 \n  PROB40 \n  TEMPO 1620/1712 2000 TSRA FEW015CB BKN020"
    },
    {
      "icao": "LBPD",
      "iata": "PDV",
      "name": "Plovdiv International Airport",
      "updatedAt": "161300Z",
      "visibility_m": 5000,
      "taf_visibility_m": 3000,
      "worst_visibility_m": 3000,
      "ceiling_ft": 300,
      "hazards": [
        "BR",
        "SN",
        "RA"
      ],
      "severityScore": 75,
      "metarRaw": "METAR LBPD 161300Z AUTO 10012KT 5000 BR OVC003/// 06/06 Q1025 TEMPO BKN003",
      "tafRaw": "TAF LBPD 161100Z 1612/1712 10010KT 9999 BKN070 \n  TEMPO 1612/1615 5000 RA SCT020 OVC040 \n  TEMPO 1615/1618 5000 RASN BKN015 OVC030 \n  TEMPO 1618/1703 3000 SN BKN010 OVC020"
    },
    {
      "icao": "GMMX",
      "iata": "RAK",
      "name": "Menara Airport",
      "updatedAt": "161230Z",
      "visibility_m": 10000,
      "taf_visibility_m": 4000,
      "worst_visibility_m": 4000,
      "ceiling_ft": 1600,
      "hazards": [
        "TSRA",
        "TS",
        "RA"
      ],
      "severityScore": 74,
      "metarRaw": "METAR GMMX 161230Z 27009KT 240V320 9999 FEW026 SCT200 15/09 Q1021 NOSIG",
      "tafRaw": "TAF GMMX 161100Z 1612/1712 06006KT 8000 SCT026 \n  TEMPO 1616/1619 34018KT 4000 TSRA BKN016 FEW026TCU BKN090 \n  TEMPO 1701/1712 32019KT 4000 TSRA BKN016 FEW030CB BKN080"
    },
    {
      "icao": "EGGW",
      "iata": "LTN",
      "name": "London Luton Airport",
      "updatedAt": "161250Z",
      "visibility_m": 10000,
      "taf_visibility_m": 1200,
      "worst_visibility_m": 1200,
      "ceiling_ft": 1700,
      "hazards": [
        "BR",
        "SHRA",
        "RA",
        "DZ"
      ],
      "severityScore": 68,
      "metarRaw": "METAR EGGW 161250Z AUTO 18005KT 150V230 9999 SCT012 BKN017 08/07 Q1007",
      "tafRaw": "TAF EGGW 161056Z 1612/1712 20010KT 9999 SCT015 \n  PROB40 1612/1613 4000 BR BKN003 \n  PROB30 \n  TEMPO 1613/1615 7000 SHRA BKN007 \n  BECMG 1614/1617 14007KT \n  PROB30 \n  TEMPO 1615/1619 7000 SHRA BKN010 \n  PROB40 1621/1705 8000 BKN006 \n  PROB30 \n  TEMPO 1702/1706 2000 BR RADZ BKN001 \n  BECMG 1705/1708 8000 BKN005 \n  PROB40 \n  TEMPO 1706/1711 1200 BR RADZ BKN001 \n  PROB40 1711/1712 9999 SCT008"
    },
    {
      "icao": "LRCV",
      "iata": "CRA",
      "name": "Craiova International Airport",
      "updatedAt": "161230Z",
      "visibility_m": 2000,
      "taf_visibility_m": 800,
      "worst_visibility_m": 800,
      "ceiling_ft": 1600,
      "hazards": [
        "BR",
        "SN"
      ],
      "severityScore": 65,
      "metarRaw": "METAR LRCV 161230Z 07016KT 2000 -SN BR SCT006 OVC016 M03/M05 Q1030 RESN",
      "tafRaw": "TAF LRCV 161100Z 1612/1621 07016KT 3000 -SN BR BKN010 OVC030 \n  TEMPO 1612/1614 0800 SN BKN005 OVC025 \n  BECMG 1614/1616 9999 NSW BKN020 \n  BECMG 1619/1621 07006KT"
    },
    {
      "icao": "LPFR",
      "iata": "FAO",
      "name": "Faro Airport",
      "updatedAt": "161230Z",
      "visibility_m": 10000,
      "taf_visibility_m": 3000,
      "worst_visibility_m": 3000,
      "ceiling_ft": 1500,
      "hazards": [
        "SHRA",
        "RA",
        "TS"
      ],
      "severityScore": 63,
      "metarRaw": "METAR LPFR 161230Z 19005KT 9999 -SHRA FEW020 FEW025CB 14/11 Q1016",
      "tafRaw": "TAF LPFR 161100Z 1612/1712 28010KT 9999 SCT035 \n  TEMPO 1612/1624 8000 SHRA BKN015 FEW025CB \n  PROB30 \n  TEMPO 1612/1618 VRB15G27KT 3000 TSRAGS SCT020CB \n  BECMG 1620/1622 32007KT"
    },
    {
      "icao": "LPPT",
      "iata": "LIS",
      "name": "Lisbon Humberto Delgado Airport",
      "updatedAt": "161230Z",
      "visibility_m": 10000,
      "taf_visibility_m": 3000,
      "worst_visibility_m": 3000,
      "ceiling_ft": 1500,
      "hazards": [
        "SHRA",
        "TS",
        "RA"
      ],
      "severityScore": 63,
      "metarRaw": "METAR LPPT 161230Z VRB02KT 9999 FEW018 10/09 Q1014",
      "tafRaw": "TAF LPPT 161100Z 1612/1718 30010KT 9999 FEW018 SCT035 \n  TEMPO 1612/1718 8000 SHRA BKN015 FEW025CB \n  PROB30 \n  TEMPO 1612/1620 VRB15G27KT 3000 TSRAGS SCT020CB \n  BECMG 1620/1622 30005KT \n  BECMG 1708/1710 VRB05KT"
    },
    {
      "icao": "EGBB",
      "iata": "BHX",
      "name": "Birmingham Airport",
      "updatedAt": "161250Z",
      "visibility_m": 10000,
      "taf_visibility_m": 4000,
      "worst_visibility_m": 4000,
      "ceiling_ft": 600,
      "hazards": [
        "BR",
        "RA",
        "SHRA"
      ],
      "severityScore": 61,
      "metarRaw": "METAR EGBB 161250Z 14008KT 9999 BKN006 06/05 Q1006",
      "tafRaw": "TAF EGBB 161057Z 1612/1712 14008KT 4000 BR BKN003 \n  BECMG 1612/1614 9999 NSW SCT025 \n  TEMPO 1612/1616 BKN008 \n  PROB30 \n  TEMPO 1612/1621 8000 -SHRA BKN014 \n  TEMPO 1621/1706 7000 RA BKN009 \n  PROB30 \n  TEMPO 1621/1706 4000 BR BKN004 \n  PROB30 \n  TEMPO 1621/1706 +RA \n  PROB30 \n  TEMPO 1706/1712 8000 -SHRA BKN004"
    },
    {
      "icao": "UBBB",
      "iata": "GYD",
      "name": "Heydar Aliyev International Airport",
      "updatedAt": "161300Z",
      "visibility_m": 10000,
      "taf_visibility_m": 4000,
      "worst_visibility_m": 4000,
      "ceiling_ft": 600,
      "hazards": [
        "BR",
        "SHRA",
        "RA"
      ],
      "severityScore": 61,
      "metarRaw": "METAR UBBB 161300Z 19010KT CAVOK 07/01 Q1021 NOSIG",
      "tafRaw": "TAF UBBB 161056Z 1612/1712 19014KT 9999 FEW025 TX08/1612Z TN01/1702Z \n  TEMPO 1614/1616 24010KT \n  BECMG 1616/1618 31008KT SCT010 BKN030 \n  TEMPO 1618/1704 4000 BR BKN006 OVC017 \n  BECMG 1704/1706 35010KT \n  TEMPO 1708/1712 02012KT -SHRA SCT007 SCT030CB BKN030"
    },
    {
      "icao": "LIME",
      "iata": "BGY",
      "name": "Milan Bergamo Airport / Antonio Locatelli Air Base",
      "updatedAt": "161250Z",
      "visibility_m": 800,
      "taf_visibility_m": null,
      "worst_visibility_m": 800,
      "ceiling_ft": null,
      "hazards": [
        "BR",
        "FG"
      ],
      "severityScore": 60,
      "metarRaw": "METAR LIME 161250Z 21005KT 1100 R28/1500D BR NSC 07/07 Q1021 TEMPO 0800 BCFG",
      "tafRaw": null
    },
    {
      "icao": "ENZV",
      "iata": "SVG",
      "name": "Stavanger Airport, Sola",
      "updatedAt": "161250Z",
      "visibility_m": 4000,
      "taf_visibility_m": 4000,
      "worst_visibility_m": 4000,
      "ceiling_ft": 800,
      "hazards": [
        "BR",
        "RA",
        "DZ"
      ],
      "severityScore": 57,
      "metarRaw": "METAR ENZV 161250Z 13009KT 5000 RADZ VV013 06/05 Q0999 REDZRA TEMPO 4000 RA BR BKN008",
      "tafRaw": "TAF ENZV 161100Z 1612/1712 12012KT 9999 -RA SCT010 BKN015 \n  BECMG 1612/1614 20015KT SCT004 BKN010 \n  TEMPO 1612/1616 4000 RA BR BKN006 \n  BECMG 1614/1616 27015KT \n  BECMG 1617/1619 15005KT SCT012 BKN018"
    },
    {
      "icao": "EDDN",
      "iata": "NUE",
      "name": "Nuremberg Airport",
      "updatedAt": "161250Z",
      "visibility_m": 10000,
      "taf_visibility_m": 1200,
      "worst_visibility_m": 1200,
      "ceiling_ft": 300,
      "hazards": [
        "BR"
      ],
      "severityScore": 55,
      "metarRaw": "METAR EDDN 161250Z AUTO 14005KT CAVOK 10/03 Q1018 NOSIG",
      "tafRaw": "TAF EDDN 161100Z 1612/1712 12006KT CAVOK \n  BECMG 1619/1621 4000 BR OVC003 \n  TEMPO 1619/1707 1200 BR \n  BECMG 1708/1710 6000 OVC005"
    },
    {
      "icao": "EKCH",
      "iata": "CPH",
      "name": "Copenhagen Kastrup Airport",
      "updatedAt": "161250Z",
      "visibility_m": 10000,
      "taf_visibility_m": 1200,
      "worst_visibility_m": 1200,
      "ceiling_ft": 200,
      "hazards": [
        "BR"
      ],
      "severityScore": 55,
      "metarRaw": "METAR EKCH 161250Z AUTO 17014KT 9999 FEW029/// OVC049/// 05/03 Q1015 NOSIG",
      "tafRaw": "TAF EKCH 161127Z 1612/1712 16015KT 9999 SCT020 \n  BECMG 1617/1620 20005KT \n  TEMPO 1702/1705 4000 BR BKN008 \n  BECMG 1705/1707 13015KT 1200 BR BKN002"
    },
    {
      "icao": "ESKN",
      "iata": "NYO",
      "name": "Stockholm Skavsta Airport",
      "updatedAt": "161250Z",
      "visibility_m": 3000,
      "taf_visibility_m": 1200,
      "worst_visibility_m": 1200,
      "ceiling_ft": 300,
      "hazards": [
        "BR"
      ],
      "severityScore": 55,
      "metarRaw": "METAR ESKN 161250Z 15016KT 110V180 3000 BR OVC003 03/03 Q1018",
      "tafRaw": "TAF ESKN 161130Z 1612/1712 17015G25KT 5000 OVC003 \n  TEMPO 1612/1623 2500 BR BKN005 \n  BECMG 1618/1620 18008KT \n  PROB40 1623/1709 1200 BR SCT005 BKN010 \n  PROB40 1709/1712 SCT005 BKN015"
    },
    {
      "icao": "ESMS",
      "iata": "MMX",
      "name": "Malmö Sturup Airport",
      "updatedAt": "161250Z",
      "visibility_m": 3700,
      "taf_visibility_m": 1200,
      "worst_visibility_m": 1200,
      "ceiling_ft": 400,
      "hazards": [
        "BR"
      ],
      "severityScore": 55,
      "metarRaw": "METAR ESMS 161250Z 15010KT 3700 BR OVC004 04/04 Q1015",
      "tafRaw": "TAF ESMS 161127Z 1612/1712 15010KT 2000 BR BKN003 \n  BECMG 1612/1614 9000 NSW SCT020 \n  TEMPO 1614/1701 4000 BR BKN012 \n  BECMG 1701/1703 1200 BR BKN002 \n  TEMPO 1703/1712 6000 NSW BKN012"
    },
    {
      "icao": "LYPG",
      "iata": "TGD",
      "name": "Podgorica Airport / Podgorica Golubovci Airbase",
      "updatedAt": "161230Z",
      "visibility_m": 10000,
      "taf_visibility_m": 600,
      "worst_visibility_m": 600,
      "ceiling_ft": null,
      "hazards": [
        "FG",
        "BR"
      ],
      "severityScore": 55,
      "metarRaw": "METAR LYPG 161230Z VRB01KT 9999 FEW024 14/08 Q1022 NOSIG",
      "tafRaw": "TAF LYPG 161100Z 1612/1712 16005KT 9999 FEW030 SCT080 TX15/1613Z TN02/1705Z \n  BECMG 1618/1620 2000 BR \n  TEMPO 1620/1707 0600 FG \n  BECMG 1707/1709 9999 NSW"
    },
    {
      "icao": "LRSB",
      "iata": "SBZ",
      "name": "Sibiu International Airport",
      "updatedAt": "161230Z",
      "visibility_m": 7000,
      "taf_visibility_m": 3000,
      "worst_visibility_m": 3000,
      "ceiling_ft": 1400,
      "hazards": [
        "SN",
        "RA",
        "BR"
      ],
      "severityScore": 52,
      "metarRaw": "METAR LRSB 161230Z 10008KT 7000 -SNRA SCT007 OVC014 02/01 Q1025 NOSIG",
      "tafRaw": "TAF LRSB 161100Z 1612/1712 10010KT 9999 -RA BKN010 OVC025 \n  BECMG 1612/1614 5000 -RA BR \n  TEMPO 1614/1616 3000 -SN BR BKN005 OVC020 \n  BECMG 1616/1618 9999 NSW BKN025 \n  BECMG 1622/1624 VRB04KT \n  TEMPO 1702/1707 5000 BR"
    },
    {
      "icao": "EGPF",
      "iata": "GLA",
      "name": "Glasgow Airport",
      "updatedAt": "161250Z",
      "visibility_m": 10000,
      "taf_visibility_m": 4000,
      "worst_visibility_m": 4000,
      "ceiling_ft": 700,
      "hazards": [
        "RA",
        "SHRA"
      ],
      "severityScore": 51,
      "metarRaw": "METAR EGPF 161250Z AUTO 06008KT 9999 FEW019 SCT039 04/03 Q1002",
      "tafRaw": "TAF EGPF 161101Z 1612/1712 07009KT 9999 SCT025 \n  TEMPO 1612/1624 4000 SHRA RA \n  PROB30 \n  TEMPO 1612/1624 BKN012 \n  PROB30 \n  TEMPO 1705/1712 4000 RA SHRA BKN007"
    },
    {
      "icao": "LPPR",
      "iata": "OPO",
      "name": "Francisco de Sá Carneiro Airport",
      "updatedAt": "161230Z",
      "visibility_m": 8000,
      "taf_visibility_m": 2000,
      "worst_visibility_m": 2000,
      "ceiling_ft": 4000,
      "hazards": [
        "SHRA",
        "RA",
        "TS"
      ],
      "severityScore": 51,
      "metarRaw": "METAR LPPR 161230Z VRB02KT 8000 -SHRA FEW018CB BKN040 10/08 Q1012",
      "tafRaw": "TAF LPPR 161100Z 1612/1712 32010KT 9999 FEW018TCU SCT035 \n  TEMPO 1612/1620 5000 SHRA BKN012 FEW018CB \n  PROB40 \n  TEMPO 1612/1620 VRB18G30KT 2000 +TSRAGS SCT015CB \n  BECMG 1620/1622 VRB02KT SCT018 \n  TEMPO 1620/1712 8000 SHRA BKN015 FEW020CB"
    },
    {
      "icao": "EETN",
      "iata": "TLL",
      "name": "Lennart Meri Tallinn Airport",
      "updatedAt": "161250Z",
      "visibility_m": 10000,
      "taf_visibility_m": 10000,
      "worst_visibility_m": 10000,
      "ceiling_ft": 2600,
      "hazards": [
        "FZRA",
        "RA"
      ],
      "severityScore": 47,
      "metarRaw": "METAR EETN 161250Z 15006KT 9999 FEW012 BKN026 M07/M09 Q1030 NOSIG",
      "tafRaw": "TAF EETN 161130Z 1612/1712 17012KT 9999 OVC025 \n  TEMPO 1612/1619 BKN007 \n  PROB40 \n  TEMPO 1619/1702 BKN005 \n  BECMG 1702/1704 OVC010 \n  TEMPO 1706/1712 BKN005 \n  PROB40 \n  TEMPO 1706/1712 -FZRA"
    },
    {
      "icao": "EGGP",
      "iata": "LPL",
      "name": "Liverpool John Lennon Airport",
      "updatedAt": "161250Z",
      "visibility_m": 10000,
      "taf_visibility_m": 4000,
      "worst_visibility_m": 4000,
      "ceiling_ft": 800,
      "hazards": [
        "RA",
        "DZ"
      ],
      "severityScore": 47,
      "metarRaw": "METAR EGGP 161250Z 15010KT 120V180 9999 SCT014 07/04 Q1004",
      "tafRaw": "TAF EGGP 161055Z 1612/1712 15009KT 9999 FEW025 \n  PROB30 \n  TEMPO 1621/1701 8000 -RADZ BKN012 \n  TEMPO 1701/1707 6000 RA BKN012 \n  PROB30 \n  TEMPO 1702/1706 4000 +RA BKN008 \n  PROB30 \n  TEMPO 1707/1712 8000 BKN008"
    },
    {
      "icao": "EPRA",
      "iata": "RDO",
      "name": "Warsaw Radom Airport",
      "updatedAt": "161230Z",
      "visibility_m": 6000,
      "taf_visibility_m": 4000,
      "worst_visibility_m": 4000,
      "ceiling_ft": 600,
      "hazards": [
        "RA",
        "BR"
      ],
      "severityScore": 47,
      "metarRaw": "METAR EPRA 161230Z 11010KT 6000 OVC006 M02/M04 Q1026",
      "tafRaw": "TAF EPRA 161130Z 1612/1621 12010KT 8000 OVC006 \n  BECMG 1614/1616 4000 BR BKN014 \n  BECMG 1617/1619 9999 SCT030"
    },
    {
      "icao": "EDDH",
      "iata": "HAM",
      "name": "Hamburg Helmut Schmidt Airport",
      "updatedAt": "161250Z",
      "visibility_m": 10000,
      "taf_visibility_m": 4000,
      "worst_visibility_m": 4000,
      "ceiling_ft": 400,
      "hazards": [
        "BR"
      ],
      "severityScore": 45,
      "metarRaw": "METAR EDDH 161250Z AUTO 21011KT 9999 FEW036 11/06 Q1014 NOSIG",
      "tafRaw": "TAF EDDH 161100Z 1612/1718 19009KT 9999 BKN030 \n  BECMG 1612/1615 14004KT \n  PROB40 \n  TEMPO 1700/1709 4000 BR BKN004 \n  BECMG 1709/1712 14009KT BKN006 \n  TEMPO 1712/1718 4500 BR BKN004"
    },
    {
      "icao": "EPRZ",
      "iata": "RZE",
      "name": "Rzeszów-Jasionka Airport",
      "updatedAt": "161230Z",
      "visibility_m": 4000,
      "taf_visibility_m": 3000,
      "worst_visibility_m": 3000,
      "ceiling_ft": 400,
      "hazards": [
        "BR"
      ],
      "severityScore": 45,
      "metarRaw": "METAR EPRZ 161230Z 09012KT 4000 BR OVC004 M03/M04 Q1026",
      "tafRaw": "TAF EPRZ 161130Z 1612/1712 08013KT 3000 BR OVC003 \n  TEMPO 1612/1615 5000 BR OVC008 \n  BECMG 1615/1618 CAVOK \n  PROB30 \n  TEMPO 1618/1706 4000 BR"
    },
    {
      "icao": "LIBR",
      "iata": "BDS",
      "name": "Brindisi Airport",
      "updatedAt": "161250Z",
      "visibility_m": 10000,
      "taf_visibility_m": 2000,
      "worst_visibility_m": 2000,
      "ceiling_ft": 100,
      "hazards": [
        "BR"
      ],
      "severityScore": 45,
      "metarRaw": "METAR LIBR 161250Z 02007KT CAVOK 13/10 Q1020",
      "tafRaw": "TAF LIBR 161100Z 1612/1712 VRB05KT 9999 FEW025 \n  TEMPO 1621/1709 2000 BR BKN001"
    },
    {
      "icao": "LUKK",
      "iata": "RMO",
      "name": "Chişinău International Airport",
      "updatedAt": "161230Z",
      "visibility_m": 10000,
      "taf_visibility_m": 3000,
      "worst_visibility_m": 3000,
      "ceiling_ft": 400,
      "hazards": [
        "BR"
      ],
      "severityScore": 45,
      "metarRaw": "METAR LUKK 161230Z 35009KT 310V010 CAVOK M06/M12 Q1032 NOSIG",
      "tafRaw": "TAF LUKK 161121Z 1612/1712 36008KT CAVOK \n  BECMG 1700/1702 BKN008 \n  TEMPO 1701/1707 3000 BR OVC004 \n  BECMG 1709/1711 BKN012"
    },
    {
      "icao": "LTFM",
      "iata": "IST",
      "name": "İstanbul Airport",
      "updatedAt": "161250Z",
      "visibility_m": 8000,
      "taf_visibility_m": 10000,
      "worst_visibility_m": 8000,
      "ceiling_ft": 2200,
      "hazards": [
        "SHRA",
        "RA",
        "SN"
      ],
      "severityScore": 44,
      "metarRaw": "METAR LTFM 161250Z 04018KT 8000 -SHRA SCT007 BKN022 05/04 Q1025 NOSIG RMK RWY17L 04017KT RWY34L 03016KT RWY16R 04016KT RWY36 04019KT RWY18 05015KT",
      "tafRaw": "TAF LTFM 161040Z 1612/1718 04017KT 9999 -SHRA SCT007 BKN022 \n  PROB30 \n  TEMPO 1615/1618 -SHRASN \n  TEMPO 1618/1622 -SHSNRA \n  TEMPO 1623/1703 -SHRASN \n  BECMG 1713/1716 -SHRASN"
    },
    {
      "icao": "LIPX",
      "iata": "VRN",
      "name": "Verona Villafranca Valerio Catullo Airport",
      "updatedAt": "161250Z",
      "visibility_m": 5000,
      "taf_visibility_m": 1200,
      "worst_visibility_m": 1200,
      "ceiling_ft": 7000,
      "hazards": [
        "BR",
        "FG"
      ],
      "severityScore": 40,
      "metarRaw": "METAR LIPX 161250Z VRB02KT 5000 BR BKN070 09/06 Q1021",
      "tafRaw": "TAF LIPX 161100Z 1612/1712 VRB04KT 3000 BR SCT040 \n  TEMPO 1621/1707 1200 BCFG BKN010"
    },
    {
      "icao": "LTAC",
      "iata": "ESB",
      "name": "Esenboğa International Airport",
      "updatedAt": "161250Z",
      "visibility_m": 10000,
      "taf_visibility_m": 2500,
      "worst_visibility_m": 2500,
      "ceiling_ft": 2500,
      "hazards": [
        "BR",
        "RA",
        "SN"
      ],
      "severityScore": 40,
      "metarRaw": "METAR LTAC 161250Z 25010KT 9999 SCT010 BKN025 BKN080 05/02 Q1019 NOSIG RMK RWY21C 25011KT RWY03L 25009KT RWY21R 24011KT RWY03R 23008KT RWY21L 25012KT",
      "tafRaw": "TAF LTAC 161040Z 1612/1712 24008KT 8000 -RA SCT010 BKN025 BKN080 \n  BECMG 1622/1702 -RASN \n  TEMPO 1703/1707 2500 BR"
    },
    {
      "icao": "UGKO",
      "iata": "KUT",
      "name": "David the Builder Kutaisi International Airport",
      "updatedAt": "161230Z",
      "visibility_m": 10000,
      "taf_visibility_m": 4000,
      "worst_visibility_m": 4000,
      "ceiling_ft": 2800,
      "hazards": [
        "RA",
        "BR",
        "SN"
      ],
      "severityScore": 40,
      "metarRaw": "METAR UGKO 161230Z 10005KT 9999 -RA OVC028 01/00 Q1022 NOSIG",
      "tafRaw": "TAF UGKO 161100Z 1612/1712 09007KT 9000 SCT012 OVC040 TX02/1612Z TN00/1706Z \n  TEMPO 1612/1620 5000 SNRA BR BKN015 OVC030 \n  TEMPO 1622/1708 4000 SHSNRA BKN017CB OVC025 \n  TEMPO 1708/1712 26010KT"
    },
    {
      "icao": "LEAL",
      "iata": "ALC",
      "name": "Alicante-Elche Miguel Hernández Airport",
      "updatedAt": "161230Z",
      "visibility_m": 10000,
      "taf_visibility_m": 4000,
      "worst_visibility_m": 4000,
      "ceiling_ft": 1000,
      "hazards": [
        "RA",
        "SHRA"
      ],
      "severityScore": 38,
      "metarRaw": "METAR LEAL 161230Z VRB02KT 9999 FEW045 18/07 Q1014 NOSIG",
      "tafRaw": "TAF LEAL 161100Z 1612/1712 VRB04KT 9999 FEW020 TX16/1613Z TN07/1706Z \n  TEMPO 1621/1624 4000 RA SHRA BKN010 FEW015TCU"
    },
    {
      "icao": "LPMA",
      "iata": "FNC",
      "name": "Madeira International Airport Cristiano Ronaldo",
      "updatedAt": "161230Z",
      "visibility_m": 10000,
      "taf_visibility_m": 8000,
      "worst_visibility_m": 8000,
      "ceiling_ft": 1300,
      "hazards": [
        "SHRA",
        "RA"
      ],
      "severityScore": 38,
      "metarRaw": "METAR LPMA 161230Z 34008G19KT 280V060 9999 FEW015 18/09 Q1026",
      "tafRaw": "TAF LPMA 161100Z 1612/1712 34015KT 9999 SCT015 \n  TEMPO 1612/1712 VRB05KT \n  PROB40 \n  TEMPO 1612/1712 35018G30KT 8000 SHRA BKN013 FEW020TCU"
    },
    {
      "icao": "LPPS",
      "iata": "PXO",
      "name": "Porto Santo Airport",
      "updatedAt": "161230Z",
      "visibility_m": 10000,
      "taf_visibility_m": 8000,
      "worst_visibility_m": 8000,
      "ceiling_ft": 1200,
      "hazards": [
        "SHRA",
        "RA"
      ],
      "severityScore": 38,
      "metarRaw": "METAR LPPS 161230Z 33017KT 9999 SCT014 18/11 Q1026",
      "tafRaw": "TAF LPPS 161100Z 1612/1718 33015KT 9999 SCT014 SCT030 \n  PROB40 \n  TEMPO 1612/1718 33018G30KT 8000 SHRA BKN012 FEW018TCU"
    },
    {
      "icao": "LGTS",
      "iata": "SKG",
      "name": "Thessaloniki Macedonia International Airport",
      "updatedAt": "161250Z",
      "visibility_m": 10000,
      "taf_visibility_m": 5000,
      "worst_visibility_m": 5000,
      "ceiling_ft": 2500,
      "hazards": [
        "TS",
        "RA"
      ],
      "severityScore": 37,
      "metarRaw": "METAR LGTS 161250Z 26004KT 9999 FEW020 13/05 Q1021 NOSIG",
      "tafRaw": "TAF LGTS 161100Z 1612/1712 VRB03KT 9999 FEW030 \n  BECMG 1620/1622 09013KT FEW010 BKN025 \n  PROB30 1700/1712 5000 RA"
    },
    {
      "icao": "EHBK",
      "iata": "MST",
      "name": "Maastricht Aachen Airport",
      "updatedAt": "161255Z",
      "visibility_m": 10000,
      "taf_visibility_m": 7000,
      "worst_visibility_m": 7000,
      "ceiling_ft": 2000,
      "hazards": [
        "DZ",
        "RA",
        "SHRA"
      ],
      "severityScore": 36,
      "metarRaw": "METAR EHBK 161255Z AUTO 25007KT 220V280 9999 FEW003/// BKN016/// BKN021/// 10/09 Q1013 REDZ NOSIG",
      "tafRaw": "TAF EHBK 161109Z 1612/1718 18008KT 9999 BKN020 \n  TEMPO 1612/1616 7000 -SHRA -RA FEW020TCU BKN022 \n  PROB30 \n  TEMPO 1622/1702 7000 RA"
    },
    {
      "icao": "EDFH",
      "iata": "HHN",
      "name": "Frankfurt-Hahn Airport",
      "updatedAt": "161250Z",
      "visibility_m": 10000,
      "taf_visibility_m": 4000,
      "worst_visibility_m": 4000,
      "ceiling_ft": 500,
      "hazards": [
        "BR"
      ],
      "severityScore": 35,
      "metarRaw": "METAR EDFH 161250Z 20011KT 9999 SCT020 09/05 Q1014",
      "tafRaw": "TAF EDFH 161100Z 1612/1712 16011KT 9999 SCT030 \n  PROB30 \n  TEMPO 1706/1712 4000 BR BKN005"
    },
    {
      "icao": "ESSA",
      "iata": "ARN",
      "name": "Stockholm-Arlanda Airport",
      "updatedAt": "161250Z",
      "visibility_m": 5000,
      "taf_visibility_m": 10000,
      "worst_visibility_m": 5000,
      "ceiling_ft": 600,
      "hazards": [
        "DZ"
      ],
      "severityScore": 35,
      "metarRaw": "METAR ESSA 161250Z 16012KT 5000 -DZ OVC006 02/01 Q1018 NOSIG",
      "tafRaw": "TAF ESSA 161130Z 1612/1712 17015KT 9999 OVC004 \n  PROB40 1612/1706 OVC005 \n  TEMPO 1612/1618 18015G25KT \n  BECMG 1706/1708 OVC007 \n  PROB40 1708/1712 BKN015"
    },
    {
      "icao": "EYVI",
      "iata": "VNO",
      "name": "Vilnius International Airport",
      "updatedAt": "161250Z",
      "visibility_m": 10000,
      "taf_visibility_m": 3000,
      "worst_visibility_m": 3000,
      "ceiling_ft": 500,
      "hazards": [
        "BR"
      ],
      "severityScore": 35,
      "metarRaw": "METAR EYVI 161250Z 14008KT CAVOK M12/M16 Q1032 NOSIG",
      "tafRaw": "TAF EYVI 161101Z 1612/1712 16010KT 7000 NSC \n  PROB30 \n  TEMPO 1616/1621 3000 BR BKN005"
    },
    {
      "icao": "ENBR",
      "iata": "BGO",
      "name": "Bergen Airport, Flesland",
      "updatedAt": "161250Z",
      "visibility_m": 4000,
      "taf_visibility_m": 4000,
      "worst_visibility_m": 4000,
      "ceiling_ft": 1200,
      "hazards": [
        "RA",
        "BR"
      ],
      "severityScore": 34,
      "metarRaw": "METAR ENBR 161250Z 36003KT 330V050 9000 RA FEW003 BKN020 04/04 Q1001 TEMPO 4000 -RA BKN012 RMK WIND 1200FT 09005KT",
      "tafRaw": "TAF ENBR 161100Z 1612/1712 35005KT 9999 -RA SCT015 BKN030 \n  BECMG 1612/1614 BKN012 \n  TEMPO 1612/1621 4000 RA BKN008 \n  BECMG 1621/1623 15010KT BKN020"
    },
    {
      "icao": "ENHD",
      "iata": "HAU",
      "name": "Haugesund Airport, Karmøy",
      "updatedAt": "161250Z",
      "visibility_m": 7000,
      "taf_visibility_m": 4000,
      "worst_visibility_m": 4000,
      "ceiling_ft": 3200,
      "hazards": [
        "RA",
        "BR",
        "DZ"
      ],
      "severityScore": 32,
      "metarRaw": "METAR ENHD 161250Z 05007KT 7000 RA OVC032 05/04 Q1000",
      "tafRaw": "TAF ENHD 161100Z 1612/1621 09008KT 9999 -RA SCT015 BKN025 \n  BECMG 1612/1614 SCT007 BKN012 \n  TEMPO 1612/1618 4000 RADZ BR BKN007 \n  BECMG 1614/1616 32015KT \n  BECMG 1618/1620 VRB05KT"
    },
    {
      "icao": "EPMO",
      "iata": "WMI",
      "name": "Modlin Airport",
      "updatedAt": "161230Z",
      "visibility_m": 5000,
      "taf_visibility_m": 1400,
      "worst_visibility_m": 1400,
      "ceiling_ft": 1100,
      "hazards": [
        "BR"
      ],
      "severityScore": 32,
      "metarRaw": "METAR EPMO 161230Z 12006KT 5000 BR BKN011 M02/M03 Q1027",
      "tafRaw": "TAF EPMO 161130Z 1612/1712 11010KT 3000 BR BKN010 \n  PROB40 \n  TEMPO 1612/1615 6000 SCT010 BKN020 \n  PROB40 1615/1709 1400 BR BKN005 \n  BECMG 1709/1712 CAVOK"
    },
    {
      "icao": "LEMD",
      "iata": "MAD",
      "name": "Adolfo Suárez Madrid–Barajas Airport",
      "updatedAt": "161230Z",
      "visibility_m": 10000,
      "taf_visibility_m": 3000,
      "worst_visibility_m": 3000,
      "ceiling_ft": 6000,
      "hazards": [
        "BR",
        "RA",
        "DZ"
      ],
      "severityScore": 32,
      "metarRaw": "METAR LEMD 161230Z 23006KT 180V290 9999 SCT020 BKN060 10/08 Q1011 NOSIG",
      "tafRaw": "TAF LEMD 161100Z 1612/1718 VRB04KT 9999 SCT025 TX11/1614Z TN02/1708Z \n  PROB30 \n  TEMPO 1612/1615 DZRA BKN010 \n  PROB30 \n  TEMPO 1613/1617 20010KT \n  TEMPO 1621/1714 DZRA \n  TEMPO 1700/1711 3000 BR BKN004 BKN010"
    },
    {
      "icao": "LEZG",
      "iata": "ZAZ",
      "name": "Zaragoza Airport",
      "updatedAt": "161230Z",
      "visibility_m": 5000,
      "taf_visibility_m": 2000,
      "worst_visibility_m": 2000,
      "ceiling_ft": 5000,
      "hazards": [
        "BR",
        "DZ",
        "RA"
      ],
      "severityScore": 32,
      "metarRaw": "METAR LEZG 161230Z 10007KT 5000 DZ BR FEW030 SCT040 OVC050 09/08 Q1013 NOSIG",
      "tafRaw": "TAF LEZG 161100Z 1612/1712 09005KT 9999 FEW060 TX10/1614Z TN04/1706Z \n  TEMPO 1617/1624 4000 RA BKN030 \n  TEMPO 1618/1709 2000 BR BKN010 \n  BECMG 1618/1620 VRB04KT \n  BECMG 1706/1708 27008KT"
    },
    {
      "icao": "LRTR",
      "iata": "TSR",
      "name": "Timişoara Traian Vuia Airport",
      "updatedAt": "161230Z",
      "visibility_m": 7000,
      "taf_visibility_m": 1500,
      "worst_visibility_m": 1500,
      "ceiling_ft": 2600,
      "hazards": [
        "BR",
        "RA"
      ],
      "severityScore": 32,
      "metarRaw": "METAR LRTR 161230Z 12007KT 7000 BKN026 03/03 Q1024",
      "tafRaw": "TAF LRTR 161100Z 1612/1712 11008KT 5000 BR BKN040 \n  TEMPO 1612/1618 1500 -RA BR BKN010 OVC025 \n  BECMG 1618/1620 9999 NSW"
    },
    {
      "icao": "LBSF",
      "iata": "SOF",
      "name": "Sofia Airport",
      "updatedAt": "161300Z",
      "visibility_m": 10000,
      "taf_visibility_m": 5000,
      "worst_visibility_m": 5000,
      "ceiling_ft": 6800,
      "hazards": [
        "SN",
        "RA"
      ],
      "severityScore": 30,
      "metarRaw": "METAR LBSF 161300Z 03004KT 9999 SCT056 BKN068 08/02 Q1023 NOSIG",
      "tafRaw": "TAF LBSF 161100Z 1612/1712 10010KT 9999 BKN060 \n  TEMPO 1615/1620 5000 RASN SCT010 BKN020"
    },
    {
      "icao": "LIRZ",
      "iata": "PEG",
      "name": "Perugia San Francesco d'Assisi – Umbria International Airport",
      "updatedAt": "161250Z",
      "visibility_m": 10000,
      "taf_visibility_m": 1500,
      "worst_visibility_m": 1500,
      "ceiling_ft": null,
      "hazards": [
        "FG"
      ],
      "severityScore": 30,
      "metarRaw": "METAR LIRZ 161250Z AUTO VRB01KT 9999 NCD 11/08 Q1019",
      "tafRaw": "TAF LIRZ 161100Z 1612/1712 VRB04KT CAVOK \n  TEMPO 1703/1708 1500 BCFG"
    },
    {
      "icao": "LBWN",
      "iata": "VAR",
      "name": "Varna Airport",
      "updatedAt": "161300Z",
      "visibility_m": 10000,
      "taf_visibility_m": 1200,
      "worst_visibility_m": 1200,
      "ceiling_ft": 4900,
      "hazards": [
        "SN"
      ],
      "severityScore": 28,
      "metarRaw": "METAR LBWN 161300Z 06007KT 9999 BKN049 M01/M07 Q1029 NOSIG",
      "tafRaw": "TAF LBWN 161100Z 1612/1712 02010KT 9999 SCT020 OVC040 \n  TEMPO 1612/1616 3000 SN SCT010 OVC030 \n  PROB40 \n  TEMPO 1612/1614 1200 SN BKN010"
    },
    {
      "icao": "EDDK",
      "iata": "CGN",
      "name": "Cologne Bonn Airport",
      "updatedAt": "161250Z",
      "visibility_m": 10000,
      "taf_visibility_m": 10000,
      "worst_visibility_m": 10000,
      "ceiling_ft": 2700,
      "hazards": [
        "RA",
        "SHRA"
      ],
      "severityScore": 26,
      "metarRaw": "METAR EDDK 161250Z AUTO 17005KT 9999 -RA BKN027 11/08 Q1014 RESHRA TEMPO RA",
      "tafRaw": "TAF EDDK 161100Z 1612/1718 13007KT 9999 BKN040 \n  PROB30 \n  TEMPO 1612/1615 SHRA BKN025TCU"
    },
    {
      "icao": "ENVA",
      "iata": "TRD",
      "name": "Trondheim Airport, Værnes",
      "updatedAt": "161250Z",
      "visibility_m": 10000,
      "taf_visibility_m": 10000,
      "worst_visibility_m": 10000,
      "ceiling_ft": 5000,
      "hazards": [
        "SHRA",
        "RA"
      ],
      "severityScore": 26,
      "metarRaw": "METAR ENVA 161250Z 09011KT 9999 BKN050 04/M00 Q1007 NOSIG RMK WIND 670FT 11008KT",
      "tafRaw": "TAF ENVA 161100Z 1612/1712 12008KT CAVOK \n  PROB40 \n  TEMPO 1619/1709 21012KT SHRA SCT018CB BKN025"
    },
    {
      "icao": "LEMG",
      "iata": "AGP",
      "name": "Málaga-Costa del Sol Airport",
      "updatedAt": "161230Z",
      "visibility_m": 10000,
      "taf_visibility_m": 4000,
      "worst_visibility_m": 4000,
      "ceiling_ft": null,
      "hazards": [
        "SHRA",
        "RA"
      ],
      "severityScore": 26,
      "metarRaw": "METAR LEMG 161230Z VRB01KT 9999 FEW020 16/12 Q1015 NOSIG",
      "tafRaw": "TAF LEMG 161100Z 1612/1712 31006KT 9999 FEW030 SCT050 TX17/1614Z TN07/1707Z \n  PROB30 \n  TEMPO 1620/1624 4000 SHRA FEW025CB"
    },
    {
      "icao": "LEVC",
      "iata": "VLC",
      "name": "Valencia Airport",
      "updatedAt": "161230Z",
      "visibility_m": 10000,
      "taf_visibility_m": 4000,
      "worst_visibility_m": 4000,
      "ceiling_ft": 4500,
      "hazards": [
        "RA",
        "SHRA"
      ],
      "severityScore": 26,
      "metarRaw": "METAR LEVC 161230Z VRB02KT 9999 FEW030 BKN045 15/07 Q1013 NOSIG",
      "tafRaw": "TAF LEVC 161100Z 1612/1712 VRB04KT 9999 FEW030 TX15/1612Z TN04/1706Z \n  PROB40 \n  TEMPO 1616/1703 4000 RA SHRA FEW015TCU BKN020"
    },
    {
      "icao": "GCTS",
      "iata": "TFS",
      "name": "Tenerife Sur Airport",
      "updatedAt": "161230Z",
      "visibility_m": 10000,
      "taf_visibility_m": 10000,
      "worst_visibility_m": 10000,
      "ceiling_ft": null,
      "hazards": [
        "TS"
      ],
      "severityScore": 25,
      "metarRaw": "METAR GCTS 161230Z COR 23006KT 170V280 9999 FEW035 20/11 Q1025 NOSIG",
      "tafRaw": "TAF GCTS 160800Z 1609/1709 27010KT 9999 SCT035 TX22/1614Z TN14/1706Z \n  BECMG 1614/1616 20003KT \n  BECMG 1619/1621 04010KT"
    },
    {
      "icao": "EPSY",
      "iata": "SZY",
      "name": "Olsztyn-Mazury Airport",
      "updatedAt": "161230Z",
      "visibility_m": 6000,
      "taf_visibility_m": 7000,
      "worst_visibility_m": 6000,
      "ceiling_ft": 900,
      "hazards": [],
      "severityScore": 25,
      "metarRaw": "METAR EPSY 161230Z 14009KT 080V180 6000 BKN009 M04/M06 Q1027",
      "tafRaw": "TAF EPSY 161130Z 1612/1621 14008KT 7000 BKN010"
    },
    {
      "icao": "EYPA",
      "iata": "PLQ",
      "name": "Palanga International Airport",
      "updatedAt": "161250Z",
      "visibility_m": 10000,
      "taf_visibility_m": 6000,
      "worst_visibility_m": 6000,
      "ceiling_ft": 500,
      "hazards": [],
      "severityScore": 25,
      "metarRaw": "METAR EYPA 161250Z 15015KT CAVOK M04/M07 Q1027",
      "tafRaw": "TAF EYPA 161100Z 1612/1712 14012KT 6000 SCT010 BKN015 \n  TEMPO 1612/1614 SCT020 \n  TEMPO 1614/1709 SCT005 BKN010 \n  PROB40 \n  TEMPO 1614/1621 BKN005 \n  BECMG 1709/1710 VRB04KT SCT020"
    },
    {
      "icao": "EHEH",
      "iata": "EIN",
      "name": "Eindhoven Airport",
      "updatedAt": "161255Z",
      "visibility_m": 10000,
      "taf_visibility_m": 4500,
      "worst_visibility_m": 4500,
      "ceiling_ft": 3700,
      "hazards": [
        "RA",
        "DZ"
      ],
      "severityScore": 22,
      "metarRaw": "METAR EHEH 161255Z AUTO 21006KT 190V250 9999 FEW022 SCT025 OVC037 11/07 Q1013 BLU NOSIG RMK TREND REMOTE BY EHWX",
      "tafRaw": "TAF EHEH 161112Z 1612/1718 19003KT CAVOK \n  TEMPO 1612/1614 SCT014 \n  PROB40 \n  TEMPO 1623/1706 4500 -RADZ SCT020 BKN030 \n  BECMG 1715/1717 11004KT"
    },
    {
      "icao": "EPLB",
      "iata": "LUZ",
      "name": "Lublin Airport",
      "updatedAt": "161230Z",
      "visibility_m": 8000,
      "taf_visibility_m": 3000,
      "worst_visibility_m": 3000,
      "ceiling_ft": 1200,
      "hazards": [
        "BR"
      ],
      "severityScore": 22,
      "metarRaw": "METAR EPLB 161230Z 09008KT 8000 NSC M06/M09 Q1028",
      "tafRaw": "TAF EPLB 161130Z 1612/1712 11008KT 7000 NSC \n  TEMPO 1612/1616 BKN012 \n  PROB40 1617/1707 3000 BR"
    },
    {
      "icao": "EPWA",
      "iata": "WAW",
      "name": "Warsaw Chopin Airport",
      "updatedAt": "161230Z",
      "visibility_m": 8000,
      "taf_visibility_m": 1800,
      "worst_visibility_m": 1800,
      "ceiling_ft": 1200,
      "hazards": [
        "BR"
      ],
      "severityScore": 22,
      "metarRaw": "METAR EPWA 161230Z 13011KT 8000 BKN012 M03/M05 Q1027 TEMPO BKN022",
      "tafRaw": "TAF EPWA 161130Z 1612/1712 12010KT 7000 SCT010 BKN024 \n  TEMPO 1612/1711 3500 BR BKN012 \n  PROB40 1615/1709 1800 BR BKN005"
    },
    {
      "icao": "LIPZ",
      "iata": "VCE",
      "name": "Venice Marco Polo Airport",
      "updatedAt": "161250Z",
      "visibility_m": 5000,
      "taf_visibility_m": 2000,
      "worst_visibility_m": 2000,
      "ceiling_ft": 1000,
      "hazards": [
        "BR"
      ],
      "severityScore": 22,
      "metarRaw": "METAR LIPZ 161250Z VRB02KT 5000 BR FEW016 SCT045 08/05 Q1022 NOSIG",
      "tafRaw": "TAF LIPZ 161100Z 1612/1718 VRB04KT 6000 SCT030 \n  TEMPO 1621/1706 2000 BR BKN010"
    },
    {
      "icao": "LJLJ",
      "iata": "LJU",
      "name": "Ljubljana Jože Pučnik Airport",
      "updatedAt": "161230Z",
      "visibility_m": 10000,
      "taf_visibility_m": 2000,
      "worst_visibility_m": 2000,
      "ceiling_ft": 5000,
      "hazards": [
        "BR",
        "RA"
      ],
      "severityScore": 22,
      "metarRaw": "METAR LJLJ 161230Z 32002KT 9999 FEW040 BKN050 05/03 Q1020 NOSIG",
      "tafRaw": "TAF LJLJ 161100Z 1612/1712 30004KT 9999 FEW040 BKN050 \n  TEMPO 1620/1712 4000 BR \n  PROB40 \n  TEMPO 1620/1712 2000 -RA BR BKN013 OVC025"
    },
    {
      "icao": "LWSK",
      "iata": "SKP",
      "name": "Skopje International Airport",
      "updatedAt": "161250Z",
      "visibility_m": 10000,
      "taf_visibility_m": 1500,
      "worst_visibility_m": 1500,
      "ceiling_ft": 8500,
      "hazards": [
        "BR"
      ],
      "severityScore": 20,
      "metarRaw": "METAR LWSK 161250Z VRB01KT 9999 FEW042 BKN085 09/03 Q1023 NOSIG",
      "tafRaw": "TAF LWSK 161120Z 1612/1712 VRB02KT 9999 SCT050 BKN090 \n  TEMPO 1702/1710 5000 BR SCT015 BKN040 \n  PROB40 \n  TEMPO 1705/1708 1500 BKN010"
    },
    {
      "icao": "LMML",
      "iata": "MLA",
      "name": "Malta International Airport",
      "updatedAt": "161245Z",
      "visibility_m": 8000,
      "taf_visibility_m": null,
      "worst_visibility_m": 8000,
      "ceiling_ft": null,
      "hazards": [
        "RA"
      ],
      "severityScore": 17,
      "metarRaw": "METAR LMML 161245Z 18005KT 160V230 9999 -RA FEW020 16/14 Q1016 TEMPO 8000 RA",
      "tafRaw": null
    },
    {
      "icao": "LEBB",
      "iata": "BIO",
      "name": "Bilbao Airport",
      "updatedAt": "161230Z",
      "visibility_m": 10000,
      "taf_visibility_m": 3000,
      "worst_visibility_m": 3000,
      "ceiling_ft": null,
      "hazards": [
        "RA"
      ],
      "severityScore": 12,
      "metarRaw": "METAR LEBB 161230Z 18007KT 140V240 CAVOK 14/05 Q1010 NOSIG",
      "tafRaw": "TAF LEBB 161100Z 1612/1712 12006KT 9999 FEW045 TX14/1613Z TN06/1707Z \n  TEMPO 1612/1617 22010KT \n  PROB30 \n  TEMPO 1619/1704 3000 RA"
    },
    {
      "icao": "LEXJ",
      "iata": "SDR",
      "name": "Seve Ballesteros-Santander Airport",
      "updatedAt": "161230Z",
      "visibility_m": 10000,
      "taf_visibility_m": 3000,
      "worst_visibility_m": 3000,
      "ceiling_ft": null,
      "hazards": [
        "RA"
      ],
      "severityScore": 12,
      "metarRaw": "METAR LEXJ 161230Z 20006KT 140V250 CAVOK 14/04 Q1009",
      "tafRaw": "TAF LEXJ 160800Z 1609/1709 20009KT 9999 FEW045 TX15/1614Z TN06/1704Z \n  PROB40 1615/1618 29010KT \n  PROB40 \n  TEMPO 1618/1624 3000 RA"
    },
    {
      "icao": "LFLL",
      "iata": "LYS",
      "name": "Lyon Saint-Exupéry Airport",
      "updatedAt": "161230Z",
      "visibility_m": 10000,
      "taf_visibility_m": 10000,
      "worst_visibility_m": 10000,
      "ceiling_ft": 5000,
      "hazards": [
        "RA"
      ],
      "severityScore": 12,
      "metarRaw": "METAR LFLL 161230Z 12006KT CAVOK 14/05 Q1013 NOSIG",
      "tafRaw": "TAF LFLL 161100Z 1612/1718 14006KT CAVOK \n  PROB30 \n  TEMPO 1707/1715 RA BKN050"
    },
    {
      "icao": "LFLS",
      "iata": "GNB",
      "name": "Grenoble Alpes Isère Airport",
      "updatedAt": "161230Z",
      "visibility_m": 10000,
      "taf_visibility_m": 10000,
      "worst_visibility_m": 10000,
      "ceiling_ft": 5000,
      "hazards": [
        "RA"
      ],
      "severityScore": 12,
      "metarRaw": "METAR LFLS 161230Z AUTO 18015KT CAVOK 15/01 Q1013 BECMG VRB03KT",
      "tafRaw": "TAF LFLS 160800Z 1609/1709 VRB03KT CAVOK \n  BECMG 1616/1618 12006KT \n  PROB30 \n  TEMPO 1621/1623 23006KT -RA BKN060 \n  BECMG 1704/1706 07008KT RA BKN050"
    },
    {
      "icao": "LFMN",
      "iata": "NCE",
      "name": "Nice-Côte d'Azur Airport",
      "updatedAt": "161230Z",
      "visibility_m": 10000,
      "taf_visibility_m": 4000,
      "worst_visibility_m": 4000,
      "ceiling_ft": 9300,
      "hazards": [
        "RA"
      ],
      "severityScore": 12,
      "metarRaw": "METAR LFMN 161230Z 32010KT 9999 FEW033 OVC093 13/04 Q1018 NOSIG",
      "tafRaw": "TAF LFMN 160800Z 1609/1715 33010KT 9999 FEW025 BKN100 \n  BECMG 1612/1615 09015KT \n  PROB30 \n  TEMPO 1617/1621 08025KT \n  BECMG 1621/1624 01012KT \n  PROB40 \n  TEMPO 1700/1709 4000 RA \n  BECMG 1712/1715 09015KT"
    },
    {
      "icao": "LGAV",
      "iata": "ATH",
      "name": "Athens Eleftherios Venizelos International Airport",
      "updatedAt": "161250Z",
      "visibility_m": 10000,
      "taf_visibility_m": 5000,
      "worst_visibility_m": 5000,
      "ceiling_ft": 4000,
      "hazards": [
        "RA"
      ],
      "severityScore": 12,
      "metarRaw": "METAR LGAV 161250Z 08003KT 9999 FEW025 BKN040 14/08 Q1022 NOSIG",
      "tafRaw": "TAF LGAV 161100Z 1612/1712 VRB03KT 9999 FEW030 \n  BECMG 1622/1624 04012KT SCT020 BKN030 \n  BECMG 1704/1706 03018G28KT \n  PROB30 \n  TEMPO 1703/1712 5000 RA FEW012 BKN020"
    },
    {
      "icao": "LICA",
      "iata": "SUF",
      "name": "Lamezia Terme Sant'Eufemia International Airport",
      "updatedAt": "161250Z",
      "visibility_m": 10000,
      "taf_visibility_m": 10000,
      "worst_visibility_m": 10000,
      "ceiling_ft": null,
      "hazards": [
        "RA"
      ],
      "severityScore": 12,
      "metarRaw": "METAR LICA 161250Z AUTO 07016KT 9999 NCD 16/12 Q1018",
      "tafRaw": "TAF LICA 161100Z 1612/1712 08012KT CAVOK \n  TEMPO 1704/1710 RA"
    },
    {
      "icao": "LICC",
      "iata": "CTA",
      "name": "Catania-Fontanarossa Airport",
      "updatedAt": "161250Z",
      "visibility_m": 8000,
      "taf_visibility_m": 10000,
      "worst_visibility_m": 8000,
      "ceiling_ft": 3000,
      "hazards": [
        "RA"
      ],
      "severityScore": 12,
      "metarRaw": "METAR LICC 161250Z 17002KT 8000 BKN030 15/12 Q1018",
      "tafRaw": "TAF LICC 161100Z 1612/1712 VRB05KT 9999 SCT020 \n  TEMPO 1615/1703 RA \n  BECMG 1618/1620 08010KT"
    },
    {
      "icao": "LICJ",
      "iata": "PMO",
      "name": "Falcone–Borsellino Airport",
      "updatedAt": "161250Z",
      "visibility_m": 10000,
      "taf_visibility_m": 10000,
      "worst_visibility_m": 10000,
      "ceiling_ft": null,
      "hazards": [
        "RA"
      ],
      "severityScore": 12,
      "metarRaw": "METAR LICJ 161250Z 19005KT 080V230 CAVOK 15/10 Q1016",
      "tafRaw": "TAF LICJ 161100Z 1612/1712 VRB06KT CAVOK \n  TEMPO 1621/1701 RA"
    },
    {
      "icao": "LIMF",
      "iata": "TRN",
      "name": "Turin Airport",
      "updatedAt": "161250Z",
      "visibility_m": 7000,
      "taf_visibility_m": 4000,
      "worst_visibility_m": 4000,
      "ceiling_ft": 12000,
      "hazards": [
        "RA"
      ],
      "severityScore": 12,
      "metarRaw": "METAR LIMF 161250Z VRB02KT 7000 SCT070 BKN120 09/03 Q1021",
      "tafRaw": "TAF LIMF 161100Z 1612/1712 VRB03KT 6000 SCT020 BKN060 \n  TEMPO 1615/1712 4000 RA"
    },
    {
      "icao": "LIMJ",
      "iata": "GOA",
      "name": "Genoa Cristoforo Colombo Airport",
      "updatedAt": "161250Z",
      "visibility_m": 10000,
      "taf_visibility_m": 4000,
      "worst_visibility_m": 4000,
      "ceiling_ft": 3000,
      "hazards": [
        "RA"
      ],
      "severityScore": 12,
      "metarRaw": "METAR LIMJ 161250Z 04014KT 9999 -RA SCT022 BKN030 10/07 Q1019",
      "tafRaw": "TAF LIMJ 161100Z 1612/1712 04014KT 9999 BKN030 \n  TEMPO 1612/1624 4000 RA"
    },
    {
      "icao": "LLBG",
      "iata": "TLV",
      "name": "Ben Gurion International Airport",
      "updatedAt": "161250Z",
      "visibility_m": 10000,
      "taf_visibility_m": 8000,
      "worst_visibility_m": 8000,
      "ceiling_ft": 4300,
      "hazards": [
        "RA"
      ],
      "severityScore": 12,
      "metarRaw": "METAR LLBG 161250Z 02007KT 9999 BKN043 18/08 Q1020 NOSIG",
      "tafRaw": "TAF LLBG 161107Z 1612/1712 32008KT 9999 FEW045 \n  BECMG 1615/1617 VRB04KT SCT040 \n  BECMG 1708/1710 22008KT \n  PROB30 \n  TEMPO 1710/1712 27010KT 8000 RA BKN035 TX19/1612Z TN08/1704Z"
    },
    {
      "icao": "LYNI",
      "iata": "INI",
      "name": "Niš Constantine the Great Airport",
      "updatedAt": "161230Z",
      "visibility_m": 10000,
      "taf_visibility_m": 10000,
      "worst_visibility_m": 10000,
      "ceiling_ft": 1300,
      "hazards": [],
      "severityScore": 12,
      "metarRaw": "METAR LYNI 161230Z 06013KT 9999 FEW017 07/02 Q1024 NOSIG",
      "tafRaw": "TAF LYNI 161100Z 1612/1712 05012KT 9999 FEW015 SCT040 TX09/1612Z TNM01/1706Z \n  PROB30 \n  TEMPO 1618/1702 BKN013 BKN030"
    },
    {
      "icao": "BKPR",
      "iata": "PRN",
      "name": "Priština Adem Jashari International Airport",
      "updatedAt": "161300Z",
      "visibility_m": 10000,
      "taf_visibility_m": 3000,
      "worst_visibility_m": 3000,
      "ceiling_ft": 6000,
      "hazards": [
        "BR"
      ],
      "severityScore": 10,
      "metarRaw": "METAR BKPR 161300Z VRB01KT 9999 FEW040 SCT080 08/05 Q1022 NOSIG",
      "tafRaw": "TAF BKPR 161130Z 1612/1712 VRB05KT 8000 BKN060 \n  TEMPO 1701/1708 3000 BR"
    },
    {
      "icao": "GCLP",
      "iata": "LPA",
      "name": "Gran Canaria Airport",
      "updatedAt": "161230Z",
      "visibility_m": 10000,
      "taf_visibility_m": 10000,
      "worst_visibility_m": 10000,
      "ceiling_ft": null,
      "hazards": [
        "DZ"
      ],
      "severityScore": 10,
      "metarRaw": "METAR GCLP 161230Z 01018KT 9999 FEW025 SCT035 19/14 Q1025 NOSIG",
      "tafRaw": "TAF GCLP 160800Z 1609/1709 01019KT 9999 SCT035 TX22/1614Z TN15/1706Z \n  PROB40 \n  TEMPO 1614/1709 01020G30KT \n  PROB30 \n  TEMPO 1618/1621 DZ"
    },
    {
      "icao": "EYKA",
      "iata": "KUN",
      "name": "Kaunas International Airport",
      "updatedAt": "161250Z",
      "visibility_m": 10000,
      "taf_visibility_m": 3000,
      "worst_visibility_m": 3000,
      "ceiling_ft": null,
      "hazards": [
        "BR"
      ],
      "severityScore": 10,
      "metarRaw": "METAR EYKA 161250Z 17008KT 120V250 CAVOK M11/M15 Q1032",
      "tafRaw": "TAF EYKA 161100Z 1612/1712 VRB04KT 7000 NSC \n  TEMPO 1612/1618 15010KT 3000 BR \n  BECMG 1618/1619 16010KT"
    },
    {
      "icao": "HESX",
      "iata": "SPX",
      "name": "Sphinx International Airport",
      "updatedAt": "161200Z",
      "visibility_m": 10000,
      "taf_visibility_m": 3000,
      "worst_visibility_m": 3000,
      "ceiling_ft": null,
      "hazards": [
        "BR"
      ],
      "severityScore": 10,
      "metarRaw": "METAR HESX 161200Z 04010KT 9999 SCT030 18/08 Q1021 NOSIG",
      "tafRaw": "TAF HESX 161100Z 1612/1718 01006KT 9999 SCT025 \n  TEMPO 1700/1708 3000 BR"
    },
    {
      "icao": "LIPQ",
      "iata": "TRS",
      "name": "Trieste–Friuli Venezia Giulia Airport",
      "updatedAt": "161250Z",
      "visibility_m": 4600,
      "taf_visibility_m": 3000,
      "worst_visibility_m": 3000,
      "ceiling_ft": 2000,
      "hazards": [
        "BR"
      ],
      "severityScore": 10,
      "metarRaw": "METAR LIPQ 161250Z AUTO 18003KT 4600 BR OVC010/// 10/08 Q1022",
      "tafRaw": "TAF LIPQ 161100Z 1612/1712 VRB04KT 8000 BKN020 \n  BECMG 1616/1618 3000 BR \n  BECMG 1707/1709 6000"
    },
    {
      "icao": "LRBS",
      "iata": "BBU",
      "name": "Bucharest Băneasa Aurel Vlaicu International Airport",
      "updatedAt": "161230Z",
      "visibility_m": 10000,
      "taf_visibility_m": 3000,
      "worst_visibility_m": 3000,
      "ceiling_ft": null,
      "hazards": [
        "BR"
      ],
      "severityScore": 10,
      "metarRaw": "METAR LRBS 161230Z 06012KT 030V090 CAVOK M03/M07 Q1031 NOSIG",
      "tafRaw": "TAF LRBS 161100Z 1612/1712 07015KT CAVOK \n  BECMG 1618/1620 06005KT 5000 BR \n  PROB30 \n  TEMPO 1621/1707 3000 BR \n  BECMG 1707/1709 CAVOK"
    },
    {
      "icao": "LRBV",
      "iata": "GHV",
      "name": "Brașov-Ghimbav International Airport",
      "updatedAt": "161230Z",
      "visibility_m": 10000,
      "taf_visibility_m": 5000,
      "worst_visibility_m": 5000,
      "ceiling_ft": 3000,
      "hazards": [
        "BR"
      ],
      "severityScore": 10,
      "metarRaw": "METAR LRBV 161230Z 09011KT 9999 BKN030 BKN039 M01/M06 Q1026",
      "tafRaw": "TAF LRBV 161100Z 1612/1621 10010KT 5000 BR SCT020 BKN035 \n  BECMG 1619/1621 VRB04KT"
    },
    {
      "icao": "LRCL",
      "iata": "CLJ",
      "name": "Cluj Avram Iancu International Airport",
      "updatedAt": "161230Z",
      "visibility_m": 8000,
      "taf_visibility_m": 5000,
      "worst_visibility_m": 5000,
      "ceiling_ft": 2000,
      "hazards": [
        "BR"
      ],
      "severityScore": 10,
      "metarRaw": "METAR LRCL 161230Z 07006KT 8000 SCT011 OVC020 02/00 Q1026",
      "tafRaw": "TAF LRCL 161100Z 1612/1621 VRB04KT 5000 BR BKN010 \n  BECMG 1613/1615 13010KT 9999 NSW SCT020"
    },
    {
      "icao": "LROP",
      "iata": "OTP",
      "name": "Bucharest Henri Coandă International Airport",
      "updatedAt": "161230Z",
      "visibility_m": 10000,
      "taf_visibility_m": 3000,
      "worst_visibility_m": 3000,
      "ceiling_ft": null,
      "hazards": [
        "BR"
      ],
      "severityScore": 10,
      "metarRaw": "METAR LROP 161230Z 07014KT CAVOK M03/M09 Q1031 NOSIG",
      "tafRaw": "TAF LROP 161100Z 1612/1712 07015KT CAVOK \n  BECMG 1618/1620 06005KT 5000 BR \n  PROB30 \n  TEMPO 1621/1707 3000 BR \n  BECMG 1707/1709 CAVOK"
    },
    {
      "icao": "LYBE",
      "iata": "BEG",
      "name": "Belgrade Nikola Tesla Airport",
      "updatedAt": "161230Z",
      "visibility_m": 8000,
      "taf_visibility_m": 5000,
      "worst_visibility_m": 5000,
      "ceiling_ft": null,
      "hazards": [
        "BR"
      ],
      "severityScore": 10,
      "metarRaw": "METAR LYBE 161230Z 09007KT 8000 NSC 06/03 Q1023 BECMG 15012KT",
      "tafRaw": "TAF LYBE 161100Z 1612/1712 06004KT CAVOK TX06/1612Z TNM00/1706Z \n  TEMPO 1612/1614 5000 BR \n  BECMG 1613/1615 12012KT \n  TEMPO 1620/1701 13015G25KT"
    },
    {
      "icao": "LZKZ",
      "iata": "KSC",
      "name": "Košice International Airport",
      "updatedAt": "161300Z",
      "visibility_m": 10000,
      "taf_visibility_m": 2500,
      "worst_visibility_m": 2500,
      "ceiling_ft": 2500,
      "hazards": [
        "BR"
      ],
      "severityScore": 10,
      "metarRaw": "METAR LZKZ 161300Z 36005KT 9999 OVC025 03/00 Q1025 NOSIG",
      "tafRaw": "TAF LZKZ 161115Z 1612/1712 01005KT 9999 BKN015 OVC020 \n  TEMPO 1703/1709 2500 BR BKN009 OVC014 \n  BECMG 1709/1711 SCT020"
    },
    {
      "icao": "UDSG",
      "iata": "LWN",
      "name": "Shirak International Airport",
      "updatedAt": "161230Z",
      "visibility_m": 10000,
      "taf_visibility_m": 5000,
      "worst_visibility_m": 5000,
      "ceiling_ft": 4900,
      "hazards": [
        "BR"
      ],
      "severityScore": 10,
      "metarRaw": "METAR UDSG 161230Z 23002KT 9999 BKN049 M08/M14 Q1020 NOSIG",
      "tafRaw": "TAF UDSG 161100Z 1612/1712 VRB06KT 9999 BKN050 \n  TEMPO 1614/1624 5000 BR OVC040"
    },
    {
      "icao": "EDNY",
      "iata": "FDH",
      "name": "Friedrichshafen Airport",
      "updatedAt": "161250Z",
      "visibility_m": 9000,
      "taf_visibility_m": null,
      "worst_visibility_m": 9000,
      "ceiling_ft": null,
      "hazards": [],
      "severityScore": 5,
      "metarRaw": "METAR EDNY 161250Z 00000KT 9000 NSC 05/03 Q1018",
      "tafRaw": null
    },
    {
      "icao": "ENAL",
      "iata": "AES",
      "name": "Ålesund Airport, Vigra",
      "updatedAt": "161250Z",
      "visibility_m": 10000,
      "taf_visibility_m": null,
      "worst_visibility_m": 10000,
      "ceiling_ft": null,
      "hazards": [],
      "severityScore": 5,
      "metarRaw": "METAR ENAL 161250Z 14009KT 9999 SCT060 07/M01 Q1003",
      "tafRaw": null
    },
    {
      "icao": "LECH",
      "iata": "CDT",
      "name": "Castellón-Costa Azahar Airport",
      "updatedAt": "161230Z",
      "visibility_m": 10000,
      "taf_visibility_m": null,
      "worst_visibility_m": 10000,
      "ceiling_ft": 6000,
      "hazards": [],
      "severityScore": 5,
      "metarRaw": "METAR LECH 161230Z AUTO 14003KT 070V210 9999 FEW023 BKN060 12/06 Q1013",
      "tafRaw": null
    },
    {
      "icao": "LEZL",
      "iata": "SVQ",
      "name": "Sevilla Airport",
      "updatedAt": "161230Z",
      "visibility_m": 10000,
      "taf_visibility_m": null,
      "worst_visibility_m": 10000,
      "ceiling_ft": null,
      "hazards": [],
      "severityScore": 5,
      "metarRaw": "METAR LEZL 161230Z 28008KT 250V320 CAVOK 16/08 Q1015 NOSIG",
      "tafRaw": null
    },
    {
      "icao": "BIKF",
      "iata": "KEF",
      "name": "Keflavik International Airport",
      "updatedAt": "161230Z",
      "visibility_m": 10000,
      "taf_visibility_m": 10000,
      "worst_visibility_m": 10000,
      "ceiling_ft": 3000,
      "hazards": [],
      "severityScore": 0,
      "metarRaw": "METAR BIKF 161230Z 01011KT 9999 SCT025 02/M01 Q1003",
      "tafRaw": "TAF BIKF 161032Z 1612/1712 02015KT 9999 SCT020 BKN030 TX02/1612Z TNM03/1706Z \n  BECMG 1623/1701 08008KT \n  BECMG 1709/1711 12012KT"
    },
    {
      "icao": "GCFV",
      "iata": "FUE",
      "name": "Fuerteventura Airport",
      "updatedAt": "161230Z",
      "visibility_m": 10000,
      "taf_visibility_m": 10000,
      "worst_visibility_m": 10000,
      "ceiling_ft": 3500,
      "hazards": [],
      "severityScore": 0,
      "metarRaw": "METAR GCFV 161230Z 02007KT 290V070 9999 BKN035 20/10 Q1024",
      "tafRaw": "TAF GCFV 160800Z 1609/1709 03007KT 9999 SCT035 TX22/1614Z TN14/1706Z \n  TEMPO 1613/1619 33012KT"
    },
    {
      "icao": "GMAD",
      "iata": "AGA",
      "name": "Al Massira Airport",
      "updatedAt": "161230Z",
      "visibility_m": 10000,
      "taf_visibility_m": 10000,
      "worst_visibility_m": 10000,
      "ceiling_ft": null,
      "hazards": [],
      "severityScore": 0,
      "metarRaw": "METAR GMAD 161230Z 23005KT 190V260 9999 FEW020 17/13 Q1022 NOSIG",
      "tafRaw": "TAF GMAD 161100Z 1612/1718 09003KT CAVOK \n  BECMG 1616/1618 27010KT"
    },
    {
      "icao": "EBCI",
      "iata": "CRL",
      "name": "Brussels South Charleroi Airport",
      "updatedAt": "161250Z",
      "visibility_m": 10000,
      "taf_visibility_m": 10000,
      "worst_visibility_m": 10000,
      "ceiling_ft": 3000,
      "hazards": [],
      "severityScore": 0,
      "metarRaw": "METAR EBCI 161250Z 21008KT 9999 SCT018 BKN030 10/06 Q1013 NOSIG",
      "tafRaw": "TAF EBCI 161109Z 1612/1718 19007KT 9999 FEW020 SCT030 \n  TEMPO 1700/1705 SCT005 BKN009 \n  PROB30 1701/1704 BKN005"
    },
    {
      "icao": "EDJA",
      "iata": "FMM",
      "name": "Memmingen Allgau Airport",
      "updatedAt": "161250Z",
      "visibility_m": 10000,
      "taf_visibility_m": 10000,
      "worst_visibility_m": 10000,
      "ceiling_ft": null,
      "hazards": [],
      "severityScore": 0,
      "metarRaw": "METAR EDJA 161250Z 34003KT CAVOK 10/02 Q1017",
      "tafRaw": "TAF EDJA 161100Z 1612/1621 05005KT CAVOK"
    },
    {
      "icao": "EDLW",
      "iata": "DTM",
      "name": "Dortmund Airport",
      "updatedAt": "161250Z",
      "visibility_m": 10000,
      "taf_visibility_m": 10000,
      "worst_visibility_m": 10000,
      "ceiling_ft": 2700,
      "hazards": [],
      "severityScore": 0,
      "metarRaw": "METAR EDLW 161250Z 19010KT 9999 BKN027 12/06 Q1013",
      "tafRaw": "TAF EDLW 161100Z 1612/1712 19008KT 9999 SCT040 \n  BECMG 1616/1619 13005KT"
    },
    {
      "icao": "ENTC",
      "iata": "TOS",
      "name": "Tromsø Airport, Langnes",
      "updatedAt": "161250Z",
      "visibility_m": 10000,
      "taf_visibility_m": 10000,
      "worst_visibility_m": 10000,
      "ceiling_ft": null,
      "hazards": [],
      "severityScore": 0,
      "metarRaw": "METAR ENTC 161250Z 24007KT CAVOK M02/M06 Q1012 NOSIG RMK WIND 2600FT 21005KT",
      "tafRaw": "TAF ENTC 161100Z 1612/1712 22012KT CAVOK \n  TEMPO 1618/1710 02005KT"
    },
    {
      "icao": "HEGN",
      "iata": "HRG",
      "name": "Hurghada International Airport",
      "updatedAt": "161200Z",
      "visibility_m": 10000,
      "taf_visibility_m": 10000,
      "worst_visibility_m": 10000,
      "ceiling_ft": null,
      "hazards": [],
      "severityScore": 0,
      "metarRaw": "METAR HEGN 161200Z 01004KT CAVOK 21/07 Q1018 NOSIG",
      "tafRaw": "TAF HEGN 161100Z 1612/1718 01012KT CAVOK"
    },
    {
      "icao": "HEMA",
      "iata": "RMF",
      "name": "Marsa Alam International Airport",
      "updatedAt": "161200Z",
      "visibility_m": 10000,
      "taf_visibility_m": 10000,
      "worst_visibility_m": 10000,
      "ceiling_ft": null,
      "hazards": [],
      "severityScore": 0,
      "metarRaw": "METAR HEMA 161200Z 35017KT 9999 SCT020 22/11 Q1017 NOSIG",
      "tafRaw": "TAF HEMA 161100Z 1612/1718 36015KT 9999 FEW025"
    },
    {
      "icao": "HESH",
      "iata": "SSH",
      "name": "Sharm El Sheikh International Airport",
      "updatedAt": null,
      "visibility_m": null,
      "taf_visibility_m": 10000,
      "worst_visibility_m": 10000,
      "ceiling_ft": null,
      "hazards": [],
      "severityScore": 0,
      "metarRaw": null,
      "tafRaw": "TAF HESH 161100Z 1612/1718 03010KT CAVOK"
    },
    {
      "icao": "LATI",
      "iata": "TIA",
      "name": "Tirana International Airport Mother Teresa",
      "updatedAt": "161250Z",
      "visibility_m": 10000,
      "taf_visibility_m": 10000,
      "worst_visibility_m": 10000,
      "ceiling_ft": 5100,
      "hazards": [],
      "severityScore": 0,
      "metarRaw": "METAR LATI 161250Z 31004KT 280V010 9999 BKN051 BKN082 17/05 Q1021 NOSIG",
      "tafRaw": "TAF LATI 161100Z 1612/1712 VRB05KT 9999 FEW050 BKN080 TX16/1612Z TN05/1705Z"
    },
    {
      "icao": "LCLK",
      "iata": "LCA",
      "name": "Larnaca International Airport",
      "updatedAt": "161230Z",
      "visibility_m": 10000,
      "taf_visibility_m": 10000,
      "worst_visibility_m": 10000,
      "ceiling_ft": null,
      "hazards": [],
      "severityScore": 0,
      "metarRaw": "METAR LCLK 161230Z 17004KT 130V190 9999 FEW030 18/09 Q1020 NOSIG",
      "tafRaw": "TAF LCLK 161130Z 1612/1712 18010KT 9999 FEW025 \n  BECMG 1615/1617 33006KT"
    },
    {
      "icao": "LCPH",
      "iata": "PFO",
      "name": "Paphos International Airport",
      "updatedAt": "161230Z",
      "visibility_m": 10000,
      "taf_visibility_m": 10000,
      "worst_visibility_m": 10000,
      "ceiling_ft": null,
      "hazards": [],
      "severityScore": 0,
      "metarRaw": "METAR LCPH 161230Z 26006KT 240V320 9999 FEW025 17/10 Q1020 NOSIG",
      "tafRaw": "TAF LCPH 161130Z 1612/1712 21010KT 9999 FEW025 \n  BECMG 1612/1614 30010KT \n  BECMG 1616/1618 03007KT \n  BECMG 1710/1712 15010KT"
    },
    {
      "icao": "LFSB",
      "iata": "BSL",
      "name": "EuroAirport Basel–Mulhouse–Freiburg",
      "updatedAt": "161230Z",
      "visibility_m": 10000,
      "taf_visibility_m": 10000,
      "worst_visibility_m": 10000,
      "ceiling_ft": null,
      "hazards": [],
      "severityScore": 0,
      "metarRaw": "METAR LFSB 161230Z AUTO 12010KT CAVOK 11/03 Q1016 NOSIG",
      "tafRaw": "TAF LFSB 161100Z 1612/1712 15008KT CAVOK"
    },
    {
      "icao": "LIBD",
      "iata": "BRI",
      "name": "Bari Karol Wojtyła International Airport",
      "updatedAt": "161250Z",
      "visibility_m": 10000,
      "taf_visibility_m": 10000,
      "worst_visibility_m": 10000,
      "ceiling_ft": null,
      "hazards": [],
      "severityScore": 0,
      "metarRaw": "METAR LIBD 161250Z 34005KT 300V020 CAVOK 12/08 Q1020",
      "tafRaw": "TAF LIBD 161100Z 1612/1712 VRB05KT 9999 FEW030"
    },
    {
      "icao": "LIBG",
      "iata": "TAR",
      "name": "Taranto-Grottaglie Marcello Arlotta Airport",
      "updatedAt": "161150Z",
      "visibility_m": 10000,
      "taf_visibility_m": 8000,
      "worst_visibility_m": 8000,
      "ceiling_ft": null,
      "hazards": [],
      "severityScore": 0,
      "metarRaw": "METAR LIBG 161150Z VRB02KT CAVOK 15/15 Q1020",
      "tafRaw": "TAF LIBG 161100Z 1612/1621 VRB05KT 8000 FEW025"
    },
    {
      "icao": "LIBP",
      "iata": "PSR",
      "name": "Abruzzo Airport",
      "updatedAt": "161250Z",
      "visibility_m": 10000,
      "taf_visibility_m": 10000,
      "worst_visibility_m": 10000,
      "ceiling_ft": null,
      "hazards": [],
      "severityScore": 0,
      "metarRaw": "METAR LIBP 161250Z AUTO 06008KT 9999 NCD 12/06 Q1021",
      "tafRaw": "TAF LIBP 161100Z 1612/1712 VRB05KT CAVOK"
    },
    {
      "icao": "LIPH",
      "iata": "TSF",
      "name": "Treviso Antonio Canova Airport",
      "updatedAt": "161250Z",
      "visibility_m": 10000,
      "taf_visibility_m": 7000,
      "worst_visibility_m": 7000,
      "ceiling_ft": null,
      "hazards": [],
      "severityScore": 0,
      "metarRaw": "METAR LIPH 161250Z VRB02KT CAVOK 11/05 Q1021",
      "tafRaw": "TAF LIPH 161100Z 1612/1712 VRB04KT 7000 SCT040"
    },
    {
      "icao": "LIRF",
      "iata": "FCO",
      "name": "Rome–Fiumicino Leonardo da Vinci International Airport",
      "updatedAt": "161250Z",
      "visibility_m": 10000,
      "taf_visibility_m": 10000,
      "worst_visibility_m": 10000,
      "ceiling_ft": null,
      "hazards": [],
      "severityScore": 0,
      "metarRaw": "METAR LIRF 161250Z 05006KT CAVOK 14/07 Q1018 NOSIG",
      "tafRaw": "TAF LIRF 161100Z 1612/1718 06007KT CAVOK"
    },
    {
      "icao": "LIRN",
      "iata": "NAP",
      "name": "Naples International Airport",
      "updatedAt": "161250Z",
      "visibility_m": 10000,
      "taf_visibility_m": 10000,
      "worst_visibility_m": 10000,
      "ceiling_ft": null,
      "hazards": [],
      "severityScore": 0,
      "metarRaw": "METAR LIRN 161250Z VRB03KT CAVOK 16/03 Q1018 NOSIG",
      "tafRaw": "TAF LIRN 161100Z 1612/1712 VRB05KT CAVOK"
    },
    {
      "icao": "LIRP",
      "iata": "PSA",
      "name": "Pisa International Airport",
      "updatedAt": "161245Z",
      "visibility_m": 10000,
      "taf_visibility_m": 10000,
      "worst_visibility_m": 10000,
      "ceiling_ft": 6000,
      "hazards": [],
      "severityScore": 0,
      "metarRaw": "METAR LIRP 161245Z 12006KT 9999 BKN060 14/10 Q1019 NOSIG",
      "tafRaw": "TAF LIRP 161100Z 1612/1712 12010KT 9999 BKN030"
    },
    {
      "icao": "LRIA",
      "iata": "IAS",
      "name": "Iaşi Airport",
      "updatedAt": "161230Z",
      "visibility_m": 10000,
      "taf_visibility_m": 10000,
      "worst_visibility_m": 10000,
      "ceiling_ft": null,
      "hazards": [],
      "severityScore": 0,
      "metarRaw": "METAR LRIA 161230Z 32006KT CAVOK M09/M14 Q1034",
      "tafRaw": "TAF LRIA 161100Z 1612/1621 33005KT CAVOK"
    },
    {
      "icao": "LRBC",
      "iata": "BCM",
      "name": "Bacău George Enescu International  Airport",
      "updatedAt": "161230Z",
      "visibility_m": 10000,
      "taf_visibility_m": 10000,
      "worst_visibility_m": 10000,
      "ceiling_ft": null,
      "hazards": [],
      "severityScore": 0,
      "metarRaw": "METAR LRBC 161230Z 36006KT 320V040 CAVOK M03/M11 Q1033",
      "tafRaw": "TAF LRBC 161100Z 1612/1621 01006KT CAVOK"
    },
    {
      "icao": "LRSM",
      "iata": "SUJ",
      "name": "Satu Mare International Airport",
      "updatedAt": "161230Z",
      "visibility_m": 10000,
      "taf_visibility_m": 10000,
      "worst_visibility_m": 10000,
      "ceiling_ft": null,
      "hazards": [],
      "severityScore": 0,
      "metarRaw": "METAR LRSM 161230Z 11006KT CAVOK 05/M01 Q1025",
      "tafRaw": "TAF LRSM 161100Z 1612/1621 10006KT CAVOK"
    },
    {
      "icao": "LRSV",
      "iata": "SCV",
      "name": "Suceava Stefan cel Mare Airport",
      "updatedAt": "161230Z",
      "visibility_m": 8000,
      "taf_visibility_m": 7000,
      "worst_visibility_m": 7000,
      "ceiling_ft": null,
      "hazards": [],
      "severityScore": 0,
      "metarRaw": "METAR LRSV 161230Z COR 08004KT 8000 NSC M09/M11 Q1031",
      "tafRaw": "TAF LRSV 161100Z 1612/1621 08004KT 7000 NSC"
    },
    {
      "icao": "LRTM",
      "iata": "TGM",
      "name": "Târgu Mureş Transilvania International Airport",
      "updatedAt": "161230Z",
      "visibility_m": 8000,
      "taf_visibility_m": 10000,
      "worst_visibility_m": 8000,
      "ceiling_ft": 3200,
      "hazards": [],
      "severityScore": 0,
      "metarRaw": "METAR LRTM 161230Z 07001KT 8000 SCT023 BKN032 02/M02 Q1026",
      "tafRaw": "TAF LRTM 161100Z 1612/1621 VRB04KT 9999 SCT020"
    },
    {
      "icao": "LWOH",
      "iata": "OHD",
      "name": "Ohrid St. Paul the Apostle Airport",
      "updatedAt": "161250Z",
      "visibility_m": 10000,
      "taf_visibility_m": 10000,
      "worst_visibility_m": 10000,
      "ceiling_ft": 5000,
      "hazards": [],
      "severityScore": 0,
      "metarRaw": "METAR LWOH 161250Z VRB02KT 9999 BKN050 08/04 Q1022",
      "tafRaw": "TAF LWOH 161120Z 1612/1712 VRB02KT 9999 SCT050"
    },
    {
      "icao": "OEJN",
      "iata": "JED",
      "name": "King Abdulaziz International Airport",
      "updatedAt": "161300Z",
      "visibility_m": 10000,
      "taf_visibility_m": 3000,
      "worst_visibility_m": 3000,
      "ceiling_ft": null,
      "hazards": [],
      "severityScore": 0,
      "metarRaw": "METAR OEJN 161300Z 29010KT CAVOK 30/09 Q1011 NOSIG",
      "tafRaw": "TAF OEJN 161100Z 1612/1718 30010KT 7000 FEW040 \n  BECMG 1620/1622 VRB03KT 7000 \n  PROB30 \n  TEMPO 1622/1706 3000 HZ \n  BECMG 1710/1712 26010KT SCT030"
    },
    {
      "icao": "OEMA",
      "iata": "MED",
      "name": "Prince Mohammad Bin Abdulaziz Airport",
      "updatedAt": "161300Z",
      "visibility_m": 10000,
      "taf_visibility_m": 3000,
      "worst_visibility_m": 3000,
      "ceiling_ft": null,
      "hazards": [],
      "severityScore": 0,
      "metarRaw": "METAR OEMA 161300Z 09008KT CAVOK 22/02 Q1019 NOSIG",
      "tafRaw": "TAF OEMA 161100Z 1612/1718 10012KT 7000 NSC \n  PROB30 \n  TEMPO 1612/1618 3000 DU"
    },
    {
      "icao": "OJAI",
      "iata": "AMM",
      "name": "Queen Alia International Airport",
      "updatedAt": "161200Z",
      "visibility_m": 5000,
      "taf_visibility_m": 5000,
      "worst_visibility_m": 5000,
      "ceiling_ft": null,
      "hazards": [],
      "severityScore": 0,
      "metarRaw": "METAR OJAI 161200Z 15003KT 5000 HZ SCT025 13/05 Q1022 NOSIG",
      "tafRaw": "TAF OJAI 161041Z 1612/1718 17008KT 5000 HZ FEW035 \n  BECMG 1700/1706 VRB02KT"
    },
    {
      "icao": "OMAA",
      "iata": "AUH",
      "name": "Zayed International Airport",
      "updatedAt": "161300Z",
      "visibility_m": 10000,
      "taf_visibility_m": 8000,
      "worst_visibility_m": 8000,
      "ceiling_ft": null,
      "hazards": [],
      "severityScore": 0,
      "metarRaw": "METAR OMAA 161300Z 29015KT 9999 SCT040 21/10 Q1018 NOSIG",
      "tafRaw": "TAF OMAA 161100Z 1612/1718 32014KT 8000 FEW030 \n  PROB30 \n  TEMPO 1612/1614 32015G25KT \n  PROB30 \n  TEMPO 1704/1713 32015G25KT"
    },
    {
      "icao": "OMDB",
      "iata": "DXB",
      "name": "Dubai International Airport",
      "updatedAt": "161300Z",
      "visibility_m": 10000,
      "taf_visibility_m": 8000,
      "worst_visibility_m": 8000,
      "ceiling_ft": 4000,
      "hazards": [],
      "severityScore": 0,
      "metarRaw": "METAR OMDB 161300Z 30018KT 9999 BKN040 22/10 Q1017 TEMPO 29020G30KT",
      "tafRaw": "TAF OMDB 161100Z 1612/1718 29014KT 8000 FEW030 \n  PROB30 \n  TEMPO 1612/1615 29018G28KT \n  PROB30 1701/1705 23007KT \n  BECMG 1716/1718 22006KT"
    },
    {
      "icao": "UDYZ",
      "iata": "EVN",
      "name": "Zvartnots International Airport",
      "updatedAt": "161230Z",
      "visibility_m": 10000,
      "taf_visibility_m": 10000,
      "worst_visibility_m": 10000,
      "ceiling_ft": null,
      "hazards": [],
      "severityScore": 0,
      "metarRaw": "METAR UDYZ 161230Z VRB02KT 9999 FEW046 00/M11 Q1022 NOSIG",
      "tafRaw": "TAF UDYZ 161100Z 1612/1712 VRB04KT 9999 FEW040"
    }
  ],
  "stats": {
    "icaoCount": 159,
    "metarReturned": 158,
    "tafReturned": 152,
    "stationsWritten": 159,
    "missingMetar": 1,
    "missingTaf": 7
  },
  "errors": []
}