{
  "generatedAt": "2026-01-23T23:58:30.976Z",
  "stations": [
    {
      "icao": "EDDS",
      "iata": "STR",
      "name": "Stuttgart Airport",
      "lat": 48.689899,
      "lon": 9.22196,
      "updatedAt": "232350Z",
      "visibility_m": 10000,
      "taf_visibility_m": 800,
      "worst_visibility_m": 800,
      "ceiling_ft": 100,
      "hazards": [
        "FZFG",
        "FG"
      ],
      "severityScore": 100,
      "metarRaw": "METAR EDDS 232350Z AUTO 07004KT CAVOK M03/M06 Q0997",
      "tafRaw": "TAF EDDS 232300Z 2400/2424 VRB03KT CAVOK \n  TEMPO 2421/2424 0800 FZFG OVC001"
    },
    {
      "icao": "EDJA",
      "iata": "FMM",
      "name": "Memmingen Allgau Airport",
      "lat": 47.988092,
      "lon": 10.238248,
      "updatedAt": "232350Z",
      "visibility_m": 4600,
      "taf_visibility_m": 500,
      "worst_visibility_m": 500,
      "ceiling_ft": 100,
      "hazards": [
        "FZFG",
        "BR",
        "FG"
      ],
      "severityScore": 100,
      "metarRaw": "METAR EDJA 232350Z AUTO VRB02KT 4600 // OVC005/// M05/M06 Q0997",
      "tafRaw": "TAF EDJA 231700Z 2318/2403 04005KT 8000 NSC \n  BECMG 2318/2321 2000 BR OVC004 \n  TEMPO 2320/2403 0500 FZFG VV001 \n  BECMG 2323/2402 24006KT"
    },
    {
      "icao": "EDNY",
      "iata": "FDH",
      "name": "Bodensee Airport Friedrichshafen",
      "lat": 47.671299,
      "lon": 9.51149,
      "updatedAt": "232350Z",
      "visibility_m": 5000,
      "taf_visibility_m": 800,
      "worst_visibility_m": 800,
      "ceiling_ft": 200,
      "hazards": [
        "FZFG",
        "BR",
        "FG"
      ],
      "severityScore": 100,
      "metarRaw": "METAR EDNY 232350Z AUTO VRB02KT 5000 // OVC008/// M01/M03 Q0999",
      "tafRaw": "TAF EDNY 231700Z 2318/2403 VRB03KT 8000 NSC \n  BECMG 2318/2321 4000 BR BKN007 \n  TEMPO 2321/2403 0800 FZFG VV002"
    },
    {
      "icao": "EDSB",
      "iata": "FKB",
      "name": "Karlsruhe Baden-Baden Airport",
      "lat": 48.7794,
      "lon": 8.0805,
      "updatedAt": "232350Z",
      "visibility_m": 2900,
      "taf_visibility_m": 800,
      "worst_visibility_m": 800,
      "ceiling_ft": 100,
      "hazards": [
        "FZFG",
        "BR",
        "SN",
        "FG",
        "RA"
      ],
      "severityScore": 100,
      "metarRaw": "METAR EDSB 232350Z AUTO 19004KT 2900 BKN037/// OVC067/// M01/M02 Q1000",
      "tafRaw": "TAF EDSB 232300Z 2400/2424 02004KT 6000 FEW005 BKN020 \n  TEMPO 2400/2410 1500 BR \n  PROB40 \n  TEMPO 2403/2406 SNRA BKN005 \n  TEMPO 2406/2414 BKN014 \n  PROB30 \n  TEMPO 2422/2424 0800 FZFG OVC001"
    },
    {
      "icao": "EPKK",
      "iata": "KRK",
      "name": "Kraków John Paul II International Airport",
      "lat": 50.077702,
      "lon": 19.7848,
      "updatedAt": "232330Z",
      "visibility_m": 2900,
      "taf_visibility_m": 600,
      "worst_visibility_m": 600,
      "ceiling_ft": 600,
      "hazards": [
        "BR",
        "FZFG",
        "SN",
        "FZDZ",
        "DZ",
        "FG"
      ],
      "severityScore": 100,
      "metarRaw": "METAR EPKK 232330Z 05006KT 2900 BR OVC006 M02/M04 Q1005",
      "tafRaw": "TAF EPKK 232330Z 2400/2424 06007KT 3000 BR BKN006 \n  TEMPO 2400/2408 1200 -SN -SG BR OVC004 \n  PROB40 \n  TEMPO 2400/2408 0600 -FZDZ FZFG BKN001 \n  TEMPO 2410/2414 6000 BKN013 \n  BECMG 2415/2418 2500 BR \n  PROB40 \n  TEMPO 2418/2424 1400 -DZ BR OVC004"
    },
    {
      "icao": "EPKT",
      "iata": "KTW",
      "name": "Katowice Wojciech Korfanty International Airport",
      "lat": 50.476015,
      "lon": 19.080705,
      "updatedAt": "232330Z",
      "visibility_m": 3000,
      "taf_visibility_m": 700,
      "worst_visibility_m": 700,
      "ceiling_ft": 500,
      "hazards": [
        "BR",
        "FZFG",
        "SN",
        "FZDZ",
        "DZ",
        "FG"
      ],
      "severityScore": 100,
      "metarRaw": "METAR EPKT 232330Z 10006KT 3000 BR OVC005 M03/M04 Q1005",
      "tafRaw": "TAF EPKT 232330Z 2400/2424 07006KT 4000 BR BKN007 \n  TEMPO 2400/2410 2000 -SN -SG BR BKN004 \n  PROB30 \n  TEMPO 2401/2410 0700 -FZDZ FZFG OVC001 \n  TEMPO 2410/2414 6000 BKN013 \n  TEMPO 2414/2424 1200 -DZ BR OVC003 \n  PROB40 \n  TEMPO 2415/2424 -FZDZ"
    },
    {
      "icao": "EPLB",
      "iata": "LUZ",
      "name": "Lublin Airport",
      "lat": 51.240157,
      "lon": 22.713461,
      "updatedAt": "232330Z",
      "visibility_m": 9000,
      "taf_visibility_m": 800,
      "worst_visibility_m": 800,
      "ceiling_ft": 900,
      "hazards": [
        "SN",
        "BR",
        "FZDZ",
        "DZ"
      ],
      "severityScore": 100,
      "metarRaw": "METAR EPLB 232330Z 09010KT 9000 -SN OVC009 M06/M06 Q1010",
      "tafRaw": "TAF EPLB 232330Z 2400/2424 08010KT 6000 -SN SCT007 OVC012 \n  TEMPO 2400/2424 3000 -SN BR OVC005 \n  PROB40 \n  TEMPO 2410/2424 0800 SN OVC001 \n  PROB30 \n  TEMPO 2415/2424 -FZDZ"
    },
    {
      "icao": "EPRZ",
      "iata": "RZE",
      "name": "Rzeszów-Jasionka Airport",
      "lat": 50.109791,
      "lon": 22.024155,
      "updatedAt": "232330Z",
      "visibility_m": 10000,
      "taf_visibility_m": 1000,
      "worst_visibility_m": 1000,
      "ceiling_ft": 700,
      "hazards": [
        "BR",
        "FZRA",
        "SN",
        "FZDZ",
        "DZ",
        "RA"
      ],
      "severityScore": 100,
      "metarRaw": "METAR EPRZ 232330Z 08011KT 9999 OVC007 M02/M03 Q1007",
      "tafRaw": "TAF EPRZ 232330Z 2400/2424 09010KT 8000 OVC007 \n  BECMG 2400/2403 4000 -SN BR OVC004 \n  TEMPO 2403/2411 2000 -SN -RASN BR \n  PROB40 \n  TEMPO 2403/2411 1000 -FZDZ -FZRA BR \n  BECMG 2411/2413 7000 BKN012 \n  TEMPO 2413/2424 2000 -DZ BR BKN006 \n  PROB40 \n  TEMPO 2416/2424 1200 -FZDZ BR OVC003"
    },
    {
      "icao": "LBPD",
      "iata": "PDV",
      "name": "Plovdiv International Airport",
      "lat": 42.067799,
      "lon": 24.8508,
      "updatedAt": "232330Z",
      "visibility_m": 1000,
      "taf_visibility_m": 300,
      "worst_visibility_m": 300,
      "ceiling_ft": 200,
      "hazards": [
        "BR",
        "FZFG",
        "FG"
      ],
      "severityScore": 100,
      "metarRaw": "METAR LBPD 232330Z AUTO 00000KT 1000 0900E R30/1200D BR VV002 01/01 Q1011",
      "tafRaw": "TAF LBPD 232300Z 2400/2424 VRB04KT 0500 FG OVC002 \n  PROB40 2400/2406 0300 FZFG OVC001 \n  BECMG 2408/2410 3000 BR BKN005 \n  BECMG 2416/2418 0500 FG OVC002"
    },
    {
      "icao": "LBSF",
      "iata": "SOF",
      "name": "Sofia Airport",
      "lat": 42.696357,
      "lon": 23.417671,
      "updatedAt": "232330Z",
      "visibility_m": 300,
      "taf_visibility_m": 400,
      "worst_visibility_m": 300,
      "ceiling_ft": 200,
      "hazards": [
        "FZFG",
        "FG",
        "BR"
      ],
      "severityScore": 100,
      "metarRaw": "METAR LBSF 232330Z AUTO 09003KT 0750 R27/1100N FG VV002 M00/M01 Q1010 TEMPO 0300 FZFG",
      "tafRaw": "TAF LBSF 232300Z 2400/2424 VRB04KT 0400 FZFG OVC001 \n  BECMG 2409/2411 3000 BR BKN005 \n  BECMG 2413/2415 11010KT 9999 NSW SCT020 \n  BECMG 2420/2422 VRB04KT 3000 BR BKN007"
    },
    {
      "icao": "LBWN",
      "iata": "VAR",
      "name": "Varna Airport",
      "lat": 43.232101,
      "lon": 27.8251,
      "updatedAt": "232330Z",
      "visibility_m": 5000,
      "taf_visibility_m": 600,
      "worst_visibility_m": 600,
      "ceiling_ft": 500,
      "hazards": [
        "BR",
        "FZFG",
        "FG"
      ],
      "severityScore": 100,
      "metarRaw": "METAR LBWN 232330Z AUTO 29003KT 9000 OVC007/// 00/00 Q1011 TEMPO 5000 BR OVC005",
      "tafRaw": "TAF LBWN 232300Z 2400/2424 VRB03KT 7000 OVC007 \n  BECMG 2401/2403 3000 BR OVC005 \n  TEMPO 2403/2407 0800 BCFG SCT002 OVC004 \n  PROB40 2403/2407 0600 FZFG OVC003 \n  BECMG 2409/2410 12008KT 7000 NSW SCT005 BKN010 OVC015"
    },
    {
      "icao": "LFLL",
      "iata": "LYS",
      "name": "Lyon Saint-Exupéry Airport",
      "lat": 45.725996,
      "lon": 5.090139,
      "updatedAt": "232330Z",
      "visibility_m": 7000,
      "taf_visibility_m": 300,
      "worst_visibility_m": 300,
      "ceiling_ft": 300,
      "hazards": [
        "FZFG",
        "FG",
        "BR"
      ],
      "severityScore": 100,
      "metarRaw": "METAR LFLL 232330Z 16005KT 7000 NSC 02/01 Q0999 NOSIG",
      "tafRaw": "TAF LFLL 232300Z 2400/2506 14005KT 8000 NSC \n  PROB30 \n  TEMPO 2400/2403 0500 BCFG \n  BECMG 2403/2406 0500 FG VV/// \n  PROB30 2406/2410 0300 FZFG \n  BECMG 2410/2412 35005KT 3000 BR BKN003 \n  PROB40 2414/2418 8000 NSW SCT005 \n  PROB40 2422/2506 VRB03KT 0500 FG VV///"
    },
    {
      "icao": "LGTS",
      "iata": "SKG",
      "name": "Thessaloniki Macedonia International Airport",
      "lat": 40.51928,
      "lon": 22.970009,
      "updatedAt": "232350Z",
      "visibility_m": 10000,
      "taf_visibility_m": 200,
      "worst_visibility_m": 200,
      "ceiling_ft": 2500,
      "hazards": [
        "TS",
        "FG",
        "BR"
      ],
      "severityScore": 100,
      "metarRaw": "METAR LGTS 232350Z VRB02KT 9999 FEW018 BKN025 08/07 Q1010 NOSIG",
      "tafRaw": "TAF LGTS 232300Z 2400/2424 VRB03KT 9999 SCT020 \n  PROB40 2400/2408 4000 BR \n  PROB30 2400/2408 0200 FG OVC001 \n  BECMG 2408/2410 FEW010 BKN025"
    },
    {
      "icao": "LIPE",
      "iata": "BLQ",
      "name": "Bologna Guglielmo Marconi Airport",
      "lat": 44.5354,
      "lon": 11.2887,
      "updatedAt": "232350Z",
      "visibility_m": 600,
      "taf_visibility_m": 500,
      "worst_visibility_m": 500,
      "ceiling_ft": 200,
      "hazards": [
        "FG",
        "RA"
      ],
      "severityScore": 100,
      "metarRaw": "METAR LIPE 232350Z VRB02KT 0600 R12/1800D R30/1700D FG OVC002 05/05 Q1003",
      "tafRaw": "TAF LIPE 232300Z 2400/2424 VRB05KT 1000 RA BKN015 \n  TEMPO 2400/2406 0500 FG BKN003 \n  BECMG 2412/2414 6000 NSW \n  BECMG 2416/2418 2000 RA"
    },
    {
      "icao": "LKMT",
      "iata": "OSR",
      "name": "Leoš Janáček Airport Ostrava",
      "lat": 49.696301,
      "lon": 18.111099,
      "updatedAt": "232330Z",
      "visibility_m": 2800,
      "taf_visibility_m": 400,
      "worst_visibility_m": 400,
      "ceiling_ft": 2500,
      "hazards": [
        "BR",
        "FZFG",
        "SN",
        "FZDZ",
        "FG",
        "DZ"
      ],
      "severityScore": 100,
      "metarRaw": "METAR LKMT 232330Z 02004KT 2800 BR OVC025 M03/M04 Q1005 NOSIG",
      "tafRaw": "TAF LKMT 232300Z 2400/2424 02005KT 2500 BR OVC022 \n  TEMPO 2400/2406 1400 -SN BR BKN009 OVC015 \n  PROB30 \n  TEMPO 2401/2406 0600 FZFG OVC003 \n  BECMG 2408/2410 OVC007 \n  PROB40 \n  TEMPO 2418/2424 0400 -FZDZ FZFG OVC003"
    },
    {
      "icao": "LOWW",
      "iata": "VIE",
      "name": "Vienna International Airport",
      "lat": 48.110298,
      "lon": 16.5697,
      "updatedAt": "232350Z",
      "visibility_m": 1200,
      "taf_visibility_m": 200,
      "worst_visibility_m": 200,
      "ceiling_ft": 300,
      "hazards": [
        "BR",
        "FZDZ",
        "DZ",
        "FZFG",
        "FG",
        "FZRA",
        "RA"
      ],
      "severityScore": 100,
      "metarRaw": "METAR LOWW 232350Z 27003KT 2900 -FZDZ BR BKN003 M02/M03 Q1003 TEMPO 1200 -FZDZ BR",
      "tafRaw": "TAF LOWW 232315Z 2400/2506 14004KT 3000 BR FEW003 OVC005 TX01/2501Z TNM02/2406Z \n  TEMPO 2400/2415 0500 -FZDZ FZFG VV001 \n  PROB40 \n  TEMPO 2403/2410 FZDZ \n  TEMPO 2415/2420 -FZRA \n  BECMG 2420/2422 0600 FG VV001 \n  TEMPO 2422/2506 0200 -DZ"
    },
    {
      "icao": "LQBK",
      "iata": "BNX",
      "name": "Banja Luka International Airport",
      "lat": 44.941399,
      "lon": 17.297501,
      "updatedAt": "232330Z",
      "visibility_m": 4000,
      "taf_visibility_m": 300,
      "worst_visibility_m": 300,
      "ceiling_ft": 200,
      "hazards": [
        "BR",
        "FZFG",
        "FG",
        "RA"
      ],
      "severityScore": 100,
      "metarRaw": "METAR LQBK 232330Z VRB01KT 4000 BR NSC M01/M01 Q1005 NOSIG",
      "tafRaw": "TAF LQBK 232300Z 2400/2424 VRB02KT 6000 NSC TX09/2413Z TNM03/2406Z \n  TEMPO 2400/2410 3000 BR \n  PROB40 \n  TEMPO 2400/2408 0300 FZFG BKN002 \n  PROB40 \n  TEMPO 2413/2418 4000 RA \n  TEMPO 2418/2424 3000 BR \n  PROB40 \n  TEMPO 2420/2424 0500 FG BKN002"
    },
    {
      "icao": "LQTZ",
      "iata": "TZL",
      "name": "Tuzla International Airport",
      "lat": 44.459858,
      "lon": 18.723627,
      "updatedAt": "232330Z",
      "visibility_m": 450,
      "taf_visibility_m": 300,
      "worst_visibility_m": 300,
      "ceiling_ft": 200,
      "hazards": [
        "FZFG",
        "FG",
        "BR",
        "RA"
      ],
      "severityScore": 100,
      "metarRaw": "METAR LQTZ 232330Z VRB02KT 0450 R09/0500D FZFG SCT002 M02/M02 Q1005",
      "tafRaw": "TAF LQTZ 232300Z 2400/2424 10005KT 2000 BR SCT005 TX10/2413Z TNM03/2405Z \n  TEMPO 2400/2409 0300 FZFG BKN002 \n  BECMG 2410/2412 7000 NSW \n  PROB30 \n  TEMPO 2415/2419 5000 RA \n  PROB30 \n  TEMPO 2420/2424 2000 BR"
    },
    {
      "icao": "LRBS",
      "iata": "BBU",
      "name": "Bucharest Băneasa Aurel Vlaicu International Airport",
      "lat": 44.503133,
      "lon": 26.102944,
      "updatedAt": "232330Z",
      "visibility_m": 400,
      "taf_visibility_m": 300,
      "worst_visibility_m": 300,
      "ceiling_ft": 100,
      "hazards": [
        "FG",
        "FZFG",
        "BR"
      ],
      "severityScore": 100,
      "metarRaw": "METAR LRBS 232330Z 06004KT 020V090 0400 R07/1800N FG OVC001 M00/M00 Q1012 NOSIG",
      "tafRaw": "TAF LRBS 232300Z 2400/2424 VRB04KT 0800 FG OVC002 \n  TEMPO 2400/2406 0300 FZFG VV001 \n  BECMG 2407/2409 1500 BR \n  BECMG 2410/2412 3000 BR OVC005 \n  TEMPO 2412/2416 5000 \n  BECMG 2416/2418 0800 FG OVC002 \n  BECMG 2419/2421 0300 FG VV001"
    },
    {
      "icao": "LRCV",
      "iata": "CRA",
      "name": "Craiova International Airport",
      "lat": 44.3181,
      "lon": 23.888599,
      "updatedAt": "232330Z",
      "visibility_m": 300,
      "taf_visibility_m": 300,
      "worst_visibility_m": 300,
      "ceiling_ft": 200,
      "hazards": [
        "FG"
      ],
      "severityScore": 100,
      "metarRaw": "METAR LRCV 232330Z 12001KT 0300 R26/0350N FG VV002 00/00 Q1011",
      "tafRaw": "TAF LRCV 232300Z 2400/2409 VRB04KT 0300 FG VV001 \n  BECMG 2407/2409 0800 OVC003"
    },
    {
      "icao": "LROP",
      "iata": "OTP",
      "name": "Bucharest Henri Coandă International Airport",
      "lat": 44.571792,
      "lon": 26.103285,
      "updatedAt": "232330Z",
      "visibility_m": 3500,
      "taf_visibility_m": 300,
      "worst_visibility_m": 300,
      "ceiling_ft": 200,
      "hazards": [
        "BR",
        "FZFG",
        "FG"
      ],
      "severityScore": 100,
      "metarRaw": "METAR LROP 232330Z 08006KT 3500 BR OVC002 M00/M00 Q1012 NOSIG",
      "tafRaw": "TAF LROP 232300Z 2400/2424 VRB04KT 0800 FG OVC002 \n  TEMPO 2400/2402 3000 BR \n  PROB30 \n  TEMPO 2402/2406 0300 FZFG VV001 \n  BECMG 2407/2409 1500 BR \n  BECMG 2410/2412 3000 BR OVC005 \n  TEMPO 2412/2416 5000 \n  BECMG 2416/2418 0800 FG OVC002 \n  BECMG 2419/2421 0300 FG VV001"
    },
    {
      "icao": "LRSB",
      "iata": "SBZ",
      "name": "Sibiu International Airport",
      "lat": 45.785841,
      "lon": 24.086666,
      "updatedAt": "232330Z",
      "visibility_m": 3500,
      "taf_visibility_m": 800,
      "worst_visibility_m": 800,
      "ceiling_ft": 300,
      "hazards": [
        "BR",
        "FZFG",
        "FG"
      ],
      "severityScore": 100,
      "metarRaw": "METAR LRSB 232330Z 24006KT 3500 BR NSC M01/M02 Q1007",
      "tafRaw": "TAF LRSB 232300Z 2400/2424 VRB04KT 3000 BR NSC \n  PROB30 \n  TEMPO 2400/2406 0800 FZFG OVC003 \n  BECMG 2408/2410 9999 NSW"
    },
    {
      "icao": "LRSV",
      "iata": "SCV",
      "name": "Suceava Stefan cel Mare Airport",
      "lat": 47.6875,
      "lon": 26.35409927368164,
      "updatedAt": "232330Z",
      "visibility_m": 200,
      "taf_visibility_m": 200,
      "worst_visibility_m": 200,
      "ceiling_ft": 100,
      "hazards": [
        "FZFG",
        "FG",
        "BR",
        "SN"
      ],
      "severityScore": 100,
      "metarRaw": "METAR LRSV 232330Z 11009KT 0200 R34/0650N FZFG VV001 M03/M03 Q1009",
      "tafRaw": "TAF LRSV 232300Z 2400/2409 12007KT 0200 FZFG VV001 \n  TEMPO 2400/2402 -SN FZFG \n  BECMG 2404/2406 0800 OVC002 \n  BECMG 2406/2408 3000 BR BKN010"
    },
    {
      "icao": "LRTM",
      "iata": "TGM",
      "name": "Târgu Mureş Transilvania International Airport",
      "lat": 46.467701,
      "lon": 24.4125,
      "updatedAt": "232330Z",
      "visibility_m": 1100,
      "taf_visibility_m": 350,
      "worst_visibility_m": 350,
      "ceiling_ft": 100,
      "hazards": [
        "BR",
        "FZFG",
        "FG"
      ],
      "severityScore": 100,
      "metarRaw": "METAR LRTM 232330Z AUTO VRB01KT 1100 R07/1600U BR NCD M01/M02 Q1008",
      "tafRaw": "TAF LRTM 231400Z 2315/2324 VRB04KT 3000 BR OVC030 \n  BECMG 2315/2317 1500 BR BKN010 \n  BECMG 2317/2319 0600 FG OVC002 \n  BECMG 2317/2319 0350 FZFG VV001"
    },
    {
      "icao": "LTFM",
      "iata": "IST",
      "name": "İstanbul Airport",
      "lat": 41.261297,
      "lon": 28.741951,
      "updatedAt": "232350Z",
      "visibility_m": 1600,
      "taf_visibility_m": 600,
      "worst_visibility_m": 600,
      "ceiling_ft": 200,
      "hazards": [
        "RA",
        "FG",
        "BR"
      ],
      "severityScore": 100,
      "metarRaw": "METAR LTFM 232350Z 01011KT 330V040 1600 -RA BCFG VV002 08/07 Q1010 NOSIG",
      "tafRaw": "TAF LTFM 232240Z 2400/2506 04007KT 1200 BCFG BKN006 BKN020 \n  TEMPO 2400/2404 0600 -RA FG VV002 \n  TEMPO 2404/2407 0600 FG VV002 \n  BECMG 2407/2409 6000 \n  BECMG 2416/2418 12010KT \n  BECMG 2418/2420 20005KT \n  BECMG 2422/2501 2000 BR BKN004 \n  TEMPO 2502/2506 0600 FG VV002"
    },
    {
      "icao": "LZIB",
      "iata": "BTS",
      "name": "M. R. Štefánik Airport",
      "lat": 48.1702,
      "lon": 17.2127,
      "updatedAt": "232330Z",
      "visibility_m": 2800,
      "taf_visibility_m": 400,
      "worst_visibility_m": 400,
      "ceiling_ft": 1200,
      "hazards": [
        "BR",
        "FZDZ",
        "DZ",
        "FZFG",
        "FZRA",
        "FG",
        "RA"
      ],
      "severityScore": 100,
      "metarRaw": "METAR LZIB 232330Z 08004KT 2800 -FZDZ BR BKN012 M00/M00 Q1004 NOSIG",
      "tafRaw": "TAF LZIB 232315Z 2400/2500 08005KT 6000 OVC012 \n  TEMPO 2400/2411 2000 -DZ BR BKN004 OVC007 \n  PROB30 \n  TEMPO 2400/2408 0400 -FZDZ FZFG OVC002 \n  TEMPO 2416/2500 2000 -FZRA BR BKN004 OVC008"
    },
    {
      "icao": "LZTT",
      "iata": "TAT",
      "name": "Poprad-Tatry Airport",
      "lat": 49.073601,
      "lon": 20.2411,
      "updatedAt": "232330Z",
      "visibility_m": 5000,
      "taf_visibility_m": 700,
      "worst_visibility_m": 700,
      "ceiling_ft": 600,
      "hazards": [
        "BR",
        "SN",
        "FZFG",
        "FG"
      ],
      "severityScore": 100,
      "metarRaw": "METAR LZTT 232330Z 00000KT 5000 -SN BR BKN006 OVC023 M01/M01 Q1003",
      "tafRaw": "TAF LZTT 232315Z 2400/2500 VRB02KT 8000 SCT005 BKN020 \n  TEMPO 2400/2411 1600 -SN BR BKN006 OVC012 \n  PROB40 \n  TEMPO 2400/2409 0700 SN FZFG OVC002 \n  TEMPO 2419/2500 2000 -SN BKN007 OVC011"
    },
    {
      "icao": "UAAA",
      "iata": "ALA",
      "name": "Almaty International Airport",
      "lat": 43.354267,
      "lon": 77.042828,
      "updatedAt": "232330Z",
      "visibility_m": 100,
      "taf_visibility_m": 200,
      "worst_visibility_m": 100,
      "ceiling_ft": 100,
      "hazards": [
        "FZFG",
        "FG",
        "BR"
      ],
      "severityScore": 100,
      "metarRaw": "METAR UAAA 232330Z 00000MPS 0100 R23L/0350 FZFG VV001 M14/M16 Q1024 NOSIG RMK QBB050",
      "tafRaw": "TAF UAAA 232302Z 2400/2424 VRB01MPS 0200 FZFG VV001 TXM06/2408Z TNM16/2402Z \n  TEMPO 2400/2405 0600 VV002 \n  FM240700 02003MPS 3100 BR FU BKN011 OVC040 \n  TEMPO 2407/2413 1500 \n  TEMPO 2413/2424 0500 FZFG VV002"
    },
    {
      "icao": "UDYZ",
      "iata": "EVN",
      "name": "Zvartnots International Airport",
      "lat": 40.148941,
      "lon": 44.397887,
      "updatedAt": "232330Z",
      "visibility_m": 1600,
      "taf_visibility_m": 200,
      "worst_visibility_m": 200,
      "ceiling_ft": 1100,
      "hazards": [
        "BR",
        "FZFG",
        "FG"
      ],
      "severityScore": 100,
      "metarRaw": "METAR UDYZ 232330Z 23002KT 1600 R08/P2000U BR BKN011 M04/M05 Q1019 NOSIG",
      "tafRaw": "TAF UDYZ 232300Z 2400/2424 VRB04KT 1200 BR SCT006 BKN020 \n  TEMPO 2400/2408 0200 FZFG VV001"
    },
    {
      "icao": "LFSB",
      "iata": "BSL",
      "name": "EuroAirport Basel–Mulhouse–Freiburg",
      "lat": 47.60068,
      "lon": 7.521117,
      "updatedAt": "232330Z",
      "visibility_m": 3000,
      "taf_visibility_m": 300,
      "worst_visibility_m": 300,
      "ceiling_ft": 1000,
      "hazards": [
        "RA",
        "FG",
        "BR"
      ],
      "severityScore": 99,
      "metarRaw": "METAR LFSB 232330Z AUTO 14005KT 9000 -RA FEW031 BKN046 BKN068 02/00 Q1000 TEMPO 3000 -RA BKN010",
      "tafRaw": "TAF LFSB 232300Z 2400/2424 VRB03KT 6000 BKN025 \n  TEMPO 2400/2402 3000 -RA BKN010 \n  PROB40 \n  TEMPO 2402/2404 3000 BR \n  BECMG 2404/2406 34005KT 2000 BR OVC002 \n  TEMPO 2406/2410 0300 FG VV/// \n  PROB40 \n  TEMPO 2412/2416 6000 NSW BKN010 \n  PROB40 \n  TEMPO 2417/2424 0300 FG VV///"
    },
    {
      "icao": "EDFH",
      "iata": "HHN",
      "name": "Frankfurt-Hahn Airport",
      "lat": 49.946353,
      "lon": 7.261734,
      "updatedAt": "232350Z",
      "visibility_m": 8000,
      "taf_visibility_m": 1200,
      "worst_visibility_m": 1200,
      "ceiling_ft": 1600,
      "hazards": [
        "BR",
        "FZRA",
        "SN",
        "RA"
      ],
      "severityScore": 97,
      "metarRaw": "METAR EDFH 232350Z 14012KT 8000 FEW010 SCT012 BKN016 M01/M04 Q0998",
      "tafRaw": "TAF EDFH 232300Z 2400/2424 14012KT 9999 BKN010 \n  TEMPO 2400/2403 1200 FZRA OVC001 \n  TEMPO 2403/2407 1200 SN OVC001 \n  TEMPO 2407/2410 1200 BR BKN003 \n  BECMG 2410/2413 SCT010 \n  PROB30 \n  TEMPO 2410/2418 BKN005"
    },
    {
      "icao": "LWSK",
      "iata": "SKP",
      "name": "Skopje International Airport",
      "lat": 41.958087,
      "lon": 21.622581,
      "updatedAt": "232350Z",
      "visibility_m": 6000,
      "taf_visibility_m": 600,
      "worst_visibility_m": 600,
      "ceiling_ft": 1700,
      "hazards": [
        "FZFG",
        "BR",
        "FG"
      ],
      "severityScore": 97,
      "metarRaw": "METAR LWSK 232350Z VRB02KT 6000 BKN017 00/M00 Q1010 NOSIG",
      "tafRaw": "TAF LWSK 232305Z 2400/2424 VRB02KT 6000 BKN015 \n  TEMPO 2402/2409 3000 BR OVC010 \n  PROB30 \n  TEMPO 2403/2408 0600 FZFG BKN003 OVC010"
    },
    {
      "icao": "LZKZ",
      "iata": "KSC",
      "name": "Košice International Airport",
      "lat": 48.663101,
      "lon": 21.2411,
      "updatedAt": "232330Z",
      "visibility_m": 2500,
      "taf_visibility_m": 1200,
      "worst_visibility_m": 1200,
      "ceiling_ft": 1400,
      "hazards": [
        "BR",
        "SN",
        "FZRA",
        "RA"
      ],
      "severityScore": 97,
      "metarRaw": "METAR LZKZ 232330Z 00000KT 6000 -SN BKN017 OVC039 01/00 Q1006 TEMPO 2500 -SN BR BKN014",
      "tafRaw": "TAF LZKZ 232315Z 2400/2500 VRB02KT 7000 FEW013 BKN022 \n  TEMPO 2400/2416 2000 -FZRA BR SCT004 BKN007 \n  PROB30 \n  TEMPO 2400/2408 1200 SN BR BKN003"
    },
    {
      "icao": "UDSG",
      "iata": "LWN",
      "name": "Shirak International Airport",
      "lat": 40.750401,
      "lon": 43.859299,
      "updatedAt": "232330Z",
      "visibility_m": 2700,
      "taf_visibility_m": 800,
      "worst_visibility_m": 800,
      "ceiling_ft": 1000,
      "hazards": [
        "BR",
        "FZFG",
        "FG"
      ],
      "severityScore": 97,
      "metarRaw": "METAR UDSG 232330Z 26002KT 2700 BR OVC010 M09/M10 Q1016 NOSIG",
      "tafRaw": "TAF UDSG 232258Z 2400/2424 VRB06KT 2000 BR OVC010 \n  TEMPO 2400/2406 0800 FZFG OVC005"
    },
    {
      "icao": "LPPT",
      "iata": "LIS",
      "name": "Lisbon Humberto Delgado Airport",
      "lat": 38.7813,
      "lon": -9.13592,
      "updatedAt": "232330Z",
      "visibility_m": 10000,
      "taf_visibility_m": 2000,
      "worst_visibility_m": 2000,
      "ceiling_ft": 800,
      "hazards": [
        "SHRA",
        "RA",
        "BR",
        "TS",
        "DZ"
      ],
      "severityScore": 96,
      "metarRaw": "METAR LPPT 232330Z 30008KT 230V350 9999 -SHRA SCT014 FEW020TCU 06/04 Q1005 RESHRA WS R02",
      "tafRaw": "TAF LPPT 232300Z 2400/2506 29013KT 9999 SCT025 \n  TEMPO 2400/2417 29018G30KT 5000 SHRA SCT015 SCT020CB BKN035 \n  PROB40 \n  TEMPO 2400/2410 VRB30G43KT 2000 +TSRAGS BKN012 SCT015CB \n  BECMG 2421/2423 26013KT 6000 -RA SCT008 BKN018 \n  TEMPO 2423/2506 26018G30KT 3000 RADZ BR SCT004 BKN008"
    },
    {
      "icao": "LYPG",
      "iata": "TGD",
      "name": "Podgorica Airport / Podgorica Golubovci Airbase",
      "lat": 42.359402,
      "lon": 19.2519,
      "updatedAt": "232330Z",
      "visibility_m": 500,
      "taf_visibility_m": 500,
      "worst_visibility_m": 500,
      "ceiling_ft": 4000,
      "hazards": [
        "FG",
        "BR",
        "RA",
        "SHRA"
      ],
      "severityScore": 91,
      "metarRaw": "METAR LYPG 232330Z VRB01KT 0500 0250N R18/0275N R36/0700U FG FEW030 SCT060 06/06 Q1008 TEMPO 1000 BR",
      "tafRaw": "TAF LYPG 232300Z 2400/2424 VRB02KT 8000 FEW015 BKN050 TX11/2413Z TN06/2405Z \n  TEMPO 2400/2408 2000 BR \n  PROB30 \n  TEMPO 2405/2407 0500 FG \n  TEMPO 2411/2424 17012KT 5000 RA \n  PROB40 \n  TEMPO 2414/2424 2000 SHRA FEW010 SCT030TCU BKN040"
    },
    {
      "icao": "LFMN",
      "iata": "NCE",
      "name": "Nice-Côte d'Azur Airport",
      "lat": 43.658401,
      "lon": 7.21587,
      "updatedAt": "232330Z",
      "visibility_m": 2000,
      "taf_visibility_m": 2000,
      "worst_visibility_m": 2000,
      "ceiling_ft": 1400,
      "hazards": [
        "TSRA",
        "SHRA",
        "TS",
        "RA"
      ],
      "severityScore": 88,
      "metarRaw": "METAR LFMN 232330Z 08015KT 9999 -SHRA SCT017 BKN026TCU BKN036 11/09 Q0998 TEMPO VRB15G25KT 2000 TSRA BKN014 SCT020CB",
      "tafRaw": "TAF LFMN 232000Z 2321/2503 10015KT 9999 BKN020 \n  TEMPO 2321/2402 4000 SHRA SCT020TCU \n  PROB40 \n  TEMPO 2322/2401 VRB15G25KT 2000 TSRA BKN014 SCT020CB \n  BECMG 2322/2401 33010KT \n  PROB40 \n  TEMPO 2401/2407 BKN013 \n  BECMG 2409/2412 09015KT \n  TEMPO 2415/2503 4000 SHRA SCT020TCU \n  PROB40 \n  TEMPO 2415/2503 2000 TSRA BKN014 SCT020CB \n  PROB40 \n  TEMPO 2415/2418 08025KT"
    },
    {
      "icao": "LIRF",
      "iata": "FCO",
      "name": "Rome–Fiumicino Leonardo da Vinci International Airport",
      "lat": 41.804532,
      "lon": 12.251998,
      "updatedAt": "232350Z",
      "visibility_m": 9000,
      "taf_visibility_m": 4000,
      "worst_visibility_m": 4000,
      "ceiling_ft": 1400,
      "hazards": [
        "RA",
        "TSRA",
        "SHRA",
        "TS"
      ],
      "severityScore": 88,
      "metarRaw": "METAR LIRF 232350Z 13010KT 9000 -RA FEW025 SCT045 12/10 Q1002 NOSIG",
      "tafRaw": "TAF LIRF 232300Z 2400/2506 15013KT 9999 SCT030 \n  TEMPO 2400/2402 4000 SHRA BKN014 \n  TEMPO 2402/2410 4000 TSRA BKN014 \n  BECMG 2408/2410 21017KT \n  TEMPO 2410/2416 4000 SHRA BKN014 \n  TEMPO 2416/2421 4000 TSRA BKN014"
    },
    {
      "icao": "LEXJ",
      "iata": "SDR",
      "name": "Seve Ballesteros-Santander Airport",
      "lat": 43.427101,
      "lon": -3.82001,
      "updatedAt": "232330Z",
      "visibility_m": 10000,
      "taf_visibility_m": 1500,
      "worst_visibility_m": 1500,
      "ceiling_ft": 5000,
      "hazards": [
        "TSRA",
        "SHRA",
        "TS",
        "RA"
      ],
      "severityScore": 86,
      "metarRaw": "METAR LEXJ 232330Z AUTO 31009KT 270V010 9999 FEW044 BKN050 BKN058 08/00 Q0993",
      "tafRaw": "TAF LEXJ 232000Z 2321/2421 20009KT 9999 FEW040 TX13/2414Z TN05/2406Z \n  TEMPO 2414/2418 27016G30KT \n  TEMPO 2414/2420 3000 SHRA FEW030TCU \n  PROB30 \n  TEMPO 2416/2420 1500 TSRA BKN010 FEW025CB"
    },
    {
      "icao": "LRBV",
      "iata": "GHV",
      "name": "Brașov-Ghimbav International Airport",
      "lat": 45.70558,
      "lon": 25.522871,
      "updatedAt": "232330Z",
      "visibility_m": 3600,
      "taf_visibility_m": 600,
      "worst_visibility_m": 600,
      "ceiling_ft": null,
      "hazards": [
        "BR",
        "FZFG",
        "FG"
      ],
      "severityScore": 85,
      "metarRaw": "METAR LRBV 232330Z AUTO 00000KT 3600 BR FEW098/// M01/M01 Q1007",
      "tafRaw": "TAF LRBV 232000Z 2321/2406 VRB04KT 1500 BR NSC \n  TEMPO 2321/2324 0600 FZFG"
    },
    {
      "icao": "LRSM",
      "iata": "SUJ",
      "name": "Satu Mare International Airport",
      "lat": 47.7033,
      "lon": 22.8857,
      "updatedAt": "232330Z",
      "visibility_m": 8000,
      "taf_visibility_m": 5000,
      "worst_visibility_m": 5000,
      "ceiling_ft": 500,
      "hazards": [
        "DZ",
        "BR",
        "FZDZ",
        "RA"
      ],
      "severityScore": 85,
      "metarRaw": "METAR LRSM 232330Z AUTO 14002KT 8000 -DZ BKN033/// OVC040/// 02/00 Q1007",
      "tafRaw": "TAF LRSM 231400Z 2315/2324 VRB04KT 7000 BKN020 BKN040 \n  BECMG 2316/2318 5000 -RADZ BR BKN010 OVC030 \n  PROB40 \n  TEMPO 2319/2321 -FZDZ BKN005 OVC025"
    },
    {
      "icao": "LCLK",
      "iata": "LCA",
      "name": "Larnaca International Airport",
      "lat": 34.875099,
      "lon": 33.624901,
      "updatedAt": "232330Z",
      "visibility_m": 5000,
      "taf_visibility_m": 3000,
      "worst_visibility_m": 3000,
      "ceiling_ft": 3000,
      "hazards": [
        "RA",
        "TSRA",
        "SHRA",
        "TS"
      ],
      "severityScore": 76,
      "metarRaw": "METAR LCLK 232330Z 09016KT 5000 RA FEW012 SCT018 BKN030 15/13 Q1013 NOSIG",
      "tafRaw": "TAF LCLK 232330Z 2400/2500 12018KT 9999 SCT020 BKN030 \n  PROB40 \n  TEMPO 2400/2414 5000 SHRA SCT020TCU \n  PROB30 \n  TEMPO 2400/2410 VRB20G30KT 3000 TSRA SCT020CB \n  BECMG 2405/2408 04015KT \n  BECMG 2416/2419 33008KT"
    },
    {
      "icao": "LCPH",
      "iata": "PFO",
      "name": "Paphos International Airport",
      "lat": 34.717999,
      "lon": 32.485699,
      "updatedAt": "232330Z",
      "visibility_m": 10000,
      "taf_visibility_m": 2000,
      "worst_visibility_m": 2000,
      "ceiling_ft": 4500,
      "hazards": [
        "RA",
        "TSRA",
        "SHRA",
        "TS"
      ],
      "severityScore": 76,
      "metarRaw": "METAR LCPH 232330Z 09009KT 9999 -RA FEW020CB BKN045 BKN060 15/11 Q1012 NOSIG RMK DISTANT CB TO W",
      "tafRaw": "TAF LCPH 232330Z 2400/2500 11012KT 9999 SCT030 BKN040 \n  PROB40 \n  TEMPO 2400/2412 5000 SHRA SCT020TCU \n  PROB30 \n  TEMPO 2400/2410 VRB20G30KT 2000 TSRA SCT000CB \n  BECMG 2406/2409 24012KT \n  BECMG 2416/2419 05008KT"
    },
    {
      "icao": "LEBL",
      "iata": "BCN",
      "name": "Josep Tarradellas Barcelona-El Prat Airport",
      "lat": 41.2971,
      "lon": 2.07846,
      "updatedAt": "232330Z",
      "visibility_m": 10000,
      "taf_visibility_m": 3000,
      "worst_visibility_m": 3000,
      "ceiling_ft": null,
      "hazards": [
        "TSRA",
        "SHRA",
        "TS",
        "RA"
      ],
      "severityScore": 76,
      "metarRaw": "METAR LEBL 232330Z 35003KT 310V010 9999 FEW020 08/03 Q0997 NOSIG",
      "tafRaw": "TAF LEBL 232300Z 2400/2424 32009KT 9999 FEW020 TX11/2412Z TN06/2406Z \n  TEMPO 2400/2415 24015G25KT 3000 SHRA FEW040TCU \n  PROB30 \n  TEMPO 2400/2406 24020G30KT 3000 TSRA FEW040CB \n  BECMG 2410/2412 28010KT \n  TEMPO 2412/2416 VRB04KT \n  PROB30 \n  TEMPO 2415/2418 3000 SHRA FEW040TCU \n  BECMG 2416/2418 31015KT \n  TEMPO 2418/2424 31020G30KT"
    },
    {
      "icao": "LFBD",
      "iata": "BOD",
      "name": "Bordeaux–Mérignac Airport",
      "lat": 44.82865,
      "lon": -0.715356,
      "updatedAt": "232330Z",
      "visibility_m": 4000,
      "taf_visibility_m": 2000,
      "worst_visibility_m": 2000,
      "ceiling_ft": 20000,
      "hazards": [
        "SHRA",
        "RA",
        "TSRA",
        "TS"
      ],
      "severityScore": 76,
      "metarRaw": "METAR LFBD 232330Z AUTO 15006KT 9999 FEW049 OVC200 06/02 Q0993 TEMPO 4000 -SHRA BKN025TCU",
      "tafRaw": "TAF LFBD 232300Z 2400/2506 15005KT CAVOK TX10/2412Z TN05/2406Z \n  TEMPO 2400/2406 4000 SHRA BKN025TCU \n  BECMG 2411/2413 21010KT \n  PROB40 \n  TEMPO 2413/2506 VRB15G25KT 4000 SHRA BKN015 FEW025CB BKN030TCU \n  PROB30 2414/2420 2000 TSRA BKN010 BKN025CB"
    },
    {
      "icao": "EPRA",
      "iata": "RDO",
      "name": "Warsaw Radom Airport",
      "lat": 51.38937,
      "lon": 21.214742,
      "updatedAt": "232330Z",
      "visibility_m": 8000,
      "taf_visibility_m": 1500,
      "worst_visibility_m": 1500,
      "ceiling_ft": 900,
      "hazards": [
        "SN",
        "RA",
        "BR"
      ],
      "severityScore": 75,
      "metarRaw": "METAR EPRA 232330Z 08010KT 8000 -SN BKN009 OVC021 M04/M06 Q1009",
      "tafRaw": "TAF EPRA 232330Z 2400/2409 08010KT 8000 BKN008 OVC020 \n  TEMPO 2400/2409 4000 -SN BR BKN004 OVC010 \n  PROB30 2404/2409 1500 SN OVC003"
    },
    {
      "icao": "LYBE",
      "iata": "BEG",
      "name": "Belgrade Nikola Tesla Airport",
      "lat": 44.818401,
      "lon": 20.309099,
      "updatedAt": "232330Z",
      "visibility_m": 10000,
      "taf_visibility_m": 600,
      "worst_visibility_m": 600,
      "ceiling_ft": null,
      "hazards": [
        "FZFG",
        "FG"
      ],
      "severityScore": 75,
      "metarRaw": "METAR LYBE 232330Z 11003KT CAVOK 02/00 Q1006 NOSIG",
      "tafRaw": "TAF LYBE 232300Z 2400/2424 09005KT 8000 NSC TX11/2413Z TNM01/2406Z \n  PROB30 \n  TEMPO 2402/2407 0600 FZFG \n  BECMG 2409/2411 15010KT"
    },
    {
      "icao": "LIRN",
      "iata": "NAP",
      "name": "Naples International Airport",
      "lat": 40.886002,
      "lon": 14.2908,
      "updatedAt": "232350Z",
      "visibility_m": 10000,
      "taf_visibility_m": 3000,
      "worst_visibility_m": 3000,
      "ceiling_ft": 1400,
      "hazards": [
        "TSRA",
        "RA",
        "TS"
      ],
      "severityScore": 74,
      "metarRaw": "METAR LIRN 232350Z VRB02KT CAVOK 09/06 Q1005 NOSIG",
      "tafRaw": "TAF LIRN 232300Z 2400/2424 19013KT 9999 SCT030 \n  TEMPO 2400/2412 3000 TSRA BKN014 \n  TEMPO 2412/2424 4000 RA"
    },
    {
      "icao": "LIMC",
      "iata": "MXP",
      "name": "Milan Malpensa International Airport",
      "lat": 45.6306,
      "lon": 8.72811,
      "updatedAt": "232350Z",
      "visibility_m": 2000,
      "taf_visibility_m": 1000,
      "worst_visibility_m": 1000,
      "ceiling_ft": 1000,
      "hazards": [
        "BR",
        "DZ",
        "RA",
        "SN"
      ],
      "severityScore": 72,
      "metarRaw": "METAR LIMC 232350Z 03003KT 2000 -DZ BR SCT005 BKN010 03/03 Q1003 NOSIG",
      "tafRaw": "TAF LIMC 232300Z 2400/2506 VRB04KT 3000 RA BR OVC025 \n  PROB40 \n  TEMPO 2400/2403 1000 -RASN OVC002 \n  BECMG 2408/2410 NSW \n  BECMG 2418/2420 RA"
    },
    {
      "icao": "LIMF",
      "iata": "TRN",
      "name": "Turin Airport",
      "lat": 45.200802,
      "lon": 7.64963,
      "updatedAt": "232350Z",
      "visibility_m": 3000,
      "taf_visibility_m": 1000,
      "worst_visibility_m": 1000,
      "ceiling_ft": 1500,
      "hazards": [
        "BR",
        "DZ",
        "RA",
        "SN"
      ],
      "severityScore": 72,
      "metarRaw": "METAR LIMF 232350Z 06004KT 3000 -DZ BR OVC015 02/01 Q1003",
      "tafRaw": "TAF LIMF 232300Z 2400/2424 VRB03KT 4000 RA BKN060 \n  PROB30 \n  TEMPO 2400/2403 1000 -RASN OVC008 \n  BECMG 2403/2405 NSW"
    },
    {
      "icao": "LPPR",
      "iata": "OPO",
      "name": "Francisco de Sá Carneiro Airport",
      "lat": 41.2481002808,
      "lon": -8.68138980865,
      "updatedAt": "232330Z",
      "visibility_m": 10000,
      "taf_visibility_m": 2000,
      "worst_visibility_m": 2000,
      "ceiling_ft": 3000,
      "hazards": [
        "SHRA",
        "RA",
        "BR",
        "TS",
        "DZ"
      ],
      "severityScore": 71,
      "metarRaw": "METAR LPPR 232330Z 27007KT 230V300 9999 -SHRA FEW020CB BKN030 09/04 Q0998",
      "tafRaw": "TAF LPPR 232300Z 2400/2424 26013KT 9999 SCT020 \n  TEMPO 2400/2415 5000 SHRA SCT015 FEW020CB BKN030 \n  PROB30 \n  TEMPO 2400/2408 VRB20G35KT 2000 +TSRAGS BKN012 SCT015CB \n  BECMG 2403/2405 14010KT \n  BECMG 2412/2414 30013KT \n  BECMG 2418/2420 21013KT 6000 -RA SCT006 BKN012 \n  TEMPO 2420/2424 21015G25KT 3000 RADZ BR SCT004 BKN008"
    },
    {
      "icao": "EGNM",
      "iata": "LBA",
      "name": "Leeds Bradford Airport",
      "lat": 53.865898,
      "lon": -1.66057,
      "updatedAt": null,
      "visibility_m": null,
      "taf_visibility_m": 3000,
      "worst_visibility_m": 3000,
      "ceiling_ft": 400,
      "hazards": [
        "BR",
        "DZ",
        "RA"
      ],
      "severityScore": 67,
      "metarRaw": null,
      "tafRaw": "TAF EGNM 231701Z 2318/2418 10010KT 9999 BKN006 \n  TEMPO 2318/2401 3000 BR RADZ BKN004 \n  PROB30 \n  TEMPO 2401/2410 5000 -DZ BR BKN004 \n  BECMG 2409/2412 BKN012 \n  TEMPO 2412/2418 BKN009 \n  PROB30 2412/2418 8000"
    },
    {
      "icao": "LHBP",
      "iata": "BUD",
      "name": "Budapest Liszt Ferenc International Airport",
      "lat": 47.43018,
      "lon": 19.262393,
      "updatedAt": "232330Z",
      "visibility_m": 7000,
      "taf_visibility_m": 2500,
      "worst_visibility_m": 2500,
      "ceiling_ft": 4700,
      "hazards": [
        "BR",
        "RA",
        "FZRA",
        "DZ"
      ],
      "severityScore": 67,
      "metarRaw": "METAR LHBP 232330Z 09005KT 7000 SCT018 OVC047 01/M00 Q1005 NOSIG",
      "tafRaw": "TAF LHBP 232315Z 2400/2424 09007KT 7000 FEW010 SCT030 BKN080 \n  TEMPO 2400/2410 2500 -FZRADZ -RADZ BR BKN004 OVC025 \n  TEMPO 2410/2417 BKN008 BKN060 \n  TEMPO 2417/2421 4000 BR NSC \n  TEMPO 2421/2424 3500 -RA BR BKN003 OVC050"
    },
    {
      "icao": "EPWR",
      "iata": "WRO",
      "name": "Copernicus Wrocław Airport",
      "lat": 51.103719,
      "lon": 16.882096,
      "updatedAt": "232330Z",
      "visibility_m": 5000,
      "taf_visibility_m": 1800,
      "worst_visibility_m": 1800,
      "ceiling_ft": 2000,
      "hazards": [
        "BR",
        "SN",
        "FZDZ",
        "DZ"
      ],
      "severityScore": 66,
      "metarRaw": "METAR EPWR 232330Z 08007KT 5000 -SN BR FEW011 OVC020 M03/M05 Q1006",
      "tafRaw": "TAF EPWR 232330Z 2400/2424 08006KT 5000 BR FEW011 OVC021 \n  BECMG 2400/2402 4000 BR BKN007 \n  PROB30 \n  TEMPO 2402/2408 1800 -FZDZ BR OVC002 \n  BECMG 2410/2413 9000 BKN012 \n  TEMPO 2413/2424 4000 -FZDZ BR BKN006"
    },
    {
      "icao": "OJAI",
      "iata": "AMM",
      "name": "Queen Alia International Airport",
      "lat": 31.7226009369,
      "lon": 35.9931983948,
      "updatedAt": "232300Z",
      "visibility_m": 2500,
      "taf_visibility_m": 500,
      "worst_visibility_m": 500,
      "ceiling_ft": null,
      "hazards": [
        "BR",
        "FG"
      ],
      "severityScore": 65,
      "metarRaw": "METAR OJAI 232300Z 36003KT 2500 BR NSC 08/07 Q1017 NOSIG",
      "tafRaw": "TAF OJAI 232250Z 2400/2506 VRB02KT 2000 BR FEW040 \n  PROB40 \n  TEMPO 2400/2407 0500 FG \n  BECMG 2407/2409 30012KT 5000 HZ"
    },
    {
      "icao": "EPGD",
      "iata": "GDN",
      "name": "Gdańsk Lech Wałęsa Airport",
      "lat": 54.377602,
      "lon": 18.4662,
      "updatedAt": "232330Z",
      "visibility_m": 8000,
      "taf_visibility_m": 1500,
      "worst_visibility_m": 1500,
      "ceiling_ft": 900,
      "hazards": [
        "BR",
        "SN"
      ],
      "severityScore": 63,
      "metarRaw": "METAR EPGD 232330Z 09007KT 8000 OVC009 M07/M09 Q1012",
      "tafRaw": "TAF EPGD 232330Z 2400/2424 09010KT 9000 BKN012 BKN025 \n  TEMPO 2400/2408 3000 -SG BR BKN003 OVC006 \n  TEMPO 2408/2418 BKN007 \n  TEMPO 2418/2424 1500 -SN BR OVC002"
    },
    {
      "icao": "LEMD",
      "iata": "MAD",
      "name": "Adolfo Suárez Madrid–Barajas Airport",
      "lat": 40.471926,
      "lon": -3.56264,
      "updatedAt": "232330Z",
      "visibility_m": 10000,
      "taf_visibility_m": 4000,
      "worst_visibility_m": 4000,
      "ceiling_ft": 1800,
      "hazards": [
        "RA",
        "BR",
        "SN",
        "DZ"
      ],
      "severityScore": 62,
      "metarRaw": "METAR LEMD 232330Z 24013KT 210V270 9999 -RA BKN018 BKN045 03/02 Q0995 NOSIG",
      "tafRaw": "TAF LEMD 232300Z 2400/2506 23010KT 9999 SCT030 TX07/2414Z TNM00/2408Z \n  TEMPO 2400/2402 4000 DZ BKN004 BKN010 \n  PROB30 \n  TEMPO 2400/2402 RASN SN RA \n  PROB40 \n  TEMPO 2402/2410 4000 BR BKN014 \n  TEMPO 2412/2418 26015G25KT \n  TEMPO 2500/2506 4000 DZRA BR BKN010"
    },
    {
      "icao": "OEMA",
      "iata": "MED",
      "name": "Prince Mohammad Bin Abdulaziz Airport",
      "lat": 24.5534,
      "lon": 39.705101,
      "updatedAt": "232300Z",
      "visibility_m": 10000,
      "taf_visibility_m": 2000,
      "worst_visibility_m": 2000,
      "ceiling_ft": 4000,
      "hazards": [
        "TSRA",
        "TS",
        "RA"
      ],
      "severityScore": 62,
      "metarRaw": "METAR OEMA 232300Z 27006KT 9999 SCT045 23/15 Q1017 NOSIG",
      "tafRaw": "TAF OEMA 232300Z 2400/2506 VRB03KT 7000 SCT045 \n  TEMPO 2400/2414 VRB25KT 2000 BLDU TSRA FEW030CB BKN040 \n  BECMG 2406/2408 25016KT \n  BECMG 2418/2420 33008KT"
    },
    {
      "icao": "LIBR",
      "iata": "BDS",
      "name": "Brindisi Airport",
      "lat": 40.6576,
      "lon": 17.947001,
      "updatedAt": "232350Z",
      "visibility_m": 10000,
      "taf_visibility_m": 3000,
      "worst_visibility_m": 3000,
      "ceiling_ft": 400,
      "hazards": [
        "BR",
        "RA"
      ],
      "severityScore": 57,
      "metarRaw": "METAR LIBR 232350Z 21005KT CAVOK 10/09 Q1006",
      "tafRaw": "TAF LIBR 232300Z 2400/2424 17008KT 6000 SCT015 \n  TEMPO 2400/2406 3000 BR BKN004 \n  TEMPO 2408/2413 RA \n  TEMPO 2421/2424 4000 RA"
    },
    {
      "icao": "LRCL",
      "iata": "CLJ",
      "name": "Cluj Avram Iancu International Airport",
      "lat": 46.787425,
      "lon": 23.684292,
      "updatedAt": "232330Z",
      "visibility_m": 6000,
      "taf_visibility_m": 5000,
      "worst_visibility_m": 5000,
      "ceiling_ft": null,
      "hazards": [
        "BR",
        "FZRA",
        "RA"
      ],
      "severityScore": 57,
      "metarRaw": "METAR LRCL 232330Z COR 07008KT 6000 NSC 01/M01 Q1007",
      "tafRaw": "TAF LRCL 232300Z 2400/2409 VRB04KT 7000 NSC \n  PROB40 \n  TEMPO 2402/2406 5000 -FZRA BR"
    },
    {
      "icao": "ENTC",
      "iata": "TOS",
      "name": "Tromsø Airport, Langnes",
      "lat": 69.683296,
      "lon": 18.9189,
      "updatedAt": "232350Z",
      "visibility_m": 10000,
      "taf_visibility_m": 2000,
      "worst_visibility_m": 2000,
      "ceiling_ft": 800,
      "hazards": [
        "SHSN",
        "SN"
      ],
      "severityScore": 53,
      "metarRaw": "METAR ENTC 232350Z AUTO 14002KT 9999 NCD M10/M11 Q1020 RMK WIND 2600FT 31007KT",
      "tafRaw": "TAF ENTC 232300Z 2400/2424 VRB03KT CAVOK \n  BECMG 2406/2409 20010KT \n  TEMPO 2408/2418 SCT015TCU \n  TEMPO 2416/2424 SCT015CB \n  TEMPO 2409/2424 2000 -SHSN VV008"
    },
    {
      "icao": "EPPO",
      "iata": "POZ",
      "name": "Poznań-Ławica Airport",
      "lat": 52.421598,
      "lon": 16.823359,
      "updatedAt": "232330Z",
      "visibility_m": 4800,
      "taf_visibility_m": 3500,
      "worst_visibility_m": 3500,
      "ceiling_ft": 700,
      "hazards": [
        "BR",
        "SN"
      ],
      "severityScore": 53,
      "metarRaw": "METAR EPPO 232330Z 09008KT 4800 BR OVC007 M05/M07 Q1008",
      "tafRaw": "TAF EPPO 232330Z 2400/2424 09010KT 5000 BR OVC007 \n  TEMPO 2400/2410 3500 -SN BR \n  PROB40 \n  TEMPO 2400/2408 OVC004 \n  TEMPO 2412/2418 BKN015"
    },
    {
      "icao": "LRIA",
      "iata": "IAS",
      "name": "Iaşi Airport",
      "lat": 47.180278,
      "lon": 27.620833,
      "updatedAt": "232330Z",
      "visibility_m": 10000,
      "taf_visibility_m": 5000,
      "worst_visibility_m": 5000,
      "ceiling_ft": 900,
      "hazards": [
        "SN",
        "BR"
      ],
      "severityScore": 53,
      "metarRaw": "METAR LRIA 232330Z COR 10008KT 9999 -SN OVC009 M02/M03 Q1012",
      "tafRaw": "TAF LRIA 232300Z 2400/2409 10010KT 9999 OVC025 \n  PROB30 \n  TEMPO 2400/2402 5000 -SN BR BKN010 OVC020"
    },
    {
      "icao": "LPFR",
      "iata": "FAO",
      "name": "Faro - Gago Coutinho International Airport",
      "lat": 37.015909,
      "lon": -7.970939,
      "updatedAt": "232330Z",
      "visibility_m": 10000,
      "taf_visibility_m": 2000,
      "worst_visibility_m": 2000,
      "ceiling_ft": 4000,
      "hazards": [
        "SHRA",
        "TS",
        "RA"
      ],
      "severityScore": 51,
      "metarRaw": "METAR LPFR 232330Z 28014KT 9999 FEW020 BKN040 11/05 Q1008",
      "tafRaw": "TAF LPFR 232300Z 2400/2424 29015KT 9999 SCT020 \n  TEMPO 2400/2412 29018G30KT 5000 SHRA SCT012 FEW020CB BKN030 \n  PROB40 \n  TEMPO 2400/2412 VRB30G43KT 2000 +TSRAGS SCT015CB \n  PROB40 \n  TEMPO 2412/2418 30017G27KT \n  BECMG 2418/2420 30005KT"
    },
    {
      "icao": "EPMO",
      "iata": "WMI",
      "name": "Modlin Airport",
      "lat": 52.451099,
      "lon": 20.6518,
      "updatedAt": "232330Z",
      "visibility_m": 8000,
      "taf_visibility_m": 1000,
      "worst_visibility_m": 1000,
      "ceiling_ft": 1200,
      "hazards": [
        "BR",
        "SN"
      ],
      "severityScore": 50,
      "metarRaw": "METAR EPMO 232330Z 08014KT 8000 BKN012 M06/M07 Q1011",
      "tafRaw": "TAF EPMO 232330Z 2400/2424 08010KT 7000 -SN BKN012 OVC020 \n  PROB40 \n  TEMPO 2400/2408 3500 -SN BR BKN004 OVC007 \n  PROB40 \n  TEMPO 2414/2424 1000 SN BR OVC002"
    },
    {
      "icao": "EPWA",
      "iata": "WAW",
      "name": "Warsaw Chopin Airport",
      "lat": 52.165699,
      "lon": 20.9671,
      "updatedAt": "232330Z",
      "visibility_m": 10000,
      "taf_visibility_m": 1500,
      "worst_visibility_m": 1500,
      "ceiling_ft": 1400,
      "hazards": [
        "BR",
        "SN"
      ],
      "severityScore": 50,
      "metarRaw": "METAR EPWA 232330Z 08010KT 9999 BKN014 OVC022 M05/M07 Q1011 NOSIG",
      "tafRaw": "TAF EPWA 232330Z 2400/2424 08010KT 7000 -SN BKN012 OVC020 \n  PROB40 \n  TEMPO 2400/2408 3500 -SN BR BKN004 OVC007 \n  PROB40 \n  TEMPO 2414/2424 1500 SN BR OVC002"
    },
    {
      "icao": "EDLW",
      "iata": "DTM",
      "name": "Dortmund Airport",
      "lat": 51.518299,
      "lon": 7.61224,
      "updatedAt": "232350Z",
      "visibility_m": 9000,
      "taf_visibility_m": 10000,
      "worst_visibility_m": 9000,
      "ceiling_ft": 3500,
      "hazards": [
        "FZRA",
        "RA"
      ],
      "severityScore": 47,
      "metarRaw": "METAR EDLW 232350Z AUTO 02003KT 9000 // FEW046/// OVC055/// 00/M02 Q0998",
      "tafRaw": "TAF EDLW 231700Z 2318/2418 08007KT 9999 BKN035 \n  PROB30 \n  TEMPO 2404/2410 -FZRA \n  TEMPO 2409/2411 RA"
    },
    {
      "icao": "EGPD",
      "iata": "ABZ",
      "name": "Aberdeen International Airport",
      "lat": 57.2019,
      "lon": -2.19778,
      "updatedAt": "232350Z",
      "visibility_m": 4000,
      "taf_visibility_m": 2500,
      "worst_visibility_m": 2500,
      "ceiling_ft": 900,
      "hazards": [
        "RA",
        "DZ"
      ],
      "severityScore": 47,
      "metarRaw": "METAR EGPD 232350Z AUTO 11019G29KT 7000 -RA OVC011/// //////TCU 05/03 Q0999 TEMPO 4000 RA BKN009",
      "tafRaw": "TAF EGPD 232257Z 2400/2424 11015G28KT 9999 BKN015 \n  TEMPO 2400/2424 6000 -RADZ RA BKN010 \n  PROB40 \n  TEMPO 2400/2421 2500 RADZ +RA BKN006"
    },
    {
      "icao": "LIPY",
      "iata": "AOI",
      "name": "Marche Airport",
      "lat": 43.616299,
      "lon": 13.3623,
      "updatedAt": "232350Z",
      "visibility_m": 10000,
      "taf_visibility_m": 2000,
      "worst_visibility_m": 2000,
      "ceiling_ft": 500,
      "hazards": [
        "BR",
        "RA"
      ],
      "severityScore": 47,
      "metarRaw": "METAR LIPY 232350Z AUTO 19004KT 140V230 9999 BKN076/// 11/08 Q1002",
      "tafRaw": "TAF LIPY 232300Z 2400/2424 VRB05KT 6000 BKN060 \n  TEMPO 2400/2412 2000 RA BKN005 \n  TEMPO 2416/2424 3000 BR"
    },
    {
      "icao": "LIPZ",
      "iata": "VCE",
      "name": "Venice Marco Polo Airport",
      "lat": 45.505299,
      "lon": 12.3519,
      "updatedAt": "232350Z",
      "visibility_m": 4000,
      "taf_visibility_m": 3000,
      "worst_visibility_m": 3000,
      "ceiling_ft": 2500,
      "hazards": [
        "BR",
        "RA",
        "DZ",
        "SHRA"
      ],
      "severityScore": 46,
      "metarRaw": "METAR LIPZ 232350Z 02009KT 6000 RADZ BKN025 04/03 Q1004 BECMG 4000 RA BR",
      "tafRaw": "TAF LIPZ 232300Z 2400/2506 04006KT 4000 RA BKN030 \n  BECMG 2418/2420 6000 NSW \n  TEMPO 2420/2506 3000 SHRA"
    },
    {
      "icao": "LFPO",
      "iata": "ORY",
      "name": "Paris-Orly Airport",
      "lat": 48.72333,
      "lon": 2.37944,
      "updatedAt": "232330Z",
      "visibility_m": 10000,
      "taf_visibility_m": 2000,
      "worst_visibility_m": 2000,
      "ceiling_ft": 200,
      "hazards": [
        "BR"
      ],
      "severityScore": 45,
      "metarRaw": "METAR LFPO 232330Z 18007KT CAVOK 05/02 Q0995 NOSIG",
      "tafRaw": "TAF LFPO 232300Z 2400/2506 17008KT CAVOK \n  PROB30 \n  TEMPO 2422/2502 4000 BR \n  BECMG 2502/2504 BKN006 \n  TEMPO 2504/2506 4000 BR BKN004 \n  PROB40 \n  TEMPO 2504/2506 2000 BR BKN002"
    },
    {
      "icao": "LIBG",
      "iata": "TAR",
      "name": "Taranto-Grottaglie Marcello Arlotta Airport",
      "lat": 40.517502,
      "lon": 17.4032,
      "updatedAt": null,
      "visibility_m": null,
      "taf_visibility_m": 3000,
      "worst_visibility_m": 3000,
      "ceiling_ft": 400,
      "hazards": [
        "BR"
      ],
      "severityScore": 45,
      "metarRaw": null,
      "tafRaw": "TAF LIBG 231700Z 2318/2403 VRB03KT 9999 FEW020 \n  TEMPO 2400/2403 3000 BR BKN004"
    },
    {
      "icao": "LTAC",
      "iata": "ESB",
      "name": "Esenboğa International Airport",
      "lat": 40.128101,
      "lon": 32.995098,
      "updatedAt": "232350Z",
      "visibility_m": 2300,
      "taf_visibility_m": null,
      "worst_visibility_m": 2300,
      "ceiling_ft": 2500,
      "hazards": [
        "BR",
        "SN",
        "RA"
      ],
      "severityScore": 45,
      "metarRaw": "METAR LTAC 232350Z VRB02KT 2300 -RASN BR SCT006 BKN025 BKN080 02/01 Q1011 NOSIG",
      "tafRaw": null
    },
    {
      "icao": "EKBI",
      "iata": "BLL",
      "name": "Billund Airport",
      "lat": 55.740335,
      "lon": 9.157019,
      "updatedAt": "232350Z",
      "visibility_m": 10000,
      "taf_visibility_m": 4000,
      "worst_visibility_m": 4000,
      "ceiling_ft": 800,
      "hazards": [
        "SN"
      ],
      "severityScore": 43,
      "metarRaw": "METAR EKBI 232350Z AUTO 09021G32KT 9999 OVC018/// M01/M05 Q1009",
      "tafRaw": "TAF EKBI 232327Z 2400/2424 11015KT 9999 OVC020 \n  TEMPO 2400/2402 10020G30KT \n  TEMPO 2402/2406 10015G25KT \n  TEMPO 2406/2417 4000 -SN BKN010 \n  BECMG 2417/2420 BKN008 \n  TEMPO 2417/2424 4000 -SN"
    },
    {
      "icao": "EETN",
      "iata": "TLL",
      "name": "Lennart Meri Tallinn Airport",
      "lat": 59.413246,
      "lon": 24.83264,
      "updatedAt": "232350Z",
      "visibility_m": 10000,
      "taf_visibility_m": 2000,
      "worst_visibility_m": 2000,
      "ceiling_ft": 1200,
      "hazards": [
        "SN",
        "BR"
      ],
      "severityScore": 40,
      "metarRaw": "METAR EETN 232350Z 13005KT 9999 -SN BKN012 M13/M14 Q1025",
      "tafRaw": "TAF EETN 232330Z 2400/2424 12007KT 9999 OVC015 \n  PROB40 \n  TEMPO 2400/2403 2000 BR BKN003 \n  TEMPO 2409/2414 BKN008"
    },
    {
      "icao": "EFTU",
      "iata": "TKU",
      "name": "Turku Airport",
      "lat": 60.514099,
      "lon": 22.2628,
      "updatedAt": "232350Z",
      "visibility_m": 10000,
      "taf_visibility_m": 4000,
      "worst_visibility_m": 4000,
      "ceiling_ft": 1900,
      "hazards": [
        "SHSN",
        "SN"
      ],
      "severityScore": 40,
      "metarRaw": "METAR EFTU 232350Z AUTO 07005KT 9999 -SHSN OVC019 M09/M12 Q1025",
      "tafRaw": "TAF EFTU 232331Z 2400/2424 08006KT 9999 -SN OVC019 \n  PROB30 \n  TEMPO 2400/2403 7000 BKN014 \n  BECMG 2403/2406 BKN013 \n  PROB30 \n  TEMPO 2406/2409 4000 BKN009 \n  TEMPO 2409/2415 7000 BKN015 \n  BECMG 2415/2418 BKN015 \n  BECMG 2418/2421 BKN009"
    },
    {
      "icao": "EPSY",
      "iata": "SZY",
      "name": "Olsztyn-Mazury Airport",
      "lat": 53.481899,
      "lon": 20.9377,
      "updatedAt": "232330Z",
      "visibility_m": 6000,
      "taf_visibility_m": 4000,
      "worst_visibility_m": 4000,
      "ceiling_ft": 1200,
      "hazards": [
        "SN",
        "BR"
      ],
      "severityScore": 40,
      "metarRaw": "METAR EPSY 232330Z 09005KT 020V150 6000 -SN SCT008 OVC012 M08/M10 Q1013",
      "tafRaw": "TAF EPSY 232330Z 2400/2409 09009KT 6000 BKN009 OVC016 \n  PROB40 \n  TEMPO 2400/2409 4000 -SN BR OVC006"
    },
    {
      "icao": "LHDC",
      "iata": "DEB",
      "name": "Debrecen International Airport",
      "lat": 47.488899,
      "lon": 21.615299,
      "updatedAt": "232315Z",
      "visibility_m": 4100,
      "taf_visibility_m": 4500,
      "worst_visibility_m": 4100,
      "ceiling_ft": 4000,
      "hazards": [
        "BR",
        "RA",
        "SN"
      ],
      "severityScore": 40,
      "metarRaw": "METAR LHDC 232315Z AUTO 09003KT 4100 -RA BR BKN040 OVC092 //////TCU 02/01 Q1007",
      "tafRaw": "TAF LHDC 231415Z 2315/2324 08004KT 8000 FEW040 BKN070 \n  TEMPO 2319/2324 4500 -RASN -RA SCT020 OVC040"
    },
    {
      "icao": "LUKK",
      "iata": "RMO",
      "name": "Chişinău International Airport",
      "lat": 46.9277,
      "lon": 28.931,
      "updatedAt": "232330Z",
      "visibility_m": 10000,
      "taf_visibility_m": 4000,
      "worst_visibility_m": 4000,
      "ceiling_ft": 1000,
      "hazards": [
        "SN",
        "BR"
      ],
      "severityScore": 40,
      "metarRaw": "METAR LUKK 232330Z 08009KT 9999 -SN OVC012 M03/M05 Q1013 TEMPO BKN010",
      "tafRaw": "TAF LUKK 232308Z 2400/2424 09008KT 9999 BKN012 \n  TEMPO 2400/2406 4000 -SN BR OVC005 \n  BECMG 2418/2420 BKN008"
    },
    {
      "icao": "LIBD",
      "iata": "BRI",
      "name": "Bari Karol Wojtyła International Airport",
      "lat": 41.138901,
      "lon": 16.760599,
      "updatedAt": "232350Z",
      "visibility_m": 10000,
      "taf_visibility_m": 4000,
      "worst_visibility_m": 4000,
      "ceiling_ft": null,
      "hazards": [
        "BR",
        "RA",
        "SHRA"
      ],
      "severityScore": 36,
      "metarRaw": "METAR LIBD 232350Z 21008KT CAVOK 07/06 Q1005",
      "tafRaw": "TAF LIBD 232300Z 2400/2424 16007KT 6000 FEW030 \n  TEMPO 2400/2406 4000 BR \n  TEMPO 2406/2412 RA \n  TEMPO 2422/2424 4000 SHRA"
    },
    {
      "icao": "LQSA",
      "iata": "SJJ",
      "name": "Sarajevo International Airport",
      "lat": 43.8246,
      "lon": 18.331499,
      "updatedAt": "232330Z",
      "visibility_m": 2500,
      "taf_visibility_m": 3000,
      "worst_visibility_m": 2500,
      "ceiling_ft": 4500,
      "hazards": [
        "BR",
        "SHRA",
        "RA"
      ],
      "severityScore": 36,
      "metarRaw": "METAR LQSA 232330Z 14003KT 2500 BR NSC M01/M01 Q1005",
      "tafRaw": "TAF LQSA 232300Z 2400/2424 10005KT 3000 BR FEW006 SCT050 TX11/2413Z TNM02/2400Z \n  BECMG 2403/2406 9999 NSW \n  TEMPO 2407/2414 16011KT \n  PROB40 \n  TEMPO 2414/2424 SHRA SCT018 FEW035TCU BKN045"
    },
    {
      "icao": "EDDB",
      "iata": "BER",
      "name": "Berlin Brandenburg Willy Brandt Airport",
      "lat": 52.361738,
      "lon": 13.502341,
      "updatedAt": "232350Z",
      "visibility_m": 4000,
      "taf_visibility_m": 4000,
      "worst_visibility_m": 4000,
      "ceiling_ft": 900,
      "hazards": [
        "BR"
      ],
      "severityScore": 35,
      "metarRaw": "METAR EDDB 232350Z AUTO 08008KT 6000 BKN011 M04/M07 Q1007 TEMPO 4000 BR BKN009",
      "tafRaw": "TAF EDDB 232300Z 2400/2424 09009KT 6000 BKN011 \n  TEMPO 2400/2409 4000 BR BKN009 \n  TEMPO 2411/2416 BKN015 \n  TEMPO 2416/2424 4500 BR BKN009"
    },
    {
      "icao": "EDDN",
      "iata": "NUE",
      "name": "Nuremberg Airport",
      "lat": 49.498699,
      "lon": 11.078056,
      "updatedAt": "232350Z",
      "visibility_m": 8000,
      "taf_visibility_m": 3000,
      "worst_visibility_m": 3000,
      "ceiling_ft": 800,
      "hazards": [
        "BR"
      ],
      "severityScore": 35,
      "metarRaw": "METAR EDDN 232350Z AUTO 10005KT 8000 NCD M06/M09 Q1000",
      "tafRaw": "TAF EDDN 232300Z 2400/2424 10005KT 8000 NSC \n  PROB30 \n  TEMPO 2409/2414 BKN012 \n  BECMG 2417/2419 OVC008 \n  TEMPO 2418/2424 3000 BR"
    },
    {
      "icao": "UBBB",
      "iata": "GYD",
      "name": "Heydar Aliyev International Airport",
      "lat": 40.467498779296875,
      "lon": 50.04669952392578,
      "updatedAt": "232330Z",
      "visibility_m": 10000,
      "taf_visibility_m": 4000,
      "worst_visibility_m": 4000,
      "ceiling_ft": 1000,
      "hazards": [
        "BR",
        "RA"
      ],
      "severityScore": 34,
      "metarRaw": "METAR UBBB 232330Z 31014KT 9999 BKN010 OVC025 04/01 Q1014 NOSIG",
      "tafRaw": "TAF UBBB 232301Z 2400/2424 33012KT 9999 SCT012 BKN030 TX07/2410Z TN02/2402Z \n  TEMPO 2400/2404 32018KT -RA BKN008 OVC020 \n  TEMPO 2408/2412 36006KT \n  BECMG 2412/2414 32005KT \n  TEMPO 2417/2424 VRB04KT 4000 BR SCT008"
    },
    {
      "icao": "LATI",
      "iata": "TIA",
      "name": "Tirana International Airport Mother Teresa",
      "lat": 41.4147,
      "lon": 19.7206,
      "updatedAt": "232350Z",
      "visibility_m": 7000,
      "taf_visibility_m": 2500,
      "worst_visibility_m": 2500,
      "ceiling_ft": 2500,
      "hazards": [
        "RA",
        "FG"
      ],
      "severityScore": 32,
      "metarRaw": "METAR LATI 232350Z 18003KT 7000 FEW047 SCT060 07/05 Q1008 NOSIG",
      "tafRaw": "TAF LATI 232300Z 2400/2424 VRB05KT 8000 SCT040 BKN082 TX17/2412Z TN05/2405Z \n  PROB30 \n  TEMPO 2401/2406 2500 BCFG NSC \n  TEMPO 2410/2417 18014KT RA BKN025"
    },
    {
      "icao": "LIME",
      "iata": "BGY",
      "name": "Milan Bergamo Airport / Antonio Locatelli Air Base",
      "lat": 45.670725,
      "lon": 9.709223,
      "updatedAt": "232350Z",
      "visibility_m": 1900,
      "taf_visibility_m": 2500,
      "worst_visibility_m": 1900,
      "ceiling_ft": 4000,
      "hazards": [
        "BR",
        "DZ",
        "RA"
      ],
      "severityScore": 32,
      "metarRaw": "METAR LIME 232350Z AUTO VRB01KT 1900 DZ BR FEW011/// BKN015/// BKN024/// 03/03 Q1003 RERA",
      "tafRaw": "TAF LIME 232300Z 2400/2424 VRB04KT 2500 RA BR SCT015 BKN040 \n  BECMG 2412/2414 6000 NSW \n  BECMG 2419/2421 2500 RA"
    },
    {
      "icao": "ENTO",
      "iata": "TRF",
      "name": "Sandefjord Airport, Torp",
      "lat": 59.186699,
      "lon": 10.2586,
      "updatedAt": "232350Z",
      "visibility_m": 10000,
      "taf_visibility_m": 4000,
      "worst_visibility_m": 4000,
      "ceiling_ft": 1200,
      "hazards": [
        "SN"
      ],
      "severityScore": 30,
      "metarRaw": "METAR ENTO 232350Z AUTO 04009KT 010V070 9999 -SN SCT014/// BKN017/// OVC025/// M04/M06 Q1018",
      "tafRaw": "TAF ENTO 232300Z 2400/2424 04012KT 9999 -SN OVC020 \n  TEMPO 2400/2418 4000 BKN012"
    },
    {
      "icao": "ESKN",
      "iata": "NYO",
      "name": "Stockholm Skavsta Airport",
      "lat": 58.789656,
      "lon": 16.911479,
      "updatedAt": "232350Z",
      "visibility_m": 10000,
      "taf_visibility_m": 4000,
      "worst_visibility_m": 4000,
      "ceiling_ft": 1900,
      "hazards": [
        "SN"
      ],
      "severityScore": 30,
      "metarRaw": "METAR ESKN 232350Z 04010KT 9999 -SN BKN019 BKN024 M03/M06 Q1020",
      "tafRaw": "TAF ESKN 232330Z 2400/2424 05008KT 9999 -SN OVC020 \n  PROB40 2400/2424 4000 SG BKN012 \n  BECMG 2402/2404 11010KT"
    },
    {
      "icao": "ESSA",
      "iata": "ARN",
      "name": "Stockholm-Arlanda Airport",
      "lat": 59.64849,
      "lon": 17.928829,
      "updatedAt": "232350Z",
      "visibility_m": 10000,
      "taf_visibility_m": 4000,
      "worst_visibility_m": 4000,
      "ceiling_ft": 1700,
      "hazards": [
        "SN"
      ],
      "severityScore": 30,
      "metarRaw": "METAR ESSA 232350Z 08006KT 050V110 9999 OVC017 M04/M08 Q1022 NOSIG",
      "tafRaw": "TAF ESSA 232330Z 2400/2424 09007KT 9999 OVC018 \n  PROB40 2400/2424 4000 -SN SG BKN013"
    },
    {
      "icao": "EGBB",
      "iata": "BHX",
      "name": "Birmingham Airport",
      "lat": 52.453899,
      "lon": -1.74803,
      "updatedAt": "232350Z",
      "visibility_m": 10000,
      "taf_visibility_m": 4000,
      "worst_visibility_m": 4000,
      "ceiling_ft": 3500,
      "hazards": [
        "RA",
        "SHRA"
      ],
      "severityScore": 26,
      "metarRaw": "METAR EGBB 232350Z 11011KT 9999 BKN035 06/04 Q0987",
      "tafRaw": "TAF EGBB 232256Z 2400/2424 12012KT 9999 FEW015 SCT025 \n  PROB30 \n  TEMPO 2400/2404 BKN014 \n  PROB30 \n  TEMPO 2404/2413 BKN009 \n  PROB30 \n  TEMPO 2409/2415 13015G25KT \n  TEMPO 2415/2424 13015G27KT \n  TEMPO 2418/2424 7000 RA BKN014 \n  PROB40 \n  TEMPO 2421/2424 4000 +RA +SHRA BKN009"
    },
    {
      "icao": "EGGP",
      "iata": "LPL",
      "name": "Liverpool John Lennon Airport",
      "lat": 53.334863,
      "lon": -2.849637,
      "updatedAt": "232350Z",
      "visibility_m": 10000,
      "taf_visibility_m": 6000,
      "worst_visibility_m": 6000,
      "ceiling_ft": 3700,
      "hazards": [
        "RA",
        "SHRA"
      ],
      "severityScore": 26,
      "metarRaw": "METAR EGGP 232350Z 11015KT 9999 SCT022 BKN037 07/04 Q0987",
      "tafRaw": "TAF EGGP 232300Z 2400/2424 10013KT 9999 SCT020 \n  TEMPO 2400/2424 11017G27KT \n  PROB30 \n  TEMPO 2400/2401 6000 SHRA \n  PROB30 \n  TEMPO 2406/2411 BKN013 \n  PROB40 \n  TEMPO 2419/2424 BKN012 \n  TEMPO 2422/2424 7000 RA SHRA"
    },
    {
      "icao": "LEZG",
      "iata": "ZAZ",
      "name": "Zaragoza Airport",
      "lat": 41.666199,
      "lon": -1.04155,
      "updatedAt": "232330Z",
      "visibility_m": 10000,
      "taf_visibility_m": 3000,
      "worst_visibility_m": 3000,
      "ceiling_ft": 5000,
      "hazards": [
        "RA",
        "SHRA"
      ],
      "severityScore": 26,
      "metarRaw": "METAR LEZG 232330Z 22003KT 9999 OVC050 08/04 Q0995 NOSIG",
      "tafRaw": "TAF LEZG 232300Z 2400/2424 15006KT 9999 SCT050 TX10/2415Z TN04/2406Z \n  BECMG 2400/2402 25010KT \n  TEMPO 2400/2408 26015G25KT \n  PROB40 \n  TEMPO 2400/2406 3000 SHRA RA FEW030TCU \n  BECMG 2409/2411 30010KT \n  TEMPO 2415/2421 30015G25KT"
    },
    {
      "icao": "LIPH",
      "iata": "TSF",
      "name": "Treviso Antonio Canova Airport",
      "lat": 45.648399,
      "lon": 12.1944,
      "updatedAt": "232350Z",
      "visibility_m": 10000,
      "taf_visibility_m": 4000,
      "worst_visibility_m": 4000,
      "ceiling_ft": 4000,
      "hazards": [
        "RA",
        "SHRA"
      ],
      "severityScore": 26,
      "metarRaw": "METAR LIPH 232350Z AUTO 01005KT 9999 -RA OVC034/// 04/02 Q1004 RERA",
      "tafRaw": "TAF LIPH 232300Z 2400/2424 VRB05KT 4000 RA BKN040 \n  BECMG 2415/2417 9999 NSW \n  TEMPO 2420/2424 4000 SHRA"
    },
    {
      "icao": "LIPQ",
      "iata": "TRS",
      "name": "Trieste–Friuli Venezia Giulia Airport",
      "lat": 45.827499,
      "lon": 13.4722,
      "updatedAt": "232350Z",
      "visibility_m": 9000,
      "taf_visibility_m": 4000,
      "worst_visibility_m": 4000,
      "ceiling_ft": 3500,
      "hazards": [
        "RA",
        "SHRA"
      ],
      "severityScore": 26,
      "metarRaw": "METAR LIPQ 232350Z AUTO 02005KT 9000 RA FEW028/// OVC041/// 04/03 Q1004",
      "tafRaw": "TAF LIPQ 232300Z 2400/2424 VRB04KT 4000 RA BKN035 \n  BECMG 2416/2418 6000 NSW \n  TEMPO 2422/2424 4000 SHRA"
    },
    {
      "icao": "BKPR",
      "iata": "PRN",
      "name": "Priština Adem Jashari International Airport",
      "lat": 42.5728,
      "lon": 21.035801,
      "updatedAt": "232330Z",
      "visibility_m": 1500,
      "taf_visibility_m": null,
      "worst_visibility_m": 1500,
      "ceiling_ft": null,
      "hazards": [
        "BR"
      ],
      "severityScore": 25,
      "metarRaw": "METAR BKPR 232330Z 04003KT 020V090 3000 BR FEW012 M02/M02 Q1008 BECMG 1500 BR",
      "tafRaw": null
    },
    {
      "icao": "GCTS",
      "iata": "TFS",
      "name": "Tenerife Sur Airport",
      "lat": 28.0445,
      "lon": -16.5725,
      "updatedAt": "232330Z",
      "visibility_m": 10000,
      "taf_visibility_m": 10000,
      "worst_visibility_m": 10000,
      "ceiling_ft": 3500,
      "hazards": [
        "TS"
      ],
      "severityScore": 25,
      "metarRaw": "METAR GCTS 232330Z VRB02KT 9999 BKN035 19/14 Q1023 NOSIG",
      "tafRaw": "TAF GCTS 232000Z 2321/2421 14007KT 9999 BKN035 TX22/2414Z TN15/2406Z \n  PROB40 \n  TEMPO 2321/2323 07010KT \n  BECMG 2409/2412 08015KT \n  PROB30 \n  TEMPO 2412/2418 08015G25KT \n  BECMG 2419/2421 02005KT"
    },
    {
      "icao": "LRBC",
      "iata": "BCM",
      "name": "Bacău George Enescu International  Airport",
      "lat": 46.5219,
      "lon": 26.910299,
      "updatedAt": "232330Z",
      "visibility_m": 7000,
      "taf_visibility_m": 10000,
      "worst_visibility_m": 7000,
      "ceiling_ft": 900,
      "hazards": [],
      "severityScore": 25,
      "metarRaw": "METAR LRBC 232330Z 16007KT 7000 OVC009 M02/M04 Q1011",
      "tafRaw": "TAF LRBC 232300Z 2400/2409 16008KT 9999 OVC010 \n  BECMG 2406/2408 BKN025"
    },
    {
      "icao": "GMMN",
      "iata": "CMN",
      "name": "Mohammed V International Airport",
      "lat": 33.3675,
      "lon": -7.58997,
      "updatedAt": "232330Z",
      "visibility_m": 6000,
      "taf_visibility_m": 2000,
      "worst_visibility_m": 2000,
      "ceiling_ft": 1300,
      "hazards": [
        "RA"
      ],
      "severityScore": 24,
      "metarRaw": "METAR GMMN 232330Z 30019KT 6000 -RA SCT003 BKN013 10/09 Q1015 NOSIG",
      "tafRaw": "TAF GMMN 232300Z 2400/2506 26016KT 8000 -RA SCT003 BKN020 \n  TEMPO 2400/2418 26024G38KT 2000 RA BKN002 BKN015TCU FEW030CB"
    },
    {
      "icao": "LIPR",
      "iata": "RMI",
      "name": "Federico Fellini International Airport",
      "lat": 44.020024,
      "lon": 12.612198,
      "updatedAt": "232350Z",
      "visibility_m": 8000,
      "taf_visibility_m": 3000,
      "worst_visibility_m": 3000,
      "ceiling_ft": 1000,
      "hazards": [
        "RA"
      ],
      "severityScore": 24,
      "metarRaw": "METAR LIPR 232350Z AUTO 09003KT 360V130 8000 BKN047/// BKN160/// 08/07 Q1002",
      "tafRaw": "TAF LIPR 232300Z 2400/2424 VRB05KT 6000 BKN040 \n  TEMPO 2400/2412 3000 RA BKN010 \n  BECMG 2420/2422 16010KT"
    },
    {
      "icao": "EDDH",
      "iata": "HAM",
      "name": "Hamburg Helmut Schmidt Airport",
      "lat": 53.630402,
      "lon": 9.98823,
      "updatedAt": "232350Z",
      "visibility_m": 7000,
      "taf_visibility_m": 3500,
      "worst_visibility_m": 3500,
      "ceiling_ft": 1400,
      "hazards": [
        "BR"
      ],
      "severityScore": 22,
      "metarRaw": "METAR EDDH 232350Z AUTO 09009KT 7000 BKN014 OVC035 M05/M08 Q1006 NOSIG",
      "tafRaw": "TAF EDDH 232300Z 2400/2506 09010KT 7000 BKN013 \n  PROB30 \n  TEMPO 2400/2412 4000 BR \n  BECMG 2402/2405 BKN008 \n  BECMG 2409/2412 BKN015 \n  TEMPO 2412/2418 BKN013 \n  BECMG 2418/2421 BKN008 \n  TEMPO 2421/2506 3500 BR"
    },
    {
      "icao": "EGPF",
      "iata": "GLA",
      "name": "Glasgow Airport",
      "lat": 55.871899,
      "lon": -4.43306,
      "updatedAt": "232350Z",
      "visibility_m": 10000,
      "taf_visibility_m": 5000,
      "worst_visibility_m": 5000,
      "ceiling_ft": 2000,
      "hazards": [
        "RA",
        "DZ"
      ],
      "severityScore": 22,
      "metarRaw": "METAR EGPF 232350Z AUTO 07014KT 9999 BKN020 OVC024 07/04 Q0992",
      "tafRaw": "TAF EGPF 232254Z 2400/2424 07012KT 9999 FEW016 SCT030 \n  TEMPO 2400/2404 5000 RA -RADZ BKN012 \n  PROB30 \n  TEMPO 2400/2418 09015G25KT \n  PROB30 2404/2412 9000 \n  TEMPO 2418/2424 09018G28KT"
    },
    {
      "icao": "LIPX",
      "iata": "VRN",
      "name": "Verona Villafranca Valerio Catullo Airport",
      "lat": 45.394955,
      "lon": 10.887303,
      "updatedAt": "232350Z",
      "visibility_m": 5000,
      "taf_visibility_m": 4000,
      "worst_visibility_m": 4000,
      "ceiling_ft": 3000,
      "hazards": [
        "BR",
        "RA"
      ],
      "severityScore": 22,
      "metarRaw": "METAR LIPX 232350Z VRB02KT 5000 -RA BR OVC030 04/04 Q1003",
      "tafRaw": "TAF LIPX 232300Z 2400/2424 VRB03KT 4000 RA BR OVC030 \n  TEMPO 2410/2412 6000 NSW"
    },
    {
      "icao": "LJLJ",
      "iata": "LJU",
      "name": "Ljubljana Jože Pučnik Airport",
      "lat": 46.223701,
      "lon": 14.4576,
      "updatedAt": "232330Z",
      "visibility_m": 10000,
      "taf_visibility_m": 4000,
      "worst_visibility_m": 4000,
      "ceiling_ft": 3000,
      "hazards": [
        "BR",
        "RA"
      ],
      "severityScore": 22,
      "metarRaw": "METAR LJLJ 232330Z VRB01KT 9999 BKN030 01/M02 Q1003 NOSIG",
      "tafRaw": "TAF LJLJ 232300Z 2400/2500 VRB02KT 9999 OVC035 \n  PROB30 \n  TEMPO 2400/2408 4000 -RA BR BKN012 OVC025 \n  BECMG 2408/2410 4000 RA BR \n  BECMG 2415/2417 7000 NSW \n  TEMPO 2418/2500 -RA"
    },
    {
      "icao": "LKPR",
      "iata": "PRG",
      "name": "Václav Havel Airport Prague",
      "lat": 50.100874,
      "lon": 14.259911,
      "updatedAt": "232330Z",
      "visibility_m": 6000,
      "taf_visibility_m": 2000,
      "worst_visibility_m": 2000,
      "ceiling_ft": 1100,
      "hazards": [
        "BR"
      ],
      "severityScore": 22,
      "metarRaw": "METAR LKPR 232330Z 35003KT 6000 OVC011 M06/M07 Q1003 NOSIG",
      "tafRaw": "TAF LKPR 232300Z 2400/2506 36005KT 6000 BKN012 \n  TEMPO 2400/2403 5000 BR BKN009 \n  BECMG 2403/2405 VRB02KT 3000 BR BKN009 \n  TEMPO 2409/2418 7000 BKN012 \n  BECMG 2503/2505 2000 BR BKN004"
    },
    {
      "icao": "LRTR",
      "iata": "TSR",
      "name": "Timişoara Traian Vuia Airport",
      "lat": 45.809898,
      "lon": 21.3379,
      "updatedAt": "232330Z",
      "visibility_m": 10000,
      "taf_visibility_m": 3000,
      "worst_visibility_m": 3000,
      "ceiling_ft": 1000,
      "hazards": [
        "BR"
      ],
      "severityScore": 22,
      "metarRaw": "METAR LRTR 232330Z 10008KT CAVOK 02/01 Q1006",
      "tafRaw": "TAF LRTR 232300Z 2400/2424 11008KT CAVOK \n  PROB30 \n  TEMPO 2401/2406 3000 BR BKN010"
    },
    {
      "icao": "UGKO",
      "iata": "KUT",
      "name": "David the Builder Kutaisi International Airport",
      "lat": 42.177448,
      "lon": 42.485353,
      "updatedAt": "232330Z",
      "visibility_m": 10000,
      "taf_visibility_m": 3000,
      "worst_visibility_m": 3000,
      "ceiling_ft": 8500,
      "hazards": [
        "BR",
        "RA"
      ],
      "severityScore": 22,
      "metarRaw": "METAR UGKO 232330Z 09007KT 9999 SCT053 BKN085 04/03 Q1013 NOSIG",
      "tafRaw": "TAF UGKO 232300Z 2400/2424 09008KT 9999 BKN060 TX10/2412Z TN04/2401Z \n  TEMPO 2406/2410 5000 RA BR BKN025 OVC050 \n  TEMPO 2413/2424 VRB02KT 3000 RA BR SCT010 BKN020 OVC040"
    },
    {
      "icao": "ENGM",
      "iata": "OSL",
      "name": "Oslo-Gardermoen International Airport",
      "lat": 60.193901,
      "lon": 11.1004,
      "updatedAt": "232350Z",
      "visibility_m": 9000,
      "taf_visibility_m": 4000,
      "worst_visibility_m": 4000,
      "ceiling_ft": 3000,
      "hazards": [
        "SN"
      ],
      "severityScore": 18,
      "metarRaw": "METAR ENGM 232350Z 03005KT 9000 -SN FEW014 BKN030 M07/M08 Q1020",
      "tafRaw": "TAF ENGM 232300Z 2400/2424 02008KT 9999 -SN FEW015 OVC035 \n  TEMPO 2400/2424 4000"
    },
    {
      "icao": "ESGG",
      "iata": "GOT",
      "name": "Göteborg Landvetter Airport",
      "lat": 57.6628,
      "lon": 12.2798,
      "updatedAt": "232350Z",
      "visibility_m": 10000,
      "taf_visibility_m": 10000,
      "worst_visibility_m": 10000,
      "ceiling_ft": 2400,
      "hazards": [
        "SN"
      ],
      "severityScore": 18,
      "metarRaw": "METAR ESGG 232350Z 09007KT 9999 -SN OVC024 M03/M08 Q1015",
      "tafRaw": "TAF ESGG 232330Z 2400/2424 08009KT 9999 OVC022"
    },
    {
      "icao": "GMMX",
      "iata": "RAK",
      "name": "Marrakesh Menara Airport",
      "lat": 31.604807,
      "lon": -8.035788,
      "updatedAt": "232330Z",
      "visibility_m": 8000,
      "taf_visibility_m": 4000,
      "worst_visibility_m": 4000,
      "ceiling_ft": 2000,
      "hazards": [
        "RA"
      ],
      "severityScore": 12,
      "metarRaw": "METAR GMMX 232330Z 25008KT 8000 SCT026 11/09 Q1018 NOSIG",
      "tafRaw": "TAF GMMX 232300Z 2400/2506 24010KT 8000 SCT023 \n  TEMPO 2404/2412 32018KT 4000 RA SCT010 BKN020"
    },
    {
      "icao": "EDDK",
      "iata": "CGN",
      "name": "Cologne Bonn Airport",
      "lat": 50.865898,
      "lon": 7.14274,
      "updatedAt": "232350Z",
      "visibility_m": 10000,
      "taf_visibility_m": 10000,
      "worst_visibility_m": 10000,
      "ceiling_ft": 4100,
      "hazards": [
        "RA"
      ],
      "severityScore": 12,
      "metarRaw": "METAR EDDK 232350Z AUTO 12009KT 090V150 9999 BKN041 04/M04 Q0999 NOSIG",
      "tafRaw": "TAF EDDK 232300Z 2400/2506 11008KT 9999 BKN040 \n  PROB30 \n  TEMPO 2402/2408 RA"
    },
    {
      "icao": "EGGW",
      "iata": "LTN",
      "name": "London Luton Airport",
      "lat": 51.874699,
      "lon": -0.368333,
      "updatedAt": "232350Z",
      "visibility_m": 10000,
      "taf_visibility_m": 4000,
      "worst_visibility_m": 4000,
      "ceiling_ft": 2100,
      "hazards": [
        "RA"
      ],
      "severityScore": 12,
      "metarRaw": "METAR EGGW 232350Z AUTO 14011KT 9999 OVC021 06/03 Q0989",
      "tafRaw": "TAF EGGW 232256Z 2400/2424 13011KT 9999 SCT018 \n  PROB40 \n  TEMPO 2405/2411 BKN007 \n  PROB30 \n  TEMPO 2418/2424 15015G25KT \n  TEMPO 2420/2424 8000 -RA BKN010 \n  PROB30 \n  TEMPO 2420/2424 4000 RA BKN006"
    },
    {
      "icao": "EGKK",
      "iata": "LGW",
      "name": "London Gatwick Airport",
      "lat": 51.148771,
      "lon": -0.192089,
      "updatedAt": "232350Z",
      "visibility_m": 10000,
      "taf_visibility_m": 8000,
      "worst_visibility_m": 8000,
      "ceiling_ft": 2300,
      "hazards": [
        "RA"
      ],
      "severityScore": 12,
      "metarRaw": "METAR EGKK 232350Z 13008KT 090V170 9999 BKN023 07/04 Q0989",
      "tafRaw": "TAF EGKK 232255Z 2400/2506 12008KT 9999 SCT025 \n  PROB30 \n  TEMPO 2417/2423 14015G25KT \n  TEMPO 2420/2506 8000 -RA BKN014 \n  PROB30 \n  TEMPO 2420/2506 RA BKN008"
    },
    {
      "icao": "EKCH",
      "iata": "CPH",
      "name": "Copenhagen Kastrup Airport",
      "lat": 55.617900848389,
      "lon": 12.656000137329,
      "updatedAt": "232350Z",
      "visibility_m": 10000,
      "taf_visibility_m": 10000,
      "worst_visibility_m": 10000,
      "ceiling_ft": 1200,
      "hazards": [],
      "severityScore": 12,
      "metarRaw": "METAR EKCH 232350Z AUTO 10015KT 9999 OVC022/// M00/M05 Q1012 NOSIG",
      "tafRaw": "TAF EKCH 232327Z 2400/2424 09015KT 9999 BKN020 \n  TEMPO 2411/2424 BKN012"
    },
    {
      "icao": "EYVI",
      "iata": "VNO",
      "name": "Vilnius International Airport",
      "lat": 54.634102,
      "lon": 25.285801,
      "updatedAt": "232350Z",
      "visibility_m": 10000,
      "taf_visibility_m": 9000,
      "worst_visibility_m": 9000,
      "ceiling_ft": 1500,
      "hazards": [],
      "severityScore": 12,
      "metarRaw": "METAR EYVI 232350Z 09006KT 060V120 CAVOK M12/M14 Q1018 NOSIG",
      "tafRaw": "TAF EYVI 232300Z 2400/2424 09010KT 9000 SCT030 \n  TEMPO 2400/2407 SCT005 BKN015"
    },
    {
      "icao": "LEVC",
      "iata": "VLC",
      "name": "Valencia Airport",
      "lat": 39.4893,
      "lon": -0.481625,
      "updatedAt": "232330Z",
      "visibility_m": 10000,
      "taf_visibility_m": 10000,
      "worst_visibility_m": 10000,
      "ceiling_ft": null,
      "hazards": [
        "RA"
      ],
      "severityScore": 12,
      "metarRaw": "METAR LEVC 232330Z 29007KT 260V320 9999 SCT069 10/03 Q0997 NOSIG",
      "tafRaw": "TAF LEVC 232300Z 2400/2424 26010KT 9999 FEW040 TX13/2413Z TN07/2406Z \n  PROB30 \n  TEMPO 2400/2401 RA \n  PROB30 \n  TEMPO 2404/2408 27015G25KT \n  TEMPO 2408/2419 27020G32KT \n  TEMPO 2419/2424 27015G25KT"
    },
    {
      "icao": "LICJ",
      "iata": "PMO",
      "name": "Falcone–Borsellino Airport",
      "lat": 38.175999,
      "lon": 13.091,
      "updatedAt": "232350Z",
      "visibility_m": 10000,
      "taf_visibility_m": 4000,
      "worst_visibility_m": 4000,
      "ceiling_ft": null,
      "hazards": [
        "RA"
      ],
      "severityScore": 12,
      "metarRaw": "METAR LICJ 232350Z 19013KT CAVOK 14/09 Q1006",
      "tafRaw": "TAF LICJ 232300Z 2400/2424 22012KT 9999 SCT030 \n  TEMPO 2400/2408 20015G25KT \n  TEMPO 2418/2424 4000 RA"
    },
    {
      "icao": "LIMJ",
      "iata": "GOA",
      "name": "Genoa Cristoforo Colombo Airport",
      "lat": 44.412039,
      "lon": 8.840732,
      "updatedAt": "232350Z",
      "visibility_m": 10000,
      "taf_visibility_m": 7000,
      "worst_visibility_m": 7000,
      "ceiling_ft": 2500,
      "hazards": [
        "RA"
      ],
      "severityScore": 12,
      "metarRaw": "METAR LIMJ 232350Z 04016KT 9999 BKN025 SCT065 05/02 Q1000",
      "tafRaw": "TAF LIMJ 232300Z 2400/2424 03015KT 7000 RA BKN030 \n  BECMG 2403/2405 NSW \n  TEMPO 2403/2412 02020G32KT"
    },
    {
      "icao": "LIRP",
      "iata": "PSA",
      "name": "Pisa International Airport",
      "lat": 43.683899,
      "lon": 10.3927,
      "updatedAt": "232345Z",
      "visibility_m": 10000,
      "taf_visibility_m": 7000,
      "worst_visibility_m": 7000,
      "ceiling_ft": 5000,
      "hazards": [
        "RA"
      ],
      "severityScore": 12,
      "metarRaw": "METAR LIRP 232345Z 12001KT 9999 BKN050 10/10 Q1000 NOSIG",
      "tafRaw": "TAF LIRP 232300Z 2400/2424 11010KT 7000 RA SCT020 BKN040"
    },
    {
      "icao": "LIRZ",
      "iata": "PEG",
      "name": "Perugia San Francesco d'Assisi – Umbria International Airport",
      "lat": 43.095901,
      "lon": 12.5132,
      "updatedAt": "232350Z",
      "visibility_m": 10000,
      "taf_visibility_m": 4000,
      "worst_visibility_m": 4000,
      "ceiling_ft": 3000,
      "hazards": [
        "RA"
      ],
      "severityScore": 12,
      "metarRaw": "METAR LIRZ 232350Z AUTO VRB02KT 9999 -RA FEW008/// OVC031/// 09/08 Q1002",
      "tafRaw": "TAF LIRZ 232300Z 2400/2424 VRB05KT 9999 BKN030 \n  TEMPO 2400/2419 4000 RA \n  BECMG 2410/2412 17013KT"
    },
    {
      "icao": "LLBG",
      "iata": "TLV",
      "name": "Ben Gurion International Airport",
      "lat": 32.011398,
      "lon": 34.8867,
      "updatedAt": "232350Z",
      "visibility_m": 10000,
      "taf_visibility_m": 10000,
      "worst_visibility_m": 10000,
      "ceiling_ft": 6000,
      "hazards": [
        "RA"
      ],
      "severityScore": 12,
      "metarRaw": "METAR LLBG 232350Z 12005KT CAVOK 11/07 Q1015 NOSIG",
      "tafRaw": "TAF LLBG 232303Z 2400/2424 VRB03KT CAVOK \n  TEMPO 2403/2406 18008KT \n  BECMG 2406/2408 24010KT \n  PROB40 \n  TEMPO 2408/2412 30012KT 9999 -RA FEW030 BKN060 \n  BECMG 2414/2416 VRB04KT TX19/2411Z TN09/2404Z"
    },
    {
      "icao": "LWOH",
      "iata": "OHD",
      "name": "Ohrid St. Paul the Apostle Airport",
      "lat": 41.18,
      "lon": 20.7423,
      "updatedAt": null,
      "visibility_m": null,
      "taf_visibility_m": 10000,
      "worst_visibility_m": 10000,
      "ceiling_ft": 1000,
      "hazards": [],
      "severityScore": 12,
      "metarRaw": null,
      "tafRaw": "TAF LWOH 232305Z 2400/2424 VRB02KT 9999 SCT015 \n  BECMG 2402/2404 BKN010 \n  BECMG 2410/2413 FEW020"
    },
    {
      "icao": "EHEH",
      "iata": "EIN",
      "name": "Eindhoven Airport",
      "lat": 51.4500999451,
      "lon": 5.37452983856,
      "updatedAt": "232325Z",
      "visibility_m": 10000,
      "taf_visibility_m": 4000,
      "worst_visibility_m": 4000,
      "ceiling_ft": 9900,
      "hazards": [
        "BR"
      ],
      "severityScore": 10,
      "metarRaw": "METAR EHEH 232325Z AUTO 13004KT 9999 OVC099 04/01 Q0997 BLU",
      "tafRaw": "TAF EHEH 231718Z 2318/2424 12007KT CAVOK \n  PROB30 \n  TEMPO 2403/2408 4000 BR"
    },
    {
      "icao": "ENBR",
      "iata": "BGO",
      "name": "Bergen Airport, Flesland",
      "lat": 60.2934,
      "lon": 5.21814,
      "updatedAt": "232350Z",
      "visibility_m": 10000,
      "taf_visibility_m": 10000,
      "worst_visibility_m": 10000,
      "ceiling_ft": null,
      "hazards": [
        "BR"
      ],
      "severityScore": 10,
      "metarRaw": "METAR ENBR 232350Z 07003KT CAVOK M04/M12 Q1013 RMK WIND 1200FT 08002KT",
      "tafRaw": "TAF ENBR 232300Z 2400/2424 07005KT CAVOK"
    },
    {
      "icao": "EPSC",
      "iata": "SZZ",
      "name": "Solidarity Szczecin–Goleniów Airport",
      "lat": 53.584702,
      "lon": 14.9022,
      "updatedAt": "232330Z",
      "visibility_m": 10000,
      "taf_visibility_m": 3000,
      "worst_visibility_m": 3000,
      "ceiling_ft": 2100,
      "hazards": [
        "BR"
      ],
      "severityScore": 10,
      "metarRaw": "METAR EPSC 232330Z 08008KT 9999 OVC021 M05/M08 Q1009",
      "tafRaw": "TAF EPSC 232330Z 2400/2424 09010KT 7000 OVC025 \n  PROB40 \n  TEMPO 2400/2409 3000 BR BKN004 OVC012 \n  PROB40 \n  TEMPO 2419/2424 3000 BR BKN003 BKN010"
    },
    {
      "icao": "EYKA",
      "iata": "KUN",
      "name": "Kaunas International Airport",
      "lat": 54.963965,
      "lon": 24.08582,
      "updatedAt": "232350Z",
      "visibility_m": 10000,
      "taf_visibility_m": 5000,
      "worst_visibility_m": 5000,
      "ceiling_ft": null,
      "hazards": [
        "BR"
      ],
      "severityScore": 10,
      "metarRaw": "METAR EYKA 232350Z 07006KT CAVOK M14/M16 Q1019",
      "tafRaw": "TAF EYKA 232300Z 2400/2424 09008KT 9000 SCT035 \n  TEMPO 2400/2407 5000 BR SCT005"
    },
    {
      "icao": "LFOB",
      "iata": "BVA",
      "name": "Beauvais Tillé airport",
      "lat": 49.454399,
      "lon": 2.11278,
      "updatedAt": "232330Z",
      "visibility_m": 10000,
      "taf_visibility_m": 4000,
      "worst_visibility_m": 4000,
      "ceiling_ft": 4000,
      "hazards": [
        "BR"
      ],
      "severityScore": 10,
      "metarRaw": "METAR LFOB 232330Z AUTO 17009KT CAVOK 04/02 Q0994 NOSIG",
      "tafRaw": "TAF LFOB 232300Z 2400/2424 17010G20KT 9999 BKN040 \n  FM240400 13005KT CAVOK \n  PROB30 2404/2408 4000 BR \n  PROB40 2422/2424 4000 BR"
    },
    {
      "icao": "LGAV",
      "iata": "ATH",
      "name": "Athens Eleftherios Venizelos International Airport",
      "lat": 37.936401,
      "lon": 23.9445,
      "updatedAt": "232350Z",
      "visibility_m": 10000,
      "taf_visibility_m": 5000,
      "worst_visibility_m": 5000,
      "ceiling_ft": 3000,
      "hazards": [
        "BR"
      ],
      "severityScore": 10,
      "metarRaw": "METAR LGAV 232350Z VRB03KT 9999 R03R/1500N R03L/1100V1500N FEW010 SCT020 BKN030 08/07 Q1009 NOSIG",
      "tafRaw": "TAF LGAV 232300Z 2400/2424 VRB05KT 9999 FEW010 SCT030 BKN050 \n  PROB40 \n  TEMPO 2400/2406 5000 BR SCT015 BKN020 \n  BECMG 2410/2412 FEW020 SCT040"
    },
    {
      "icao": "LIBP",
      "iata": "PSR",
      "name": "Abruzzo Airport",
      "lat": 42.431079,
      "lon": 14.182981,
      "updatedAt": "232350Z",
      "visibility_m": 2700,
      "taf_visibility_m": 3000,
      "worst_visibility_m": 2700,
      "ceiling_ft": 4000,
      "hazards": [
        "BR"
      ],
      "severityScore": 10,
      "metarRaw": "METAR LIBP 232350Z AUTO 23004KT 190V260 2700 BR FEW220/// 05/05 Q1003",
      "tafRaw": "TAF LIBP 232300Z 2400/2424 VRB05KT 3000 BR BKN040 \n  BECMG 2406/2408 6000"
    },
    {
      "icao": "LYNI",
      "iata": "INI",
      "name": "Niš Constantine the Great Airport",
      "lat": 43.336538,
      "lon": 21.856242,
      "updatedAt": "232330Z",
      "visibility_m": 10000,
      "taf_visibility_m": 4000,
      "worst_visibility_m": 4000,
      "ceiling_ft": null,
      "hazards": [
        "BR"
      ],
      "severityScore": 10,
      "metarRaw": "METAR LYNI 232330Z 13004KT 080V160 CAVOK 02/00 Q1008 NOSIG",
      "tafRaw": "TAF LYNI 232300Z 2400/2424 10006KT CAVOK TX12/2413Z TNM01/2406Z \n  PROB30 \n  TEMPO 2405/2407 4000 BR"
    },
    {
      "icao": "LEBB",
      "iata": "BIO",
      "name": "Bilbao Airport",
      "lat": 43.301102,
      "lon": -2.91061,
      "updatedAt": "232330Z",
      "visibility_m": 10000,
      "taf_visibility_m": null,
      "worst_visibility_m": 10000,
      "ceiling_ft": null,
      "hazards": [],
      "severityScore": 5,
      "metarRaw": "METAR LEBB 232330Z AUTO VRB06KT CAVOK 09/00 Q0994",
      "tafRaw": null
    },
    {
      "icao": "LECH",
      "iata": "CDT",
      "name": "Castellón-Costa Azahar Airport",
      "lat": 40.213889,
      "lon": 0.073333,
      "updatedAt": "232330Z",
      "visibility_m": 9000,
      "taf_visibility_m": null,
      "worst_visibility_m": 9000,
      "ceiling_ft": null,
      "hazards": [],
      "severityScore": 5,
      "metarRaw": "METAR LECH 232330Z AUTO 23005KT 190V280 9000 NSC 08/01 Q0996",
      "tafRaw": null
    },
    {
      "icao": "LFLS",
      "iata": "GNB",
      "name": "Grenoble Alpes Isère Airport",
      "lat": 45.3629,
      "lon": 5.32937,
      "updatedAt": "232330Z",
      "visibility_m": 10000,
      "taf_visibility_m": null,
      "worst_visibility_m": 10000,
      "ceiling_ft": null,
      "hazards": [],
      "severityScore": 5,
      "metarRaw": "METAR LFLS 232330Z AUTO 12004KT CAVOK M02/M03 Q0999",
      "tafRaw": null
    },
    {
      "icao": "BIKF",
      "iata": "KEF",
      "name": "Keflavik International Airport",
      "lat": 63.985001,
      "lon": -22.6056,
      "updatedAt": "232330Z",
      "visibility_m": 10000,
      "taf_visibility_m": 10000,
      "worst_visibility_m": 10000,
      "ceiling_ft": null,
      "hazards": [],
      "severityScore": 0,
      "metarRaw": "METAR BIKF 232330Z 07014KT CAVOK 02/M01 Q1004",
      "tafRaw": "TAF BIKF 232210Z 2400/2500 08012KT 9999 FEW025 TX04/2416Z TN02/2401Z \n  TEMPO 2402/2500 09018G28KT"
    },
    {
      "icao": "GCFV",
      "iata": "FUE",
      "name": "Fuerteventura Airport",
      "lat": 28.4527,
      "lon": -13.8638,
      "updatedAt": "232330Z",
      "visibility_m": 10000,
      "taf_visibility_m": 10000,
      "worst_visibility_m": 10000,
      "ceiling_ft": null,
      "hazards": [],
      "severityScore": 0,
      "metarRaw": "METAR GCFV 232330Z AUTO 33011KT CAVOK 17/09 Q1023",
      "tafRaw": "TAF GCFV 232000Z 2321/2421 36012KT 9999 SCT020 TX21/2414Z TN15/2406Z \n  PROB30 \n  TEMPO 2410/2418 02015G25KT"
    },
    {
      "icao": "GCLP",
      "iata": "LPA",
      "name": "Gran Canaria Airport",
      "lat": 27.9319,
      "lon": -15.3866,
      "updatedAt": "232330Z",
      "visibility_m": 10000,
      "taf_visibility_m": 10000,
      "worst_visibility_m": 10000,
      "ceiling_ft": 5000,
      "hazards": [],
      "severityScore": 0,
      "metarRaw": "METAR GCLP 232330Z 36012G22KT 330V030 9999 FEW035 BKN050 18/12 Q1023 NOSIG",
      "tafRaw": "TAF GCLP 232000Z 2321/2421 36018KT 9999 BKN020 TX20/2414Z TN14/2406Z \n  TEMPO 2321/2418 36020G30KT"
    },
    {
      "icao": "GMAD",
      "iata": "AGA",
      "name": "Al Massira Airport",
      "lat": 30.322478,
      "lon": -9.412003,
      "updatedAt": "232330Z",
      "visibility_m": 10000,
      "taf_visibility_m": 8000,
      "worst_visibility_m": 8000,
      "ceiling_ft": null,
      "hazards": [],
      "severityScore": 0,
      "metarRaw": "METAR GMAD 232330Z 26012KT 9999 FEW016 13/11 Q1018 NOSIG",
      "tafRaw": "TAF GMAD 232300Z 2400/2506 24007KT 8000 SCT016 \n  BECMG 2411/2414 28013KT"
    },
    {
      "icao": "EBCI",
      "iata": "CRL",
      "name": "Brussels South Charleroi Airport",
      "lat": 50.461963,
      "lon": 4.459562,
      "updatedAt": "232350Z",
      "visibility_m": 10000,
      "taf_visibility_m": 10000,
      "worst_visibility_m": 10000,
      "ceiling_ft": null,
      "hazards": [],
      "severityScore": 0,
      "metarRaw": "METAR EBCI 232350Z 16004KT CAVOK 06/03 Q0996 NOSIG",
      "tafRaw": "TAF EBCI 232300Z 2400/2506 15005KT CAVOK"
    },
    {
      "icao": "EHBK",
      "iata": "MST",
      "name": "Maastricht Aachen Airport",
      "lat": 50.911701,
      "lon": 5.77014,
      "updatedAt": "232355Z",
      "visibility_m": 10000,
      "taf_visibility_m": 10000,
      "worst_visibility_m": 10000,
      "ceiling_ft": null,
      "hazards": [],
      "severityScore": 0,
      "metarRaw": "METAR EHBK 232355Z AUTO 13005KT 9999 NSC 04/02 Q0997",
      "tafRaw": "TAF EHBK 232316Z 2400/2506 14005KT CAVOK"
    },
    {
      "icao": "ENAL",
      "iata": "AES",
      "name": "Ålesund Airport, Vigra",
      "lat": 62.5625,
      "lon": 6.1197,
      "updatedAt": "232350Z",
      "visibility_m": 10000,
      "taf_visibility_m": 10000,
      "worst_visibility_m": 10000,
      "ceiling_ft": null,
      "hazards": [],
      "severityScore": 0,
      "metarRaw": "METAR ENAL 232350Z AUTO 14015KT 9999 NCD M01/M10 Q1014",
      "tafRaw": "TAF ENAL 232300Z 2400/2409 13012KT CAVOK"
    },
    {
      "icao": "ENHD",
      "iata": "HAU",
      "name": "Haugesund Airport, Karmøy",
      "lat": 59.345299,
      "lon": 5.20836,
      "updatedAt": "232350Z",
      "visibility_m": 10000,
      "taf_visibility_m": 10000,
      "worst_visibility_m": 10000,
      "ceiling_ft": null,
      "hazards": [],
      "severityScore": 0,
      "metarRaw": "METAR ENHD 232350Z AUTO 24010KT 9999 NCD M01/M11 Q1012",
      "tafRaw": "TAF ENHD 231400Z 2315/2323 10010KT CAVOK"
    },
    {
      "icao": "ENVA",
      "iata": "TRD",
      "name": "Trondheim Airport, Værnes",
      "lat": 63.457802,
      "lon": 10.924,
      "updatedAt": "232350Z",
      "visibility_m": 10000,
      "taf_visibility_m": 10000,
      "worst_visibility_m": 10000,
      "ceiling_ft": null,
      "hazards": [],
      "severityScore": 0,
      "metarRaw": "METAR ENVA 232350Z 10012KT CAVOK M05/M13 Q1017 RMK WIND 670FT 13013KT",
      "tafRaw": "TAF ENVA 232300Z 2400/2424 10012KT CAVOK \n  PROB30 \n  TEMPO 2400/2403 14015G25KT"
    },
    {
      "icao": "ENZV",
      "iata": "SVG",
      "name": "Stavanger Airport, Sola",
      "lat": 58.876701,
      "lon": 5.63778,
      "updatedAt": "232350Z",
      "visibility_m": 10000,
      "taf_visibility_m": 10000,
      "worst_visibility_m": 10000,
      "ceiling_ft": null,
      "hazards": [],
      "severityScore": 0,
      "metarRaw": "METAR ENZV 232350Z AUTO 08012KT 9999 NCD M00/M09 Q1012",
      "tafRaw": "TAF ENZV 232300Z 2400/2424 09010KT CAVOK \n  TEMPO 2411/2416 10015G25KT"
    },
    {
      "icao": "ESMS",
      "iata": "MMX",
      "name": "Malmö Sturup Airport",
      "lat": 55.535564,
      "lon": 13.376327,
      "updatedAt": "232350Z",
      "visibility_m": 10000,
      "taf_visibility_m": 10000,
      "worst_visibility_m": 10000,
      "ceiling_ft": 2400,
      "hazards": [],
      "severityScore": 0,
      "metarRaw": "METAR ESMS 232350Z 09014KT 9999 BKN024 M01/M05 Q1011",
      "tafRaw": "TAF ESMS 232327Z 2400/2424 09014KT 9999 OVC020 \n  TEMPO 2404/2424 BKN012"
    },
    {
      "icao": "EYPA",
      "iata": "PLQ",
      "name": "Palanga International Airport",
      "lat": 55.973202,
      "lon": 21.093901,
      "updatedAt": "232350Z",
      "visibility_m": 10000,
      "taf_visibility_m": 9000,
      "worst_visibility_m": 9000,
      "ceiling_ft": null,
      "hazards": [],
      "severityScore": 0,
      "metarRaw": "METAR EYPA 232350Z AUTO 10013KT 9999 BKN050/// M09/M12 Q1018",
      "tafRaw": "TAF EYPA 232300Z 2400/2424 11014KT 9000 SCT045 \n  TEMPO 2402/2407 SCT005"
    },
    {
      "icao": "HEGN",
      "iata": "HRG",
      "name": "Hurghada International Airport",
      "lat": 27.176776,
      "lon": 33.796692,
      "updatedAt": "232300Z",
      "visibility_m": 10000,
      "taf_visibility_m": 6000,
      "worst_visibility_m": 6000,
      "ceiling_ft": null,
      "hazards": [],
      "severityScore": 0,
      "metarRaw": "METAR HEGN 232300Z 30006KT CAVOK 16/05 Q1014 NOSIG",
      "tafRaw": "TAF HEGN 232300Z 2400/2506 29014KT CAVOK \n  BECMG 2409/2411 32012G22KT 6000 NSC"
    },
    {
      "icao": "HEMA",
      "iata": "RMF",
      "name": "Marsa Alam International Airport",
      "lat": 25.555548,
      "lon": 34.59245,
      "updatedAt": "232300Z",
      "visibility_m": 10000,
      "taf_visibility_m": 10000,
      "worst_visibility_m": 10000,
      "ceiling_ft": null,
      "hazards": [],
      "severityScore": 0,
      "metarRaw": "METAR HEMA 232300Z 34005KT CAVOK 19/15 Q1013 NOSIG",
      "tafRaw": "TAF HEMA 232300Z 2400/2506 31012KT CAVOK"
    },
    {
      "icao": "HESH",
      "iata": "SSH",
      "name": "Sharm El Sheikh International Airport",
      "lat": 27.977272,
      "lon": 34.394717,
      "updatedAt": "232300Z",
      "visibility_m": 10000,
      "taf_visibility_m": 10000,
      "worst_visibility_m": 10000,
      "ceiling_ft": null,
      "hazards": [],
      "severityScore": 0,
      "metarRaw": "METAR HESH 232300Z 32003KT CAVOK 19/16 Q1013 NOSIG",
      "tafRaw": "TAF HESH 232300Z 2400/2506 35010KT CAVOK"
    },
    {
      "icao": "HESX",
      "iata": "SPX",
      "name": "Sphinx International Airport",
      "lat": 30.108179,
      "lon": 30.895728,
      "updatedAt": "232300Z",
      "visibility_m": 10000,
      "taf_visibility_m": 2000,
      "worst_visibility_m": 2000,
      "ceiling_ft": null,
      "hazards": [],
      "severityScore": 0,
      "metarRaw": "METAR HESX 232300Z 21009KT CAVOK 12/M01 Q1013 NOSIG",
      "tafRaw": "TAF HESX 232300Z 2400/2506 19007KT 6000 NSC \n  TEMPO 2400/2409 3000 HZ \n  PROB40 \n  TEMPO 2409/2414 25015KT 2000 SA \n  BECMG 2414/2416 29010KT 9999 SCT025"
    },
    {
      "icao": "LEAL",
      "iata": "ALC",
      "name": "Alicante-Elche Miguel Hernández Airport",
      "lat": 38.2822,
      "lon": -0.558156,
      "updatedAt": "232330Z",
      "visibility_m": 10000,
      "taf_visibility_m": 10000,
      "worst_visibility_m": 10000,
      "ceiling_ft": null,
      "hazards": [],
      "severityScore": 0,
      "metarRaw": "METAR LEAL 232330Z 00000KT CAVOK 10/04 Q0998 NOSIG",
      "tafRaw": "TAF LEAL 232300Z 2400/2424 25006KT 9999 FEW050 TX15/2413Z TN08/2406Z \n  BECMG 2405/2407 28015KT \n  TEMPO 2408/2424 28020G30KT"
    },
    {
      "icao": "LEMG",
      "iata": "AGP",
      "name": "Málaga-Costa del Sol Airport",
      "lat": 36.6749,
      "lon": -4.49911,
      "updatedAt": "232330Z",
      "visibility_m": 10000,
      "taf_visibility_m": 10000,
      "worst_visibility_m": 10000,
      "ceiling_ft": null,
      "hazards": [],
      "severityScore": 0,
      "metarRaw": "METAR LEMG 232330Z 29006KT 260V320 9999 FEW050 09/04 Q1004 NOSIG",
      "tafRaw": "TAF LEMG 232300Z 2400/2424 30012KT 9999 SCT050 TX14/2414Z TN08/2407Z \n  BECMG 2403/2405 VRB03KT \n  BECMG 2411/2413 31014KT"
    },
    {
      "icao": "LEZL",
      "iata": "SVQ",
      "name": "Sevilla Airport",
      "lat": 37.417999,
      "lon": -5.89311,
      "updatedAt": "232330Z",
      "visibility_m": 10000,
      "taf_visibility_m": 10000,
      "worst_visibility_m": 10000,
      "ceiling_ft": null,
      "hazards": [],
      "severityScore": 0,
      "metarRaw": "METAR LEZL 232330Z 27010KT CAVOK 08/05 Q1006 NOSIG",
      "tafRaw": "TAF LEZL 232000Z 2321/2421 24008KT 9999 FEW040 TX15/2415Z TN08/2407Z"
    },
    {
      "icao": "LICA",
      "iata": "SUF",
      "name": "Lamezia Terme Sant'Eufemia International Airport",
      "lat": 38.906214,
      "lon": 16.246007,
      "updatedAt": "232350Z",
      "visibility_m": 10000,
      "taf_visibility_m": 10000,
      "worst_visibility_m": 10000,
      "ceiling_ft": null,
      "hazards": [],
      "severityScore": 0,
      "metarRaw": "METAR LICA 232350Z AUTO 08006KT 9999 SCT068/// 06/06 Q1007",
      "tafRaw": "TAF LICA 232300Z 2400/2424 VRB05KT 9999 SCT020 \n  BECMG 2400/2402 07010KT"
    },
    {
      "icao": "LICC",
      "iata": "CTA",
      "name": "Catania-Fontanarossa Airport",
      "lat": 37.466801,
      "lon": 15.0664,
      "updatedAt": "232350Z",
      "visibility_m": 10000,
      "taf_visibility_m": 10000,
      "worst_visibility_m": 10000,
      "ceiling_ft": null,
      "hazards": [],
      "severityScore": 0,
      "metarRaw": "METAR LICC 232350Z 26008KT 9999 SCT060 12/09 Q1008",
      "tafRaw": "TAF LICC 232300Z 2400/2424 27006KT 9999 SCT030"
    },
    {
      "icao": "LMML",
      "iata": "MLA",
      "name": "Malta International Airport",
      "lat": 35.857498,
      "lon": 14.4775,
      "updatedAt": "232345Z",
      "visibility_m": 10000,
      "taf_visibility_m": 10000,
      "worst_visibility_m": 10000,
      "ceiling_ft": null,
      "hazards": [],
      "severityScore": 0,
      "metarRaw": "METAR LMML 232345Z 22008KT 9999 FEW027 13/09 Q1009 NOSIG",
      "tafRaw": "TAF LMML 232300Z 2400/2424 23015KT 9999 FEW015 \n  BECMG 2415/2418 16017KT"
    },
    {
      "icao": "LPMA",
      "iata": "FNC",
      "name": "Cristiano Ronaldo International Airport",
      "lat": 32.697812,
      "lon": -16.774613,
      "updatedAt": "232330Z",
      "visibility_m": 10000,
      "taf_visibility_m": 10000,
      "worst_visibility_m": 10000,
      "ceiling_ft": null,
      "hazards": [],
      "severityScore": 0,
      "metarRaw": "METAR LPMA 232330Z 30008KT 240V040 9999 SCT016 16/05 Q1023",
      "tafRaw": "TAF LPMA 232300Z 2400/2424 32012KT 9999 SCT015 \n  PROB40 \n  TEMPO 2400/2410 33015G25KT \n  BECMG 2410/2412 21008KT \n  BECMG 2418/2420 VRB05KT"
    },
    {
      "icao": "LPPS",
      "iata": "PXO",
      "name": "Porto Santo Airport",
      "lat": 33.0733985901,
      "lon": -16.3500003815,
      "updatedAt": "232330Z",
      "visibility_m": 10000,
      "taf_visibility_m": 10000,
      "worst_visibility_m": 10000,
      "ceiling_ft": null,
      "hazards": [],
      "severityScore": 0,
      "metarRaw": "METAR LPPS 232330Z 31021KT 9999 FEW015 16/07 Q1023",
      "tafRaw": "TAF LPPS 232300Z 2400/2506 32015KT 9999 FEW015 SCT030 \n  PROB30 \n  TEMPO 2400/2409 32018G30KT \n  BECMG 2412/2414 30013KT \n  BECMG 2500/2502 27013KT"
    },
    {
      "icao": "OEJN",
      "iata": "JED",
      "name": "King Abdulaziz International Airport",
      "lat": 21.6796,
      "lon": 39.156502,
      "updatedAt": "232300Z",
      "visibility_m": 8000,
      "taf_visibility_m": 7000,
      "worst_visibility_m": 7000,
      "ceiling_ft": 4000,
      "hazards": [],
      "severityScore": 0,
      "metarRaw": "METAR OEJN 232300Z 17008KT 8000 NSC 27/20 Q1012 NOSIG",
      "tafRaw": "TAF OEJN 232300Z 2400/2506 17006KT 7000 FEW040 \n  BECMG 2408/2410 23012KT \n  PROB30 \n  TEMPO 2410/2416 FEW035CB BKN040 \n  BECMG 2416/2418 35008KT"
    },
    {
      "icao": "OMAA",
      "iata": "AUH",
      "name": "Zayed International Airport",
      "lat": 24.440966,
      "lon": 54.649237,
      "updatedAt": "232330Z",
      "visibility_m": 10000,
      "taf_visibility_m": 8000,
      "worst_visibility_m": 8000,
      "ceiling_ft": null,
      "hazards": [],
      "severityScore": 0,
      "metarRaw": "METAR OMAA 232330Z 08006KT 030V160 CAVOK 17/07 Q1019 NOSIG",
      "tafRaw": "TAF OMAA 232300Z 2400/2506 03005KT 8000 NSC \n  BECMG 2400/2402 13008KT \n  BECMG 2409/2411 32010KT \n  BECMG 2416/2418 06007KT \n  BECMG 2502/2504 14012KT"
    },
    {
      "icao": "OMDB",
      "iata": "DXB",
      "name": "Dubai International Airport",
      "lat": 25.2527999878,
      "lon": 55.3643989563,
      "updatedAt": "232300Z",
      "visibility_m": 10000,
      "taf_visibility_m": 10000,
      "worst_visibility_m": 10000,
      "ceiling_ft": null,
      "hazards": [],
      "severityScore": 0,
      "metarRaw": "METAR OMDB 232300Z VRB02KT CAVOK 16/07 Q1019 NOSIG",
      "tafRaw": "TAF OMDB 232300Z 2400/2506 13005KT CAVOK \n  BECMG 2409/2411 31010KT \n  BECMG 2415/2417 07006KT \n  BECMG 2501/2503 14012KT"
    }
  ],
  "stats": {
    "icaoCount": 159,
    "metarReturned": 156,
    "tafReturned": 154,
    "stationsWritten": 159,
    "missingMetar": 3,
    "missingTaf": 5
  },
  "errors": []
}