{
  "generatedAt": "2026-01-28T23:35:46.007Z",
  "stations": [
    {
      "icao": "EDDS",
      "iata": "STR",
      "name": "Stuttgart Airport",
      "lat": 48.689899,
      "lon": 9.22196,
      "updatedAt": "282320Z",
      "visibility_m": 6000,
      "taf_visibility_m": 1200,
      "worst_visibility_m": 1200,
      "ceiling_ft": 400,
      "hazards": [
        "BR",
        "SN",
        "FG",
        "RA"
      ],
      "severityScore": 100,
      "metarRaw": "METAR EDDS 282320Z AUTO 33004KT 6000 BKN004 02/01 Q0993",
      "tafRaw": "TAF EDDS 282300Z 2900/2924 VRB03KT 6000 BKN005 \n  PROB40 \n  TEMPO 2900/2912 2000 -SNRA BR OVC004 \n  BECMG 2912/2915 BKN010 \n  TEMPO 2912/2918 3000 -RASN BR BKN004 \n  BECMG 2917/2920 SCT008 \n  TEMPO 2920/2924 1200 BCFG"
    },
    {
      "icao": "EDFH",
      "iata": "HHN",
      "name": "Frankfurt-Hahn Airport",
      "lat": 49.946353,
      "lon": 7.261734,
      "updatedAt": "282320Z",
      "visibility_m": 550,
      "taf_visibility_m": 600,
      "worst_visibility_m": 550,
      "ceiling_ft": 100,
      "hazards": [
        "SN",
        "FZFG",
        "FG"
      ],
      "severityScore": 100,
      "metarRaw": "METAR EDFH 282320Z 31002KT 0550 R21/0700U SN VV/// 00/00 Q0994",
      "tafRaw": "TAF EDFH 282300Z 2900/2924 VRB03KT 3000 -SN OVC005 \n  TEMPO 2900/2918 0600 SN FZFG OVC001 \n  BECMG 2917/2920 15008KT \n  TEMPO 2918/2924 0600 FZFG BKN001"
    },
    {
      "icao": "EGGW",
      "iata": "LTN",
      "name": "London Luton Airport",
      "lat": 51.874699,
      "lon": -0.368333,
      "updatedAt": "282320Z",
      "visibility_m": 50,
      "taf_visibility_m": 100,
      "worst_visibility_m": 50,
      "ceiling_ft": 100,
      "hazards": [
        "FG",
        "BR",
        "DZ"
      ],
      "severityScore": 100,
      "metarRaw": "METAR EGGW 282320Z AUTO 13005KT 0050 R25/0375N FG OVC001 03/03 Q0997",
      "tafRaw": "TAF EGGW 282257Z 2900/2924 12005KT 9999 SCT030 \n  TEMPO 2900/2902 1200 BR MIFG \n  PROB40 \n  TEMPO 2900/2902 0100 FG VV/// \n  TEMPO 2902/2909 2000 BR BKN002 \n  PROB40 \n  TEMPO 2902/2909 0300 DZ FG OVC001 \n  TEMPO 2909/2911 6000 BKN010 \n  PROB30 \n  TEMPO 2911/2924 BKN010"
    },
    {
      "icao": "EGKK",
      "iata": "LGW",
      "name": "London Gatwick Airport",
      "lat": 51.148771,
      "lon": -0.192089,
      "updatedAt": "282320Z",
      "visibility_m": 6000,
      "taf_visibility_m": 300,
      "worst_visibility_m": 300,
      "ceiling_ft": 200,
      "hazards": [
        "FG",
        "FZFG",
        "BR",
        "RA",
        "DZ"
      ],
      "severityScore": 100,
      "metarRaw": "METAR EGKK 282320Z 09001KT 6000 2000W PRFG FEW002 M00/M00 Q0997",
      "tafRaw": "TAF EGKK 282254Z 2900/3006 09003KT 0300 FZFG VV/// \n  PROB40 \n  TEMPO 2900/2909 2000 BR \n  BECMG 2909/2912 9999 NSW BKN014 \n  PROB30 \n  TEMPO 2912/2915 2000 BR BKN002 \n  BECMG 2915/2918 SCT020 \n  TEMPO 2922/3006 8000 -RA BKN012 \n  PROB30 \n  TEMPO 3002/3006 4000 RADZ BKN006"
    },
    {
      "icao": "EGNM",
      "iata": "LBA",
      "name": "Leeds Bradford Airport",
      "lat": 53.865898,
      "lon": -1.66057,
      "updatedAt": null,
      "visibility_m": null,
      "taf_visibility_m": 100,
      "worst_visibility_m": 100,
      "ceiling_ft": 400,
      "hazards": [
        "FG",
        "BR",
        "DZ"
      ],
      "severityScore": 100,
      "metarRaw": null,
      "tafRaw": "TAF EGNM 281658Z 2818/2918 VRB02KT 0100 FG VV/// \n  TEMPO 2818/2909 DZ \n  BECMG 2909/2912 11010KT 4000 BR BKN004 \n  BECMG 2912/2915 9999 NSW BKN020"
    },
    {
      "icao": "EHBK",
      "iata": "MST",
      "name": "Maastricht Aachen Airport",
      "lat": 50.911701,
      "lon": 5.77014,
      "updatedAt": "282325Z",
      "visibility_m": 3800,
      "taf_visibility_m": 700,
      "worst_visibility_m": 700,
      "ceiling_ft": 100,
      "hazards": [
        "BR",
        "FG",
        "SN"
      ],
      "severityScore": 100,
      "metarRaw": "METAR EHBK 282325Z AUTO 36005KT 320V040 3800 BR OVC004/// 01/00 Q0997",
      "tafRaw": "TAF EHBK 282309Z 2900/3006 36005KT 3000 BR BKN004 \n  PROB40 \n  TEMPO 2900/2909 6000 NSW BKN006 \n  PROB30 \n  TEMPO 2900/2908 1400 -SN BKN002 \n  BECMG 2909/2912 9999 NSW BKN008 \n  BECMG 2914/2917 BKN016 \n  PROB40 \n  TEMPO 2914/2921 BKN012 \n  BECMG 2917/2920 7000 \n  PROB30 \n  TEMPO 3000/3005 0700 FG BKN001"
    },
    {
      "icao": "EPKK",
      "iata": "KRK",
      "name": "Kraków John Paul II International Airport",
      "lat": 50.077702,
      "lon": 19.7848,
      "updatedAt": "282330Z",
      "visibility_m": 3000,
      "taf_visibility_m": 1200,
      "worst_visibility_m": 1200,
      "ceiling_ft": 400,
      "hazards": [
        "BR",
        "SN",
        "FZDZ",
        "DZ"
      ],
      "severityScore": 100,
      "metarRaw": "METAR EPKK 282330Z 06011KT 3000 BR OVC004 00/M01 Q0999",
      "tafRaw": "TAF EPKK 282330Z 2900/2924 06008KT 4000 BR BKN005 \n  TEMPO 2900/2909 2000 -SN BR BKN004 \n  PROB30 \n  TEMPO 2900/2909 -FZDZ \n  BECMG 2909/2912 9999 BKN015 \n  TEMPO 2912/2916 3000 -SN BR BKN006 \n  TEMPO 2916/2921 1200 SN BKN002"
    },
    {
      "icao": "EPRA",
      "iata": "RDO",
      "name": "Warsaw Radom Airport",
      "lat": 51.38937,
      "lon": 21.214742,
      "updatedAt": "282330Z",
      "visibility_m": 500,
      "taf_visibility_m": 600,
      "worst_visibility_m": 500,
      "ceiling_ft": 200,
      "hazards": [
        "FZFG",
        "FG",
        "RA",
        "BR"
      ],
      "severityScore": 100,
      "metarRaw": "METAR EPRA 282330Z 03004KT 0500 R25/0600N FZFG OVC002 M00/M01 Q1001",
      "tafRaw": "TAF EPRA 282330Z 2900/2909 05006KT 0600 FZFG OVC002 \n  BECMG 2901/2904 3000 BR OVC003 \n  BECMG 2907/2909 5000 BR OVC005"
    },
    {
      "icao": "LBSF",
      "iata": "SOF",
      "name": "Sofia Airport",
      "lat": 42.696357,
      "lon": 23.417671,
      "updatedAt": "282330Z",
      "visibility_m": 9000,
      "taf_visibility_m": 400,
      "worst_visibility_m": 400,
      "ceiling_ft": 200,
      "hazards": [
        "FZFG",
        "FG",
        "BR",
        "RA"
      ],
      "severityScore": 100,
      "metarRaw": "METAR LBSF 282330Z AUTO 10007KT 9000 SCT049/// 02/00 Q1000 NOSIG",
      "tafRaw": "TAF LBSF 282300Z 2900/2924 VRB04KT 5000 BR SCT015 BKN040 \n  TEMPO 2900/2906 0500 FG SCT002 BKN015 \n  PROB30 2901/2905 0400 FZFG BKN002 \n  BECMG 2908/2910 7000 NSW SCT030 \n  TEMPO 2916/2922 5000 RA BKN020 OVC040"
    },
    {
      "icao": "LFLS",
      "iata": "GNB",
      "name": "Grenoble Alpes Isère Airport",
      "lat": 45.3629,
      "lon": 5.32937,
      "updatedAt": "282330Z",
      "visibility_m": 10000,
      "taf_visibility_m": 400,
      "worst_visibility_m": 400,
      "ceiling_ft": 1200,
      "hazards": [
        "RA",
        "DZ",
        "FZFG",
        "BR",
        "FG"
      ],
      "severityScore": 100,
      "metarRaw": "METAR LFLS 282330Z AUTO VRB01KT 9999 -RADZ FEW007 OVC012 03/03 Q0997",
      "tafRaw": "TAF LFLS 281400Z 2815/2915 VRB05KT 6000 -RA SCT012 OVC020 \n  TEMPO 2815/2902 4000 RA OVC012 \n  PROB40 \n  TEMPO 2815/2902 OVC008 \n  FM290200 VRB02KT 8000 BKN012 \n  TEMPO 2902/2909 09005KT 3000 BR OVC006 \n  PROB30 \n  TEMPO 2904/2908 0400 FZFG VV/// \n  BECMG 2909/2911 SCT014"
    },
    {
      "icao": "LFOB",
      "iata": "BVA",
      "name": "Beauvais Tillé airport",
      "lat": 49.454399,
      "lon": 2.11278,
      "updatedAt": "282330Z",
      "visibility_m": 400,
      "taf_visibility_m": 400,
      "worst_visibility_m": 400,
      "ceiling_ft": 300,
      "hazards": [
        "FZFG",
        "FG",
        "BR"
      ],
      "severityScore": 100,
      "metarRaw": "METAR LFOB 282330Z AUTO 28004KT 1500 0900 R30/2600D R12/0900U BCFG VV/// M01/M01 Q0998 TEMPO 0400 FZFG",
      "tafRaw": "TAF LFOB 282300Z 2900/2924 VRB03KT 3000 BR OVC003 \n  TEMPO 2900/2910 0400 FZFG VV/// \n  BECMG 2910/2912 15010KT \n  PROB40 2912/2918 9999 NSW OVC007 \n  BECMG 2918/2922 SCT007"
    },
    {
      "icao": "LFPO",
      "iata": "ORY",
      "name": "Paris-Orly Airport",
      "lat": 48.72333,
      "lon": 2.37944,
      "updatedAt": "282330Z",
      "visibility_m": 450,
      "taf_visibility_m": 300,
      "worst_visibility_m": 300,
      "ceiling_ft": 400,
      "hazards": [
        "FG",
        "BR",
        "RA"
      ],
      "severityScore": 100,
      "metarRaw": "METAR LFPO 282330Z AUTO 25003KT 3200 0450 R02/P2000 R25/P2000 R07/0500D R24/0650U R06/1000U BCFG FEW009 02/02 Q0998 BECMG 0800 FG VV///",
      "tafRaw": "TAF LFPO 282300Z 2900/3006 VRB03KT 3000 BR NSC \n  BECMG 2900/2903 0800 FG VV/// \n  TEMPO 2903/2911 0300 \n  BECMG 2911/2913 16005KT 6000 NSW BKN004 \n  BECMG 2913/2915 BKN009 \n  BECMG 2915/2917 SCT012 \n  PROB40 \n  TEMPO 2922/3006 4000 -RA BKN006"
    },
    {
      "icao": "LIME",
      "iata": "BGY",
      "name": "Milan Bergamo Airport / Antonio Locatelli Air Base",
      "lat": 45.670725,
      "lon": 9.709223,
      "updatedAt": "282320Z",
      "visibility_m": 2000,
      "taf_visibility_m": 800,
      "worst_visibility_m": 800,
      "ceiling_ft": 300,
      "hazards": [
        "BR",
        "RA",
        "FG"
      ],
      "severityScore": 100,
      "metarRaw": "METAR LIME 282320Z 27004KT 2000 -RA BR BKN003 05/05 Q0991 NOSIG",
      "tafRaw": "TAF LIME 282300Z 2900/2924 VRB04KT 6000 SCT010 BKN025 \n  TEMPO 2900/2909 0800 FG BKN008"
    },
    {
      "icao": "LIPR",
      "iata": "RMI",
      "name": "Federico Fellini International Airport",
      "lat": 44.020024,
      "lon": 12.612198,
      "updatedAt": "282320Z",
      "visibility_m": 250,
      "taf_visibility_m": 800,
      "worst_visibility_m": 250,
      "ceiling_ft": 500,
      "hazards": [
        "FG",
        "BR"
      ],
      "severityScore": 100,
      "metarRaw": "METAR LIPR 282320Z AUTO VRB02KT 0250 R30/0650D BCFG FEW003/// SCT100/// BKN220/// 03/03 Q0992",
      "tafRaw": "TAF LIPR 282300Z 2900/2924 VRB05KT 2000 BR FEW005 \n  TEMPO 2905/2911 0800 FG BKN005 \n  BECMG 2911/2913 6000 \n  BECMG 2918/2920 3000 BR"
    },
    {
      "icao": "LIPZ",
      "iata": "VCE",
      "name": "Venice Marco Polo Airport",
      "lat": 45.505299,
      "lon": 12.3519,
      "updatedAt": "282320Z",
      "visibility_m": 5000,
      "taf_visibility_m": 200,
      "worst_visibility_m": 200,
      "ceiling_ft": 700,
      "hazards": [
        "BR",
        "FG"
      ],
      "severityScore": 100,
      "metarRaw": "METAR LIPZ 282320Z 22009KT 5000 BR BKN007 07/07 Q0991 NOSIG",
      "tafRaw": "TAF LIPZ 282300Z 2900/3006 24006KT 0400 FG OVC001 \n  TEMPO 2900/2903 2000 BCFG BKN005 \n  BECMG 2909/2911 6000 SCT010 \n  BECMG 2918/2920 3000 BR \n  BECMG 2922/2924 0200 FG OVC001"
    },
    {
      "icao": "LRIA",
      "iata": "IAS",
      "name": "Iaşi Airport",
      "lat": 47.180278,
      "lon": 27.620833,
      "updatedAt": "282330Z",
      "visibility_m": 150,
      "taf_visibility_m": 150,
      "worst_visibility_m": 150,
      "ceiling_ft": 100,
      "hazards": [
        "FG"
      ],
      "severityScore": 100,
      "metarRaw": "METAR LRIA 282330Z 10005KT 0150 R14/0450N FG VV001 03/02 Q0999",
      "tafRaw": "TAF LRIA 282300Z 2900/2909 11007KT 0150 FG VV001 \n  BECMG 2906/2908 0800 BKN005"
    },
    {
      "icao": "LRBC",
      "iata": "BCM",
      "name": "Bacău George Enescu International  Airport",
      "lat": 46.5219,
      "lon": 26.910299,
      "updatedAt": "282330Z",
      "visibility_m": 700,
      "taf_visibility_m": 500,
      "worst_visibility_m": 500,
      "ceiling_ft": 300,
      "hazards": [
        "FG",
        "DZ"
      ],
      "severityScore": 100,
      "metarRaw": "METAR LRBC 282330Z 30002KT 0700 R16/0800N FG VV003 01/01 Q0999",
      "tafRaw": "TAF LRBC 282300Z 2900/2909 VRB04KT 0500 FG VV001 \n  BECMG 2906/2908 0800 -DZ FG BKN005 OVC020"
    },
    {
      "icao": "LRBS",
      "iata": "BBU",
      "name": "Bucharest Băneasa Aurel Vlaicu International Airport",
      "lat": 44.503133,
      "lon": 26.102944,
      "updatedAt": "282330Z",
      "visibility_m": 700,
      "taf_visibility_m": 600,
      "worst_visibility_m": 600,
      "ceiling_ft": 100,
      "hazards": [
        "FG",
        "BR",
        "RA"
      ],
      "severityScore": 100,
      "metarRaw": "METAR LRBS 282330Z 00000KT 0700 R07/0800U FG SCT002 01/01 Q1000 NOSIG",
      "tafRaw": "TAF LRBS 282300Z 2900/2924 VRB04KT 1500 BR SCT002 \n  TEMPO 2900/2902 0600 FG BKN001 \n  TEMPO 2902/2905 3000 -RA BR BKN005 BKN030 \n  PROB40 \n  TEMPO 2905/2908 0600 FG BKN002 \n  BECMG 2908/2910 5000 \n  BECMG 2910/2912 9999 NSW \n  BECMG 2914/2916 07012KT"
    },
    {
      "icao": "LROP",
      "iata": "OTP",
      "name": "Bucharest Henri Coandă International Airport",
      "lat": 44.571792,
      "lon": 26.103285,
      "updatedAt": "282330Z",
      "visibility_m": 5000,
      "taf_visibility_m": 600,
      "worst_visibility_m": 600,
      "ceiling_ft": 100,
      "hazards": [
        "BR",
        "FG",
        "RA"
      ],
      "severityScore": 100,
      "metarRaw": "METAR LROP 282330Z VRB01KT 5000 BR NSC 01/01 Q1000 NOSIG",
      "tafRaw": "TAF LROP 282300Z 2900/2924 VRB04KT 1500 BR SCT001 \n  TEMPO 2900/2902 0600 FG BKN001 \n  TEMPO 2902/2905 3000 -RA BR BKN005 BKN030 \n  PROB40 \n  TEMPO 2905/2908 0600 FG BKN002 \n  BECMG 2908/2910 5000 \n  BECMG 2910/2912 9999 NSW \n  BECMG 2914/2916 07012KT"
    },
    {
      "icao": "LRSB",
      "iata": "SBZ",
      "name": "Sibiu International Airport",
      "lat": 45.785841,
      "lon": 24.086666,
      "updatedAt": "282330Z",
      "visibility_m": 5000,
      "taf_visibility_m": 800,
      "worst_visibility_m": 800,
      "ceiling_ft": 200,
      "hazards": [
        "BR",
        "FG",
        "FZRA",
        "RA"
      ],
      "severityScore": 100,
      "metarRaw": "METAR LRSB 282330Z 27002KT 5000 BR NSC 00/00 Q0996",
      "tafRaw": "TAF LRSB 282300Z 2900/2924 VRB04KT 5000 BR NSC \n  TEMPO 2900/2908 1500 -RA BR BKN010 BKN030 \n  PROB30 \n  TEMPO 2900/2904 -FZRA \n  BECMG 2914/2916 1500 BR BKN005 \n  PROB40 \n  TEMPO 2918/2924 0800 FG OVC002"
    },
    {
      "icao": "LRSV",
      "iata": "SCV",
      "name": "Suceava Stefan cel Mare Airport",
      "lat": 47.6875,
      "lon": 26.35409927368164,
      "updatedAt": "282330Z",
      "visibility_m": 300,
      "taf_visibility_m": 150,
      "worst_visibility_m": 150,
      "ceiling_ft": 100,
      "hazards": [
        "FZFG",
        "FG",
        "FZDZ",
        "DZ"
      ],
      "severityScore": 100,
      "metarRaw": "METAR LRSV 282330Z 31003KT 260V020 0300 R34/0700N FZFG VV001 M01/M01 Q0997",
      "tafRaw": "TAF LRSV 282300Z 2900/2909 VRB04KT 0150 FZFG VV001 \n  TEMPO 2900/2904 0600 -FZDZ FZFG BKN002 \n  BECMG 2905/2907 0600 -DZ FG BKN005"
    },
    {
      "icao": "LRTM",
      "iata": "TGM",
      "name": "Târgu Mureş Transilvania International Airport",
      "lat": 46.467701,
      "lon": 24.4125,
      "updatedAt": "282330Z",
      "visibility_m": 550,
      "taf_visibility_m": 150,
      "worst_visibility_m": 150,
      "ceiling_ft": 100,
      "hazards": [
        "FG"
      ],
      "severityScore": 100,
      "metarRaw": "METAR LRTM 282330Z AUTO VRB02KT 0550 R07/0900N FG VV001 01/00 Q0997",
      "tafRaw": "TAF LRTM 281400Z 2815/2824 VRB04KT 0300 FG BKN001 OVC005 \n  TEMPO 2815/2817 0600 \n  TEMPO 2817/2824 0150 FG OVC001"
    },
    {
      "icao": "LRTR",
      "iata": "TSR",
      "name": "Timişoara Traian Vuia Airport",
      "lat": 45.809898,
      "lon": 21.3379,
      "updatedAt": "282330Z",
      "visibility_m": 10000,
      "taf_visibility_m": 600,
      "worst_visibility_m": 600,
      "ceiling_ft": 100,
      "hazards": [
        "RA",
        "FG",
        "BR"
      ],
      "severityScore": 100,
      "metarRaw": "METAR LRTR 282330Z 13008KT 9999 -RA SCT042 06/04 Q0995",
      "tafRaw": "TAF LRTR 282300Z 2900/2924 11008KT 9999 -RA BKN040 \n  TEMPO 2903/2906 3000 RA BKN010 OVC025 \n  BECMG 2908/2910 NSW \n  BECMG 2916/2918 3000 BR BKN010 \n  BECMG 2919/2921 1500 BR BKN005 \n  BECMG 2921/2923 0600 FG OVC001"
    },
    {
      "icao": "LUKK",
      "iata": "RMO",
      "name": "Chişinău International Airport",
      "lat": 46.9277,
      "lon": 28.931,
      "updatedAt": "282330Z",
      "visibility_m": 500,
      "taf_visibility_m": 200,
      "worst_visibility_m": 200,
      "ceiling_ft": 100,
      "hazards": [
        "FG",
        "BR",
        "DZ"
      ],
      "severityScore": 100,
      "metarRaw": "METAR LUKK 282330Z 18004KT 0500 0400SW R08/0500N FG VV001 03/03 Q1000 NOSIG",
      "tafRaw": "TAF LUKK 282318Z 2900/2924 VRB05KT 0500 FG VV002 \n  TEMPO 2902/2908 0200 -DZ FG VV001 \n  TEMPO 2909/2918 1500 -DZ BR OVC003"
    },
    {
      "icao": "UAAA",
      "iata": "ALA",
      "name": "Almaty International Airport",
      "lat": 43.354267,
      "lon": 77.042828,
      "updatedAt": "282330Z",
      "visibility_m": 1800,
      "taf_visibility_m": 200,
      "worst_visibility_m": 200,
      "ceiling_ft": 200,
      "hazards": [
        "BR",
        "FZFG",
        "FG"
      ],
      "severityScore": 100,
      "metarRaw": "METAR UAAA 282330Z 29002MPS 250V340 1800 R23L/P2000U BR OVC002 M02/M03 Q1028 NOSIG RMK QBB080",
      "tafRaw": "TAF UAAA 282300Z 2900/2924 VRB01MPS 0700 FZFG VV003 TXM01/2908Z TNM05/2902Z \n  TEMPO 2900/2905 0200 VV001 \n  FM290600 04003G08MPS 3100 BR FU SCT011 BKN030 \n  TEMPO 2906/2914 1200 \n  BECMG 2914/2915 1200 \n  TEMPO 2914/2924 0200 FZFG VV001"
    },
    {
      "icao": "UDSG",
      "iata": "LWN",
      "name": "Shirak International Airport",
      "lat": 40.750401,
      "lon": 43.859299,
      "updatedAt": "282330Z",
      "visibility_m": 3400,
      "taf_visibility_m": 200,
      "worst_visibility_m": 200,
      "ceiling_ft": 3600,
      "hazards": [
        "BR",
        "FZFG",
        "FG"
      ],
      "severityScore": 100,
      "metarRaw": "METAR UDSG 282330Z 20001KT 3400 BR BKN036 M15/M17 Q1014 NOSIG",
      "tafRaw": "TAF UDSG 282300Z 2900/2924 VRB06KT 2000 BR BKN020 \n  TEMPO 2900/2908 0200 FZFG VV001"
    },
    {
      "icao": "UDYZ",
      "iata": "EVN",
      "name": "Zvartnots International Airport",
      "lat": 40.148941,
      "lon": 44.397887,
      "updatedAt": "282330Z",
      "visibility_m": 3700,
      "taf_visibility_m": 600,
      "worst_visibility_m": 600,
      "ceiling_ft": 900,
      "hazards": [
        "BR",
        "FZFG",
        "FG"
      ],
      "severityScore": 100,
      "metarRaw": "METAR UDYZ 282330Z 29003KT 3700 BR BKN009 M04/M06 Q1016 NOSIG",
      "tafRaw": "TAF UDYZ 282300Z 2900/2924 VRB04KT 3000 BR BKN010 \n  TEMPO 2900/2906 0600 FZFG VV003"
    },
    {
      "icao": "EGBB",
      "iata": "BHX",
      "name": "Birmingham Airport",
      "lat": 52.453899,
      "lon": -1.74803,
      "updatedAt": "282320Z",
      "visibility_m": 5000,
      "taf_visibility_m": 300,
      "worst_visibility_m": 300,
      "ceiling_ft": 1000,
      "hazards": [
        "BR",
        "FG",
        "RA"
      ],
      "severityScore": 99,
      "metarRaw": "METAR EGBB 282320Z 16003KT 5000 R15/0375N BR MIFG NSC M01/M01 Q0997",
      "tafRaw": "TAF EGBB 282256Z 2900/2924 VRB04KT 9999 FEW025 \n  BECMG 2900/2903 6000 \n  TEMPO 2900/2911 3000 BR \n  PROB40 2900/2910 0300 FG VV/// \n  BECMG 2909/2912 14010KT 9999 \n  PROB30 \n  TEMPO 2910/2914 BKN010 \n  PROB30 \n  TEMPO 2918/2924 13015G25KT \n  TEMPO 2919/2924 BKN012 \n  TEMPO 2922/2924 6000 RA"
    },
    {
      "icao": "LBPD",
      "iata": "PDV",
      "name": "Plovdiv International Airport",
      "lat": 42.067799,
      "lon": 24.8508,
      "updatedAt": "282330Z",
      "visibility_m": 10000,
      "taf_visibility_m": 800,
      "worst_visibility_m": 800,
      "ceiling_ft": 500,
      "hazards": [
        "BR",
        "RA",
        "FG"
      ],
      "severityScore": 92,
      "metarRaw": "METAR LBPD 282330Z AUTO VRB04KT 9999 FEW067/// 04/04 Q1001",
      "tafRaw": "TAF LBPD 282300Z 2900/2924 VRB04KT 9999 BKN040 \n  TEMPO 2900/2907 3000 BR \n  PROB30 2902/2907 0800 BCFG SCT002 BKN005 \n  BECMG 2910/2912 5000 RA SCT020 OVC050 \n  BECMG 2915/2917 30010KT"
    },
    {
      "icao": "LIPH",
      "iata": "TSF",
      "name": "Treviso Antonio Canova Airport",
      "lat": 45.648399,
      "lon": 12.1944,
      "updatedAt": "282320Z",
      "visibility_m": 3900,
      "taf_visibility_m": 600,
      "worst_visibility_m": 600,
      "ceiling_ft": 200,
      "hazards": [
        "BR",
        "FG"
      ],
      "severityScore": 90,
      "metarRaw": "METAR LIPH 282320Z AUTO 27003KT 3900 BR OVC004/// 07/07 Q0991",
      "tafRaw": "TAF LIPH 282300Z 2900/2924 VRB05KT 0800 FG BKN002 \n  TEMPO 2900/2903 4000 BCFG BKN005 \n  BECMG 2909/2911 7000 SCT020 \n  BECMG 2917/2919 3000 BR \n  TEMPO 2921/2924 0600 FG OVC002"
    },
    {
      "icao": "LFLL",
      "iata": "LYS",
      "name": "Lyon Saint-Exupéry Airport",
      "lat": 45.725996,
      "lon": 5.090139,
      "updatedAt": "282330Z",
      "visibility_m": 7000,
      "taf_visibility_m": 500,
      "worst_visibility_m": 500,
      "ceiling_ft": 1900,
      "hazards": [
        "RA",
        "FG",
        "BR"
      ],
      "severityScore": 89,
      "metarRaw": "METAR LFLL 282330Z 20002KT 7000 -RA OVC019 05/04 Q0997 NOSIG",
      "tafRaw": "TAF LFLL 281700Z 2818/2924 34007KT 9999 BKN020 OVC042 \n  PROB40 \n  TEMPO 2818/2821 4000 RA BKN014 \n  PROB40 \n  TEMPO 2903/2910 4000 BR BKN012 \n  PROB30 2906/2910 0500 FG BKN002 \n  FM291200 VRB02KT CAVOK"
    },
    {
      "icao": "LFBD",
      "iata": "BOD",
      "name": "Bordeaux–Mérignac Airport",
      "lat": 44.82865,
      "lon": -0.715356,
      "updatedAt": "282330Z",
      "visibility_m": 4000,
      "taf_visibility_m": 2000,
      "worst_visibility_m": 2000,
      "ceiling_ft": 1500,
      "hazards": [
        "SHRA",
        "RA",
        "TSRA",
        "TS"
      ],
      "severityScore": 88,
      "metarRaw": "METAR LFBD 282330Z AUTO 18009KT 9999 FEW025/// BKN031/// BKN048/// ///TCU 06/06 Q0998 TEMPO 4000 SHRA BKN015 FEW025CB BKN030TCU",
      "tafRaw": "TAF LFBD 282300Z 2900/3006 18010KT CAVOK TX12/2915Z TN06/2900Z \n  TEMPO 2900/2906 4000 SHRA BKN015 FEW025CB BKN030TCU \n  TEMPO 2912/2924 24015G30KT 4000 SHRA BKN010 BKN030TCU \n  PROB30 \n  TEMPO 2921/2924 27015G25KT 2000 TSRA BKN010 BKN025CB"
    },
    {
      "icao": "LZTT",
      "iata": "TAT",
      "name": "Poprad-Tatry Airport",
      "lat": 49.073601,
      "lon": 20.2411,
      "updatedAt": "282330Z",
      "visibility_m": 4500,
      "taf_visibility_m": 700,
      "worst_visibility_m": 700,
      "ceiling_ft": 400,
      "hazards": [
        "SN",
        "BR"
      ],
      "severityScore": 88,
      "metarRaw": "METAR LZTT 282330Z 14002KT 4500 -SN OVC004 M00/M00 Q0996",
      "tafRaw": "TAF LZTT 282315Z 2900/3000 VRB02KT 6000 -SN SCT008 BKN025 \n  TEMPO 2900/2918 2800 -SN BR FEW003 OVC008 \n  PROB40 \n  TEMPO 2900/2906 0700 SN BR SCT001 OVC003 \n  BECMG 2916/2918 07010KT \n  BECMG 2919/2921 9999 NSW"
    },
    {
      "icao": "EDNY",
      "iata": "FDH",
      "name": "Bodensee Airport Friedrichshafen",
      "lat": 47.671299,
      "lon": 9.51149,
      "updatedAt": "282320Z",
      "visibility_m": 10000,
      "taf_visibility_m": 1200,
      "worst_visibility_m": 1200,
      "ceiling_ft": 300,
      "hazards": [
        "BR",
        "SN",
        "RA"
      ],
      "severityScore": 85,
      "metarRaw": "METAR EDNY 282320Z AUTO 26005KT 9999 // OVC009/// 03/02 Q0993",
      "tafRaw": "TAF EDNY 281700Z 2818/2903 VRB02KT 6000 BKN020 \n  BECMG 2818/2820 BKN012 \n  TEMPO 2818/2903 3500 -SNRA BR BKN007 \n  PROB30 \n  TEMPO 2822/2903 1200 SN BKN003"
    },
    {
      "icao": "LZKZ",
      "iata": "KSC",
      "name": "Košice International Airport",
      "lat": 48.663101,
      "lon": 21.2411,
      "updatedAt": "282330Z",
      "visibility_m": 8000,
      "taf_visibility_m": 1400,
      "worst_visibility_m": 1400,
      "ceiling_ft": 2300,
      "hazards": [
        "BR",
        "RA",
        "SN",
        "FZRA"
      ],
      "severityScore": 85,
      "metarRaw": "METAR LZKZ 282330Z 36008KT 8000 FEW015 OVC023 01/01 Q0997 NOSIG",
      "tafRaw": "TAF LZKZ 282315Z 2900/3000 01006KT 7000 -RA SCT013 OVC020 \n  TEMPO 2900/2905 3000 RASN BR SCT005 OVC013 \n  PROB30 \n  TEMPO 2900/2905 1400 FZRASN BR SCT002 OVC005 \n  BECMG 2908/2910 02012KT \n  BECMG 2917/2919 01017KT 9999 NSW"
    },
    {
      "icao": "LPPR",
      "iata": "OPO",
      "name": "Francisco de Sá Carneiro Airport",
      "lat": 41.2481002808,
      "lon": -8.68138980865,
      "updatedAt": "282330Z",
      "visibility_m": 4700,
      "taf_visibility_m": 3000,
      "worst_visibility_m": 3000,
      "ceiling_ft": 300,
      "hazards": [
        "BR",
        "RA",
        "DZ",
        "SHRA"
      ],
      "severityScore": 81,
      "metarRaw": "METAR LPPR 282330Z 22014G24KT 170V250 4700 -RADZ BR BKN003 SCT015CB 14/14 Q0999 RERA",
      "tafRaw": "TAF LPPR 282300Z 2900/2924 23020G32KT 3000 RADZ BR BKN003 FEW015CB \n  BECMG 2901/2904 26013KT 9999 NSW SCT015 \n  TEMPO 2904/2910 6000 -RA SCT006 BKN012 \n  BECMG 2910/2912 24013KT SCT025 \n  TEMPO 2912/2920 8000 SHRA SCT015 FEW020CB BKN030"
    },
    {
      "icao": "LIMC",
      "iata": "MXP",
      "name": "Milan Malpensa International Airport",
      "lat": 45.6306,
      "lon": 8.72811,
      "updatedAt": "282320Z",
      "visibility_m": 1500,
      "taf_visibility_m": 800,
      "worst_visibility_m": 800,
      "ceiling_ft": 200,
      "hazards": [
        "FG"
      ],
      "severityScore": 80,
      "metarRaw": "METAR LIMC 282320Z 25004KT 1500 BCFG BKN002 05/05 Q0992 NOSIG",
      "tafRaw": "TAF LIMC 282300Z 2900/3006 VRB05KT 6000 BKN020 \n  TEMPO 2900/2909 0800 FG BKN004 \n  TEMPO 2920/3006 0800 FG BKN004"
    },
    {
      "icao": "LIPE",
      "iata": "BLQ",
      "name": "Bologna Guglielmo Marconi Airport",
      "lat": 44.5354,
      "lon": 11.2887,
      "updatedAt": "282320Z",
      "visibility_m": 6000,
      "taf_visibility_m": 800,
      "worst_visibility_m": 800,
      "ceiling_ft": 500,
      "hazards": [
        "FG",
        "BR"
      ],
      "severityScore": 80,
      "metarRaw": "METAR LIPE 282320Z 29004KT 260V320 6000 BKN005 06/05 Q0992",
      "tafRaw": "TAF LIPE 282300Z 2900/2924 VRB05KT 4000 BR BKN006 \n  TEMPO 2904/2908 0800 FG BKN002 \n  BECMG 2908/2910 8000 SCT020 \n  BECMG 2918/2920 4000 BR"
    },
    {
      "icao": "LEMD",
      "iata": "MAD",
      "name": "Adolfo Suárez Madrid–Barajas Airport",
      "lat": 40.471926,
      "lon": -3.56264,
      "updatedAt": "282330Z",
      "visibility_m": 10000,
      "taf_visibility_m": 800,
      "worst_visibility_m": 800,
      "ceiling_ft": 6000,
      "hazards": [
        "DZ",
        "FG",
        "BR",
        "RA"
      ],
      "severityScore": 77,
      "metarRaw": "METAR LEMD 282330Z 22011KT 9999 -DZ SCT050 BKN060 BKN070 08/05 Q1004 NOSIG",
      "tafRaw": "TAF LEMD 282300Z 2900/3006 25010KT 9999 SCT050 TX14/2915Z TN05/2904Z \n  TEMPO 2900/2901 24012G25KT \n  TEMPO 2900/2907 VRB04KT 3000 DZRA RA BR BKN004 BKN010 \n  PROB30 \n  TEMPO 2900/2907 0800 FG VV002 \n  PROB30 \n  TEMPO 2907/2911 25015G25KT \n  TEMPO 2910/2915 VRB04KT DZRA"
    },
    {
      "icao": "LIPQ",
      "iata": "TRS",
      "name": "Trieste–Friuli Venezia Giulia Airport",
      "lat": 45.827499,
      "lon": 13.4722,
      "updatedAt": "282320Z",
      "visibility_m": 6000,
      "taf_visibility_m": 1500,
      "worst_visibility_m": 1500,
      "ceiling_ft": 500,
      "hazards": [
        "RA",
        "BR",
        "FG"
      ],
      "severityScore": 77,
      "metarRaw": "METAR LIPQ 282320Z AUTO 20006KT 6000 -RA OVC003/// 09/09 Q0991",
      "tafRaw": "TAF LIPQ 282300Z 2900/2924 VRB05KT 4000 BR OVC005 \n  BECMG 2907/2909 8000 SCT020 \n  TEMPO 2920/2924 1500 BCFG"
    },
    {
      "icao": "LEBB",
      "iata": "BIO",
      "name": "Bilbao Airport",
      "lat": 43.301102,
      "lon": -2.91061,
      "updatedAt": "282330Z",
      "visibility_m": 10000,
      "taf_visibility_m": 3000,
      "worst_visibility_m": 3000,
      "ceiling_ft": null,
      "hazards": [
        "TSRA",
        "SHRA",
        "TS",
        "RA"
      ],
      "severityScore": 76,
      "metarRaw": "METAR LEBB 282330Z AUTO VRB03KT CAVOK 11/02 Q0999",
      "tafRaw": "TAF LEBB 282300Z 2900/2924 22009KT 9999 FEW030 TX16/2914Z TN08/2906Z \n  PROB40 \n  TEMPO 2900/2912 20015G25KT \n  PROB30 \n  TEMPO 2900/2907 3000 SHRA SCT035TCU \n  TEMPO 2917/2923 27018G28KT 3000 SHRA SCT035TCU \n  PROB40 \n  TEMPO 2917/2923 TSRA SCT035CB"
    },
    {
      "icao": "LEXJ",
      "iata": "SDR",
      "name": "Seve Ballesteros-Santander Airport",
      "lat": 43.427101,
      "lon": -3.82001,
      "updatedAt": "282330Z",
      "visibility_m": 10000,
      "taf_visibility_m": 3000,
      "worst_visibility_m": 3000,
      "ceiling_ft": null,
      "hazards": [
        "TSRA",
        "SHRA",
        "TS",
        "RA"
      ],
      "severityScore": 76,
      "metarRaw": "METAR LEXJ 282330Z AUTO 24004KT 190V280 9999 2800E NSC 11/02 Q0999",
      "tafRaw": "TAF LEXJ 282000Z 2821/2921 22009KT 9999 FEW040 TX16/2914Z TN09/2905Z \n  PROB30 \n  TEMPO 2821/2909 22015G25KT \n  PROB40 \n  TEMPO 2903/2908 3000 SHRA SCT030TCU \n  TEMPO 2916/2921 24018G28KT 3000 SHRA SCT035TCU \n  PROB40 \n  TEMPO 2917/2921 27025G45KT TSRA SCT035CB"
    },
    {
      "icao": "LOWW",
      "iata": "VIE",
      "name": "Vienna International Airport",
      "lat": 48.110298,
      "lon": 16.5697,
      "updatedAt": "282320Z",
      "visibility_m": 4000,
      "taf_visibility_m": 1200,
      "worst_visibility_m": 1200,
      "ceiling_ft": 600,
      "hazards": [
        "RA",
        "BR",
        "SN"
      ],
      "severityScore": 75,
      "metarRaw": "METAR LOWW 282320Z 10010KT 8000 FEW005 BKN006 03/02 Q0993 TEMPO 4000 RA",
      "tafRaw": "TAF LOWW 282315Z 2900/3006 VRB04KT 4000 -RA OVC005 TX02/2900Z TN00/3000Z \n  BECMG 2906/2908 34008KT \n  TEMPO 2906/2914 2000 RASN VV003 \n  PROB30 \n  TEMPO 2912/2917 1200 -SNRA \n  BECMG 2917/2919 6000 NSW SCT003 BKN012 \n  TEMPO 2919/3006 4000 BR FEW003 BKN005"
    },
    {
      "icao": "LZIB",
      "iata": "BTS",
      "name": "M. R. Štefánik Airport",
      "lat": 48.1702,
      "lon": 17.2127,
      "updatedAt": "282330Z",
      "visibility_m": 5000,
      "taf_visibility_m": 1200,
      "worst_visibility_m": 1200,
      "ceiling_ft": 500,
      "hazards": [
        "BR",
        "RA",
        "SN"
      ],
      "severityScore": 75,
      "metarRaw": "METAR LZIB 282330Z 05008KT 5000 -RA BR SCT004 BKN005 BKN019 03/03 Q0994 NOSIG",
      "tafRaw": "TAF LZIB 282315Z 2900/3000 06009KT 9999 -RA SCT004 OVC010 \n  TEMPO 2900/2907 4000 RA OVC004 \n  PROB30 \n  TEMPO 2900/2907 2000 RA BR \n  BECMG 2906/2908 01004KT 4000 -RA BR \n  TEMPO 2907/2914 2000 RA BR OVC004 \n  PROB30 \n  TEMPO 2907/2914 1200 RASN BR OVC002 \n  BECMG 2914/2916 31005KT 9999 -RA SCT008 OVC016 \n  TEMPO 2919/3000 4000 -RASN SCT004 OVC008"
    },
    {
      "icao": "EDDK",
      "iata": "CGN",
      "name": "Cologne Bonn Airport",
      "lat": 50.865898,
      "lon": 7.14274,
      "updatedAt": "282320Z",
      "visibility_m": 1400,
      "taf_visibility_m": 1500,
      "worst_visibility_m": 1400,
      "ceiling_ft": 300,
      "hazards": [
        "BR",
        "SN"
      ],
      "severityScore": 73,
      "metarRaw": "METAR EDDK 282320Z AUTO 23003KT 170V300 2800 SN BR BKN003 BKN006 00/M00 Q0996 TEMPO 1400",
      "tafRaw": "TAF EDDK 282300Z 2900/3006 11003KT 6000 OVC007 \n  TEMPO 2900/2902 1500 SN BR BKN004 \n  TEMPO 2902/2908 3000 -SN BR BKN004 \n  BECMG 2911/2914 BKN010 \n  BECMG 2918/2921 BKN020 \n  TEMPO 3003/3006 13008KT BKN005"
    },
    {
      "icao": "EDJA",
      "iata": "FMM",
      "name": "Memmingen Allgau Airport",
      "lat": 47.988092,
      "lon": 10.238248,
      "updatedAt": "282320Z",
      "visibility_m": 4500,
      "taf_visibility_m": 1200,
      "worst_visibility_m": 1200,
      "ceiling_ft": 100,
      "hazards": [
        "BR",
        "SN"
      ],
      "severityScore": 73,
      "metarRaw": "METAR EDJA 282320Z AUTO 22004KT 4500 // SCT002/// OVC005/// 00/M01 Q0992",
      "tafRaw": "TAF EDJA 281700Z 2818/2903 24005KT 6000 SCT005 BKN010 \n  BECMG 2818/2820 3000 -SN BR BKN004 \n  TEMPO 2820/2903 1200 SN BKN001"
    },
    {
      "icao": "EDLW",
      "iata": "DTM",
      "name": "Dortmund Airport",
      "lat": 51.518299,
      "lon": 7.61224,
      "updatedAt": "282320Z",
      "visibility_m": 2800,
      "taf_visibility_m": 1200,
      "worst_visibility_m": 1200,
      "ceiling_ft": 100,
      "hazards": [
        "BR",
        "SN"
      ],
      "severityScore": 73,
      "metarRaw": "METAR EDLW 282320Z AUTO 03006KT 2800 // SCT003/// OVC005/// M00/M01 Q0996",
      "tafRaw": "TAF EDLW 281700Z 2818/2918 07007KT 5000 BR SCT003 BKN005 \n  TEMPO 2818/2918 2500 -SN BKN003 \n  PROB30 \n  TEMPO 2821/2910 1200 SN OVC001"
    },
    {
      "icao": "EPKT",
      "iata": "KTW",
      "name": "Katowice Wojciech Korfanty International Airport",
      "lat": 50.476015,
      "lon": 19.080705,
      "updatedAt": "282330Z",
      "visibility_m": 5000,
      "taf_visibility_m": 1200,
      "worst_visibility_m": 1200,
      "ceiling_ft": 400,
      "hazards": [
        "BR",
        "SN"
      ],
      "severityScore": 73,
      "metarRaw": "METAR EPKT 282330Z 06007KT 5000 BR OVC004 M01/M02 Q0999",
      "tafRaw": "TAF EPKT 282330Z 2900/2924 05010KT 4000 BR BKN004 \n  BECMG 2900/2903 5000 BR OVC010 \n  TEMPO 2900/2908 2000 -SN BR BKN005 \n  BECMG 2908/2911 BKN020 \n  TEMPO 2908/2915 3000 -SN BR BKN005 \n  TEMPO 2915/2921 1200 SN BR BKN003"
    },
    {
      "icao": "LGTS",
      "iata": "SKG",
      "name": "Thessaloniki Macedonia International Airport",
      "lat": 40.51928,
      "lon": 22.970009,
      "updatedAt": "282320Z",
      "visibility_m": 10000,
      "taf_visibility_m": 3000,
      "worst_visibility_m": 3000,
      "ceiling_ft": 2000,
      "hazards": [
        "TS",
        "BR",
        "TSRA",
        "RA"
      ],
      "severityScore": 72,
      "metarRaw": "METAR LGTS 282320Z 24003KT 9999 FEW030 09/09 Q1002 NOSIG",
      "tafRaw": "TAF LGTS 282300Z 2900/2924 34008KT 9999 FEW010 BKN025 \n  PROB40 2900/2902 3000 BR SCT008 SCT025 \n  TEMPO 2903/2924 5000 RA \n  PROB30 \n  TEMPO 2910/2914 3000 TSRA FEW008 FEW018CB BKN020"
    },
    {
      "icao": "EDSB",
      "iata": "FKB",
      "name": "Karlsruhe Baden-Baden Airport",
      "lat": 48.7794,
      "lon": 8.0805,
      "updatedAt": "282320Z",
      "visibility_m": 7000,
      "taf_visibility_m": 2000,
      "worst_visibility_m": 2000,
      "ceiling_ft": 400,
      "hazards": [
        "BR",
        "RA",
        "DZ"
      ],
      "severityScore": 67,
      "metarRaw": "METAR EDSB 282320Z AUTO 01005KT 7000 OVC006/// 03/02 Q0995",
      "tafRaw": "TAF EDSB 282300Z 2900/2924 VRB03KT 6000 BKN008 \n  TEMPO 2900/2915 2000 -RADZ BR BKN004 \n  BECMG 2915/2918 SCT008"
    },
    {
      "icao": "LPPT",
      "iata": "LIS",
      "name": "Lisbon Humberto Delgado Airport",
      "lat": 38.7813,
      "lon": -9.13592,
      "updatedAt": "282330Z",
      "visibility_m": 8000,
      "taf_visibility_m": 1200,
      "worst_visibility_m": 1200,
      "ceiling_ft": 500,
      "hazards": [
        "RA",
        "DZ",
        "BR"
      ],
      "severityScore": 67,
      "metarRaw": "METAR LPPT 282330Z 25021G31KT 8000 -DZRA BKN005 16/16 Q1006",
      "tafRaw": "TAF LPPT 282300Z 2900/3006 23015KT 6000 -RA SCT004 BKN008 \n  TEMPO 2900/2914 23018G30KT 3000 RADZ BR SCT002 BKN004 \n  PROB30 \n  TEMPO 2900/2911 1200 DZ BR BKN002 \n  BECMG 2914/2916 29010KT 9999 NSW SCT020 \n  BECMG 2922/2924 25007KT"
    },
    {
      "icao": "LRCL",
      "iata": "CLJ",
      "name": "Cluj Avram Iancu International Airport",
      "lat": 46.787425,
      "lon": 23.684292,
      "updatedAt": "282330Z",
      "visibility_m": 4000,
      "taf_visibility_m": 1500,
      "worst_visibility_m": 1500,
      "ceiling_ft": 6000,
      "hazards": [
        "BR",
        "FZRA",
        "RA"
      ],
      "severityScore": 67,
      "metarRaw": "METAR LRCL 282330Z 08004KT 4000 BR BKN060 01/00 Q0997",
      "tafRaw": "TAF LRCL 282300Z 2900/2909 VRB04KT 3000 BR BKN050 \n  BECMG 2900/2902 1500 -RA BR BKN010 OVC025 \n  PROB30 \n  TEMPO 2902/2904 -FZRA"
    },
    {
      "icao": "LRCV",
      "iata": "CRA",
      "name": "Craiova International Airport",
      "lat": 44.3181,
      "lon": 23.888599,
      "updatedAt": "282330Z",
      "visibility_m": 4600,
      "taf_visibility_m": 600,
      "worst_visibility_m": 600,
      "ceiling_ft": 4900,
      "hazards": [
        "BR",
        "RA",
        "FG"
      ],
      "severityScore": 67,
      "metarRaw": "METAR LRCV 282330Z 06006KT 4600 -RA BR OVC049 04/04 Q0999",
      "tafRaw": "TAF LRCV 282300Z 2900/2909 08007KT 3000 -RA BR OVC035 \n  TEMPO 2900/2905 1500 -RA BR BKN005 BKN020 \n  TEMPO 2905/2908 0600 FG BKN002 \n  BECMG 2908/2909 5000 BR"
    },
    {
      "icao": "LYPG",
      "iata": "TGD",
      "name": "Podgorica Airport / Podgorica Golubovci Airbase",
      "lat": 42.359402,
      "lon": 19.2519,
      "updatedAt": "282330Z",
      "visibility_m": 10000,
      "taf_visibility_m": 500,
      "worst_visibility_m": 500,
      "ceiling_ft": 8000,
      "hazards": [
        "FG",
        "RA"
      ],
      "severityScore": 67,
      "metarRaw": "METAR LYPG 282330Z VRB02KT 9999 FEW040 SCT083 07/07 Q0998 NOSIG",
      "tafRaw": "TAF LYPG 282300Z 2900/2924 36005KT 9999 SCT040 BKN080 TX13/2913Z TN04/2905Z \n  TEMPO 2900/2903 4000 RA \n  PROB40 2903/2907 0500 FG"
    },
    {
      "icao": "OJAI",
      "iata": "AMM",
      "name": "Queen Alia International Airport",
      "lat": 31.7226009369,
      "lon": 35.9931983948,
      "updatedAt": "282300Z",
      "visibility_m": 4000,
      "taf_visibility_m": 600,
      "worst_visibility_m": 600,
      "ceiling_ft": 3000,
      "hazards": [
        "BR",
        "FG",
        "RA"
      ],
      "severityScore": 67,
      "metarRaw": "METAR OJAI 282300Z 24010KT 4000 BR NSC 08/07 Q1019 NOSIG",
      "tafRaw": "TAF OJAI 282300Z 2900/3006 24014KT 3000 BR SCT025TCU BKN030 \n  TEMPO 2900/2910 27018KT 2000 RA BR \n  PROB40 2900/2907 0600 FG \n  BECMG 2912/2914 5000 HZ FEW025TCU SCT030"
    },
    {
      "icao": "EGPD",
      "iata": "ABZ",
      "name": "Aberdeen International Airport",
      "lat": 57.2019,
      "lon": -2.19778,
      "updatedAt": "282320Z",
      "visibility_m": 4000,
      "taf_visibility_m": 4000,
      "worst_visibility_m": 4000,
      "ceiling_ft": 700,
      "hazards": [
        "RA",
        "DZ",
        "SN"
      ],
      "severityScore": 65,
      "metarRaw": "METAR EGPD 282320Z AUTO 13012KT 6000 -RA BKN007 OVC024 05/04 Q1000 RERA REDZ TEMPO 4000 RADZ",
      "tafRaw": "TAF EGPD 282254Z 2900/2924 13012KT 9999 SCT012 BKN025 \n  TEMPO 2900/2924 6000 -RADZ BKN010 \n  PROB40 \n  TEMPO 2900/2907 4000 RADZ BKN006 \n  PROB40 \n  TEMPO 2906/2924 14015G25KT \n  PROB30 \n  TEMPO 2922/2924 4000 RASN BKN006"
    },
    {
      "icao": "EGPF",
      "iata": "GLA",
      "name": "Glasgow Airport",
      "lat": 55.871899,
      "lon": -4.43306,
      "updatedAt": "282320Z",
      "visibility_m": 3800,
      "taf_visibility_m": 1200,
      "worst_visibility_m": 1200,
      "ceiling_ft": 400,
      "hazards": [
        "BR",
        "DZ"
      ],
      "severityScore": 65,
      "metarRaw": "METAR EGPF 282320Z AUTO 07009KT 3800 BR OVC004 04/04 Q0997",
      "tafRaw": "TAF EGPF 282257Z 2900/2924 09007KT 3000 BR BKN003 \n  TEMPO 2900/2907 1200 -DZ BKN001 \n  PROB30 \n  TEMPO 2900/2908 9999 NSW FEW008 SCT040 \n  BECMG 2908/2910 9999 NSW FEW018 SCT040 \n  BECMG 2918/2921 09015G25KT"
    },
    {
      "icao": "LFSB",
      "iata": "BSL",
      "name": "EuroAirport Basel–Mulhouse–Freiburg",
      "lat": 47.60068,
      "lon": 7.521117,
      "updatedAt": "282330Z",
      "visibility_m": 10000,
      "taf_visibility_m": 10000,
      "worst_visibility_m": 10000,
      "ceiling_ft": 800,
      "hazards": [
        "DZ",
        "SN",
        "RA"
      ],
      "severityScore": 65,
      "metarRaw": "METAR LFSB 282330Z AUTO VRB02KT 9999 -DZ SCT011 BKN016 OVC029 03/02 Q0995 TEMPO OVC008",
      "tafRaw": "TAF LFSB 282300Z 2900/2924 26005KT 9999 FEW010 OVC016 \n  TEMPO 2900/2904 -RADZ BKN012 \n  PROB30 \n  TEMPO 2900/2904 -RASN OVC008"
    },
    {
      "icao": "LQBK",
      "iata": "BNX",
      "name": "Banja Luka International Airport",
      "lat": 44.941399,
      "lon": 17.297501,
      "updatedAt": "282330Z",
      "visibility_m": 2000,
      "taf_visibility_m": 500,
      "worst_visibility_m": 500,
      "ceiling_ft": 4700,
      "hazards": [
        "BR",
        "FG"
      ],
      "severityScore": 65,
      "metarRaw": "METAR LQBK 282330Z 12002KT 2000 BR BKN047 05/05 Q0991 NOSIG",
      "tafRaw": "TAF LQBK 282300Z 2900/2924 16005KT 9999 SCT040 TX10/2913Z TN01/2906Z \n  TEMPO 2900/2908 2000 BCFG \n  PROB30 \n  TEMPO 2900/2906 0500 FG BKN002 \n  BECMG 2915/2918 33010KT \n  PROB30 2918/2924 BKN015 OVC030"
    },
    {
      "icao": "UBBB",
      "iata": "GYD",
      "name": "Heydar Aliyev International Airport",
      "lat": 40.467498779296875,
      "lon": 50.04669952392578,
      "updatedAt": "282330Z",
      "visibility_m": 10000,
      "taf_visibility_m": 1200,
      "worst_visibility_m": 1200,
      "ceiling_ft": 1400,
      "hazards": [
        "BR",
        "RA",
        "FG"
      ],
      "severityScore": 64,
      "metarRaw": "METAR UBBB 282330Z 13006KT 9999 BKN014 OVC025 06/04 Q1014 NOSIG",
      "tafRaw": "TAF UBBB 282302Z 2900/2924 14005KT 9999 SCT012 BKN025 TX09/2911Z TN04/2901Z \n  TEMPO 2900/2907 18010KT 6000 -RA BKN005 OVC017 \n  TEMPO 2907/2915 18010KT BKN010 OVC020 \n  BECMG 2915/2917 VRB04KT \n  TEMPO 2919/2924 18005KT 1200 BR BCFG OVC004"
    },
    {
      "icao": "EHEH",
      "iata": "EIN",
      "name": "Eindhoven Airport",
      "lat": 51.4500999451,
      "lon": 5.37452983856,
      "updatedAt": null,
      "visibility_m": null,
      "taf_visibility_m": 1200,
      "worst_visibility_m": 1200,
      "ceiling_ft": 200,
      "hazards": [
        "SN"
      ],
      "severityScore": 63,
      "metarRaw": null,
      "tafRaw": "TAF EHEH 281735Z 2818/2924 04010KT 5000 BKN007 \n  TEMPO 2900/2910 2000 -SN BKN003 OVC005 \n  PROB30 \n  TEMPO 2900/2908 1200 SN BKN002 OVC004"
    },
    {
      "icao": "ENTC",
      "iata": "TOS",
      "name": "Tromsø Airport, Langnes",
      "lat": 69.683296,
      "lon": 18.9189,
      "updatedAt": "282320Z",
      "visibility_m": 4700,
      "taf_visibility_m": 1500,
      "worst_visibility_m": 1500,
      "ceiling_ft": 700,
      "hazards": [
        "SN",
        "SHSN"
      ],
      "severityScore": 63,
      "metarRaw": "METAR ENTC 282320Z 21006KT 4700 -SN BKN007 OVC008 M06/M08 Q1018 RMK WIND 2600FT 09007KT",
      "tafRaw": "TAF ENTC 282300Z 2900/2924 22005KT 9999 FEW008 SCT025 \n  TEMPO 2900/2903 3500 -SHSN BKN006 SCT025CB \n  TEMPO 2903/2921 FEW025CB \n  PROB40 \n  TEMPO 2910/2921 1500 SHSN VV006"
    },
    {
      "icao": "EPRZ",
      "iata": "RZE",
      "name": "Rzeszów-Jasionka Airport",
      "lat": 50.109791,
      "lon": 22.024155,
      "updatedAt": "282330Z",
      "visibility_m": 2000,
      "taf_visibility_m": 2000,
      "worst_visibility_m": 2000,
      "ceiling_ft": 300,
      "hazards": [
        "BR",
        "SN"
      ],
      "severityScore": 63,
      "metarRaw": "METAR EPRZ 282330Z 02007KT 2000 BR OVC003 00/M00 Q0999",
      "tafRaw": "TAF EPRZ 282330Z 2900/2924 02006KT 4000 BR OVC005 \n  TEMPO 2900/2903 2000 -SN BR OVC003 \n  BECMG 2906/2909 9999 OVC012 \n  BECMG 2909/2912 OVC030 \n  TEMPO 2914/2924 2000 -SN BR BKN003"
    },
    {
      "icao": "EPWA",
      "iata": "WAW",
      "name": "Warsaw Chopin Airport",
      "lat": 52.165699,
      "lon": 20.9671,
      "updatedAt": "282330Z",
      "visibility_m": 4000,
      "taf_visibility_m": 2000,
      "worst_visibility_m": 2000,
      "ceiling_ft": 300,
      "hazards": [
        "BR",
        "SN"
      ],
      "severityScore": 63,
      "metarRaw": "METAR EPWA 282330Z 01007KT 4000 BR BKN003 M00/M01 Q1002 NOSIG",
      "tafRaw": "TAF EPWA 282330Z 2900/2924 02008KT 3500 BR BKN003 \n  TEMPO 2900/2903 2000 -SG BR OVC002 \n  BECMG 2903/2905 5000 BR BKN006 \n  TEMPO 2904/2906 3500 -SG BR BKN003 \n  BECMG 2908/2911 8000 BKN015 \n  TEMPO 2915/2924 BKN010 \n  PROB40 \n  TEMPO 2918/2924 2000 -SN BR BKN006"
    },
    {
      "icao": "LKMT",
      "iata": "OSR",
      "name": "Leoš Janáček Airport Ostrava",
      "lat": 49.696301,
      "lon": 18.111099,
      "updatedAt": "282330Z",
      "visibility_m": 5000,
      "taf_visibility_m": 1400,
      "worst_visibility_m": 1400,
      "ceiling_ft": 800,
      "hazards": [
        "BR",
        "SN"
      ],
      "severityScore": 63,
      "metarRaw": "METAR LKMT 282330Z 04010KT 5000 BR OVC008 01/M00 Q0997 NOSIG",
      "tafRaw": "TAF LKMT 282300Z 2900/2924 03009KT 4000 BR SCT004 OVC008 \n  BECMG 2903/2905 -SN BKN005 \n  PROB40 \n  TEMPO 2905/2915 1400 SN BR OVC004"
    },
    {
      "icao": "LGAV",
      "iata": "ATH",
      "name": "Athens Eleftherios Venizelos International Airport",
      "lat": 37.936401,
      "lon": 23.9445,
      "updatedAt": "282320Z",
      "visibility_m": 10000,
      "taf_visibility_m": 4000,
      "worst_visibility_m": 4000,
      "ceiling_ft": 6000,
      "hazards": [
        "TSRA",
        "RA",
        "TS"
      ],
      "severityScore": 62,
      "metarRaw": "METAR LGAV 282320Z 19019KT 9999 SCT015 BKN060 15/12 Q1006 NOSIG",
      "tafRaw": "TAF LGAV 282300Z 2900/2924 22010KT 9999 FEW018 SCT070 \n  TEMPO 2900/2912 20016G26KT \n  PROB40 \n  TEMPO 2900/2914 5000 RA FEW018TCU SCT018 BKN070 \n  PROB40 \n  TEMPO 2909/2912 4000 TSRA FEW016CB BKN020 OVC070"
    },
    {
      "icao": "LQSA",
      "iata": "SJJ",
      "name": "Sarajevo International Airport",
      "lat": 43.8246,
      "lon": 18.331499,
      "updatedAt": "282330Z",
      "visibility_m": 10000,
      "taf_visibility_m": 3000,
      "worst_visibility_m": 3000,
      "ceiling_ft": 800,
      "hazards": [
        "BR",
        "RA",
        "SHRA"
      ],
      "severityScore": 61,
      "metarRaw": "METAR LQSA 282330Z VRB02KT 9999 SCT050 06/04 Q0994",
      "tafRaw": "TAF LQSA 282300Z 2900/2924 VRB02KT 9999 SCT050 TX10/2914Z TN03/2905Z \n  PROB30 \n  TEMPO 2900/2903 16015KT SHRA FEW018 FEW030TCU BKN040 \n  PROB30 \n  TEMPO 2903/2907 3000 -RA BR BKN008 \n  PROB30 \n  TEMPO 2912/2918 SHRA FEW030TCU BKN040 \n  PROB40 \n  TEMPO 2918/2924 4000 -RA BR BKN010 OVC025"
    },
    {
      "icao": "LBWN",
      "iata": "VAR",
      "name": "Varna Airport",
      "lat": 43.232101,
      "lon": 27.8251,
      "updatedAt": "282330Z",
      "visibility_m": 10000,
      "taf_visibility_m": 1200,
      "worst_visibility_m": 1200,
      "ceiling_ft": 500,
      "hazards": [
        "BR",
        "RA"
      ],
      "severityScore": 57,
      "metarRaw": "METAR LBWN 282330Z AUTO 17007KT 9999 NSC 09/05 Q1001 NOSIG",
      "tafRaw": "TAF LBWN 282300Z 2900/2924 09008KT 7000 SCT020 BKN050 \n  PROB30 \n  TEMPO 2901/2905 4000 RA BR BKN015 OVC040 \n  BECMG 2910/2912 4000 RA BKN010 OVC030 \n  TEMPO 2916/2921 1200 +RA BKN005 OVC010"
    },
    {
      "icao": "LIPX",
      "iata": "VRN",
      "name": "Verona Villafranca Valerio Catullo Airport",
      "lat": 45.394955,
      "lon": 10.887303,
      "updatedAt": "282320Z",
      "visibility_m": 3000,
      "taf_visibility_m": 800,
      "worst_visibility_m": 800,
      "ceiling_ft": 5000,
      "hazards": [
        "BR",
        "FG"
      ],
      "severityScore": 55,
      "metarRaw": "METAR LIPX 282320Z 20004KT 3000 BR SCT003 BKN050 05/05 Q0991",
      "tafRaw": "TAF LIPX 282300Z 2900/2924 24006KT 6000 SCT020 \n  TEMPO 2900/2909 0800 FG BKN004"
    },
    {
      "icao": "EPLB",
      "iata": "LUZ",
      "name": "Lublin Airport",
      "lat": 51.240157,
      "lon": 22.713461,
      "updatedAt": "282330Z",
      "visibility_m": 9000,
      "taf_visibility_m": 2000,
      "worst_visibility_m": 2000,
      "ceiling_ft": 700,
      "hazards": [
        "BR",
        "SN"
      ],
      "severityScore": 53,
      "metarRaw": "METAR EPLB 282330Z 03004KT 9000 OVC007 M00/M01 Q1000",
      "tafRaw": "TAF EPLB 282330Z 2900/2924 03005KT 9999 OVC010 \n  PROB30 \n  TEMPO 2900/2905 2000 BR BKN004 \n  BECMG 2911/2913 BKN016 \n  TEMPO 2915/2924 3000 BR BKN010 \n  PROB40 \n  TEMPO 2918/2924 2000 -SN BR BKN004"
    },
    {
      "icao": "EPMO",
      "iata": "WMI",
      "name": "Modlin Airport",
      "lat": 52.451099,
      "lon": 20.6518,
      "updatedAt": "282330Z",
      "visibility_m": 4000,
      "taf_visibility_m": 2000,
      "worst_visibility_m": 2000,
      "ceiling_ft": 600,
      "hazards": [
        "BR",
        "SN"
      ],
      "severityScore": 53,
      "metarRaw": "METAR EPMO 282330Z 02008KT 4000 BR OVC006 M02/M02 Q1002",
      "tafRaw": "TAF EPMO 282330Z 2900/2924 02006KT 3000 BR OVC006 \n  TEMPO 2900/2906 2000 -SG BR OVC004 \n  BECMG 2908/2910 6000 BKN016 \n  TEMPO 2915/2924 4000 -SN BR BKN012"
    },
    {
      "icao": "EPSY",
      "iata": "SZY",
      "name": "Olsztyn-Mazury Airport",
      "lat": 53.481899,
      "lon": 20.9377,
      "updatedAt": "282330Z",
      "visibility_m": 7000,
      "taf_visibility_m": 3000,
      "worst_visibility_m": 3000,
      "ceiling_ft": 600,
      "hazards": [
        "BR",
        "SN"
      ],
      "severityScore": 53,
      "metarRaw": "METAR EPSY 282330Z 36010KT 7000 OVC006 M07/M08 Q1003",
      "tafRaw": "TAF EPSY 282330Z 2900/2909 02010KT 6000 OVC006 \n  PROB30 2900/2909 3000 -SN BR OVC004"
    },
    {
      "icao": "EYVI",
      "iata": "VNO",
      "name": "Vilnius International Airport",
      "lat": 54.634102,
      "lon": 25.285801,
      "updatedAt": "282320Z",
      "visibility_m": 10000,
      "taf_visibility_m": 5000,
      "worst_visibility_m": 5000,
      "ceiling_ft": 400,
      "hazards": [
        "SN"
      ],
      "severityScore": 53,
      "metarRaw": "METAR EYVI 282320Z 04010KT 9999 -SN OVC004 M08/M10 Q1003 NOSIG",
      "tafRaw": "TAF EYVI 282300Z 2900/2924 04010KT 8000 OVC005 \n  TEMPO 2900/2906 5000 SN BKN002 \n  BECMG 2906/2909 OVC015"
    },
    {
      "icao": "LKPR",
      "iata": "PRG",
      "name": "Václav Havel Airport Prague",
      "lat": 50.100874,
      "lon": 14.259911,
      "updatedAt": "282330Z",
      "visibility_m": 6000,
      "taf_visibility_m": 1000,
      "worst_visibility_m": 1000,
      "ceiling_ft": 1100,
      "hazards": [
        "BR",
        "SN"
      ],
      "severityScore": 50,
      "metarRaw": "METAR LKPR 282330Z 06008KT 6000 FEW008 BKN011 OVC018 M00/M01 Q0995 NOSIG",
      "tafRaw": "TAF LKPR 282300Z 2900/3006 06009KT 7000 OVC020 \n  TEMPO 2900/2903 4000 -SG BR BKN007 \n  BECMG 2903/2905 3000 -SN BR OVC005 \n  PROB30 \n  TEMPO 2905/2918 1000 SN BR SCT001 OVC002"
    },
    {
      "icao": "LEZG",
      "iata": "ZAZ",
      "name": "Zaragoza Airport",
      "lat": 41.666199,
      "lon": -1.04155,
      "updatedAt": "282330Z",
      "visibility_m": 10000,
      "taf_visibility_m": 3000,
      "worst_visibility_m": 3000,
      "ceiling_ft": 800,
      "hazards": [
        "BR",
        "RA"
      ],
      "severityScore": 47,
      "metarRaw": "METAR LEZG 282330Z 24006KT CAVOK 09/04 Q1003 NOSIG",
      "tafRaw": "TAF LEZG 282300Z 2900/2924 26010KT 9999 FEW040 TX14/2913Z TN06/2900Z \n  PROB30 \n  TEMPO 2900/2903 3000 BR BKN008 \n  BECMG 2903/2906 10006KT \n  PROB40 \n  TEMPO 2903/2909 4000 RA BR BKN030 \n  BECMG 2917/2920 25012KT \n  TEMPO 2919/2923 25015G28KT"
    },
    {
      "icao": "LHDC",
      "iata": "DEB",
      "name": "Debrecen International Airport",
      "lat": 47.488899,
      "lon": 21.615299,
      "updatedAt": "282315Z",
      "visibility_m": 10000,
      "taf_visibility_m": 4000,
      "worst_visibility_m": 4000,
      "ceiling_ft": 800,
      "hazards": [
        "BR",
        "RA"
      ],
      "severityScore": 47,
      "metarRaw": "METAR LHDC 282315Z AUTO 07009KT CAVOK 04/03 Q0996",
      "tafRaw": "TAF LHDC 281415Z 2815/2824 13006KT 9999 BKN045 OVC080 \n  BECMG 2815/2816 07008KT \n  TEMPO 2815/2824 4000 RA BR BKN008 OVC030"
    },
    {
      "icao": "EBCI",
      "iata": "CRL",
      "name": "Brussels South Charleroi Airport",
      "lat": 50.461963,
      "lon": 4.459562,
      "updatedAt": "282320Z",
      "visibility_m": 2000,
      "taf_visibility_m": 2500,
      "worst_visibility_m": 2000,
      "ceiling_ft": 300,
      "hazards": [
        "BR"
      ],
      "severityScore": 45,
      "metarRaw": "METAR EBCI 282320Z 36004KT 340V040 2000 BR BKN003 04/03 Q0997 NOSIG",
      "tafRaw": "TAF EBCI 282301Z 2900/3006 01004KT 3000 BR BKN003 \n  BECMG 2901/2903 6000 NSW BKN006 \n  PROB30 \n  TEMPO 2904/2909 2500 -SG BR BKN004 \n  BECMG 2909/2911 BKN010 \n  BECMG 2913/2915 BKN016"
    },
    {
      "icao": "EPSC",
      "iata": "SZZ",
      "name": "Solidarity Szczecin–Goleniów Airport",
      "lat": 53.584702,
      "lon": 14.9022,
      "updatedAt": "282330Z",
      "visibility_m": 5000,
      "taf_visibility_m": 2000,
      "worst_visibility_m": 2000,
      "ceiling_ft": 400,
      "hazards": [
        "BR"
      ],
      "severityScore": 45,
      "metarRaw": "METAR EPSC 282330Z 05006KT 020V080 5000 BR OVC004 M01/M02 Q1004",
      "tafRaw": "TAF EPSC 282330Z 2900/2924 05008KT 9999 BKN007 \n  PROB40 \n  TEMPO 2900/2911 2000 -SG BR OVC003 \n  TEMPO 2911/2924 BKN015"
    },
    {
      "icao": "LPFR",
      "iata": "FAO",
      "name": "Faro - Gago Coutinho International Airport",
      "lat": 37.015909,
      "lon": -7.970939,
      "updatedAt": "282330Z",
      "visibility_m": 8000,
      "taf_visibility_m": 2000,
      "worst_visibility_m": 2000,
      "ceiling_ft": 1200,
      "hazards": [
        "BR",
        "RA",
        "DZ"
      ],
      "severityScore": 44,
      "metarRaw": "METAR LPFR 282330Z 24020KT 8000 SCT008 BKN012 16/15 Q1011",
      "tafRaw": "TAF LPFR 282300Z 2900/2924 25018KT 8000 SCT008 BKN015 \n  TEMPO 2900/2919 25018G30KT 5000 -RADZ BR SCT004 BKN008 \n  PROB30 \n  TEMPO 2900/2909 2000 DZRA BR SCT001 BKN003 \n  BECMG 2919/2921 28010KT 5000 BR SCT004 BKN008 \n  TEMPO 2921/2924 2000 BR BKN003"
    },
    {
      "icao": "LHBP",
      "iata": "BUD",
      "name": "Budapest Liszt Ferenc International Airport",
      "lat": 47.43018,
      "lon": 19.262393,
      "updatedAt": "282330Z",
      "visibility_m": 10000,
      "taf_visibility_m": 1400,
      "worst_visibility_m": 1400,
      "ceiling_ft": 4900,
      "hazards": [
        "BR",
        "RA",
        "DZ"
      ],
      "severityScore": 42,
      "metarRaw": "METAR LHBP 282330Z 06006G17KT 030V090 9999 OVC049 04/02 Q0995 NOSIG",
      "tafRaw": "TAF LHBP 282315Z 2900/2924 06010KT 8000 -RA FEW005 OVC045 \n  TEMPO 2900/2915 2500 RA BKN003 OVC025 \n  BECMG 2912/2915 05005KT \n  TEMPO 2915/2924 35004KT 1400 DZ BR OVC002"
    },
    {
      "icao": "EDDN",
      "iata": "NUE",
      "name": "Nuremberg Airport",
      "lat": 49.498699,
      "lon": 11.078056,
      "updatedAt": "282320Z",
      "visibility_m": 10000,
      "taf_visibility_m": 1200,
      "worst_visibility_m": 1200,
      "ceiling_ft": 1000,
      "hazards": [
        "SN"
      ],
      "severityScore": 40,
      "metarRaw": "METAR EDDN 282320Z AUTO 04002KT 9999 OVC010 01/M01 Q0994",
      "tafRaw": "TAF EDDN 282300Z 2900/2924 VRB03KT 9999 OVC012 \n  BECMG 2902/2904 3000 -SN BKN005 \n  TEMPO 2903/2909 1200 SN \n  TEMPO 2903/2924 BKN002"
    },
    {
      "icao": "EFTU",
      "iata": "TKU",
      "name": "Turku Airport",
      "lat": 60.514099,
      "lon": 22.2628,
      "updatedAt": "282320Z",
      "visibility_m": 10000,
      "taf_visibility_m": 6000,
      "worst_visibility_m": 6000,
      "ceiling_ft": 1200,
      "hazards": [
        "SHSN",
        "SN"
      ],
      "severityScore": 40,
      "metarRaw": "METAR EFTU 282320Z AUTO 10006KT 070V130 9999 -SHSN OVC012 M11/M13 Q1018",
      "tafRaw": "TAF EFTU 282034Z 2821/2921 09008KT 9999 BKN010 \n  TEMPO 2821/2907 6000 -SN BKN008 \n  TEMPO 2907/2912 SCT010 \n  BECMG 2912/2914 CAVOK"
    },
    {
      "icao": "EYKA",
      "iata": "KUN",
      "name": "Kaunas International Airport",
      "lat": 54.963965,
      "lon": 24.08582,
      "updatedAt": "282320Z",
      "visibility_m": 10000,
      "taf_visibility_m": 5000,
      "worst_visibility_m": 5000,
      "ceiling_ft": 1000,
      "hazards": [
        "BR",
        "SN"
      ],
      "severityScore": 40,
      "metarRaw": "METAR EYKA 282320Z AUTO 03006KT 350V070 9999 OVC010/// M08/M10 Q1005",
      "tafRaw": "TAF EYKA 282300Z 2900/2924 03009KT 8000 OVC010 \n  TEMPO 2900/2904 5000 SN BR \n  BECMG 2904/2906 OVC015 \n  BECMG 2911/2913 SCT020"
    },
    {
      "icao": "LEZL",
      "iata": "SVQ",
      "name": "Sevilla Airport",
      "lat": 37.417999,
      "lon": -5.89311,
      "updatedAt": "282330Z",
      "visibility_m": 5000,
      "taf_visibility_m": null,
      "worst_visibility_m": 5000,
      "ceiling_ft": 600,
      "hazards": [
        "DZ"
      ],
      "severityScore": 40,
      "metarRaw": "METAR LEZL 282330Z 24014KT 200V270 5000 -DZ OVC006 16/16 Q1009 NOSIG",
      "tafRaw": null
    },
    {
      "icao": "EGGP",
      "iata": "LPL",
      "name": "Liverpool John Lennon Airport",
      "lat": 53.334863,
      "lon": -2.849637,
      "updatedAt": "282320Z",
      "visibility_m": 10000,
      "taf_visibility_m": 4000,
      "worst_visibility_m": 4000,
      "ceiling_ft": 600,
      "hazards": [
        "RA"
      ],
      "severityScore": 37,
      "metarRaw": "METAR EGGP 282320Z 10007KT CAVOK 03/02 Q0996",
      "tafRaw": "TAF EGGP 282258Z 2900/2924 10006KT 9999 FEW020 \n  PROB30 2900/2903 7000 \n  TEMPO 2903/2912 BKN009 \n  PROB30 \n  TEMPO 2903/2910 7000 BKN006 \n  BECMG 2910/2913 12016KT \n  PROB30 \n  TEMPO 2912/2921 13016G26KT BKN014 \n  TEMPO 2921/2924 7000 -RA \n  PROB30 \n  TEMPO 2921/2924 13018G29KT 4000 RA BKN012"
    },
    {
      "icao": "LYBE",
      "iata": "BEG",
      "name": "Belgrade Nikola Tesla Airport",
      "lat": 44.818401,
      "lon": 20.309099,
      "updatedAt": "282330Z",
      "visibility_m": 10000,
      "taf_visibility_m": 10000,
      "worst_visibility_m": 10000,
      "ceiling_ft": 500,
      "hazards": [
        "RA"
      ],
      "severityScore": 37,
      "metarRaw": "METAR LYBE 282330Z 14012KT 9999 -RA NSC 08/05 Q0994 NOSIG",
      "tafRaw": "TAF LYBE 282300Z 2900/2924 15008KT CAVOK TX14/2913Z TN06/2906Z \n  BECMG 2920/2922 BKN005 BKN025"
    },
    {
      "icao": "LIPY",
      "iata": "AOI",
      "name": "Marche Airport",
      "lat": 43.616299,
      "lon": 13.3623,
      "updatedAt": "282320Z",
      "visibility_m": 10000,
      "taf_visibility_m": 4000,
      "worst_visibility_m": 4000,
      "ceiling_ft": null,
      "hazards": [
        "BR",
        "SHRA",
        "RA"
      ],
      "severityScore": 36,
      "metarRaw": "METAR LIPY 282320Z AUTO 19003KT 9999 BKN230/// 09/04 Q0993",
      "tafRaw": "TAF LIPY 282300Z 2900/2924 VRB05KT 9999 FEW030 \n  BECMG 2910/2912 35010KT \n  BECMG 2914/2916 VRB05KT \n  TEMPO 2914/2918 SHRA \n  BECMG 2922/2924 4000 BR"
    },
    {
      "icao": "LTAC",
      "iata": "ESB",
      "name": "Esenboğa International Airport",
      "lat": 40.128101,
      "lon": 32.995098,
      "updatedAt": "282320Z",
      "visibility_m": 6000,
      "taf_visibility_m": 2000,
      "worst_visibility_m": 2000,
      "ceiling_ft": 10000,
      "hazards": [
        "BR",
        "SHRA",
        "RA"
      ],
      "severityScore": 36,
      "metarRaw": "METAR LTAC 282320Z 04003KT 6000 SCT040 BKN100 03/02 Q1011 NOSIG RMK RWY21C 04003KT RWY03L 05003KT RWY21R 04002KT RWY03R 04002KT RWY21L 02003KT",
      "tafRaw": "TAF LTAC 282240Z 2900/2924 VRB02KT 9999 SCT040 BKN100 \n  PROB30 2904/2908 2000 BR \n  TEMPO 2913/2917 20020G30KT -SHRA FEW025CB BKN030 BKN080"
    },
    {
      "icao": "GMMN",
      "iata": "CMN",
      "name": "Mohammed V International Airport",
      "lat": 33.3675,
      "lon": -7.58997,
      "updatedAt": "282330Z",
      "visibility_m": 10000,
      "taf_visibility_m": 4000,
      "worst_visibility_m": 4000,
      "ceiling_ft": 800,
      "hazards": [
        "DZ"
      ],
      "severityScore": 35,
      "metarRaw": "METAR GMMN 282330Z 22015KT 200V260 9999 BKN008 BKN016 15/13 Q1020 NOSIG",
      "tafRaw": "TAF GMMN 282300Z 2900/3006 22016KT 9999 BKN008 BKN016 \n  PROB40 \n  TEMPO 2900/2910 4000 DZ BKN006 \n  BECMG 2909/2912 SCT010 BKN016"
    },
    {
      "icao": "EPGD",
      "iata": "GDN",
      "name": "Gdańsk Lech Wałęsa Airport",
      "lat": 54.377602,
      "lon": 18.4662,
      "updatedAt": "282330Z",
      "visibility_m": 10000,
      "taf_visibility_m": 3000,
      "worst_visibility_m": 3000,
      "ceiling_ft": 700,
      "hazards": [
        "BR"
      ],
      "severityScore": 35,
      "metarRaw": "METAR EPGD 282330Z 05010KT 9999 OVC007 M06/M07 Q1005",
      "tafRaw": "TAF EPGD 282330Z 2900/2924 07008KT 9999 OVC007 \n  PROB40 \n  TEMPO 2900/2924 3000 BR OVC003"
    },
    {
      "icao": "EPPO",
      "iata": "POZ",
      "name": "Poznań-Ławica Airport",
      "lat": 52.421598,
      "lon": 16.823359,
      "updatedAt": "282330Z",
      "visibility_m": 6000,
      "taf_visibility_m": 4000,
      "worst_visibility_m": 4000,
      "ceiling_ft": 700,
      "hazards": [
        "BR"
      ],
      "severityScore": 35,
      "metarRaw": "METAR EPPO 282330Z 06006KT 6000 BKN007 OVC016 M02/M04 Q1002",
      "tafRaw": "TAF EPPO 282330Z 2900/2924 07006KT 6000 OVC006 \n  TEMPO 2900/2907 4000 -SG BR BKN004 OVC006 \n  BECMG 2907/2909 OVC012 \n  BECMG 2915/2917 OVC007 \n  TEMPO 2920/2924 4000 BR BKN003 OVC006"
    },
    {
      "icao": "LATI",
      "iata": "TIA",
      "name": "Tirana International Airport Mother Teresa",
      "lat": 41.4147,
      "lon": 19.7206,
      "updatedAt": "282320Z",
      "visibility_m": 10000,
      "taf_visibility_m": 4000,
      "worst_visibility_m": 4000,
      "ceiling_ft": 1500,
      "hazards": [
        "BR",
        "RA"
      ],
      "severityScore": 34,
      "metarRaw": "METAR LATI 282320Z 18003KT CAVOK 10/06 Q1000 NOSIG",
      "tafRaw": "TAF LATI 282300Z 2900/2924 VRB05KT 9999 SCT030 BKN050 TX12/2912Z TN08/2905Z \n  TEMPO 2912/2918 RA \n  TEMPO 2918/2924 4000 RA BR BKN015 OVC040"
    },
    {
      "icao": "LJLJ",
      "iata": "LJU",
      "name": "Ljubljana Jože Pučnik Airport",
      "lat": 46.223701,
      "lon": 14.4576,
      "updatedAt": "282330Z",
      "visibility_m": 6000,
      "taf_visibility_m": 5000,
      "worst_visibility_m": 5000,
      "ceiling_ft": 1100,
      "hazards": [
        "RA",
        "BR"
      ],
      "severityScore": 34,
      "metarRaw": "METAR LJLJ 282330Z 29004KT 6000 -RA FEW005 BKN011 OVC025 04/04 Q0991 NOSIG",
      "tafRaw": "TAF LJLJ 282300Z 2900/3000 29005KT 7000 -RA SCT010 BKN020 \n  TEMPO 2900/2904 5000 BR \n  BECMG 2902/2904 NSW \n  PROB40 \n  TEMPO 2913/3000 -RA"
    },
    {
      "icao": "LWSK",
      "iata": "SKP",
      "name": "Skopje International Airport",
      "lat": 41.958087,
      "lon": 21.622581,
      "updatedAt": "282320Z",
      "visibility_m": 10000,
      "taf_visibility_m": 1500,
      "worst_visibility_m": 1500,
      "ceiling_ft": 8000,
      "hazards": [
        "BR",
        "RA"
      ],
      "severityScore": 32,
      "metarRaw": "METAR LWSK 282320Z VRB02KT 9999 FEW050 BKN080 01/01 Q1000 NOSIG",
      "tafRaw": "TAF LWSK 282308Z 2900/2924 VRB02KT 9999 FEW050 \n  BECMG 2901/2903 5000 BR SCT020 BKN035 \n  TEMPO 2905/2910 1500 BR BKN004 OVC015 \n  TEMPO 2910/2921 RA BKN020 OVC035"
    },
    {
      "icao": "EDDH",
      "iata": "HAM",
      "name": "Hamburg Helmut Schmidt Airport",
      "lat": 53.630402,
      "lon": 9.98823,
      "updatedAt": "282320Z",
      "visibility_m": 10000,
      "taf_visibility_m": 2500,
      "worst_visibility_m": 2500,
      "ceiling_ft": 1400,
      "hazards": [
        "SN"
      ],
      "severityScore": 30,
      "metarRaw": "METAR EDDH 282320Z AUTO 08011KT 040V110 9999 BKN015 OVC020 01/M02 Q1002 TEMPO BKN014",
      "tafRaw": "TAF EDDH 282300Z 2900/3006 08010KT 9999 OVC015 \n  BECMG 2900/2903 OVC013 \n  TEMPO 2902/2910 BKN008 \n  TEMPO 2910/2920 BKN015 \n  BECMG 3000/3003 OVC008 \n  TEMPO 3003/3006 2500 -SN BKN004"
    },
    {
      "icao": "EETN",
      "iata": "TLL",
      "name": "Lennart Meri Tallinn Airport",
      "lat": 59.413246,
      "lon": 24.83264,
      "updatedAt": "282320Z",
      "visibility_m": 10000,
      "taf_visibility_m": 4000,
      "worst_visibility_m": 4000,
      "ceiling_ft": 1800,
      "hazards": [
        "SN"
      ],
      "severityScore": 30,
      "metarRaw": "METAR EETN 282320Z 08014KT 9999 -SN BKN018 M08/M10 Q1015",
      "tafRaw": "TAF EETN 282330Z 2900/2924 09014KT 9999 BKN015 \n  PROB40 \n  TEMPO 2900/2906 4000 SN BKN008 \n  BECMG 2906/2908 SCT015"
    },
    {
      "icao": "LCLK",
      "iata": "LCA",
      "name": "Larnaca International Airport",
      "lat": 34.875099,
      "lon": 33.624901,
      "updatedAt": "282330Z",
      "visibility_m": 10000,
      "taf_visibility_m": 5000,
      "worst_visibility_m": 5000,
      "ceiling_ft": null,
      "hazards": [
        "SHRA",
        "RA"
      ],
      "severityScore": 26,
      "metarRaw": "METAR LCLK 282330Z 26005KT CAVOK 11/09 Q1015 NOSIG",
      "tafRaw": "TAF LCLK 282330Z 2900/3000 28006KT 9999 FEW030 \n  BECMG 2907/2911 20016KT \n  PROB30 \n  TEMPO 2909/2916 5000 SHRA \n  PROB30 \n  TEMPO 2918/3000 19020G30KT"
    },
    {
      "icao": "LCPH",
      "iata": "PFO",
      "name": "Paphos International Airport",
      "lat": 34.717999,
      "lon": 32.485699,
      "updatedAt": "282330Z",
      "visibility_m": 10000,
      "taf_visibility_m": 5000,
      "worst_visibility_m": 5000,
      "ceiling_ft": null,
      "hazards": [
        "SHRA",
        "RA"
      ],
      "severityScore": 26,
      "metarRaw": "METAR LCPH 282330Z 00000KT 9999 FEW030 SCT050 16/10 Q1015 NOSIG",
      "tafRaw": "TAF LCPH 282330Z 2900/3000 02008KT 9999 FEW030 SCT040 \n  PROB30 \n  TEMPO 2900/2907 28012KT \n  PROB30 \n  TEMPO 2906/3000 5000 SHRA \n  BECMG 2907/2911 18014KT \n  PROB30 \n  TEMPO 2916/3000 16020G30KT"
    },
    {
      "icao": "LICA",
      "iata": "SUF",
      "name": "Lamezia Terme Sant'Eufemia International Airport",
      "lat": 38.906214,
      "lon": 16.246007,
      "updatedAt": "282320Z",
      "visibility_m": 10000,
      "taf_visibility_m": 10000,
      "worst_visibility_m": 10000,
      "ceiling_ft": null,
      "hazards": [
        "SHRA",
        "RA"
      ],
      "severityScore": 26,
      "metarRaw": "METAR LICA 282320Z AUTO 06004KT 9999 NCD 10/08 Q0998",
      "tafRaw": "TAF LICA 282300Z 2900/2924 27016KT 9999 SCT040 \n  TEMPO 2900/2915 SHRA \n  BECMG 2903/2905 06010KT \n  BECMG 2906/2908 27025G38KT \n  BECMG 2920/2922 27018KT"
    },
    {
      "icao": "LICC",
      "iata": "CTA",
      "name": "Catania-Fontanarossa Airport",
      "lat": 37.466801,
      "lon": 15.0664,
      "updatedAt": "282320Z",
      "visibility_m": 7000,
      "taf_visibility_m": 10000,
      "worst_visibility_m": 7000,
      "ceiling_ft": 5000,
      "hazards": [
        "RA",
        "SHRA"
      ],
      "severityScore": 26,
      "metarRaw": "METAR LICC 282320Z 27004KT 7000 RA SCT020 BKN050 12/08 Q0999",
      "tafRaw": "TAF LICC 282300Z 2900/2924 25016KT 9999 SCT030 \n  TEMPO 2900/2909 SHRA \n  BECMG 2903/2905 26020G34KT \n  BECMG 2916/2918 26013KT"
    },
    {
      "icao": "LICJ",
      "iata": "PMO",
      "name": "Falcone–Borsellino Airport",
      "lat": 38.175999,
      "lon": 13.091,
      "updatedAt": "282320Z",
      "visibility_m": 10000,
      "taf_visibility_m": 10000,
      "worst_visibility_m": 10000,
      "ceiling_ft": null,
      "hazards": [
        "SHRA",
        "RA"
      ],
      "severityScore": 26,
      "metarRaw": "METAR LICJ 282320Z 19021KT 9999 SCT040 14/09 Q0994",
      "tafRaw": "TAF LICJ 282300Z 2900/2924 22022G35KT 9999 SCT040 \n  TEMPO 2900/2907 SHRA \n  BECMG 2902/2904 29025G35KT \n  BECMG 2917/2919 25015G25KT"
    },
    {
      "icao": "LIRF",
      "iata": "FCO",
      "name": "Rome–Fiumicino Leonardo da Vinci International Airport",
      "lat": 41.804532,
      "lon": 12.251998,
      "updatedAt": "282320Z",
      "visibility_m": 10000,
      "taf_visibility_m": 10000,
      "worst_visibility_m": 10000,
      "ceiling_ft": null,
      "hazards": [
        "SHRA",
        "RA"
      ],
      "severityScore": 26,
      "metarRaw": "METAR LIRF 282320Z 07005KT 9999 SCT040 09/06 Q0993 NOSIG",
      "tafRaw": "TAF LIRF 282300Z 2900/3006 07007KT 9999 SCT030 \n  TEMPO 2900/2907 SHRA \n  BECMG 2910/2912 31011KT \n  BECMG 2916/2918 VRB05KT"
    },
    {
      "icao": "LIRN",
      "iata": "NAP",
      "name": "Naples International Airport",
      "lat": 40.886002,
      "lon": 14.2908,
      "updatedAt": "282320Z",
      "visibility_m": 10000,
      "taf_visibility_m": 10000,
      "worst_visibility_m": 10000,
      "ceiling_ft": null,
      "hazards": [
        "SHRA",
        "RA"
      ],
      "severityScore": 26,
      "metarRaw": "METAR LIRN 282320Z 21005KT 9999 SCT035 13/08 Q0995 NOSIG",
      "tafRaw": "TAF LIRN 282300Z 2900/2924 17010KT 9999 SCT030 \n  TEMPO 2900/2909 SHRA \n  BECMG 2901/2903 04012KT \n  BECMG 2906/2908 34015KT \n  BECMG 2919/2921 VRB05KT"
    },
    {
      "icao": "LIRZ",
      "iata": "PEG",
      "name": "Perugia San Francesco d'Assisi – Umbria International Airport",
      "lat": 43.095901,
      "lon": 12.5132,
      "updatedAt": "282320Z",
      "visibility_m": 10000,
      "taf_visibility_m": 7000,
      "worst_visibility_m": 7000,
      "ceiling_ft": 2500,
      "hazards": [
        "RA",
        "SHRA"
      ],
      "severityScore": 26,
      "metarRaw": "METAR LIRZ 282320Z AUTO 01002KT 9999 BKN023/// 07/06 Q0994",
      "tafRaw": "TAF LIRZ 282300Z 2900/2924 VRB05KT 7000 BKN025 \n  TEMPO 2900/2904 RA \n  TEMPO 2913/2916 SHRA"
    },
    {
      "icao": "LMML",
      "iata": "MLA",
      "name": "Malta International Airport",
      "lat": 35.857498,
      "lon": 14.4775,
      "updatedAt": "282315Z",
      "visibility_m": 10000,
      "taf_visibility_m": 8000,
      "worst_visibility_m": 8000,
      "ceiling_ft": null,
      "hazards": [
        "SHRA",
        "RA"
      ],
      "severityScore": 26,
      "metarRaw": "METAR LMML 282315Z 19008KT 160V220 9999 FEW012 15/12 Q1000 NOSIG",
      "tafRaw": "TAF LMML 282300Z 2900/2924 20015KT 9999 FEW017 \n  BECMG 2900/2903 28025KT \n  TEMPO 2902/2918 28030G40KT \n  PROB40 \n  TEMPO 2912/2924 8000 SHRA BKN015TCU \n  BECMG 2921/2924 27015KT"
    },
    {
      "icao": "LTFM",
      "iata": "IST",
      "name": "İstanbul Airport",
      "lat": 41.261297,
      "lon": 28.741951,
      "updatedAt": "282320Z",
      "visibility_m": 10000,
      "taf_visibility_m": 3500,
      "worst_visibility_m": 3500,
      "ceiling_ft": 2200,
      "hazards": [
        "SHRA",
        "RA"
      ],
      "severityScore": 26,
      "metarRaw": "METAR LTFM 282320Z 21018KT CAVOK 12/05 Q1005 NOSIG RMK RWY17L 21019KT RWY34L 20016KT RWY16R 20014KT RWY36 21019KT RWY18 21018KT",
      "tafRaw": "TAF LTFM 282240Z 2900/3006 20014KT CAVOK \n  BECMG 2900/2902 20020G33KT \n  BECMG 2902/2905 SCT035 BKN100 \n  BECMG 2907/2910 -SHRA BKN032 BKN080 \n  BECMG 2911/2914 14017G28KT \n  TEMPO 2911/2915 3500 SHRA FEW022TCU BKN025 \n  BECMG 2919/2922 20020G35KT \n  TEMPO 3002/3006 3500 SHRA BKN022 BKN080"
    },
    {
      "icao": "GCTS",
      "iata": "TFS",
      "name": "Tenerife Sur Airport",
      "lat": 28.0445,
      "lon": -16.5725,
      "updatedAt": "282330Z",
      "visibility_m": 10000,
      "taf_visibility_m": 10000,
      "worst_visibility_m": 10000,
      "ceiling_ft": 3000,
      "hazards": [
        "TS"
      ],
      "severityScore": 25,
      "metarRaw": "METAR GCTS 282330Z 00000KT 9999 BKN030 19/17 Q1024 NOSIG",
      "tafRaw": "TAF GCTS 282000Z 2821/2921 14005KT 9999 BKN030 TX23/2914Z TN16/2906Z \n  TEMPO 2912/2918 24010KT \n  PROB40 \n  TEMPO 2916/2921 08010KT"
    },
    {
      "icao": "LPPS",
      "iata": "PXO",
      "name": "Porto Santo Airport",
      "lat": 33.0733985901,
      "lon": -16.3500003815,
      "updatedAt": "282330Z",
      "visibility_m": 10000,
      "taf_visibility_m": 10000,
      "worst_visibility_m": 10000,
      "ceiling_ft": 800,
      "hazards": [],
      "severityScore": 25,
      "metarRaw": "METAR LPPS 282330Z 28013KT 9999 FEW012 SCT030 17/15 Q1020",
      "tafRaw": "TAF LPPS 282300Z 2900/3006 27015KT 9999 SCT012 SCT030 \n  PROB30 \n  TEMPO 2900/2908 BKN008"
    },
    {
      "icao": "BIKF",
      "iata": "KEF",
      "name": "Keflavik International Airport",
      "lat": 63.985001,
      "lon": -22.6056,
      "updatedAt": "282330Z",
      "visibility_m": 10000,
      "taf_visibility_m": 7000,
      "worst_visibility_m": 7000,
      "ceiling_ft": 1700,
      "hazards": [
        "RA"
      ],
      "severityScore": 24,
      "metarRaw": "METAR BIKF 282330Z 06016KT CAVOK 04/M04 Q0999",
      "tafRaw": "TAF BIKF 282225Z 2900/3000 05014KT 9999 FEW025 TX05/2915Z TN02/2906Z \n  TEMPO 2915/2920 7000 RA BKN017 \n  BECMG 2916/2918 10008KT"
    },
    {
      "icao": "LIRP",
      "iata": "PSA",
      "name": "Pisa International Airport",
      "lat": 43.683899,
      "lon": 10.3927,
      "updatedAt": "282315Z",
      "visibility_m": 10000,
      "taf_visibility_m": 6000,
      "worst_visibility_m": 6000,
      "ceiling_ft": 1500,
      "hazards": [
        "RA"
      ],
      "severityScore": 24,
      "metarRaw": "METAR LIRP 282315Z 14004KT 9999 FEW030 08/07 Q0992 NOSIG",
      "tafRaw": "TAF LIRP 282300Z 2900/2924 12007KT 9999 SCT020 SCT050 \n  TEMPO 2901/2908 6000 RA BKN015 \n  TEMPO 2912/2918 VRB03KT"
    },
    {
      "icao": "BKPR",
      "iata": "PRN",
      "name": "Priština Adem Jashari International Airport",
      "lat": 42.5728,
      "lon": 21.035801,
      "updatedAt": "282330Z",
      "visibility_m": 10000,
      "taf_visibility_m": 4000,
      "worst_visibility_m": 4000,
      "ceiling_ft": 4000,
      "hazards": [
        "BR",
        "RA"
      ],
      "severityScore": 22,
      "metarRaw": "METAR BKPR 282330Z 21007KT 9999 FEW060 04/03 Q0998 NOSIG",
      "tafRaw": "TAF BKPR 281730Z 2818/2918 18008KT 9999 BKN040 \n  TEMPO 2818/2821 4000 -RA BR"
    },
    {
      "icao": "LIBR",
      "iata": "BDS",
      "name": "Brindisi Airport",
      "lat": 40.6576,
      "lon": 17.947001,
      "updatedAt": "282320Z",
      "visibility_m": 10000,
      "taf_visibility_m": 10000,
      "worst_visibility_m": 10000,
      "ceiling_ft": null,
      "hazards": [
        "BR",
        "RA"
      ],
      "severityScore": 22,
      "metarRaw": "METAR LIBR 282320Z 18007KT CAVOK 11/07 Q0998",
      "tafRaw": "TAF LIBR 282300Z 2900/2924 17008KT CAVOK \n  BECMG 2910/2912 30015KT \n  TEMPO 2911/2915 RA"
    },
    {
      "icao": "LRSM",
      "iata": "SUJ",
      "name": "Satu Mare International Airport",
      "lat": 47.7033,
      "lon": 22.8857,
      "updatedAt": "282330Z",
      "visibility_m": 10000,
      "taf_visibility_m": 5000,
      "worst_visibility_m": 5000,
      "ceiling_ft": 4000,
      "hazards": [
        "BR",
        "RA"
      ],
      "severityScore": 22,
      "metarRaw": "METAR LRSM 282330Z AUTO 06007KT 9999 FEW050/// OVC065/// 04/02 Q0997",
      "tafRaw": "TAF LRSM 281400Z 2815/2824 11005KT 9999 BKN040 \n  PROB40 \n  TEMPO 2815/2817 5000 -RA BR"
    },
    {
      "icao": "LYNI",
      "iata": "INI",
      "name": "Niš Constantine the Great Airport",
      "lat": 43.336538,
      "lon": 21.856242,
      "updatedAt": "282330Z",
      "visibility_m": 10000,
      "taf_visibility_m": 3000,
      "worst_visibility_m": 3000,
      "ceiling_ft": 7000,
      "hazards": [
        "BR",
        "RA"
      ],
      "severityScore": 22,
      "metarRaw": "METAR LYNI 282330Z VRB02KT 9999 BKN070 07/04 Q0998 NOSIG",
      "tafRaw": "TAF LYNI 282300Z 2900/2924 16005KT 9999 SCT050 TX13/2913Z TN02/2906Z \n  PROB30 \n  TEMPO 2904/2907 3000 BR \n  TEMPO 2920/2924 RA"
    },
    {
      "icao": "ENGM",
      "iata": "OSL",
      "name": "Oslo-Gardermoen International Airport",
      "lat": 60.193901,
      "lon": 11.1004,
      "updatedAt": "282320Z",
      "visibility_m": 10000,
      "taf_visibility_m": 10000,
      "worst_visibility_m": 10000,
      "ceiling_ft": 2900,
      "hazards": [
        "SN"
      ],
      "severityScore": 18,
      "metarRaw": "METAR ENGM 282320Z 36004KT 9999 -SN OVC029 M10/M12 Q1016",
      "tafRaw": "TAF ENGM 282300Z 2900/2924 02007KT 9999 -SN BKN025"
    },
    {
      "icao": "ENTO",
      "iata": "TRF",
      "name": "Sandefjord Airport, Torp",
      "lat": 59.186699,
      "lon": 10.2586,
      "updatedAt": "282320Z",
      "visibility_m": 10000,
      "taf_visibility_m": 10000,
      "worst_visibility_m": 10000,
      "ceiling_ft": 2500,
      "hazards": [
        "SN"
      ],
      "severityScore": 18,
      "metarRaw": "METAR ENTO 282320Z AUTO 01010KT 9999 -SN OVC030/// M07/M10 Q1015 RESN",
      "tafRaw": "TAF ENTO 282300Z 2900/2924 02008KT 9999 -SN BKN025"
    },
    {
      "icao": "GMAD",
      "iata": "AGA",
      "name": "Al Massira Airport",
      "lat": 30.322478,
      "lon": -9.412003,
      "updatedAt": "282330Z",
      "visibility_m": 8000,
      "taf_visibility_m": 8000,
      "worst_visibility_m": 8000,
      "ceiling_ft": 1600,
      "hazards": [],
      "severityScore": 12,
      "metarRaw": "METAR GMAD 282330Z 20006KT 8000 SCT005 SCT013 15/15 Q1021 NOSIG",
      "tafRaw": "TAF GMAD 282300Z 2900/3006 06008KT 8000 BKN016"
    },
    {
      "icao": "EDDB",
      "iata": "BER",
      "name": "Berlin Brandenburg Willy Brandt Airport",
      "lat": 52.361738,
      "lon": 13.502341,
      "updatedAt": "282320Z",
      "visibility_m": 10000,
      "taf_visibility_m": 10000,
      "worst_visibility_m": 10000,
      "ceiling_ft": 1300,
      "hazards": [],
      "severityScore": 12,
      "metarRaw": "METAR EDDB 282320Z AUTO 09009KT 060V130 9999 OVC013 M01/M03 Q1002 NOSIG",
      "tafRaw": "TAF EDDB 282300Z 2900/2924 07010KT 9999 OVC012 \n  TEMPO 2900/2912 BKN008 \n  TEMPO 2921/2924 BKN008"
    },
    {
      "icao": "EKBI",
      "iata": "BLL",
      "name": "Billund Airport",
      "lat": 55.740335,
      "lon": 9.157019,
      "updatedAt": "282320Z",
      "visibility_m": 10000,
      "taf_visibility_m": 10000,
      "worst_visibility_m": 10000,
      "ceiling_ft": 1200,
      "hazards": [],
      "severityScore": 12,
      "metarRaw": "METAR EKBI 282320Z AUTO 06016KT 9999 OVC019/// M02/M05 Q1007",
      "tafRaw": "TAF EKBI 282327Z 2900/2924 08015KT 9999 BKN020 \n  TEMPO 2900/2924 BKN012"
    },
    {
      "icao": "EKCH",
      "iata": "CPH",
      "name": "Copenhagen Kastrup Airport",
      "lat": 55.617900848389,
      "lon": 12.656000137329,
      "updatedAt": "282320Z",
      "visibility_m": 10000,
      "taf_visibility_m": 10000,
      "worst_visibility_m": 10000,
      "ceiling_ft": 1800,
      "hazards": [],
      "severityScore": 12,
      "metarRaw": "METAR EKCH 282320Z AUTO 05013KT 9999 OVC028/// M02/M06 Q1009 NOSIG",
      "tafRaw": "TAF EKCH 282327Z 2900/2924 05015KT 9999 BKN018"
    },
    {
      "icao": "EPWR",
      "iata": "WRO",
      "name": "Copernicus Wrocław Airport",
      "lat": 51.103719,
      "lon": 16.882096,
      "updatedAt": "282330Z",
      "visibility_m": 10000,
      "taf_visibility_m": 10000,
      "worst_visibility_m": 10000,
      "ceiling_ft": 1300,
      "hazards": [],
      "severityScore": 12,
      "metarRaw": "METAR EPWR 282330Z 08010KT 050V110 9999 BKN013 M01/M03 Q1000",
      "tafRaw": "TAF EPWR 282330Z 2900/2924 07010KT 9999 OVC013 \n  TEMPO 2900/2909 BKN008 BKN013 \n  BECMG 2912/2914 BKN017 \n  BECMG 2917/2920 OVC012"
    },
    {
      "icao": "ESMS",
      "iata": "MMX",
      "name": "Malmö Sturup Airport",
      "lat": 55.535564,
      "lon": 13.376327,
      "updatedAt": "282320Z",
      "visibility_m": 10000,
      "taf_visibility_m": 10000,
      "worst_visibility_m": 10000,
      "ceiling_ft": 1200,
      "hazards": [],
      "severityScore": 12,
      "metarRaw": "METAR ESMS 282320Z AUTO 08016KT 9999 OVC025/// M01/M06 Q1007",
      "tafRaw": "TAF ESMS 282327Z 2900/2924 05014KT 9999 OVC020 \n  TEMPO 2900/2924 BKN012"
    },
    {
      "icao": "ESSA",
      "iata": "ARN",
      "name": "Stockholm-Arlanda Airport",
      "lat": 59.64849,
      "lon": 17.928829,
      "updatedAt": "282320Z",
      "visibility_m": 10000,
      "taf_visibility_m": 10000,
      "worst_visibility_m": 10000,
      "ceiling_ft": 1400,
      "hazards": [],
      "severityScore": 12,
      "metarRaw": "METAR ESSA 282320Z 04004KT 9999 SCT014 M13/M14 Q1016 TEMPO BKN014",
      "tafRaw": "TAF ESSA 282330Z 2900/2924 04004KT 9999 SCT012 BKN015 \n  PROB40 2900/2908 BKN008"
    },
    {
      "icao": "LEAL",
      "iata": "ALC",
      "name": "Alicante-Elche Miguel Hernández Airport",
      "lat": 38.2822,
      "lon": -0.558156,
      "updatedAt": "282330Z",
      "visibility_m": 10000,
      "taf_visibility_m": 4000,
      "worst_visibility_m": 4000,
      "ceiling_ft": 2000,
      "hazards": [
        "RA"
      ],
      "severityScore": 12,
      "metarRaw": "METAR LEAL 282330Z 00000KT CAVOK 14/05 Q1005 NOSIG",
      "tafRaw": "TAF LEAL 282300Z 2900/2924 VRB04KT 9999 FEW040 TX22/2914Z TN11/2906Z \n  PROB30 \n  TEMPO 2900/2903 4000 RA BKN020 \n  BECMG 2910/2912 22010KT \n  PROB40 \n  TEMPO 2916/2919 25015G25KT \n  BECMG 2920/2923 30020KT"
    },
    {
      "icao": "LEVC",
      "iata": "VLC",
      "name": "Valencia Airport",
      "lat": 39.4893,
      "lon": -0.481625,
      "updatedAt": "282330Z",
      "visibility_m": 10000,
      "taf_visibility_m": 4000,
      "worst_visibility_m": 4000,
      "ceiling_ft": 2000,
      "hazards": [
        "RA"
      ],
      "severityScore": 12,
      "metarRaw": "METAR LEVC 282330Z 30012KT CAVOK 13/05 Q1003 NOSIG",
      "tafRaw": "TAF LEVC 282300Z 2900/2924 29009KT 9999 FEW030 TX21/2914Z TN09/2906Z \n  TEMPO 2903/2912 VRB04KT \n  TEMPO 2914/2918 4000 RA BKN020 \n  BECMG 2920/2922 30020KT"
    },
    {
      "icao": "LIMJ",
      "iata": "GOA",
      "name": "Genoa Cristoforo Colombo Airport",
      "lat": 44.412039,
      "lon": 8.840732,
      "updatedAt": "282320Z",
      "visibility_m": 10000,
      "taf_visibility_m": 4000,
      "worst_visibility_m": 4000,
      "ceiling_ft": null,
      "hazards": [
        "RA"
      ],
      "severityScore": 12,
      "metarRaw": "METAR LIMJ 282320Z 05009KT 9999 SCT024 08/05 Q0991",
      "tafRaw": "TAF LIMJ 282300Z 2900/2924 04008KT 9999 SCT040 \n  TEMPO 2900/2909 4000 RA"
    },
    {
      "icao": "LLBG",
      "iata": "TLV",
      "name": "Ben Gurion International Airport",
      "lat": 32.011398,
      "lon": 34.8867,
      "updatedAt": "282320Z",
      "visibility_m": 7000,
      "taf_visibility_m": 7000,
      "worst_visibility_m": 7000,
      "ceiling_ft": 3000,
      "hazards": [
        "RA"
      ],
      "severityScore": 12,
      "metarRaw": "METAR LLBG 282320Z 16010KT 9999 FEW035 13/11 Q1018 TEMPO 7000 RA FEW025TCU RMK SCT060",
      "tafRaw": "TAF LLBG 282302Z 2900/2924 15005KT 9999 SCT035 \n  PROB40 \n  TEMPO 2900/2909 20012KT 7000 RA FEW025TCU BKN030 \n  TEMPO 2909/2914 23015KT \n  BECMG 2914/2917 14008KT CAVOK TX19/2911Z TN12/2904Z"
    },
    {
      "icao": "LQTZ",
      "iata": "TZL",
      "name": "Tuzla International Airport",
      "lat": 44.459858,
      "lon": 18.723627,
      "updatedAt": "282330Z",
      "visibility_m": 10000,
      "taf_visibility_m": 5000,
      "worst_visibility_m": 5000,
      "ceiling_ft": 6000,
      "hazards": [
        "RA"
      ],
      "severityScore": 12,
      "metarRaw": "METAR LQTZ 282330Z VRB02KT 9999 BKN060 11/04 Q0992",
      "tafRaw": "TAF LQTZ 282300Z 2900/2924 13005KT CAVOK TX13/2913Z TN03/2905Z \n  BECMG 2919/2922 5000 -RA BKN010 OVC030"
    },
    {
      "icao": "LWOH",
      "iata": "OHD",
      "name": "Ohrid St. Paul the Apostle Airport",
      "lat": 41.18,
      "lon": 20.7423,
      "updatedAt": null,
      "visibility_m": null,
      "taf_visibility_m": 5000,
      "worst_visibility_m": 5000,
      "ceiling_ft": 2500,
      "hazards": [
        "RA"
      ],
      "severityScore": 12,
      "metarRaw": null,
      "tafRaw": "TAF LWOH 282308Z 2900/2924 14010KT 9999 FEW020 OVC040 \n  TEMPO 2903/2906 -RA \n  BECMG 2906/2908 03010KT \n  BECMG 2910/2912 5000 +RA OVC025"
    },
    {
      "icao": "GMMX",
      "iata": "RAK",
      "name": "Marrakesh Menara Airport",
      "lat": 31.604807,
      "lon": -8.035788,
      "updatedAt": "282330Z",
      "visibility_m": 10000,
      "taf_visibility_m": 3000,
      "worst_visibility_m": 3000,
      "ceiling_ft": 20000,
      "hazards": [
        "BR"
      ],
      "severityScore": 10,
      "metarRaw": "METAR GMMX 282330Z 26003KT 9999 FEW080 BKN200 15/12 Q1021 NOSIG",
      "tafRaw": "TAF GMMX 281700Z 2818/2924 28006KT 9999 SCT020 SCT090 \n  TEMPO 2818/2821 34016KT \n  PROB30 \n  TEMPO 2904/2909 3000 BR BKN006"
    },
    {
      "icao": "ENBR",
      "iata": "BGO",
      "name": "Bergen Airport, Flesland",
      "lat": 60.2934,
      "lon": 5.21814,
      "updatedAt": "282320Z",
      "visibility_m": 10000,
      "taf_visibility_m": 10000,
      "worst_visibility_m": 10000,
      "ceiling_ft": null,
      "hazards": [
        "BR"
      ],
      "severityScore": 10,
      "metarRaw": "METAR ENBR 282320Z 12005KT 9999 SCT028 M04/M06 Q1011 RMK WIND 1200FT 19009KT",
      "tafRaw": "TAF ENBR 282300Z 2900/2924 10003KT 9999 FEW025"
    },
    {
      "icao": "LIBP",
      "iata": "PSR",
      "name": "Abruzzo Airport",
      "lat": 42.431079,
      "lon": 14.182981,
      "updatedAt": "282320Z",
      "visibility_m": 10000,
      "taf_visibility_m": 4000,
      "worst_visibility_m": 4000,
      "ceiling_ft": null,
      "hazards": [
        "BR"
      ],
      "severityScore": 10,
      "metarRaw": "METAR LIBP 282320Z AUTO 22014KT 9999 BKN180/// 12/01 Q0993",
      "tafRaw": "TAF LIBP 282300Z 2900/2924 23008KT 9999 SCT070 \n  BECMG 2910/2912 36010KT \n  BECMG 2916/2918 23006KT \n  TEMPO 2919/2924 4000 BR"
    },
    {
      "icao": "LIMF",
      "iata": "TRN",
      "name": "Turin Airport",
      "lat": 45.200802,
      "lon": 7.64963,
      "updatedAt": "282320Z",
      "visibility_m": 10000,
      "taf_visibility_m": 3000,
      "worst_visibility_m": 3000,
      "ceiling_ft": 12000,
      "hazards": [
        "BR"
      ],
      "severityScore": 10,
      "metarRaw": "METAR LIMF 282320Z 26002KT 9999 FEW015 BKN120 04/03 Q0991",
      "tafRaw": "TAF LIMF 282300Z 2900/2924 VRB04KT 7000 BKN040 \n  TEMPO 2900/2909 3000 BR"
    },
    {
      "icao": "LRBV",
      "iata": "GHV",
      "name": "Brașov-Ghimbav International Airport",
      "lat": 45.70558,
      "lon": 25.522871,
      "updatedAt": "282330Z",
      "visibility_m": 9000,
      "taf_visibility_m": 5000,
      "worst_visibility_m": 5000,
      "ceiling_ft": null,
      "hazards": [
        "BR"
      ],
      "severityScore": 10,
      "metarRaw": "METAR LRBV 282330Z AUTO 12007KT 9000 OVC140/// 02/00 Q0996",
      "tafRaw": "TAF LRBV 282000Z 2821/2906 15006KT CAVOK \n  TEMPO 2900/2905 5000 BR"
    },
    {
      "icao": "EYPA",
      "iata": "PLQ",
      "name": "Palanga International Airport",
      "lat": 55.973202,
      "lon": 21.093901,
      "updatedAt": "282320Z",
      "visibility_m": 10000,
      "taf_visibility_m": null,
      "worst_visibility_m": 10000,
      "ceiling_ft": null,
      "hazards": [],
      "severityScore": 5,
      "metarRaw": "METAR EYPA 282320Z AUTO 05007KT 9999 NCD M12/M15 Q1009",
      "tafRaw": null
    },
    {
      "icao": "LECH",
      "iata": "CDT",
      "name": "Castellón-Costa Azahar Airport",
      "lat": 40.213889,
      "lon": 0.073333,
      "updatedAt": "282330Z",
      "visibility_m": 10000,
      "taf_visibility_m": null,
      "worst_visibility_m": 10000,
      "ceiling_ft": null,
      "hazards": [],
      "severityScore": 5,
      "metarRaw": "METAR LECH 282330Z AUTO 26003KT 150V320 CAVOK 11/M01 Q1002",
      "tafRaw": null
    },
    {
      "icao": "GCFV",
      "iata": "FUE",
      "name": "Fuerteventura Airport",
      "lat": 28.4527,
      "lon": -13.8638,
      "updatedAt": "282330Z",
      "visibility_m": 10000,
      "taf_visibility_m": 10000,
      "worst_visibility_m": 10000,
      "ceiling_ft": 3100,
      "hazards": [],
      "severityScore": 0,
      "metarRaw": "METAR GCFV 282330Z AUTO 32005KT 290V350 9999 OVC031 20/13 Q1023",
      "tafRaw": "TAF GCFV 282000Z 2821/2921 32003KT 9999 FEW020 BKN025 TX23/2914Z TN14/2906Z \n  TEMPO 2911/2918 33013KT"
    },
    {
      "icao": "GCLP",
      "iata": "LPA",
      "name": "Gran Canaria Airport",
      "lat": 27.9319,
      "lon": -15.3866,
      "updatedAt": "282330Z",
      "visibility_m": 10000,
      "taf_visibility_m": 10000,
      "worst_visibility_m": 10000,
      "ceiling_ft": 2700,
      "hazards": [],
      "severityScore": 0,
      "metarRaw": "METAR GCLP 282330Z 00000KT 9999 BKN027 19/16 Q1023 NOSIG",
      "tafRaw": "TAF GCLP 282000Z 2821/2921 35007KT 9999 FEW020 BKN030 TX22/2914Z TN15/2906Z"
    },
    {
      "icao": "ENAL",
      "iata": "AES",
      "name": "Ålesund Airport, Vigra",
      "lat": 62.5625,
      "lon": 6.1197,
      "updatedAt": "282320Z",
      "visibility_m": 10000,
      "taf_visibility_m": 10000,
      "worst_visibility_m": 10000,
      "ceiling_ft": null,
      "hazards": [],
      "severityScore": 0,
      "metarRaw": "METAR ENAL 282320Z AUTO 15011KT 9999 BKN031/// M02/M07 Q1010",
      "tafRaw": "TAF ENAL 282300Z 2900/2909 14008KT 9999 SCT025"
    },
    {
      "icao": "ENHD",
      "iata": "HAU",
      "name": "Haugesund Airport, Karmøy",
      "lat": 59.345299,
      "lon": 5.20836,
      "updatedAt": "282320Z",
      "visibility_m": 10000,
      "taf_visibility_m": 10000,
      "worst_visibility_m": 10000,
      "ceiling_ft": null,
      "hazards": [],
      "severityScore": 0,
      "metarRaw": "METAR ENHD 282320Z AUTO 11005KT 9999 NCD M07/M13 Q1011",
      "tafRaw": "TAF ENHD 281400Z 2815/2823 10008KT CAVOK"
    },
    {
      "icao": "ENVA",
      "iata": "TRD",
      "name": "Trondheim Airport, Værnes",
      "lat": 63.457802,
      "lon": 10.924,
      "updatedAt": "282320Z",
      "visibility_m": 10000,
      "taf_visibility_m": 10000,
      "worst_visibility_m": 10000,
      "ceiling_ft": null,
      "hazards": [],
      "severityScore": 0,
      "metarRaw": "METAR ENVA 282320Z 11005KT CAVOK M16/M19 Q1014 RMK WIND 670FT 10009KT",
      "tafRaw": "TAF ENVA 282300Z 2900/2924 10008KT CAVOK"
    },
    {
      "icao": "ENZV",
      "iata": "SVG",
      "name": "Stavanger Airport, Sola",
      "lat": 58.876701,
      "lon": 5.63778,
      "updatedAt": "282320Z",
      "visibility_m": 10000,
      "taf_visibility_m": 10000,
      "worst_visibility_m": 10000,
      "ceiling_ft": null,
      "hazards": [],
      "severityScore": 0,
      "metarRaw": "METAR ENZV 282320Z 17003KT CAVOK M07/M13 Q1012",
      "tafRaw": "TAF ENZV 282300Z 2900/2924 13005KT CAVOK"
    },
    {
      "icao": "ESGG",
      "iata": "GOT",
      "name": "Göteborg Landvetter Airport",
      "lat": 57.6628,
      "lon": 12.2798,
      "updatedAt": "282320Z",
      "visibility_m": 10000,
      "taf_visibility_m": 10000,
      "worst_visibility_m": 10000,
      "ceiling_ft": null,
      "hazards": [],
      "severityScore": 0,
      "metarRaw": "METAR ESGG 282320Z 03007KT 9999 FEW029 M10/M11 Q1011",
      "tafRaw": "TAF ESGG 282330Z 2900/2924 05008KT CAVOK"
    },
    {
      "icao": "ESKN",
      "iata": "NYO",
      "name": "Stockholm Skavsta Airport",
      "lat": 58.789656,
      "lon": 16.911479,
      "updatedAt": "282320Z",
      "visibility_m": 10000,
      "taf_visibility_m": 10000,
      "worst_visibility_m": 10000,
      "ceiling_ft": 3500,
      "hazards": [],
      "severityScore": 0,
      "metarRaw": "METAR ESKN 282320Z 01007KT 9999 BKN035 M06/M08 Q1015",
      "tafRaw": "TAF ESKN 282330Z 2900/2924 02008KT 9999 BKN035 \n  PROB40 2900/2924 BKN014"
    },
    {
      "icao": "HEGN",
      "iata": "HRG",
      "name": "Hurghada International Airport",
      "lat": 27.176776,
      "lon": 33.796692,
      "updatedAt": "282300Z",
      "visibility_m": 6000,
      "taf_visibility_m": 2000,
      "worst_visibility_m": 2000,
      "ceiling_ft": null,
      "hazards": [],
      "severityScore": 0,
      "metarRaw": "METAR HEGN 282300Z 29011KT 6000 NSC 15/03 Q1020 NOSIG",
      "tafRaw": "TAF HEGN 282300Z 2900/3006 26008KT 6000 NSC \n  TEMPO 2900/2909 4000 DU \n  TEMPO 2905/2908 2000"
    },
    {
      "icao": "HEMA",
      "iata": "RMF",
      "name": "Marsa Alam International Airport",
      "lat": 25.555548,
      "lon": 34.59245,
      "updatedAt": "282300Z",
      "visibility_m": 6000,
      "taf_visibility_m": 2000,
      "worst_visibility_m": 2000,
      "ceiling_ft": null,
      "hazards": [],
      "severityScore": 0,
      "metarRaw": "METAR HEMA 282300Z 26007KT 6000 NSC 15/M01 Q1019 NOSIG",
      "tafRaw": "TAF HEMA 282300Z 2900/3006 26008KT 6000 NSC \n  TEMPO 2900/2909 4000 DU \n  TEMPO 2905/2908 2000"
    },
    {
      "icao": "HESH",
      "iata": "SSH",
      "name": "Sharm El Sheikh International Airport",
      "lat": 27.977272,
      "lon": 34.394717,
      "updatedAt": "282300Z",
      "visibility_m": 6000,
      "taf_visibility_m": 4000,
      "worst_visibility_m": 4000,
      "ceiling_ft": null,
      "hazards": [],
      "severityScore": 0,
      "metarRaw": "METAR HESH 282300Z 34005KT 6000 NSC 17/07 Q1019 NOSIG",
      "tafRaw": "TAF HESH 282300Z 2900/3006 30008KT 6000 NSC \n  TEMPO 2900/2909 4000 HZ"
    },
    {
      "icao": "HESX",
      "iata": "SPX",
      "name": "Sphinx International Airport",
      "lat": 30.108179,
      "lon": 30.895728,
      "updatedAt": "282300Z",
      "visibility_m": 10000,
      "taf_visibility_m": 4000,
      "worst_visibility_m": 4000,
      "ceiling_ft": null,
      "hazards": [],
      "severityScore": 0,
      "metarRaw": "METAR HESX 282300Z 20003KT CAVOK 11/04 Q1020 NOSIG",
      "tafRaw": "TAF HESX 282300Z 2900/3006 24009KT 9999 SCT020 \n  BECMG 2908/2910 20012KT \n  TEMPO 2908/2920 22012G22KT 4000 SA"
    },
    {
      "icao": "LEBL",
      "iata": "BCN",
      "name": "Josep Tarradellas Barcelona-El Prat Airport",
      "lat": 41.2971,
      "lon": 2.07846,
      "updatedAt": "282330Z",
      "visibility_m": 10000,
      "taf_visibility_m": 10000,
      "worst_visibility_m": 10000,
      "ceiling_ft": 3000,
      "hazards": [],
      "severityScore": 0,
      "metarRaw": "METAR LEBL 282330Z 32003KT 260V010 9999 FEW020 07/03 Q1001 NOSIG",
      "tafRaw": "TAF LEBL 282300Z 2900/2924 27008KT 9999 FEW020 TX14/2912Z TN07/2906Z \n  BECMG 2900/2902 VRB04KT \n  TEMPO 2906/2912 BKN030 \n  TEMPO 2912/2918 25010KT"
    },
    {
      "icao": "LEMG",
      "iata": "AGP",
      "name": "Málaga-Costa del Sol Airport",
      "lat": 36.6749,
      "lon": -4.49911,
      "updatedAt": "282330Z",
      "visibility_m": 10000,
      "taf_visibility_m": 10000,
      "worst_visibility_m": 10000,
      "ceiling_ft": 2500,
      "hazards": [],
      "severityScore": 0,
      "metarRaw": "METAR LEMG 282330Z VRB01KT 9999 FEW030 SCT060 12/10 Q1009 NOSIG",
      "tafRaw": "TAF LEMG 282300Z 2900/2924 29006KT 9999 FEW020 BKN025 TX19/2914Z TN13/2907Z"
    },
    {
      "icao": "LFMN",
      "iata": "NCE",
      "name": "Nice-Côte d'Azur Airport",
      "lat": 43.658401,
      "lon": 7.21587,
      "updatedAt": "282330Z",
      "visibility_m": 10000,
      "taf_visibility_m": 10000,
      "worst_visibility_m": 10000,
      "ceiling_ft": 6000,
      "hazards": [],
      "severityScore": 0,
      "metarRaw": "METAR LFMN 282330Z 32010KT 9999 VCSH SCT026 FEW030TCU BKN060 07/06 Q0991 NOSIG",
      "tafRaw": "TAF LFMN 282000Z 2821/3003 34010KT 9999 SCT060 \n  BECMG 2900/2902 NSC \n  BECMG 2909/2911 VRB05KT \n  TEMPO 2915/2917 08010KT \n  BECMG 2917/2919 34010KT"
    },
    {
      "icao": "LIBD",
      "iata": "BRI",
      "name": "Bari Karol Wojtyła International Airport",
      "lat": 41.138901,
      "lon": 16.760599,
      "updatedAt": "282320Z",
      "visibility_m": 10000,
      "taf_visibility_m": 10000,
      "worst_visibility_m": 10000,
      "ceiling_ft": null,
      "hazards": [],
      "severityScore": 0,
      "metarRaw": "METAR LIBD 282320Z 18004KT CAVOK 08/05 Q0997",
      "tafRaw": "TAF LIBD 282300Z 2900/2924 19006KT CAVOK \n  BECMG 2910/2912 29012KT"
    },
    {
      "icao": "LIBG",
      "iata": "TAR",
      "name": "Taranto-Grottaglie Marcello Arlotta Airport",
      "lat": 40.517502,
      "lon": 17.4032,
      "updatedAt": null,
      "visibility_m": null,
      "taf_visibility_m": 10000,
      "worst_visibility_m": 10000,
      "ceiling_ft": null,
      "hazards": [],
      "severityScore": 0,
      "metarRaw": null,
      "tafRaw": "TAF LIBG 281700Z 2818/2903 21012KT 9999 FEW020 \n  BECMG 2820/2822 VRB05KT"
    },
    {
      "icao": "LPMA",
      "iata": "FNC",
      "name": "Cristiano Ronaldo International Airport",
      "lat": 32.697812,
      "lon": -16.774613,
      "updatedAt": "282330Z",
      "visibility_m": 10000,
      "taf_visibility_m": 10000,
      "worst_visibility_m": 10000,
      "ceiling_ft": null,
      "hazards": [],
      "severityScore": 0,
      "metarRaw": "METAR LPMA 282330Z 26004KT 9999 FEW015 17/14 Q1020",
      "tafRaw": "TAF LPMA 282300Z 2900/2924 VRB05KT 9999 SCT015"
    },
    {
      "icao": "OEJN",
      "iata": "JED",
      "name": "King Abdulaziz International Airport",
      "lat": 21.6796,
      "lon": 39.156502,
      "updatedAt": "282300Z",
      "visibility_m": 10000,
      "taf_visibility_m": 7000,
      "worst_visibility_m": 7000,
      "ceiling_ft": null,
      "hazards": [],
      "severityScore": 0,
      "metarRaw": "METAR OEJN 282300Z 06006KT CAVOK 23/12 Q1016 NOSIG",
      "tafRaw": "TAF OEJN 282300Z 2900/3006 03005KT 7000 FEW040 \n  BECMG 2908/2910 33013KT CAVOK \n  BECMG 2918/2920 03006KT 7000 NSC"
    },
    {
      "icao": "OEMA",
      "iata": "MED",
      "name": "Prince Mohammad Bin Abdulaziz Airport",
      "lat": 24.5534,
      "lon": 39.705101,
      "updatedAt": "282300Z",
      "visibility_m": 10000,
      "taf_visibility_m": 10000,
      "worst_visibility_m": 10000,
      "ceiling_ft": null,
      "hazards": [],
      "severityScore": 0,
      "metarRaw": "METAR OEMA 282300Z VRB02KT CAVOK 17/01 Q1020 NOSIG",
      "tafRaw": "TAF OEMA 282300Z 2900/3006 30004KT CAVOK \n  BECMG 2904/2906 09010KT"
    },
    {
      "icao": "OMAA",
      "iata": "AUH",
      "name": "Zayed International Airport",
      "lat": 24.440966,
      "lon": 54.649237,
      "updatedAt": "282330Z",
      "visibility_m": 10000,
      "taf_visibility_m": 4000,
      "worst_visibility_m": 4000,
      "ceiling_ft": null,
      "hazards": [],
      "severityScore": 0,
      "metarRaw": "METAR OMAA 282330Z 10007KT 050V110 CAVOK 18/12 Q1016 NOSIG",
      "tafRaw": "TAF OMAA 282300Z 2900/3006 10005KT 8000 NSC \n  PROB30 2900/2905 4000 HZ \n  BECMG 2905/2907 16010KT \n  BECMG 2908/2909 25006KT \n  BECMG 2911/2913 31010KT \n  BECMG 2917/2919 VRB02KT \n  BECMG 3004/3006 31010KT"
    },
    {
      "icao": "OMDB",
      "iata": "DXB",
      "name": "Dubai International Airport",
      "lat": 25.2527999878,
      "lon": 55.3643989563,
      "updatedAt": "282300Z",
      "visibility_m": 10000,
      "taf_visibility_m": 8000,
      "worst_visibility_m": 8000,
      "ceiling_ft": null,
      "hazards": [],
      "severityScore": 0,
      "metarRaw": "METAR OMDB 282300Z 07005KT CAVOK 20/14 Q1017 NOSIG",
      "tafRaw": "TAF OMDB 282300Z 2900/3006 10005KT 8000 NSC \n  BECMG 2904/2906 18010KT \n  BECMG 2909/2911 29010KT \n  BECMG 2916/2918 14005KT"
    },
    {
      "icao": "UGKO",
      "iata": "KUT",
      "name": "David the Builder Kutaisi International Airport",
      "lat": 42.177448,
      "lon": 42.485353,
      "updatedAt": "282330Z",
      "visibility_m": 10000,
      "taf_visibility_m": 10000,
      "worst_visibility_m": 10000,
      "ceiling_ft": null,
      "hazards": [],
      "severityScore": 0,
      "metarRaw": "METAR UGKO 282330Z 10004KT 060V120 CAVOK 04/M02 Q1011 NOSIG",
      "tafRaw": "TAF UGKO 282300Z 2900/2924 09006KT CAVOK TX16/2911Z TN03/2905Z"
    }
  ],
  "stats": {
    "icaoCount": 159,
    "metarReturned": 155,
    "tafReturned": 156,
    "stationsWritten": 159,
    "missingMetar": 4,
    "missingTaf": 3
  },
  "errors": []
}