{
  "generatedAt": "2026-01-18T10:26:28.508Z",
  "metarFetchedAt": "2026-01-18T10:26:29.325Z",
  "tafFetchedAt": "2026-01-18T10:26:31.247Z",
  "stations": [
    {
      "icao": "EDDB",
      "iata": "BER",
      "name": "Berlin Brandenburg Airport",
      "updatedAt": "181020Z",
      "visibility_m": 8000,
      "taf_visibility_m": 700,
      "worst_visibility_m": 700,
      "ceiling_ft": 600,
      "hazards": [
        "FZFG",
        "BR",
        "FG"
      ],
      "severityScore": 100,
      "metarRaw": "METAR EDDB 181020Z AUTO 12009KT 8000 BKN006 02/00 Q1028 BECMG SCT006",
      "tafRaw": "TAF EDDB 180500Z 1806/1906 10009KT 5000 BR BKN005 \n  PROB40 \n  TEMPO 1806/1809 0700 FZFG BKN001 \n  BECMG 1809/1812 SCT004"
    },
    {
      "icao": "EDFH",
      "iata": "HHN",
      "name": "Frankfurt-Hahn Airport",
      "updatedAt": "181020Z",
      "visibility_m": 450,
      "taf_visibility_m": null,
      "worst_visibility_m": 450,
      "ceiling_ft": 100,
      "hazards": [
        "FZFG",
        "FG"
      ],
      "severityScore": 100,
      "metarRaw": "METAR EDFH 181020Z 12015KT 0450 R21/0700N FZFG OVC001 M01/M01 Q1019",
      "tafRaw": null
    },
    {
      "icao": "EDJA",
      "iata": "FMM",
      "name": "Memmingen Allgau Airport",
      "updatedAt": "181020Z",
      "visibility_m": 2200,
      "taf_visibility_m": 700,
      "worst_visibility_m": 700,
      "ceiling_ft": 200,
      "hazards": [
        "BR",
        "FZFG",
        "FG"
      ],
      "severityScore": 100,
      "metarRaw": "METAR EDJA 181020Z 06006KT 2200 BR OVC002 M03/M03 Q1019",
      "tafRaw": "TAF EDJA 180800Z 1809/1818 06005KT 0700 FZFG VV001 \n  BECMG 1809/1813 5000 BR OVC003 \n  BECMG 1816/1818 0700 FZFG VV001"
    },
    {
      "icao": "EETN",
      "iata": "TLL",
      "name": "Lennart Meri Tallinn Airport",
      "updatedAt": "181020Z",
      "visibility_m": 3000,
      "taf_visibility_m": 3000,
      "worst_visibility_m": 3000,
      "ceiling_ft": 400,
      "hazards": [
        "BR",
        "FZRA",
        "FZDZ",
        "RA",
        "DZ"
      ],
      "severityScore": 100,
      "metarRaw": "METAR EETN 181020Z 19006KT 6000 OVC005 M04/M05 Q1037 TEMPO 3000 BR OVC004",
      "tafRaw": "TAF EETN 180530Z 1806/1906 19008KT 8000 OVC010 \n  TEMPO 1806/1811 BKN004 \n  PROB40 \n  TEMPO 1806/1809 3000 -FZDZ BR \n  TEMPO 1811/1813 3000 -FZRA BR OVC004 \n  TEMPO 1813/1818 OVC005 \n  PROB40 \n  TEMPO 1900/1906 BKN003"
    },
    {
      "icao": "EFTU",
      "iata": "TKU",
      "name": "Turku Airport",
      "updatedAt": "181020Z",
      "visibility_m": 600,
      "taf_visibility_m": 400,
      "worst_visibility_m": 400,
      "ceiling_ft": 200,
      "hazards": [
        "SHRA",
        "RA",
        "FZFG",
        "FG",
        "BR",
        "SN",
        "DZ"
      ],
      "severityScore": 100,
      "metarRaw": "METAR EFTU 181020Z AUTO 21004KT 180V240 0600 R26/0800 -SHRA VV002 01/01 Q1036",
      "tafRaw": "TAF EFTU 180833Z 1809/1909 18004KT 0400 FG VV002 \n  TEMPO 1809/1815 1000 -DZ BR OVC001 \n  BECMG 1815/1818 4000 -RA BR OVC005 \n  BECMG 1818/1820 1300 -SN BR OVC003 \n  TEMPO 1820/1906 0700 FZFG OVC001 \n  BECMG 1906/1908 9999 NSW BKN010"
    },
    {
      "icao": "EGNM",
      "iata": "LBA",
      "name": "Leeds Bradford Airport",
      "updatedAt": "181020Z",
      "visibility_m": 300,
      "taf_visibility_m": 300,
      "worst_visibility_m": 300,
      "ceiling_ft": 200,
      "hazards": [
        "FG",
        "RA",
        "BR",
        "DZ"
      ],
      "severityScore": 100,
      "metarRaw": "METAR EGNM 181020Z 10006KT 0300 R32/0650U -RA FG VV/// 04/04 Q1018",
      "tafRaw": "TAF EGNM 180457Z 1806/1906 06003KT 0300 FG VV/// \n  TEMPO 1806/1906 RA -RADZ \n  PROB30 \n  TEMPO 1806/1906 2000 BR SCT001 BKN002"
    },
    {
      "icao": "EGPD",
      "iata": "ABZ",
      "name": "Aberdeen International Airport",
      "updatedAt": "181020Z",
      "visibility_m": 3000,
      "taf_visibility_m": 300,
      "worst_visibility_m": 300,
      "ceiling_ft": 400,
      "hazards": [
        "BR",
        "FG",
        "DZ",
        "RA"
      ],
      "severityScore": 100,
      "metarRaw": "METAR EGPD 181020Z COR AUTO 15005KT 6000 BKN005 BKN009 03/02 Q1020 TEMPO 3000 BR BKN004",
      "tafRaw": "TAF EGPD 180453Z 1806/1906 16004KT 9999 SCT006 BKN015 \n  TEMPO 1806/1812 3000 BR BKN004 \n  PROB30 \n  TEMPO 1806/1810 0300 FG VV/// \n  TEMPO 1812/1903 6000 -RADZ BKN006 \n  PROB30 \n  TEMPO 1812/1819 3000 BR BKN003 \n  PROB30 \n  TEMPO 1815/1818 RADZ \n  PROB30 \n  TEMPO 1819/1903 0800 FG DZ BKN001 \n  PROB30 \n  TEMPO 1903/1906 0800 FG BKN001"
    },
    {
      "icao": "ENTO",
      "iata": "TRF",
      "name": "Sandefjord Airport, Torp",
      "updatedAt": "181020Z",
      "visibility_m": 900,
      "taf_visibility_m": 400,
      "worst_visibility_m": 400,
      "ceiling_ft": 300,
      "hazards": [
        "FG",
        "BR",
        "FZFG",
        "DZ"
      ],
      "severityScore": 100,
      "metarRaw": "METAR ENTO 181020Z 01006KT 0900 R18/P2000N R36/P2000N FG VV003 00/00 Q1031 TEMPO 1200 BR BKN005",
      "tafRaw": "TAF ENTO 180500Z 1806/1906 03005KT 7000 BKN004 \n  PROB40 1806/1812 0400 FZFG VV001 \n  TEMPO 1812/1906 1200 -DZ BR OVC001"
    },
    {
      "icao": "ESMS",
      "iata": "MMX",
      "name": "Malmö Sturup Airport",
      "updatedAt": "181020Z",
      "visibility_m": 3000,
      "taf_visibility_m": 500,
      "worst_visibility_m": 500,
      "ceiling_ft": 400,
      "hazards": [
        "BR",
        "FG"
      ],
      "severityScore": 100,
      "metarRaw": "METAR ESMS 181020Z 10010KT 3000 BR BKN004 02/02 Q1030",
      "tafRaw": "TAF ESMS 180827Z 1809/1909 11010KT 0500 FG VV002 \n  BECMG 1809/1811 CAVOK \n  TEMPO 1811/1818 3000 BR"
    },
    {
      "icao": "LFLL",
      "iata": "LYS",
      "name": "Lyon Saint-Exupéry Airport",
      "updatedAt": "181000Z",
      "visibility_m": 400,
      "taf_visibility_m": 100,
      "worst_visibility_m": 100,
      "ceiling_ft": 200,
      "hazards": [
        "FG",
        "BR"
      ],
      "severityScore": 100,
      "metarRaw": "METAR LFLL 181000Z 20003KT 170V250 0400 R35L/P2000 R17R/0450D R35R/P2000 R17L/0450N FG VV/// 05/05 Q1017 NOSIG",
      "tafRaw": "TAF LFLL 180500Z 1806/1912 VRB02KT 0200 FG VV/// \n  TEMPO 1806/1807 0400 \n  TEMPO 1807/1813 0100 \n  TEMPO 1813/1817 3000 BR BKN002 \n  PROB30 \n  TEMPO 1813/1817 6000 NSW NSC \n  FM181700 VRB02KT 0400 FG VV/// \n  TEMPO 1817/1907 0200 \n  FM190700 VRB02KT 0200 FG VV/// \n  TEMPO 1907/1912 0100"
    },
    {
      "icao": "LHDC",
      "iata": "DEB",
      "name": "Debrecen International Airport",
      "updatedAt": "180945Z",
      "visibility_m": 500,
      "taf_visibility_m": 250,
      "worst_visibility_m": 250,
      "ceiling_ft": 200,
      "hazards": [
        "FZFG",
        "BR",
        "FZDZ",
        "FG",
        "DZ"
      ],
      "severityScore": 100,
      "metarRaw": "METAR LHDC 180945Z AUTO VRB03KT 1000 R04/1000U -FZDZ BR BKN002 M03/M03 Q1035 TEMPO 0500 -SG FZFG VV002",
      "tafRaw": "TAF LHDC 180815Z 1809/1818 VRB03KT 0250 -SG -FZDZ FZFG VV002 \n  PROB40 1809/1818 2500 BR NSC \n  PROB30 1811/1815 CAVOK"
    },
    {
      "icao": "LKMT",
      "iata": "OSR",
      "name": "Ostrava Leos Janáček Airport",
      "updatedAt": "181000Z",
      "visibility_m": 200,
      "taf_visibility_m": null,
      "worst_visibility_m": 200,
      "ceiling_ft": 200,
      "hazards": [
        "FZFG",
        "FG"
      ],
      "severityScore": 100,
      "metarRaw": "METAR LKMT 181000Z VRB02KT 0200 R22/0275N R04/0300N FZFG VV002 M05/M05 Q1033 TEMPO 0400 FZFG VV002",
      "tafRaw": null
    },
    {
      "icao": "OJAI",
      "iata": "AMM",
      "name": "Queen Alia International Airport",
      "updatedAt": "181000Z",
      "visibility_m": 5000,
      "taf_visibility_m": 900,
      "worst_visibility_m": 900,
      "ceiling_ft": 2500,
      "hazards": [
        "FG",
        "BR",
        "TSRA",
        "RA",
        "TS"
      ],
      "severityScore": 100,
      "metarRaw": "METAR OJAI 181000Z 24009KT 5000 HZ SCT025 SCT030 11/08 Q1015 NOSIG",
      "tafRaw": "TAF OJAI 180444Z 1806/1912 VRB01KT 0900 FG FEW020 \n  BECMG 1806/1808 27012KT 4000 RA BR SCT020 BKN025 \n  PROB40 \n  TEMPO 1808/1812 29020KT 2000 TSRA FEW020CB SCT020 BKN025"
    },
    {
      "icao": "UDSG",
      "iata": "LWN",
      "name": "Shirak International Airport",
      "updatedAt": "181000Z",
      "visibility_m": 9000,
      "taf_visibility_m": 500,
      "worst_visibility_m": 500,
      "ceiling_ft": 3300,
      "hazards": [
        "FZFG",
        "BR",
        "SN",
        "FG"
      ],
      "severityScore": 100,
      "metarRaw": "METAR UDSG 181000Z 14001KT 9000 BKN033 M04/M08 Q1017 NOSIG",
      "tafRaw": "TAF UDSG 180458Z 1806/1906 VRB06KT 3000 BR BKN030 \n  TEMPO 1806/1812 0500 SN FZFG OVC020"
    },
    {
      "icao": "UAAA",
      "iata": "ALA",
      "name": "Almaty International Airport",
      "updatedAt": "181000Z",
      "visibility_m": 10000,
      "taf_visibility_m": 400,
      "worst_visibility_m": 400,
      "ceiling_ft": 5000,
      "hazards": [
        "FZFG",
        "BR",
        "FG"
      ],
      "severityScore": 95,
      "metarRaw": "METAR UAAA 181000Z 00000MPS 9999 BKN050 M13/M18 Q1030 NOSIG",
      "tafRaw": "TAF UAAA 180506Z 1806/1906 35003MPS 9999 SCT050 BKN100 TXM13/1808Z TNM18/1903Z \n  TEMPO 1806/1812 05003G08MPS 4000 BR BKN011 OVC020 \n  FM181200 08003MPS 3100 BR FU SCT011 BKN100 \n  TEMPO 1812/1818 14003MPS 1200 BKN005 OVC011 \n  TEMPO 1818/1905 23003MPS 0400 FZFG VV002"
    },
    {
      "icao": "LIPR",
      "iata": "RMI",
      "name": "Federico Fellini International Airport",
      "updatedAt": "181020Z",
      "visibility_m": 1800,
      "taf_visibility_m": 800,
      "worst_visibility_m": 800,
      "ceiling_ft": 500,
      "hazards": [
        "BR",
        "FG",
        "RA"
      ],
      "severityScore": 92,
      "metarRaw": "METAR LIPR 181020Z AUTO 32006KT 1800 BR OVC003/// 09/08 Q1024",
      "tafRaw": "TAF LIPR 180500Z 1806/1906 VRB05KT 0800 FG BKN005 \n  BECMG 1807/1809 4000 BR BKN020 \n  BECMG 1810/1812 08010KT 7000 \n  TEMPO 1811/1816 4000 -RA"
    },
    {
      "icao": "ESKN",
      "iata": "NYO",
      "name": "Stockholm Skavsta Airport",
      "updatedAt": "181020Z",
      "visibility_m": 750,
      "taf_visibility_m": 1200,
      "worst_visibility_m": 750,
      "ceiling_ft": 200,
      "hazards": [
        "FG",
        "BR"
      ],
      "severityScore": 90,
      "metarRaw": "METAR ESKN 181020Z 15006KT 0750 R08/1500N R26/1100N FG VV002 02/02 Q1034",
      "tafRaw": "TAF ESKN 180830Z 1809/1909 15008KT 1200 BR OVC002 \n  PROB40 1809/1817 6000 BKN010 \n  BECMG 1817/1819 9999 SCT015 \n  PROB40 1819/1824 BKN012 \n  BECMG 1907/1909 BKN005"
    },
    {
      "icao": "LEMD",
      "iata": "MAD",
      "name": "Adolfo Suárez Madrid–Barajas Airport",
      "updatedAt": "181000Z",
      "visibility_m": 10000,
      "taf_visibility_m": 600,
      "worst_visibility_m": 600,
      "ceiling_ft": 200,
      "hazards": [
        "FG",
        "BR"
      ],
      "severityScore": 90,
      "metarRaw": "METAR LEMD 181000Z 34006KT 9999 SCT035 05/03 Q1012 NOSIG",
      "tafRaw": "TAF LEMD 180500Z 1806/1912 VRB04KT 9999 SCT035 TX09/1814Z TNM00/1906Z \n  TEMPO 1806/1810 4000 BR BKN005 BKN012 \n  PROB30 \n  TEMPO 1806/1810 0600 FG VV002 \n  PROB30 \n  TEMPO 1811/1820 03010KT \n  PROB30 \n  TEMPO 1905/1908 4000 BR"
    },
    {
      "icao": "LEBL",
      "iata": "BCN",
      "name": "Josep Tarradellas Barcelona-El Prat Airport",
      "updatedAt": "181000Z",
      "visibility_m": 10000,
      "taf_visibility_m": 2000,
      "worst_visibility_m": 2000,
      "ceiling_ft": 1200,
      "hazards": [
        "TSRA",
        "SHRA",
        "TS",
        "RA"
      ],
      "severityScore": 88,
      "metarRaw": "METAR LEBL 181000Z 33004KT 250V020 9999 FEW020 SCT057 12/11 Q1012 NOSIG",
      "tafRaw": "TAF LEBL 180500Z 1806/1906 33005KT 9999 SCT020 TX13/1812Z TN10/1806Z \n  TEMPO 1806/1906 4000 SHRA BKN012 FEW020TCU \n  BECMG 1808/1810 09007KT \n  PROB40 \n  TEMPO 1812/1824 2000 TSRA FEW020CB \n  BECMG 1821/1824 33007KT"
    },
    {
      "icao": "EPKK",
      "iata": "KRK",
      "name": "Kraków John Paul II International Airport",
      "updatedAt": "181000Z",
      "visibility_m": 10000,
      "taf_visibility_m": 800,
      "worst_visibility_m": 800,
      "ceiling_ft": null,
      "hazards": [
        "FZFG",
        "BR",
        "FG"
      ],
      "severityScore": 85,
      "metarRaw": "METAR EPKK 181000Z 07007KT CAVOK M09/M13 Q1034",
      "tafRaw": "TAF EPKK 180830Z 1809/1909 06010KT CAVOK \n  PROB40 1818/1822 4000 BR \n  TEMPO 1822/1908 2500 BR \n  PROB30 1822/1908 0800 FZFG"
    },
    {
      "icao": "LCPH",
      "iata": "PFO",
      "name": "Paphos International Airport",
      "updatedAt": "181000Z",
      "visibility_m": 10000,
      "taf_visibility_m": 2000,
      "worst_visibility_m": 2000,
      "ceiling_ft": null,
      "hazards": [
        "TSRA",
        "SHRA",
        "TS",
        "RA"
      ],
      "severityScore": 76,
      "metarRaw": "METAR LCPH 181000Z 12009KT 090V160 9999 FEW022 FEW025TCU 14/09 Q1015 NOSIG",
      "tafRaw": "TAF LCPH 180530Z 1806/1906 07008KT 9999 SCT025 \n  BECMG 1806/1808 13010KT \n  PROB30 \n  TEMPO 1806/1817 5000 SHRA SCT020TCU \n  PROB30 \n  TEMPO 1806/1817 VRB15G25KT 2000 TSRA SCT020CB \n  BECMG 1813/1815 04009KT"
    },
    {
      "icao": "LHBP",
      "iata": "BUD",
      "name": "Budapest Liszt Ferenc International Airport",
      "updatedAt": "181000Z",
      "visibility_m": 10000,
      "taf_visibility_m": 1200,
      "worst_visibility_m": 1200,
      "ceiling_ft": 200,
      "hazards": [
        "BR",
        "FG"
      ],
      "severityScore": 75,
      "metarRaw": "METAR LHBP 181000Z 16003KT CAVOK M02/M06 Q1035 NOSIG",
      "tafRaw": "TAF LHBP 180515Z 1806/1906 VRB03KT CAVOK \n  PROB40 \n  TEMPO 1806/1809 1400 BCFG BR BKN004 \n  BECMG 1819/1823 5000 BR SCT004 \n  TEMPO 1900/1906 1200 BCFG BR BKN002"
    },
    {
      "icao": "LTFM",
      "iata": "IST",
      "name": "İstanbul Airport",
      "updatedAt": "181020Z",
      "visibility_m": 8000,
      "taf_visibility_m": 1600,
      "worst_visibility_m": 1600,
      "ceiling_ft": 800,
      "hazards": [
        "SN",
        "RA",
        "SHSN"
      ],
      "severityScore": 65,
      "metarRaw": "METAR LTFM 181020Z 01027KT 8000 -SHSNRA BKN008 BKN022 02/M01 Q1030 NOSIG",
      "tafRaw": "TAF LTFM 180440Z 1806/1912 03018KT 9999 -SHSNRA SCT013 BKN025 \n  TEMPO 1806/1810 4000 -SHSN BKN008 BKN022 \n  BECMG 1811/1814 35024G36KT -SHSN BKN006 BKN022 \n  TEMPO 1820/1824 1600 SHSN \n  TEMPO 1900/1904 2500 SHSN \n  TEMPO 1905/1909 1600 SHSN"
    },
    {
      "icao": "UGKO",
      "iata": "KUT",
      "name": "David the Builder Kutaisi International Airport",
      "updatedAt": "181000Z",
      "visibility_m": 10000,
      "taf_visibility_m": 2000,
      "worst_visibility_m": 2000,
      "ceiling_ft": 800,
      "hazards": [
        "BR",
        "SN",
        "RA"
      ],
      "severityScore": 65,
      "metarRaw": "METAR UGKO 181000Z 17005KT 110V250 9999 SCT016 05/01 Q1021 NOSIG",
      "tafRaw": "TAF UGKO 180500Z 1806/1906 25010KT 9999 BKN050 TX06/1811Z TN00/1823Z \n  TEMPO 1806/1809 VRB02KT \n  TEMPO 1807/1811 CAVOK \n  TEMPO 1900/1906 2000 RASN BR BKN008 OVC025"
    },
    {
      "icao": "LLBG",
      "iata": "TLV",
      "name": "Ben Gurion International Airport",
      "updatedAt": "181020Z",
      "visibility_m": 7000,
      "taf_visibility_m": 5000,
      "worst_visibility_m": 5000,
      "ceiling_ft": 2500,
      "hazards": [
        "RA",
        "TSRA",
        "TS"
      ],
      "severityScore": 62,
      "metarRaw": "METAR LLBG 181020Z 18011KT 9999 SCT050 16/11 Q1014 TEMPO 7000 RA FEW025TCU RMK SCT070",
      "tafRaw": "TAF LLBG 180506Z 1806/1906 23012KT 9999 SCT030 \n  TEMPO 1806/1815 25018G28KT 5000 TSRA SCT015 FEW020CB BKN025 \n  BECMG 1815/1817 VRB04KT \n  PROB40 \n  TEMPO 1817/1824 19012KT 7000 RA FEW025TCU BKN030 \n  PROB40 \n  TEMPO 1900/1906 18008KT -RA BKN025 TX15/1811Z TN09/1904Z"
    },
    {
      "icao": "ESGG",
      "iata": "GOT",
      "name": "Göteborg Landvetter Airport",
      "updatedAt": "181020Z",
      "visibility_m": 1100,
      "taf_visibility_m": null,
      "worst_visibility_m": 1100,
      "ceiling_ft": 200,
      "hazards": [
        "BR"
      ],
      "severityScore": 60,
      "metarRaw": "METAR ESGG 181020Z 12006KT 1100 R03/1900N R21/1800U BR VV002 01/00 Q1030",
      "tafRaw": null
    },
    {
      "icao": "LIPE",
      "iata": "BLQ",
      "name": "Bologna Guglielmo Marconi Airport",
      "updatedAt": "181020Z",
      "visibility_m": 2000,
      "taf_visibility_m": 3000,
      "worst_visibility_m": 2000,
      "ceiling_ft": 400,
      "hazards": [
        "BR",
        "RA"
      ],
      "severityScore": 57,
      "metarRaw": "METAR LIPE 181020Z 33003KT 300V360 2000 -RA BR BKN004 07/07 Q1025",
      "tafRaw": "TAF LIPE 180500Z 1806/1906 VRB04KT 6000 BKN010 \n  TEMPO 1806/1814 3000 -RA OVC004"
    },
    {
      "icao": "EGKK",
      "iata": "LGW",
      "name": "London Gatwick Airport",
      "updatedAt": "181020Z",
      "visibility_m": 8000,
      "taf_visibility_m": 3000,
      "worst_visibility_m": 3000,
      "ceiling_ft": 300,
      "hazards": [
        "BR",
        "DZ"
      ],
      "severityScore": 55,
      "metarRaw": "METAR EGKK 181020Z 09003KT 8000 FEW005 SCT012 08/08 Q1018",
      "tafRaw": "TAF EGKK 180454Z 1806/1912 08005KT 3000 -DZ BR BKN003 \n  TEMPO 1806/1809 6000 BKN005 \n  BECMG 1809/1812 14010KT 9999 NSW SCT015 \n  PROB30 \n  TEMPO 1812/1823 9000 \n  PROB30 \n  TEMPO 1821/1902 BKN007 \n  BECMG 1823/1902 6000 \n  PROB40 \n  TEMPO 1902/1909 3000 BR BKN003"
    },
    {
      "icao": "EPWR",
      "iata": "WRO",
      "name": "Copernicus Wrocław Airport",
      "updatedAt": "181000Z",
      "visibility_m": 3900,
      "taf_visibility_m": 1200,
      "worst_visibility_m": 1200,
      "ceiling_ft": 300,
      "hazards": [
        "BR"
      ],
      "severityScore": 55,
      "metarRaw": "METAR EPWR 181000Z 12012KT 3900 BR FEW003 M01/M02 Q1032",
      "tafRaw": "TAF EPWR 180830Z 1809/1909 12010KT 1200 BR BKN003 \n  BECMG 1809/1812 CAVOK \n  PROB40 1820/1907 4000 BR"
    },
    {
      "icao": "LFPO",
      "iata": "ORY",
      "name": "Paris-Orly Airport",
      "updatedAt": "181000Z",
      "visibility_m": 10000,
      "taf_visibility_m": 700,
      "worst_visibility_m": 700,
      "ceiling_ft": null,
      "hazards": [
        "FG",
        "BR"
      ],
      "severityScore": 55,
      "metarRaw": "METAR LFPO 181000Z 08006KT CAVOK 08/05 Q1018 NOSIG",
      "tafRaw": "TAF LFPO 180500Z 1806/1912 09006KT CAVOK \n  BECMG 1815/1818 VRB03KT \n  BECMG 1900/1903 4000 BR \n  TEMPO 1904/1908 2500 MIFG \n  PROB30 \n  TEMPO 1905/1907 0700 FG VV/// \n  BECMG 1909/1911 CAVOK"
    },
    {
      "icao": "LRTR",
      "iata": "TSR",
      "name": "Timişoara Traian Vuia Airport",
      "updatedAt": "181000Z",
      "visibility_m": 10000,
      "taf_visibility_m": 1500,
      "worst_visibility_m": 1500,
      "ceiling_ft": 200,
      "hazards": [
        "BR"
      ],
      "severityScore": 55,
      "metarRaw": "METAR LRTR 181000Z 13003KT CAVOK M02/M06 Q1035",
      "tafRaw": "TAF LRTR 180500Z 1806/1906 VRB04KT 5000 BR NSC \n  PROB30 \n  TEMPO 1806/1808 1500 BR BKN002 \n  BECMG 1808/1810 9999 NSW \n  BECMG 1820/1822 5000 BR \n  TEMPO 1900/1906 1500 BR BKN005"
    },
    {
      "icao": "EGBB",
      "iata": "BHX",
      "name": "Birmingham Airport",
      "updatedAt": "181020Z",
      "visibility_m": 5000,
      "taf_visibility_m": null,
      "worst_visibility_m": 5000,
      "ceiling_ft": 300,
      "hazards": [
        "RA"
      ],
      "severityScore": 52,
      "metarRaw": "METAR EGBB 181020Z 08004KT 5000 -RA OVC003 05/05 Q1017 RERA",
      "tafRaw": null
    },
    {
      "icao": "EGGP",
      "iata": "LPL",
      "name": "Liverpool John Lennon Airport",
      "updatedAt": "181020Z",
      "visibility_m": 5000,
      "taf_visibility_m": null,
      "worst_visibility_m": 5000,
      "ceiling_ft": 800,
      "hazards": [
        "BR",
        "RA"
      ],
      "severityScore": 52,
      "metarRaw": "METAR EGGP 181020Z 09004KT 5000 -RA BR OVC008 05/05 Q1018",
      "tafRaw": null
    },
    {
      "icao": "EGGW",
      "iata": "LTN",
      "name": "London Luton Airport",
      "updatedAt": "181020Z",
      "visibility_m": 2600,
      "taf_visibility_m": null,
      "worst_visibility_m": 2600,
      "ceiling_ft": 300,
      "hazards": [
        "BR"
      ],
      "severityScore": 50,
      "metarRaw": "METAR EGGW 181020Z AUTO 14007KT 2600 BR OVC003 06/06 Q1017",
      "tafRaw": null
    },
    {
      "icao": "LEZG",
      "iata": "ZAZ",
      "name": "Zaragoza Airport",
      "updatedAt": "181022Z",
      "visibility_m": 5000,
      "taf_visibility_m": null,
      "worst_visibility_m": 5000,
      "ceiling_ft": 400,
      "hazards": [
        "BR"
      ],
      "severityScore": 50,
      "metarRaw": "SPECI LEZG 181022Z 29006KT 5000 BR OVC004 07/07 Q1013 NOSIG",
      "tafRaw": null
    },
    {
      "icao": "BIKF",
      "iata": "KEF",
      "name": "Keflavik International Airport",
      "updatedAt": "181000Z",
      "visibility_m": 10000,
      "taf_visibility_m": 2000,
      "worst_visibility_m": 2000,
      "ceiling_ft": 1400,
      "hazards": [
        "RA",
        "SHRA",
        "DZ"
      ],
      "severityScore": 48,
      "metarRaw": "METAR BIKF 181000Z 13034G46KT 9999 -RA BKN014 OVC030 06/04 Q0993",
      "tafRaw": "TAF BIKF 180758Z 1809/1909 13038G54KT 5000 RADZ BKN012 OVC020 TX07/1815Z TN01/1906Z \n  BECMG 1815/1817 19008KT \n  BECMG 1817/1819 12008KT \n  TEMPO 1819/1901 2000 DZRA BKN004 \n  BECMG 1901/1903 9999 -SHRA BKN025"
    },
    {
      "icao": "ENTC",
      "iata": "TOS",
      "name": "Tromsø Airport, Langnes",
      "updatedAt": "181020Z",
      "visibility_m": 10000,
      "taf_visibility_m": 10000,
      "worst_visibility_m": 10000,
      "ceiling_ft": 1400,
      "hazards": [
        "SHRA",
        "RA",
        "DZ"
      ],
      "severityScore": 48,
      "metarRaw": "METAR ENTC 181020Z 19011KT 9999 -DZRA FEW006 SCT009 BKN019 03/01 Q1027 TEMPO -SHRA BKN014 SCT020CB RMK WIND 2600FT 27010KT",
      "tafRaw": "TAF ENTC 180500Z 1806/1906 21012KT 9999 -RA BKN020 \n  TEMPO 1806/1824 27012KT SHRA BKN014 SCT020CB"
    },
    {
      "icao": "LIPY",
      "iata": "AOI",
      "name": "Marche Airport",
      "updatedAt": "181020Z",
      "visibility_m": 2000,
      "taf_visibility_m": 3000,
      "worst_visibility_m": 2000,
      "ceiling_ft": 500,
      "hazards": [
        "BR",
        "RA"
      ],
      "severityScore": 47,
      "metarRaw": "METAR LIPY 181020Z AUTO VRB01KT 2000 RA BR FEW002/// OVC033/// 10/10 Q1024",
      "tafRaw": "TAF LIPY 180500Z 1806/1906 VRB05KT 3000 BR BKN005 \n  BECMG 1808/1810 10010KT 7000 BKN020"
    },
    {
      "icao": "EKBI",
      "iata": "BLL",
      "name": "Billund Airport",
      "updatedAt": "181020Z",
      "visibility_m": 4200,
      "taf_visibility_m": 2000,
      "worst_visibility_m": 2000,
      "ceiling_ft": 400,
      "hazards": [
        "BR"
      ],
      "severityScore": 45,
      "metarRaw": "METAR EKBI 181020Z 10009KT 4200 BR BKN004 02/02 Q1026",
      "tafRaw": "TAF EKBI 180827Z 1809/1909 11010KT 2000 BR BKN003 \n  TEMPO 1809/1902 5000 BKN005 \n  FM190200 12008KT 6000 SCT006 \n  TEMPO 1902/1906 3000 BR"
    },
    {
      "icao": "ESSA",
      "iata": "ARN",
      "name": "Stockholm-Arlanda Airport",
      "updatedAt": "181020Z",
      "visibility_m": 3000,
      "taf_visibility_m": 2500,
      "worst_visibility_m": 2500,
      "ceiling_ft": 300,
      "hazards": [
        "BR"
      ],
      "severityScore": 45,
      "metarRaw": "METAR ESSA 181020Z 17007KT 5000 BR OVC003 01/01 Q1034 TEMPO 3000 BR BKN005",
      "tafRaw": "TAF ESSA 180830Z 1809/1909 16005KT 5000 BKN003 \n  TEMPO 1809/1822 2500 BR BKN010 \n  BECMG 1822/1824 BKN015 \n  PROB40 1900/1909 BKN012"
    },
    {
      "icao": "OMAA",
      "iata": "AUH",
      "name": "Zayed International Airport",
      "updatedAt": "181000Z",
      "visibility_m": 10000,
      "taf_visibility_m": 1200,
      "worst_visibility_m": 1200,
      "ceiling_ft": 500,
      "hazards": [
        "BR"
      ],
      "severityScore": 45,
      "metarRaw": "METAR OMAA 181000Z 28009KT 250V330 9999 FEW035 22/12 Q1015 NOSIG",
      "tafRaw": "TAF OMAA 180500Z 1806/1912 21005KT 9999 FEW040 \n  BECMG 1806/1808 34011KT \n  BECMG 1814/1816 22005KT \n  PROB40 1822/1905 4000 HZ \n  PROB30 1900/1905 1200 BR BKN005 \n  BECMG 1910/1912 34010KT"
    },
    {
      "icao": "ENGM",
      "iata": "OSL",
      "name": "Oslo-Gardermoen International Airport",
      "updatedAt": "181020Z",
      "visibility_m": 10000,
      "taf_visibility_m": null,
      "worst_visibility_m": 10000,
      "ceiling_ft": 400,
      "hazards": [],
      "severityScore": 40,
      "metarRaw": "METAR ENGM 181020Z 04004KT 9999 SCT003 BKN006 00/M01 Q1031 TEMPO BKN004",
      "tafRaw": null
    },
    {
      "icao": "LFBD",
      "iata": "BOD",
      "name": "Bordeaux–Mérignac Airport",
      "updatedAt": "181000Z",
      "visibility_m": 10000,
      "taf_visibility_m": null,
      "worst_visibility_m": 10000,
      "ceiling_ft": 300,
      "hazards": [],
      "severityScore": 40,
      "metarRaw": "METAR LFBD 181000Z AUTO 16004KT 9999 OVC006 10/10 Q1012 TEMPO OVC003",
      "tafRaw": null
    },
    {
      "icao": "LRCV",
      "iata": "CRA",
      "name": "Craiova International Airport",
      "updatedAt": "181000Z",
      "visibility_m": 9000,
      "taf_visibility_m": 3000,
      "worst_visibility_m": 3000,
      "ceiling_ft": 1200,
      "hazards": [
        "SN",
        "BR"
      ],
      "severityScore": 40,
      "metarRaw": "METAR LRCV 181000Z 15005KT 9000 -SN BKN012 BKN035 M08/M10 Q1039",
      "tafRaw": "TAF LRCV 180800Z 1809/1818 15007KT 3000 -SN BR BKN010 OVC025 \n  BECMG 1809/1811 9999 NSW BKN020"
    },
    {
      "icao": "LPPS",
      "iata": "PXO",
      "name": "Porto Santo Airport",
      "updatedAt": "181000Z",
      "visibility_m": 10000,
      "taf_visibility_m": 8000,
      "worst_visibility_m": 8000,
      "ceiling_ft": 1200,
      "hazards": [
        "SHRA",
        "RA"
      ],
      "severityScore": 38,
      "metarRaw": "METAR LPPS 181000Z 36020KT 9999 SCT014 15/11 Q1018",
      "tafRaw": "TAF LPPS 180500Z 1806/1912 01018KT 9999 SCT015 SCT030 \n  TEMPO 1806/1818 36020G33KT 8000 SHRA BKN012"
    },
    {
      "icao": "UBBB",
      "iata": "GYD",
      "name": "Heydar Aliyev International Airport",
      "updatedAt": "181000Z",
      "visibility_m": 10000,
      "taf_visibility_m": 6000,
      "worst_visibility_m": 6000,
      "ceiling_ft": 1800,
      "hazards": [
        "SHRA",
        "RA"
      ],
      "severityScore": 38,
      "metarRaw": "METAR UBBB 181000Z 03010KT 9999 OVC018 06/03 Q1028 NOSIG",
      "tafRaw": "TAF UBBB 180502Z 1806/1906 02012KT 9999 BKN008 OVC025 TX05/1808Z TN01/1901Z \n  TEMPO 1806/1810 35012KT 6000 -SHRA BKN006 SCT017CB OVC017 \n  TEMPO 1810/1818 06014KT OVC020 \n  TEMPO 1818/1906 05016KT"
    },
    {
      "icao": "UDYZ",
      "iata": "EVN",
      "name": "Zvartnots International Airport",
      "updatedAt": "181000Z",
      "visibility_m": 8000,
      "taf_visibility_m": 1000,
      "worst_visibility_m": 1000,
      "ceiling_ft": 4300,
      "hazards": [
        "BR",
        "SN"
      ],
      "severityScore": 38,
      "metarRaw": "METAR UDYZ 181000Z VRB02KT 8000 BKN043 01/M04 Q1019 NOSIG",
      "tafRaw": "TAF UDYZ 180500Z 1806/1906 VRB04KT 3500 BR BKN030 \n  TEMPO 1806/1815 1000 SN BR BKN007"
    },
    {
      "icao": "EKCH",
      "iata": "CPH",
      "name": "Copenhagen Kastrup Airport",
      "updatedAt": "181020Z",
      "visibility_m": 5000,
      "taf_visibility_m": 3000,
      "worst_visibility_m": 3000,
      "ceiling_ft": 800,
      "hazards": [
        "BR"
      ],
      "severityScore": 35,
      "metarRaw": "METAR EKCH 181020Z 11010KT 5000 BKN008 03/02 Q1030 BECMG 9999 NSW FEW008",
      "tafRaw": "TAF EKCH 180827Z 1809/1909 11012KT 3000 BR BKN005 \n  BECMG 1809/1811 9000 NSW SCT008"
    },
    {
      "icao": "OMDB",
      "iata": "DXB",
      "name": "Dubai International Airport",
      "updatedAt": "181000Z",
      "visibility_m": 10000,
      "taf_visibility_m": 3000,
      "worst_visibility_m": 3000,
      "ceiling_ft": 800,
      "hazards": [
        "BR"
      ],
      "severityScore": 35,
      "metarRaw": "METAR OMDB 181000Z 30012KT 240V320 9999 SCT040 23/12 Q1015 NOSIG",
      "tafRaw": "TAF OMDB 180500Z 1806/1912 20005KT 8000 SCT040 \n  BECMG 1806/1808 28010KT \n  BECMG 1816/1818 18005KT \n  PROB30 1900/1906 3000 BR BKN008 \n  BECMG 1908/1910 30010KT"
    },
    {
      "icao": "ENBR",
      "iata": "BGO",
      "name": "Bergen Airport, Flesland",
      "updatedAt": "181020Z",
      "visibility_m": 10000,
      "taf_visibility_m": 3000,
      "worst_visibility_m": 3000,
      "ceiling_ft": 1000,
      "hazards": [
        "BR",
        "RA"
      ],
      "severityScore": 34,
      "metarRaw": "METAR ENBR 181020Z 06002KT 9999 SCT011 BKN020 04/04 Q1026 TEMPO BKN010 RMK WIND 1200FT 24006KT",
      "tafRaw": "TAF ENBR 180500Z 1806/1906 VRB05KT 9999 -RA FEW012 BKN025 \n  PROB30 \n  TEMPO 1806/1810 RA BKN014 \n  PROB30 1810/1822 3000 BR OVC005"
    },
    {
      "icao": "EDDS",
      "iata": "STR",
      "name": "Stuttgart Airport",
      "updatedAt": "181020Z",
      "visibility_m": 10000,
      "taf_visibility_m": null,
      "worst_visibility_m": 10000,
      "ceiling_ft": 900,
      "hazards": [],
      "severityScore": 30,
      "metarRaw": "METAR EDDS 181020Z AUTO VRB02KT 9999 BKN009 01/M01 Q1019 BECMG OVC010",
      "tafRaw": null
    },
    {
      "icao": "EHEH",
      "iata": "EIN",
      "name": "Eindhoven Airport",
      "updatedAt": "180955Z",
      "visibility_m": 10000,
      "taf_visibility_m": 3000,
      "worst_visibility_m": 3000,
      "ceiling_ft": null,
      "hazards": [
        "BR",
        "FG"
      ],
      "severityScore": 30,
      "metarRaw": "METAR EHEH 180955Z AUTO 11004KT 080V190 9999 NCD 04/01 Q1021 BLU NOSIG RMK TREND REMOTE BY EHWX",
      "tafRaw": "TAF EHEH 180508Z 1806/1912 08004KT CAVOK \n  PROB40 1806/1808 3000 BR MIFG \n  BECMG 1900/1902 13004KT \n  PROB30 \n  TEMPO 1822/1909 4000 BR MIFG"
    },
    {
      "icao": "LBWN",
      "iata": "VAR",
      "name": "Varna Airport",
      "updatedAt": "181000Z",
      "visibility_m": 10000,
      "taf_visibility_m": 5000,
      "worst_visibility_m": 5000,
      "ceiling_ft": 1500,
      "hazards": [
        "SN"
      ],
      "severityScore": 30,
      "metarRaw": "METAR LBWN 181000Z AUTO 31012KT 9999 OVC037/// M06/M11 Q1036 NOSIG",
      "tafRaw": "TAF LBWN 180500Z 1806/1906 35015KT 9999 BKN025 OVC040 \n  PROB30 \n  TEMPO 1806/1816 34016G26KT 5000 -SN BKN015 OVC030 \n  TEMPO 1816/1901 35015G25KT"
    },
    {
      "icao": "LFOB",
      "iata": "BVA",
      "name": "Beauvais Tillé airport",
      "updatedAt": "181000Z",
      "visibility_m": 10000,
      "taf_visibility_m": 2000,
      "worst_visibility_m": 2000,
      "ceiling_ft": 8000,
      "hazards": [
        "BR",
        "FG"
      ],
      "severityScore": 30,
      "metarRaw": "METAR LFOB 181000Z AUTO VRB01KT CAVOK 07/06 Q1018 NOSIG",
      "tafRaw": "TAF LFOB 180500Z 1806/1906 10005KT 9999 FEW045 BKN080 \n  PROB40 1821/1906 4000 BR \n  PROB30 1823/1906 2000 BR BCFG"
    },
    {
      "icao": "LTAC",
      "iata": "ESB",
      "name": "Esenboğa International Airport",
      "updatedAt": "181020Z",
      "visibility_m": 10000,
      "taf_visibility_m": 10000,
      "worst_visibility_m": 10000,
      "ceiling_ft": 3000,
      "hazards": [
        "SN",
        "SHSN"
      ],
      "severityScore": 28,
      "metarRaw": "METAR LTAC 181020Z 30010KT 280V340 9999 SCT039 SCT080 M01/M10 Q1020 NOSIG",
      "tafRaw": "TAF LTAC 180440Z 1806/1906 VRB02KT 9999 SCT040 SCT100 \n  TEMPO 1806/1809 -SN BKN030 BKN080 \n  TEMPO 1811/1815 32015KT -SHSN BKN030 BKN080"
    },
    {
      "icao": "GMAD",
      "iata": "AGA",
      "name": "Al Massira Airport",
      "updatedAt": "181000Z",
      "visibility_m": 4000,
      "taf_visibility_m": 4000,
      "worst_visibility_m": 4000,
      "ceiling_ft": 8000,
      "hazards": [
        "RA",
        "SHRA"
      ],
      "severityScore": 26,
      "metarRaw": "METAR GMAD 181000Z 08005KT 4000 R27/1900N -RA SCT020 SCT026 BKN080 11/11 Q1006 NOSIG",
      "tafRaw": "TAF GMAD 180500Z 1806/1912 24008KT 8000 SCT020 BKN080 \n  TEMPO 1806/1812 4000 SHRA BKN013TCU"
    },
    {
      "icao": "GMMX",
      "iata": "RAK",
      "name": "Menara Airport",
      "updatedAt": "181000Z",
      "visibility_m": 8000,
      "taf_visibility_m": 3000,
      "worst_visibility_m": 3000,
      "ceiling_ft": 2300,
      "hazards": [
        "RA",
        "SHRA"
      ],
      "severityScore": 26,
      "metarRaw": "METAR GMMX 181000Z 27008KT 8000 -RA SCT013 BKN023 FEW026CB 08/07 Q1006 NOSIG",
      "tafRaw": "TAF GMMX 180500Z 1806/1912 22007KT 8000 BKN023 SCT080 \n  TEMPO 1807/1813 32018KT 3000 SHRA SCT013 BKN020 SCT026TCU \n  TEMPO 1815/1822 4000 RA SCT016 BKN023 FEW030CB"
    },
    {
      "icao": "LEVC",
      "iata": "VLC",
      "name": "Valencia Airport",
      "updatedAt": "181000Z",
      "visibility_m": 10000,
      "taf_visibility_m": 3000,
      "worst_visibility_m": 3000,
      "ceiling_ft": 2000,
      "hazards": [
        "RA",
        "SHRA"
      ],
      "severityScore": 26,
      "metarRaw": "METAR LEVC 181000Z VRB02KT 9999 FEW018 SCT020 09/03 Q1012 NOSIG",
      "tafRaw": "TAF LEVC 180500Z 1806/1906 27007KT 9999 FEW020 TX14/1812Z TN04/1906Z \n  BECMG 1812/1814 08007KT \n  BECMG 1818/1820 30008KT \n  PROB40 \n  TEMPO 1818/1821 3000 RA SHRA BKN020 FEW030TCU \n  TEMPO 1821/1824 3000 RA SHRA BKN020 FEW030TCU"
    },
    {
      "icao": "GCTS",
      "iata": "TFS",
      "name": "Tenerife Sur Airport",
      "updatedAt": "181000Z",
      "visibility_m": 10000,
      "taf_visibility_m": 10000,
      "worst_visibility_m": 10000,
      "ceiling_ft": null,
      "hazards": [
        "TS"
      ],
      "severityScore": 25,
      "metarRaw": "METAR GCTS 181000Z VRB01KT 9999 SCT040 19/10 Q1017 NOSIG",
      "tafRaw": "TAF GCTS 180800Z 1809/1909 VRB05KT 9999 SCT030 TX22/1814Z TN15/1906Z \n  TEMPO 1814/1816 12010KT \n  BECMG 1815/1817 05012KT"
    },
    {
      "icao": "EDDK",
      "iata": "CGN",
      "name": "Cologne Bonn Airport",
      "updatedAt": "181020Z",
      "visibility_m": 10000,
      "taf_visibility_m": 10000,
      "worst_visibility_m": 10000,
      "ceiling_ft": 800,
      "hazards": [],
      "severityScore": 25,
      "metarRaw": "METAR EDDK 181020Z AUTO 13008KT 080V160 9999 OVC008 02/M01 Q1022 BECMG BKN010",
      "tafRaw": "TAF EDDK 180500Z 1806/1912 12007KT 9999 OVC006 \n  BECMG 1808/1812 CAVOK"
    },
    {
      "icao": "EDDN",
      "iata": "NUE",
      "name": "Nuremberg Airport",
      "updatedAt": "181020Z",
      "visibility_m": 10000,
      "taf_visibility_m": 10000,
      "worst_visibility_m": 10000,
      "ceiling_ft": 800,
      "hazards": [],
      "severityScore": 25,
      "metarRaw": "METAR EDDN 181020Z AUTO 09009KT 060V120 CAVOK 03/M01 Q1022 NOSIG",
      "tafRaw": "TAF EDDN 180500Z 1806/1906 10007KT 9999 OVC008 \n  TEMPO 1806/1810 OVC010 \n  BECMG 1810/1812 FEW010"
    },
    {
      "icao": "EDNY",
      "iata": "FDH",
      "name": "Friedrichshafen Airport",
      "updatedAt": "181020Z",
      "visibility_m": 8000,
      "taf_visibility_m": 10000,
      "worst_visibility_m": 8000,
      "ceiling_ft": 800,
      "hazards": [],
      "severityScore": 25,
      "metarRaw": "METAR EDNY 181020Z 35004KT 320V030 8000 OVC008 M00/M02 Q1020",
      "tafRaw": "TAF EDNY 180800Z 1809/1818 02005KT 9999 OVC008 \n  PROB30 \n  TEMPO 1813/1818 FEW010"
    },
    {
      "icao": "ENZV",
      "iata": "SVG",
      "name": "Stavanger Airport, Sola",
      "updatedAt": "181020Z",
      "visibility_m": 10000,
      "taf_visibility_m": null,
      "worst_visibility_m": 10000,
      "ceiling_ft": null,
      "hazards": [
        "FG"
      ],
      "severityScore": 25,
      "metarRaw": "METAR ENZV 181020Z VRB02KT 9999 R18/1400U R36/P2000N R10/P2000N BCFG NSC 02/02 Q1026 BECMG NSW",
      "tafRaw": null
    },
    {
      "icao": "LGTS",
      "iata": "SKG",
      "name": "Thessaloniki Macedonia International Airport",
      "updatedAt": "181020Z",
      "visibility_m": 10000,
      "taf_visibility_m": 10000,
      "worst_visibility_m": 10000,
      "ceiling_ft": 3000,
      "hazards": [
        "TS"
      ],
      "severityScore": 25,
      "metarRaw": "METAR LGTS 181020Z 10003KT 9999 FEW020 SCT035 07/M01 Q1031 NOSIG",
      "tafRaw": "TAF LGTS 180500Z 1806/1906 09007KT 9999 FEW015 BKN030"
    },
    {
      "icao": "LQSA",
      "iata": "SJJ",
      "name": "Sarajevo International Airport",
      "updatedAt": "181000Z",
      "visibility_m": 1500,
      "taf_visibility_m": null,
      "worst_visibility_m": 1500,
      "ceiling_ft": 2000,
      "hazards": [
        "BR"
      ],
      "severityScore": 25,
      "metarRaw": "METAR LQSA 181000Z VRB02KT 1500 BR FEW004 OVC020 01/01 Q1029 BECMG 3000",
      "tafRaw": null
    },
    {
      "icao": "GMMN",
      "iata": "CMN",
      "name": "Mohammed V International Airport",
      "updatedAt": "181000Z",
      "visibility_m": 8000,
      "taf_visibility_m": 2000,
      "worst_visibility_m": 2000,
      "ceiling_ft": 1700,
      "hazards": [
        "RA"
      ],
      "severityScore": 24,
      "metarRaw": "METAR GMMN 181000Z 02004KT 8000 -RA BKN017 FEW023TCU 08/07 Q1006 NOSIG",
      "tafRaw": "TAF GMMN 180500Z 1806/1912 22008KT 9999 SCT020 SCT030 \n  TEMPO 1806/1812 2000 RA BKN010 BKN026TCU \n  BECMG 1811/1813 33013KT SCT020 FEW030CB \n  BECMG 1818/1820 21005KT"
    },
    {
      "icao": "LEBB",
      "iata": "BIO",
      "name": "Bilbao Airport",
      "updatedAt": "181000Z",
      "visibility_m": 3000,
      "taf_visibility_m": 3000,
      "worst_visibility_m": 3000,
      "ceiling_ft": 1300,
      "hazards": [
        "RA"
      ],
      "severityScore": 24,
      "metarRaw": "METAR LEBB 181000Z 10003KT 080V140 6000 -RA FEW010 BKN013 09/09 Q1014 TEMPO 3000 RA",
      "tafRaw": "TAF LEBB 180500Z 1806/1906 29008KT 9000 FEW010 BKN020 TX10/1814Z TN08/1806Z \n  TEMPO 1806/1815 3000 RA BKN010 \n  PROB30 \n  TEMPO 1815/1820 RA \n  PROB40 \n  TEMPO 1820/1906 RA"
    },
    {
      "icao": "LEXJ",
      "iata": "SDR",
      "name": "Seve Ballesteros-Santander Airport",
      "updatedAt": "181000Z",
      "visibility_m": 10000,
      "taf_visibility_m": 3000,
      "worst_visibility_m": 3000,
      "ceiling_ft": 1500,
      "hazards": [
        "RA"
      ],
      "severityScore": 24,
      "metarRaw": "METAR LEXJ 181000Z 22010KT 9999 BKN015 08/07 Q1014 RERA",
      "tafRaw": "TAF LEXJ 180800Z 1809/1909 25009KT 9999 FEW015 BKN040 TX11/1815Z TN08/1909Z \n  TEMPO 1809/1815 3000 RA BKN010 \n  PROB40 \n  TEMPO 1815/1909 RA"
    },
    {
      "icao": "ENHD",
      "iata": "HAU",
      "name": "Haugesund Airport, Karmøy",
      "updatedAt": "181020Z",
      "visibility_m": 10000,
      "taf_visibility_m": 4000,
      "worst_visibility_m": 4000,
      "ceiling_ft": 1000,
      "hazards": [
        "BR"
      ],
      "severityScore": 22,
      "metarRaw": "METAR ENHD 181020Z 15003KT 120V180 9999 BKN010 05/04 Q1026",
      "tafRaw": "TAF ENHD 180800Z 1809/1818 15005KT 9999 SCT012 \n  PROB30 1809/1812 4000 BR OVC008"
    },
    {
      "icao": "LIBP",
      "iata": "PSR",
      "name": "Abruzzo Airport",
      "updatedAt": "181020Z",
      "visibility_m": 10000,
      "taf_visibility_m": 2000,
      "worst_visibility_m": 2000,
      "ceiling_ft": 1000,
      "hazards": [
        "BR"
      ],
      "severityScore": 22,
      "metarRaw": "METAR LIBP 181020Z AUTO 05003KT 010V110 9999 FEW015/// 12/09 Q1024",
      "tafRaw": "TAF LIBP 180500Z 1806/1906 VRB05KT 2000 BR BKN010 \n  BECMG 1806/1808 7000 FEW010 \n  BECMG 1810/1812 08010KT \n  BECMG 1816/1818 VRB05KT"
    },
    {
      "icao": "EHBK",
      "iata": "MST",
      "name": "Maastricht Aachen Airport",
      "updatedAt": "180955Z",
      "visibility_m": 10000,
      "taf_visibility_m": 7000,
      "worst_visibility_m": 7000,
      "ceiling_ft": null,
      "hazards": [
        "FG"
      ],
      "severityScore": 20,
      "metarRaw": "METAR EHBK 180955Z AUTO 08008KT 9999 NSC 04/02 Q1019 NOSIG",
      "tafRaw": "TAF EHBK 180518Z 1806/1912 08005KT CAVOK \n  PROB30 1818/1906 7000 MIFG"
    },
    {
      "icao": "HESX",
      "iata": "SPX",
      "name": "Sphinx International Airport",
      "updatedAt": "181000Z",
      "visibility_m": 10000,
      "taf_visibility_m": 1000,
      "worst_visibility_m": 1000,
      "ceiling_ft": null,
      "hazards": [
        "BR"
      ],
      "severityScore": 20,
      "metarRaw": "METAR HESX 181000Z 31008KT CAVOK 18/09 Q1018",
      "tafRaw": "TAF HESX 180500Z 1806/1912 33009KT CAVOK \n  TEMPO 1806/1809 VRB03KT 3000 BR NSC \n  PROB40 \n  TEMPO 1806/1808 1000"
    },
    {
      "icao": "LIBD",
      "iata": "BRI",
      "name": "Bari Karol Wojtyła International Airport",
      "updatedAt": "181020Z",
      "visibility_m": 1500,
      "taf_visibility_m": 7000,
      "worst_visibility_m": 1500,
      "ceiling_ft": null,
      "hazards": [
        "BR"
      ],
      "severityScore": 20,
      "metarRaw": "METAR LIBD 181020Z 33004KT 300V360 1500 R07/0900N BR FEW003 10/10 Q1024",
      "tafRaw": "TAF LIBD 180500Z 1806/1906 VRB05KT 7000 FEW015 \n  BECMG 1810/1812 09010KT"
    },
    {
      "icao": "LRBS",
      "iata": "BBU",
      "name": "Bucharest Băneasa Aurel Vlaicu International Airport",
      "updatedAt": "181000Z",
      "visibility_m": 7000,
      "taf_visibility_m": 5000,
      "worst_visibility_m": 5000,
      "ceiling_ft": 2200,
      "hazards": [
        "SN"
      ],
      "severityScore": 18,
      "metarRaw": "METAR LRBS 181000Z COR 30005KT 240V350 7000 -SN BKN022 M06/M11 Q1039 NOSIG",
      "tafRaw": "TAF LRBS 180500Z 1806/1906 07011KT 9999 SCT020 BKN045 \n  PROB40 \n  TEMPO 1806/1811 5000 -SN BKN015 OVC025 \n  BECMG 1808/1810 VRB04KT \n  PROB40 \n  TEMPO 1814/1821 5000 -SN BKN015 BKN030"
    },
    {
      "icao": "LROP",
      "iata": "OTP",
      "name": "Bucharest Henri Coandă International Airport",
      "updatedAt": "181000Z",
      "visibility_m": 7000,
      "taf_visibility_m": 5000,
      "worst_visibility_m": 5000,
      "ceiling_ft": 3000,
      "hazards": [
        "SN"
      ],
      "severityScore": 18,
      "metarRaw": "METAR LROP 181000Z 27005KT 230V330 7000 -SN BKN030 M06/M13 Q1039 NOSIG",
      "tafRaw": "TAF LROP 180500Z 1806/1906 07011KT 9999 SCT020 BKN045 \n  PROB40 \n  TEMPO 1806/1811 5000 -SN BKN015 OVC025 \n  BECMG 1808/1810 VRB04KT \n  PROB40 \n  TEMPO 1814/1821 5000 -SN BKN015 BKN030"
    },
    {
      "icao": "EDSB",
      "iata": "FKB",
      "name": "Karlsruhe Baden-Baden Airport",
      "updatedAt": "181020Z",
      "visibility_m": 7000,
      "taf_visibility_m": null,
      "worst_visibility_m": 7000,
      "ceiling_ft": 1500,
      "hazards": [],
      "severityScore": 17,
      "metarRaw": "METAR EDSB 181020Z 18004KT 140V200 7000 FEW007 SCT011 OVC015 01/M00 Q1021",
      "tafRaw": null
    },
    {
      "icao": "LFSB",
      "iata": "BSL",
      "name": "EuroAirport Basel–Mulhouse–Freiburg",
      "updatedAt": "181000Z",
      "visibility_m": 10000,
      "taf_visibility_m": null,
      "worst_visibility_m": 10000,
      "ceiling_ft": 1100,
      "hazards": [],
      "severityScore": 17,
      "metarRaw": "METAR LFSB 181000Z AUTO 09006KT 9999 OVC011 01/M01 Q1020 BECMG SCT015",
      "tafRaw": null
    },
    {
      "icao": "LPMA",
      "iata": "FNC",
      "name": "Madeira International Airport Cristiano Ronaldo",
      "updatedAt": "181000Z",
      "visibility_m": 10000,
      "taf_visibility_m": null,
      "worst_visibility_m": 10000,
      "ceiling_ft": 1400,
      "hazards": [],
      "severityScore": 17,
      "metarRaw": "METAR LPMA 181000Z 01024G40KT 330V050 9999 BKN014 16/10 Q1017",
      "tafRaw": null
    },
    {
      "icao": "GCFV",
      "iata": "FUE",
      "name": "Fuerteventura Airport",
      "updatedAt": "181000Z",
      "visibility_m": 10000,
      "taf_visibility_m": 4500,
      "worst_visibility_m": 4500,
      "ceiling_ft": 2500,
      "hazards": [
        "RA"
      ],
      "severityScore": 12,
      "metarRaw": "METAR GCFV 181000Z 31020KT 280V340 9999 FEW020 SCT025 19/15 Q1014",
      "tafRaw": "TAF GCFV 180800Z 1809/1909 35020KT 9999 BKN025 TX20/1814Z TN14/1906Z \n  TEMPO 1810/1822 35020G30KT \n  PROB30 \n  TEMPO 1809/1812 4500 RA FEW035TCU"
    },
    {
      "icao": "EDDH",
      "iata": "HAM",
      "name": "Hamburg Helmut Schmidt Airport",
      "updatedAt": "181020Z",
      "visibility_m": 10000,
      "taf_visibility_m": 10000,
      "worst_visibility_m": 10000,
      "ceiling_ft": 1200,
      "hazards": [],
      "severityScore": 12,
      "metarRaw": "METAR EDDH 181020Z AUTO 11011KT 080V150 9999 OVC012 03/01 Q1025 BECMG FEW015",
      "tafRaw": "TAF EDDH 180500Z 1806/1912 12008KT 9999 BKN013 \n  TEMPO 1806/1811 BKN015 \n  PROB30 \n  TEMPO 1806/1810 BKN007 \n  BECMG 1811/1814 FEW015"
    },
    {
      "icao": "EPRA",
      "iata": "RDO",
      "name": "Warsaw Radom Airport",
      "updatedAt": "181000Z",
      "visibility_m": 10000,
      "taf_visibility_m": 10000,
      "worst_visibility_m": 10000,
      "ceiling_ft": null,
      "hazards": [
        "RA"
      ],
      "severityScore": 12,
      "metarRaw": "METAR EPRA 181000Z 11006KT 080V140 CAVOK M11/M14 Q1036",
      "tafRaw": "TAF EPRA 180830Z 1809/1818 12010KT CAVOK"
    },
    {
      "icao": "LFMN",
      "iata": "NCE",
      "name": "Nice-Côte d'Azur Airport",
      "updatedAt": "181000Z",
      "visibility_m": 10000,
      "taf_visibility_m": 10000,
      "worst_visibility_m": 10000,
      "ceiling_ft": 6300,
      "hazards": [
        "RA"
      ],
      "severityScore": 12,
      "metarRaw": "METAR LFMN 181000Z 09026KT 9999 -RA BKN063 BKN100 16/07 Q1018 NOSIG",
      "tafRaw": "TAF LFMN 180800Z 1809/1915 08025KT 9999 OVC060 \n  PROB30 \n  TEMPO 1812/1817 06015KT RA \n  BECMG 1817/1819 06015KT \n  BECMG 1905/1907 08017G27KT \n  PROB40 1909/1915 08025KT"
    },
    {
      "icao": "LGAV",
      "iata": "ATH",
      "name": "Athens Eleftherios Venizelos International Airport",
      "updatedAt": "181020Z",
      "visibility_m": 10000,
      "taf_visibility_m": 5000,
      "worst_visibility_m": 5000,
      "ceiling_ft": 3000,
      "hazards": [
        "RA"
      ],
      "severityScore": 12,
      "metarRaw": "METAR LGAV 181020Z 01016KT 9999 BKN030 06/M02 Q1028 NOSIG",
      "tafRaw": "TAF LGAV 180500Z 1806/1906 03015G25KT 9999 FEW020 SCT030 \n  TEMPO 1806/1906 03020G30KT SCT018 BKN030 \n  PROB30 \n  TEMPO 1818/1906 5000 RA FEW018 BKN020 BKN070"
    },
    {
      "icao": "LICA",
      "iata": "SUF",
      "name": "Lamezia Terme Sant'Eufemia International Airport",
      "updatedAt": "181020Z",
      "visibility_m": 10000,
      "taf_visibility_m": 4000,
      "worst_visibility_m": 4000,
      "ceiling_ft": 4000,
      "hazards": [
        "RA"
      ],
      "severityScore": 12,
      "metarRaw": "METAR LICA 181020Z AUTO 06010KT 9999 -RA OVC032/// 14/12 Q1021",
      "tafRaw": "TAF LICA 180500Z 1806/1906 08018KT 9999 BKN040 \n  PROB30 \n  TEMPO 1808/1818 4000 RA"
    },
    {
      "icao": "LICC",
      "iata": "CTA",
      "name": "Catania-Fontanarossa Airport",
      "updatedAt": "181020Z",
      "visibility_m": 10000,
      "taf_visibility_m": 10000,
      "worst_visibility_m": 10000,
      "ceiling_ft": 4000,
      "hazards": [
        "RA"
      ],
      "severityScore": 12,
      "metarRaw": "METAR LICC 181020Z 06007KT 9999 FEW015 SCT030 17/15 Q1019",
      "tafRaw": "TAF LICC 180500Z 1806/1906 08014KT 9999 SCT015 BKN040 \n  TEMPO 1806/1906 RA"
    },
    {
      "icao": "LIMF",
      "iata": "TRN",
      "name": "Turin Airport",
      "updatedAt": "181020Z",
      "visibility_m": 10000,
      "taf_visibility_m": 4000,
      "worst_visibility_m": 4000,
      "ceiling_ft": 2000,
      "hazards": [
        "RA"
      ],
      "severityScore": 12,
      "metarRaw": "METAR LIMF 181020Z 02004KT 9999 -RA BKN020 OVC040 08/06 Q1025",
      "tafRaw": "TAF LIMF 180500Z 1806/1906 30007KT 4000 -RA OVC030"
    },
    {
      "icao": "LMML",
      "iata": "MLA",
      "name": "Malta International Airport",
      "updatedAt": "181015Z",
      "visibility_m": 10000,
      "taf_visibility_m": 10000,
      "worst_visibility_m": 10000,
      "ceiling_ft": 1400,
      "hazards": [],
      "severityScore": 12,
      "metarRaw": "METAR LMML 181015Z 12012KT 9999 FEW016 16/13 Q1018 NOSIG",
      "tafRaw": "TAF LMML 180500Z 1806/1906 16012KT 9999 SCT018 \n  BECMG 1816/1819 14022G32KT \n  PROB40 \n  TEMPO 1818/1906 BKN014 \n  BECMG 1901/1904 11028G48KT"
    },
    {
      "icao": "LUKK",
      "iata": "RMO",
      "name": "Chişinău International Airport",
      "updatedAt": "181000Z",
      "visibility_m": 10000,
      "taf_visibility_m": 10000,
      "worst_visibility_m": 10000,
      "ceiling_ft": 1500,
      "hazards": [],
      "severityScore": 12,
      "metarRaw": "METAR LUKK 181000Z 36012KT 9999 FEW016 SCT037 M09/M13 Q1039 TEMPO BKN015",
      "tafRaw": "TAF LUKK 180522Z 1806/1906 01010KT CAVOK \n  BECMG 1809/1811 BKN015 \n  TEMPO 1820/1906 OVC006"
    },
    {
      "icao": "EPKT",
      "iata": "KTW",
      "name": "Katowice Wojciech Korfanty International Airport",
      "updatedAt": "181000Z",
      "visibility_m": 9000,
      "taf_visibility_m": 2500,
      "worst_visibility_m": 2500,
      "ceiling_ft": null,
      "hazards": [
        "BR"
      ],
      "severityScore": 10,
      "metarRaw": "METAR EPKT 181000Z 13004KT 9000 NSC M03/M08 Q1032",
      "tafRaw": "TAF EPKT 180530Z 1806/1906 10007KT CAVOK \n  PROB40 1806/1808 4000 BR \n  TEMPO 1818/1906 2500 BR"
    },
    {
      "icao": "EYKA",
      "iata": "KUN",
      "name": "Kaunas International Airport",
      "updatedAt": "181020Z",
      "visibility_m": 10000,
      "taf_visibility_m": 5000,
      "worst_visibility_m": 5000,
      "ceiling_ft": null,
      "hazards": [
        "BR"
      ],
      "severityScore": 10,
      "metarRaw": "METAR EYKA 181020Z 18006KT 130V230 CAVOK M12/M15 Q1042",
      "tafRaw": "TAF EYKA 180500Z 1806/1906 16006KT 8000 NSC \n  TEMPO 1806/1808 5000 BR SCT002"
    },
    {
      "icao": "EYVI",
      "iata": "VNO",
      "name": "Vilnius International Airport",
      "updatedAt": "181020Z",
      "visibility_m": 10000,
      "taf_visibility_m": 5000,
      "worst_visibility_m": 5000,
      "ceiling_ft": null,
      "hazards": [
        "BR"
      ],
      "severityScore": 10,
      "metarRaw": "METAR EYVI 181020Z 18005KT CAVOK M13/M16 Q1041 NOSIG",
      "tafRaw": "TAF EYVI 180500Z 1806/1906 17007KT 8000 NSC \n  TEMPO 1806/1808 5000 BR SCT002"
    },
    {
      "icao": "LFLS",
      "iata": "GNB",
      "name": "Grenoble Alpes Isère Airport",
      "updatedAt": "181000Z",
      "visibility_m": 10000,
      "taf_visibility_m": 4000,
      "worst_visibility_m": 4000,
      "ceiling_ft": null,
      "hazards": [
        "BR"
      ],
      "severityScore": 10,
      "metarRaw": "METAR LFLS 181000Z AUTO 09004KT CAVOK 06/04 Q1017 NOSIG",
      "tafRaw": "TAF LFLS 180800Z 1809/1909 08005KT CAVOK \n  PROB30 \n  TEMPO 1903/1909 4000 BR"
    },
    {
      "icao": "LIBG",
      "iata": "TAR",
      "name": "Taranto-Grottaglie Marcello Arlotta Airport",
      "updatedAt": "180950Z",
      "visibility_m": 10000,
      "taf_visibility_m": 10000,
      "worst_visibility_m": 10000,
      "ceiling_ft": null,
      "hazards": [
        "DZ"
      ],
      "severityScore": 10,
      "metarRaw": "METAR LIBG 180950Z 10005KT CAVOK 14/14 Q1023",
      "tafRaw": "TAF LIBG 180800Z 1809/1818 VRB06KT 9999 FEW020 \n  PROB40 \n  TEMPO 1815/1818 DZ"
    },
    {
      "icao": "LIBR",
      "iata": "BDS",
      "name": "Brindisi Airport",
      "updatedAt": "181020Z",
      "visibility_m": 10000,
      "taf_visibility_m": 10000,
      "worst_visibility_m": 10000,
      "ceiling_ft": null,
      "hazards": [
        "BR"
      ],
      "severityScore": 10,
      "metarRaw": "METAR LIBR 181020Z 21005KT 9999 FEW035 14/08 Q1023",
      "tafRaw": "TAF LIBR 180500Z 1806/1906 VRB05KT CAVOK \n  BECMG 1810/1812 13010KT \n  BECMG 1816/1818 VRB05KT"
    },
    {
      "icao": "LIMC",
      "iata": "MXP",
      "name": "Milan Malpensa International Airport",
      "updatedAt": "181020Z",
      "visibility_m": 9000,
      "taf_visibility_m": 7000,
      "worst_visibility_m": 7000,
      "ceiling_ft": 8500,
      "hazards": [
        "DZ"
      ],
      "severityScore": 10,
      "metarRaw": "METAR LIMC 181020Z 05004KT 020V080 9000 BKN085 09/05 Q1025 NOSIG",
      "tafRaw": "TAF LIMC 180500Z 1806/1912 VRB04KT 7000 BKN040 \n  TEMPO 1806/1812 DZ \n  BECMG 1817/1819 DZ \n  BECMG 1906/1908 NSW"
    },
    {
      "icao": "LIME",
      "iata": "BGY",
      "name": "Milan Bergamo Airport / Antonio Locatelli Air Base",
      "updatedAt": "181020Z",
      "visibility_m": 10000,
      "taf_visibility_m": 4000,
      "worst_visibility_m": 4000,
      "ceiling_ft": 8000,
      "hazards": [
        "BR"
      ],
      "severityScore": 10,
      "metarRaw": "METAR LIME 181020Z VRB02KT 9999 BKN080 08/05 Q1025 NOSIG",
      "tafRaw": "TAF LIME 180500Z 1806/1906 VRB03KT 9999 SCT040 \n  TEMPO 1900/1906 4000 BR"
    },
    {
      "icao": "LIRP",
      "iata": "PSA",
      "name": "Pisa International Airport",
      "updatedAt": "181015Z",
      "visibility_m": 10000,
      "taf_visibility_m": 5000,
      "worst_visibility_m": 5000,
      "ceiling_ft": 8000,
      "hazards": [
        "BR"
      ],
      "severityScore": 10,
      "metarRaw": "METAR LIRP 181015Z 13010KT CAVOK 10/06 Q1021 NOSIG",
      "tafRaw": "TAF LIRP 180500Z 1806/1906 10006KT 9999 SCT070 \n  PROB30 \n  TEMPO 1806/1808 5000 BR NSC \n  BECMG 1810/1812 09013KT BKN080"
    },
    {
      "icao": "LPPR",
      "iata": "OPO",
      "name": "Francisco de Sá Carneiro Airport",
      "updatedAt": "181000Z",
      "visibility_m": 10000,
      "taf_visibility_m": 5000,
      "worst_visibility_m": 5000,
      "ceiling_ft": null,
      "hazards": [
        "BR"
      ],
      "severityScore": 10,
      "metarRaw": "METAR LPPR 181000Z VRB03KT CAVOK 06/03 Q1014",
      "tafRaw": "TAF LPPR 180500Z 1806/1906 05005KT CAVOK \n  TEMPO 1806/1808 5000 BR SCT003 \n  BECMG 1811/1813 32007KT \n  BECMG 1818/1820 VRB02KT"
    },
    {
      "icao": "LPPT",
      "iata": "LIS",
      "name": "Lisbon Humberto Delgado Airport",
      "updatedAt": "181000Z",
      "visibility_m": 10000,
      "taf_visibility_m": 5000,
      "worst_visibility_m": 5000,
      "ceiling_ft": null,
      "hazards": [
        "BR"
      ],
      "severityScore": 10,
      "metarRaw": "METAR LPPT 181000Z VRB03KT 9999 FEW008 08/05 Q1013",
      "tafRaw": "TAF LPPT 180500Z 1806/1912 04005KT 9999 FEW030 \n  PROB30 \n  TEMPO 1806/1809 5000 BR SCT003 \n  BECMG 1818/1820 32007KT"
    },
    {
      "icao": "LQTZ",
      "iata": "TZL",
      "name": "Tuzla International Airport",
      "updatedAt": "181000Z",
      "visibility_m": 10000,
      "taf_visibility_m": 3000,
      "worst_visibility_m": 3000,
      "ceiling_ft": 2000,
      "hazards": [
        "BR"
      ],
      "severityScore": 10,
      "metarRaw": "METAR LQTZ 181000Z 11006KT 9999 OVC020 00/M02 Q1031",
      "tafRaw": "TAF LQTZ 180500Z 1806/1906 32005KT 9999 BKN015 TX03/1814Z TNM06/1906Z \n  PROB40 \n  TEMPO 1806/1811 4000 BR OVC008 \n  TEMPO 1811/1817 10010KT \n  PROB40 \n  TEMPO 1903/1906 3000 BR"
    },
    {
      "icao": "LRSB",
      "iata": "SBZ",
      "name": "Sibiu International Airport",
      "updatedAt": "181000Z",
      "visibility_m": 10000,
      "taf_visibility_m": 5000,
      "worst_visibility_m": 5000,
      "ceiling_ft": null,
      "hazards": [
        "BR"
      ],
      "severityScore": 10,
      "metarRaw": "METAR LRSB 181000Z 12006KT 080V180 CAVOK M04/M07 Q1033",
      "tafRaw": "TAF LRSB 180500Z 1806/1906 VRB04KT CAVOK \n  TEMPO 1903/1906 5000 BR"
    },
    {
      "icao": "LRSV",
      "iata": "SCV",
      "name": "Suceava Stefan cel Mare Airport",
      "updatedAt": "181000Z",
      "visibility_m": 10000,
      "taf_visibility_m": 5000,
      "worst_visibility_m": 5000,
      "ceiling_ft": 2900,
      "hazards": [
        "BR"
      ],
      "severityScore": 10,
      "metarRaw": "METAR LRSV 181000Z 04005KT 9999 BKN029 M10/M12 Q1037",
      "tafRaw": "TAF LRSV 180800Z 1809/1818 VRB04KT 9999 BKN030 \n  TEMPO 1809/1811 5000 BR"
    },
    {
      "icao": "LYPG",
      "iata": "TGD",
      "name": "Podgorica Airport / Podgorica Golubovci Airbase",
      "updatedAt": "181000Z",
      "visibility_m": 10000,
      "taf_visibility_m": 2000,
      "worst_visibility_m": 2000,
      "ceiling_ft": null,
      "hazards": [
        "BR"
      ],
      "severityScore": 10,
      "metarRaw": "METAR LYPG 181000Z 13004KT 100V170 CAVOK 09/02 Q1026 NOSIG",
      "tafRaw": "TAF LYPG 180500Z 1806/1906 36005KT CAVOK TX11/1813Z TN00/1905Z \n  PROB40 \n  TEMPO 1806/1807 2000 BR"
    },
    {
      "icao": "GCLP",
      "iata": "LPA",
      "name": "Gran Canaria Airport",
      "updatedAt": "181000Z",
      "visibility_m": 10000,
      "taf_visibility_m": null,
      "worst_visibility_m": 10000,
      "ceiling_ft": 5500,
      "hazards": [],
      "severityScore": 5,
      "metarRaw": "METAR GCLP 181000Z VRB02KT 9999 FEW030 BKN055 19/13 Q1016 NOSIG",
      "tafRaw": null
    },
    {
      "icao": "EGPF",
      "iata": "GLA",
      "name": "Glasgow Airport",
      "updatedAt": "181020Z",
      "visibility_m": 10000,
      "taf_visibility_m": null,
      "worst_visibility_m": 10000,
      "ceiling_ft": 4700,
      "hazards": [],
      "severityScore": 5,
      "metarRaw": "METAR EGPF 181020Z AUTO 06007KT 9999 BKN047 05/04 Q1018",
      "tafRaw": null
    },
    {
      "icao": "LEAL",
      "iata": "ALC",
      "name": "Alicante-Elche Miguel Hernández Airport",
      "updatedAt": "181000Z",
      "visibility_m": 10000,
      "taf_visibility_m": null,
      "worst_visibility_m": 10000,
      "ceiling_ft": null,
      "hazards": [],
      "severityScore": 5,
      "metarRaw": "METAR LEAL 181000Z 00000KT 9999 SCT046 13/05 Q1011 NOSIG",
      "tafRaw": null
    },
    {
      "icao": "LECH",
      "iata": "CDT",
      "name": "Castellón-Costa Azahar Airport",
      "updatedAt": "181000Z",
      "visibility_m": 7000,
      "taf_visibility_m": null,
      "worst_visibility_m": 7000,
      "ceiling_ft": null,
      "hazards": [],
      "severityScore": 5,
      "metarRaw": "METAR LECH 181000Z AUTO 32002KT 7000 NSC 09/06 Q1011",
      "tafRaw": null
    },
    {
      "icao": "LIRZ",
      "iata": "PEG",
      "name": "Perugia San Francesco d'Assisi – Umbria International Airport",
      "updatedAt": "181020Z",
      "visibility_m": 10000,
      "taf_visibility_m": null,
      "worst_visibility_m": 10000,
      "ceiling_ft": null,
      "hazards": [],
      "severityScore": 5,
      "metarRaw": "METAR LIRZ 181020Z AUTO VRB01KT 9999 NCD 10/06 Q1022",
      "tafRaw": null
    },
    {
      "icao": "LJLJ",
      "iata": "LJU",
      "name": "Ljubljana Jože Pučnik Airport",
      "updatedAt": "181000Z",
      "visibility_m": 10000,
      "taf_visibility_m": null,
      "worst_visibility_m": 10000,
      "ceiling_ft": 2000,
      "hazards": [],
      "severityScore": 5,
      "metarRaw": "METAR LJLJ 181000Z 11004KT 080V140 9999 SCT013 BKN020 02/M02 Q1031 NOSIG",
      "tafRaw": null
    },
    {
      "icao": "LZIB",
      "iata": "BTS",
      "name": "M. R. Štefánik Airport",
      "updatedAt": "181000Z",
      "visibility_m": 10000,
      "taf_visibility_m": null,
      "worst_visibility_m": 10000,
      "ceiling_ft": 2500,
      "hazards": [],
      "severityScore": 5,
      "metarRaw": "METAR LZIB 181000Z 11007KT 9999 BKN025 00/M04 Q1033 NOSIG",
      "tafRaw": null
    },
    {
      "icao": "BKPR",
      "iata": "PRN",
      "name": "Priština Adem Jashari International Airport",
      "updatedAt": null,
      "visibility_m": null,
      "taf_visibility_m": 10000,
      "worst_visibility_m": 10000,
      "ceiling_ft": 3000,
      "hazards": [],
      "severityScore": 0,
      "metarRaw": null,
      "tafRaw": "TAF BKPR 180530Z 1806/1906 36012KT 9999 SCT015 BKN030"
    },
    {
      "icao": "EBCI",
      "iata": "CRL",
      "name": "Brussels South Charleroi Airport",
      "updatedAt": "181020Z",
      "visibility_m": 10000,
      "taf_visibility_m": 10000,
      "worst_visibility_m": 10000,
      "ceiling_ft": null,
      "hazards": [],
      "severityScore": 0,
      "metarRaw": "METAR EBCI 181020Z 07004KT CAVOK 09/04 Q1019 NOSIG",
      "tafRaw": "TAF EBCI 180505Z 1806/1912 08004KT CAVOK"
    },
    {
      "icao": "EDLW",
      "iata": "DTM",
      "name": "Dortmund Airport",
      "updatedAt": "181020Z",
      "visibility_m": 10000,
      "taf_visibility_m": 10000,
      "worst_visibility_m": 10000,
      "ceiling_ft": null,
      "hazards": [],
      "severityScore": 0,
      "metarRaw": "METAR EDLW 181020Z VRB02KT CAVOK 02/01 Q1021",
      "tafRaw": "TAF EDLW 180500Z 1806/1906 12004KT CAVOK"
    },
    {
      "icao": "ENAL",
      "iata": "AES",
      "name": "Ålesund Airport, Vigra",
      "updatedAt": "181020Z",
      "visibility_m": 10000,
      "taf_visibility_m": 10000,
      "worst_visibility_m": 10000,
      "ceiling_ft": null,
      "hazards": [],
      "severityScore": 0,
      "metarRaw": "METAR ENAL 181020Z 13003KT CAVOK 04/M01 Q1027",
      "tafRaw": "TAF ENAL 180800Z 1809/1818 15008KT CAVOK \n  BECMG 1815/1817 06010KT"
    },
    {
      "icao": "ENVA",
      "iata": "TRD",
      "name": "Trondheim Airport, Værnes",
      "updatedAt": "181020Z",
      "visibility_m": 10000,
      "taf_visibility_m": 10000,
      "worst_visibility_m": 10000,
      "ceiling_ft": null,
      "hazards": [],
      "severityScore": 0,
      "metarRaw": "METAR ENVA 181020Z 09005KT CAVOK M04/M04 Q1029 NOSIG RMK WIND 670FT 09006KT",
      "tafRaw": "TAF ENVA 180500Z 1806/1906 12008KT 9999 FEW040"
    },
    {
      "icao": "EPGD",
      "iata": "GDN",
      "name": "Gdańsk Lech Wałęsa Airport",
      "updatedAt": "181000Z",
      "visibility_m": 10000,
      "taf_visibility_m": 10000,
      "worst_visibility_m": 10000,
      "ceiling_ft": null,
      "hazards": [],
      "severityScore": 0,
      "metarRaw": "METAR EPGD 181000Z 16010KT CAVOK M09/M10 Q1035",
      "tafRaw": "TAF EPGD 180530Z 1806/1906 15008KT CAVOK"
    },
    {
      "icao": "EPLB",
      "iata": "LUZ",
      "name": "Lublin Airport",
      "updatedAt": "181000Z",
      "visibility_m": 10000,
      "taf_visibility_m": 10000,
      "worst_visibility_m": 10000,
      "ceiling_ft": null,
      "hazards": [],
      "severityScore": 0,
      "metarRaw": "METAR EPLB 181000Z 10006KT CAVOK M12/M13 Q1038",
      "tafRaw": "TAF EPLB 180530Z 1806/1906 10008KT CAVOK"
    },
    {
      "icao": "EPMO",
      "iata": "WMI",
      "name": "Modlin Airport",
      "updatedAt": "181000Z",
      "visibility_m": 7000,
      "taf_visibility_m": 10000,
      "worst_visibility_m": 7000,
      "ceiling_ft": null,
      "hazards": [],
      "severityScore": 0,
      "metarRaw": "METAR EPMO 181000Z 07009KT 7000 NSC M12/M14 Q1037",
      "tafRaw": "TAF EPMO 180530Z 1806/1906 10008KT CAVOK"
    },
    {
      "icao": "EPPO",
      "iata": "POZ",
      "name": "Poznań-Ławica Airport",
      "updatedAt": "181000Z",
      "visibility_m": 10000,
      "taf_visibility_m": 10000,
      "worst_visibility_m": 10000,
      "ceiling_ft": null,
      "hazards": [],
      "severityScore": 0,
      "metarRaw": "METAR EPPO 181000Z 11009KT CAVOK M01/M05 Q1032",
      "tafRaw": "TAF EPPO 180530Z 1806/1906 12010KT CAVOK"
    },
    {
      "icao": "EPRZ",
      "iata": "RZE",
      "name": "Rzeszów-Jasionka Airport",
      "updatedAt": "181000Z",
      "visibility_m": 10000,
      "taf_visibility_m": 10000,
      "worst_visibility_m": 10000,
      "ceiling_ft": null,
      "hazards": [],
      "severityScore": 0,
      "metarRaw": "METAR EPRZ 181000Z 09014KT CAVOK M11/M15 Q1036",
      "tafRaw": "TAF EPRZ 180530Z 1806/1906 09012KT CAVOK \n  TEMPO 1808/1818 10015G25KT"
    },
    {
      "icao": "EPSC",
      "iata": "SZZ",
      "name": "Solidarity Szczecin–Goleniów Airport",
      "updatedAt": "181000Z",
      "visibility_m": 10000,
      "taf_visibility_m": 10000,
      "worst_visibility_m": 10000,
      "ceiling_ft": null,
      "hazards": [],
      "severityScore": 0,
      "metarRaw": "METAR EPSC 181000Z 13013KT CAVOK M00/M03 Q1030",
      "tafRaw": "TAF EPSC 180530Z 1806/1906 12012KT CAVOK \n  PROB40 \n  TEMPO 1815/1906 13015G25KT"
    },
    {
      "icao": "EPSY",
      "iata": "SZY",
      "name": "Olsztyn-Mazury Airport",
      "updatedAt": "181000Z",
      "visibility_m": 10000,
      "taf_visibility_m": 10000,
      "worst_visibility_m": 10000,
      "ceiling_ft": null,
      "hazards": [],
      "severityScore": 0,
      "metarRaw": "METAR EPSY 181000Z 14004KT 110V170 CAVOK M11/M14 Q1038",
      "tafRaw": "TAF EPSY 180830Z 1809/1818 13008KT CAVOK"
    },
    {
      "icao": "EPWA",
      "iata": "WAW",
      "name": "Warsaw Chopin Airport",
      "updatedAt": "181000Z",
      "visibility_m": 10000,
      "taf_visibility_m": 10000,
      "worst_visibility_m": 10000,
      "ceiling_ft": null,
      "hazards": [],
      "severityScore": 0,
      "metarRaw": "METAR EPWA 181000Z 11011KT CAVOK M10/M13 Q1037 NOSIG",
      "tafRaw": "TAF EPWA 180830Z 1809/1909 12010KT CAVOK"
    },
    {
      "icao": "EYPA",
      "iata": "PLQ",
      "name": "Palanga International Airport",
      "updatedAt": "181020Z",
      "visibility_m": 10000,
      "taf_visibility_m": 9000,
      "worst_visibility_m": 9000,
      "ceiling_ft": null,
      "hazards": [],
      "severityScore": 0,
      "metarRaw": "METAR EYPA 181020Z 14010KT CAVOK M08/M13 Q1038",
      "tafRaw": "TAF EYPA 180500Z 1806/1906 16010KT 9000 NSC \n  TEMPO 1806/1809 SCT005"
    },
    {
      "icao": "HEGN",
      "iata": "HRG",
      "name": "Hurghada International Airport",
      "updatedAt": "181000Z",
      "visibility_m": 10000,
      "taf_visibility_m": 4000,
      "worst_visibility_m": 4000,
      "ceiling_ft": null,
      "hazards": [],
      "severityScore": 0,
      "metarRaw": "METAR HEGN 181000Z 35017KT CAVOK 20/08 Q1015",
      "tafRaw": "TAF HEGN 180500Z 1806/1912 30010G20KT 6000 NSC \n  PROB30 \n  TEMPO 1806/1812 4000 SA"
    },
    {
      "icao": "HEMA",
      "iata": "RMF",
      "name": "Marsa Alam International Airport",
      "updatedAt": "181000Z",
      "visibility_m": 10000,
      "taf_visibility_m": 4000,
      "worst_visibility_m": 4000,
      "ceiling_ft": null,
      "hazards": [],
      "severityScore": 0,
      "metarRaw": "METAR HEMA 181000Z 36006KT CAVOK 23/05 Q1015",
      "tafRaw": "TAF HEMA 180500Z 1806/1912 29010G20KT 6000 NSC \n  PROB30 \n  TEMPO 1806/1812 4000 SA"
    },
    {
      "icao": "HESH",
      "iata": "SSH",
      "name": "Sharm El Sheikh International Airport",
      "updatedAt": "181000Z",
      "visibility_m": 10000,
      "taf_visibility_m": 10000,
      "worst_visibility_m": 10000,
      "ceiling_ft": null,
      "hazards": [],
      "severityScore": 0,
      "metarRaw": "METAR HESH 181000Z 01008KT CAVOK 22/08 Q1014",
      "tafRaw": "TAF HESH 180500Z 1806/1912 36012KT CAVOK"
    },
    {
      "icao": "LATI",
      "iata": "TIA",
      "name": "Tirana International Airport Mother Teresa",
      "updatedAt": "181020Z",
      "visibility_m": 10000,
      "taf_visibility_m": 10000,
      "worst_visibility_m": 10000,
      "ceiling_ft": null,
      "hazards": [],
      "severityScore": 0,
      "metarRaw": "METAR LATI 181020Z 31001KT CAVOK 12/M00 Q1024 NOSIG",
      "tafRaw": "TAF LATI 180500Z 1806/1906 VRB05KT CAVOK TX17/1812Z TNM01/1905Z"
    },
    {
      "icao": "LBPD",
      "iata": "PDV",
      "name": "Plovdiv International Airport",
      "updatedAt": "181000Z",
      "visibility_m": 10000,
      "taf_visibility_m": 10000,
      "worst_visibility_m": 10000,
      "ceiling_ft": null,
      "hazards": [],
      "severityScore": 0,
      "metarRaw": "METAR LBPD 181000Z AUTO 11005KT 9999 OVC026/// M02/M07 Q1034 NOSIG",
      "tafRaw": "TAF LBPD 180500Z 1806/1906 10010KT 9999 SCT030 \n  BECMG 1823/1901 VRB04KT"
    },
    {
      "icao": "LBSF",
      "iata": "SOF",
      "name": "Sofia Airport",
      "updatedAt": "181000Z",
      "visibility_m": 10000,
      "taf_visibility_m": 10000,
      "worst_visibility_m": 10000,
      "ceiling_ft": 2000,
      "hazards": [],
      "severityScore": 0,
      "metarRaw": "METAR LBSF 181000Z VRB03KT 9999 FEW031 M03/M09 Q1032 NOSIG",
      "tafRaw": "TAF LBSF 180500Z 1806/1906 VRB04KT 9999 BKN020 \n  BECMG 1809/1811 03010KT \n  BECMG 1821/1823 VRB04KT"
    },
    {
      "icao": "LCLK",
      "iata": "LCA",
      "name": "Larnaca International Airport",
      "updatedAt": "181000Z",
      "visibility_m": 10000,
      "taf_visibility_m": 10000,
      "worst_visibility_m": 10000,
      "ceiling_ft": null,
      "hazards": [],
      "severityScore": 0,
      "metarRaw": "METAR LCLK 181000Z 01013KT 9999 FEW020 SCT050 13/06 Q1016 NOSIG",
      "tafRaw": "TAF LCLK 180530Z 1806/1906 01014KT 9999 SCT025"
    },
    {
      "icao": "LEMG",
      "iata": "AGP",
      "name": "Málaga-Costa del Sol Airport",
      "updatedAt": "181000Z",
      "visibility_m": 10000,
      "taf_visibility_m": 10000,
      "worst_visibility_m": 10000,
      "ceiling_ft": null,
      "hazards": [],
      "severityScore": 0,
      "metarRaw": "METAR LEMG 181000Z 30009KT 9999 FEW030 SCT057 07/04 Q1010 NOSIG",
      "tafRaw": "TAF LEMG 180500Z 1806/1906 31005KT 9999 FEW030 TX13/1814Z TN06/1806Z \n  BECMG 1811/1813 10010KT \n  BECMG 1818/1820 27010KT"
    },
    {
      "icao": "LEZL",
      "iata": "SVQ",
      "name": "Sevilla Airport",
      "updatedAt": "181000Z",
      "visibility_m": 10000,
      "taf_visibility_m": 10000,
      "worst_visibility_m": 10000,
      "ceiling_ft": null,
      "hazards": [],
      "severityScore": 0,
      "metarRaw": "METAR LEZL 181000Z 05010KT 020V080 CAVOK 10/06 Q1011 NOSIG",
      "tafRaw": "TAF LEZL 180800Z 1809/1909 05010KT CAVOK TX14/1815Z TN03/1907Z \n  BECMG 1815/1817 VRB03KT"
    },
    {
      "icao": "LICJ",
      "iata": "PMO",
      "name": "Falcone–Borsellino Airport",
      "updatedAt": "181020Z",
      "visibility_m": 10000,
      "taf_visibility_m": 10000,
      "worst_visibility_m": 10000,
      "ceiling_ft": null,
      "hazards": [],
      "severityScore": 0,
      "metarRaw": "METAR LICJ 181020Z VRB02KT CAVOK 15/10 Q1017",
      "tafRaw": "TAF LICJ 180500Z 1806/1906 11008KT 9999 FEW040"
    },
    {
      "icao": "LIMJ",
      "iata": "GOA",
      "name": "Genoa Cristoforo Colombo Airport",
      "updatedAt": "181020Z",
      "visibility_m": 10000,
      "taf_visibility_m": 10000,
      "worst_visibility_m": 10000,
      "ceiling_ft": null,
      "hazards": [],
      "severityScore": 0,
      "metarRaw": "METAR LIMJ 181020Z 04015KT CAVOK 12/06 Q1021",
      "tafRaw": "TAF LIMJ 180500Z 1806/1906 02014KT 9999 FEW040"
    },
    {
      "icao": "LIPH",
      "iata": "TSF",
      "name": "Treviso Antonio Canova Airport",
      "updatedAt": "181020Z",
      "visibility_m": 10000,
      "taf_visibility_m": 10000,
      "worst_visibility_m": 10000,
      "ceiling_ft": null,
      "hazards": [],
      "severityScore": 0,
      "metarRaw": "METAR LIPH 181020Z 06008KT CAVOK 09/02 Q1026",
      "tafRaw": "TAF LIPH 180500Z 1806/1906 06005KT 9999 SCT060"
    },
    {
      "icao": "LIPQ",
      "iata": "TRS",
      "name": "Trieste–Friuli Venezia Giulia Airport",
      "updatedAt": "181020Z",
      "visibility_m": 10000,
      "taf_visibility_m": 10000,
      "worst_visibility_m": 10000,
      "ceiling_ft": null,
      "hazards": [],
      "severityScore": 0,
      "metarRaw": "METAR LIPQ 181020Z AUTO 10009KT 060V120 9999 OVC087/// 09/M01 Q1026",
      "tafRaw": "TAF LIPQ 180500Z 1806/1906 02005KT 9999 FEW070 \n  BECMG 1807/1809 08012KT"
    },
    {
      "icao": "LIPX",
      "iata": "VRN",
      "name": "Verona Villafranca Valerio Catullo Airport",
      "updatedAt": "181020Z",
      "visibility_m": 10000,
      "taf_visibility_m": 6000,
      "worst_visibility_m": 6000,
      "ceiling_ft": 8000,
      "hazards": [],
      "severityScore": 0,
      "metarRaw": "METAR LIPX 181020Z 08009KT 9999 BKN080 10/02 Q1025",
      "tafRaw": "TAF LIPX 180500Z 1806/1906 10008KT 6000 BKN040"
    },
    {
      "icao": "LIPZ",
      "iata": "VCE",
      "name": "Venice Marco Polo Airport",
      "updatedAt": "181020Z",
      "visibility_m": 10000,
      "taf_visibility_m": 10000,
      "worst_visibility_m": 10000,
      "ceiling_ft": null,
      "hazards": [],
      "severityScore": 0,
      "metarRaw": "METAR LIPZ 181020Z 06011KT CAVOK 08/01 Q1026 NOSIG",
      "tafRaw": "TAF LIPZ 180500Z 1806/1912 04010KT 9999 SCT060"
    },
    {
      "icao": "LIRF",
      "iata": "FCO",
      "name": "Rome–Fiumicino Leonardo da Vinci International Airport",
      "updatedAt": "181020Z",
      "visibility_m": 10000,
      "taf_visibility_m": 10000,
      "worst_visibility_m": 10000,
      "ceiling_ft": null,
      "hazards": [],
      "severityScore": 0,
      "metarRaw": "METAR LIRF 181020Z 07007KT CAVOK 13/06 Q1020 NOSIG",
      "tafRaw": "TAF LIRF 180500Z 1806/1912 05010KT 9999 FEW040"
    },
    {
      "icao": "LIRN",
      "iata": "NAP",
      "name": "Naples International Airport",
      "updatedAt": "181020Z",
      "visibility_m": 10000,
      "taf_visibility_m": 10000,
      "worst_visibility_m": 10000,
      "ceiling_ft": null,
      "hazards": [],
      "severityScore": 0,
      "metarRaw": "METAR LIRN 181020Z 05009KT 020V080 CAVOK 15/07 Q1021 NOSIG",
      "tafRaw": "TAF LIRN 180500Z 1806/1906 05008KT 9999 FEW040"
    },
    {
      "icao": "LKPR",
      "iata": "PRG",
      "name": "Václav Havel Airport Prague",
      "updatedAt": "181000Z",
      "visibility_m": 10000,
      "taf_visibility_m": 10000,
      "worst_visibility_m": 10000,
      "ceiling_ft": null,
      "hazards": [],
      "severityScore": 0,
      "metarRaw": "METAR LKPR 181000Z 12016KT 9999 FEW018 02/M02 Q1027 NOSIG",
      "tafRaw": "TAF LKPR 180800Z 1809/1915 12012KT CAVOK"
    },
    {
      "icao": "LOWW",
      "iata": "VIE",
      "name": "Vienna International Airport",
      "updatedAt": "181020Z",
      "visibility_m": 10000,
      "taf_visibility_m": 10000,
      "worst_visibility_m": 10000,
      "ceiling_ft": 2000,
      "hazards": [],
      "severityScore": 0,
      "metarRaw": "METAR LOWW 181020Z 15010KT 9999 FEW018 OVC020 01/M02 Q1032 NOSIG",
      "tafRaw": "TAF LOWW 180815Z 1809/1915 14013KT 9999 FEW020 SCT030 TXM00/1813Z TNM06/1906Z \n  PROB30 \n  TEMPO 1822/1906 BKN014"
    },
    {
      "icao": "LPFR",
      "iata": "FAO",
      "name": "Faro Airport",
      "updatedAt": "181000Z",
      "visibility_m": 10000,
      "taf_visibility_m": 10000,
      "worst_visibility_m": 10000,
      "ceiling_ft": null,
      "hazards": [],
      "severityScore": 0,
      "metarRaw": "METAR LPFR 181000Z 03012KT 9999 FEW020 10/06 Q1011",
      "tafRaw": "TAF LPFR 180500Z 1806/1906 04007KT 9999 SCT035 \n  BECMG 1815/1817 35007KT CAVOK"
    },
    {
      "icao": "LQBK",
      "iata": "BNX",
      "name": "Banja Luka International Airport",
      "updatedAt": "181000Z",
      "visibility_m": 10000,
      "taf_visibility_m": 10000,
      "worst_visibility_m": 10000,
      "ceiling_ft": 2500,
      "hazards": [],
      "severityScore": 0,
      "metarRaw": "METAR LQBK 181000Z 33005KT 9999 BKN025 M01/M03 Q1033 NOSIG",
      "tafRaw": "TAF LQBK 180500Z 1806/1906 34005KT 9999 BKN020 TX02/1814Z TNM06/1906Z \n  PROB40 \n  TEMPO 1806/1821 OVC013 \n  TEMPO 1810/1818 04010KT"
    },
    {
      "icao": "LRIA",
      "iata": "IAS",
      "name": "Iaşi Airport",
      "updatedAt": "181000Z",
      "visibility_m": 10000,
      "taf_visibility_m": 10000,
      "worst_visibility_m": 10000,
      "ceiling_ft": null,
      "hazards": [],
      "severityScore": 0,
      "metarRaw": "METAR LRIA 181000Z 29005KT 250V010 CAVOK M11/M14 Q1041",
      "tafRaw": "TAF LRIA 180800Z 1809/1818 29005KT CAVOK"
    },
    {
      "icao": "LRBC",
      "iata": "BCM",
      "name": "Bacău George Enescu International  Airport",
      "updatedAt": "181000Z",
      "visibility_m": 10000,
      "taf_visibility_m": 10000,
      "worst_visibility_m": 10000,
      "ceiling_ft": null,
      "hazards": [],
      "severityScore": 0,
      "metarRaw": "METAR LRBC 181000Z 35009KT CAVOK M08/M13 Q1040",
      "tafRaw": "TAF LRBC 180800Z 1809/1818 35010KT CAVOK"
    },
    {
      "icao": "LRBV",
      "iata": "GHV",
      "name": "Brașov-Ghimbav International Airport",
      "updatedAt": "181000Z",
      "visibility_m": 10000,
      "taf_visibility_m": 10000,
      "worst_visibility_m": 10000,
      "ceiling_ft": null,
      "hazards": [],
      "severityScore": 0,
      "metarRaw": "METAR LRBV 181000Z 10005KT 040V140 CAVOK M05/M11 Q1034",
      "tafRaw": "TAF LRBV 180800Z 1809/1818 VRB04KT CAVOK \n  TEMPO 1811/1814 08010KT"
    },
    {
      "icao": "LRCL",
      "iata": "CLJ",
      "name": "Cluj Avram Iancu International Airport",
      "updatedAt": "181000Z",
      "visibility_m": 10000,
      "taf_visibility_m": 7000,
      "worst_visibility_m": 7000,
      "ceiling_ft": null,
      "hazards": [],
      "severityScore": 0,
      "metarRaw": "METAR LRCL 181000Z 06006KT CAVOK M07/M08 Q1035",
      "tafRaw": "TAF LRCL 180800Z 1809/1818 VRB04KT 7000 NSC"
    },
    {
      "icao": "LRSM",
      "iata": "SUJ",
      "name": "Satu Mare International Airport",
      "updatedAt": "181000Z",
      "visibility_m": 10000,
      "taf_visibility_m": 10000,
      "worst_visibility_m": 10000,
      "ceiling_ft": null,
      "hazards": [],
      "severityScore": 0,
      "metarRaw": "METAR LRSM 181000Z 03002KT CAVOK M01/M09 Q1035",
      "tafRaw": "TAF LRSM 180800Z 1809/1818 10008KT CAVOK"
    },
    {
      "icao": "LRTM",
      "iata": "TGM",
      "name": "Târgu Mureş Transilvania International Airport",
      "updatedAt": "181000Z",
      "visibility_m": 6000,
      "taf_visibility_m": 7000,
      "worst_visibility_m": 6000,
      "ceiling_ft": null,
      "hazards": [],
      "severityScore": 0,
      "metarRaw": "METAR LRTM 181000Z VRB01KT 6000 NSC M11/M13 Q1036",
      "tafRaw": "TAF LRTM 180800Z 1809/1818 VRB04KT 7000 NSC"
    },
    {
      "icao": "LWOH",
      "iata": "OHD",
      "name": "Ohrid St. Paul the Apostle Airport",
      "updatedAt": "181020Z",
      "visibility_m": 10000,
      "taf_visibility_m": 10000,
      "worst_visibility_m": 10000,
      "ceiling_ft": 4000,
      "hazards": [],
      "severityScore": 0,
      "metarRaw": "METAR LWOH 181020Z 07009KT 9999 BKN040 06/M03 Q1026",
      "tafRaw": "TAF LWOH 180820Z 1809/1909 35008KT 9999 SCT040"
    },
    {
      "icao": "LWSK",
      "iata": "SKP",
      "name": "Skopje International Airport",
      "updatedAt": "181020Z",
      "visibility_m": 10000,
      "taf_visibility_m": 10000,
      "worst_visibility_m": 10000,
      "ceiling_ft": 4000,
      "hazards": [],
      "severityScore": 0,
      "metarRaw": "METAR LWSK 181020Z 02006KT 340V040 9999 FEW020 BKN040 05/M02 Q1030 NOSIG",
      "tafRaw": "TAF LWSK 180820Z 1809/1909 02012KT 9999 SCT040"
    },
    {
      "icao": "LYBE",
      "iata": "BEG",
      "name": "Belgrade Nikola Tesla Airport",
      "updatedAt": "181000Z",
      "visibility_m": 10000,
      "taf_visibility_m": 10000,
      "worst_visibility_m": 10000,
      "ceiling_ft": null,
      "hazards": [],
      "severityScore": 0,
      "metarRaw": "METAR LYBE 181000Z 12011KT CAVOK M01/M06 Q1034 NOSIG",
      "tafRaw": "TAF LYBE 180500Z 1806/1906 11013KT CAVOK TX01/1813Z TNM05/1906Z"
    },
    {
      "icao": "LYNI",
      "iata": "INI",
      "name": "Niš Constantine the Great Airport",
      "updatedAt": "181000Z",
      "visibility_m": 10000,
      "taf_visibility_m": 10000,
      "worst_visibility_m": 10000,
      "ceiling_ft": null,
      "hazards": [],
      "severityScore": 0,
      "metarRaw": "METAR LYNI 181000Z 04010KT 010V070 CAVOK M01/M07 Q1033 NOSIG",
      "tafRaw": "TAF LYNI 180500Z 1806/1906 04008KT CAVOK TX01/1813Z TNM07/1906Z"
    },
    {
      "icao": "LZKZ",
      "iata": "KSC",
      "name": "Košice International Airport",
      "updatedAt": "181000Z",
      "visibility_m": 10000,
      "taf_visibility_m": 10000,
      "worst_visibility_m": 10000,
      "ceiling_ft": null,
      "hazards": [],
      "severityScore": 0,
      "metarRaw": "METAR LZKZ 181000Z VRB02KT CAVOK M03/M08 Q1034 NOSIG",
      "tafRaw": "TAF LZKZ 180515Z 1806/1906 VRB02KT CAVOK"
    },
    {
      "icao": "LZTT",
      "iata": "TAT",
      "name": "Poprad-Tatry Airport",
      "updatedAt": "181000Z",
      "visibility_m": 10000,
      "taf_visibility_m": 10000,
      "worst_visibility_m": 10000,
      "ceiling_ft": null,
      "hazards": [],
      "severityScore": 0,
      "metarRaw": "METAR LZTT 181000Z 00000KT CAVOK M06/M09 Q1031 NOSIG",
      "tafRaw": "TAF LZTT 180515Z 1806/1906 VRB02KT CAVOK"
    },
    {
      "icao": "OEJN",
      "iata": "JED",
      "name": "King Abdulaziz International Airport",
      "updatedAt": "181000Z",
      "visibility_m": 10000,
      "taf_visibility_m": 7000,
      "worst_visibility_m": 7000,
      "ceiling_ft": null,
      "hazards": [],
      "severityScore": 0,
      "metarRaw": "METAR OEJN 181000Z 31008KT 9999 SCT040 28/16 Q1012 NOSIG",
      "tafRaw": "TAF OEJN 180500Z 1806/1912 VRB03KT 7000 FEW040 \n  BECMG 1809/1811 30010KT \n  BECMG 1817/1819 36008KT"
    },
    {
      "icao": "OEMA",
      "iata": "MED",
      "name": "Prince Mohammad Bin Abdulaziz Airport",
      "updatedAt": "181000Z",
      "visibility_m": 10000,
      "taf_visibility_m": 10000,
      "worst_visibility_m": 10000,
      "ceiling_ft": null,
      "hazards": [],
      "severityScore": 0,
      "metarRaw": "METAR OEMA 181000Z 24013KT 9999 FEW045 24/05 Q1014 NOSIG",
      "tafRaw": "TAF OEMA 180500Z 1806/1912 26010KT 9999 FEW045 \n  BECMG 1818/1820 36005KT"
    }
  ],
  "stats": {
    "icaoCount": 159,
    "metarReturned": 158,
    "tafReturned": 137,
    "stationsWritten": 159,
    "missingMetar": 1,
    "missingTaf": 22
  },
  "errors": []
}