{
  "generatedAt": "2026-01-15T22:28:28.280Z",
  "stations": [
    {
      "icao": "BKPR",
      "iata": "PRN",
      "name": "Priština Adem Jashari International Airport",
      "updatedAt": null,
      "visibility_m": null,
      "taf_visibility_m": 150,
      "worst_visibility_m": 150,
      "ceiling_ft": 200,
      "hazards": [
        "FZFG",
        "BR",
        "FG"
      ],
      "severityScore": 100,
      "metarRaw": null,
      "tafRaw": "TAF BKPR 151730Z 1518/1618 VRB05KT 9999 SCT050 \n  TEMPO 1600/1609 3000 BR \n  PROB30 1601/1608 0150 FZFG BKN002"
    },
    {
      "icao": "EDDB",
      "iata": "BER",
      "name": "Berlin Brandenburg Airport",
      "updatedAt": "152220Z",
      "visibility_m": 2500,
      "taf_visibility_m": 500,
      "worst_visibility_m": 500,
      "ceiling_ft": 100,
      "hazards": [
        "BR",
        "FG"
      ],
      "severityScore": 100,
      "metarRaw": "METAR EDDB 152220Z AUTO 14008KT 7000 NCD 03/03 Q1016 TEMPO 2500 BR",
      "tafRaw": "TAF EDDB 151700Z 1518/1618 14006KT 3000 BR SCT002 \n  TEMPO 1518/1602 0500 FG BKN002 \n  PROB30 \n  TEMPO 1519/1602 BKN001 \n  BECMG 1603/1607 7000"
    },
    {
      "icao": "EFTU",
      "iata": "TKU",
      "name": "Turku Airport",
      "updatedAt": "152220Z",
      "visibility_m": 9000,
      "taf_visibility_m": 2500,
      "worst_visibility_m": 2500,
      "ceiling_ft": 200,
      "hazards": [
        "BR",
        "FZRA",
        "SN",
        "RA",
        "DZ"
      ],
      "severityScore": 100,
      "metarRaw": "METAR EFTU 152220Z AUTO 19008KT 9000 OVC002 02/01 Q1020",
      "tafRaw": "TAF EFTU 152139Z 1521/1621 17007KT 9000 -DZRA OVC003 \n  TEMPO 1521/1524 2500 DZRA BR BKN015 \n  BECMG 1600/1602 BKN007 \n  TEMPO 1602/1606 18015G25KT 6000 -SHRASN SCT005 BKN011 \n  BECMG 1606/1608 BKN011 \n  TEMPO 1608/1615 18015G25KT OVC009 \n  TEMPO 1616/1621 7000 -FZRA OVC009"
    },
    {
      "icao": "EGGP",
      "iata": "LPL",
      "name": "Liverpool John Lennon Airport",
      "updatedAt": "152220Z",
      "visibility_m": 100,
      "taf_visibility_m": 300,
      "worst_visibility_m": 100,
      "ceiling_ft": 400,
      "hazards": [
        "FG",
        "BR"
      ],
      "severityScore": 100,
      "metarRaw": "METAR EGGP 152220Z 21003KT 150V250 0100 R27/0450N FG VV/// 03/02 Q0998",
      "tafRaw": "TAF EGGP 151659Z 1518/1618 VRB03KT 9999 FEW040 \n  BECMG 1518/1521 6000 \n  TEMPO 1518/1611 3000 BR MIFG BKN004 \n  PROB30 1518/1603 0300 FG VV/// \n  BECMG 1610/1613 16010KT 9999"
    },
    {
      "icao": "EGNM",
      "iata": "LBA",
      "name": "Leeds Bradford Airport",
      "updatedAt": "152150Z",
      "visibility_m": 200,
      "taf_visibility_m": 300,
      "worst_visibility_m": 200,
      "ceiling_ft": 400,
      "hazards": [
        "FG",
        "DZ",
        "BR",
        "RA"
      ],
      "severityScore": 100,
      "metarRaw": "METAR EGNM 152150Z 32002KT 0200 R32/0250N -DZ FG VV/// 04/04 Q0997",
      "tafRaw": "TAF EGNM 151657Z 1518/1618 VRB03KT 9999 FEW010 \n  BECMG 1518/1521 7000 BKN008 \n  TEMPO 1518/1524 3000 RADZ BR BKN004 \n  PROB40 \n  TEMPO 1518/1524 0300 FG VV/// \n  TEMPO 1600/1612 4000 BR BKN004 \n  BECMG 1610/1613 17010KT 9999 SCT025 \n  PROB30 \n  TEMPO 1615/1618 8000 BKN009 \n  BECMG 1616/1618 11005KT"
    },
    {
      "icao": "EKBI",
      "iata": "BLL",
      "name": "Billund Airport",
      "updatedAt": "152220Z",
      "visibility_m": 1700,
      "taf_visibility_m": 300,
      "worst_visibility_m": 300,
      "ceiling_ft": 200,
      "hazards": [
        "FG",
        "BR",
        "RA",
        "DZ"
      ],
      "severityScore": 100,
      "metarRaw": "METAR EKBI 152220Z AUTO 14008KT 100V170 1700 BCFG OVC002/// 05/05 Q1008",
      "tafRaw": "TAF EKBI 152027Z 1521/1621 14008KT 0300 -RADZ FG OVC002 \n  BECMG 1521/1522 6000 NSW SCT005 \n  TEMPO 1522/1609 2000 BR BKN003 \n  BECMG 1608/1611 20015G25KT \n  TEMPO 1609/1615 BKN008 \n  BECMG 1617/1620 3000 BR"
    },
    {
      "icao": "EPPO",
      "iata": "POZ",
      "name": "Poznań-Ławica Airport",
      "updatedAt": "152200Z",
      "visibility_m": 800,
      "taf_visibility_m": 100,
      "worst_visibility_m": 100,
      "ceiling_ft": 100,
      "hazards": [
        "FG",
        "BR",
        "DZ"
      ],
      "severityScore": 100,
      "metarRaw": "METAR EPPO 152200Z 13007KT 0800 R28/P2000U FG OVC001 01/01 Q1019",
      "tafRaw": "TAF EPPO 151730Z 1518/1618 13007KT 2500 BR BKN003 \n  BECMG 1518/1521 0800 FG \n  TEMPO 1518/1609 0200 -DZ FG BKN001 \n  BECMG 1609/1612 3000 BR BKN005 \n  TEMPO 1609/1616 5000 BR SCT007 \n  BECMG 1616/1618 0800 FG BKN003 \n  PROB40 \n  TEMPO 1616/1618 0100 FG BKN001"
    },
    {
      "icao": "EPRA",
      "iata": "RDO",
      "name": "Warsaw Radom Airport",
      "updatedAt": "152200Z",
      "visibility_m": 6000,
      "taf_visibility_m": 500,
      "worst_visibility_m": 500,
      "ceiling_ft": 300,
      "hazards": [
        "RA",
        "FZFG",
        "BR",
        "FG"
      ],
      "severityScore": 100,
      "metarRaw": "METAR EPRA 152200Z 12007KT 6000 BKN003 OVC024 M00/M01 Q1023",
      "tafRaw": "TAF EPRA 152030Z 1521/1606 12006KT 7000 OVC006 \n  TEMPO 1521/1604 3000 BR OVC002 \n  PROB30 \n  TEMPO 1521/1601 0500 FZFG"
    },
    {
      "icao": "EPRZ",
      "iata": "RZE",
      "name": "Rzeszów-Jasionka Airport",
      "updatedAt": "152200Z",
      "visibility_m": 150,
      "taf_visibility_m": null,
      "worst_visibility_m": 150,
      "ceiling_ft": 200,
      "hazards": [
        "FZFG",
        "FG"
      ],
      "severityScore": 100,
      "metarRaw": "METAR EPRZ 152200Z 09006KT 0150 R27/0800U FZFG OVC002 M00/M00 Q1023",
      "tafRaw": null
    },
    {
      "icao": "EPSC",
      "iata": "SZZ",
      "name": "Solidarity Szczecin–Goleniów Airport",
      "updatedAt": "152200Z",
      "visibility_m": 3400,
      "taf_visibility_m": 500,
      "worst_visibility_m": 500,
      "ceiling_ft": 400,
      "hazards": [
        "BR",
        "FG"
      ],
      "severityScore": 100,
      "metarRaw": "METAR EPSC 152200Z 13012KT 3400 BR OVC004 02/02 Q1017",
      "tafRaw": "TAF EPSC 151730Z 1518/1618 14010KT 6000 OVC005 \n  BECMG 1518/1520 4000 BR OVC004 \n  TEMPO 1520/1611 2000 BR BKN002 \n  PROB40 1523/1609 0500 FG \n  BECMG 1615/1617 0500 FG BKN001"
    },
    {
      "icao": "ESMS",
      "iata": "MMX",
      "name": "Malmö Sturup Airport",
      "updatedAt": "152220Z",
      "visibility_m": 200,
      "taf_visibility_m": 200,
      "worst_visibility_m": 200,
      "ceiling_ft": 100,
      "hazards": [
        "FG",
        "BR"
      ],
      "severityScore": 100,
      "metarRaw": "METAR ESMS 152220Z 13010KT 0200 R17/0750N R35/0800N FG VV001 03/03 Q1013",
      "tafRaw": "TAF ESMS 152027Z 1521/1621 14010KT 0200 FG OVC002 \n  TEMPO 1521/1602 3000 BR OVC005 \n  BECMG 1602/1604 5000 NSW FEW005 \n  TEMPO 1604/1608 1500 BR BKN004 \n  BECMG 1614/1617 3000 BR"
    },
    {
      "icao": "LBPD",
      "iata": "PDV",
      "name": "Plovdiv International Airport",
      "updatedAt": "152200Z",
      "visibility_m": 10000,
      "taf_visibility_m": 800,
      "worst_visibility_m": 800,
      "ceiling_ft": 200,
      "hazards": [
        "FZFG",
        "BR",
        "SN",
        "FG",
        "RA"
      ],
      "severityScore": 100,
      "metarRaw": "METAR LBPD 152200Z AUTO 07006KT 9999 BKN230/// 04/02 Q1023",
      "tafRaw": "TAF LBPD 151700Z 1518/1618 28010KT 9999 SCT070 \n  BECMG 1519/1521 VRB03KT \n  BECMG 1523/1601 3000 BR BKN015 \n  PROB30 1602/1605 0800 FZFG VV002 \n  BECMG 1606/1608 10010KT 9999 NSW BKN050 \n  TEMPO 1614/1618 5000 RASN BKN015 OVC040"
    },
    {
      "icao": "LBSF",
      "iata": "SOF",
      "name": "Sofia Airport",
      "updatedAt": "152200Z",
      "visibility_m": 5000,
      "taf_visibility_m": 600,
      "worst_visibility_m": 600,
      "ceiling_ft": 600,
      "hazards": [
        "BR",
        "FZFG",
        "FG"
      ],
      "severityScore": 100,
      "metarRaw": "METAR LBSF 152200Z AUTO VRB02KT 9000 OVC058/// 00/M01 Q1024 TEMPO 5000 BR",
      "tafRaw": "TAF LBSF 151700Z 1518/1618 VRB03KT 9999 SCT060 \n  BECMG 1522/1524 4000 BR \n  TEMPO 1600/1607 1500 BR BKN010 \n  PROB30 1602/1606 0600 FZFG SCT003 BKN006 \n  BECMG 1608/1610 9999 NSW SCT060 \n  BECMG 1612/1614 08010KT"
    },
    {
      "icao": "LHDC",
      "iata": "DEB",
      "name": "Debrecen International Airport",
      "updatedAt": "152145Z",
      "visibility_m": 3100,
      "taf_visibility_m": 500,
      "worst_visibility_m": 500,
      "ceiling_ft": 300,
      "hazards": [
        "BR",
        "DZ",
        "FZFG",
        "FZRA",
        "FG",
        "RA"
      ],
      "severityScore": 100,
      "metarRaw": "METAR LHDC 152145Z AUTO 07005KT 3100 -DZ BR OVC003 01/00 Q1023",
      "tafRaw": "TAF LHDC 151415Z 1515/1524 VRB03KT 5000 BR SCT004 OVC040 \n  TEMPO 1515/1524 1400 BCFG BR BKN004 OVC030 \n  PROB40 \n  TEMPO 1517/1524 0500 FZFG BKN002 OVC015 \n  TEMPO 1520/1524 -FZRADZ"
    },
    {
      "icao": "LIPR",
      "iata": "RMI",
      "name": "Federico Fellini International Airport",
      "updatedAt": "152220Z",
      "visibility_m": 1800,
      "taf_visibility_m": 300,
      "worst_visibility_m": 300,
      "ceiling_ft": 100,
      "hazards": [
        "BR",
        "FG"
      ],
      "severityScore": 100,
      "metarRaw": "METAR LIPR 152220Z AUTO 31002KT 1800 BR BKN004/// 07/06 Q1022",
      "tafRaw": "TAF LIPR 151700Z 1518/1618 VRB04KT 3000 BR SCT020 \n  TEMPO 1518/1609 0300 FG BKN001"
    },
    {
      "icao": "LKPR",
      "iata": "PRG",
      "name": "Václav Havel Airport Prague",
      "updatedAt": "152200Z",
      "visibility_m": 200,
      "taf_visibility_m": 200,
      "worst_visibility_m": 200,
      "ceiling_ft": 100,
      "hazards": [
        "FZFG",
        "FG",
        "BR"
      ],
      "severityScore": 100,
      "metarRaw": "METAR LKPR 152200Z VRB02KT 0200 R24/0400N R30/0400N FZFG VV001 M00/M00 Q1018 NOSIG",
      "tafRaw": "TAF LKPR 152000Z 1521/1703 VRB02KT 0200 FG VV001 \n  TEMPO 1521/1607 0400 FZFG OVC002 \n  BECMG 1609/1611 10005KT 1800 BR BKN003 \n  TEMPO 1612/1617 3000 BR BKN005 \n  BECMG 1617/1619 1000 BCFG OVC002 \n  TEMPO 1619/1703 0300 FZFG VV001"
    },
    {
      "icao": "LOWW",
      "iata": "VIE",
      "name": "Vienna International Airport",
      "updatedAt": "152220Z",
      "visibility_m": 550,
      "taf_visibility_m": 300,
      "worst_visibility_m": 300,
      "ceiling_ft": 100,
      "hazards": [
        "FZFG",
        "FZDZ",
        "FG",
        "DZ",
        "BR"
      ],
      "severityScore": 100,
      "metarRaw": "METAR LOWW 152220Z 14007KT 0550 R16/0650N R29/0600N FZFG FEW000 BKN001 M01/M01 Q1021 TEMPO FM2300 -FZDZ",
      "tafRaw": "TAF LOWW 152015Z 1521/1703 14006KT 0800 BCFG FEW001 BKN002 TX01/1702Z TNM01/1521Z \n  TEMPO 1521/1610 0500 FZFG VV001 \n  PROB40 \n  TEMPO 1523/1610 -FZDZ \n  PROB30 \n  TEMPO 1602/1609 0300 \n  FM161000 13010KT 3000 BR BKN002 \n  TEMPO 1610/1624 1200 -DZ BR"
    },
    {
      "icao": "LPPT",
      "iata": "LIS",
      "name": "Lisbon Humberto Delgado Airport",
      "updatedAt": "152200Z",
      "visibility_m": 10000,
      "taf_visibility_m": 2000,
      "worst_visibility_m": 2000,
      "ceiling_ft": 400,
      "hazards": [
        "BR",
        "SHRA",
        "TS",
        "RA",
        "DZ"
      ],
      "severityScore": 100,
      "metarRaw": "METAR LPPT 152200Z 32006KT 9999 FEW015 12/11 Q1017",
      "tafRaw": "TAF LPPT 151700Z 1518/1624 22015KT 2000 RADZ BR SCT002 BKN004 \n  BECMG 1518/1520 33010KT 9999 NSW SCT015 SCT025 \n  TEMPO 1520/1624 5000 SHRA BKN012 FEW018CB \n  PROB30 \n  TEMPO 1600/1624 VRB15G25KT 2000 +TSRAGS SCT015CB"
    },
    {
      "icao": "LRCL",
      "iata": "CLJ",
      "name": "Cluj Avram Iancu International Airport",
      "updatedAt": "152200Z",
      "visibility_m": 4000,
      "taf_visibility_m": 600,
      "worst_visibility_m": 600,
      "ceiling_ft": 600,
      "hazards": [
        "BR",
        "FZFG",
        "FZDZ",
        "DZ",
        "FG"
      ],
      "severityScore": 100,
      "metarRaw": "METAR LRCL 152200Z 00000KT 4000 BR OVC006 01/00 Q1024",
      "tafRaw": "TAF LRCL 152000Z 1521/1606 VRB04KT 2000 -DZ BR OVC005 \n  BECMG 1521/1523 -FZDZ BR \n  TEMPO 1600/1606 0600 -FZDZ FZFG OVC002"
    },
    {
      "icao": "LRSB",
      "iata": "SBZ",
      "name": "Sibiu International Airport",
      "updatedAt": "152200Z",
      "visibility_m": 400,
      "taf_visibility_m": 300,
      "worst_visibility_m": 300,
      "ceiling_ft": 300,
      "hazards": [
        "FG",
        "FZFG",
        "BR",
        "RA",
        "FZDZ",
        "DZ"
      ],
      "severityScore": 100,
      "metarRaw": "METAR LRSB 152200Z 36001KT 0400 R27/0650N FG VV003 01/01 Q1022",
      "tafRaw": "TAF LRSB 151700Z 1518/1618 VRB04KT 1500 BR BKN005 OVC010 \n  TEMPO 1518/1522 0300 -FZDZ FZFG OVC002 \n  TEMPO 1602/1607 0800 -FZDZ FZFG BKN002 OVC010 \n  BECMG 1607/1609 5000 -RA BR BKN010 OVC025 \n  TEMPO 1609/1614 3000 RA BR \n  BECMG 1614/1616 11010KT 9999 NSW BKN015 BKN025"
    },
    {
      "icao": "LRSV",
      "iata": "SCV",
      "name": "Suceava Stefan cel Mare Airport",
      "updatedAt": "152200Z",
      "visibility_m": 3000,
      "taf_visibility_m": 600,
      "worst_visibility_m": 600,
      "ceiling_ft": 200,
      "hazards": [
        "BR",
        "FZFG",
        "SN",
        "FG"
      ],
      "severityScore": 100,
      "metarRaw": "METAR LRSV 152200Z 06007KT 3000 BR OVC002 M08/M09 Q1025",
      "tafRaw": "TAF LRSV 152000Z 1521/1606 08007KT 1500 BR BKN002 \n  TEMPO 1521/1603 0600 -SN FZFG OVC001"
    },
    {
      "icao": "LZIB",
      "iata": "BTS",
      "name": "M. R. Štefánik Airport",
      "updatedAt": "152200Z",
      "visibility_m": 500,
      "taf_visibility_m": null,
      "worst_visibility_m": 500,
      "ceiling_ft": 200,
      "hazards": [
        "FZFG",
        "BR",
        "FZDZ",
        "FG",
        "DZ"
      ],
      "severityScore": 100,
      "metarRaw": "METAR LZIB 152200Z 04006KT 1400 R31/P2000N R22/P2000N -FZDZ BR SCT001 OVC002 M00/M01 Q1022 TEMPO 0500 FZFG",
      "tafRaw": null
    },
    {
      "icao": "LZKZ",
      "iata": "KSC",
      "name": "Košice International Airport",
      "updatedAt": "152200Z",
      "visibility_m": 4800,
      "taf_visibility_m": 700,
      "worst_visibility_m": 700,
      "ceiling_ft": 2400,
      "hazards": [
        "BR",
        "RA",
        "FZFG",
        "FZDZ",
        "FG",
        "DZ"
      ],
      "severityScore": 100,
      "metarRaw": "METAR LZKZ 152200Z VRB02KT 4800 -RA BR OVC024 M01/M01 Q1023 NOSIG",
      "tafRaw": "TAF LZKZ 151715Z 1518/1618 VRB02KT 9999 BKN022 \n  TEMPO 1518/1607 2500 BR BKN008 \n  PROB40 \n  TEMPO 1519/1602 0700 FZDZ FZFG OVC002 \n  BECMG 1607/1609 03006KT 4000 BR FEW007 BKN011 \n  BECMG 1609/1611 6000 BKN016"
    },
    {
      "icao": "LZTT",
      "iata": "TAT",
      "name": "Poprad-Tatry Airport",
      "updatedAt": "152200Z",
      "visibility_m": 6000,
      "taf_visibility_m": 800,
      "worst_visibility_m": 800,
      "ceiling_ft": 1200,
      "hazards": [
        "FZFG",
        "BR",
        "FZDZ",
        "FG",
        "DZ"
      ],
      "severityScore": 100,
      "metarRaw": "METAR LZTT 152200Z 00000KT 6000 FEW008 OVC012 00/M01 Q1020",
      "tafRaw": "TAF LZTT 151715Z 1518/1618 VRB02KT 9999 SCT010 OVC025 \n  TEMPO 1518/1607 2500 BR OVC010 \n  PROB40 \n  TEMPO 1518/1600 0800 FZDZ FZFG OVC002 \n  BECMG 1607/1609 6000 BKN008"
    },
    {
      "icao": "UAAA",
      "iata": "ALA",
      "name": "Almaty International Airport",
      "updatedAt": "152200Z",
      "visibility_m": 2800,
      "taf_visibility_m": 300,
      "worst_visibility_m": 300,
      "ceiling_ft": 300,
      "hazards": [
        "BR",
        "FZFG",
        "SN",
        "BLSN",
        "SHSN",
        "FG"
      ],
      "severityScore": 100,
      "metarRaw": "METAR UAAA 152200Z 35001MPS 2800 BR OVC003 M08/M09 Q1019 NOSIG RMK QBB110",
      "tafRaw": "TAF UAAA 151703Z 1518/1618 32003G08MPS 1600 BR FU FEW004 BKN011CB OVC020 TXM08/1608Z TNM11/1603Z \n  TEMPO 1518/1604 0300 -SN FZFG OVC002 \n  BECMG 1604/1606 3100 \n  TEMPO 1604/1609 1500 -SHSN BR BKN004 BKN015CB \n  FM160900 27003G08MPS 3100 -SHSN BR BKN015CB OVC020 \n  TEMPO 1609/1618 33005G12MPS 0800 SHSN BLSN FZFG VV002"
    },
    {
      "icao": "ENGM",
      "iata": "OSL",
      "name": "Oslo-Gardermoen International Airport",
      "updatedAt": "152220Z",
      "visibility_m": 4600,
      "taf_visibility_m": null,
      "worst_visibility_m": 4600,
      "ceiling_ft": 300,
      "hazards": [
        "BR",
        "FZRA",
        "RA"
      ],
      "severityScore": 97,
      "metarRaw": "METAR ENGM 152220Z 03004KT 360V080 4600 1600E -FZRA BR BKN003 OVC009 M01/M01 Q1009",
      "tafRaw": null
    },
    {
      "icao": "EPKK",
      "iata": "KRK",
      "name": "Kraków John Paul II International Airport",
      "updatedAt": "152200Z",
      "visibility_m": 5000,
      "taf_visibility_m": 100,
      "worst_visibility_m": 100,
      "ceiling_ft": 1000,
      "hazards": [
        "BR",
        "FG"
      ],
      "severityScore": 97,
      "metarRaw": "METAR EPKK 152200Z 06007KT 5000 BR BKN010 OVC023 01/M00 Q1021",
      "tafRaw": "TAF EPKK 152030Z 1521/1621 05005KT 4000 BR BKN010 \n  BECMG 1521/1524 2000 BR BKN004 \n  TEMPO 1600/1609 0700 FG OVC001 \n  PROB40 \n  TEMPO 1600/1609 0100 FG \n  BECMG 1609/1612 7000 BKN012 \n  BECMG 1616/1619 4000 BR BKN005"
    },
    {
      "icao": "LQSA",
      "iata": "SJJ",
      "name": "Sarajevo International Airport",
      "updatedAt": "152200Z",
      "visibility_m": 2500,
      "taf_visibility_m": 500,
      "worst_visibility_m": 500,
      "ceiling_ft": 5500,
      "hazards": [
        "BR",
        "FZFG",
        "FG"
      ],
      "severityScore": 95,
      "metarRaw": "METAR LQSA 152200Z VRB03KT 2500 BR BKN055 02/02 Q1023",
      "tafRaw": "TAF LQSA 151700Z 1518/1618 VRB02KT 8000 FEW012 SCT050 TX04/1614Z TNM03/1605Z \n  TEMPO 1521/1609 2500 BR BKN008 \n  PROB40 1604/1608 0500 FZFG BKN004"
    },
    {
      "icao": "LQTZ",
      "iata": "TZL",
      "name": "Tuzla International Airport",
      "updatedAt": "152200Z",
      "visibility_m": 5000,
      "taf_visibility_m": 700,
      "worst_visibility_m": 700,
      "ceiling_ft": 400,
      "hazards": [
        "BR",
        "FG"
      ],
      "severityScore": 90,
      "metarRaw": "METAR LQTZ 152200Z VRB01KT 5000 BR SCT060 02/02 Q1022",
      "tafRaw": "TAF LQTZ 151700Z 1518/1618 VRB02KT 6000 BKN050 TX09/1613Z TN00/1605Z \n  TEMPO 1518/1608 3000 BR \n  PROB30 1523/1607 0700 FG BKN004"
    },
    {
      "icao": "LEMD",
      "iata": "MAD",
      "name": "Adolfo Suárez Madrid–Barajas Airport",
      "updatedAt": "152200Z",
      "visibility_m": 8000,
      "taf_visibility_m": 600,
      "worst_visibility_m": 600,
      "ceiling_ft": 1300,
      "hazards": [
        "RA",
        "FG",
        "BR",
        "DZ"
      ],
      "severityScore": 89,
      "metarRaw": "METAR LEMD 152200Z 16005KT 140V200 8000 -RA FEW007 BKN013 OVC027 06/06 Q1016 RERA NOSIG",
      "tafRaw": "TAF LEMD 151700Z 1518/1624 22010KT 9999 SCT020 TX11/1615Z TN05/1607Z \n  TEMPO 1518/1522 3000 RA DZRA BR BKN014 \n  TEMPO 1522/1609 3000 BR BCFG DZRA BKN004 BKN010 \n  PROB30 \n  TEMPO 1604/1608 0600 FG VV002 \n  TEMPO 1604/1613 VRB04KT \n  PROB30 \n  TEMPO 1609/1615 DZRA BKN014"
    },
    {
      "icao": "LIPE",
      "iata": "BLQ",
      "name": "Bologna Guglielmo Marconi Airport",
      "updatedAt": "152220Z",
      "visibility_m": 1800,
      "taf_visibility_m": 300,
      "worst_visibility_m": 300,
      "ceiling_ft": 1500,
      "hazards": [
        "BR",
        "FG"
      ],
      "severityScore": 87,
      "metarRaw": "METAR LIPE 152220Z 16001KT 1800 BR BKN015 06/06 Q1022",
      "tafRaw": "TAF LIPE 151700Z 1518/1618 VRB04KT 3000 BR BKN040 \n  TEMPO 1518/1609 0300 FG BKN001"
    },
    {
      "icao": "LRBV",
      "iata": "GHV",
      "name": "Brașov-Ghimbav International Airport",
      "updatedAt": "152200Z",
      "visibility_m": 650,
      "taf_visibility_m": 3000,
      "worst_visibility_m": 650,
      "ceiling_ft": 500,
      "hazards": [
        "BR",
        "SN"
      ],
      "severityScore": 78,
      "metarRaw": "METAR LRBV 152200Z AUTO 10002KT 0700 0650 R21/0800D UP OVC005/// 01/00 Q1022",
      "tafRaw": "TAF LRBV 152000Z 1521/1606 VRB04KT 5000 BR BKN005 OVC010 \n  TEMPO 1521/1523 3000 BR \n  PROB40 \n  TEMPO 1523/1603 3000 -SN BR BKN010 OVC020"
    },
    {
      "icao": "EKCH",
      "iata": "CPH",
      "name": "Copenhagen Kastrup Airport",
      "updatedAt": "152220Z",
      "visibility_m": 2000,
      "taf_visibility_m": 1500,
      "worst_visibility_m": 1500,
      "ceiling_ft": 400,
      "hazards": [
        "BR",
        "FG"
      ],
      "severityScore": 75,
      "metarRaw": "METAR EKCH 152220Z 14010KT 4000 BR OVC004 04/03 Q1013 TEMPO 2000",
      "tafRaw": "TAF EKCH 152027Z 1521/1621 15015KT 5000 OVC002 \n  TEMPO 1521/1601 2000 BR OVC005 \n  FM160100 16020KT 8000 SCT005 \n  TEMPO 1601/1607 1500 BCFG BKN004 \n  BECMG 1614/1617 BKN012 \n  BECMG 1617/1620 BKN025"
    },
    {
      "icao": "EPWR",
      "iata": "WRO",
      "name": "Copernicus Wrocław Airport",
      "updatedAt": "152200Z",
      "visibility_m": 4000,
      "taf_visibility_m": 300,
      "worst_visibility_m": 300,
      "ceiling_ft": 4500,
      "hazards": [
        "BR",
        "FG"
      ],
      "severityScore": 75,
      "metarRaw": "METAR EPWR 152200Z 11006KT 4000 BR BKN045 02/02 Q1019",
      "tafRaw": "TAF EPWR 152030Z 1521/1621 12006KT 4000 BR OVC035 \n  BECMG 1521/1524 0800 FG BKN002 \n  TEMPO 1521/1609 0300 FG BKN001 \n  BECMG 1609/1612 8000 SCT005 \n  BECMG 1615/1618 2000 BR \n  TEMPO 1616/1621 0500 FG BKN002"
    },
    {
      "icao": "LIBR",
      "iata": "BDS",
      "name": "Brindisi Airport",
      "updatedAt": "152220Z",
      "visibility_m": 4000,
      "taf_visibility_m": 1500,
      "worst_visibility_m": 1500,
      "ceiling_ft": 100,
      "hazards": [
        "BR",
        "FG"
      ],
      "severityScore": 75,
      "metarRaw": "METAR LIBR 152220Z 28004KT 4000 BR FEW040 08/07 Q1022",
      "tafRaw": "TAF LIBR 151700Z 1518/1618 VRB05KT 9999 FEW025 \n  TEMPO 1521/1607 1500 BCFG BKN001"
    },
    {
      "icao": "LIPQ",
      "iata": "TRS",
      "name": "Trieste–Friuli Venezia Giulia Airport",
      "updatedAt": "152220Z",
      "visibility_m": 2700,
      "taf_visibility_m": 1200,
      "worst_visibility_m": 1200,
      "ceiling_ft": 200,
      "hazards": [
        "BR",
        "FG"
      ],
      "severityScore": 75,
      "metarRaw": "METAR LIPQ 152220Z AUTO VRB02KT 2700 BR OVC020/// 08/07 Q1022",
      "tafRaw": "TAF LIPQ 151700Z 1518/1618 VRB04KT 3000 BR BKN035 \n  TEMPO 1600/1606 1200 BCFG BKN002 \n  BECMG 1608/1610 8000 \n  BECMG 1616/1618 3000 BR"
    },
    {
      "icao": "GMMN",
      "iata": "CMN",
      "name": "Mohammed V International Airport",
      "updatedAt": "152200Z",
      "visibility_m": 10000,
      "taf_visibility_m": 2000,
      "worst_visibility_m": 2000,
      "ceiling_ft": 2000,
      "hazards": [
        "BR",
        "TSRA",
        "RA",
        "TS"
      ],
      "severityScore": 72,
      "metarRaw": "METAR GMMN 152200Z 20006KT 9999 SCT020 SCT120 10/09 Q1023 NOSIG",
      "tafRaw": "TAF GMMN 151700Z 1518/1624 32008KT 9999 BKN020 SCT200 \n  PROB30 1603/1607 4000 BR SCT010 BKN020 \n  BECMG 1613/1615 28015KT 5000 RA SCT016TCU BKN023 \n  PROB30 1619/1624 2000 TSRA SCT016TCU FEW020CB BKN023"
    },
    {
      "icao": "LIMC",
      "iata": "MXP",
      "name": "Milan Malpensa International Airport",
      "updatedAt": "152220Z",
      "visibility_m": 1500,
      "taf_visibility_m": null,
      "worst_visibility_m": 1500,
      "ceiling_ft": 200,
      "hazards": [
        "FG"
      ],
      "severityScore": 70,
      "metarRaw": "METAR LIMC 152220Z VRB01KT 1500 R35R/1200N R17L/1100U R35L/P2000N BCFG OVC002 06/06 Q1022 NOSIG",
      "tafRaw": null
    },
    {
      "icao": "LIME",
      "iata": "BGY",
      "name": "Milan Bergamo Airport / Antonio Locatelli Air Base",
      "updatedAt": "152220Z",
      "visibility_m": 4000,
      "taf_visibility_m": 800,
      "worst_visibility_m": 800,
      "ceiling_ft": 1500,
      "hazards": [
        "BR",
        "FG"
      ],
      "severityScore": 67,
      "metarRaw": "METAR LIME 152220Z 01003KT 4000 BR BKN015 04/04 Q1022 NOSIG",
      "tafRaw": "TAF LIME 151700Z 1518/1618 VRB04KT 2000 BR BKN013 \n  TEMPO 1521/1608 0800 FG BKN005"
    },
    {
      "icao": "LIPX",
      "iata": "VRN",
      "name": "Verona Villafranca Valerio Catullo Airport",
      "updatedAt": "152220Z",
      "visibility_m": 5000,
      "taf_visibility_m": 500,
      "worst_visibility_m": 500,
      "ceiling_ft": 6500,
      "hazards": [
        "BR",
        "FG"
      ],
      "severityScore": 65,
      "metarRaw": "METAR LIPX 152220Z 32003KT 5000 BR BKN065 05/04 Q1022",
      "tafRaw": "TAF LIPX 151700Z 1518/1618 VRB04KT 4000 BR BKN040 \n  TEMPO 1521/1609 0500 FG BKN010"
    },
    {
      "icao": "LRBS",
      "iata": "BBU",
      "name": "Bucharest Băneasa Aurel Vlaicu International Airport",
      "updatedAt": "152200Z",
      "visibility_m": 5000,
      "taf_visibility_m": 1500,
      "worst_visibility_m": 1500,
      "ceiling_ft": 500,
      "hazards": [
        "BR",
        "SN"
      ],
      "severityScore": 63,
      "metarRaw": "METAR LRBS 152200Z 05008KT 020V080 5000 BR NSC M01/M02 Q1025 NOSIG",
      "tafRaw": "TAF LRBS 151700Z 1518/1618 06007KT 5000 BR NSC \n  BECMG 1519/1521 3000 BR BKN010 \n  TEMPO 1605/1610 07017KT 1500 -SN BR BKN005 OVC035 \n  BECMG 1610/1612 9999 NSW SCT025"
    },
    {
      "icao": "LROP",
      "iata": "OTP",
      "name": "Bucharest Henri Coandă International Airport",
      "updatedAt": "152200Z",
      "visibility_m": 4000,
      "taf_visibility_m": 1500,
      "worst_visibility_m": 1500,
      "ceiling_ft": 500,
      "hazards": [
        "BR",
        "SN"
      ],
      "severityScore": 63,
      "metarRaw": "METAR LROP 152200Z 06010KT 4000 BR NSC M01/M02 Q1025 NOSIG",
      "tafRaw": "TAF LROP 151700Z 1518/1618 06007KT 5000 BR NSC \n  BECMG 1519/1521 3000 BR BKN010 \n  TEMPO 1605/1610 07017KT 1500 -SN BR BKN005 OVC035 \n  BECMG 1610/1612 9999 NSW SCT025"
    },
    {
      "icao": "EGPF",
      "iata": "GLA",
      "name": "Glasgow Airport",
      "updatedAt": "152220Z",
      "visibility_m": 10000,
      "taf_visibility_m": 4000,
      "worst_visibility_m": 4000,
      "ceiling_ft": 600,
      "hazards": [
        "BR",
        "SHRA",
        "RA"
      ],
      "severityScore": 61,
      "metarRaw": "METAR EGPF 152220Z AUTO 06006KT 9999 SCT025 01/00 Q0998",
      "tafRaw": "TAF EGPF 151656Z 1518/1618 21010KT 9999 FEW045 \n  BECMG 1518/1521 VRB03KT \n  PROB30 \n  TEMPO 1522/1604 4000 BR \n  PROB30 \n  TEMPO 1604/1609 4000 BR BKN006 \n  TEMPO 1609/1618 6000 SHRA BKN012"
    },
    {
      "icao": "LFOB",
      "iata": "BVA",
      "name": "Beauvais Tillé airport",
      "updatedAt": "152200Z",
      "visibility_m": 3500,
      "taf_visibility_m": 3500,
      "worst_visibility_m": 3500,
      "ceiling_ft": 900,
      "hazards": [
        "SHRA",
        "RA",
        "BR"
      ],
      "severityScore": 61,
      "metarRaw": "METAR LFOB 152200Z AUTO 19015KT 9999 OVC020 10/08 Q1003 TEMPO 21020G30KT 3500 SHRA BKN009 OVC013",
      "tafRaw": "TAF LFOB 151700Z 1518/1618 17010G20KT 9999 BKN030 \n  PROB40 \n  TEMPO 1519/1523 19020G30KT 4500 -RA BKN014 OVC025 \n  TEMPO 1523/1602 21020G30KT 3500 SHRA BKN009 OVC013 \n  BECMG 1602/1604 19008KT BKN012 \n  BECMG 1604/1607 BKN008 OVC012 \n  TEMPO 1606/1609 4000 BR BKN004 OVC007 \n  BECMG 1612/1614 BKN013 OVC018"
    },
    {
      "icao": "EGKK",
      "iata": "LGW",
      "name": "London Gatwick Airport",
      "updatedAt": "152220Z",
      "visibility_m": 10000,
      "taf_visibility_m": 3000,
      "worst_visibility_m": 3000,
      "ceiling_ft": 1200,
      "hazards": [
        "BR",
        "RA",
        "SHRA",
        "DZ"
      ],
      "severityScore": 58,
      "metarRaw": "METAR EGKK 152220Z 25004KT 9999 BKN012 06/06 Q0999",
      "tafRaw": "TAF EGKK 151654Z 1518/1624 18015KT 9999 BKN015 \n  BECMG 1518/1521 25010KT \n  TEMPO 1518/1522 6000 -RADZ RA BKN010 \n  PROB40 \n  TEMPO 1518/1522 3000 RADZ +RA BKN006 \n  PROB40 \n  TEMPO 1518/1519 19018G30KT \n  PROB40 \n  TEMPO 1522/1606 5000 BR BKN004 \n  BECMG 1600/1603 19006KT \n  PROB40 \n  TEMPO 1606/1615 6000 SHRA BKN008 \n  BECMG 1614/1617 13010KT \n  PROB30 \n  TEMPO 1615/1624 7000 SHRA \n  PROB30 \n  TEMPO 1623/1624 BKN006"
    },
    {
      "icao": "LPFR",
      "iata": "FAO",
      "name": "Faro Airport",
      "updatedAt": "152200Z",
      "visibility_m": 7000,
      "taf_visibility_m": 5000,
      "worst_visibility_m": 5000,
      "ceiling_ft": 1200,
      "hazards": [
        "DZ",
        "BR",
        "SHRA",
        "RA"
      ],
      "severityScore": 58,
      "metarRaw": "METAR LPFR 152200Z 22015KT 7000 -DZ SCT006 BKN012 14/14 Q1017",
      "tafRaw": "TAF LPFR 151700Z 1518/1618 24013KT 9999 SCT012 BKN025 \n  TEMPO 1520/1602 5000 RADZ BR SCT008 BKN012 \n  BECMG 1602/1604 31012KT \n  TEMPO 1609/1618 5000 SHRA BKN015 FEW020CB"
    },
    {
      "icao": "LPMA",
      "iata": "FNC",
      "name": "Madeira International Airport Cristiano Ronaldo",
      "updatedAt": "152200Z",
      "visibility_m": 10000,
      "taf_visibility_m": 5000,
      "worst_visibility_m": 5000,
      "ceiling_ft": 1300,
      "hazards": [
        "BR",
        "SHRA",
        "RA",
        "DZ"
      ],
      "severityScore": 58,
      "metarRaw": "METAR LPMA 152200Z 28005KT 9999 FEW015 16/10 Q1025",
      "tafRaw": "TAF LPMA 151700Z 1518/1618 18005KT 9999 SCT012 BKN025 \n  TEMPO 1522/1603 5000 RADZ BR SCT008 BKN013 \n  BECMG 1601/1603 35013KT \n  PROB30 \n  TEMPO 1603/1618 35017G27KT 8000 SHRA BKN013 FEW020TCU"
    },
    {
      "icao": "LPPS",
      "iata": "PXO",
      "name": "Porto Santo Airport",
      "updatedAt": "152200Z",
      "visibility_m": 10000,
      "taf_visibility_m": 5000,
      "worst_visibility_m": 5000,
      "ceiling_ft": 1200,
      "hazards": [
        "BR",
        "SHRA",
        "RA",
        "DZ"
      ],
      "severityScore": 58,
      "metarRaw": "METAR LPPS 152200Z 28013KT 9999 SCT013 17/15 Q1024",
      "tafRaw": "TAF LPPS 151700Z 1518/1624 27012KT 9999 SCT015 BKN030 \n  TEMPO 1521/1601 5000 RADZ BR SCT006 BKN012 \n  BECMG 1601/1603 34013KT SCT015 \n  PROB30 \n  TEMPO 1603/1624 8000 SHRA BKN012 FEW018CB"
    },
    {
      "icao": "ESSA",
      "iata": "ARN",
      "name": "Stockholm-Arlanda Airport",
      "updatedAt": "152220Z",
      "visibility_m": 10000,
      "taf_visibility_m": 3000,
      "worst_visibility_m": 3000,
      "ceiling_ft": 400,
      "hazards": [
        "BR",
        "RA"
      ],
      "severityScore": 57,
      "metarRaw": "METAR ESSA 152220Z 17010KT 9999 FEW027 01/M00 Q1016 NOSIG",
      "tafRaw": "TAF ESSA 152030Z 1521/1621 18014KT 9999 SCT003 OVC005 \n  BECMG 1521/1523 BKN015 \n  PROB40 1523/1604 4000 RA BKN012 \n  BECMG 1604/1606 OVC006 \n  PROB40 1606/1612 3000 RA BR BKN004"
    },
    {
      "icao": "EETN",
      "iata": "TLL",
      "name": "Lennart Meri Tallinn Airport",
      "updatedAt": "152220Z",
      "visibility_m": 10000,
      "taf_visibility_m": 2000,
      "worst_visibility_m": 2000,
      "ceiling_ft": 2500,
      "hazards": [
        "SN",
        "FZDZ",
        "DZ"
      ],
      "severityScore": 56,
      "metarRaw": "METAR EETN 152220Z 18012KT 9999 FEW008 OVC025 M07/M09 Q1024",
      "tafRaw": "TAF EETN 151730Z 1518/1618 17012KT 9999 SCT008 BKN035 \n  TEMPO 1518/1602 2000 SN DRSN BKN005 OVC025 \n  PROB40 \n  TEMPO 1518/1524 -FZDZ \n  BECMG 1602/1604 OVC020 \n  TEMPO 1606/1618 BKN005 BKN013"
    },
    {
      "icao": "LRSM",
      "iata": "SUJ",
      "name": "Satu Mare International Airport",
      "updatedAt": "152200Z",
      "visibility_m": 6000,
      "taf_visibility_m": 1500,
      "worst_visibility_m": 1500,
      "ceiling_ft": 200,
      "hazards": [
        "BR"
      ],
      "severityScore": 55,
      "metarRaw": "METAR LRSM 152200Z AUTO 09004KT 6000 OVC014/// 00/M01 Q1024",
      "tafRaw": "TAF LRSM 151400Z 1515/1524 VRB04KT 5000 BR BKN005 \n  BECMG 1516/1518 1500 BR OVC002"
    },
    {
      "icao": "OJAI",
      "iata": "AMM",
      "name": "Queen Alia International Airport",
      "updatedAt": "152200Z",
      "visibility_m": 2000,
      "taf_visibility_m": 800,
      "worst_visibility_m": 800,
      "ceiling_ft": null,
      "hazards": [
        "BR",
        "FG"
      ],
      "severityScore": 55,
      "metarRaw": "METAR OJAI 152200Z 12001KT 2000 BR NSC 03/03 Q1025 NOSIG",
      "tafRaw": "TAF OJAI 151653Z 1518/1624 29008KT 5000 HZ FEW030 \n  PROB30 1600/1607 VRB02KT 1500 BR \n  PROB40 1602/1607 0800 FG"
    },
    {
      "icao": "LTFM",
      "iata": "IST",
      "name": "İstanbul Airport",
      "updatedAt": "152220Z",
      "visibility_m": 10000,
      "taf_visibility_m": 2500,
      "worst_visibility_m": 2500,
      "ceiling_ft": 7000,
      "hazards": [
        "BR",
        "RA",
        "SHRA",
        "SN"
      ],
      "severityScore": 54,
      "metarRaw": "METAR LTFM 152220Z 25004KT 210V290 9999 SCT025 BKN070 09/08 Q1023 NOSIG RMK RWY17L 24007KT RWY34L 25005KT RWY16R 23006KT RWY36 24008KT RWY18 24008KT",
      "tafRaw": "TAF LTFM 151640Z 1518/1624 23012KT 9999 FEW025 BKN070 \n  BECMG 1518/1521 VRB02KT \n  PROB30 1600/1604 2500 -RA BR \n  BECMG 1606/1609 03017G27KT -SHRA SCT008 BKN022 \n  BECMG 1618/1621 -SHSNRA"
    },
    {
      "icao": "LRIA",
      "iata": "IAS",
      "name": "Iaşi Airport",
      "updatedAt": "152200Z",
      "visibility_m": 10000,
      "taf_visibility_m": 3000,
      "worst_visibility_m": 3000,
      "ceiling_ft": 800,
      "hazards": [
        "BR",
        "SN"
      ],
      "severityScore": 53,
      "metarRaw": "METAR LRIA 152200Z 03006KT 9999 OVC008 M06/M08 Q1028",
      "tafRaw": "TAF LRIA 152000Z 1521/1606 02006KT 5000 BR SCT010 OVC035 \n  TEMPO 1521/1601 3000 -SN BR BKN005 OVC025 \n  BECMG 1601/1603 8000 NSW"
    },
    {
      "icao": "EPGD",
      "iata": "GDN",
      "name": "Gdańsk Lech Wałęsa Airport",
      "updatedAt": "152200Z",
      "visibility_m": 1900,
      "taf_visibility_m": null,
      "worst_visibility_m": 1900,
      "ceiling_ft": 100,
      "hazards": [
        "BR"
      ],
      "severityScore": 50,
      "metarRaw": "METAR EPGD 152200Z 14011KT 1900 BR BKN001 OVC004 M03/M03 Q1020",
      "tafRaw": null
    },
    {
      "icao": "EPMO",
      "iata": "WMI",
      "name": "Modlin Airport",
      "updatedAt": "152200Z",
      "visibility_m": 1600,
      "taf_visibility_m": null,
      "worst_visibility_m": 1600,
      "ceiling_ft": 200,
      "hazards": [
        "BR"
      ],
      "severityScore": 50,
      "metarRaw": "METAR EPMO 152200Z 10005KT 050V170 1600 BR OVC002 M02/M02 Q1023",
      "tafRaw": null
    },
    {
      "icao": "ESGG",
      "iata": "GOT",
      "name": "Göteborg Landvetter Airport",
      "updatedAt": "152220Z",
      "visibility_m": 4300,
      "taf_visibility_m": null,
      "worst_visibility_m": 4300,
      "ceiling_ft": 200,
      "hazards": [
        "BR"
      ],
      "severityScore": 50,
      "metarRaw": "METAR ESGG 152220Z 15009KT 4300 BR OVC002 03/02 Q1010",
      "tafRaw": null
    },
    {
      "icao": "LRTM",
      "iata": "TGM",
      "name": "Târgu Mureş Transilvania International Airport",
      "updatedAt": "152200Z",
      "visibility_m": 4600,
      "taf_visibility_m": 1500,
      "worst_visibility_m": 1500,
      "ceiling_ft": 1000,
      "hazards": [
        "BR",
        "SN"
      ],
      "severityScore": 50,
      "metarRaw": "METAR LRTM 152200Z AUTO 03003KT 4600 BR SCT008/// BKN010/// OVC015/// 01/M00 Q1024",
      "tafRaw": "TAF LRTM 151400Z 1515/1524 VRB04KT 3000 BR SCT010 BKN030 \n  TEMPO 1522/1524 1500 -SN BR BKN010 OVC025"
    },
    {
      "icao": "ESKN",
      "iata": "NYO",
      "name": "Stockholm Skavsta Airport",
      "updatedAt": "152220Z",
      "visibility_m": 10000,
      "taf_visibility_m": 2500,
      "worst_visibility_m": 2500,
      "ceiling_ft": 900,
      "hazards": [
        "RA",
        "BR"
      ],
      "severityScore": 47,
      "metarRaw": "METAR ESKN 152220Z 16011KT 9999 -RA OVC009 03/02 Q1016",
      "tafRaw": "TAF ESKN 152030Z 1521/1621 17014KT 9999 BKN005 \n  BECMG 1521/1523 SCT005 BKN015 \n  BECMG 1523/1601 OVC012 \n  BECMG 1602/1604 OVC007 \n  TEMPO 1604/1621 17015G25KT 2500 BR BKN004"
    },
    {
      "icao": "EPWA",
      "iata": "WAW",
      "name": "Warsaw Chopin Airport",
      "updatedAt": "152200Z",
      "visibility_m": 4300,
      "taf_visibility_m": 2000,
      "worst_visibility_m": 2000,
      "ceiling_ft": 400,
      "hazards": [
        "BR"
      ],
      "severityScore": 45,
      "metarRaw": "METAR EPWA 152200Z 11008KT 4300 BR BKN004 OVC026 M03/M03 Q1023 NOSIG",
      "tafRaw": "TAF EPWA 152030Z 1521/1621 12010KT 4500 BR BKN005 \n  TEMPO 1521/1607 2000 BR BKN002 \n  BECMG 1607/1610 9999 BKN010 \n  BECMG 1613/1616 SCT015 BKN025"
    },
    {
      "icao": "EPLB",
      "iata": "LUZ",
      "name": "Lublin Airport",
      "updatedAt": "152200Z",
      "visibility_m": 3600,
      "taf_visibility_m": null,
      "worst_visibility_m": 3600,
      "ceiling_ft": 600,
      "hazards": [
        "BR"
      ],
      "severityScore": 40,
      "metarRaw": "METAR EPLB 152200Z 09006KT 3600 BR BKN006 OVC014 M04/M04 Q1025",
      "tafRaw": null
    },
    {
      "icao": "LRBC",
      "iata": "BCM",
      "name": "Bacău George Enescu International  Airport",
      "updatedAt": "152200Z",
      "visibility_m": 5000,
      "taf_visibility_m": 3000,
      "worst_visibility_m": 3000,
      "ceiling_ft": 1200,
      "hazards": [
        "BR",
        "SN"
      ],
      "severityScore": 40,
      "metarRaw": "METAR LRBC 152200Z 33006KT 5000 BR OVC012 M04/M06 Q1026",
      "tafRaw": "TAF LRBC 152000Z 1521/1606 VRB04KT 5000 BR OVC010 \n  TEMPO 1521/1603 3000 -SN BR BKN005 OVC020 \n  TEMPO 1603/1606 3000 -SN BR"
    },
    {
      "icao": "UGKO",
      "iata": "KUT",
      "name": "David the Builder Kutaisi International Airport",
      "updatedAt": "152200Z",
      "visibility_m": 10000,
      "taf_visibility_m": 2000,
      "worst_visibility_m": 2000,
      "ceiling_ft": 2000,
      "hazards": [
        "SHSN",
        "SN",
        "RA"
      ],
      "severityScore": 40,
      "metarRaw": "METAR UGKO 152200Z 08010KT 9999 SCT079 01/M03 Q1021 NOSIG",
      "tafRaw": "TAF UGKO 151700Z 1518/1618 08007KT 9999 BKN050 TX02/1612Z TNM01/1518Z \n  TEMPO 1518/1601 CAVOK \n  TEMPO 1601/1607 2000 SHSN SCT007 BKN015CB OVC030 \n  TEMPO 1607/1618 3000 SHSNRA SCT010 BKN020 OVC040"
    },
    {
      "icao": "EHBK",
      "iata": "MST",
      "name": "Maastricht Aachen Airport",
      "updatedAt": "152225Z",
      "visibility_m": 10000,
      "taf_visibility_m": 7000,
      "worst_visibility_m": 7000,
      "ceiling_ft": 1400,
      "hazards": [
        "RA",
        "SHRA"
      ],
      "severityScore": 38,
      "metarRaw": "METAR EHBK 152225Z AUTO 16013KT 9999 NSC 11/07 Q1006",
      "tafRaw": "TAF EHBK 151707Z 1518/1624 16010KT CAVOK \n  BECMG 1600/1603 20013KT \n  PROB30 \n  TEMPO 1603/1611 7000 -RA -SHRA BKN014 FEW018TCU \n  BECMG 1615/1618 14005KT"
    },
    {
      "icao": "LEZL",
      "iata": "SVQ",
      "name": "Sevilla Airport",
      "updatedAt": "152200Z",
      "visibility_m": 9000,
      "taf_visibility_m": 3000,
      "worst_visibility_m": 3000,
      "ceiling_ft": 3500,
      "hazards": [
        "BR",
        "RA",
        "SHRA"
      ],
      "severityScore": 36,
      "metarRaw": "METAR LEZL 152200Z 19004KT 160V230 9000 SCT030 BKN035 BKN045 13/11 Q1019 NOSIG",
      "tafRaw": "TAF LEZL 152000Z 1521/1621 VRB03KT CAVOK TX17/1614Z TN08/1607Z \n  TEMPO 1521/1605 VRB10KT 4000 RA SHRA FEW004CB BKN008 \n  PROB30 \n  TEMPO 1605/1609 3000 BR BKN001 \n  TEMPO 1616/1620 3000 RA"
    },
    {
      "icao": "LGTS",
      "iata": "SKG",
      "name": "Thessaloniki Macedonia International Airport",
      "updatedAt": "152220Z",
      "visibility_m": 10000,
      "taf_visibility_m": 4000,
      "worst_visibility_m": 4000,
      "ceiling_ft": null,
      "hazards": [
        "TS",
        "BR"
      ],
      "severityScore": 35,
      "metarRaw": "METAR LGTS 152220Z VRB03KT CAVOK 03/02 Q1024 NOSIG",
      "tafRaw": "TAF LGTS 151700Z 1518/1618 VRB03KT 9999 FEW030 \n  PROB30 1603/1607 4000 BR SCT008"
    },
    {
      "icao": "LRTR",
      "iata": "TSR",
      "name": "Timişoara Traian Vuia Airport",
      "updatedAt": "152200Z",
      "visibility_m": 4000,
      "taf_visibility_m": 1500,
      "worst_visibility_m": 1500,
      "ceiling_ft": 4200,
      "hazards": [
        "BR",
        "RA"
      ],
      "severityScore": 32,
      "metarRaw": "METAR LRTR 152200Z COR 10005KT 4000 BR BKN042 02/02 Q1023",
      "tafRaw": "TAF LRTR 151700Z 1518/1618 10006KT 5000 BR NSC \n  TEMPO 1518/1521 1500 BR \n  BECMG 1602/1604 3000 -RA BR BKN010 BKN030 \n  BECMG 1616/1618 BR"
    },
    {
      "icao": "LPPR",
      "iata": "OPO",
      "name": "Francisco de Sá Carneiro Airport",
      "updatedAt": "152200Z",
      "visibility_m": 6000,
      "taf_visibility_m": null,
      "worst_visibility_m": 6000,
      "ceiling_ft": 3000,
      "hazards": [
        "SHRA",
        "RA"
      ],
      "severityScore": 31,
      "metarRaw": "METAR LPPR 152200Z 13007KT 6000 -SHRA BKN030 09/09 Q1015",
      "tafRaw": null
    },
    {
      "icao": "EDDN",
      "iata": "NUE",
      "name": "Nuremberg Airport",
      "updatedAt": "152220Z",
      "visibility_m": 10000,
      "taf_visibility_m": 1200,
      "worst_visibility_m": 1200,
      "ceiling_ft": null,
      "hazards": [
        "FG"
      ],
      "severityScore": 30,
      "metarRaw": "METAR EDDN 152220Z AUTO 13003KT CAVOK 01/M00 Q1015",
      "tafRaw": "TAF EDDN 151700Z 1518/1618 12007KT CAVOK \n  PROB40 \n  TEMPO 1520/1523 1200 BCFG \n  TEMPO 1606/1609 1500 BCFG"
    },
    {
      "icao": "EDDS",
      "iata": "STR",
      "name": "Stuttgart Airport",
      "updatedAt": "152220Z",
      "visibility_m": 10000,
      "taf_visibility_m": 1200,
      "worst_visibility_m": 1200,
      "ceiling_ft": null,
      "hazards": [
        "FG"
      ],
      "severityScore": 30,
      "metarRaw": "METAR EDDS 152220Z AUTO 26004KT CAVOK 02/M00 Q1013",
      "tafRaw": "TAF EDDS 151700Z 1518/1618 VRB02KT CAVOK \n  PROB40 \n  TEMPO 1601/1609 1200 BCFG"
    },
    {
      "icao": "EDNY",
      "iata": "FDH",
      "name": "Friedrichshafen Airport",
      "updatedAt": "152220Z",
      "visibility_m": 10000,
      "taf_visibility_m": 1200,
      "worst_visibility_m": 1200,
      "ceiling_ft": null,
      "hazards": [
        "FG"
      ],
      "severityScore": 30,
      "metarRaw": "METAR EDNY 152220Z AUTO VRB01KT 9999 // FEW250/// M00/M01 Q1014",
      "tafRaw": "TAF EDNY 151700Z 1518/1603 05003KT CAVOK \n  PROB40 \n  TEMPO 1520/1603 1200 BCFG"
    },
    {
      "icao": "EDSB",
      "iata": "FKB",
      "name": "Karlsruhe Baden-Baden Airport",
      "updatedAt": "152220Z",
      "visibility_m": 10000,
      "taf_visibility_m": 1200,
      "worst_visibility_m": 1200,
      "ceiling_ft": null,
      "hazards": [
        "FG"
      ],
      "severityScore": 30,
      "metarRaw": "METAR EDSB 152220Z 15005KT CAVOK 04/03 Q1013",
      "tafRaw": "TAF EDSB 151700Z 1518/1618 VRB02KT CAVOK \n  PROB30 \n  TEMPO 1601/1609 1200 BCFG"
    },
    {
      "icao": "EGGW",
      "iata": "LTN",
      "name": "London Luton Airport",
      "updatedAt": "152220Z",
      "visibility_m": 10000,
      "taf_visibility_m": null,
      "worst_visibility_m": 10000,
      "ceiling_ft": 800,
      "hazards": [],
      "severityScore": 30,
      "metarRaw": "METAR EGGW 152220Z AUTO 28011KT 9999 OVC008 05/04 Q0997",
      "tafRaw": null
    },
    {
      "icao": "LHBP",
      "iata": "BUD",
      "name": "Budapest Liszt Ferenc International Airport",
      "updatedAt": "152200Z",
      "visibility_m": 6000,
      "taf_visibility_m": null,
      "worst_visibility_m": 6000,
      "ceiling_ft": 700,
      "hazards": [],
      "severityScore": 30,
      "metarRaw": "METAR LHBP 152200Z 04003KT 010V070 6000 FEW008 OVC014 M01/M02 Q1023 TEMPO BKN007 OVC014",
      "tafRaw": null
    },
    {
      "icao": "LIRZ",
      "iata": "PEG",
      "name": "Perugia San Francesco d'Assisi – Umbria International Airport",
      "updatedAt": "152220Z",
      "visibility_m": 10000,
      "taf_visibility_m": 1500,
      "worst_visibility_m": 1500,
      "ceiling_ft": 7000,
      "hazards": [
        "FG"
      ],
      "severityScore": 30,
      "metarRaw": "METAR LIRZ 152220Z AUTO 01002KT 9999 OVC038/// 10/08 Q1022",
      "tafRaw": "TAF LIRZ 151700Z 1518/1618 VRB05KT 9999 SCT040 BKN070 \n  TEMPO 1600/1609 1500 BCFG"
    },
    {
      "icao": "LTAC",
      "iata": "ESB",
      "name": "Esenboğa International Airport",
      "updatedAt": "152220Z",
      "visibility_m": 10000,
      "taf_visibility_m": 2000,
      "worst_visibility_m": 2000,
      "ceiling_ft": 8000,
      "hazards": [
        "BR",
        "SN"
      ],
      "severityScore": 28,
      "metarRaw": "METAR LTAC 152220Z 21007KT 9999 SCT015 SCT030 BKN080 03/M00 Q1022 NOSIG RMK RWY21C 20008KT RWY03L 20005KT RWY21R 19010KT RWY03R 19006KT 160V220 RWY21L 20008KT",
      "tafRaw": "TAF LTAC 151640Z 1518/1618 22008KT 9999 SCT035 BKN100 \n  PROB40 \n  TEMPO 1603/1607 2000 -SN BR SCT008 BKN030 BKN080"
    },
    {
      "icao": "ENBR",
      "iata": "BGO",
      "name": "Bergen Airport, Flesland",
      "updatedAt": "152220Z",
      "visibility_m": 10000,
      "taf_visibility_m": null,
      "worst_visibility_m": 10000,
      "ceiling_ft": 1800,
      "hazards": [
        "BR"
      ],
      "severityScore": 27,
      "metarRaw": "METAR ENBR 152220Z 14013KT 9999 BKN018 06/03 Q1002 RMK WIND 1200FT 15019KT",
      "tafRaw": null
    },
    {
      "icao": "ENTO",
      "iata": "TRF",
      "name": "Sandefjord Airport, Torp",
      "updatedAt": "152220Z",
      "visibility_m": 1800,
      "taf_visibility_m": null,
      "worst_visibility_m": 1800,
      "ceiling_ft": null,
      "hazards": [
        "DZ",
        "RA"
      ],
      "severityScore": 27,
      "metarRaw": "METAR ENTO 152220Z AUTO 36003KT 1800 DZ SCT001/// 00/00 Q1008 REDZRA",
      "tafRaw": null
    },
    {
      "icao": "ENHD",
      "iata": "HAU",
      "name": "Haugesund Airport, Karmøy",
      "updatedAt": "152220Z",
      "visibility_m": 10000,
      "taf_visibility_m": 4000,
      "worst_visibility_m": 4000,
      "ceiling_ft": 2700,
      "hazards": [
        "RA",
        "SHRA"
      ],
      "severityScore": 26,
      "metarRaw": "METAR ENHD 152220Z 14013KT 9999 SCT013 SCT018 BKN027 06/04 Q1003",
      "tafRaw": "TAF ENHD 151400Z 1515/1523 13018KT 9999 -RA FEW015 BKN030 \n  TEMPO 1515/1518 14022G35KT \n  TEMPO 1515/1520 4000 SHRA BKN008 SCT018CB"
    },
    {
      "icao": "LCPH",
      "iata": "PFO",
      "name": "Paphos International Airport",
      "updatedAt": "152200Z",
      "visibility_m": 10000,
      "taf_visibility_m": 5000,
      "worst_visibility_m": 5000,
      "ceiling_ft": null,
      "hazards": [
        "SHRA",
        "RA"
      ],
      "severityScore": 26,
      "metarRaw": "METAR LCPH 152200Z 05007KT 010V080 9999 FEW025 09/05 Q1024 NOSIG",
      "tafRaw": "TAF LCPH 151730Z 1518/1618 02007KT 9999 FEW025 SCT040 \n  BECMG 1608/1612 24010KT \n  BECMG 1612/1616 02006KT \n  PROB30 \n  TEMPO 1612/1618 5000 SHRA"
    },
    {
      "icao": "GCTS",
      "iata": "TFS",
      "name": "Tenerife Sur Airport",
      "updatedAt": "152200Z",
      "visibility_m": 10000,
      "taf_visibility_m": 10000,
      "worst_visibility_m": 10000,
      "ceiling_ft": 3000,
      "hazards": [
        "TS"
      ],
      "severityScore": 25,
      "metarRaw": "METAR GCTS 152200Z 07012KT 9999 FEW040 16/09 Q1025 NOSIG",
      "tafRaw": "TAF GCTS 152000Z 1521/1621 02005KT 9999 BKN030 TX22/1614Z TN13/1606Z"
    },
    {
      "icao": "EDDH",
      "iata": "HAM",
      "name": "Hamburg Helmut Schmidt Airport",
      "updatedAt": "152220Z",
      "visibility_m": 10000,
      "taf_visibility_m": 10000,
      "worst_visibility_m": 10000,
      "ceiling_ft": 800,
      "hazards": [],
      "severityScore": 25,
      "metarRaw": "METAR EDDH 152220Z AUTO 14009KT CAVOK 06/05 Q1010 NOSIG",
      "tafRaw": "TAF EDDH 151700Z 1518/1624 15010KT 9999 BKN025 \n  BECMG 1610/1613 23005KT \n  BECMG 1615/1618 13004KT \n  PROB30 \n  TEMPO 1621/1624 BKN008"
    },
    {
      "icao": "ENZV",
      "iata": "SVG",
      "name": "Stavanger Airport, Sola",
      "updatedAt": "152220Z",
      "visibility_m": 10000,
      "taf_visibility_m": 4000,
      "worst_visibility_m": 4000,
      "ceiling_ft": 1200,
      "hazards": [
        "RA"
      ],
      "severityScore": 24,
      "metarRaw": "METAR ENZV 152220Z 15012KT CAVOK 05/03 Q1003",
      "tafRaw": "TAF ENZV 151700Z 1518/1618 14015KT 9999 FEW020 BKN030 \n  TEMPO 1602/1618 4000 RA BKN012"
    },
    {
      "icao": "LEMG",
      "iata": "AGP",
      "name": "Málaga-Costa del Sol Airport",
      "updatedAt": "152200Z",
      "visibility_m": 10000,
      "taf_visibility_m": 4000,
      "worst_visibility_m": 4000,
      "ceiling_ft": 1200,
      "hazards": [
        "RA"
      ],
      "severityScore": 24,
      "metarRaw": "METAR LEMG 152200Z 29004KT 270V360 9999 FEW070 12/09 Q1019 NOSIG",
      "tafRaw": "TAF LEMG 151700Z 1518/1618 29005KT 9999 FEW040 TX18/1614Z TN11/1607Z \n  TEMPO 1603/1611 4000 RA BKN012"
    },
    {
      "icao": "LFBD",
      "iata": "BOD",
      "name": "Bordeaux–Mérignac Airport",
      "updatedAt": "152200Z",
      "visibility_m": 4000,
      "taf_visibility_m": 4000,
      "worst_visibility_m": 4000,
      "ceiling_ft": 1000,
      "hazards": [
        "RA"
      ],
      "severityScore": 24,
      "metarRaw": "METAR LFBD 152200Z AUTO 21010KT 9999 BKN029 BKN037 OVC056 11/08 Q1011 TEMPO 4000 -RA BKN010 BKN040TCU",
      "tafRaw": "TAF LFBD 151700Z 1518/1624 21010KT 9999 BKN040 TX11/1615Z TN05/1624Z \n  TEMPO 1518/1607 4000 -RA BKN010 BKN040TCU \n  PROB40 \n  TEMPO 1518/1521 22015G25KT \n  PROB40 \n  TEMPO 1523/1605 BKN005 \n  BECMG 1607/1609 15005KT \n  PROB40 \n  TEMPO 1613/1616 BKN014"
    },
    {
      "icao": "LIRP",
      "iata": "PSA",
      "name": "Pisa International Airport",
      "updatedAt": "152215Z",
      "visibility_m": 10000,
      "taf_visibility_m": 10000,
      "worst_visibility_m": 10000,
      "ceiling_ft": 1500,
      "hazards": [
        "RA"
      ],
      "severityScore": 24,
      "metarRaw": "METAR LIRP 152215Z VRB03KT 9999 SCT020 SCT060 09/09 Q1021 NOSIG",
      "tafRaw": "TAF LIRP 151700Z 1518/1618 12005KT 9999 SCT020 SCT030 \n  TEMPO 1518/1521 RA BKN015"
    },
    {
      "icao": "EBCI",
      "iata": "CRL",
      "name": "Brussels South Charleroi Airport",
      "updatedAt": "152220Z",
      "visibility_m": 10000,
      "taf_visibility_m": 4000,
      "worst_visibility_m": 4000,
      "ceiling_ft": 3500,
      "hazards": [
        "RA",
        "DZ"
      ],
      "severityScore": 22,
      "metarRaw": "METAR EBCI 152220Z 18012KT 9999 BKN035 10/06 Q1005 NOSIG",
      "tafRaw": "TAF EBCI 151710Z 1518/1624 18012KT 9999 SCT030 \n  TEMPO 1523/1603 19017G28KT 4000 RA RADZ BKN008 \n  PROB30 \n  TEMPO 1603/1606 BKN010"
    },
    {
      "icao": "EYKA",
      "iata": "KUN",
      "name": "Kaunas International Airport",
      "updatedAt": "152220Z",
      "visibility_m": 7000,
      "taf_visibility_m": 3000,
      "worst_visibility_m": 3000,
      "ceiling_ft": 1100,
      "hazards": [
        "BR"
      ],
      "severityScore": 22,
      "metarRaw": "METAR EYKA 152220Z 15008KT 120V210 7000 OVC011 M09/M11 Q1027",
      "tafRaw": "TAF EYKA 151705Z 1518/1618 16010KT 9000 SCT010 OVC020 \n  TEMPO 1600/1606 3000 BR BKN005 \n  BECMG 1609/1611 NSC"
    },
    {
      "icao": "LEBB",
      "iata": "BIO",
      "name": "Bilbao Airport",
      "updatedAt": "152200Z",
      "visibility_m": 10000,
      "taf_visibility_m": 3000,
      "worst_visibility_m": 3000,
      "ceiling_ft": 5800,
      "hazards": [
        "BR",
        "RA"
      ],
      "severityScore": 22,
      "metarRaw": "METAR LEBB 152200Z 27004KT 240V310 9999 FEW047 BKN058 12/08 Q1013 NOSIG",
      "tafRaw": "TAF LEBB 151700Z 1518/1618 19009KT 9999 FEW025 BKN060 TX16/1612Z TN05/1607Z \n  PROB40 \n  TEMPO 1518/1519 20015G25KT \n  PROB40 \n  TEMPO 1518/1520 3000 RA \n  PROB30 \n  TEMPO 1603/1607 3000 BR \n  PROB40 \n  TEMPO 1600/1612 12010KT"
    },
    {
      "icao": "LEBL",
      "iata": "BCN",
      "name": "Josep Tarradellas Barcelona-El Prat Airport",
      "updatedAt": "152200Z",
      "visibility_m": 9000,
      "taf_visibility_m": 3000,
      "worst_visibility_m": 3000,
      "ceiling_ft": 1000,
      "hazards": [
        "BR"
      ],
      "severityScore": 22,
      "metarRaw": "METAR LEBL 152200Z 31005KT 9000 FEW015 08/06 Q1016 NOSIG",
      "tafRaw": "TAF LEBL 151700Z 1518/1618 21010KT 9999 SCT015 TX14/1612Z TN06/1606Z \n  BECMG 1520/1523 34007KT \n  PROB30 \n  TEMPO 1600/1607 3000 BR BKN010 \n  BECMG 1611/1613 21010KT"
    },
    {
      "icao": "LEZG",
      "iata": "ZAZ",
      "name": "Zaragoza Airport",
      "updatedAt": "152200Z",
      "visibility_m": 10000,
      "taf_visibility_m": 2000,
      "worst_visibility_m": 2000,
      "ceiling_ft": 4500,
      "hazards": [
        "RA",
        "BR"
      ],
      "severityScore": 22,
      "metarRaw": "METAR LEZG 152200Z 16004KT 140V200 9999 -RA OVC045 08/08 Q1016 NOSIG",
      "tafRaw": "TAF LEZG 151700Z 1518/1618 VRB04KT 9999 FEW020 TX13/1614Z TN05/1606Z \n  TEMPO 1518/1612 2000 BR \n  PROB40 \n  TEMPO 1520/1603 RA"
    },
    {
      "icao": "LIMJ",
      "iata": "GOA",
      "name": "Genoa Cristoforo Colombo Airport",
      "updatedAt": "152220Z",
      "visibility_m": 10000,
      "taf_visibility_m": 10000,
      "worst_visibility_m": 10000,
      "ceiling_ft": 2300,
      "hazards": [
        "DZ",
        "RA"
      ],
      "severityScore": 22,
      "metarRaw": "METAR LIMJ 152220Z 05011KT 9999 -DZ BKN023 11/07 Q1020",
      "tafRaw": "TAF LIMJ 151700Z 1518/1618 04010KT 9999 SCT020 SCT050 \n  TEMPO 1518/1618 RA"
    },
    {
      "icao": "LIPH",
      "iata": "TSF",
      "name": "Treviso Antonio Canova Airport",
      "updatedAt": "152220Z",
      "visibility_m": 4600,
      "taf_visibility_m": 2000,
      "worst_visibility_m": 2000,
      "ceiling_ft": 1000,
      "hazards": [
        "BR"
      ],
      "severityScore": 22,
      "metarRaw": "METAR LIPH 152220Z AUTO VRB01KT 4600 BR SCT023/// BKN079/// 04/03 Q1022",
      "tafRaw": "TAF LIPH 151700Z 1518/1618 VRB04KT 6000 SCT040 \n  TEMPO 1519/1607 2000 BR BKN010"
    },
    {
      "icao": "LIPY",
      "iata": "AOI",
      "name": "Marche Airport",
      "updatedAt": "152220Z",
      "visibility_m": 1700,
      "taf_visibility_m": 2000,
      "worst_visibility_m": 1700,
      "ceiling_ft": 1000,
      "hazards": [
        "BR"
      ],
      "severityScore": 22,
      "metarRaw": "METAR LIPY 152220Z AUTO 15002KT 1700 BR FEW005/// OVC084/// 08/08 Q1022",
      "tafRaw": "TAF LIPY 151700Z 1518/1618 VRB05KT 7000 SCT060 \n  TEMPO 1519/1607 2000 BR BKN010"
    },
    {
      "icao": "LQBK",
      "iata": "BNX",
      "name": "Banja Luka International Airport",
      "updatedAt": "152200Z",
      "visibility_m": 10000,
      "taf_visibility_m": 3000,
      "worst_visibility_m": 3000,
      "ceiling_ft": null,
      "hazards": [
        "BR",
        "RA"
      ],
      "severityScore": 22,
      "metarRaw": "METAR LQBK 152200Z 12005KT 090V150 CAVOK 04/02 Q1021 NOSIG",
      "tafRaw": "TAF LQBK 151700Z 1518/1618 15005KT 9999 SCT047 TX08/1613Z TN02/1605Z \n  PROB40 \n  TEMPO 1523/1606 3000 -RA BR"
    },
    {
      "icao": "LYBE",
      "iata": "BEG",
      "name": "Belgrade Nikola Tesla Airport",
      "updatedAt": "152200Z",
      "visibility_m": 5000,
      "taf_visibility_m": 3000,
      "worst_visibility_m": 3000,
      "ceiling_ft": null,
      "hazards": [
        "BR",
        "RA"
      ],
      "severityScore": 22,
      "metarRaw": "METAR LYBE 152200Z 07003KT 010V110 5000 -RA BR NSC 04/02 Q1022 NOSIG",
      "tafRaw": "TAF LYBE 151700Z 1518/1618 06004KT 8000 NSC TX08/1613Z TN02/1606Z \n  PROB40 \n  TEMPO 1603/1608 3000 -RA BR \n  BECMG 1613/1615 12010KT"
    },
    {
      "icao": "HESX",
      "iata": "SPX",
      "name": "Sphinx International Airport",
      "updatedAt": "152200Z",
      "visibility_m": 10000,
      "taf_visibility_m": 1000,
      "worst_visibility_m": 1000,
      "ceiling_ft": 3000,
      "hazards": [
        "BR"
      ],
      "severityScore": 20,
      "metarRaw": "METAR HESX 152200Z 36005KT CAVOK 12/09 Q1024 NOSIG",
      "tafRaw": "TAF HESX 151700Z 1518/1624 36006KT 9999 SCT020 BKN030 \n  TEMPO 1518/1608 3000 HZ \n  PROB40 \n  TEMPO 1522/1606 1000 BR"
    },
    {
      "icao": "LIMF",
      "iata": "TRN",
      "name": "Turin Airport",
      "updatedAt": "152220Z",
      "visibility_m": 5000,
      "taf_visibility_m": 6000,
      "worst_visibility_m": 5000,
      "ceiling_ft": 5000,
      "hazards": [
        "BR",
        "DZ"
      ],
      "severityScore": 20,
      "metarRaw": "METAR LIMF 152220Z 09002KT 5000 -DZ BR SCT025 BKN050 05/02 Q1022",
      "tafRaw": "TAF LIMF 151700Z 1518/1618 VRB03KT 6000 SCT020"
    },
    {
      "icao": "LWSK",
      "iata": "SKP",
      "name": "Skopje International Airport",
      "updatedAt": "152220Z",
      "visibility_m": 7000,
      "taf_visibility_m": 1500,
      "worst_visibility_m": 1500,
      "ceiling_ft": null,
      "hazards": [
        "BR"
      ],
      "severityScore": 20,
      "metarRaw": "METAR LWSK 152220Z 01002KT 7000 NSC M01/M02 Q1025 NOSIG",
      "tafRaw": "TAF LWSK 152025Z 1521/1621 VRB02KT CAVOK \n  BECMG 1523/1601 5000 BR NSC \n  PROB30 \n  TEMPO 1603/1609 1500 SCT010"
    },
    {
      "icao": "LYNI",
      "iata": "INI",
      "name": "Niš Constantine the Great Airport",
      "updatedAt": "152200Z",
      "visibility_m": 10000,
      "taf_visibility_m": 1500,
      "worst_visibility_m": 1500,
      "ceiling_ft": 6700,
      "hazards": [
        "BR"
      ],
      "severityScore": 20,
      "metarRaw": "METAR LYNI 152200Z 13003KT 9999 BKN067 05/04 Q1024 NOSIG",
      "tafRaw": "TAF LYNI 151700Z 1518/1618 11004KT 6000 BKN060 TX07/1612Z TN01/1606Z \n  TEMPO 1522/1607 1500 BR \n  BECMG 1611/1613 05011KT \n  TEMPO 1615/1618 BKN013 BKN030"
    },
    {
      "icao": "EPKT",
      "iata": "KTW",
      "name": "Katowice Wojciech Korfanty International Airport",
      "updatedAt": "152200Z",
      "visibility_m": 4200,
      "taf_visibility_m": null,
      "worst_visibility_m": 4200,
      "ceiling_ft": 3700,
      "hazards": [
        "BR"
      ],
      "severityScore": 15,
      "metarRaw": "METAR EPKT 152200Z 10004KT 4200 BR BKN037 01/00 Q1020",
      "tafRaw": null
    },
    {
      "icao": "GMMX",
      "iata": "RAK",
      "name": "Menara Airport",
      "updatedAt": "152200Z",
      "visibility_m": 10000,
      "taf_visibility_m": 4000,
      "worst_visibility_m": 4000,
      "ceiling_ft": 2600,
      "hazards": [
        "RA"
      ],
      "severityScore": 12,
      "metarRaw": "METAR GMMX 152200Z VRB02KT 9999 FEW030 11/08 Q1023 NOSIG",
      "tafRaw": "TAF GMMX 151700Z 1518/1624 06006KT 8000 SCT026 \n  TEMPO 1518/1522 34016KT \n  TEMPO 1616/1622 34016KT 4000 RA FEW010 BKN026 SCT090"
    },
    {
      "icao": "EDFH",
      "iata": "HHN",
      "name": "Frankfurt-Hahn Airport",
      "updatedAt": "152220Z",
      "visibility_m": 10000,
      "taf_visibility_m": 10000,
      "worst_visibility_m": 10000,
      "ceiling_ft": 1200,
      "hazards": [],
      "severityScore": 12,
      "metarRaw": "METAR EDFH 152220Z 16010KT 140V200 9999 FEW047 06/05 Q1010",
      "tafRaw": "TAF EDFH 151700Z 1518/1618 16011KT 9999 SCT030 \n  PROB30 \n  TEMPO 1521/1605 18015G25KT \n  TEMPO 1604/1613 BKN012"
    },
    {
      "icao": "LEXJ",
      "iata": "SDR",
      "name": "Seve Ballesteros-Santander Airport",
      "updatedAt": "152200Z",
      "visibility_m": 8000,
      "taf_visibility_m": 3000,
      "worst_visibility_m": 3000,
      "ceiling_ft": 5600,
      "hazards": [
        "RA"
      ],
      "severityScore": 12,
      "metarRaw": "METAR LEXJ 152200Z 20005KT 8000 FEW040 SCT048 OVC056 11/09 Q1012",
      "tafRaw": "TAF LEXJ 152000Z 1521/1621 20009KT 9999 SCT020 TX15/1614Z TN08/1608Z \n  PROB40 1615/1618 29010KT \n  PROB30 \n  TEMPO 1618/1621 3000 RA"
    },
    {
      "icao": "LFPO",
      "iata": "ORY",
      "name": "Paris-Orly Airport",
      "updatedAt": "152200Z",
      "visibility_m": 10000,
      "taf_visibility_m": 4000,
      "worst_visibility_m": 4000,
      "ceiling_ft": 2600,
      "hazards": [
        "RA"
      ],
      "severityScore": 12,
      "metarRaw": "METAR LFPO 152200Z 20013KT 9999 BKN026 BKN033 11/07 Q1006 TEMPO 21015G30KT",
      "tafRaw": "TAF LFPO 151700Z 1518/1624 18010KT CAVOK \n  PROB40 \n  TEMPO 1519/1523 21015G30KT \n  TEMPO 1521/1602 4000 -RA BKN014 \n  BECMG 1602/1605 BKN008 \n  PROB30 \n  TEMPO 1607/1609 BKN005 \n  PROB40 \n  TEMPO 1611/1613 BKN012 \n  BECMG 1613/1615 SCT025 \n  PROB40 \n  TEMPO 1622/1624 4000 -RA"
    },
    {
      "icao": "LMML",
      "iata": "MLA",
      "name": "Malta International Airport",
      "updatedAt": "152215Z",
      "visibility_m": 10000,
      "taf_visibility_m": 7000,
      "worst_visibility_m": 7000,
      "ceiling_ft": null,
      "hazards": [
        "RA"
      ],
      "severityScore": 12,
      "metarRaw": "METAR LMML 152215Z 14013KT CAVOK 15/13 Q1020 NOSIG",
      "tafRaw": "TAF LMML 151700Z 1518/1618 14010KT 9999 FEW017 \n  BECMG 1615/1618 08013KT \n  PROB30 \n  TEMPO 1615/1618 7000 RA"
    },
    {
      "icao": "GCLP",
      "iata": "LPA",
      "name": "Gran Canaria Airport",
      "updatedAt": "152200Z",
      "visibility_m": 10000,
      "taf_visibility_m": 10000,
      "worst_visibility_m": 10000,
      "ceiling_ft": 3800,
      "hazards": [
        "DZ"
      ],
      "severityScore": 10,
      "metarRaw": "METAR GCLP 152200Z 02016KT 9999 BKN038 18/09 Q1025 NOSIG",
      "tafRaw": "TAF GCLP 152000Z 1521/1621 36013KT 9999 BKN030 TX22/1614Z TN15/1606Z \n  PROB30 \n  TEMPO 1618/1621 02020G30KT \n  PROB30 \n  TEMPO 1618/1621 DZ BKN014"
    },
    {
      "icao": "EPSY",
      "iata": "SZY",
      "name": "Olsztyn-Mazury Airport",
      "updatedAt": "152200Z",
      "visibility_m": 4300,
      "taf_visibility_m": 3500,
      "worst_visibility_m": 3500,
      "ceiling_ft": 2800,
      "hazards": [
        "BR"
      ],
      "severityScore": 10,
      "metarRaw": "METAR EPSY 152200Z 11005KT 070V130 4300 BR FEW006 OVC028 M06/M07 Q1024",
      "tafRaw": "TAF EPSY 152030Z 1521/1606 14006KT 3500 BR BKN030"
    },
    {
      "icao": "EYPA",
      "iata": "PLQ",
      "name": "Palanga International Airport",
      "updatedAt": "152220Z",
      "visibility_m": 8000,
      "taf_visibility_m": 5000,
      "worst_visibility_m": 5000,
      "ceiling_ft": 3200,
      "hazards": [
        "BR"
      ],
      "severityScore": 10,
      "metarRaw": "METAR EYPA 152220Z 14012KT 8000 OVC032 M04/M06 Q1024",
      "tafRaw": "TAF EYPA 151704Z 1518/1618 17012KT 8000 SCT010 OVC020 \n  TEMPO 1518/1524 5000 BR BKN005 \n  TEMPO 1609/1615 16015G25KT"
    },
    {
      "icao": "LEAL",
      "iata": "ALC",
      "name": "Alicante-Elche Miguel Hernández Airport",
      "updatedAt": "152200Z",
      "visibility_m": 10000,
      "taf_visibility_m": 3000,
      "worst_visibility_m": 3000,
      "ceiling_ft": null,
      "hazards": [
        "BR"
      ],
      "severityScore": 10,
      "metarRaw": "METAR LEAL 152200Z 00000KT CAVOK 10/10 Q1017 NOSIG",
      "tafRaw": "TAF LEAL 151700Z 1518/1618 VRB04KT CAVOK TX17/1613Z TN07/1606Z \n  PROB40 \n  TEMPO 1518/1524 3000 BR"
    },
    {
      "icao": "LGAV",
      "iata": "ATH",
      "name": "Athens Eleftherios Venizelos International Airport",
      "updatedAt": "152220Z",
      "visibility_m": 10000,
      "taf_visibility_m": 4000,
      "worst_visibility_m": 4000,
      "ceiling_ft": null,
      "hazards": [
        "BR"
      ],
      "severityScore": 10,
      "metarRaw": "METAR LGAV 152220Z VRB01KT 9999 FEW030 05/03 Q1024 NOSIG",
      "tafRaw": "TAF LGAV 151700Z 1518/1618 VRB03KT 9999 SCT025 \n  PROB30 \n  TEMPO 1600/1607 4000 BR SCT008"
    },
    {
      "icao": "LIBP",
      "iata": "PSR",
      "name": "Abruzzo Airport",
      "updatedAt": "152220Z",
      "visibility_m": 10000,
      "taf_visibility_m": 4000,
      "worst_visibility_m": 4000,
      "ceiling_ft": null,
      "hazards": [
        "BR"
      ],
      "severityScore": 10,
      "metarRaw": "METAR LIBP 152220Z AUTO 25003KT 9999 NCD 04/04 Q1022",
      "tafRaw": "TAF LIBP 151700Z 1518/1618 VRB05KT CAVOK \n  TEMPO 1521/1607 4000 BR"
    },
    {
      "icao": "LICC",
      "iata": "CTA",
      "name": "Catania-Fontanarossa Airport",
      "updatedAt": "152220Z",
      "visibility_m": 10000,
      "taf_visibility_m": 3000,
      "worst_visibility_m": 3000,
      "ceiling_ft": null,
      "hazards": [
        "BR"
      ],
      "severityScore": 10,
      "metarRaw": "METAR LICC 152220Z 22003KT CAVOK 10/07 Q1022",
      "tafRaw": "TAF LICC 151700Z 1518/1618 VRB05KT 9999 SCT040 \n  TEMPO 1522/1606 3000 BR \n  BECMG 1610/1612 08010KT"
    },
    {
      "icao": "LIPZ",
      "iata": "VCE",
      "name": "Venice Marco Polo Airport",
      "updatedAt": "152220Z",
      "visibility_m": 7000,
      "taf_visibility_m": 2000,
      "worst_visibility_m": 2000,
      "ceiling_ft": 2000,
      "hazards": [
        "BR"
      ],
      "severityScore": 10,
      "metarRaw": "METAR LIPZ 152220Z 35004KT 7000 BKN020 07/05 Q1022 NOSIG",
      "tafRaw": "TAF LIPZ 151700Z 1518/1624 VRB04KT 6000 SCT040 \n  TEMPO 1521/1607 2000 BR BKN010 \n  BECMG 1620/1624 2000 BR"
    },
    {
      "icao": "LJLJ",
      "iata": "LJU",
      "name": "Ljubljana Jože Pučnik Airport",
      "updatedAt": "152200Z",
      "visibility_m": 10000,
      "taf_visibility_m": 4000,
      "worst_visibility_m": 4000,
      "ceiling_ft": 4700,
      "hazards": [
        "BR"
      ],
      "severityScore": 10,
      "metarRaw": "METAR LJLJ 152200Z VRB02KT 9999 FEW003 SCT033 BKN047 01/01 Q1020 NOSIG",
      "tafRaw": "TAF LJLJ 151700Z 1518/1618 30003KT 9999 FEW030 BKN045 \n  PROB40 \n  TEMPO 1601/1608 4000 BR"
    },
    {
      "icao": "LKMT",
      "iata": "OSR",
      "name": "Ostrava Leos Janáček Airport",
      "updatedAt": "152200Z",
      "visibility_m": 4500,
      "taf_visibility_m": 2500,
      "worst_visibility_m": 2500,
      "ceiling_ft": 4500,
      "hazards": [
        "BR"
      ],
      "severityScore": 10,
      "metarRaw": "METAR LKMT 152200Z 21008KT 4500 BR BKN045 01/00 Q1020 NOSIG",
      "tafRaw": "TAF LKMT 151700Z 1518/1618 22008KT 4500 BR BKN045 \n  BECMG 1522/1524 SCT008 \n  PROB30 \n  TEMPO 1600/1613 2500 BR SCT006"
    },
    {
      "icao": "LRCV",
      "iata": "CRA",
      "name": "Craiova International Airport",
      "updatedAt": "152200Z",
      "visibility_m": 4000,
      "taf_visibility_m": 3000,
      "worst_visibility_m": 3000,
      "ceiling_ft": null,
      "hazards": [
        "BR"
      ],
      "severityScore": 10,
      "metarRaw": "METAR LRCV 152200Z 10007KT 4000 BR NSC M01/M01 Q1024",
      "tafRaw": "TAF LRCV 152000Z 1521/1606 10010KT 5000 BR NSC \n  BECMG 1521/1523 3000 BR"
    },
    {
      "icao": "UDSG",
      "iata": "LWN",
      "name": "Shirak International Airport",
      "updatedAt": "152200Z",
      "visibility_m": 10000,
      "taf_visibility_m": 5000,
      "worst_visibility_m": 5000,
      "ceiling_ft": null,
      "hazards": [
        "BR"
      ],
      "severityScore": 10,
      "metarRaw": "METAR UDSG 152200Z 12002KT 9999 NSC M19/M22 Q1019 NOSIG",
      "tafRaw": "TAF UDSG 151658Z 1518/1618 VRB06KT 9999 FEW040 \n  TEMPO 1518/1606 5000 BR"
    },
    {
      "icao": "UDYZ",
      "iata": "EVN",
      "name": "Zvartnots International Airport",
      "updatedAt": "152200Z",
      "visibility_m": 10000,
      "taf_visibility_m": 2000,
      "worst_visibility_m": 2000,
      "ceiling_ft": null,
      "hazards": [
        "BR"
      ],
      "severityScore": 10,
      "metarRaw": "METAR UDYZ 152200Z 06004KT 9999 NSC M06/M11 Q1022 NOSIG",
      "tafRaw": "TAF UDYZ 151700Z 1518/1618 VRB04KT 6000 NSC \n  TEMPO 1600/1606 2000 BR"
    },
    {
      "icao": "EGBB",
      "iata": "BHX",
      "name": "Birmingham Airport",
      "updatedAt": "152220Z",
      "visibility_m": 9000,
      "taf_visibility_m": null,
      "worst_visibility_m": 9000,
      "ceiling_ft": 3100,
      "hazards": [],
      "severityScore": 5,
      "metarRaw": "METAR EGBB 152220Z 28004KT 9000 BKN031 04/04 Q0998",
      "tafRaw": null
    },
    {
      "icao": "EGPD",
      "iata": "ABZ",
      "name": "Aberdeen International Airport",
      "updatedAt": "152220Z",
      "visibility_m": 10000,
      "taf_visibility_m": null,
      "worst_visibility_m": 10000,
      "ceiling_ft": null,
      "hazards": [],
      "severityScore": 5,
      "metarRaw": "METAR EGPD 152220Z COR AUTO VRB01KT 9999 NCD M01/M02 Q0997 NOSIG",
      "tafRaw": null
    },
    {
      "icao": "ENTC",
      "iata": "TOS",
      "name": "Tromsø Airport, Langnes",
      "updatedAt": "152220Z",
      "visibility_m": 10000,
      "taf_visibility_m": null,
      "worst_visibility_m": 10000,
      "ceiling_ft": 4300,
      "hazards": [],
      "severityScore": 5,
      "metarRaw": "METAR ENTC 152220Z 20016KT 9999 BKN043 M01/M07 Q1008 RMK WIND 2600FT 18012KT",
      "tafRaw": null
    },
    {
      "icao": "EYVI",
      "iata": "VNO",
      "name": "Vilnius International Airport",
      "updatedAt": "152220Z",
      "visibility_m": 9000,
      "taf_visibility_m": null,
      "worst_visibility_m": 9000,
      "ceiling_ft": null,
      "hazards": [],
      "severityScore": 5,
      "metarRaw": "METAR EYVI 152220Z 16009KT 9000 NSC M17/M19 Q1028 NOSIG",
      "tafRaw": null
    },
    {
      "icao": "LBWN",
      "iata": "VAR",
      "name": "Varna Airport",
      "updatedAt": "152200Z",
      "visibility_m": 9000,
      "taf_visibility_m": null,
      "worst_visibility_m": 9000,
      "ceiling_ft": null,
      "hazards": [],
      "severityScore": 5,
      "metarRaw": "METAR LBWN 152200Z AUTO 05004KT 9000 OVC031/// 04/01 Q1024 NOSIG",
      "tafRaw": null
    },
    {
      "icao": "LECH",
      "iata": "CDT",
      "name": "Castellón-Costa Azahar Airport",
      "updatedAt": "152200Z",
      "visibility_m": 9000,
      "taf_visibility_m": null,
      "worst_visibility_m": 9000,
      "ceiling_ft": null,
      "hazards": [],
      "severityScore": 5,
      "metarRaw": "METAR LECH 152200Z AUTO 28003KT 250V320 9000 NCD 06/03 Q1016",
      "tafRaw": null
    },
    {
      "icao": "BIKF",
      "iata": "KEF",
      "name": "Keflavik International Airport",
      "updatedAt": "152200Z",
      "visibility_m": 10000,
      "taf_visibility_m": 10000,
      "worst_visibility_m": 10000,
      "ceiling_ft": null,
      "hazards": [],
      "severityScore": 0,
      "metarRaw": "METAR BIKF 152200Z 02016G26KT CAVOK 01/M02 Q0992",
      "tafRaw": "TAF BIKF 152222Z 1600/1700 02020KT 9999 FEW025 SCT040 TX02/1606Z TNM02/1700Z \n  BECMG 1616/1618 02010KT"
    },
    {
      "icao": "GCFV",
      "iata": "FUE",
      "name": "Fuerteventura Airport",
      "updatedAt": "152200Z",
      "visibility_m": 10000,
      "taf_visibility_m": 10000,
      "worst_visibility_m": 10000,
      "ceiling_ft": 3200,
      "hazards": [],
      "severityScore": 0,
      "metarRaw": "METAR GCFV 152200Z 36009KT 9999 BKN032 18/09 Q1025",
      "tafRaw": "TAF GCFV 152000Z 1521/1621 34006KT 9999 SCT030 TX22/1614Z TN14/1606Z \n  BECMG 1609/1611 04010KT \n  BECMG 1614/1616 34010KT"
    },
    {
      "icao": "GMAD",
      "iata": "AGA",
      "name": "Al Massira Airport",
      "updatedAt": "152200Z",
      "visibility_m": 10000,
      "taf_visibility_m": 10000,
      "worst_visibility_m": 10000,
      "ceiling_ft": null,
      "hazards": [],
      "severityScore": 0,
      "metarRaw": "METAR GMAD 152200Z 15006KT CAVOK 11/11 Q1022 NOSIG",
      "tafRaw": "TAF GMAD 151700Z 1518/1624 26010KT 9999 FEW030 \n  BECMG 1523/1601 07005KT"
    },
    {
      "icao": "EDDK",
      "iata": "CGN",
      "name": "Cologne Bonn Airport",
      "updatedAt": "152220Z",
      "visibility_m": 10000,
      "taf_visibility_m": 10000,
      "worst_visibility_m": 10000,
      "ceiling_ft": null,
      "hazards": [],
      "severityScore": 0,
      "metarRaw": "METAR EDDK 152220Z AUTO 13010KT CAVOK 10/06 Q1009 NOSIG",
      "tafRaw": "TAF EDDK 151700Z 1518/1624 15011KT 9999 SCT030 \n  BECMG 1610/1612 13006KT"
    },
    {
      "icao": "EDJA",
      "iata": "FMM",
      "name": "Memmingen Allgau Airport",
      "updatedAt": "152220Z",
      "visibility_m": 10000,
      "taf_visibility_m": 10000,
      "worst_visibility_m": 10000,
      "ceiling_ft": null,
      "hazards": [],
      "severityScore": 0,
      "metarRaw": "METAR EDJA 152220Z AUTO VRB01KT 9999 // NCD M01/M02 Q1013",
      "tafRaw": "TAF EDJA 151700Z 1518/1603 VRB03KT CAVOK"
    },
    {
      "icao": "EDLW",
      "iata": "DTM",
      "name": "Dortmund Airport",
      "updatedAt": "152220Z",
      "visibility_m": 10000,
      "taf_visibility_m": 10000,
      "worst_visibility_m": 10000,
      "ceiling_ft": null,
      "hazards": [],
      "severityScore": 0,
      "metarRaw": "METAR EDLW 152220Z AUTO 17012KT 9999 R24///// // FEW210/// 10/05 Q1008",
      "tafRaw": "TAF EDLW 151700Z 1518/1618 17012KT 9999 SCT030 \n  PROB30 \n  TEMPO 1521/1604 17015G25KT \n  BECMG 1612/1615 16007KT"
    },
    {
      "icao": "EHEH",
      "iata": "EIN",
      "name": "Eindhoven Airport",
      "updatedAt": "152155Z",
      "visibility_m": 10000,
      "taf_visibility_m": 10000,
      "worst_visibility_m": 10000,
      "ceiling_ft": 7700,
      "hazards": [],
      "severityScore": 0,
      "metarRaw": "METAR EHEH 152155Z AUTO 15010KT 120V190 9999 SCT071 OVC077 11/07 Q1005 BLU",
      "tafRaw": "TAF EHEH 151736Z 1518/1624 16008KT CAVOK \n  BECMG 1520/1522 17012G22KT \n  TEMPO 1602/1606 SCT010 BKN015 \n  BECMG 1604/1606 21008KT"
    },
    {
      "icao": "ENAL",
      "iata": "AES",
      "name": "Ålesund Airport, Vigra",
      "updatedAt": "152220Z",
      "visibility_m": 10000,
      "taf_visibility_m": 10000,
      "worst_visibility_m": 10000,
      "ceiling_ft": null,
      "hazards": [],
      "severityScore": 0,
      "metarRaw": "METAR ENAL 152220Z AUTO 20011KT 9999 NCD 08/01 Q0999",
      "tafRaw": "TAF ENAL 152000Z 1521/1606 17012KT 9999 SCT050 \n  PROB40 \n  TEMPO 1521/1523 SCT035CB \n  BECMG 1604/1606 11006KT"
    },
    {
      "icao": "ENVA",
      "iata": "TRD",
      "name": "Trondheim Airport, Værnes",
      "updatedAt": "152220Z",
      "visibility_m": 10000,
      "taf_visibility_m": 10000,
      "worst_visibility_m": 10000,
      "ceiling_ft": null,
      "hazards": [],
      "severityScore": 0,
      "metarRaw": "METAR ENVA 152220Z VRB05KT CAVOK 04/M03 Q1003 RMK WIND 670FT 17022G34KT",
      "tafRaw": "TAF ENVA 151700Z 1518/1618 12015KT 9999 FEW050 \n  TEMPO 1518/1524 16020G32KT \n  BECMG 1600/1602 09005KT"
    },
    {
      "icao": "HEGN",
      "iata": "HRG",
      "name": "Hurghada International Airport",
      "updatedAt": "152200Z",
      "visibility_m": 10000,
      "taf_visibility_m": 10000,
      "worst_visibility_m": 10000,
      "ceiling_ft": null,
      "hazards": [],
      "severityScore": 0,
      "metarRaw": "METAR HEGN 152200Z 28009KT CAVOK 15/07 Q1022 NOSIG",
      "tafRaw": "TAF HEGN 151700Z 1518/1624 33010G20KT CAVOK"
    },
    {
      "icao": "HEMA",
      "iata": "RMF",
      "name": "Marsa Alam International Airport",
      "updatedAt": "152200Z",
      "visibility_m": 10000,
      "taf_visibility_m": 6000,
      "worst_visibility_m": 6000,
      "ceiling_ft": null,
      "hazards": [],
      "severityScore": 0,
      "metarRaw": "METAR HEMA 152200Z 34007KT CAVOK 16/09 Q1021 NOSIG",
      "tafRaw": "TAF HEMA 151700Z 1518/1624 34010G20KT 6000 SCT025"
    },
    {
      "icao": "HESH",
      "iata": "SSH",
      "name": "Sharm El Sheikh International Airport",
      "updatedAt": "152200Z",
      "visibility_m": 10000,
      "taf_visibility_m": 10000,
      "worst_visibility_m": 10000,
      "ceiling_ft": null,
      "hazards": [],
      "severityScore": 0,
      "metarRaw": "METAR HESH 152200Z 35012KT CAVOK 18/04 Q1022 NOSIG",
      "tafRaw": "TAF HESH 151700Z 1518/1624 36015KT CAVOK"
    },
    {
      "icao": "LATI",
      "iata": "TIA",
      "name": "Tirana International Airport Mother Teresa",
      "updatedAt": "152220Z",
      "visibility_m": 10000,
      "taf_visibility_m": 10000,
      "worst_visibility_m": 10000,
      "ceiling_ft": 6600,
      "hazards": [],
      "severityScore": 0,
      "metarRaw": "METAR LATI 152220Z 13003KT 9999 BKN066 09/05 Q1024 NOSIG",
      "tafRaw": "TAF LATI 151700Z 1518/1618 VRB05KT 9999 SCT025 BKN070 TX16/1612Z TN07/1604Z"
    },
    {
      "icao": "LCLK",
      "iata": "LCA",
      "name": "Larnaca International Airport",
      "updatedAt": "152200Z",
      "visibility_m": 10000,
      "taf_visibility_m": 10000,
      "worst_visibility_m": 10000,
      "ceiling_ft": null,
      "hazards": [],
      "severityScore": 0,
      "metarRaw": "METAR LCLK 152200Z 31005KT 9999 FEW040 08/07 Q1024 NOSIG",
      "tafRaw": "TAF LCLK 151730Z 1518/1618 31006KT 9999 FEW040 SCT050 \n  BECMG 1608/1611 18010KT \n  BECMG 1614/1617 31006KT"
    },
    {
      "icao": "LEVC",
      "iata": "VLC",
      "name": "Valencia Airport",
      "updatedAt": "152200Z",
      "visibility_m": 10000,
      "taf_visibility_m": 10000,
      "worst_visibility_m": 10000,
      "ceiling_ft": null,
      "hazards": [],
      "severityScore": 0,
      "metarRaw": "METAR LEVC 152200Z 26003KT 240V320 CAVOK 09/05 Q1017 NOSIG",
      "tafRaw": "TAF LEVC 151700Z 1518/1618 26005KT CAVOK TX15/1612Z TN06/1606Z \n  TEMPO 1518/1520 20010KT \n  TEMPO 1612/1618 VRB03KT"
    },
    {
      "icao": "LFLL",
      "iata": "LYS",
      "name": "Lyon Saint-Exupéry Airport",
      "updatedAt": "152200Z",
      "visibility_m": 10000,
      "taf_visibility_m": 10000,
      "worst_visibility_m": 10000,
      "ceiling_ft": null,
      "hazards": [],
      "severityScore": 0,
      "metarRaw": "METAR LFLL 152200Z 18016KT CAVOK 12/04 Q1013 NOSIG",
      "tafRaw": "TAF LFLL 151700Z 1518/1624 18015G25KT 9999 FEW030 \n  TEMPO 1518/1524 18020G35KT \n  BECMG 1602/1604 16008KT"
    },
    {
      "icao": "LFLS",
      "iata": "GNB",
      "name": "Grenoble Alpes Isère Airport",
      "updatedAt": "152200Z",
      "visibility_m": 10000,
      "taf_visibility_m": 10000,
      "worst_visibility_m": 10000,
      "ceiling_ft": 5800,
      "hazards": [],
      "severityScore": 0,
      "metarRaw": "METAR LFLS 152200Z AUTO 20006KT 170V260 9999 BKN058 09/03 Q1015",
      "tafRaw": "TAF LFLS 151400Z 1515/1615 20010KT CAVOK \n  TEMPO 1517/1522 27010KT \n  FM152200 08005KT CAVOK \n  PROB40 \n  TEMPO 1522/1524 27010KT"
    },
    {
      "icao": "LFMN",
      "iata": "NCE",
      "name": "Nice-Côte d'Azur Airport",
      "updatedAt": "152200Z",
      "visibility_m": 10000,
      "taf_visibility_m": 10000,
      "worst_visibility_m": 10000,
      "ceiling_ft": 3300,
      "hazards": [],
      "severityScore": 0,
      "metarRaw": "METAR LFMN 152200Z 33008KT 9999 SCT020 BKN033 11/08 Q1020 NOSIG",
      "tafRaw": "TAF LFMN 152000Z 1521/1703 VRB03KT 9999 SCT020 BKN030 \n  BECMG 1521/1523 34010KT CAVOK \n  BECMG 1611/1613 08015KT \n  PROB30 \n  TEMPO 1617/1622 34005KT \n  BECMG 1622/1624 34010KT \n  PROB40 \n  TEMPO 1700/1703 09012KT"
    },
    {
      "icao": "LFSB",
      "iata": "BSL",
      "name": "EuroAirport Basel–Mulhouse–Freiburg",
      "updatedAt": "152200Z",
      "visibility_m": 10000,
      "taf_visibility_m": 10000,
      "worst_visibility_m": 10000,
      "ceiling_ft": null,
      "hazards": [],
      "severityScore": 0,
      "metarRaw": "METAR LFSB 152200Z AUTO 17007KT CAVOK 06/03 Q1013 NOSIG",
      "tafRaw": "TAF LFSB 151700Z 1518/1618 12006KT CAVOK"
    },
    {
      "icao": "LIBD",
      "iata": "BRI",
      "name": "Bari Karol Wojtyła International Airport",
      "updatedAt": "152220Z",
      "visibility_m": 10000,
      "taf_visibility_m": 10000,
      "worst_visibility_m": 10000,
      "ceiling_ft": null,
      "hazards": [],
      "severityScore": 0,
      "metarRaw": "METAR LIBD 152220Z 21006KT CAVOK 05/05 Q1022",
      "tafRaw": "TAF LIBD 151700Z 1518/1618 VRB05KT 9999 FEW030"
    },
    {
      "icao": "LIBG",
      "iata": "TAR",
      "name": "Taranto-Grottaglie Marcello Arlotta Airport",
      "updatedAt": null,
      "visibility_m": null,
      "taf_visibility_m": 8000,
      "worst_visibility_m": 8000,
      "ceiling_ft": null,
      "hazards": [],
      "severityScore": 0,
      "metarRaw": null,
      "tafRaw": "TAF LIBG 151700Z 1518/1603 VRB05KT 8000 FEW025"
    },
    {
      "icao": "LICA",
      "iata": "SUF",
      "name": "Lamezia Terme Sant'Eufemia International Airport",
      "updatedAt": "152220Z",
      "visibility_m": 10000,
      "taf_visibility_m": 10000,
      "worst_visibility_m": 10000,
      "ceiling_ft": null,
      "hazards": [],
      "severityScore": 0,
      "metarRaw": "METAR LICA 152220Z AUTO 08007KT 9999 NCD 07/06 Q1022",
      "tafRaw": "TAF LICA 151700Z 1518/1618 VRB05KT CAVOK \n  BECMG 1518/1520 08010KT"
    },
    {
      "icao": "LICJ",
      "iata": "PMO",
      "name": "Falcone–Borsellino Airport",
      "updatedAt": "152220Z",
      "visibility_m": 10000,
      "taf_visibility_m": 10000,
      "worst_visibility_m": 10000,
      "ceiling_ft": null,
      "hazards": [],
      "severityScore": 0,
      "metarRaw": "METAR LICJ 152220Z 10002KT CAVOK 11/08 Q1020",
      "tafRaw": "TAF LICJ 151700Z 1518/1618 05010KT CAVOK \n  BECMG 1518/1520 VRB05KT"
    },
    {
      "icao": "LIRF",
      "iata": "FCO",
      "name": "Rome–Fiumicino Leonardo da Vinci International Airport",
      "updatedAt": "152220Z",
      "visibility_m": 10000,
      "taf_visibility_m": 10000,
      "worst_visibility_m": 10000,
      "ceiling_ft": null,
      "hazards": [],
      "severityScore": 0,
      "metarRaw": "METAR LIRF 152220Z 09005KT CAVOK 09/08 Q1022 NOSIG",
      "tafRaw": "TAF LIRF 151700Z 1518/1624 15012KT 9999 SCT050 \n  BECMG 1519/1521 09007KT \n  BECMG 1610/1612 03010KT \n  BECMG 1616/1618 VRB05KT"
    },
    {
      "icao": "LIRN",
      "iata": "NAP",
      "name": "Naples International Airport",
      "updatedAt": "152220Z",
      "visibility_m": 10000,
      "taf_visibility_m": 10000,
      "worst_visibility_m": 10000,
      "ceiling_ft": null,
      "hazards": [],
      "severityScore": 0,
      "metarRaw": "METAR LIRN 152220Z 34002KT CAVOK 07/05 Q1022 NOSIG",
      "tafRaw": "TAF LIRN 151700Z 1518/1618 VRB05KT CAVOK"
    },
    {
      "icao": "LLBG",
      "iata": "TLV",
      "name": "Ben Gurion International Airport",
      "updatedAt": "152220Z",
      "visibility_m": 10000,
      "taf_visibility_m": 10000,
      "worst_visibility_m": 10000,
      "ceiling_ft": 3500,
      "hazards": [],
      "severityScore": 0,
      "metarRaw": "METAR LLBG 152220Z VRB02KT CAVOK 09/07 Q1024 NOSIG",
      "tafRaw": "TAF LLBG 151704Z 1518/1618 VRB03KT 9999 SCT045 \n  PROB40 \n  TEMPO 1522/1607 15005KT BKN035 \n  BECMG 1607/1609 28008KT TX18/1612Z TN09/1604Z"
    },
    {
      "icao": "LUKK",
      "iata": "RMO",
      "name": "Chişinău International Airport",
      "updatedAt": "152200Z",
      "visibility_m": 10000,
      "taf_visibility_m": 10000,
      "worst_visibility_m": 10000,
      "ceiling_ft": null,
      "hazards": [],
      "severityScore": 0,
      "metarRaw": "METAR LUKK 152200Z 02006KT CAVOK M12/M15 Q1028 NOSIG",
      "tafRaw": "TAF LUKK 151717Z 1518/1618 01009KT CAVOK"
    },
    {
      "icao": "LWOH",
      "iata": "OHD",
      "name": "Ohrid St. Paul the Apostle Airport",
      "updatedAt": null,
      "visibility_m": null,
      "taf_visibility_m": 10000,
      "worst_visibility_m": 10000,
      "ceiling_ft": null,
      "hazards": [],
      "severityScore": 0,
      "metarRaw": null,
      "tafRaw": "TAF LWOH 152025Z 1521/1621 VRB02KT 9999 FEW040"
    },
    {
      "icao": "LYPG",
      "iata": "TGD",
      "name": "Podgorica Airport / Podgorica Golubovci Airbase",
      "updatedAt": "152200Z",
      "visibility_m": 10000,
      "taf_visibility_m": 10000,
      "worst_visibility_m": 10000,
      "ceiling_ft": 6000,
      "hazards": [],
      "severityScore": 0,
      "metarRaw": "METAR LYPG 152200Z VRB01KT 9999 FEW036 BKN060 08/06 Q1024 NOSIG",
      "tafRaw": "TAF LYPG 151700Z 1518/1618 VRB02KT 9999 SCT040 BKN080 TX14/1613Z TN05/1605Z"
    },
    {
      "icao": "OEJN",
      "iata": "JED",
      "name": "King Abdulaziz International Airport",
      "updatedAt": "152200Z",
      "visibility_m": 10000,
      "taf_visibility_m": 2000,
      "worst_visibility_m": 2000,
      "ceiling_ft": null,
      "hazards": [],
      "severityScore": 0,
      "metarRaw": "METAR OEJN 152200Z 36004KT 9999 FEW040 23/13 Q1014 NOSIG",
      "tafRaw": "TAF OEJN 151700Z 1518/1624 34010KT 7000 FEW040 \n  BECMG 1522/1600 09012KT \n  PROB30 \n  TEMPO 1600/1610 2000 DU \n  BECMG 1608/1610 30012KT \n  BECMG 1618/1620 VRB03KT"
    },
    {
      "icao": "OEMA",
      "iata": "MED",
      "name": "Prince Mohammad Bin Abdulaziz Airport",
      "updatedAt": "152200Z",
      "visibility_m": 10000,
      "taf_visibility_m": 3000,
      "worst_visibility_m": 3000,
      "ceiling_ft": null,
      "hazards": [],
      "severityScore": 0,
      "metarRaw": "METAR OEMA 152200Z 01004KT CAVOK 15/M03 Q1023 NOSIG",
      "tafRaw": "TAF OEMA 151700Z 1518/1624 09012KT 7000 NSC \n  TEMPO 1606/1614 3000 DU"
    },
    {
      "icao": "OMAA",
      "iata": "AUH",
      "name": "Zayed International Airport",
      "updatedAt": "152200Z",
      "visibility_m": 10000,
      "taf_visibility_m": 8000,
      "worst_visibility_m": 8000,
      "ceiling_ft": null,
      "hazards": [],
      "severityScore": 0,
      "metarRaw": "METAR OMAA 152200Z 31008KT CAVOK 20/12 Q1017 NOSIG",
      "tafRaw": "TAF OMAA 151700Z 1518/1700 32012KT 8000 FEW030 \n  PROB30 \n  TEMPO 1605/1613 32015G25KT"
    },
    {
      "icao": "OMDB",
      "iata": "DXB",
      "name": "Dubai International Airport",
      "updatedAt": null,
      "visibility_m": null,
      "taf_visibility_m": 8000,
      "worst_visibility_m": 8000,
      "ceiling_ft": null,
      "hazards": [],
      "severityScore": 0,
      "metarRaw": null,
      "tafRaw": "TAF OMDB 151700Z 1518/1700 29015KT 8000 FEW025 \n  PROB30 1518/1606 23008KT \n  PROB30 \n  TEMPO 1606/1615 29018G28KT"
    },
    {
      "icao": "UBBB",
      "iata": "GYD",
      "name": "Heydar Aliyev International Airport",
      "updatedAt": "152200Z",
      "visibility_m": 10000,
      "taf_visibility_m": 10000,
      "worst_visibility_m": 10000,
      "ceiling_ft": null,
      "hazards": [],
      "severityScore": 0,
      "metarRaw": "METAR UBBB 152200Z 16004KT 9999 SCT032 00/M02 Q1022 NOSIG",
      "tafRaw": "TAF UBBB 151701Z 1518/1618 VRB04KT CAVOK TX07/1512Z TNM01/1602Z \n  TEMPO 1518/1602 21005KT SCT010 SCT035 \n  BECMG 1602/1604 20008KT \n  TEMPO 1605/1612 21014KT \n  TEMPO 1614/1616 25006KT"
    }
  ],
  "stats": {
    "icaoCount": 159,
    "metarReturned": 155,
    "tafReturned": 139,
    "stationsWritten": 159,
    "missingMetar": 4,
    "missingTaf": 20
  },
  "errors": []
}