{
  "generatedAt": "2026-01-18T17:46:00.647Z",
  "metarFetchedAt": "2026-01-18T17:46:01.360Z",
  "tafFetchedAt": "2026-01-18T17:46:02.050Z",
  "stations": [
    {
      "icao": "EDFH",
      "iata": "HHN",
      "name": "Frankfurt-Hahn Airport",
      "updatedAt": "181720Z",
      "visibility_m": 800,
      "taf_visibility_m": 300,
      "worst_visibility_m": 300,
      "ceiling_ft": 100,
      "hazards": [
        "FZFG",
        "FG",
        "BR"
      ],
      "severityScore": 100,
      "metarRaw": "METAR EDFH 181720Z 12012KT 080V140 0800 R21/1500U FZFG OVC001 M00/M00 Q1018",
      "tafRaw": "TAF EDFH 181700Z 1818/1918 14010KT 0300 FZFG VV000 \n  TEMPO 1912/1918 1200 BR OVC002"
    },
    {
      "icao": "EDJA",
      "iata": "FMM",
      "name": "Memmingen Allgau Airport",
      "updatedAt": "181720Z",
      "visibility_m": 1000,
      "taf_visibility_m": 600,
      "worst_visibility_m": 600,
      "ceiling_ft": 100,
      "hazards": [
        "FZFG",
        "FG",
        "BR"
      ],
      "severityScore": 100,
      "metarRaw": "METAR EDJA 181720Z 05006KT 1000 R06/1200U FZFG VV/// M02/M03 Q1018",
      "tafRaw": "TAF EDJA 181700Z 1818/1903 VRB03KT 1500 BR OVC001 \n  TEMPO 1818/1903 0600 FZFG"
    },
    {
      "icao": "EDSB",
      "iata": "FKB",
      "name": "Karlsruhe Baden-Baden Airport",
      "updatedAt": "181720Z",
      "visibility_m": 8000,
      "taf_visibility_m": 800,
      "worst_visibility_m": 800,
      "ceiling_ft": 100,
      "hazards": [
        "FZFG",
        "BR",
        "FG"
      ],
      "severityScore": 100,
      "metarRaw": "METAR EDSB 181720Z 18004KT 8000 SCT014 00/M01 Q1019",
      "tafRaw": "TAF EDSB 181700Z 1818/1918 VRB03KT 9999 SCT015 \n  BECMG 1818/1821 BKN010 \n  TEMPO 1821/1918 2000 BR BKN005 \n  PROB30 \n  TEMPO 1821/1918 0800 FZFG OVC001"
    },
    {
      "icao": "EETN",
      "iata": "TLL",
      "name": "Lennart Meri Tallinn Airport",
      "updatedAt": "181720Z",
      "visibility_m": 450,
      "taf_visibility_m": 500,
      "worst_visibility_m": 450,
      "ceiling_ft": 200,
      "hazards": [
        "FZFG",
        "FG",
        "BR",
        "FZDZ",
        "DZ"
      ],
      "severityScore": 100,
      "metarRaw": "METAR EETN 181720Z VRB02KT 0450 R26/1300D FZFG VV002 M04/M05 Q1037 NOSIG",
      "tafRaw": "TAF EETN 181730Z 1818/1918 19005KT 0500 FZFG OVC002 \n  TEMPO 1818/1822 1200 BR OVC005 \n  PROB40 \n  TEMPO 1818/1824 -FZDZ \n  BECMG 1822/1824 1500 BR OVC004 \n  TEMPO 1900/1910 0800 FZFG BKN002"
    },
    {
      "icao": "EFTU",
      "iata": "TKU",
      "name": "Turku Airport",
      "updatedAt": "181720Z",
      "visibility_m": 3300,
      "taf_visibility_m": 700,
      "worst_visibility_m": 700,
      "ceiling_ft": 100,
      "hazards": [
        "BR",
        "FG",
        "DZ"
      ],
      "severityScore": 100,
      "metarRaw": "METAR EFTU 181720Z AUTO 17006KT 3300 BR OVC001 01/01 Q1035",
      "tafRaw": "TAF EFTU 181736Z 1818/1918 18005KT 4000 BR OVC004 \n  TEMPO 1818/1823 2500 -DZ BR OVC001 \n  PROB30 1820/1823 0700 FG \n  BECMG 1900/1902 5000 NSW BKN009 \n  BECMG 1903/1905 9999 BKN012 \n  TEMPO 1905/1914 BKN015"
    },
    {
      "icao": "EGBB",
      "iata": "BHX",
      "name": "Birmingham Airport",
      "updatedAt": "181720Z",
      "visibility_m": 150,
      "taf_visibility_m": 300,
      "worst_visibility_m": 150,
      "ceiling_ft": 200,
      "hazards": [
        "FG",
        "BR",
        "DZ",
        "RA"
      ],
      "severityScore": 100,
      "metarRaw": "METAR EGBB 181720Z VRB01KT 0150 R15/0650N FG OVC002 06/06 Q1015",
      "tafRaw": "TAF EGBB 181703Z 1818/1918 15005KT 3000 RADZ BR BKN003 \n  PROB40 \n  TEMPO 1818/1909 0300 DZ FG BKN001 \n  PROB30 \n  TEMPO 1821/1902 +RADZ \n  BECMG 1910/1913 6000 -RADZ BKN006 \n  PROB30 \n  TEMPO 1913/1914 3000 RADZ BR BKN003 \n  TEMPO 1915/1918 BKN018"
    },
    {
      "icao": "EGGP",
      "iata": "LPL",
      "name": "Liverpool John Lennon Airport",
      "updatedAt": "181720Z",
      "visibility_m": 7000,
      "taf_visibility_m": 300,
      "worst_visibility_m": 300,
      "ceiling_ft": 1000,
      "hazards": [
        "RA",
        "FG",
        "BR",
        "DZ"
      ],
      "severityScore": 100,
      "metarRaw": "METAR EGGP 181720Z 16005KT 7000 -RA SCT004 OVC010 05/05 Q1015",
      "tafRaw": "TAF EGGP 181702Z 1818/1918 17003KT 7000 -RADZ BKN012 \n  TEMPO 1818/1906 4000 RADZ \n  PROB40 1818/1824 2500 BR BKN004 \n  PROB40 \n  TEMPO 1900/1911 0300 FG BKN001 \n  TEMPO 1911/1918 2500 BR BKN004"
    },
    {
      "icao": "EGGW",
      "iata": "LTN",
      "name": "London Luton Airport",
      "updatedAt": "181720Z",
      "visibility_m": 7000,
      "taf_visibility_m": 300,
      "worst_visibility_m": 300,
      "ceiling_ft": 100,
      "hazards": [
        "FG",
        "BR",
        "DZ",
        "RA"
      ],
      "severityScore": 100,
      "metarRaw": "METAR EGGW 181720Z AUTO 11004KT 7000 NCD 08/07 Q1016",
      "tafRaw": "TAF EGGW 181706Z 1818/1918 13006KT 9999 SCT045 \n  TEMPO 1818/1820 6000 \n  TEMPO 1820/1910 3000 BR BKN003 \n  PROB30 \n  TEMPO 1822/1910 0300 FG BKN001 \n  TEMPO 1910/1918 6000 -RADZ BKN007 \n  PROB40 \n  TEMPO 1910/1918 3000 DZ BR BKN003"
    },
    {
      "icao": "EGNM",
      "iata": "LBA",
      "name": "Leeds Bradford Airport",
      "updatedAt": "181720Z",
      "visibility_m": 900,
      "taf_visibility_m": 300,
      "worst_visibility_m": 300,
      "ceiling_ft": 200,
      "hazards": [
        "FG",
        "RA",
        "BR",
        "DZ"
      ],
      "severityScore": 100,
      "metarRaw": "METAR EGNM 181720Z 16008KT 0900 R32/0900D -RA FG VV/// 05/05 Q1014",
      "tafRaw": "TAF EGNM 181702Z 1818/1918 06003KT 0300 FG VV/// \n  TEMPO 1818/1918 1200 RADZ BR SCT001 BKN002 \n  PROB30 \n  TEMPO 1818/1824 3000 -RADZ SCT002 BKN005 \n  PROB30 \n  TEMPO 1910/1918 3000 -RADZ BKN006"
    },
    {
      "icao": "EGPD",
      "iata": "ABZ",
      "name": "Aberdeen International Airport",
      "updatedAt": "181720Z",
      "visibility_m": 10000,
      "taf_visibility_m": 300,
      "worst_visibility_m": 300,
      "ceiling_ft": 100,
      "hazards": [
        "RA",
        "FG",
        "BR",
        "DZ"
      ],
      "severityScore": 100,
      "metarRaw": "METAR EGPD 181720Z AUTO 14011KT 9999 -RA OVC004/// //////CB 07/06 Q1016",
      "tafRaw": "TAF EGPD 181657Z 1818/1918 14008KT 9999 BKN010 \n  TEMPO 1818/1902 6000 -RADZ BKN006 \n  PROB30 \n  TEMPO 1818/1902 1400 RADZ BR BKN002 \n  BECMG 1902/1905 FEW006 \n  TEMPO 1902/1915 5000 BR \n  PROB30 \n  TEMPO 1902/1911 0300 FG VV/// \n  BECMG 1915/1918 4000 -RADZ BR BKN004 \n  PROB30 \n  TEMPO 1916/1918 0300 FG BKN001"
    },
    {
      "icao": "ENBR",
      "iata": "BGO",
      "name": "Bergen Airport, Flesland",
      "updatedAt": "181720Z",
      "visibility_m": 800,
      "taf_visibility_m": 800,
      "worst_visibility_m": 800,
      "ceiling_ft": 200,
      "hazards": [
        "FG",
        "BR",
        "DZ",
        "RA"
      ],
      "severityScore": 100,
      "metarRaw": "METAR ENBR 181720Z 20003KT 160V240 2000 BR -DZ OVC002 05/04 Q1024 TEMPO 0800 -RADZ FG RMK WIND 1200FT 23007KT",
      "tafRaw": "TAF ENBR 181700Z 1818/1918 13005KT 0800 -DZ FG VV002 \n  TEMPO 1818/1902 5000 NSW BKN005 \n  BECMG 1902/1904 9999 NSW FEW005 BKN020 \n  PROB40 1904/1908 0800 FG VV002"
    },
    {
      "icao": "ENGM",
      "iata": "OSL",
      "name": "Oslo-Gardermoen International Airport",
      "updatedAt": "181720Z",
      "visibility_m": 2000,
      "taf_visibility_m": 500,
      "worst_visibility_m": 500,
      "ceiling_ft": 300,
      "hazards": [
        "BR",
        "FZFG",
        "FG"
      ],
      "severityScore": 100,
      "metarRaw": "METAR ENGM 181720Z 03003KT 300V090 7000 SCT003 BKN005 00/M00 Q1029 TEMPO 2000 BR VV003",
      "tafRaw": "TAF ENGM 181700Z 1818/1918 05005KT 5000 BKN005 \n  TEMPO 1818/1907 0500 FZFG OVC002 \n  BECMG 1907/1909 18010KT \n  TEMPO 1909/1918 BKN010"
    },
    {
      "icao": "EPKK",
      "iata": "KRK",
      "name": "Kraków John Paul II International Airport",
      "updatedAt": "181730Z",
      "visibility_m": 7000,
      "taf_visibility_m": 600,
      "worst_visibility_m": 600,
      "ceiling_ft": 200,
      "hazards": [
        "FZFG",
        "BR",
        "FG"
      ],
      "severityScore": 100,
      "metarRaw": "METAR EPKK 181730Z 05003KT 7000 NSC M09/M13 Q1033",
      "tafRaw": "TAF EPKK 181730Z 1818/1918 06005KT 7000 NSC \n  TEMPO 1818/1822 4000 BR HZ \n  BECMG 1822/1901 4000 BR HZ \n  TEMPO 1822/1908 1500 BR \n  PROB30 \n  TEMPO 1822/1908 0600 FZFG BKN002 \n  BECMG 1908/1909 6000"
    },
    {
      "icao": "ESSA",
      "iata": "ARN",
      "name": "Stockholm-Arlanda Airport",
      "updatedAt": "181720Z",
      "visibility_m": 300,
      "taf_visibility_m": 300,
      "worst_visibility_m": 300,
      "ceiling_ft": 300,
      "hazards": [
        "FG",
        "BR"
      ],
      "severityScore": 100,
      "metarRaw": "METAR ESSA 181720Z 18009KT 0800 R01L/P2000N R19R/P2000N R01R/1300U R19L/1400N FG VV003 01/01 Q1032 TEMPO 0300",
      "tafRaw": "TAF ESSA 181730Z 1818/1918 17007KT 4000 BR OVC002 \n  TEMPO 1818/1822 0300 FG \n  BECMG 1822/1824 5000 NSW BKN015 \n  PROB40 1900/1912 4000 BR BKN008 \n  PROB40 1912/1918 BKN008"
    },
    {
      "icao": "LFBD",
      "iata": "BOD",
      "name": "Bordeaux–Mérignac Airport",
      "updatedAt": "181730Z",
      "visibility_m": 3000,
      "taf_visibility_m": 500,
      "worst_visibility_m": 500,
      "ceiling_ft": 300,
      "hazards": [
        "RA",
        "DZ",
        "FG"
      ],
      "severityScore": 100,
      "metarRaw": "METAR LFBD 181730Z AUTO 15005KT 9999 OVC019 10/09 Q1014 TEMPO 3000 RADZ OVC003",
      "tafRaw": "TAF LFBD 181700Z 1818/1924 14005KT 9999 BKN020 TX11/1915Z TN08/1903Z \n  TEMPO 1818/1910 3000 RADZ OVC003 \n  PROB30 \n  TEMPO 1900/1910 0500 FG VV///"
    },
    {
      "icao": "LFLL",
      "iata": "LYS",
      "name": "Lyon Saint-Exupéry Airport",
      "updatedAt": "181730Z",
      "visibility_m": 550,
      "taf_visibility_m": 300,
      "worst_visibility_m": 300,
      "ceiling_ft": 200,
      "hazards": [
        "FG",
        "BR"
      ],
      "severityScore": 100,
      "metarRaw": "METAR LFLL 181730Z VRB02KT 0550 R35L/0700D R17R/0600N R35R/0800N R17L/0650N FG VV/// 06/06 Q1017 NOSIG",
      "tafRaw": "TAF LFLL 181700Z 1818/1924 VRB02KT 0500 FG VV/// \n  TEMPO 1818/1908 0300 \n  TEMPO 1910/1918 3000 BR BKN002 \n  PROB30 \n  TEMPO 1912/1917 6000 NSW NSC \n  TEMPO 1918/1924 0300"
    },
    {
      "icao": "LFSB",
      "iata": "BSL",
      "name": "EuroAirport Basel–Mulhouse–Freiburg",
      "updatedAt": "181730Z",
      "visibility_m": 10000,
      "taf_visibility_m": 300,
      "worst_visibility_m": 300,
      "ceiling_ft": 800,
      "hazards": [
        "FZFG",
        "BR",
        "FG"
      ],
      "severityScore": 100,
      "metarRaw": "METAR LFSB 181730Z AUTO 09004KT 9999 OVC012 02/M01 Q1019 TEMPO BKN008",
      "tafRaw": "TAF LFSB 181700Z 1818/1918 VRB03KT 9000 OVC011 \n  TEMPO 1818/1820 BKN008 \n  BECMG 1820/1823 3000 BR BKN003 \n  PROB40 \n  TEMPO 1822/1904 0300 FZFG VV/// \n  BECMG 1904/1907 SCT005 \n  BECMG 1907/1910 7000 NSW \n  TEMPO 1916/1918 3000 BR BKN004"
    },
    {
      "icao": "LHBP",
      "iata": "BUD",
      "name": "Budapest Liszt Ferenc International Airport",
      "updatedAt": "181730Z",
      "visibility_m": 4000,
      "taf_visibility_m": 500,
      "worst_visibility_m": 500,
      "ceiling_ft": 700,
      "hazards": [
        "BR",
        "FZFG",
        "SN",
        "FZDZ",
        "FG",
        "DZ"
      ],
      "severityScore": 100,
      "metarRaw": "METAR LHBP 181730Z 09005KT 7000 NSC M05/M07 Q1035 BECMG 4000 BR BKN007",
      "tafRaw": "TAF LHBP 181715Z 1818/1918 VRB03KT 6000 NSC \n  TEMPO 1818/1911 2000 BR BKN004 \n  PROB40 \n  TEMPO 1900/1910 0500 -SN -FZDZ FZFG OVC002 \n  TEMPO 1916/1918 4000 BR SCT006"
    },
    {
      "icao": "LHDC",
      "iata": "DEB",
      "name": "Debrecen International Airport",
      "updatedAt": "181715Z",
      "visibility_m": 650,
      "taf_visibility_m": 650,
      "worst_visibility_m": 650,
      "ceiling_ft": 200,
      "hazards": [
        "FZFG",
        "BR",
        "FZDZ",
        "FG",
        "DZ"
      ],
      "severityScore": 100,
      "metarRaw": "METAR LHDC 181715Z AUTO 16001KT 7000 OVC004 M03/M03 Q1035 BECMG 2500 BR TEMPO 0650 -SG -FZDZ FZFG VV002",
      "tafRaw": "TAF LHDC 181715Z 1818/1903 VRB03KT 7000 OVC005 \n  BECMG 1818/1821 2500 BR \n  PROB40 1818/1903 0650 -SG -FZDZ FZFG VV002"
    },
    {
      "icao": "LKMT",
      "iata": "OSR",
      "name": "Ostrava Leos Janáček Airport",
      "updatedAt": "181730Z",
      "visibility_m": 300,
      "taf_visibility_m": 300,
      "worst_visibility_m": 300,
      "ceiling_ft": 100,
      "hazards": [
        "FZFG",
        "FG",
        "BR"
      ],
      "severityScore": 100,
      "metarRaw": "METAR LKMT 181730Z 00000KT 0300 R22/0400N R04/0375N FZFG VV001 M07/M07 Q1032 NOSIG",
      "tafRaw": "TAF LKMT 181700Z 1818/1918 VRB02KT 0300 FZFG VV002 \n  PROB30 1818/1907 7000 NSC \n  BECMG 1907/1909 4000 BR NSC \n  BECMG 1909/1911 21010KT CAVOK"
    },
    {
      "icao": "LQSA",
      "iata": "SJJ",
      "name": "Sarajevo International Airport",
      "updatedAt": "181730Z",
      "visibility_m": 3000,
      "taf_visibility_m": 500,
      "worst_visibility_m": 500,
      "ceiling_ft": 200,
      "hazards": [
        "BR",
        "FZFG",
        "FG"
      ],
      "severityScore": 100,
      "metarRaw": "METAR LQSA 181730Z VRB02KT 5000 BR NSC M02/M02 Q1028 BECMG 3000",
      "tafRaw": "TAF LQSA 181700Z 1818/1918 VRB02KT 4000 BR FEW030 TX00/1913Z TNM07/1906Z \n  TEMPO 1818/1910 2000 BKN008 \n  PROB40 \n  TEMPO 1820/1909 0500 FZFG BKN002 \n  TEMPO 1911/1916 6000 NSW"
    },
    {
      "icao": "LRTR",
      "iata": "TSR",
      "name": "Timişoara Traian Vuia Airport",
      "updatedAt": "181730Z",
      "visibility_m": 5000,
      "taf_visibility_m": 600,
      "worst_visibility_m": 600,
      "ceiling_ft": 100,
      "hazards": [
        "BR",
        "FZFG",
        "FG"
      ],
      "severityScore": 100,
      "metarRaw": "METAR LRTR 181730Z 04005KT 7000 NSC M05/M06 Q1035 BECMG 5000 BR",
      "tafRaw": "TAF LRTR 181700Z 1818/1918 VRB04KT 7000 NSC \n  BECMG 1818/1820 5000 BR \n  BECMG 1822/1824 1500 BR BKN005 \n  TEMPO 1902/1907 0600 FZFG OVC001 \n  BECMG 1907/1909 7000 NSW SCT020"
    },
    {
      "icao": "OMAA",
      "iata": "AUH",
      "name": "Zayed International Airport",
      "updatedAt": "181700Z",
      "visibility_m": 10000,
      "taf_visibility_m": 100,
      "worst_visibility_m": 100,
      "ceiling_ft": 700,
      "hazards": [
        "FG",
        "BR"
      ],
      "severityScore": 100,
      "metarRaw": "METAR OMAA 181700Z 25003KT CAVOK 19/13 Q1016 NOSIG",
      "tafRaw": "TAF OMAA 181700Z 1818/2000 25005KT 8000 NSC \n  PROB40 1822/1905 3000 BR BKN007 \n  PROB30 \n  TEMPO 1900/1905 0100 FG VV/// \n  BECMG 1901/1903 15005KT \n  BECMG 1911/1913 34008KT"
    },
    {
      "icao": "UAAA",
      "iata": "ALA",
      "name": "Almaty International Airport",
      "updatedAt": "181730Z",
      "visibility_m": 1000,
      "taf_visibility_m": 200,
      "worst_visibility_m": 200,
      "ceiling_ft": 200,
      "hazards": [
        "BR",
        "FZFG",
        "FG"
      ],
      "severityScore": 100,
      "metarRaw": "METAR UAAA 181730Z 00000MPS 1000 R23L/P2000 BR FU SCT200 M17/M19 Q1028 NOSIG",
      "tafRaw": "TAF UAAA 181702Z 1818/1918 30003MPS 1100 BR FU BKN011 OVC030 TXM09/1908Z TNM19/1903Z \n  TEMPO 1818/1905 25003MPS 0200 FZFG VV002 \n  BECMG 1906/1907 6000 NSW \n  TEMPO 1906/1912 25003G08MPS 3100 BR FU SCT050 BKN100 \n  FM191200 22003MPS 1200 BR FU BKN011 OVC030"
    },
    {
      "icao": "UDYZ",
      "iata": "EVN",
      "name": "Zvartnots International Airport",
      "updatedAt": "181730Z",
      "visibility_m": 1100,
      "taf_visibility_m": 600,
      "worst_visibility_m": 600,
      "ceiling_ft": 2600,
      "hazards": [
        "BR",
        "SN",
        "FZFG",
        "FG"
      ],
      "severityScore": 100,
      "metarRaw": "METAR UDYZ 181730Z 00000KT 1100 R08/2000N -SN BR OVC026 M01/M02 Q1018 NOSIG",
      "tafRaw": "TAF UDYZ 181700Z 1818/1918 VRB04KT 1500 BR BKN020 \n  TEMPO 1818/1824 0600 SN FZFG BKN005"
    },
    {
      "icao": "LEBL",
      "iata": "BCN",
      "name": "Josep Tarradellas Barcelona-El Prat Airport",
      "updatedAt": "181730Z",
      "visibility_m": 10000,
      "taf_visibility_m": 3000,
      "worst_visibility_m": 3000,
      "ceiling_ft": 1000,
      "hazards": [
        "TSRA",
        "SHRA",
        "TS",
        "RA"
      ],
      "severityScore": 88,
      "metarRaw": "METAR LEBL 181730Z 07007KT 9999 FEW010 SCT058 13/12 Q1012 NOSIG",
      "tafRaw": "TAF LEBL 181700Z 1818/1918 05008KT 9999 FEW010 TX14/1912Z TN10/1906Z \n  PROB30 \n  TEMPO 1818/1906 3000 SHRA BKN010 FEW020TCU \n  BECMG 1902/1904 36007KT \n  BECMG 1910/1913 04015KT \n  PROB40 \n  TEMPO 1906/1918 3000 SHRA BKN014 FEW015TCU \n  PROB30 \n  TEMPO 1909/1917 TSRA FEW015CB"
    },
    {
      "icao": "EDDS",
      "iata": "STR",
      "name": "Stuttgart Airport",
      "updatedAt": "181720Z",
      "visibility_m": 10000,
      "taf_visibility_m": 600,
      "worst_visibility_m": 600,
      "ceiling_ft": 1000,
      "hazards": [
        "FZFG",
        "FG"
      ],
      "severityScore": 87,
      "metarRaw": "METAR EDDS 181720Z AUTO 10005KT 070V140 9999 OVC010 01/M01 Q1018 BECMG BKN015",
      "tafRaw": "TAF EDDS 181700Z 1818/1918 09005KT 9999 OVC012 \n  BECMG 1819/1822 VRB03KT CAVOK \n  PROB30 \n  TEMPO 1822/1824 1200 BCFG \n  PROB30 \n  TEMPO 1900/1908 0600 FZFG OVC001"
    },
    {
      "icao": "EGPF",
      "iata": "GLA",
      "name": "Glasgow Airport",
      "updatedAt": "181720Z",
      "visibility_m": 10000,
      "taf_visibility_m": 500,
      "worst_visibility_m": 500,
      "ceiling_ft": 2100,
      "hazards": [
        "FG",
        "BR",
        "RA",
        "DZ"
      ],
      "severityScore": 87,
      "metarRaw": "METAR EGPF 181720Z AUTO 08006KT 9999 OVC021 06/04 Q1014",
      "tafRaw": "TAF EGPF 181701Z 1818/1918 06003KT 9999 FEW020 SCT040 \n  TEMPO 1818/1824 8000 -RA BKN014 \n  TEMPO 1818/1824 3000 RADZ BR BKN007 \n  TEMPO 1900/1909 3000 BR -DZ BKN004 \n  PROB30 \n  TEMPO 1902/1909 0500 FG VV/// \n  PROB30 \n  TEMPO 1909/1912 8000"
    },
    {
      "icao": "LYPG",
      "iata": "TGD",
      "name": "Podgorica Airport / Podgorica Golubovci Airbase",
      "updatedAt": "181730Z",
      "visibility_m": 10000,
      "taf_visibility_m": 600,
      "worst_visibility_m": 600,
      "ceiling_ft": null,
      "hazards": [
        "FZFG",
        "BR",
        "FG"
      ],
      "severityScore": 85,
      "metarRaw": "METAR LYPG 181730Z VRB02KT CAVOK 05/M00 Q1025 NOSIG",
      "tafRaw": "TAF LYPG 181700Z 1818/1918 35005KT CAVOK TX08/1912Z TNM02/1906Z \n  BECMG 1819/1821 2000 BR \n  PROB40 \n  TEMPO 1901/1906 0600 FZFG \n  BECMG 1906/1908 9999 NSW"
    },
    {
      "icao": "LTFM",
      "iata": "IST",
      "name": "İstanbul Airport",
      "updatedAt": "181720Z",
      "visibility_m": 8000,
      "taf_visibility_m": 2200,
      "worst_visibility_m": 2200,
      "ceiling_ft": 1200,
      "hazards": [
        "SHSN",
        "SN",
        "BLSN",
        "RA"
      ],
      "severityScore": 74,
      "metarRaw": "METAR LTFM 181720Z 35025KT 8000 -SHSN BKN012 BKN025 01/M02 Q1031 NOSIG RMK RWY17L 35022KT RWY34L 35022KT RWY16R 35020G31KT RWY36 36023KT RWY18 36025KT",
      "tafRaw": "TAF LTFM 181640Z 1818/1924 35023G33KT 8000 -SHSN BKN012 BKN025 \n  TEMPO 1820/1824 2200 SHSN BLSN BKN006 BKN022 \n  TEMPO 1900/1904 2200 SHSN BLSN BKN006 BKN022 \n  BECMG 1907/1910 -SHSNRA"
    },
    {
      "icao": "LIPY",
      "iata": "AOI",
      "name": "Marche Airport",
      "updatedAt": "181720Z",
      "visibility_m": 450,
      "taf_visibility_m": 3000,
      "worst_visibility_m": 450,
      "ceiling_ft": null,
      "hazards": [
        "FG",
        "RA"
      ],
      "severityScore": 67,
      "metarRaw": "METAR LIPY 181720Z AUTO 34001KT 0450 R22/1900D FG BKN072/// 09/09 Q1023",
      "tafRaw": "TAF LIPY 181700Z 1818/1918 09008KT 8000 SCT030 \n  TEMPO 1818/1903 3000 RA"
    },
    {
      "icao": "BIKF",
      "iata": "KEF",
      "name": "Keflavik International Airport",
      "updatedAt": "181730Z",
      "visibility_m": 10000,
      "taf_visibility_m": 2000,
      "worst_visibility_m": 2000,
      "ceiling_ft": 1500,
      "hazards": [
        "RA",
        "SHRA",
        "SN",
        "DZ"
      ],
      "severityScore": 66,
      "metarRaw": "METAR BIKF 181730Z 12028G38KT 9999 -RA BKN015 OVC031 07/05 Q0990",
      "tafRaw": "TAF BIKF 181637Z 1818/1918 13026G36KT 8000 RA BKN012 OVC022 TX06/1818Z TN01/1909Z \n  BECMG 1818/1819 16010KT \n  TEMPO 1818/1902 2000 RADZ BKN004 OVC009 \n  BECMG 1902/1904 12010KT 9999 -SHRA SCT015 BKN025 \n  BECMG 1911/1913 12022G32KT \n  TEMPO 1913/1918 2000 RASN BKN009 OVC016"
    },
    {
      "icao": "EHEH",
      "iata": "EIN",
      "name": "Eindhoven Airport",
      "updatedAt": "181725Z",
      "visibility_m": 10000,
      "taf_visibility_m": 400,
      "worst_visibility_m": 400,
      "ceiling_ft": null,
      "hazards": [
        "FG",
        "BR"
      ],
      "severityScore": 65,
      "metarRaw": "METAR EHEH 181725Z AUTO 10005KT 070V130 9999 NCD 04/01 Q1019 BLU NOSIG RMK TREND REMOTE BY EHWX",
      "tafRaw": "TAF EHEH 181003Z 1812/1918 10005KT CAVOK \n  BECMG 1821/1823 3000 BR \n  BECMG 1902/1904 1000 \n  PROB40 1904/1908 0400 FG \n  BECMG 1909/1911 6000 NSW"
    },
    {
      "icao": "HESX",
      "iata": "SPX",
      "name": "Sphinx International Airport",
      "updatedAt": "181700Z",
      "visibility_m": 10000,
      "taf_visibility_m": 500,
      "worst_visibility_m": 500,
      "ceiling_ft": 2000,
      "hazards": [
        "FG",
        "BR"
      ],
      "severityScore": 65,
      "metarRaw": "METAR HESX 181700Z 29009KT CAVOK 16/06 Q1016 NOSIG",
      "tafRaw": "TAF HESX 181700Z 1818/1924 35006KT 9999 SCT025 \n  TEMPO 1822/1909 3000 BR BKN020 \n  PROB40 \n  TEMPO 1901/1908 1000 \n  PROB30 \n  TEMPO 1902/1907 0500 FG"
    },
    {
      "icao": "LZIB",
      "iata": "BTS",
      "name": "M. R. Štefánik Airport",
      "updatedAt": "181730Z",
      "visibility_m": 10000,
      "taf_visibility_m": 2000,
      "worst_visibility_m": 2000,
      "ceiling_ft": 200,
      "hazards": [
        "BR",
        "FG"
      ],
      "severityScore": 65,
      "metarRaw": "METAR LZIB 181730Z 11007KT CAVOK M03/M04 Q1033 NOSIG",
      "tafRaw": "TAF LZIB 181715Z 1818/1918 09005KT 9999 FEW020 \n  PROB30 \n  TEMPO 1900/1907 2000 BCFG BR BKN002"
    },
    {
      "icao": "LEAL",
      "iata": "ALC",
      "name": "Alicante-Elche Miguel Hernández Airport",
      "updatedAt": "181730Z",
      "visibility_m": 10000,
      "taf_visibility_m": 3000,
      "worst_visibility_m": 3000,
      "ceiling_ft": null,
      "hazards": [
        "TSRA",
        "RA",
        "TS"
      ],
      "severityScore": 62,
      "metarRaw": "METAR LEAL 181730Z 30005KT 280V340 9999 FEW050 12/06 Q1011 NOSIG",
      "tafRaw": "TAF LEAL 181700Z 1818/1918 29004KT 9999 FEW030 TX14/1913Z TN08/1904Z \n  TEMPO 1818/1821 02004KT \n  TEMPO 1904/1911 4000 RA FEW040TCU \n  PROB30 \n  TEMPO 1907/1910 3000 TSRA FEW040CB \n  TEMPO 1911/1914 02010KT"
    },
    {
      "icao": "ENTO",
      "iata": "TRF",
      "name": "Sandefjord Airport, Torp",
      "updatedAt": "181720Z",
      "visibility_m": 4000,
      "taf_visibility_m": null,
      "worst_visibility_m": 4000,
      "ceiling_ft": 200,
      "hazards": [
        "BR",
        "DZ"
      ],
      "severityScore": 60,
      "metarRaw": "METAR ENTO 181720Z 07003KT 040V100 8000 BKN002 BKN003 OVC004 01/01 Q1029 TEMPO 4000 -DZ BR",
      "tafRaw": null
    },
    {
      "icao": "EGKK",
      "iata": "LGW",
      "name": "London Gatwick Airport",
      "updatedAt": "181720Z",
      "visibility_m": 10000,
      "taf_visibility_m": 3000,
      "worst_visibility_m": 3000,
      "ceiling_ft": 300,
      "hazards": [
        "BR",
        "DZ"
      ],
      "severityScore": 55,
      "metarRaw": "METAR EGKK 181720Z 07005KT CAVOK 09/09 Q1016",
      "tafRaw": "TAF EGKK 181658Z 1818/1924 14006KT 9999 FEW045 \n  PROB30 \n  TEMPO 1821/1902 BKN007 \n  TEMPO 1823/1909 6000 \n  PROB40 \n  TEMPO 1902/1909 3000 BR BKN003 \n  TEMPO 1909/1924 BKN010 \n  PROB30 \n  TEMPO 1909/1918 6000 -DZ BKN008 \n  PROB30 \n  TEMPO 1918/1924 3000 DZ BKN006"
    },
    {
      "icao": "ESMS",
      "iata": "MMX",
      "name": "Malmö Sturup Airport",
      "updatedAt": "181720Z",
      "visibility_m": 2000,
      "taf_visibility_m": 1200,
      "worst_visibility_m": 1200,
      "ceiling_ft": 300,
      "hazards": [
        "BR"
      ],
      "severityScore": 55,
      "metarRaw": "METAR ESMS 181720Z 10012KT 2000 BR OVC003 02/02 Q1028",
      "tafRaw": "TAF ESMS 181727Z 1818/1918 13010KT 1200 BR BKN004 \n  BECMG 1818/1820 9000 NSW BKN020"
    },
    {
      "icao": "LFOB",
      "iata": "BVA",
      "name": "Beauvais Tillé airport",
      "updatedAt": "181730Z",
      "visibility_m": 10000,
      "taf_visibility_m": 800,
      "worst_visibility_m": 800,
      "ceiling_ft": null,
      "hazards": [
        "FG",
        "BR"
      ],
      "severityScore": 55,
      "metarRaw": "METAR LFOB 181730Z AUTO 08006KT CAVOK 03/02 Q1016 NOSIG",
      "tafRaw": "TAF LFOB 181700Z 1818/1918 13005KT CAVOK \n  TEMPO 1821/1908 4000 BR \n  PROB30 \n  TEMPO 1823/1907 0800 FG"
    },
    {
      "icao": "ENTC",
      "iata": "TOS",
      "name": "Tromsø Airport, Langnes",
      "updatedAt": "181720Z",
      "visibility_m": 10000,
      "taf_visibility_m": 4500,
      "worst_visibility_m": 4500,
      "ceiling_ft": 900,
      "hazards": [
        "SHRA",
        "RA"
      ],
      "severityScore": 51,
      "metarRaw": "METAR ENTC 181720Z 22007KT 9999 -SHRA SCT009 BKN027 03/02 Q1029 TEMPO BKN009 RMK WIND 2600FT 24013KT",
      "tafRaw": "TAF ENTC 181700Z 1818/1918 21009KT 9999 -SHRA FEW008 BKN018 \n  TEMPO 1818/1824 4500 SHRA BKN009 SCT020TCU"
    },
    {
      "icao": "ESGG",
      "iata": "GOT",
      "name": "Göteborg Landvetter Airport",
      "updatedAt": "181720Z",
      "visibility_m": 5000,
      "taf_visibility_m": 4000,
      "worst_visibility_m": 4000,
      "ceiling_ft": 200,
      "hazards": [
        "BR"
      ],
      "severityScore": 45,
      "metarRaw": "METAR ESGG 181720Z 11010KT 5000 BR OVC002 01/00 Q1028",
      "tafRaw": "TAF ESGG 181730Z 1818/1918 11011KT 9999 OVC003 \n  PROB40 1818/1821 4000 BR SCT003 \n  BECMG 1821/1823 NSC"
    },
    {
      "icao": "LPMA",
      "iata": "FNC",
      "name": "Madeira International Airport Cristiano Ronaldo",
      "updatedAt": "181730Z",
      "visibility_m": 10000,
      "taf_visibility_m": 8000,
      "worst_visibility_m": 8000,
      "ceiling_ft": 1300,
      "hazards": [
        "SHRA",
        "RA"
      ],
      "severityScore": 38,
      "metarRaw": "METAR LPMA 181730Z 01014G26KT 320V060 9999 SCT015 16/08 Q1020",
      "tafRaw": "TAF LPMA 181700Z 1818/1918 01010KT 9999 SCT015 \n  PROB30 \n  TEMPO 1818/1822 01015G25KT 8000 SHRA BKN013"
    },
    {
      "icao": "LPPS",
      "iata": "PXO",
      "name": "Porto Santo Airport",
      "updatedAt": "181730Z",
      "visibility_m": 10000,
      "taf_visibility_m": 8000,
      "worst_visibility_m": 8000,
      "ceiling_ft": 1200,
      "hazards": [
        "SHRA",
        "RA"
      ],
      "severityScore": 38,
      "metarRaw": "METAR LPPS 181730Z 01016KT 9999 SCT015 15/09 Q1020",
      "tafRaw": "TAF LPPS 181700Z 1818/1924 01015KT 9999 SCT015 \n  PROB40 \n  TEMPO 1818/1824 8000 SHRA BKN012 \n  BECMG 1911/1913 34010KT"
    },
    {
      "icao": "UDSG",
      "iata": "LWN",
      "name": "Shirak International Airport",
      "updatedAt": "181730Z",
      "visibility_m": 10000,
      "taf_visibility_m": 1000,
      "worst_visibility_m": 1000,
      "ceiling_ft": 3300,
      "hazards": [
        "BR",
        "SN"
      ],
      "severityScore": 38,
      "metarRaw": "METAR UDSG 181730Z 07019KT 9999 BKN033 M04/M08 Q1016 NOSIG",
      "tafRaw": "TAF UDSG 181658Z 1818/1918 VRB06KT 5000 BR BKN030 \n  TEMPO 1818/1824 06018KT 1000 SN BR OVC020"
    },
    {
      "icao": "LMML",
      "iata": "MLA",
      "name": "Malta International Airport",
      "updatedAt": "181715Z",
      "visibility_m": 10000,
      "taf_visibility_m": 7000,
      "worst_visibility_m": 7000,
      "ceiling_ft": 800,
      "hazards": [
        "RA"
      ],
      "severityScore": 37,
      "metarRaw": "METAR LMML 181715Z 11017KT 9999 BKN008 15/14 Q1014 NOSIG",
      "tafRaw": "TAF LMML 181700Z 1818/1918 12015KT 9999 SCT015 \n  TEMPO 1818/1918 BKN010 \n  BECMG 1900/1903 13025G35KT \n  BECMG 1909/1912 12035G45KT \n  PROB40 \n  TEMPO 1912/1918 7000 RA BKN010"
    },
    {
      "icao": "GMMX",
      "iata": "RAK",
      "name": "Menara Airport",
      "updatedAt": "181730Z",
      "visibility_m": 1500,
      "taf_visibility_m": 4000,
      "worst_visibility_m": 1500,
      "ceiling_ft": 2000,
      "hazards": [
        "SHRA",
        "RA"
      ],
      "severityScore": 36,
      "metarRaw": "METAR GMMX 181730Z 22006KT 210V270 8000 SCT010 BKN020 FEW026CB 09/06 Q1010 RERA TEMPO 1500 SHRA",
      "tafRaw": "TAF GMMX 181700Z 1818/1924 06006KT 8000 BKN023 SCT080 \n  TEMPO 1819/1907 4000 RA SCT010 BKN015"
    },
    {
      "icao": "EDNY",
      "iata": "FDH",
      "name": "Friedrichshafen Airport",
      "updatedAt": "181720Z",
      "visibility_m": 10000,
      "taf_visibility_m": 3000,
      "worst_visibility_m": 3000,
      "ceiling_ft": 700,
      "hazards": [
        "BR"
      ],
      "severityScore": 35,
      "metarRaw": "METAR EDNY 181720Z 01006KT 9999 BKN007 M00/M01 Q1019",
      "tafRaw": "TAF EDNY 181700Z 1818/1903 03004KT 9999 BKN007 \n  TEMPO 1818/1903 SCT007 \n  PROB40 \n  TEMPO 1821/1903 3000 BR BKN003"
    },
    {
      "icao": "EKBI",
      "iata": "BLL",
      "name": "Billund Airport",
      "updatedAt": "181720Z",
      "visibility_m": 8000,
      "taf_visibility_m": 4000,
      "worst_visibility_m": 4000,
      "ceiling_ft": 500,
      "hazards": [
        "BR"
      ],
      "severityScore": 35,
      "metarRaw": "METAR EKBI 181720Z AUTO 11007KT 8000 OVC009/// 02/01 Q1024",
      "tafRaw": "TAF EKBI 181727Z 1818/1918 12010KT 4000 BR BKN005 \n  TEMPO 1818/1903 6000 NSW BKN012 \n  BECMG 1903/1905 6000 NSW SCT006"
    },
    {
      "icao": "LRSV",
      "iata": "SCV",
      "name": "Suceava Stefan cel Mare Airport",
      "updatedAt": "181730Z",
      "visibility_m": 10000,
      "taf_visibility_m": 5000,
      "worst_visibility_m": 5000,
      "ceiling_ft": 500,
      "hazards": [
        "BR"
      ],
      "severityScore": 35,
      "metarRaw": "METAR LRSV 181730Z 00000KT 9999 SCT035 M12/M13 Q1037",
      "tafRaw": "TAF LRSV 181700Z 1818/1903 VRB04KT CAVOK \n  BECMG 1818/1820 BKN010 \n  TEMPO 1900/1903 5000 BR BKN005 OVC030"
    },
    {
      "icao": "OMDB",
      "iata": "DXB",
      "name": "Dubai International Airport",
      "updatedAt": "181730Z",
      "visibility_m": 10000,
      "taf_visibility_m": 3000,
      "worst_visibility_m": 3000,
      "ceiling_ft": 800,
      "hazards": [
        "BR"
      ],
      "severityScore": 35,
      "metarRaw": "METAR OMDB 181730Z 22005KT 9999 FEW040 21/13 Q1016 NOSIG",
      "tafRaw": "TAF OMDB 181700Z 1818/2000 27010KT 8000 FEW040 \n  BECMG 1818/1820 18005KT \n  PROB30 1900/1906 3000 BR BKN008 \n  BECMG 1908/1910 30010KT \n  BECMG 1915/1917 12005KT"
    },
    {
      "icao": "LEBB",
      "iata": "BIO",
      "name": "Bilbao Airport",
      "updatedAt": "181730Z",
      "visibility_m": 7000,
      "taf_visibility_m": 3000,
      "worst_visibility_m": 3000,
      "ceiling_ft": 1200,
      "hazards": [
        "RA",
        "BR"
      ],
      "severityScore": 34,
      "metarRaw": "METAR LEBB 181730Z 25003KT 210V290 7000 -RA FEW008 BKN012 10/09 Q1015 NOSIG",
      "tafRaw": "TAF LEBB 181700Z 1818/1918 24005KT 9999 BKN020 TX13/1914Z TN06/1907Z \n  PROB40 \n  TEMPO 1818/1903 3000 RA BKN010 \n  PROB30 \n  TEMPO 1903/1909 3000 BR \n  PROB40 1914/1918 31010KT"
    },
    {
      "icao": "LIPE",
      "iata": "BLQ",
      "name": "Bologna Guglielmo Marconi Airport",
      "updatedAt": "181720Z",
      "visibility_m": 4000,
      "taf_visibility_m": 1500,
      "worst_visibility_m": 1500,
      "ceiling_ft": 2300,
      "hazards": [
        "BR",
        "RA"
      ],
      "severityScore": 32,
      "metarRaw": "METAR LIPE 181720Z 01003KT 4000 BR FEW006 BKN023 07/07 Q1024",
      "tafRaw": "TAF LIPE 181700Z 1818/1918 VRB05KT 7000 BKN035 \n  TEMPO 1818/1912 1500 -RA BR BKN007"
    },
    {
      "icao": "EDDN",
      "iata": "NUE",
      "name": "Nuremberg Airport",
      "updatedAt": "181720Z",
      "visibility_m": 10000,
      "taf_visibility_m": 1200,
      "worst_visibility_m": 1200,
      "ceiling_ft": null,
      "hazards": [
        "FG"
      ],
      "severityScore": 30,
      "metarRaw": "METAR EDDN 181720Z AUTO 09008KT CAVOK 01/M02 Q1020 NOSIG",
      "tafRaw": "TAF EDDN 181700Z 1818/1918 10007KT CAVOK \n  PROB30 \n  TEMPO 1903/1907 1200 BCFG"
    },
    {
      "icao": "GCTS",
      "iata": "TFS",
      "name": "Tenerife Sur Airport",
      "updatedAt": "181730Z",
      "visibility_m": 10000,
      "taf_visibility_m": 10000,
      "worst_visibility_m": 10000,
      "ceiling_ft": null,
      "hazards": [
        "TS"
      ],
      "severityScore": 25,
      "metarRaw": "METAR GCTS 181730Z 08018KT 9999 SCT044 21/13 Q1017 NOSIG",
      "tafRaw": "TAF GCTS 181400Z 1815/1915 06014KT 9999 SCT035 TX23/1914Z TN14/1906Z \n  TEMPO 1815/1816 14010KT \n  TEMPO 1822/1910 36006KT \n  TEMPO 1912/1915 08017G27KT"
    },
    {
      "icao": "EKCH",
      "iata": "CPH",
      "name": "Copenhagen Kastrup Airport",
      "updatedAt": "181720Z",
      "visibility_m": 7000,
      "taf_visibility_m": 10000,
      "worst_visibility_m": 7000,
      "ceiling_ft": 800,
      "hazards": [],
      "severityScore": 25,
      "metarRaw": "METAR EKCH 181720Z 11012KT 7000 BKN008 02/01 Q1028 BECMG BKN020",
      "tafRaw": "TAF EKCH 181727Z 1818/1918 13012KT 9999 BKN008 \n  BECMG 1818/1820 BKN020"
    },
    {
      "icao": "ESKN",
      "iata": "NYO",
      "name": "Stockholm Skavsta Airport",
      "updatedAt": "181720Z",
      "visibility_m": 10000,
      "taf_visibility_m": 7000,
      "worst_visibility_m": 7000,
      "ceiling_ft": 800,
      "hazards": [],
      "severityScore": 25,
      "metarRaw": "METAR ESKN 181720Z 14008KT 9999 FEW004 SCT006 BKN008 01/01 Q1033",
      "tafRaw": "TAF ESKN 181730Z 1818/1918 16008KT 7000 OVC003 \n  BECMG 1818/1820 SCT015 \n  PROB40 1820/1823 BKN012 \n  BECMG 1907/1909 BKN005 \n  PROB40 1909/1914 BKN004 \n  PROB40 1914/1918 SCT005"
    },
    {
      "icao": "LGTS",
      "iata": "SKG",
      "name": "Thessaloniki Macedonia International Airport",
      "updatedAt": "181720Z",
      "visibility_m": 10000,
      "taf_visibility_m": 10000,
      "worst_visibility_m": 10000,
      "ceiling_ft": 4000,
      "hazards": [
        "TS"
      ],
      "severityScore": 25,
      "metarRaw": "METAR LGTS 181720Z 13004KT 9999 FEW025 BKN040 05/M02 Q1030 NOSIG",
      "tafRaw": "TAF LGTS 181700Z 1818/1918 09007KT 9999 FEW015 BKN035"
    },
    {
      "icao": "GMMN",
      "iata": "CMN",
      "name": "Mohammed V International Airport",
      "updatedAt": "181730Z",
      "visibility_m": 3000,
      "taf_visibility_m": 3000,
      "worst_visibility_m": 3000,
      "ceiling_ft": 1300,
      "hazards": [
        "RA"
      ],
      "severityScore": 24,
      "metarRaw": "METAR GMMN 181730Z 31004KT 290V010 8000 BKN013 SCT023TCU 09/07 Q1009 RERA TEMPO 3000 RA",
      "tafRaw": "TAF GMMN 181700Z 1818/1924 34004KT 9999 BKN013 SCT023TCU \n  TEMPO 1818/1902 3000 RA BKN010 BKN020TCU \n  BECMG 1910/1914 30014KT SCT020"
    },
    {
      "icao": "LEZG",
      "iata": "ZAZ",
      "name": "Zaragoza Airport",
      "updatedAt": "181730Z",
      "visibility_m": 10000,
      "taf_visibility_m": 2000,
      "worst_visibility_m": 2000,
      "ceiling_ft": 2500,
      "hazards": [
        "BR",
        "RA"
      ],
      "severityScore": 22,
      "metarRaw": "METAR LEZG 181730Z 26006KT 9999 BKN025 08/08 Q1013 NOSIG",
      "tafRaw": "TAF LEZG 181700Z 1818/1918 29008KT 9999 SCT008 TX11/1915Z TN07/1906Z \n  TEMPO 1822/1908 2000 -RA BR BKN004"
    },
    {
      "icao": "LIBP",
      "iata": "PSR",
      "name": "Abruzzo Airport",
      "updatedAt": "181720Z",
      "visibility_m": 6000,
      "taf_visibility_m": 2000,
      "worst_visibility_m": 2000,
      "ceiling_ft": 4000,
      "hazards": [
        "BR",
        "RA"
      ],
      "severityScore": 22,
      "metarRaw": "METAR LIBP 181720Z AUTO 05005KT 6000 BKN078/// BKN110/// 10/10 Q1022",
      "tafRaw": "TAF LIBP 181700Z 1818/1918 VRB06KT 9999 SCT010 BKN040 \n  TEMPO 1821/1903 2000 BR \n  TEMPO 1903/1918 4000 RA \n  BECMG 1909/1911 11010KT"
    },
    {
      "icao": "LJLJ",
      "iata": "LJU",
      "name": "Ljubljana Jože Pučnik Airport",
      "updatedAt": "181730Z",
      "visibility_m": 10000,
      "taf_visibility_m": 4500,
      "worst_visibility_m": 4500,
      "ceiling_ft": 1300,
      "hazards": [
        "BR"
      ],
      "severityScore": 22,
      "metarRaw": "METAR LJLJ 181730Z 00000KT 9999 FEW004 SCT027 M02/M03 Q1030 NOSIG",
      "tafRaw": "TAF LJLJ 181700Z 1818/1918 20003KT 9999 FEW025 \n  PROB40 \n  TEMPO 1820/1910 4500 BR BKN013"
    },
    {
      "icao": "LRIA",
      "iata": "IAS",
      "name": "Iaşi Airport",
      "updatedAt": "181730Z",
      "visibility_m": 10000,
      "taf_visibility_m": 5000,
      "worst_visibility_m": 5000,
      "ceiling_ft": 1100,
      "hazards": [
        "BR"
      ],
      "severityScore": 22,
      "metarRaw": "METAR LRIA 181730Z 31007KT 9999 OVC011 M10/M14 Q1040",
      "tafRaw": "TAF LRIA 181700Z 1818/1903 32006KT 9999 BKN010 BKN030 \n  BECMG 1821/1823 5000 BR OVC005"
    },
    {
      "icao": "LUKK",
      "iata": "RMO",
      "name": "Chişinău International Airport",
      "updatedAt": "181730Z",
      "visibility_m": 10000,
      "taf_visibility_m": 4000,
      "worst_visibility_m": 4000,
      "ceiling_ft": 1400,
      "hazards": [
        "BR"
      ],
      "severityScore": 22,
      "metarRaw": "METAR LUKK 181730Z 02014KT 350V050 9999 BKN014 OVC022 M08/M11 Q1038 NOSIG",
      "tafRaw": "TAF LUKK 181712Z 1818/1918 34008KT 9999 BKN015 \n  TEMPO 1818/1908 4000 BR BKN006"
    },
    {
      "icao": "EHBK",
      "iata": "MST",
      "name": "Maastricht Aachen Airport",
      "updatedAt": "181725Z",
      "visibility_m": 10000,
      "taf_visibility_m": 7000,
      "worst_visibility_m": 7000,
      "ceiling_ft": null,
      "hazards": [
        "FG"
      ],
      "severityScore": 20,
      "metarRaw": "METAR EHBK 181725Z AUTO 08010KT 050V110 9999 NSC 02/00 Q1018 NOSIG",
      "tafRaw": "TAF EHBK 181720Z 1818/1924 08006KT CAVOK \n  PROB30 1818/1908 7000 MIFG \n  PROB30 1918/1924 7000 MIFG"
    },
    {
      "icao": "ENHD",
      "iata": "HAU",
      "name": "Haugesund Airport, Karmøy",
      "updatedAt": "181720Z",
      "visibility_m": 10000,
      "taf_visibility_m": 2000,
      "worst_visibility_m": 2000,
      "ceiling_ft": 3900,
      "hazards": [
        "FG"
      ],
      "severityScore": 20,
      "metarRaw": "METAR ENHD 181720Z 17004KT 9999 SCT020 BKN039 04/02 Q1024",
      "tafRaw": "TAF ENHD 181400Z 1815/1823 15005KT 9999 BKN008 \n  TEMPO 1815/1823 SCT008 BKN020 \n  PROB30 \n  TEMPO 1815/1823 2000 BCFG"
    },
    {
      "icao": "EPKT",
      "iata": "KTW",
      "name": "Katowice Wojciech Korfanty International Airport",
      "updatedAt": "181730Z",
      "visibility_m": 10000,
      "taf_visibility_m": 1200,
      "worst_visibility_m": 1200,
      "ceiling_ft": null,
      "hazards": [
        "BR"
      ],
      "severityScore": 20,
      "metarRaw": "METAR EPKT 181730Z 10006KT CAVOK M08/M11 Q1032",
      "tafRaw": "TAF EPKT 181730Z 1818/1918 11006KT CAVOK \n  TEMPO 1818/1908 3500 BR \n  PROB30 1822/1908 1200 BR \n  TEMPO 1916/1918 4000 BR"
    },
    {
      "icao": "EYVI",
      "iata": "VNO",
      "name": "Vilnius International Airport",
      "updatedAt": "181720Z",
      "visibility_m": 8000,
      "taf_visibility_m": 1500,
      "worst_visibility_m": 1500,
      "ceiling_ft": null,
      "hazards": [
        "BR"
      ],
      "severityScore": 20,
      "metarRaw": "METAR EYVI 181720Z 17005KT 8000 NSC M14/M16 Q1040 NOSIG",
      "tafRaw": "TAF EYVI 181700Z 1818/1918 17010KT 5000 BR NSC \n  PROB40 \n  TEMPO 1818/1906 1500 SCT002 \n  BECMG 1906/1908 9000 NSW"
    },
    {
      "icao": "LIBR",
      "iata": "BDS",
      "name": "Brindisi Airport",
      "updatedAt": "181720Z",
      "visibility_m": 10000,
      "taf_visibility_m": 3000,
      "worst_visibility_m": 3000,
      "ceiling_ft": null,
      "hazards": [
        "BR",
        "DZ"
      ],
      "severityScore": 20,
      "metarRaw": "METAR LIBR 181720Z 18004KT CAVOK 10/06 Q1022",
      "tafRaw": "TAF LIBR 181700Z 1818/1918 17006KT 9999 SCT030 \n  BECMG 1903/1905 3000 DZ \n  BECMG 1909/1911 NSW"
    },
    {
      "icao": "LRBS",
      "iata": "BBU",
      "name": "Bucharest Băneasa Aurel Vlaicu International Airport",
      "updatedAt": "181730Z",
      "visibility_m": 7000,
      "taf_visibility_m": 5000,
      "worst_visibility_m": 5000,
      "ceiling_ft": 2400,
      "hazards": [
        "SN"
      ],
      "severityScore": 18,
      "metarRaw": "METAR LRBS 181730Z 26005KT 7000 BKN024 BKN043 M07/M10 Q1038 NOSIG",
      "tafRaw": "TAF LRBS 181700Z 1818/1918 VRB04KT 7000 BKN025 \n  PROB40 \n  TEMPO 1820/1902 5000 -SN BKN010 OVC025 \n  TEMPO 1906/1909 BKN010"
    },
    {
      "icao": "LROP",
      "iata": "OTP",
      "name": "Bucharest Henri Coandă International Airport",
      "updatedAt": "181730Z",
      "visibility_m": 6000,
      "taf_visibility_m": 5000,
      "worst_visibility_m": 5000,
      "ceiling_ft": 2400,
      "hazards": [
        "SN"
      ],
      "severityScore": 18,
      "metarRaw": "METAR LROP 181730Z 27008KT 6000 OVC024 M07/M10 Q1038 NOSIG",
      "tafRaw": "TAF LROP 181700Z 1818/1918 VRB04KT 7000 BKN025 \n  PROB40 \n  TEMPO 1820/1902 5000 -SN BKN010 OVC025 \n  TEMPO 1906/1909 BKN010"
    },
    {
      "icao": "OJAI",
      "iata": "AMM",
      "name": "Queen Alia International Airport",
      "updatedAt": "181700Z",
      "visibility_m": 4000,
      "taf_visibility_m": null,
      "worst_visibility_m": 4000,
      "ceiling_ft": null,
      "hazards": [
        "BR"
      ],
      "severityScore": 15,
      "metarRaw": "METAR OJAI 181700Z 23006KT 4000 BR FEW025 08/07 Q1016 NOSIG",
      "tafRaw": null
    },
    {
      "icao": "EDDK",
      "iata": "CGN",
      "name": "Cologne Bonn Airport",
      "updatedAt": "181720Z",
      "visibility_m": 10000,
      "taf_visibility_m": 10000,
      "worst_visibility_m": 10000,
      "ceiling_ft": 1000,
      "hazards": [],
      "severityScore": 12,
      "metarRaw": "METAR EDDK 181720Z AUTO 13009KT 9999 OVC010 03/00 Q1020 NOSIG",
      "tafRaw": "TAF EDDK 181700Z 1818/1924 12007KT 9999 OVC009 \n  BECMG 1823/1901 BKN015 \n  PROB40 \n  TEMPO 1901/1910 BKN009"
    },
    {
      "icao": "ENAL",
      "iata": "AES",
      "name": "Ålesund Airport, Vigra",
      "updatedAt": "181720Z",
      "visibility_m": 10000,
      "taf_visibility_m": 10000,
      "worst_visibility_m": 10000,
      "ceiling_ft": 5000,
      "hazards": [
        "RA"
      ],
      "severityScore": 12,
      "metarRaw": "METAR ENAL 181720Z 07005KT 9999 -RA FEW057 03/01 Q1024",
      "tafRaw": "TAF ENAL 181700Z 1818/1903 08005KT 9999 -RA FEW030 BKN050"
    },
    {
      "icao": "EPRA",
      "iata": "RDO",
      "name": "Warsaw Radom Airport",
      "updatedAt": "181730Z",
      "visibility_m": 10000,
      "taf_visibility_m": 10000,
      "worst_visibility_m": 10000,
      "ceiling_ft": null,
      "hazards": [
        "RA"
      ],
      "severityScore": 12,
      "metarRaw": "METAR EPRA 181730Z 10009KT CAVOK M07/M12 Q1036",
      "tafRaw": "TAF EPRA 181730Z 1818/1903 12010KT CAVOK"
    },
    {
      "icao": "LBPD",
      "iata": "PDV",
      "name": "Plovdiv International Airport",
      "updatedAt": "181730Z",
      "visibility_m": 10000,
      "taf_visibility_m": 10000,
      "worst_visibility_m": 10000,
      "ceiling_ft": 1500,
      "hazards": [],
      "severityScore": 12,
      "metarRaw": "METAR LBPD 181730Z AUTO 14004KT 9999 BKN041/// M04/M06 Q1033 NOSIG",
      "tafRaw": "TAF LBPD 181700Z 1818/1918 11010KT CAVOK \n  BECMG 1902/1904 VRB04KT BKN015 \n  BECMG 1909/1911 10010KT SCT030"
    },
    {
      "icao": "LBSF",
      "iata": "SOF",
      "name": "Sofia Airport",
      "updatedAt": "181730Z",
      "visibility_m": 10000,
      "taf_visibility_m": 10000,
      "worst_visibility_m": 10000,
      "ceiling_ft": 1500,
      "hazards": [],
      "severityScore": 12,
      "metarRaw": "METAR LBSF 181730Z AUTO VRB02KT 9999 NCD M07/M11 Q1032 NOSIG",
      "tafRaw": "TAF LBSF 181700Z 1818/1918 06010KT 9999 SCT015 \n  BECMG 1900/1902 VRB04KT BKN015 \n  BECMG 1908/1910 08010KT SCT020"
    },
    {
      "icao": "LEXJ",
      "iata": "SDR",
      "name": "Seve Ballesteros-Santander Airport",
      "updatedAt": "181730Z",
      "visibility_m": 10000,
      "taf_visibility_m": 10000,
      "worst_visibility_m": 10000,
      "ceiling_ft": 2000,
      "hazards": [
        "RA"
      ],
      "severityScore": 12,
      "metarRaw": "METAR LEXJ 181730Z 25008KT 9999 -RA FEW010 BKN020 10/08 Q1016",
      "tafRaw": "TAF LEXJ 181400Z 1815/1915 25009KT 9999 BKN020 TX12/1913Z TN07/1907Z \n  PROB40 \n  TEMPO 1815/1816 RA BKN010 \n  PROB30 \n  TEMPO 1820/1907 RA BKN010"
    },
    {
      "icao": "LFMN",
      "iata": "NCE",
      "name": "Nice-Côte d'Azur Airport",
      "updatedAt": "181730Z",
      "visibility_m": 10000,
      "taf_visibility_m": 10000,
      "worst_visibility_m": 10000,
      "ceiling_ft": 8300,
      "hazards": [
        "RA"
      ],
      "severityScore": 12,
      "metarRaw": "METAR LFMN 181730Z 08020KT 9999 -RA FEW063 OVC083 15/08 Q1017 NOSIG",
      "tafRaw": "TAF LFMN 181400Z 1815/1921 09025KT 9999 OVC060 \n  PROB30 \n  TEMPO 1815/1816 06015KT RA \n  BECMG 1816/1819 06015KT \n  BECMG 1906/1909 07017G27KT \n  PROB40 1909/1916 08025KT"
    },
    {
      "icao": "LGAV",
      "iata": "ATH",
      "name": "Athens Eleftherios Venizelos International Airport",
      "updatedAt": "181720Z",
      "visibility_m": 10000,
      "taf_visibility_m": 5000,
      "worst_visibility_m": 5000,
      "ceiling_ft": 4000,
      "hazards": [
        "RA"
      ],
      "severityScore": 12,
      "metarRaw": "METAR LGAV 181720Z 02012G22KT 9999 BKN040 06/M02 Q1027 NOSIG",
      "tafRaw": "TAF LGAV 181700Z 1818/1918 03016KT 9999 FEW020 SCT030 \n  TEMPO 1818/1918 03016G26KT SCT018 BKN030 \n  PROB30 \n  TEMPO 1824/1912 5000 RA FEW018 BKN020 BKN070"
    },
    {
      "icao": "LIBG",
      "iata": "TAR",
      "name": "Taranto-Grottaglie Marcello Arlotta Airport",
      "updatedAt": "181650Z",
      "visibility_m": 10000,
      "taf_visibility_m": 4000,
      "worst_visibility_m": 4000,
      "ceiling_ft": 2000,
      "hazards": [
        "RA"
      ],
      "severityScore": 12,
      "metarRaw": "METAR LIBG 181650Z 11004KT 9999 SCT040 11/11 Q1022",
      "tafRaw": "TAF LIBG 181700Z 1818/1903 VRB06KT 9999 SCT010 BKN020 \n  TEMPO 1818/1903 4000 -RA"
    },
    {
      "icao": "LICA",
      "iata": "SUF",
      "name": "Lamezia Terme Sant'Eufemia International Airport",
      "updatedAt": "181720Z",
      "visibility_m": 10000,
      "taf_visibility_m": 10000,
      "worst_visibility_m": 10000,
      "ceiling_ft": 2000,
      "hazards": [
        "RA"
      ],
      "severityScore": 12,
      "metarRaw": "METAR LICA 181720Z AUTO 08015KT 9999 BKN028/// OVC100/// 12/09 Q1020",
      "tafRaw": "TAF LICA 181700Z 1818/1918 08018G28KT 9999 BKN020 \n  TEMPO 1818/1824 RA \n  BECMG 1909/1911 08024G38KT"
    },
    {
      "icao": "LICC",
      "iata": "CTA",
      "name": "Catania-Fontanarossa Airport",
      "updatedAt": "181720Z",
      "visibility_m": 10000,
      "taf_visibility_m": 4000,
      "worst_visibility_m": 4000,
      "ceiling_ft": 6000,
      "hazards": [
        "RA"
      ],
      "severityScore": 12,
      "metarRaw": "METAR LICC 181720Z 11009KT 9999 SCT010 BKN060 15/13 Q1017",
      "tafRaw": "TAF LICC 181700Z 1818/1918 08015KT 9999 SCT015 BKN040 \n  PROB40 \n  TEMPO 1818/1912 4000 RA \n  BECMG 1902/1904 10025KT"
    },
    {
      "icao": "LIMF",
      "iata": "TRN",
      "name": "Turin Airport",
      "updatedAt": "181720Z",
      "visibility_m": 6000,
      "taf_visibility_m": 4000,
      "worst_visibility_m": 4000,
      "ceiling_ft": 6000,
      "hazards": [
        "RA"
      ],
      "severityScore": 12,
      "metarRaw": "METAR LIMF 181720Z 36004KT 6000 OVC060 07/05 Q1024",
      "tafRaw": "TAF LIMF 181700Z 1818/1918 34007KT 4000 -RA OVC030 \n  BECMG 1908/1910 8000"
    },
    {
      "icao": "LIPR",
      "iata": "RMI",
      "name": "Federico Fellini International Airport",
      "updatedAt": "181720Z",
      "visibility_m": 10000,
      "taf_visibility_m": 3000,
      "worst_visibility_m": 3000,
      "ceiling_ft": 5000,
      "hazards": [
        "RA"
      ],
      "severityScore": 12,
      "metarRaw": "METAR LIPR 181720Z 08007KT 050V110 9999 -RA SCT025 BKN050 11/08 Q1023",
      "tafRaw": "TAF LIPR 181700Z 1818/1918 09012KT 7000 SCT025 \n  TEMPO 1818/1912 3000 -RA BKN006"
    },
    {
      "icao": "LIRF",
      "iata": "FCO",
      "name": "Rome–Fiumicino Leonardo da Vinci International Airport",
      "updatedAt": "181720Z",
      "visibility_m": 10000,
      "taf_visibility_m": 10000,
      "worst_visibility_m": 10000,
      "ceiling_ft": null,
      "hazards": [
        "RA"
      ],
      "severityScore": 12,
      "metarRaw": "METAR LIRF 181720Z 06006KT CAVOK 12/06 Q1018 NOSIG",
      "tafRaw": "TAF LIRF 181700Z 1818/1924 06009KT 9999 SCT040 \n  TEMPO 1912/1918 RA"
    },
    {
      "icao": "LIRN",
      "iata": "NAP",
      "name": "Naples International Airport",
      "updatedAt": "181720Z",
      "visibility_m": 10000,
      "taf_visibility_m": 10000,
      "worst_visibility_m": 10000,
      "ceiling_ft": 7000,
      "hazards": [
        "RA"
      ],
      "severityScore": 12,
      "metarRaw": "METAR LIRN 181720Z 06008KT 9999 -RA BKN070 13/07 Q1019 NOSIG",
      "tafRaw": "TAF LIRN 181700Z 1818/1918 05010KT 9999 SCT040 \n  TEMPO 1906/1912 RA"
    },
    {
      "icao": "LLBG",
      "iata": "TLV",
      "name": "Ben Gurion International Airport",
      "updatedAt": "181720Z",
      "visibility_m": 7000,
      "taf_visibility_m": 7000,
      "worst_visibility_m": 7000,
      "ceiling_ft": 6400,
      "hazards": [
        "RA"
      ],
      "severityScore": 12,
      "metarRaw": "METAR LLBG 181720Z 15006KT 9999 FEW032 12/10 Q1015 TEMPO 7000 RA FEW020TCU RMK BKN064",
      "tafRaw": "TAF LLBG 181706Z 1818/1918 VRB04KT 9999 SCT040 \n  PROB40 \n  TEMPO 1818/1907 16010KT 7000 RA FEW025TCU BKN030 \n  BECMG 1907/1909 36008KT \n  PROB40 \n  TEMPO 1909/1912 -RA BKN030 \n  BECMG 1914/1916 06005KT CAVOK TX15/1912Z TN10/1904Z"
    },
    {
      "icao": "LOWW",
      "iata": "VIE",
      "name": "Vienna International Airport",
      "updatedAt": "181720Z",
      "visibility_m": 10000,
      "taf_visibility_m": 10000,
      "worst_visibility_m": 10000,
      "ceiling_ft": 1400,
      "hazards": [],
      "severityScore": 12,
      "metarRaw": "METAR LOWW 181720Z 14011KT CAVOK M01/M04 Q1032 NOSIG",
      "tafRaw": "TAF LOWW 181715Z 1818/1924 14013KT 9999 FEW020 SCT030 TXM02/1818Z TNM06/1924Z \n  PROB30 \n  TEMPO 1900/1909 BKN014 \n  PROB40 \n  TEMPO 1909/1917 14020G30KT"
    },
    {
      "icao": "LQBK",
      "iata": "BNX",
      "name": "Banja Luka International Airport",
      "updatedAt": "181730Z",
      "visibility_m": 10000,
      "taf_visibility_m": 10000,
      "worst_visibility_m": 10000,
      "ceiling_ft": 1700,
      "hazards": [],
      "severityScore": 12,
      "metarRaw": "METAR LQBK 181730Z 06005KT 9999 BKN017 OVC027 00/M03 Q1032 NOSIG",
      "tafRaw": "TAF LQBK 181700Z 1818/1918 34006KT 9999 BKN025 TX00/1914Z TNM07/1906Z \n  TEMPO 1818/1908 BKN014"
    },
    {
      "icao": "EPLB",
      "iata": "LUZ",
      "name": "Lublin Airport",
      "updatedAt": "181730Z",
      "visibility_m": 7000,
      "taf_visibility_m": 4000,
      "worst_visibility_m": 4000,
      "ceiling_ft": null,
      "hazards": [
        "BR"
      ],
      "severityScore": 10,
      "metarRaw": "METAR EPLB 181730Z 11006KT 7000 NSC M13/M15 Q1038",
      "tafRaw": "TAF EPLB 181730Z 1818/1918 11008KT 8000 NSC \n  PROB40 1821/1907 4000 BR"
    },
    {
      "icao": "EPMO",
      "iata": "WMI",
      "name": "Modlin Airport",
      "updatedAt": "181730Z",
      "visibility_m": 6000,
      "taf_visibility_m": 3000,
      "worst_visibility_m": 3000,
      "ceiling_ft": null,
      "hazards": [
        "BR"
      ],
      "severityScore": 10,
      "metarRaw": "METAR EPMO 181730Z 09008KT 6000 NSC M11/M13 Q1036",
      "tafRaw": "TAF EPMO 181730Z 1818/1918 09008KT 7000 NSC \n  PROB40 1820/1908 3000 BR"
    },
    {
      "icao": "EPPO",
      "iata": "POZ",
      "name": "Poznań-Ławica Airport",
      "updatedAt": "181730Z",
      "visibility_m": 10000,
      "taf_visibility_m": 4000,
      "worst_visibility_m": 4000,
      "ceiling_ft": null,
      "hazards": [
        "BR"
      ],
      "severityScore": 10,
      "metarRaw": "METAR EPPO 181730Z 10010KT CAVOK M03/M07 Q1031",
      "tafRaw": "TAF EPPO 181730Z 1818/1918 10010KT 8000 NSC \n  PROB30 1821/1906 4000 BR"
    },
    {
      "icao": "EPRZ",
      "iata": "RZE",
      "name": "Rzeszów-Jasionka Airport",
      "updatedAt": "181730Z",
      "visibility_m": 10000,
      "taf_visibility_m": 4000,
      "worst_visibility_m": 4000,
      "ceiling_ft": null,
      "hazards": [
        "BR"
      ],
      "severityScore": 10,
      "metarRaw": "METAR EPRZ 181730Z 10013KT CAVOK M08/M12 Q1035",
      "tafRaw": "TAF EPRZ 181730Z 1818/1918 08011KT CAVOK \n  PROB30 \n  TEMPO 1822/1908 4000 BR \n  BECMG 1915/1918 14010KT"
    },
    {
      "icao": "EPWR",
      "iata": "WRO",
      "name": "Copernicus Wrocław Airport",
      "updatedAt": "181730Z",
      "visibility_m": 5000,
      "taf_visibility_m": 4000,
      "worst_visibility_m": 4000,
      "ceiling_ft": null,
      "hazards": [
        "BR"
      ],
      "severityScore": 10,
      "metarRaw": "METAR EPWR 181730Z 12008KT 5000 BR NSC M00/M02 Q1030",
      "tafRaw": "TAF EPWR 181730Z 1818/1918 11008KT 5000 BR NSC \n  BECMG 1818/1821 4000 BR \n  BECMG 1906/1909 CAVOK \n  BECMG 1915/1918 17010KT"
    },
    {
      "icao": "EYKA",
      "iata": "KUN",
      "name": "Kaunas International Airport",
      "updatedAt": "181720Z",
      "visibility_m": 10000,
      "taf_visibility_m": 5000,
      "worst_visibility_m": 5000,
      "ceiling_ft": null,
      "hazards": [
        "BR"
      ],
      "severityScore": 10,
      "metarRaw": "METAR EYKA 181720Z 16004KT 110V250 CAVOK M13/M15 Q1040",
      "tafRaw": "TAF EYKA 181700Z 1818/1918 VRB05KT 9000 NSC \n  TEMPO 1818/1906 5000 BR"
    },
    {
      "icao": "LEMD",
      "iata": "MAD",
      "name": "Adolfo Suárez Madrid–Barajas Airport",
      "updatedAt": "181730Z",
      "visibility_m": 10000,
      "taf_visibility_m": 4000,
      "worst_visibility_m": 4000,
      "ceiling_ft": null,
      "hazards": [
        "BR"
      ],
      "severityScore": 10,
      "metarRaw": "METAR LEMD 181730Z 01004KT 300V060 CAVOK 08/02 Q1012 NOSIG",
      "tafRaw": "TAF LEMD 181700Z 1818/1924 02007KT 9999 FEW040 TX10/1914Z TNM01/1906Z \n  PROB30 \n  TEMPO 1905/1908 4000 BR"
    },
    {
      "icao": "LFLS",
      "iata": "GNB",
      "name": "Grenoble Alpes Isère Airport",
      "updatedAt": "181730Z",
      "visibility_m": 10000,
      "taf_visibility_m": 4000,
      "worst_visibility_m": 4000,
      "ceiling_ft": null,
      "hazards": [
        "BR"
      ],
      "severityScore": 10,
      "metarRaw": "METAR LFLS 181730Z AUTO 33003KT 300V360 CAVOK 05/04 Q1016 NOSIG",
      "tafRaw": "TAF LFLS 181400Z 1815/1915 08005KT CAVOK \n  PROB40 \n  TEMPO 1903/1911 4000 BR"
    },
    {
      "icao": "LFPO",
      "iata": "ORY",
      "name": "Paris-Orly Airport",
      "updatedAt": "181730Z",
      "visibility_m": 10000,
      "taf_visibility_m": 4000,
      "worst_visibility_m": 4000,
      "ceiling_ft": null,
      "hazards": [
        "BR"
      ],
      "severityScore": 10,
      "metarRaw": "METAR LFPO 181730Z 11004KT CAVOK 08/05 Q1017 NOSIG",
      "tafRaw": "TAF LFPO 181700Z 1818/1924 VRB03KT CAVOK \n  PROB30 \n  TEMPO 1900/1910 4000 BR \n  BECMG 1910/1912 16005KT"
    },
    {
      "icao": "LIBD",
      "iata": "BRI",
      "name": "Bari Karol Wojtyła International Airport",
      "updatedAt": "181720Z",
      "visibility_m": 10000,
      "taf_visibility_m": 3000,
      "worst_visibility_m": 3000,
      "ceiling_ft": null,
      "hazards": [
        "DZ"
      ],
      "severityScore": 10,
      "metarRaw": "METAR LIBD 181720Z VRB02KT 9999 SCT020 10/09 Q1022",
      "tafRaw": "TAF LIBD 181700Z 1818/1918 16007KT 7000 SCT020 \n  BECMG 1904/1906 3000 DZ \n  BECMG 1909/1911 10012KT \n  BECMG 1916/1918 NSW"
    },
    {
      "icao": "LIMC",
      "iata": "MXP",
      "name": "Milan Malpensa International Airport",
      "updatedAt": "181720Z",
      "visibility_m": 10000,
      "taf_visibility_m": 4000,
      "worst_visibility_m": 4000,
      "ceiling_ft": 8100,
      "hazards": [
        "DZ"
      ],
      "severityScore": 10,
      "metarRaw": "METAR LIMC 181720Z 09005KT 9999 BKN081 09/03 Q1024 NOSIG",
      "tafRaw": "TAF LIMC 181700Z 1818/1924 VRB05KT 8000 BKN050 \n  TEMPO 1820/1902 4000 DZ"
    },
    {
      "icao": "LIME",
      "iata": "BGY",
      "name": "Milan Bergamo Airport / Antonio Locatelli Air Base",
      "updatedAt": "181720Z",
      "visibility_m": 10000,
      "taf_visibility_m": 4000,
      "worst_visibility_m": 4000,
      "ceiling_ft": 8500,
      "hazards": [
        "DZ"
      ],
      "severityScore": 10,
      "metarRaw": "METAR LIME 181720Z 17003KT 140V220 9999 FEW045 BKN085 08/02 Q1024 NOSIG",
      "tafRaw": "TAF LIME 181700Z 1818/1918 VRB04KT 8000 FEW025 BKN050 \n  TEMPO 1820/1902 4000 DZ"
    },
    {
      "icao": "LIPX",
      "iata": "VRN",
      "name": "Verona Villafranca Valerio Catullo Airport",
      "updatedAt": "181720Z",
      "visibility_m": 10000,
      "taf_visibility_m": 10000,
      "worst_visibility_m": 10000,
      "ceiling_ft": 8000,
      "hazards": [
        "DZ"
      ],
      "severityScore": 10,
      "metarRaw": "METAR LIPX 181720Z 10007KT 070V130 9999 OVC080 09/M00 Q1024",
      "tafRaw": "TAF LIPX 181700Z 1818/1918 09007KT 9999 BKN050 \n  TEMPO 1818/1821 DZ"
    },
    {
      "icao": "LQTZ",
      "iata": "TZL",
      "name": "Tuzla International Airport",
      "updatedAt": "181730Z",
      "visibility_m": 10000,
      "taf_visibility_m": 3000,
      "worst_visibility_m": 3000,
      "ceiling_ft": 3000,
      "hazards": [
        "BR"
      ],
      "severityScore": 10,
      "metarRaw": "METAR LQTZ 181730Z 11004KT 080V140 9999 OVC030 00/M02 Q1031",
      "tafRaw": "TAF LQTZ 181700Z 1818/1918 10006KT 9999 BKN025 TX03/1913Z TNM03/1906Z \n  PROB30 \n  TEMPO 1903/1908 3000 BR BKN004"
    },
    {
      "icao": "LRCV",
      "iata": "CRA",
      "name": "Craiova International Airport",
      "updatedAt": "181730Z",
      "visibility_m": 8000,
      "taf_visibility_m": 5000,
      "worst_visibility_m": 5000,
      "ceiling_ft": null,
      "hazards": [
        "BR"
      ],
      "severityScore": 10,
      "metarRaw": "METAR LRCV 181730Z 21003KT 8000 NSC M09/M11 Q1038",
      "tafRaw": "TAF LRCV 181700Z 1818/1903 VRB03KT 7000 NSC \n  PROB30 \n  TEMPO 1821/1901 5000 BR"
    },
    {
      "icao": "LRTM",
      "iata": "TGM",
      "name": "Târgu Mureş Transilvania International Airport",
      "updatedAt": "181730Z",
      "visibility_m": 7000,
      "taf_visibility_m": 5000,
      "worst_visibility_m": 5000,
      "ceiling_ft": null,
      "hazards": [
        "BR"
      ],
      "severityScore": 10,
      "metarRaw": "METAR LRTM 181730Z 07002KT 7000 NSC M13/M15 Q1035",
      "tafRaw": "TAF LRTM 181700Z 1818/1903 VRB04KT 7000 NSC \n  BECMG 1819/1821 5000 BR"
    },
    {
      "icao": "LTAC",
      "iata": "ESB",
      "name": "Esenboğa International Airport",
      "updatedAt": "181720Z",
      "visibility_m": 10000,
      "taf_visibility_m": 4000,
      "worst_visibility_m": 4000,
      "ceiling_ft": null,
      "hazards": [
        "BR"
      ],
      "severityScore": 10,
      "metarRaw": "METAR LTAC 181720Z 31006KT 270V340 9999 SCT040 SCT100 M04/M10 Q1021 NOSIG RMK RWY21C 28008KT RWY03L 30006KT 270V330 RWY21R 27007KT RWY03R 29006KT 250V310 RWY21L 29008KT",
      "tafRaw": "TAF LTAC 181640Z 1818/1918 VRB02KT 9999 SCT040 SCT100 \n  PROB30 \n  TEMPO 1903/1907 4000 BR \n  TEMPO 1909/1913 34012KT"
    },
    {
      "icao": "UGKO",
      "iata": "KUT",
      "name": "David the Builder Kutaisi International Airport",
      "updatedAt": "181730Z",
      "visibility_m": 10000,
      "taf_visibility_m": 4000,
      "worst_visibility_m": 4000,
      "ceiling_ft": 3200,
      "hazards": [
        "BR"
      ],
      "severityScore": 10,
      "metarRaw": "METAR UGKO 181730Z 13003KT 100V190 9999 SCT029 BKN032 01/M00 Q1022 NOSIG",
      "tafRaw": "TAF UGKO 181700Z 1818/1918 26007KT 9999 SCT023 BKN050 TX04/1911Z TNM01/1823Z \n  TEMPO 1900/1905 4000 BR BKN010 OVC030"
    },
    {
      "icao": "LECH",
      "iata": "CDT",
      "name": "Castellón-Costa Azahar Airport",
      "updatedAt": "181730Z",
      "visibility_m": 10000,
      "taf_visibility_m": null,
      "worst_visibility_m": 10000,
      "ceiling_ft": 3200,
      "hazards": [],
      "severityScore": 5,
      "metarRaw": "METAR LECH 181730Z AUTO 06005KT 9999 FEW026 BKN032 09/06 Q1012",
      "tafRaw": null
    },
    {
      "icao": "BKPR",
      "iata": "PRN",
      "name": "Priština Adem Jashari International Airport",
      "updatedAt": "181730Z",
      "visibility_m": 10000,
      "taf_visibility_m": 10000,
      "worst_visibility_m": 10000,
      "ceiling_ft": null,
      "hazards": [],
      "severityScore": 0,
      "metarRaw": "METAR BKPR 181730Z 35011KT CAVOK M02/M06 Q1029 NOSIG",
      "tafRaw": "TAF BKPR 181730Z 1818/1918 02012KT CAVOK"
    },
    {
      "icao": "GCFV",
      "iata": "FUE",
      "name": "Fuerteventura Airport",
      "updatedAt": "181730Z",
      "visibility_m": 10000,
      "taf_visibility_m": 10000,
      "worst_visibility_m": 10000,
      "ceiling_ft": null,
      "hazards": [],
      "severityScore": 0,
      "metarRaw": "METAR GCFV 181730Z 35020KT 9999 SCT035 18/08 Q1016",
      "tafRaw": "TAF GCFV 181400Z 1815/1915 36018KT 9999 FEW025 SCT035 TX20/1914Z TN15/1906Z \n  TEMPO 1815/1822 35020G30KT \n  PROB30 \n  TEMPO 1910/1915 02018G28KT"
    },
    {
      "icao": "GCLP",
      "iata": "LPA",
      "name": "Gran Canaria Airport",
      "updatedAt": "181730Z",
      "visibility_m": 10000,
      "taf_visibility_m": 10000,
      "worst_visibility_m": 10000,
      "ceiling_ft": null,
      "hazards": [],
      "severityScore": 0,
      "metarRaw": "METAR GCLP 181730Z 02022KT 9999 FEW025 SCT037 18/11 Q1017 NOSIG",
      "tafRaw": "TAF GCLP 181400Z 1815/1915 36025KT 9999 FEW025 SCT035 TX20/1914Z TN16/1906Z \n  TEMPO 1815/1903 36025G35KT \n  PROB40 \n  TEMPO 1903/1909 01020G30KT"
    },
    {
      "icao": "GMAD",
      "iata": "AGA",
      "name": "Al Massira Airport",
      "updatedAt": "181730Z",
      "visibility_m": 10000,
      "taf_visibility_m": 8000,
      "worst_visibility_m": 8000,
      "ceiling_ft": null,
      "hazards": [],
      "severityScore": 0,
      "metarRaw": "METAR GMAD 181730Z 30013KT 9999 SCT026 14/06 Q1009 NOSIG",
      "tafRaw": "TAF GMAD 181700Z 1818/1924 24008KT 8000 SCT020 \n  BECMG 1912/1914 26014KT"
    },
    {
      "icao": "EBCI",
      "iata": "CRL",
      "name": "Brussels South Charleroi Airport",
      "updatedAt": "181720Z",
      "visibility_m": 10000,
      "taf_visibility_m": 10000,
      "worst_visibility_m": 10000,
      "ceiling_ft": null,
      "hazards": [],
      "severityScore": 0,
      "metarRaw": "METAR EBCI 181720Z 04003KT 360V070 CAVOK 06/04 Q1017 NOSIG",
      "tafRaw": "TAF EBCI 181702Z 1818/1924 17004KT CAVOK"
    },
    {
      "icao": "EDDB",
      "iata": "BER",
      "name": "Berlin Brandenburg Airport",
      "updatedAt": "181720Z",
      "visibility_m": 10000,
      "taf_visibility_m": 10000,
      "worst_visibility_m": 10000,
      "ceiling_ft": null,
      "hazards": [],
      "severityScore": 0,
      "metarRaw": "METAR EDDB 181720Z AUTO 09007KT CAVOK M01/M03 Q1026 NOSIG",
      "tafRaw": "TAF EDDB 181700Z 1818/1918 11009KT CAVOK"
    },
    {
      "icao": "EDDH",
      "iata": "HAM",
      "name": "Hamburg Helmut Schmidt Airport",
      "updatedAt": "181720Z",
      "visibility_m": 10000,
      "taf_visibility_m": 10000,
      "worst_visibility_m": 10000,
      "ceiling_ft": null,
      "hazards": [],
      "severityScore": 0,
      "metarRaw": "METAR EDDH 181720Z AUTO 11009KT 080V160 CAVOK 03/00 Q1023 NOSIG",
      "tafRaw": "TAF EDDH 181700Z 1818/1924 12009KT CAVOK"
    },
    {
      "icao": "EDLW",
      "iata": "DTM",
      "name": "Dortmund Airport",
      "updatedAt": "181720Z",
      "visibility_m": 10000,
      "taf_visibility_m": 10000,
      "worst_visibility_m": 10000,
      "ceiling_ft": null,
      "hazards": [],
      "severityScore": 0,
      "metarRaw": "METAR EDLW 181720Z 02003KT CAVOK 01/M00 Q1019",
      "tafRaw": "TAF EDLW 181700Z 1818/1918 11004KT CAVOK"
    },
    {
      "icao": "ENVA",
      "iata": "TRD",
      "name": "Trondheim Airport, Værnes",
      "updatedAt": "181720Z",
      "visibility_m": 10000,
      "taf_visibility_m": 10000,
      "worst_visibility_m": 10000,
      "ceiling_ft": null,
      "hazards": [],
      "severityScore": 0,
      "metarRaw": "METAR ENVA 181720Z 07003KT CAVOK M05/M05 Q1027 RMK WIND 670FT 08010KT",
      "tafRaw": "TAF ENVA 181700Z 1818/1918 08008KT CAVOK"
    },
    {
      "icao": "ENZV",
      "iata": "SVG",
      "name": "Stavanger Airport, Sola",
      "updatedAt": "181720Z",
      "visibility_m": 10000,
      "taf_visibility_m": 10000,
      "worst_visibility_m": 10000,
      "ceiling_ft": 3500,
      "hazards": [],
      "severityScore": 0,
      "metarRaw": "METAR ENZV 181720Z 17005KT 9999 BKN035 04/00 Q1024 NOSIG",
      "tafRaw": "TAF ENZV 181700Z 1818/1918 16008KT 9999 BKN035"
    },
    {
      "icao": "EPGD",
      "iata": "GDN",
      "name": "Gdańsk Lech Wałęsa Airport",
      "updatedAt": "181730Z",
      "visibility_m": 10000,
      "taf_visibility_m": 8000,
      "worst_visibility_m": 8000,
      "ceiling_ft": null,
      "hazards": [],
      "severityScore": 0,
      "metarRaw": "METAR EPGD 181730Z 18007KT CAVOK M10/M11 Q1033",
      "tafRaw": "TAF EPGD 181730Z 1818/1918 17007KT 8000 NSC"
    },
    {
      "icao": "EPSC",
      "iata": "SZZ",
      "name": "Solidarity Szczecin–Goleniów Airport",
      "updatedAt": "181730Z",
      "visibility_m": 10000,
      "taf_visibility_m": 8000,
      "worst_visibility_m": 8000,
      "ceiling_ft": null,
      "hazards": [],
      "severityScore": 0,
      "metarRaw": "METAR EPSC 181730Z 12010KT CAVOK M00/M03 Q1029",
      "tafRaw": "TAF EPSC 181730Z 1818/1918 12007KT 8000 NSC"
    },
    {
      "icao": "EPSY",
      "iata": "SZY",
      "name": "Olsztyn-Mazury Airport",
      "updatedAt": "181730Z",
      "visibility_m": 10000,
      "taf_visibility_m": 10000,
      "worst_visibility_m": 10000,
      "ceiling_ft": null,
      "hazards": [],
      "severityScore": 0,
      "metarRaw": "METAR EPSY 181730Z 12004KT 070V160 CAVOK M12/M14 Q1037",
      "tafRaw": "TAF EPSY 181730Z 1818/1903 13006KT CAVOK"
    },
    {
      "icao": "EPWA",
      "iata": "WAW",
      "name": "Warsaw Chopin Airport",
      "updatedAt": "181730Z",
      "visibility_m": 10000,
      "taf_visibility_m": 10000,
      "worst_visibility_m": 10000,
      "ceiling_ft": null,
      "hazards": [],
      "severityScore": 0,
      "metarRaw": "METAR EPWA 181730Z 11010KT CAVOK M08/M12 Q1036 NOSIG",
      "tafRaw": "TAF EPWA 181730Z 1818/1918 11009KT CAVOK"
    },
    {
      "icao": "EYPA",
      "iata": "PLQ",
      "name": "Palanga International Airport",
      "updatedAt": "181720Z",
      "visibility_m": 10000,
      "taf_visibility_m": 10000,
      "worst_visibility_m": 10000,
      "ceiling_ft": null,
      "hazards": [],
      "severityScore": 0,
      "metarRaw": "METAR EYPA 181720Z 14007KT CAVOK M08/M11 Q1037",
      "tafRaw": "TAF EYPA 181700Z 1818/1918 14010KT CAVOK"
    },
    {
      "icao": "HEGN",
      "iata": "HRG",
      "name": "Hurghada International Airport",
      "updatedAt": "181700Z",
      "visibility_m": 10000,
      "taf_visibility_m": 10000,
      "worst_visibility_m": 10000,
      "ceiling_ft": null,
      "hazards": [],
      "severityScore": 0,
      "metarRaw": "METAR HEGN 181700Z 32012KT CAVOK 19/02 Q1016 NOSIG",
      "tafRaw": "TAF HEGN 181700Z 1818/1924 30015KT CAVOK"
    },
    {
      "icao": "HEMA",
      "iata": "RMF",
      "name": "Marsa Alam International Airport",
      "updatedAt": "181700Z",
      "visibility_m": 10000,
      "taf_visibility_m": 10000,
      "worst_visibility_m": 10000,
      "ceiling_ft": null,
      "hazards": [],
      "severityScore": 0,
      "metarRaw": "METAR HEMA 181700Z 01010KT CAVOK 19/10 Q1015 NOSIG",
      "tafRaw": "TAF HEMA 181700Z 1818/1924 32010KT CAVOK"
    },
    {
      "icao": "HESH",
      "iata": "SSH",
      "name": "Sharm El Sheikh International Airport",
      "updatedAt": "181700Z",
      "visibility_m": 10000,
      "taf_visibility_m": 10000,
      "worst_visibility_m": 10000,
      "ceiling_ft": null,
      "hazards": [],
      "severityScore": 0,
      "metarRaw": "METAR HESH 181700Z 01007KT CAVOK 20/06 Q1014 NOSIG",
      "tafRaw": "TAF HESH 181700Z 1818/1924 35010KT CAVOK"
    },
    {
      "icao": "LATI",
      "iata": "TIA",
      "name": "Tirana International Airport Mother Teresa",
      "updatedAt": "181720Z",
      "visibility_m": 10000,
      "taf_visibility_m": 10000,
      "worst_visibility_m": 10000,
      "ceiling_ft": null,
      "hazards": [],
      "severityScore": 0,
      "metarRaw": "METAR LATI 181720Z 00000KT CAVOK 08/M03 Q1024 NOSIG",
      "tafRaw": "TAF LATI 181700Z 1818/1918 VRB05KT CAVOK TX14/1912Z TNM02/1904Z"
    },
    {
      "icao": "LBWN",
      "iata": "VAR",
      "name": "Varna Airport",
      "updatedAt": "181730Z",
      "visibility_m": 10000,
      "taf_visibility_m": 10000,
      "worst_visibility_m": 10000,
      "ceiling_ft": 3000,
      "hazards": [],
      "severityScore": 0,
      "metarRaw": "METAR LBWN 181730Z AUTO 30007KT 260V350 9999 FEW013/// M07/M10 Q1035 NOSIG",
      "tafRaw": "TAF LBWN 181700Z 1818/1918 32012KT 9999 SCT020 BKN030 \n  TEMPO 1822/1903 35016G26KT \n  BECMG 1905/1907 VRB03KT \n  BECMG 1909/1911 32010KT"
    },
    {
      "icao": "LCLK",
      "iata": "LCA",
      "name": "Larnaca International Airport",
      "updatedAt": "181730Z",
      "visibility_m": 10000,
      "taf_visibility_m": 10000,
      "worst_visibility_m": 10000,
      "ceiling_ft": null,
      "hazards": [],
      "severityScore": 0,
      "metarRaw": "METAR LCLK 181730Z 35010KT 9999 FEW050 10/02 Q1017 NOSIG",
      "tafRaw": "TAF LCLK 181730Z 1818/1918 03014KT 9999 FEW025 \n  BECMG 1818/1819 33009KT \n  BECMG 1904/1906 03013KT \n  BECMG 1914/1916 33009KT"
    },
    {
      "icao": "LCPH",
      "iata": "PFO",
      "name": "Paphos International Airport",
      "updatedAt": "181730Z",
      "visibility_m": 10000,
      "taf_visibility_m": 10000,
      "worst_visibility_m": 10000,
      "ceiling_ft": null,
      "hazards": [],
      "severityScore": 0,
      "metarRaw": "METAR LCPH 181730Z 07010KT 9999 FEW025 SCT050 09/05 Q1017 NOSIG",
      "tafRaw": "TAF LCPH 181730Z 1818/1918 06009KT 9999 SCT025 \n  BECMG 1908/1911 13010KT \n  BECMG 1913/1915 06009KT"
    },
    {
      "icao": "LEMG",
      "iata": "AGP",
      "name": "Málaga-Costa del Sol Airport",
      "updatedAt": "181730Z",
      "visibility_m": 10000,
      "taf_visibility_m": 10000,
      "worst_visibility_m": 10000,
      "ceiling_ft": null,
      "hazards": [],
      "severityScore": 0,
      "metarRaw": "METAR LEMG 181730Z VRB01KT 9999 FEW030 SCT075 11/06 Q1010 NOSIG",
      "tafRaw": "TAF LEMG 181700Z 1818/1918 VRB03KT 9999 FEW030 TX13/1914Z TN04/1906Z \n  BECMG 1818/1820 29010KT \n  PROB30 \n  TEMPO 1910/1917 29015G25KT"
    },
    {
      "icao": "LEVC",
      "iata": "VLC",
      "name": "Valencia Airport",
      "updatedAt": "181730Z",
      "visibility_m": 10000,
      "taf_visibility_m": 10000,
      "worst_visibility_m": 10000,
      "ceiling_ft": 2000,
      "hazards": [],
      "severityScore": 0,
      "metarRaw": "METAR LEVC 181730Z 07003KT 030V110 9999 FEW022 11/08 Q1012 NOSIG",
      "tafRaw": "TAF LEVC 181700Z 1818/1918 06006KT 9999 FEW020 TX16/1913Z TN05/1906Z \n  BECMG 1818/1819 30006KT \n  PROB30 \n  TEMPO 1818/1822 BKN020 FEW030TCU \n  TEMPO 1912/1918 VRB04KT"
    },
    {
      "icao": "LEZL",
      "iata": "SVQ",
      "name": "Sevilla Airport",
      "updatedAt": "181730Z",
      "visibility_m": 10000,
      "taf_visibility_m": 10000,
      "worst_visibility_m": 10000,
      "ceiling_ft": null,
      "hazards": [],
      "severityScore": 0,
      "metarRaw": "METAR LEZL 181730Z 02005KT 350V050 CAVOK 13/04 Q1011 NOSIG",
      "tafRaw": "TAF LEZL 181400Z 1815/1915 05010KT CAVOK TX14/1815Z TN03/1907Z \n  BECMG 1816/1818 VRB03KT"
    },
    {
      "icao": "LICJ",
      "iata": "PMO",
      "name": "Falcone–Borsellino Airport",
      "updatedAt": "181720Z",
      "visibility_m": 10000,
      "taf_visibility_m": 10000,
      "worst_visibility_m": 10000,
      "ceiling_ft": null,
      "hazards": [],
      "severityScore": 0,
      "metarRaw": "METAR LICJ 181720Z 15004KT 090V200 9999 FEW060 16/07 Q1015",
      "tafRaw": "TAF LICJ 181700Z 1818/1918 06012KT 9999 SCT040 \n  BECMG 1908/1910 09018G30KT"
    },
    {
      "icao": "LIMJ",
      "iata": "GOA",
      "name": "Genoa Cristoforo Colombo Airport",
      "updatedAt": "181720Z",
      "visibility_m": 10000,
      "taf_visibility_m": 10000,
      "worst_visibility_m": 10000,
      "ceiling_ft": null,
      "hazards": [],
      "severityScore": 0,
      "metarRaw": "METAR LIMJ 181720Z 04015KT CAVOK 11/06 Q1020",
      "tafRaw": "TAF LIMJ 181700Z 1818/1918 03012KT 9999 FEW040 \n  TEMPO 1909/1918 03016G26KT"
    },
    {
      "icao": "LIPH",
      "iata": "TSF",
      "name": "Treviso Antonio Canova Airport",
      "updatedAt": "181720Z",
      "visibility_m": 10000,
      "taf_visibility_m": 10000,
      "worst_visibility_m": 10000,
      "ceiling_ft": 6000,
      "hazards": [],
      "severityScore": 0,
      "metarRaw": "METAR LIPH 181720Z 06007KT 9999 BKN060 08/M01 Q1025",
      "tafRaw": "TAF LIPH 181700Z 1818/1918 04007KT 9999 SCT060"
    },
    {
      "icao": "LIPQ",
      "iata": "TRS",
      "name": "Trieste–Friuli Venezia Giulia Airport",
      "updatedAt": "181720Z",
      "visibility_m": 10000,
      "taf_visibility_m": 10000,
      "worst_visibility_m": 10000,
      "ceiling_ft": null,
      "hazards": [],
      "severityScore": 0,
      "metarRaw": "METAR LIPQ 181720Z AUTO 10009KT 9999 OVC095/// 08/M04 Q1026",
      "tafRaw": "TAF LIPQ 181700Z 1818/1918 08009KT 9999 SCT060"
    },
    {
      "icao": "LIPZ",
      "iata": "VCE",
      "name": "Venice Marco Polo Airport",
      "updatedAt": "181720Z",
      "visibility_m": 10000,
      "taf_visibility_m": 10000,
      "worst_visibility_m": 10000,
      "ceiling_ft": 5000,
      "hazards": [],
      "severityScore": 0,
      "metarRaw": "METAR LIPZ 181720Z 05009KT 9999 BKN050 07/01 Q1025 NOSIG",
      "tafRaw": "TAF LIPZ 181700Z 1818/1924 05010KT 9999 SCT050"
    },
    {
      "icao": "LIRP",
      "iata": "PSA",
      "name": "Pisa International Airport",
      "updatedAt": "181715Z",
      "visibility_m": 10000,
      "taf_visibility_m": 10000,
      "worst_visibility_m": 10000,
      "ceiling_ft": 8000,
      "hazards": [],
      "severityScore": 0,
      "metarRaw": "METAR LIRP 181715Z 04007KT 9999 FEW070 12/05 Q1019 NOSIG",
      "tafRaw": "TAF LIRP 181700Z 1818/1918 11010KT 9999 BKN080 \n  TEMPO 1910/1918 09015G25KT"
    },
    {
      "icao": "LIRZ",
      "iata": "PEG",
      "name": "Perugia San Francesco d'Assisi – Umbria International Airport",
      "updatedAt": "181720Z",
      "visibility_m": 10000,
      "taf_visibility_m": 10000,
      "worst_visibility_m": 10000,
      "ceiling_ft": null,
      "hazards": [],
      "severityScore": 0,
      "metarRaw": "METAR LIRZ 181720Z AUTO 04010KT 9999 NCD 11/05 Q1019",
      "tafRaw": "TAF LIRZ 181700Z 1818/1918 03012KT CAVOK"
    },
    {
      "icao": "LKPR",
      "iata": "PRG",
      "name": "Václav Havel Airport Prague",
      "updatedAt": "181730Z",
      "visibility_m": 10000,
      "taf_visibility_m": 10000,
      "worst_visibility_m": 10000,
      "ceiling_ft": null,
      "hazards": [],
      "severityScore": 0,
      "metarRaw": "METAR LKPR 181730Z 09006KT CAVOK M01/M04 Q1026 NOSIG",
      "tafRaw": "TAF LKPR 181700Z 1818/1924 12010KT CAVOK"
    },
    {
      "icao": "LPFR",
      "iata": "FAO",
      "name": "Faro Airport",
      "updatedAt": "181730Z",
      "visibility_m": 10000,
      "taf_visibility_m": 10000,
      "worst_visibility_m": 10000,
      "ceiling_ft": null,
      "hazards": [],
      "severityScore": 0,
      "metarRaw": "METAR LPFR 181730Z 35009KT 9999 FEW040 13/04 Q1013",
      "tafRaw": "TAF LPFR 181700Z 1818/1918 35008KT CAVOK \n  BECMG 1902/1904 29007KT \n  BECMG 1914/1917 35008KT"
    },
    {
      "icao": "LPPR",
      "iata": "OPO",
      "name": "Francisco de Sá Carneiro Airport",
      "updatedAt": "181730Z",
      "visibility_m": 10000,
      "taf_visibility_m": 10000,
      "worst_visibility_m": 10000,
      "ceiling_ft": null,
      "hazards": [],
      "severityScore": 0,
      "metarRaw": "METAR LPPR 181730Z 35004KT 330V030 CAVOK 10/08 Q1016",
      "tafRaw": "TAF LPPR 181700Z 1818/1918 33007KT CAVOK \n  BECMG 1820/1822 VRB02KT \n  BECMG 1906/1909 09007KT \n  BECMG 1912/1914 33007KT"
    },
    {
      "icao": "LPPT",
      "iata": "LIS",
      "name": "Lisbon Humberto Delgado Airport",
      "updatedAt": "181730Z",
      "visibility_m": 10000,
      "taf_visibility_m": 10000,
      "worst_visibility_m": 10000,
      "ceiling_ft": null,
      "hazards": [],
      "severityScore": 0,
      "metarRaw": "METAR LPPT 181730Z 02009KT 9999 FEW034 10/05 Q1015",
      "tafRaw": "TAF LPPT 181700Z 1818/1924 36010KT 9999 FEW035 \n  BECMG 1900/1902 VRB02KT \n  BECMG 1913/1915 36010KT \n  BECMG 1922/1924 VRB02KT"
    },
    {
      "icao": "LRBC",
      "iata": "BCM",
      "name": "Bacău George Enescu International  Airport",
      "updatedAt": "181730Z",
      "visibility_m": 10000,
      "taf_visibility_m": 10000,
      "worst_visibility_m": 10000,
      "ceiling_ft": 3400,
      "hazards": [],
      "severityScore": 0,
      "metarRaw": "METAR LRBC 181730Z 34009KT 9999 BKN034 M07/M12 Q1039",
      "tafRaw": "TAF LRBC 181700Z 1818/1903 35010KT 9999 BKN030"
    },
    {
      "icao": "LRBV",
      "iata": "GHV",
      "name": "Brașov-Ghimbav International Airport",
      "updatedAt": "181730Z",
      "visibility_m": 10000,
      "taf_visibility_m": 10000,
      "worst_visibility_m": 10000,
      "ceiling_ft": null,
      "hazards": [],
      "severityScore": 0,
      "metarRaw": "METAR LRBV 181730Z 06005KT 9999 FEW031 M08/M11 Q1034",
      "tafRaw": "TAF LRBV 181700Z 1818/1903 VRB04KT 9999 SCT035"
    },
    {
      "icao": "LRCL",
      "iata": "CLJ",
      "name": "Cluj Avram Iancu International Airport",
      "updatedAt": "181730Z",
      "visibility_m": 10000,
      "taf_visibility_m": 10000,
      "worst_visibility_m": 10000,
      "ceiling_ft": null,
      "hazards": [],
      "severityScore": 0,
      "metarRaw": "METAR LRCL 181730Z 06005KT CAVOK M07/M11 Q1035",
      "tafRaw": "TAF LRCL 181700Z 1818/1903 07006KT CAVOK"
    },
    {
      "icao": "LRSB",
      "iata": "SBZ",
      "name": "Sibiu International Airport",
      "updatedAt": "181730Z",
      "visibility_m": 10000,
      "taf_visibility_m": 10000,
      "worst_visibility_m": 10000,
      "ceiling_ft": null,
      "hazards": [],
      "severityScore": 0,
      "metarRaw": "METAR LRSB 181730Z COR 26003KT CAVOK M08/M09 Q1033",
      "tafRaw": "TAF LRSB 181700Z 1818/1918 VRB04KT CAVOK"
    },
    {
      "icao": "LRSM",
      "iata": "SUJ",
      "name": "Satu Mare International Airport",
      "updatedAt": "181730Z",
      "visibility_m": 10000,
      "taf_visibility_m": 10000,
      "worst_visibility_m": 10000,
      "ceiling_ft": null,
      "hazards": [],
      "severityScore": 0,
      "metarRaw": "METAR LRSM 181730Z AUTO 09003KT 9999 NCD M05/M10 Q1035",
      "tafRaw": "TAF LRSM 181400Z 1815/1824 11005KT CAVOK"
    },
    {
      "icao": "LWOH",
      "iata": "OHD",
      "name": "Ohrid St. Paul the Apostle Airport",
      "updatedAt": "181720Z",
      "visibility_m": 10000,
      "taf_visibility_m": 10000,
      "worst_visibility_m": 10000,
      "ceiling_ft": 4000,
      "hazards": [],
      "severityScore": 0,
      "metarRaw": "METAR LWOH 181720Z 06006KT 9999 BKN040 02/M04 Q1025",
      "tafRaw": "TAF LWOH 181730Z 1818/1918 35005KT 9999 SCT040"
    },
    {
      "icao": "LWSK",
      "iata": "SKP",
      "name": "Skopje International Airport",
      "updatedAt": "181720Z",
      "visibility_m": 10000,
      "taf_visibility_m": 10000,
      "worst_visibility_m": 10000,
      "ceiling_ft": 4000,
      "hazards": [],
      "severityScore": 0,
      "metarRaw": "METAR LWSK 181720Z 02008KT CAVOK 01/M05 Q1029 NOSIG",
      "tafRaw": "TAF LWSK 181730Z 1818/1918 05005KT 9999 SCT040 \n  TEMPO 1818/1822 36015KT BKN040"
    },
    {
      "icao": "LYBE",
      "iata": "BEG",
      "name": "Belgrade Nikola Tesla Airport",
      "updatedAt": "181730Z",
      "visibility_m": 10000,
      "taf_visibility_m": 10000,
      "worst_visibility_m": 10000,
      "ceiling_ft": null,
      "hazards": [],
      "severityScore": 0,
      "metarRaw": "METAR LYBE 181730Z 10011KT CAVOK M03/M08 Q1034 NOSIG",
      "tafRaw": "TAF LYBE 181700Z 1818/1918 10012KT CAVOK TX01/1913Z TNM06/1906Z"
    },
    {
      "icao": "LYNI",
      "iata": "INI",
      "name": "Niš Constantine the Great Airport",
      "updatedAt": "181730Z",
      "visibility_m": 10000,
      "taf_visibility_m": 10000,
      "worst_visibility_m": 10000,
      "ceiling_ft": null,
      "hazards": [],
      "severityScore": 0,
      "metarRaw": "METAR LYNI 181730Z VRB01KT CAVOK M03/M08 Q1033 NOSIG",
      "tafRaw": "TAF LYNI 181700Z 1818/1918 05007KT CAVOK TX01/1913Z TNM08/1906Z"
    },
    {
      "icao": "LZKZ",
      "iata": "KSC",
      "name": "Košice International Airport",
      "updatedAt": "181730Z",
      "visibility_m": 10000,
      "taf_visibility_m": 10000,
      "worst_visibility_m": 10000,
      "ceiling_ft": null,
      "hazards": [],
      "severityScore": 0,
      "metarRaw": "METAR LZKZ 181730Z 13001KT CAVOK M05/M08 Q1034 NOSIG",
      "tafRaw": "TAF LZKZ 181715Z 1818/1918 VRB02KT CAVOK"
    },
    {
      "icao": "LZTT",
      "iata": "TAT",
      "name": "Poprad-Tatry Airport",
      "updatedAt": "181730Z",
      "visibility_m": 10000,
      "taf_visibility_m": 10000,
      "worst_visibility_m": 10000,
      "ceiling_ft": null,
      "hazards": [],
      "severityScore": 0,
      "metarRaw": "METAR LZTT 181730Z 28004KT CAVOK M12/M13 Q1031 NOSIG",
      "tafRaw": "TAF LZTT 181715Z 1818/1918 VRB02KT CAVOK"
    },
    {
      "icao": "OEJN",
      "iata": "JED",
      "name": "King Abdulaziz International Airport",
      "updatedAt": "181700Z",
      "visibility_m": 10000,
      "taf_visibility_m": 7000,
      "worst_visibility_m": 7000,
      "ceiling_ft": null,
      "hazards": [],
      "severityScore": 0,
      "metarRaw": "METAR OEJN 181700Z 34009KT CAVOK 25/15 Q1013 NOSIG",
      "tafRaw": "TAF OEJN 181700Z 1818/1924 03007KT 7000 FEW040 \n  BECMG 1910/1912 33012KT \n  BECMG 1918/1920 03005KT"
    },
    {
      "icao": "OEMA",
      "iata": "MED",
      "name": "Prince Mohammad Bin Abdulaziz Airport",
      "updatedAt": "181700Z",
      "visibility_m": 10000,
      "taf_visibility_m": 10000,
      "worst_visibility_m": 10000,
      "ceiling_ft": null,
      "hazards": [],
      "severityScore": 0,
      "metarRaw": "METAR OEMA 181700Z 23008KT CAVOK 23/07 Q1015 NOSIG",
      "tafRaw": "TAF OEMA 181700Z 1818/1924 30008KT CAVOK"
    },
    {
      "icao": "UBBB",
      "iata": "GYD",
      "name": "Heydar Aliyev International Airport",
      "updatedAt": "181730Z",
      "visibility_m": 10000,
      "taf_visibility_m": 10000,
      "worst_visibility_m": 10000,
      "ceiling_ft": 2000,
      "hazards": [],
      "severityScore": 0,
      "metarRaw": "METAR UBBB 181730Z 04010KT 9999 SCT020 05/01 Q1029 NOSIG",
      "tafRaw": "TAF UBBB 181652Z 1818/1918 03008KT 9999 SCT025 TX04/1910Z TN02/1901Z \n  TEMPO 1818/1906 05012KT SCT009 OVC020 \n  TEMPO 1906/1918 05014KT BKN020"
    }
  ],
  "stats": {
    "icaoCount": 159,
    "metarReturned": 159,
    "tafReturned": 156,
    "stationsWritten": 159,
    "missingMetar": 0,
    "missingTaf": 3
  },
  "errors": []
}