{
  "generatedAt": "2026-01-16T17:54:48.266Z",
  "stations": [
    {
      "icao": "BKPR",
      "iata": "PRN",
      "name": "Priština Adem Jashari International Airport",
      "updatedAt": null,
      "visibility_m": null,
      "taf_visibility_m": 150,
      "worst_visibility_m": 150,
      "ceiling_ft": 200,
      "hazards": [
        "FZFG",
        "BR",
        "FG"
      ],
      "severityScore": 100,
      "metarRaw": null,
      "tafRaw": "TAF BKPR 161730Z 1618/1718 VRB05KT 6000 FEW060 \n  BECMG 1618/1620 3000 BR \n  TEMPO 1621/1708 0150 FZFG BKN002"
    },
    {
      "icao": "EDDB",
      "iata": "BER",
      "name": "Berlin Brandenburg Airport",
      "updatedAt": "161750Z",
      "visibility_m": 10000,
      "taf_visibility_m": 400,
      "worst_visibility_m": 400,
      "ceiling_ft": 300,
      "hazards": [
        "FZFG",
        "BR",
        "FG"
      ],
      "severityScore": 100,
      "metarRaw": "METAR EDDB 161750Z AUTO 15007KT CAVOK 04/02 Q1020 NOSIG",
      "tafRaw": "TAF EDDB 161700Z 1618/1718 11008KT CAVOK \n  BECMG 1701/1703 BKN008 \n  BECMG 1703/1705 3000 BR BKN003 \n  PROB30 \n  TEMPO 1704/1709 0400 FZFG \n  TEMPO 1712/1718 5000 BR BKN005"
    },
    {
      "icao": "EFTU",
      "iata": "TKU",
      "name": "Turku Airport",
      "updatedAt": "161750Z",
      "visibility_m": 10000,
      "taf_visibility_m": 300,
      "worst_visibility_m": 300,
      "ceiling_ft": 700,
      "hazards": [
        "FG",
        "BR",
        "FZRA",
        "SN",
        "RA",
        "DZ"
      ],
      "severityScore": 100,
      "metarRaw": "METAR EFTU 161750Z AUTO 17010KT 150V210 9999 OVC007 M01/M02 Q1026",
      "tafRaw": "TAF EFTU 161737Z 1618/1718 17009KT 9999 OVC006 \n  PROB30 1618/1621 BKN010 \n  TEMPO 1621/1702 7000 -FZRA \n  BECMG 1702/1704 2000 -FZRASN BKN004 \n  BECMG 1704/1706 4000 -DZRA BR \n  BECMG 1708/1710 0300 FG VV001 \n  TEMPO 1710/1718 0800 PRFG VV002"
    },
    {
      "icao": "EGGW",
      "iata": "LTN",
      "name": "London Luton Airport",
      "updatedAt": "161750Z",
      "visibility_m": 10000,
      "taf_visibility_m": 600,
      "worst_visibility_m": 600,
      "ceiling_ft": 100,
      "hazards": [
        "FG",
        "BR",
        "SHRA",
        "RA"
      ],
      "severityScore": 100,
      "metarRaw": "METAR EGGW 161750Z AUTO 16008KT 9999 SCT014 06/05 Q1009",
      "tafRaw": "TAF EGGW 161703Z 1618/1718 15007KT 9999 SCT015 \n  PROB30 \n  TEMPO 1618/1620 6000 SHRA \n  PROB40 \n  TEMPO 1620/1706 4000 BR SHRA BKN004 \n  BECMG 1700/1703 BKN005 \n  PROB30 1700/1702 1200 BKN001 \n  PROB30 1702/1706 0600 FG BKN001 \n  PROB40 1706/1711 0600 FG BKN001 \n  BECMG 1711/1714 SCT008 \n  PROB40 \n  TEMPO 1711/1713 3000 BR BKN003 \n  PROB40 1717/1718 4000 BR BKN003"
    },
    {
      "icao": "EGNM",
      "iata": "LBA",
      "name": "Leeds Bradford Airport",
      "updatedAt": "161750Z",
      "visibility_m": 10000,
      "taf_visibility_m": 300,
      "worst_visibility_m": 300,
      "ceiling_ft": 1100,
      "hazards": [
        "FG",
        "BR",
        "RA",
        "DZ"
      ],
      "severityScore": 100,
      "metarRaw": "METAR EGNM 161750Z 13005KT 9999 BKN011 04/03 Q1007",
      "tafRaw": "TAF EGNM 161655Z 1618/1718 13006KT 9999 SCT012 \n  BECMG 1618/1621 6000 BKN006 \n  TEMPO 1618/1623 3000 BR BKN003 \n  PROB40 1619/1623 0300 FG VV/// \n  BECMG 1623/1702 0300 FG VV/// \n  PROB40 \n  TEMPO 1623/1714 RA -RADZ"
    },
    {
      "icao": "EGPD",
      "iata": "ABZ",
      "name": "Aberdeen International Airport",
      "updatedAt": "161750Z",
      "visibility_m": 10000,
      "taf_visibility_m": 300,
      "worst_visibility_m": 300,
      "ceiling_ft": 400,
      "hazards": [
        "FG",
        "BR",
        "RA",
        "DZ"
      ],
      "severityScore": 100,
      "metarRaw": "METAR EGPD 161750Z COR AUTO 04002KT 9999 NCD 00/M01 Q1006 NOSIG",
      "tafRaw": "TAF EGPD 161655Z 1618/1718 VRB03KT 9999 FEW040 \n  TEMPO 1618/1706 3000 BR BKN010 \n  PROB30 1620/1701 0300 FG VV/// \n  BECMG 1621/1624 15010KT \n  PROB30 \n  TEMPO 1701/1706 BKN006 \n  TEMPO 1706/1718 6000 -RADZ BKN006 \n  PROB30 \n  TEMPO 1706/1718 3000 BR RADZ BKN004"
    },
    {
      "icao": "ENGM",
      "iata": "OSL",
      "name": "Oslo-Gardermoen International Airport",
      "updatedAt": "161720Z",
      "visibility_m": 2500,
      "taf_visibility_m": 300,
      "worst_visibility_m": 300,
      "ceiling_ft": 200,
      "hazards": [
        "BR",
        "RA",
        "FZFG",
        "FG",
        "DZ"
      ],
      "severityScore": 100,
      "metarRaw": "METAR ENGM 161720Z 17003KT 130V200 4000 -RA BR BKN002 02/01 Q1009 TEMPO 2500 BR",
      "tafRaw": "TAF ENGM 161700Z 1618/1718 17010KT 8000 -RA SCT003 BKN005 \n  TEMPO 1618/1622 2000 DZ BR OVC003 \n  PROB40 1622/1702 0700 FG VV002 \n  PROB40 1702/1718 0300 FZFG VV001 \n  BECMG 1704/1706 VRB03KT"
    },
    {
      "icao": "ENTO",
      "iata": "TRF",
      "name": "Sandefjord Airport, Torp",
      "updatedAt": "161720Z",
      "visibility_m": 1200,
      "taf_visibility_m": 300,
      "worst_visibility_m": 300,
      "ceiling_ft": 300,
      "hazards": [
        "BR",
        "RA",
        "DZ",
        "FZFG",
        "FG"
      ],
      "severityScore": 100,
      "metarRaw": "METAR ENTO 161720Z 18014KT 2900 DZRA VV003 05/05 Q1008 TEMPO 1200 BR",
      "tafRaw": "TAF ENTO 161700Z 1618/1718 17015KT 6000 -RA SCT003 BKN006 \n  TEMPO 1618/1620 18018G28KT 0300 RADZ FG OVC001 \n  BECMG 1620/1622 VRB05KT FEW008 SCT060 \n  PROB30 1706/1718 0700 FZFG VV002"
    },
    {
      "icao": "EPGD",
      "iata": "GDN",
      "name": "Gdańsk Lech Wałęsa Airport",
      "updatedAt": "161730Z",
      "visibility_m": 600,
      "taf_visibility_m": 200,
      "worst_visibility_m": 200,
      "ceiling_ft": 100,
      "hazards": [
        "FZFG",
        "FG",
        "BR"
      ],
      "severityScore": 100,
      "metarRaw": "METAR EPGD 161730Z 16009KT 0600 R29/1200N FZFG OVC001 M02/M03 Q1024",
      "tafRaw": "TAF EPGD 161730Z 1618/1718 16010KT 0600 FZFG OVC002 \n  PROB40 1618/1704 0200 FZFG OVC001 \n  BECMG 1709/1712 3000 BR BKN005 \n  BECMG 1712/1714 CAVOK"
    },
    {
      "icao": "EPKK",
      "iata": "KRK",
      "name": "Kraków John Paul II International Airport",
      "updatedAt": "161730Z",
      "visibility_m": 3300,
      "taf_visibility_m": 600,
      "worst_visibility_m": 600,
      "ceiling_ft": 400,
      "hazards": [
        "BR",
        "FZFG",
        "FG"
      ],
      "severityScore": 100,
      "metarRaw": "METAR EPKK 161730Z 06007KT 3300 BR OVC004 M00/M01 Q1025",
      "tafRaw": "TAF EPKK 161730Z 1618/1718 06006KT 4000 BR OVC005 \n  TEMPO 1618/1709 2000 BR OVC002 \n  PROB30 \n  TEMPO 1621/1708 0600 FZFG \n  BECMG 1709/1712 CAVOK \n  BECMG 1716/1718 4000 BR"
    },
    {
      "icao": "EPKT",
      "iata": "KTW",
      "name": "Katowice Wojciech Korfanty International Airport",
      "updatedAt": "161730Z",
      "visibility_m": 4400,
      "taf_visibility_m": 400,
      "worst_visibility_m": 400,
      "ceiling_ft": 800,
      "hazards": [
        "BR",
        "FZFG",
        "FG"
      ],
      "severityScore": 100,
      "metarRaw": "METAR EPKT 161730Z 11009KT 4400 BR FEW007 OVC008 01/M00 Q1025",
      "tafRaw": "TAF EPKT 161730Z 1618/1718 10005KT 3500 BR OVC008 \n  TEMPO 1618/1709 1300 BR OVC002 \n  PROB40 \n  TEMPO 1621/1708 0400 FZFG OVC001 \n  BECMG 1709/1712 CAVOK"
    },
    {
      "icao": "EPPO",
      "iata": "POZ",
      "name": "Poznań-Ławica Airport",
      "updatedAt": "161730Z",
      "visibility_m": 2300,
      "taf_visibility_m": 400,
      "worst_visibility_m": 400,
      "ceiling_ft": 300,
      "hazards": [
        "BR",
        "FG"
      ],
      "severityScore": 100,
      "metarRaw": "METAR EPPO 161730Z 13010KT 2300 BR OVC003 02/02 Q1023",
      "tafRaw": "TAF EPPO 161730Z 1618/1718 13010KT 2000 BR OVC004 \n  BECMG 1618/1620 1200 BR OVC001 \n  TEMPO 1618/1710 0400 FG \n  BECMG 1710/1712 4000 BR \n  BECMG 1715/1717 SCT008"
    },
    {
      "icao": "EPSC",
      "iata": "SZZ",
      "name": "Solidarity Szczecin–Goleniów Airport",
      "updatedAt": "161730Z",
      "visibility_m": 2700,
      "taf_visibility_m": 300,
      "worst_visibility_m": 300,
      "ceiling_ft": 500,
      "hazards": [
        "BR",
        "FG"
      ],
      "severityScore": 100,
      "metarRaw": "METAR EPSC 161730Z 13009KT 2700 BR BKN005 02/01 Q1021",
      "tafRaw": "TAF EPSC 161730Z 1618/1718 15010KT 2500 BR OVC005 \n  BECMG 1618/1620 0600 FG OVC002 \n  PROB40 1618/1707 0300 FG OVC001 \n  BECMG 1709/1712 3000 BR BKN008 \n  PROB40 1709/1718 0900 FG BKN002 \n  PROB30 1712/1714 6000 SCT020"
    },
    {
      "icao": "EPWR",
      "iata": "WRO",
      "name": "Copernicus Wrocław Airport",
      "updatedAt": "161730Z",
      "visibility_m": 7000,
      "taf_visibility_m": 300,
      "worst_visibility_m": 300,
      "ceiling_ft": 100,
      "hazards": [
        "FZFG",
        "FG",
        "BR"
      ],
      "severityScore": 100,
      "metarRaw": "METAR EPWR 161730Z 11008KT 7000 NSC 02/02 Q1022",
      "tafRaw": "TAF EPWR 161730Z 1618/1718 13008KT 4000 BR NSC \n  BECMG 1618/1620 1200 BR \n  BECMG 1620/1622 0500 FG OVC003 \n  TEMPO 1620/1709 0300 FZFG OVC001 \n  BECMG 1709/1711 CAVOK \n  BECMG 1716/1718 4000 BR"
    },
    {
      "icao": "ESGG",
      "iata": "GOT",
      "name": "Göteborg Landvetter Airport",
      "updatedAt": "161750Z",
      "visibility_m": 10000,
      "taf_visibility_m": 200,
      "worst_visibility_m": 200,
      "ceiling_ft": 600,
      "hazards": [
        "FG",
        "BR"
      ],
      "severityScore": 100,
      "metarRaw": "METAR ESGG 161750Z 19014KT 9999 OVC006 04/03 Q1014",
      "tafRaw": "TAF ESGG 161730Z 1618/1718 18012KT 8000 BKN005 \n  PROB40 1618/1624 1200 BR SCT005 BKN015 \n  TEMPO 1700/1710 0200 FG VV002 \n  BECMG 1705/1707 12005KT \n  PROB40 1710/1718 1200 BR BKN010"
    },
    {
      "icao": "ESKN",
      "iata": "NYO",
      "name": "Stockholm Skavsta Airport",
      "updatedAt": "161750Z",
      "visibility_m": 2500,
      "taf_visibility_m": 300,
      "worst_visibility_m": 300,
      "ceiling_ft": 200,
      "hazards": [
        "BR",
        "FG"
      ],
      "severityScore": 100,
      "metarRaw": "METAR ESKN 161750Z 16013KT 2500 BR OVC002 03/03 Q1018",
      "tafRaw": "TAF ESKN 161730Z 1618/1718 17012KT 5000 OVC004 \n  TEMPO 1618/1704 0700 FG VV002 \n  PROB40 1704/1711 1800 BR SCT005 BKN007 \n  PROB40 1711/1718 0300 FG VV002"
    },
    {
      "icao": "ESMS",
      "iata": "MMX",
      "name": "Malmö Sturup Airport",
      "updatedAt": "161750Z",
      "visibility_m": 2600,
      "taf_visibility_m": 500,
      "worst_visibility_m": 500,
      "ceiling_ft": 200,
      "hazards": [
        "BR",
        "FG"
      ],
      "severityScore": 100,
      "metarRaw": "METAR ESMS 161750Z 14004KT 2600 BR NSC 03/03 Q1019",
      "tafRaw": "TAF ESMS 161727Z 1618/1718 15010KT 2500 BR BKN030 \n  TEMPO 1618/1701 5000 NSW BKN005 \n  BECMG 1701/1703 0500 FG OVC002 \n  TEMPO 1703/1710 3000 BR BKN005 \n  TEMPO 1710/1718 6000 NSW BKN010"
    },
    {
      "icao": "LHBP",
      "iata": "BUD",
      "name": "Budapest Liszt Ferenc International Airport",
      "updatedAt": "161730Z",
      "visibility_m": 2000,
      "taf_visibility_m": 300,
      "worst_visibility_m": 300,
      "ceiling_ft": 200,
      "hazards": [
        "BR",
        "FZFG",
        "FG",
        "FZDZ",
        "DZ"
      ],
      "severityScore": 100,
      "metarRaw": "METAR LHBP 161730Z 09004KT 060V120 2000 BR OVC002 02/01 Q1026 NOSIG",
      "tafRaw": "TAF LHBP 161715Z 1618/1718 08005KT 5000 BR SCT004 OVC010 \n  TEMPO 1618/1706 0700 -DZ FG OVC002 \n  PROB40 1620/1706 0300 -FZDZ FZFG VV001 \n  BECMG 1706/1709 8000 NSW BKN030 \n  TEMPO 1712/1718 5000 BR BKN008"
    },
    {
      "icao": "LIBP",
      "iata": "PSR",
      "name": "Abruzzo Airport",
      "updatedAt": "161720Z",
      "visibility_m": 100,
      "taf_visibility_m": 300,
      "worst_visibility_m": 100,
      "ceiling_ft": 200,
      "hazards": [
        "FG",
        "RA",
        "BR"
      ],
      "severityScore": 100,
      "metarRaw": "METAR LIBP 161720Z AUTO 06003KT 0100 R22/0450N -RA FG VV002 08/08 Q1022",
      "tafRaw": "TAF LIBP 161700Z 1618/1718 VRB03KT 0300 FG OVC002 \n  BECMG 1622/1624 1500 BR BKN010 \n  BECMG 1706/1708 6000 SCT020"
    },
    {
      "icao": "LIPR",
      "iata": "RMI",
      "name": "Federico Fellini International Airport",
      "updatedAt": "161720Z",
      "visibility_m": 4000,
      "taf_visibility_m": 300,
      "worst_visibility_m": 300,
      "ceiling_ft": 300,
      "hazards": [
        "BR",
        "FG"
      ],
      "severityScore": 100,
      "metarRaw": "METAR LIPR 161720Z AUTO VRB02KT 4000 BR OVC008/// 07/06 Q1022",
      "tafRaw": "TAF LIPR 161700Z 1618/1718 VRB04KT 2000 BR BKN020 \n  BECMG 1621/1623 0300 FG OVC003 \n  BECMG 1706/1708 6000 SCT020"
    },
    {
      "icao": "LIPY",
      "iata": "AOI",
      "name": "Marche Airport",
      "updatedAt": "161720Z",
      "visibility_m": 2000,
      "taf_visibility_m": 300,
      "worst_visibility_m": 300,
      "ceiling_ft": 100,
      "hazards": [
        "BR",
        "FG"
      ],
      "severityScore": 100,
      "metarRaw": "METAR LIPY 161720Z AUTO 33003KT 2000 BR OVC003/// 08/08 Q1022",
      "tafRaw": "TAF LIPY 161700Z 1618/1718 VRB05KT 1500 BR OVC010 \n  BECMG 1621/1623 0300 FG OVC001 \n  BECMG 1708/1710 3000 BR BKN006"
    },
    {
      "icao": "LKMT",
      "iata": "OSR",
      "name": "Ostrava Leos Janáček Airport",
      "updatedAt": "161730Z",
      "visibility_m": 200,
      "taf_visibility_m": 300,
      "worst_visibility_m": 200,
      "ceiling_ft": 400,
      "hazards": [
        "FZFG",
        "FG",
        "BR"
      ],
      "severityScore": 100,
      "metarRaw": "METAR LKMT 161730Z VRB01KT 0400 R22/0450N R04/1400D FZFG BKN004 M00/M00 Q1024 TEMPO 0200 FZFG",
      "tafRaw": "TAF LKMT 161700Z 1618/1718 VRB02KT 1500 BR NSC \n  TEMPO 1618/1620 0400 FZFG OVC010 \n  BECMG 1619/1621 1000 BR OVC008 \n  PROB40 1621/1708 0300 FZFG VV002 \n  BECMG 1709/1711 5000 BR BKN015 \n  TEMPO 1712/1718 NSC"
    },
    {
      "icao": "LMML",
      "iata": "MLA",
      "name": "Malta International Airport",
      "updatedAt": "161745Z",
      "visibility_m": 10000,
      "taf_visibility_m": 1000,
      "worst_visibility_m": 1000,
      "ceiling_ft": 500,
      "hazards": [
        "TSRA",
        "RA",
        "SHRA",
        "TS"
      ],
      "severityScore": 100,
      "metarRaw": "METAR LMML 161745Z 08006KT 040V120 9999 SCT049 16/12 Q1015 NOSIG",
      "tafRaw": "TAF LMML 161700Z 1618/1718 12010KT 9999 SCT014 \n  TEMPO 1618/1705 6000 RA BKN014 \n  PROB40 \n  TEMPO 1618/1705 2000 +RA BKN005 \n  PROB30 \n  TEMPO 1618/1709 VRB15G25KT 1000 +TSRA TSRAGS BKN012CB \n  TEMPO 1702/1709 5000 SHRA SHRAGS BKN013TCU \n  BECMG 1706/1709 VRB07KT"
    },
    {
      "icao": "LQSA",
      "iata": "SJJ",
      "name": "Sarajevo International Airport",
      "updatedAt": "161730Z",
      "visibility_m": 7000,
      "taf_visibility_m": 300,
      "worst_visibility_m": 300,
      "ceiling_ft": 200,
      "hazards": [
        "FZFG",
        "BR",
        "FG"
      ],
      "severityScore": 100,
      "metarRaw": "METAR LQSA 161730Z VRB02KT 7000 NSC 01/01 Q1023 NOSIG",
      "tafRaw": "TAF LQSA 161700Z 1618/1718 VRB02KT 8000 NSC TX03/1714Z TNM03/1705Z \n  BECMG 1618/1620 2000 BR BKN005 \n  TEMPO 1620/1709 0300 FZFG BKN002 \n  BECMG 1709/1711 6000 NSW"
    },
    {
      "icao": "LQTZ",
      "iata": "TZL",
      "name": "Tuzla International Airport",
      "updatedAt": "161730Z",
      "visibility_m": 5000,
      "taf_visibility_m": 300,
      "worst_visibility_m": 300,
      "ceiling_ft": 200,
      "hazards": [
        "BR",
        "FZFG",
        "FG"
      ],
      "severityScore": 100,
      "metarRaw": "METAR LQTZ 161730Z 00000KT 5000 BR NSC 03/02 Q1023",
      "tafRaw": "TAF LQTZ 161700Z 1618/1718 12005KT 6000 NSC TX06/1713Z TNM02/1705Z \n  TEMPO 1619/1710 2000 BR \n  PROB30 \n  TEMPO 1622/1709 0300 FZFG BKN002 \n  PROB40 1709/1718 BKN008"
    },
    {
      "icao": "LZIB",
      "iata": "BTS",
      "name": "M. R. Štefánik Airport",
      "updatedAt": "161730Z",
      "visibility_m": 1200,
      "taf_visibility_m": 500,
      "worst_visibility_m": 500,
      "ceiling_ft": 200,
      "hazards": [
        "BR",
        "DZ",
        "FZFG",
        "FZRA",
        "FZDZ",
        "FG",
        "RA"
      ],
      "severityScore": 100,
      "metarRaw": "METAR LZIB 161730Z 03005KT 2000 -DZ BR BKN002 OVC003 01/01 Q1025 TEMPO 1200 -DZ BR",
      "tafRaw": "TAF LZIB 161715Z 1618/1718 05005KT 2500 BR BKN014 \n  TEMPO 1618/1621 1400 DZ BR OVC003 \n  PROB40 \n  TEMPO 1618/1700 0500 FZDZ FZFG OVC001 \n  TEMPO 1623/1706 2500 FZRA BKN009 BKN014 \n  BECMG 1708/1710 10007KT 6000 SCT014 BKN025"
    },
    {
      "icao": "LZTT",
      "iata": "TAT",
      "name": "Poprad-Tatry Airport",
      "updatedAt": "161730Z",
      "visibility_m": 1200,
      "taf_visibility_m": 300,
      "worst_visibility_m": 300,
      "ceiling_ft": 100,
      "hazards": [
        "BR",
        "FZFG",
        "FG"
      ],
      "severityScore": 100,
      "metarRaw": "METAR LZTT 161730Z 00000KT 5000 BR OVC003 01/M00 Q1024 TEMPO 1200 BR OVC001",
      "tafRaw": "TAF LZTT 161715Z 1618/1718 VRB02KT 2500 BR OVC006 \n  TEMPO 1618/1712 1400 BR OVC003 \n  PROB40 \n  TEMPO 1618/1712 0300 FZFG OVC001 \n  BECMG 1712/1714 6000 BKN025"
    },
    {
      "icao": "UAAA",
      "iata": "ALA",
      "name": "Almaty International Airport",
      "updatedAt": "161730Z",
      "visibility_m": 1600,
      "taf_visibility_m": 700,
      "worst_visibility_m": 700,
      "ceiling_ft": 2400,
      "hazards": [
        "BR",
        "SN",
        "FZFG",
        "SHSN",
        "FG"
      ],
      "severityScore": 100,
      "metarRaw": "METAR UAAA 161730Z 27004MPS 1600 R23L/P2000 -SN BR OVC024 M14/M17 Q1023 NOSIG",
      "tafRaw": "TAF UAAA 161705Z 1618/1718 26004MPS 1500 -SHSN BR BKN007 OVC015CB TXM15/1708Z TNM18/1703Z \n  TEMPO 1618/1705 32005G10MPS 0700 SHSN FZFG BKN003 OVC011CB \n  FM170500 28003MPS 3100 BR BKN011CB OVC030 \n  TEMPO 1705/1715 33003G08MPS 1500 -SHSN BR BKN005 OVC011CB \n  TEMPO 1715/1718 35003MPS 0800 FZFG VV003"
    },
    {
      "icao": "LOWW",
      "iata": "VIE",
      "name": "Vienna International Airport",
      "updatedAt": "161720Z",
      "visibility_m": 1400,
      "taf_visibility_m": null,
      "worst_visibility_m": 1400,
      "ceiling_ft": 200,
      "hazards": [
        "BR",
        "FZDZ",
        "DZ"
      ],
      "severityScore": 98,
      "metarRaw": "METAR LOWW 161720Z 16004KT 1400 R16/P1500U R29/P1500D -FZDZ BR FEW001 OVC002 M00/M01 Q1024 NOSIG",
      "tafRaw": null
    },
    {
      "icao": "EKCH",
      "iata": "CPH",
      "name": "Copenhagen Kastrup Airport",
      "updatedAt": "161750Z",
      "visibility_m": 10000,
      "taf_visibility_m": 600,
      "worst_visibility_m": 600,
      "ceiling_ft": 200,
      "hazards": [
        "FG",
        "BR"
      ],
      "severityScore": 90,
      "metarRaw": "METAR EKCH 161750Z AUTO 19008KT 9999 SCT018/// 04/03 Q1019 NOSIG",
      "tafRaw": "TAF EKCH 161727Z 1618/1718 15010KT 9999 BKN030 \n  BECMG 1702/1705 3000 BR BKN006 \n  BECMG 1705/1707 0600 FG BKN002 \n  BECMG 1707/1709 2000 BR BKN006 \n  TEMPO 1709/1718 6000 NSW BKN003"
    },
    {
      "icao": "LFOB",
      "iata": "BVA",
      "name": "Beauvais Tillé airport",
      "updatedAt": "161730Z",
      "visibility_m": 4000,
      "taf_visibility_m": 600,
      "worst_visibility_m": 600,
      "ceiling_ft": 200,
      "hazards": [
        "BR",
        "FG"
      ],
      "severityScore": 90,
      "metarRaw": "METAR LFOB 161730Z AUTO 13006KT CAVOK 06/05 Q1012 BECMG 4000 BR OVC002",
      "tafRaw": "TAF LFOB 161700Z 1618/1718 11005KT CAVOK \n  PROB40 1623/1702 4000 BR \n  BECMG 1702/1704 4000 BR \n  PROB40 1703/1711 0600 FG VV/// \n  BECMG 1712/1716 9999 NSW NSC \n  PROB40 \n  TEMPO 1712/1716 OVC012"
    },
    {
      "icao": "LIPE",
      "iata": "BLQ",
      "name": "Bologna Guglielmo Marconi Airport",
      "updatedAt": "161720Z",
      "visibility_m": 2000,
      "taf_visibility_m": 300,
      "worst_visibility_m": 300,
      "ceiling_ft": 1200,
      "hazards": [
        "BR",
        "FG"
      ],
      "severityScore": 87,
      "metarRaw": "METAR LIPE 161720Z 04002KT 2000 BR OVC012 08/06 Q1022",
      "tafRaw": "TAF LIPE 161700Z 1618/1718 VRB04KT 2000 BR BKN020 \n  TEMPO 1622/1709 0300 FG OVC003"
    },
    {
      "icao": "LEBL",
      "iata": "BCN",
      "name": "Josep Tarradellas Barcelona-El Prat Airport",
      "updatedAt": "161730Z",
      "visibility_m": 9000,
      "taf_visibility_m": 2000,
      "worst_visibility_m": 2000,
      "ceiling_ft": 6000,
      "hazards": [
        "TSRA",
        "SHRA",
        "TS",
        "RA"
      ],
      "severityScore": 76,
      "metarRaw": "METAR LEBL 161730Z 08003KT 010V150 9000 SCT019 BKN060 13/11 Q1013 NOSIG",
      "tafRaw": "TAF LEBL 161700Z 1618/1718 VRB04KT 9000 SCT015 BKN050 TX13/1712Z TN09/1706Z \n  TEMPO 1622/1704 34009KT \n  BECMG 1704/1706 11014KT \n  TEMPO 1621/1718 3000 SHRA SCT010TCU BKN015 \n  PROB40 \n  TEMPO 1621/1718 2000 TSRA SCT010CB BKN015"
    },
    {
      "icao": "EGBB",
      "iata": "BHX",
      "name": "Birmingham Airport",
      "updatedAt": "161750Z",
      "visibility_m": 10000,
      "taf_visibility_m": 4000,
      "worst_visibility_m": 4000,
      "ceiling_ft": 400,
      "hazards": [
        "BR",
        "RA",
        "SHRA"
      ],
      "severityScore": 71,
      "metarRaw": "METAR EGBB 161750Z 15008KT CAVOK 04/03 Q1007",
      "tafRaw": "TAF EGBB 161654Z 1618/1718 14007KT 9999 FEW012 SCT025 \n  PROB30 \n  TEMPO 1618/1621 8000 -SHRA BKN008 \n  TEMPO 1621/1706 7000 RA BKN008 \n  PROB40 \n  TEMPO 1621/1707 4000 BR BKN004 \n  PROB30 \n  TEMPO 1707/1716 8000 -SHRA \n  PROB30 \n  TEMPO 1707/1711 BKN004 \n  PROB30 \n  TEMPO 1711/1716 BKN012"
    },
    {
      "icao": "LFBD",
      "iata": "BOD",
      "name": "Bordeaux–Mérignac Airport",
      "updatedAt": "161730Z",
      "visibility_m": 10000,
      "taf_visibility_m": 1200,
      "worst_visibility_m": 1200,
      "ceiling_ft": 1300,
      "hazards": [
        "RA",
        "SHRA",
        "FG"
      ],
      "severityScore": 68,
      "metarRaw": "METAR LFBD 161730Z AUTO 12005KT CAVOK 09/08 Q1011 TEMPO BKN013",
      "tafRaw": "TAF LFBD 161700Z 1618/1724 12006KT 9999 BKN030 TX09/1713Z TN05/1704Z \n  PROB30 \n  TEMPO 1618/1620 -SHRA BKN013 \n  TEMPO 1700/1709 1500 MIFG \n  PROB40 1710/1724 3000 RA BKN007 \n  PROB40 \n  TEMPO 1720/1724 1200 OVC003"
    },
    {
      "icao": "LEMD",
      "iata": "MAD",
      "name": "Adolfo Suárez Madrid–Barajas Airport",
      "updatedAt": "161730Z",
      "visibility_m": 10000,
      "taf_visibility_m": 3000,
      "worst_visibility_m": 3000,
      "ceiling_ft": 400,
      "hazards": [
        "BR",
        "RA",
        "DZ"
      ],
      "severityScore": 67,
      "metarRaw": "METAR LEMD 161730Z 25003KT 220V290 9999 FEW035 08/04 Q1010 NOSIG",
      "tafRaw": "TAF LEMD 161700Z 1618/1724 VRB04KT 9999 SCT025 TX07/1714Z TN02/1708Z \n  TEMPO 1621/1714 DZRA \n  TEMPO 1700/1711 3000 BR BKN004 BKN010 \n  PROB40 \n  TEMPO 1715/1719 DZRA \n  PROB40 \n  TEMPO 1717/1724 BKN010"
    },
    {
      "icao": "LIPQ",
      "iata": "TRS",
      "name": "Trieste–Friuli Venezia Giulia Airport",
      "updatedAt": "161720Z",
      "visibility_m": 2200,
      "taf_visibility_m": 800,
      "worst_visibility_m": 800,
      "ceiling_ft": 1000,
      "hazards": [
        "BR",
        "FG"
      ],
      "severityScore": 67,
      "metarRaw": "METAR LIPQ 161720Z AUTO 28002KT 2200 BR OVC011/// 09/08 Q1022",
      "tafRaw": "TAF LIPQ 161700Z 1618/1718 VRB04KT 2500 BR BKN020 \n  TEMPO 1700/1706 0800 FG OVC010 \n  BECMG 1707/1709 6000"
    },
    {
      "icao": "LBPD",
      "iata": "PDV",
      "name": "Plovdiv International Airport",
      "updatedAt": "161730Z",
      "visibility_m": 10000,
      "taf_visibility_m": 3000,
      "worst_visibility_m": 3000,
      "ceiling_ft": 400,
      "hazards": [
        "RA",
        "SN"
      ],
      "severityScore": 65,
      "metarRaw": "METAR LBPD 161730Z AUTO 11013KT 9999 -RA SCT007/// BKN013/// OVC017/// 01/01 Q1028 NOSIG",
      "tafRaw": "TAF LBPD 161700Z 1618/1718 10010KT 7000 RASN SCT007 OVC020 \n  TEMPO 1618/1620 5000 SNRA SCT004 OVC015 \n  BECMG 1620/1621 3000 SN BKN004 OVC010 \n  BECMG 1701/1703 9999 NSW SCT010 BKN030"
    },
    {
      "icao": "LHDC",
      "iata": "DEB",
      "name": "Debrecen International Airport",
      "updatedAt": "161715Z",
      "visibility_m": 10000,
      "taf_visibility_m": 700,
      "worst_visibility_m": 700,
      "ceiling_ft": 3000,
      "hazards": [
        "FG",
        "BR",
        "DZ"
      ],
      "severityScore": 65,
      "metarRaw": "METAR LHDC 161715Z AUTO 07004KT 050V160 9999 OVC030 03/01 Q1026 NOSIG",
      "tafRaw": "TAF LHDC 161415Z 1615/1624 07005KT 8000 OVC035 \n  TEMPO 1615/1617 2500 -DZ BR OVC008 \n  PROB40 \n  TEMPO 1617/1624 0700 -DZ FG VV002"
    },
    {
      "icao": "LIBR",
      "iata": "BDS",
      "name": "Brindisi Airport",
      "updatedAt": "161720Z",
      "visibility_m": 8000,
      "taf_visibility_m": 400,
      "worst_visibility_m": 400,
      "ceiling_ft": 3500,
      "hazards": [
        "BR",
        "FG"
      ],
      "severityScore": 65,
      "metarRaw": "METAR LIBR 161720Z 01003KT 8000 BKN035 13/11 Q1020",
      "tafRaw": "TAF LIBR 161700Z 1618/1718 VRB05KT 9999 FEW025 \n  BECMG 1621/1623 3000 BR BKN010 \n  TEMPO 1700/1707 0400 BCFG \n  BECMG 1707/1709 14010KT 8000 SCT020"
    },
    {
      "icao": "LIPX",
      "iata": "VRN",
      "name": "Verona Villafranca Valerio Catullo Airport",
      "updatedAt": "161720Z",
      "visibility_m": 1300,
      "taf_visibility_m": 500,
      "worst_visibility_m": 500,
      "ceiling_ft": 6000,
      "hazards": [
        "BR",
        "FG"
      ],
      "severityScore": 65,
      "metarRaw": "METAR LIPX 161720Z 36002KT 1300 R04/P2000N BR FEW006 BKN060 07/07 Q1022",
      "tafRaw": "TAF LIPX 161700Z 1618/1718 VRB04KT 2000 BR BKN003 \n  TEMPO 1701/1706 0500 FG \n  BECMG 1707/1709 6000 SCT025 \n  TEMPO 1716/1718 2500 BR"
    },
    {
      "icao": "OJAI",
      "iata": "AMM",
      "name": "Queen Alia International Airport",
      "updatedAt": "161700Z",
      "visibility_m": 4000,
      "taf_visibility_m": 500,
      "worst_visibility_m": 500,
      "ceiling_ft": null,
      "hazards": [
        "FG",
        "BR"
      ],
      "severityScore": 65,
      "metarRaw": "METAR OJAI 161700Z 04005KT 4000 HZ NSC 08/06 Q1022 NOSIG",
      "tafRaw": "TAF OJAI 161647Z 1618/1724 16006KT 4000 BR FEW035 \n  PROB30 1623/1707 VRB02KT 0500 FG \n  BECMG 1707/1709 27012KT 5000 HZ"
    },
    {
      "icao": "EETN",
      "iata": "TLL",
      "name": "Lennart Meri Tallinn Airport",
      "updatedAt": "161750Z",
      "visibility_m": 10000,
      "taf_visibility_m": 5000,
      "worst_visibility_m": 5000,
      "ceiling_ft": 900,
      "hazards": [
        "FZDZ",
        "DZ"
      ],
      "severityScore": 63,
      "metarRaw": "METAR EETN 161750Z 15010KT 9999 OVC012 M07/M10 Q1029 TEMPO OVC009",
      "tafRaw": "TAF EETN 161730Z 1618/1718 16012KT 9999 BKN015 \n  TEMPO 1618/1620 OVC008 \n  PROB40 \n  TEMPO 1620/1702 BKN007 \n  BECMG 1702/1704 OVC010 \n  PROB40 \n  TEMPO 1706/1711 -FZDZ BKN005 \n  TEMPO 1711/1718 5000 SG FZDZ BKN005"
    },
    {
      "icao": "LPFR",
      "iata": "FAO",
      "name": "Faro Airport",
      "updatedAt": "161730Z",
      "visibility_m": 10000,
      "taf_visibility_m": 3000,
      "worst_visibility_m": 3000,
      "ceiling_ft": 1500,
      "hazards": [
        "SHRA",
        "TS",
        "RA"
      ],
      "severityScore": 63,
      "metarRaw": "METAR LPFR 161730Z 33003KT 300V360 9999 FEW015 FEW020TCU 11/10 Q1014",
      "tafRaw": "TAF LPFR 161700Z 1618/1718 32007KT 9999 SCT030 \n  TEMPO 1618/1718 8000 SHRA BKN015 FEW025CB \n  PROB30 \n  TEMPO 1618/1624 VRB15G27KT 3000 TSRAGS SCT020CB \n  BECMG 1711/1713 25012KT"
    },
    {
      "icao": "LPPT",
      "iata": "LIS",
      "name": "Lisbon Humberto Delgado Airport",
      "updatedAt": "161730Z",
      "visibility_m": 10000,
      "taf_visibility_m": 3000,
      "worst_visibility_m": 3000,
      "ceiling_ft": 1500,
      "hazards": [
        "SHRA",
        "TS",
        "RA"
      ],
      "severityScore": 63,
      "metarRaw": "METAR LPPT 161730Z 31003KT 280V340 9999 FEW015 FEW025CB 10/07 Q1013",
      "tafRaw": "TAF LPPT 161700Z 1618/1724 30007KT 9999 FEW018 SCT030 \n  TEMPO 1618/1724 8000 SHRA BKN015 FEW025CB \n  PROB30 \n  TEMPO 1618/1624 VRB15G27KT 3000 TSRAGS SCT020CB \n  BECMG 1708/1710 VRB05KT \n  BECMG 1717/1719 34007KT"
    },
    {
      "icao": "LUKK",
      "iata": "RMO",
      "name": "Chişinău International Airport",
      "updatedAt": "161730Z",
      "visibility_m": 10000,
      "taf_visibility_m": 3000,
      "worst_visibility_m": 3000,
      "ceiling_ft": 400,
      "hazards": [
        "BR",
        "SN"
      ],
      "severityScore": 63,
      "metarRaw": "METAR LUKK 161730Z 36010KT CAVOK M09/M13 Q1034 NOSIG",
      "tafRaw": "TAF LUKK 161728Z 1618/1718 36009KT CAVOK \n  BECMG 1701/1703 BKN008 \n  TEMPO 1702/1707 3000 -SN BR OVC004 \n  BECMG 1709/1711 BKN012"
    },
    {
      "icao": "EGKK",
      "iata": "LGW",
      "name": "London Gatwick Airport",
      "updatedAt": "161750Z",
      "visibility_m": 10000,
      "taf_visibility_m": 3000,
      "worst_visibility_m": 3000,
      "ceiling_ft": 1500,
      "hazards": [
        "BR",
        "SHRA",
        "DZ",
        "RA"
      ],
      "severityScore": 58,
      "metarRaw": "METAR EGKK 161750Z 14005KT 110V180 9999 BKN015 08/07 Q1009",
      "tafRaw": "TAF EGKK 161655Z 1618/1724 16004KT 9999 SCT010 BKN045 \n  PROB30 \n  TEMPO 1618/1623 BKN008 \n  TEMPO 1623/1712 6000 -RADZ BKN006 \n  PROB30 \n  TEMPO 1702/1711 4000 RADZ BR BKN004 \n  TEMPO 1712/1714 6000 SHRA BKN007 \n  PROB30 \n  TEMPO 1714/1718 BKN010 \n  PROB30 \n  TEMPO 1718/1720 BKN005 \n  TEMPO 1720/1724 6000 -DZ BKN005 \n  PROB30 \n  TEMPO 1721/1724 3000 DZ BR BKN002"
    },
    {
      "icao": "ENBR",
      "iata": "BGO",
      "name": "Bergen Airport, Flesland",
      "updatedAt": "161720Z",
      "visibility_m": 4000,
      "taf_visibility_m": 4000,
      "worst_visibility_m": 4000,
      "ceiling_ft": 800,
      "hazards": [
        "RA",
        "BR",
        "DZ"
      ],
      "severityScore": 57,
      "metarRaw": "METAR ENBR 161720Z 00000KT 9999 -RA SCT015 BKN020 03/03 Q1006 TEMPO 4000 RADZ BKN008 RMK WIND 1200FT 29008KT",
      "tafRaw": "TAF ENBR 161700Z 1618/1718 VRB05KT 9999 -RA FEW008 BKN015 \n  PROB40 \n  TEMPO 1618/1621 4000 RADZ BKN008 \n  TEMPO 1703/1718 14010KT"
    },
    {
      "icao": "LIME",
      "iata": "BGY",
      "name": "Milan Bergamo Airport / Antonio Locatelli Air Base",
      "updatedAt": "161720Z",
      "visibility_m": 1500,
      "taf_visibility_m": 1000,
      "worst_visibility_m": 1000,
      "ceiling_ft": 800,
      "hazards": [
        "BR",
        "RA"
      ],
      "severityScore": 57,
      "metarRaw": "METAR LIME 161720Z VRB01KT 1500 BR SCT010 SCT065 08/07 Q1021 NOSIG",
      "tafRaw": "TAF LIME 161700Z 1618/1718 VRB04KT 1000 BR BKN008 \n  TEMPO 1621/1703 -RA \n  BECMG 1707/1709 5000 SCT050"
    },
    {
      "icao": "LBSF",
      "iata": "SOF",
      "name": "Sofia Airport",
      "updatedAt": "161730Z",
      "visibility_m": 10000,
      "taf_visibility_m": 3000,
      "worst_visibility_m": 3000,
      "ceiling_ft": 1000,
      "hazards": [
        "SHRA",
        "RA",
        "SN"
      ],
      "severityScore": 56,
      "metarRaw": "METAR LBSF 161730Z AUTO 13003KT 090V180 9999 -SHRA FEW021/// BKN029/// OVC034/// 02/M00 Q1025 NOSIG",
      "tafRaw": "TAF LBSF 161700Z 1618/1718 10010KT 8000 RA SCT020 BKN040 \n  TEMPO 1618/1622 4000 SNRA SCT010 BKN015 OVC025 \n  PROB40 1619/1622 3000 -SN BKN010 OVC020"
    },
    {
      "icao": "EKBI",
      "iata": "BLL",
      "name": "Billund Airport",
      "updatedAt": "161750Z",
      "visibility_m": 10000,
      "taf_visibility_m": 1200,
      "worst_visibility_m": 1200,
      "ceiling_ft": 200,
      "hazards": [
        "BR"
      ],
      "severityScore": 55,
      "metarRaw": "METAR EKBI 161750Z AUTO 17005KT 9999 OVC022/// 05/04 Q1016",
      "tafRaw": "TAF EKBI 161727Z 1618/1718 12006KT 8000 BKN016 \n  TEMPO 1618/1706 BKN010 \n  BECMG 1706/1708 1200 BR VV002 \n  TEMPO 1708/1718 6000 NSW BKN006"
    },
    {
      "icao": "LFLL",
      "iata": "LYS",
      "name": "Lyon Saint-Exupéry Airport",
      "updatedAt": "161730Z",
      "visibility_m": 10000,
      "taf_visibility_m": 400,
      "worst_visibility_m": 400,
      "ceiling_ft": null,
      "hazards": [
        "FG"
      ],
      "severityScore": 55,
      "metarRaw": "METAR LFLL 161730Z VRB02KT CAVOK 11/03 Q1014 NOSIG",
      "tafRaw": "TAF LFLL 161700Z 1618/1724 14008KT CAVOK \n  BECMG 1716/1718 VRB02KT \n  PROB40 \n  TEMPO 1721/1724 0400 FG VV///"
    },
    {
      "icao": "LYPG",
      "iata": "TGD",
      "name": "Podgorica Airport / Podgorica Golubovci Airbase",
      "updatedAt": "161730Z",
      "visibility_m": 10000,
      "taf_visibility_m": 600,
      "worst_visibility_m": 600,
      "ceiling_ft": null,
      "hazards": [
        "FG",
        "BR"
      ],
      "severityScore": 55,
      "metarRaw": "METAR LYPG 161730Z VRB01KT 9999 SCT080 08/06 Q1022 NOSIG",
      "tafRaw": "TAF LYPG 161700Z 1618/1718 34005KT 9999 FEW080 TX14/1713Z TN02/1706Z \n  BECMG 1619/1621 3000 BR \n  TEMPO 1621/1707 0600 FG \n  BECMG 1707/1709 9999 NSW"
    },
    {
      "icao": "LTFM",
      "iata": "IST",
      "name": "İstanbul Airport",
      "updatedAt": "161720Z",
      "visibility_m": 8000,
      "taf_visibility_m": 4000,
      "worst_visibility_m": 4000,
      "ceiling_ft": 2200,
      "hazards": [
        "SHRA",
        "RA",
        "SHSN",
        "SN"
      ],
      "severityScore": 54,
      "metarRaw": "METAR LTFM 161720Z 04020KT 8000 -SHRA SCT007 BKN022 03/01 Q1027 NOSIG RMK RWY17L 04019KT RWY34L 03018KT RWY16R 04018KT RWY36 04018KT RWY18 05018KT",
      "tafRaw": "TAF LTFM 161640Z 1618/1724 02017KT 9999 -SHRA SCT007 BKN022 \n  TEMPO 1618/1622 -SHSNRA BKN006 BKN020 \n  TEMPO 1623/1703 -SHRASN BKN006 BKN020 \n  BECMG 1713/1716 -SHRASN \n  PROB40 \n  TEMPO 1717/1720 4000 -SHSN BKN006 BKN020"
    },
    {
      "icao": "EGPF",
      "iata": "GLA",
      "name": "Glasgow Airport",
      "updatedAt": "161750Z",
      "visibility_m": 10000,
      "taf_visibility_m": 4000,
      "worst_visibility_m": 4000,
      "ceiling_ft": 700,
      "hazards": [
        "RA",
        "SHRA"
      ],
      "severityScore": 51,
      "metarRaw": "METAR EGPF 161750Z AUTO 06007KT 9999 -RA OVC021/// //////TCU 04/03 Q1005",
      "tafRaw": "TAF EGPF 161654Z 1618/1718 07009KT 9999 SCT025 \n  TEMPO 1618/1624 4000 SHRA RA \n  PROB30 \n  TEMPO 1618/1624 BKN012 \n  PROB30 \n  TEMPO 1705/1712 4000 RA SHRA BKN007 \n  PROB40 \n  TEMPO 1712/1718 8000"
    },
    {
      "icao": "LPPR",
      "iata": "OPO",
      "name": "Francisco de Sá Carneiro Airport",
      "updatedAt": "161730Z",
      "visibility_m": 9000,
      "taf_visibility_m": 3000,
      "worst_visibility_m": 3000,
      "ceiling_ft": 4000,
      "hazards": [
        "SHRA",
        "RA",
        "TS"
      ],
      "severityScore": 51,
      "metarRaw": "METAR LPPR 161730Z 00000KT 9000 -SHRA FEW020CB BKN040 09/08 Q1013",
      "tafRaw": "TAF LPPR 161700Z 1618/1718 VRB05KT 9999 FEW015 SCT030 \n  TEMPO 1618/1718 5000 SHRA BKN012 FEW020CB \n  PROB30 \n  TEMPO 1618/1624 VRB15G30KT 3000 TSRAGS SCT015CB"
    },
    {
      "icao": "EGGP",
      "iata": "LPL",
      "name": "Liverpool John Lennon Airport",
      "updatedAt": "161750Z",
      "visibility_m": 10000,
      "taf_visibility_m": 4000,
      "worst_visibility_m": 4000,
      "ceiling_ft": 700,
      "hazards": [
        "RA",
        "DZ"
      ],
      "severityScore": 47,
      "metarRaw": "METAR EGGP 161750Z 13013KT CAVOK 05/03 Q1006",
      "tafRaw": "TAF EGGP 161655Z 1618/1718 13007KT 9999 FEW025 \n  PROB30 \n  TEMPO 1621/1701 8000 -RADZ BKN014 \n  TEMPO 1701/1707 6000 RA BKN012 \n  PROB30 \n  TEMPO 1702/1706 4000 +RA BKN007 \n  PROB30 \n  TEMPO 1707/1712 8000 BKN008"
    },
    {
      "icao": "ENZV",
      "iata": "SVG",
      "name": "Stavanger Airport, Sola",
      "updatedAt": "161720Z",
      "visibility_m": 10000,
      "taf_visibility_m": 10000,
      "worst_visibility_m": 10000,
      "ceiling_ft": 600,
      "hazards": [
        "RA",
        "DZ"
      ],
      "severityScore": 47,
      "metarRaw": "METAR ENZV 161720Z 27006KT 9999 SCT005 BKN006 06/05 Q1008 BECMG SCT006 BKN022",
      "tafRaw": "TAF ENZV 161700Z 1618/1718 24012KT 9999 SCT010 BKN018 \n  PROB30 \n  TEMPO 1618/1619 -RADZ BKN008 \n  BECMG 1618/1620 15005KT"
    },
    {
      "icao": "EBCI",
      "iata": "CRL",
      "name": "Brussels South Charleroi Airport",
      "updatedAt": "161720Z",
      "visibility_m": 10000,
      "taf_visibility_m": 4500,
      "worst_visibility_m": 4500,
      "ceiling_ft": 500,
      "hazards": [
        "BR",
        "DZ"
      ],
      "severityScore": 45,
      "metarRaw": "METAR EBCI 161720Z 15003KT 130V190 9999 FEW030 08/05 Q1014 NOSIG",
      "tafRaw": "TAF EBCI 161715Z 1618/1724 15005KT 9999 FEW020 SCT030 \n  TEMPO 1622/1706 SCT005 BKN009 \n  PROB30 1700/1704 4500 -DZ BR BKN005"
    },
    {
      "icao": "EDDN",
      "iata": "NUE",
      "name": "Nuremberg Airport",
      "updatedAt": "161750Z",
      "visibility_m": 10000,
      "taf_visibility_m": 3000,
      "worst_visibility_m": 3000,
      "ceiling_ft": 300,
      "hazards": [
        "BR"
      ],
      "severityScore": 45,
      "metarRaw": "METAR EDDN 161750Z AUTO 10007KT CAVOK 01/M01 Q1019 NOSIG",
      "tafRaw": "TAF EDDN 161700Z 1618/1718 11006KT CAVOK \n  BECMG 1619/1622 OVC005 \n  TEMPO 1619/1710 3000 BR OVC003 \n  PROB30 \n  TEMPO 1712/1716 SCT008"
    },
    {
      "icao": "EDJA",
      "iata": "FMM",
      "name": "Memmingen Allgau Airport",
      "updatedAt": "161720Z",
      "visibility_m": 10000,
      "taf_visibility_m": 2000,
      "worst_visibility_m": 2000,
      "ceiling_ft": 200,
      "hazards": [
        "BR"
      ],
      "severityScore": 45,
      "metarRaw": "METAR EDJA 161720Z 03007KT CAVOK 04/M00 Q1016",
      "tafRaw": "TAF EDJA 161700Z 1618/1703 06005KT CAVOK \n  BECMG 1701/1703 2000 BR BKN002"
    },
    {
      "icao": "EPWA",
      "iata": "WAW",
      "name": "Warsaw Chopin Airport",
      "updatedAt": "161730Z",
      "visibility_m": 4000,
      "taf_visibility_m": 3000,
      "worst_visibility_m": 3000,
      "ceiling_ft": 400,
      "hazards": [
        "BR"
      ],
      "severityScore": 45,
      "metarRaw": "METAR EPWA 161730Z 12013KT 6000 BKN006 M04/M05 Q1028 TEMPO 4000 BR BKN004",
      "tafRaw": "TAF EPWA 161730Z 1618/1718 12010KT 6000 BKN008 \n  TEMPO 1618/1620 3000 BR BKN004 \n  TEMPO 1620/1703 BKN012 \n  BECMG 1703/1706 SCT012"
    },
    {
      "icao": "ENHD",
      "iata": "HAU",
      "name": "Haugesund Airport, Karmøy",
      "updatedAt": "161720Z",
      "visibility_m": 10000,
      "taf_visibility_m": 4000,
      "worst_visibility_m": 4000,
      "ceiling_ft": 1700,
      "hazards": [
        "BR",
        "RA",
        "DZ"
      ],
      "severityScore": 44,
      "metarRaw": "METAR ENHD 161720Z 29009KT 9999 FEW010 SCT014 BKN017 05/04 Q1007",
      "tafRaw": "TAF ENHD 161400Z 1615/1623 34012KT 8000 -RA SCT010 BKN018 \n  TEMPO 1615/1618 4000 RADZ BR BKN007 \n  BECMG 1619/1621 VRB05KT"
    },
    {
      "icao": "LWSK",
      "iata": "SKP",
      "name": "Skopje International Airport",
      "updatedAt": "161750Z",
      "visibility_m": 10000,
      "taf_visibility_m": 1500,
      "worst_visibility_m": 1500,
      "ceiling_ft": 1000,
      "hazards": [
        "BR",
        "RA"
      ],
      "severityScore": 44,
      "metarRaw": "METAR LWSK 161750Z COR 04004KT 9999 SCT090 04/01 Q1024 NOSIG",
      "tafRaw": "TAF LWSK 161730Z 1618/1718 VRB02KT 9999 SCT050 BKN090 \n  TEMPO 1702/1710 5000 BR SCT020 BKN040 \n  PROB40 \n  TEMPO 1705/1709 1500 RA BKN010 OVC030"
    },
    {
      "icao": "LJLJ",
      "iata": "LJU",
      "name": "Ljubljana Jože Pučnik Airport",
      "updatedAt": "161730Z",
      "visibility_m": 10000,
      "taf_visibility_m": 2000,
      "worst_visibility_m": 2000,
      "ceiling_ft": 4000,
      "hazards": [
        "FG",
        "BR",
        "RA"
      ],
      "severityScore": 42,
      "metarRaw": "METAR LJLJ 161730Z 29005KT 9999 MIFG FEW020 BKN040 02/02 Q1021 NOSIG",
      "tafRaw": "TAF LJLJ 161700Z 1618/1718 30004KT 9999 FEW020 BKN040 \n  TEMPO 1621/1718 4000 BR \n  PROB40 \n  TEMPO 1621/1718 2000 -RA BR BKN013 OVC025"
    },
    {
      "icao": "LTAC",
      "iata": "ESB",
      "name": "Esenboğa International Airport",
      "updatedAt": "161720Z",
      "visibility_m": 10000,
      "taf_visibility_m": 2500,
      "worst_visibility_m": 2500,
      "ceiling_ft": 8000,
      "hazards": [
        "BR",
        "SN",
        "RA"
      ],
      "severityScore": 40,
      "metarRaw": "METAR LTAC 161720Z 26011KT 9999 SCT025 BKN080 04/01 Q1018 NOSIG RMK RWY21C 25012KT RWY03L 26010KT RWY21R 25011KT RWY03R 25010KT RWY21L 25010KT",
      "tafRaw": "TAF LTAC 161640Z 1618/1718 26008KT 9999 SCT025 BKN080 \n  TEMPO 1622/1702 -RASN FEW010 BKN025 BKN080 \n  TEMPO 1703/1707 2500 -RASN BR FEW010 BKN025 BKN080"
    },
    {
      "icao": "UGKO",
      "iata": "KUT",
      "name": "David the Builder Kutaisi International Airport",
      "updatedAt": "161730Z",
      "visibility_m": 9000,
      "taf_visibility_m": 3000,
      "worst_visibility_m": 3000,
      "ceiling_ft": 6800,
      "hazards": [
        "BR",
        "SN",
        "RA"
      ],
      "severityScore": 40,
      "metarRaw": "METAR UGKO 161730Z 09005KT 9000 BKN068 01/00 Q1021 NOSIG",
      "tafRaw": "TAF UGKO 161700Z 1618/1718 09007KT 9000 SCT020 BKN070 TX04/1711Z TN00/1706Z \n  TEMPO 1618/1622 4000 SNRA BR BKN015 OVC040 \n  TEMPO 1700/1708 3000 SHSNRA BKN012CB OVC030 \n  TEMPO 1710/1714 26010KT \n  TEMPO 1712/1718 4000 SNRA BR BKN015 OVC035"
    },
    {
      "icao": "LPMA",
      "iata": "FNC",
      "name": "Madeira International Airport Cristiano Ronaldo",
      "updatedAt": "161730Z",
      "visibility_m": 10000,
      "taf_visibility_m": 8000,
      "worst_visibility_m": 8000,
      "ceiling_ft": 1300,
      "hazards": [
        "SHRA",
        "RA"
      ],
      "severityScore": 38,
      "metarRaw": "METAR LPMA 161730Z 35011KT 310V020 9999 SCT015 17/10 Q1025",
      "tafRaw": "TAF LPMA 161700Z 1618/1718 VRB05KT 9999 SCT015 \n  TEMPO 1618/1718 35013G25KT \n  PROB40 \n  TEMPO 1618/1718 8000 SHRA BKN013"
    },
    {
      "icao": "LPPS",
      "iata": "PXO",
      "name": "Porto Santo Airport",
      "updatedAt": "161730Z",
      "visibility_m": 10000,
      "taf_visibility_m": 8000,
      "worst_visibility_m": 8000,
      "ceiling_ft": 1200,
      "hazards": [
        "SHRA",
        "RA"
      ],
      "severityScore": 38,
      "metarRaw": "METAR LPPS 161730Z 33014KT 9999 SCT015 16/11 Q1025",
      "tafRaw": "TAF LPPS 161700Z 1618/1724 33015KT 9999 SCT014 SCT030 \n  PROB40 \n  TEMPO 1618/1724 33018G30KT 8000 SHRA BKN012"
    },
    {
      "icao": "UDSG",
      "iata": "LWN",
      "name": "Shirak International Airport",
      "updatedAt": "161730Z",
      "visibility_m": 7000,
      "taf_visibility_m": 1500,
      "worst_visibility_m": 1500,
      "ceiling_ft": 2000,
      "hazards": [
        "BR",
        "SN"
      ],
      "severityScore": 38,
      "metarRaw": "METAR UDSG 161730Z 06005KT 7000 FEW049 M16/M17 Q1020 NOSIG",
      "tafRaw": "TAF UDSG 161658Z 1618/1718 VRB06KT 9999 BKN040 \n  TEMPO 1621/1708 5000 BR OVC030 \n  TEMPO 1708/1718 1500 SN BR OVC020"
    },
    {
      "icao": "GMMN",
      "iata": "CMN",
      "name": "Mohammed V International Airport",
      "updatedAt": "161730Z",
      "visibility_m": 10000,
      "taf_visibility_m": 3000,
      "worst_visibility_m": 3000,
      "ceiling_ft": 700,
      "hazards": [
        "RA"
      ],
      "severityScore": 37,
      "metarRaw": "METAR GMMN 161730Z 24007KT 9999 BKN007 BKN020 13/11 Q1018 NOSIG",
      "tafRaw": "TAF GMMN 161700Z 1618/1724 24010KT 9999 BKN009 BKN020 \n  TEMPO 1618/1718 3000 RA BKN003 BKN015TCU"
    },
    {
      "icao": "LGTS",
      "iata": "SKG",
      "name": "Thessaloniki Macedonia International Airport",
      "updatedAt": "161720Z",
      "visibility_m": 10000,
      "taf_visibility_m": 5000,
      "worst_visibility_m": 5000,
      "ceiling_ft": 2500,
      "hazards": [
        "TS",
        "RA"
      ],
      "severityScore": 37,
      "metarRaw": "METAR LGTS 161720Z 12007KT 9999 FEW020 08/03 Q1022 NOSIG",
      "tafRaw": "TAF LGTS 161700Z 1618/1718 08013KT 9999 FEW012 BKN025 \n  PROB30 1700/1712 5000 RA \n  BECMG 1710/1712 VRB03KT"
    },
    {
      "icao": "UBBB",
      "iata": "GYD",
      "name": "Heydar Aliyev International Airport",
      "updatedAt": "161730Z",
      "visibility_m": 10000,
      "taf_visibility_m": 10000,
      "worst_visibility_m": 10000,
      "ceiling_ft": 600,
      "hazards": [
        "RA"
      ],
      "severityScore": 37,
      "metarRaw": "METAR UBBB 161730Z 26008KT CAVOK 02/M00 Q1023 NOSIG",
      "tafRaw": "TAF UBBB 161705Z 1618/1718 30005KT 9999 SCT025 TX06/1710Z TN00/1700Z \n  TEMPO 1618/1702 VRB04KT BKN006 \n  BECMG 1702/1704 35005KT BKN020 \n  TEMPO 1704/1708 02010KT SCT010 \n  TEMPO 1708/1718 03012KT -RA BKN007 OVC017"
    },
    {
      "icao": "GMMX",
      "iata": "RAK",
      "name": "Menara Airport",
      "updatedAt": "161730Z",
      "visibility_m": 1500,
      "taf_visibility_m": 3000,
      "worst_visibility_m": 1500,
      "ceiling_ft": 2000,
      "hazards": [
        "RA",
        "SHRA"
      ],
      "severityScore": 36,
      "metarRaw": "METAR GMMX 161730Z 28012KT 4000 RA SCT013 BKN020 13/12 Q1019 TEMPO 1500 SHRA",
      "tafRaw": "TAF GMMX 161700Z 1618/1724 26010KT 8000 SCT016 BKN023 \n  TEMPO 1618/1712 34017KT 3000 SHRA SCT013 BKN020 FEW030TCU \n  BECMG 1712/1716 04008KT 6000 NSW BKN023 SCT080"
    },
    {
      "icao": "EDSB",
      "iata": "FKB",
      "name": "Karlsruhe Baden-Baden Airport",
      "updatedAt": "161720Z",
      "visibility_m": 10000,
      "taf_visibility_m": 2000,
      "worst_visibility_m": 2000,
      "ceiling_ft": 500,
      "hazards": [
        "BR"
      ],
      "severityScore": 35,
      "metarRaw": "METAR EDSB 161720Z 05003KT 360V070 CAVOK 06/03 Q1015",
      "tafRaw": "TAF EDSB 161700Z 1618/1718 03004KT CAVOK \n  PROB30 \n  TEMPO 1623/1705 3000 BR \n  TEMPO 1705/1713 2000 BR BKN005"
    },
    {
      "icao": "EPMO",
      "iata": "WMI",
      "name": "Modlin Airport",
      "updatedAt": "161730Z",
      "visibility_m": 5000,
      "taf_visibility_m": 2000,
      "worst_visibility_m": 2000,
      "ceiling_ft": 800,
      "hazards": [
        "BR"
      ],
      "severityScore": 35,
      "metarRaw": "METAR EPMO 161730Z 11007KT 5000 BR BKN008 M05/M06 Q1028",
      "tafRaw": "TAF EPMO 161730Z 1618/1718 11010KT 4000 BR BKN008 \n  PROB40 1618/1621 2000 BR BKN004 \n  TEMPO 1621/1704 6000 BKN012 \n  BECMG 1704/1707 8000 SCT012"
    },
    {
      "icao": "EPSY",
      "iata": "SZY",
      "name": "Olsztyn-Mazury Airport",
      "updatedAt": "161730Z",
      "visibility_m": 5000,
      "taf_visibility_m": 5000,
      "worst_visibility_m": 5000,
      "ceiling_ft": 700,
      "hazards": [
        "BR"
      ],
      "severityScore": 35,
      "metarRaw": "METAR EPSY 161730Z 14008KT 100V170 5000 BR BKN007 M09/M10 Q1029",
      "tafRaw": "TAF EPSY 161730Z 1618/1703 14008KT 5000 BR BKN010"
    },
    {
      "icao": "ESSA",
      "iata": "ARN",
      "name": "Stockholm-Arlanda Airport",
      "updatedAt": "161750Z",
      "visibility_m": 7000,
      "taf_visibility_m": 2500,
      "worst_visibility_m": 2500,
      "ceiling_ft": 700,
      "hazards": [
        "BR"
      ],
      "severityScore": 35,
      "metarRaw": "METAR ESSA 161750Z 16016KT 7000 OVC007 02/01 Q1018 NOSIG",
      "tafRaw": "TAF ESSA 161730Z 1618/1718 17015KT 9000 OVC007 \n  TEMPO 1618/1622 OVC010 \n  TEMPO 1622/1718 2500 BR OVC004 \n  BECMG 1708/1710 23007KT"
    },
    {
      "icao": "EYPA",
      "iata": "PLQ",
      "name": "Palanga International Airport",
      "updatedAt": "161750Z",
      "visibility_m": 7000,
      "taf_visibility_m": 5000,
      "worst_visibility_m": 5000,
      "ceiling_ft": 600,
      "hazards": [
        "BR"
      ],
      "severityScore": 35,
      "metarRaw": "METAR EYPA 161750Z 15012KT 7000 OVC006 M06/M07 Q1028",
      "tafRaw": "TAF EYPA 161700Z 1618/1718 15012KT 5000 BR OVC005 \n  TEMPO 1618/1624 14015G25KT 8000 NSW OVC010 \n  PROB40 \n  TEMPO 1618/1624 SCT010 \n  BECMG 1700/1703 BKN010 \n  BECMG 1703/1706 8000 NSW NSC"
    },
    {
      "icao": "LRSV",
      "iata": "SCV",
      "name": "Suceava Stefan cel Mare Airport",
      "updatedAt": "161730Z",
      "visibility_m": 8000,
      "taf_visibility_m": 3000,
      "worst_visibility_m": 3000,
      "ceiling_ft": 500,
      "hazards": [
        "BR"
      ],
      "severityScore": 35,
      "metarRaw": "METAR LRSV 161730Z 07003KT 8000 NSC M11/M13 Q1032",
      "tafRaw": "TAF LRSV 161700Z 1618/1703 08005KT 7000 NSC \n  BECMG 1619/1621 5000 BR \n  TEMPO 1622/1703 3000 BR \n  PROB30 \n  TEMPO 1700/1703 BKN005"
    },
    {
      "icao": "LIMC",
      "iata": "MXP",
      "name": "Milan Malpensa International Airport",
      "updatedAt": "161720Z",
      "visibility_m": 3000,
      "taf_visibility_m": 1000,
      "worst_visibility_m": 1000,
      "ceiling_ft": 6000,
      "hazards": [
        "BR",
        "RA"
      ],
      "severityScore": 32,
      "metarRaw": "METAR LIMC 161720Z 09003KT 070V130 3000 -RA BR FEW008 BKN060 07/06 Q1021 NOSIG",
      "tafRaw": "TAF LIMC 161700Z 1618/1724 VRB03KT 5000 BR OVC020 \n  TEMPO 1618/1724 1000 -RA BKN005"
    },
    {
      "icao": "LKPR",
      "iata": "PRG",
      "name": "Václav Havel Airport Prague",
      "updatedAt": "161730Z",
      "visibility_m": 9000,
      "taf_visibility_m": 2000,
      "worst_visibility_m": 2000,
      "ceiling_ft": 1000,
      "hazards": [
        "BR",
        "DZ"
      ],
      "severityScore": 32,
      "metarRaw": "METAR LKPR 161730Z VRB02KT 9000 OVC010 01/00 Q1022 NOSIG",
      "tafRaw": "TAF LKPR 161700Z 1618/1724 11005KT 6000 OVC007 \n  TEMPO 1618/1708 3000 BR BKN004 \n  PROB30 \n  TEMPO 1709/1715 2000 -DZ BR BKN004 \n  BECMG 1716/1718 14011KT 9999 SCT015"
    },
    {
      "icao": "LRTR",
      "iata": "TSR",
      "name": "Timişoara Traian Vuia Airport",
      "updatedAt": "161730Z",
      "visibility_m": 10000,
      "taf_visibility_m": 5000,
      "worst_visibility_m": 5000,
      "ceiling_ft": 1300,
      "hazards": [
        "BR",
        "DZ"
      ],
      "severityScore": 32,
      "metarRaw": "METAR LRTR 161730Z 10010KT 9999 BKN013 BKN030 02/01 Q1026",
      "tafRaw": "TAF LRTR 161700Z 1618/1718 10008KT 9999 SCT010 BKN030 \n  TEMPO 1618/1622 5000 -DZ BR BKN010 OVC025"
    },
    {
      "icao": "LEZL",
      "iata": "SVQ",
      "name": "Sevilla Airport",
      "updatedAt": "161730Z",
      "visibility_m": 4000,
      "taf_visibility_m": null,
      "worst_visibility_m": 4000,
      "ceiling_ft": null,
      "hazards": [
        "RA",
        "SHRA"
      ],
      "severityScore": 31,
      "metarRaw": "METAR LEZL 161730Z 29009KT 9000 -RA FEW048 11/10 Q1013 TEMPO 4000 SHRA FEW025TCU",
      "tafRaw": null
    },
    {
      "icao": "LIRZ",
      "iata": "PEG",
      "name": "Perugia San Francesco d'Assisi – Umbria International Airport",
      "updatedAt": "161720Z",
      "visibility_m": 10000,
      "taf_visibility_m": 1500,
      "worst_visibility_m": 1500,
      "ceiling_ft": null,
      "hazards": [
        "FG"
      ],
      "severityScore": 30,
      "metarRaw": "METAR LIRZ 161720Z AUTO 36003KT 330V030 9999 NCD 07/06 Q1018",
      "tafRaw": "TAF LIRZ 161700Z 1618/1718 03005KT CAVOK \n  PROB40 \n  TEMPO 1703/1708 1500 BCFG"
    },
    {
      "icao": "ENVA",
      "iata": "TRD",
      "name": "Trondheim Airport, Værnes",
      "updatedAt": "161720Z",
      "visibility_m": 10000,
      "taf_visibility_m": 10000,
      "worst_visibility_m": 10000,
      "ceiling_ft": 4400,
      "hazards": [
        "RA",
        "SHRA"
      ],
      "severityScore": 26,
      "metarRaw": "METAR ENVA 161720Z 09005KT 9999 BKN044 06/M00 Q1006 RERA NOSIG RMK WIND 670FT 14011KT",
      "tafRaw": "TAF ENVA 161700Z 1618/1718 13008KT 9999 FEW012 BKN050 \n  PROB30 \n  TEMPO 1618/1622 17015G25KT \n  TEMPO 1622/1709 21012KT SHRA SCT018CB BKN025"
    },
    {
      "icao": "LEMG",
      "iata": "AGP",
      "name": "Málaga-Costa del Sol Airport",
      "updatedAt": "161730Z",
      "visibility_m": 10000,
      "taf_visibility_m": 4000,
      "worst_visibility_m": 4000,
      "ceiling_ft": null,
      "hazards": [
        "SHRA",
        "RA"
      ],
      "severityScore": 26,
      "metarRaw": "METAR LEMG 161730Z 19003KT 9999 FEW032 13/09 Q1013 NOSIG",
      "tafRaw": "TAF LEMG 161700Z 1618/1718 27006KT 9999 FEW030 SCT050 TX15/1714Z TN07/1707Z \n  PROB30 \n  TEMPO 1619/1623 4000 SHRA FEW030CB \n  BECMG 1710/1712 33010KT"
    },
    {
      "icao": "LICC",
      "iata": "CTA",
      "name": "Catania-Fontanarossa Airport",
      "updatedAt": "161720Z",
      "visibility_m": 10000,
      "taf_visibility_m": 4000,
      "worst_visibility_m": 4000,
      "ceiling_ft": 11000,
      "hazards": [
        "SHRA",
        "RA"
      ],
      "severityScore": 26,
      "metarRaw": "METAR LICC 161720Z 06007KT 9999 FEW030 BKN110 15/13 Q1017",
      "tafRaw": "TAF LICC 161700Z 1618/1718 06010KT 9999 SCT020 \n  TEMPO 1618/1703 4000 SHRA"
    },
    {
      "icao": "GCTS",
      "iata": "TFS",
      "name": "Tenerife Sur Airport",
      "updatedAt": "161730Z",
      "visibility_m": 10000,
      "taf_visibility_m": 10000,
      "worst_visibility_m": 10000,
      "ceiling_ft": null,
      "hazards": [
        "TS"
      ],
      "severityScore": 25,
      "metarRaw": "METAR GCTS 161730Z 19003KT 140V260 9999 FEW030 19/12 Q1024 NOSIG",
      "tafRaw": "TAF GCTS 161400Z 1615/1715 VRB05KT 9999 SCT035 TX22/1714Z TN14/1706Z \n  TEMPO 1620/1703 05012KT"
    },
    {
      "icao": "EDDH",
      "iata": "HAM",
      "name": "Hamburg Helmut Schmidt Airport",
      "updatedAt": "161750Z",
      "visibility_m": 10000,
      "taf_visibility_m": 10000,
      "worst_visibility_m": 10000,
      "ceiling_ft": 700,
      "hazards": [],
      "severityScore": 25,
      "metarRaw": "METAR EDDH 161750Z AUTO 05004KT CAVOK 07/05 Q1017 NOSIG",
      "tafRaw": "TAF EDDH 161700Z 1618/1724 06003KT 9999 SCT030 \n  BECMG 1705/1708 12008KT \n  BECMG 1714/1717 BKN007"
    },
    {
      "icao": "EPRZ",
      "iata": "RZE",
      "name": "Rzeszów-Jasionka Airport",
      "updatedAt": "161730Z",
      "visibility_m": 8000,
      "taf_visibility_m": 8000,
      "worst_visibility_m": 8000,
      "ceiling_ft": 900,
      "hazards": [],
      "severityScore": 25,
      "metarRaw": "METAR EPRZ 161730Z 10012G22KT 080V150 8000 SCT010 SCT033 M04/M07 Q1028",
      "tafRaw": "TAF EPRZ 161730Z 1618/1718 09010KT 8000 SCT035 \n  TEMPO 1618/1706 OVC009"
    },
    {
      "icao": "LEAL",
      "iata": "ALC",
      "name": "Alicante-Elche Miguel Hernández Airport",
      "updatedAt": "161730Z",
      "visibility_m": 10000,
      "taf_visibility_m": 4000,
      "worst_visibility_m": 4000,
      "ceiling_ft": 1800,
      "hazards": [
        "RA"
      ],
      "severityScore": 24,
      "metarRaw": "METAR LEAL 161730Z 08003KT 9999 BKN018 15/10 Q1012 NOSIG",
      "tafRaw": "TAF LEAL 161700Z 1618/1718 VRB04KT 9999 FEW060 TX14/1713Z TN07/1706Z \n  PROB40 \n  TEMPO 1618/1624 4000 RA BKN010 \n  PROB30 \n  TEMPO 1702/1718 27009KT \n  PROB40 \n  TEMPO 1706/1718 RA BKN020"
    },
    {
      "icao": "LEVC",
      "iata": "VLC",
      "name": "Valencia Airport",
      "updatedAt": "161730Z",
      "visibility_m": 10000,
      "taf_visibility_m": 4000,
      "worst_visibility_m": 4000,
      "ceiling_ft": 1500,
      "hazards": [
        "RA"
      ],
      "severityScore": 24,
      "metarRaw": "METAR LEVC 161730Z 02004KT 340V050 9999 FEW012 SCT065 13/09 Q1012 NOSIG",
      "tafRaw": "TAF LEVC 161700Z 1618/1718 VRB04KT 9999 FEW030 TX13/1712Z TN04/1706Z \n  TEMPO 1618/1706 4000 RA BKN015 \n  TEMPO 1706/1717 27009KT"
    },
    {
      "icao": "EHEH",
      "iata": "EIN",
      "name": "Eindhoven Airport",
      "updatedAt": "161725Z",
      "visibility_m": 10000,
      "taf_visibility_m": 4500,
      "worst_visibility_m": 4500,
      "ceiling_ft": 3300,
      "hazards": [
        "RA",
        "DZ"
      ],
      "severityScore": 22,
      "metarRaw": "METAR EHEH 161725Z AUTO 16003KT 120V230 9999 BKN033 BKN037 OVC043 09/06 Q1014 BLU NOSIG",
      "tafRaw": "TAF EHEH 161112Z 1612/1718 19003KT CAVOK \n  TEMPO 1612/1614 SCT014 \n  PROB40 \n  TEMPO 1623/1706 4500 -RADZ SCT020 BKN030 \n  BECMG 1715/1717 11004KT"
    },
    {
      "icao": "HESX",
      "iata": "SPX",
      "name": "Sphinx International Airport",
      "updatedAt": "161700Z",
      "visibility_m": 10000,
      "taf_visibility_m": 3000,
      "worst_visibility_m": 3000,
      "ceiling_ft": 2000,
      "hazards": [
        "BR",
        "RA"
      ],
      "severityScore": 22,
      "metarRaw": "METAR HESX 161700Z 04009KT 9999 SCT030 SCT100 14/07 Q1021 NOSIG",
      "tafRaw": "TAF HESX 161700Z 1618/1724 02010KT 9999 SCT025 SCT070 \n  TEMPO 1700/1708 3000 BR \n  PROB30 \n  TEMPO 1703/1706 4000 -RA BKN020"
    },
    {
      "icao": "LEZG",
      "iata": "ZAZ",
      "name": "Zaragoza Airport",
      "updatedAt": "161730Z",
      "visibility_m": 3500,
      "taf_visibility_m": 4000,
      "worst_visibility_m": 3500,
      "ceiling_ft": 5000,
      "hazards": [
        "DZ",
        "RA"
      ],
      "severityScore": 22,
      "metarRaw": "METAR LEZG 161730Z VRB02KT 3500 DZ SCT040 BKN050 OVC060 09/09 Q1011 RERA NOSIG",
      "tafRaw": "TAF LEZG 161700Z 1618/1718 VRB04KT 9999 FEW040 TX09/1714Z TN04/1706Z \n  TEMPO 1618/1718 4000 RA BKN010 \n  BECMG 1706/1708 27007KT"
    },
    {
      "icao": "LIMJ",
      "iata": "GOA",
      "name": "Genoa Cristoforo Colombo Airport",
      "updatedAt": "161720Z",
      "visibility_m": 10000,
      "taf_visibility_m": 8000,
      "worst_visibility_m": 8000,
      "ceiling_ft": 2700,
      "hazards": [
        "RA",
        "DZ"
      ],
      "severityScore": 22,
      "metarRaw": "METAR LIMJ 161720Z 04012KT 9999 BKN027 BKN035 10/07 Q1019",
      "tafRaw": "TAF LIMJ 161700Z 1618/1718 02014KT 8000 SCT030 \n  TEMPO 1618/1703 RA \n  TEMPO 1711/1715 DZ \n  TEMPO 1715/1718 02015G25KT"
    },
    {
      "icao": "LIPZ",
      "iata": "VCE",
      "name": "Venice Marco Polo Airport",
      "updatedAt": "161720Z",
      "visibility_m": 5000,
      "taf_visibility_m": 3000,
      "worst_visibility_m": 3000,
      "ceiling_ft": 1400,
      "hazards": [
        "BR"
      ],
      "severityScore": 22,
      "metarRaw": "METAR LIPZ 161720Z 13003KT 5000 BR BKN014 07/05 Q1022 NOSIG",
      "tafRaw": "TAF LIPZ 161700Z 1618/1724 VRB04KT 6000 SCT030 \n  TEMPO 1621/1706 3000 BR BKN010 \n  BECMG 1718/1720 04010KT"
    },
    {
      "icao": "LATI",
      "iata": "TIA",
      "name": "Tirana International Airport Mother Teresa",
      "updatedAt": "161750Z",
      "visibility_m": 10000,
      "taf_visibility_m": 2000,
      "worst_visibility_m": 2000,
      "ceiling_ft": 8500,
      "hazards": [
        "FG"
      ],
      "severityScore": 20,
      "metarRaw": "METAR LATI 161750Z VRB02KT 9999 BKN085 12/06 Q1021 NOSIG",
      "tafRaw": "TAF LATI 161700Z 1618/1718 VRB05KT CAVOK TX17/1712Z TN05/1705Z \n  PROB40 1621/1705 2000 BCFG NSC"
    },
    {
      "icao": "LRCV",
      "iata": "CRA",
      "name": "Craiova International Airport",
      "updatedAt": "161730Z",
      "visibility_m": 10000,
      "taf_visibility_m": 5000,
      "worst_visibility_m": 5000,
      "ceiling_ft": 3600,
      "hazards": [
        "SN"
      ],
      "severityScore": 18,
      "metarRaw": "METAR LRCV 161730Z 08013KT 9999 -SN OVC036 M03/M06 Q1032",
      "tafRaw": "TAF LRCV 161700Z 1618/1703 08010KT 9999 OVC035 \n  PROB40 \n  TEMPO 1618/1621 5000 -SN \n  BECMG 1622/1624 VRB04KT"
    },
    {
      "icao": "EDNY",
      "iata": "FDH",
      "name": "Friedrichshafen Airport",
      "updatedAt": "161720Z",
      "visibility_m": 6000,
      "taf_visibility_m": null,
      "worst_visibility_m": 6000,
      "ceiling_ft": null,
      "hazards": [
        "BR"
      ],
      "severityScore": 15,
      "metarRaw": "METAR EDNY 161720Z 07003KT 040V110 6000 2000NE R24/1400U BR NSC M00/M01 Q1016",
      "tafRaw": null
    },
    {
      "icao": "EHBK",
      "iata": "MST",
      "name": "Maastricht Aachen Airport",
      "updatedAt": "161725Z",
      "visibility_m": 10000,
      "taf_visibility_m": 7000,
      "worst_visibility_m": 7000,
      "ceiling_ft": 3600,
      "hazards": [
        "RA"
      ],
      "severityScore": 12,
      "metarRaw": "METAR EHBK 161725Z AUTO 16005KT 9999 OVC036 09/07 Q1014 NOSIG",
      "tafRaw": "TAF EHBK 161706Z 1618/1724 16005KT 9999 BKN035 \n  PROB30 \n  TEMPO 1622/1702 7000 RA"
    },
    {
      "icao": "ENAL",
      "iata": "AES",
      "name": "Ålesund Airport, Vigra",
      "updatedAt": "161720Z",
      "visibility_m": 10000,
      "taf_visibility_m": 10000,
      "worst_visibility_m": 10000,
      "ceiling_ft": 5400,
      "hazards": [
        "RA"
      ],
      "severityScore": 12,
      "metarRaw": "METAR ENAL 161720Z 17005KT 9999 FEW036 BKN054 06/01 Q1005",
      "tafRaw": "TAF ENAL 161700Z 1618/1703 19010KT 9999 FEW020 BKN040 \n  TEMPO 1619/1622 RA BKN012"
    },
    {
      "icao": "EPRA",
      "iata": "RDO",
      "name": "Warsaw Radom Airport",
      "updatedAt": "161730Z",
      "visibility_m": 8000,
      "taf_visibility_m": 8000,
      "worst_visibility_m": 8000,
      "ceiling_ft": null,
      "hazards": [
        "RA"
      ],
      "severityScore": 12,
      "metarRaw": "METAR EPRA 161730Z 11008KT 8000 NSC M06/M07 Q1028",
      "tafRaw": "TAF EPRA 161730Z 1618/1703 11009KT 8000 NSC"
    },
    {
      "icao": "LEBB",
      "iata": "BIO",
      "name": "Bilbao Airport",
      "updatedAt": "161730Z",
      "visibility_m": 10000,
      "taf_visibility_m": 3000,
      "worst_visibility_m": 3000,
      "ceiling_ft": null,
      "hazards": [
        "RA"
      ],
      "severityScore": 12,
      "metarRaw": "METAR LEBB 161730Z 18004KT 120V240 CAVOK 12/03 Q1010 NOSIG",
      "tafRaw": "TAF LEBB 161700Z 1618/1718 12006KT 9999 FEW045 TX11/1714Z TN06/1707Z \n  PROB30 \n  TEMPO 1619/1704 3000 RA \n  PROB40 1712/1718 31010KT"
    },
    {
      "icao": "LFLS",
      "iata": "GNB",
      "name": "Grenoble Alpes Isère Airport",
      "updatedAt": "161730Z",
      "visibility_m": 10000,
      "taf_visibility_m": 10000,
      "worst_visibility_m": 10000,
      "ceiling_ft": 6200,
      "hazards": [
        "RA"
      ],
      "severityScore": 12,
      "metarRaw": "METAR LFLS 161730Z AUTO 12006KT 9999 BKN062 BKN072 BKN084 09/03 Q1014 NOSIG",
      "tafRaw": "TAF LFLS 161400Z 1615/1715 16008KT CAVOK \n  PROB30 \n  TEMPO 1621/1623 23008KT -RA BKN060 \n  BECMG 1704/1706 07008KT RA BKN050"
    },
    {
      "icao": "LGAV",
      "iata": "ATH",
      "name": "Athens Eleftherios Venizelos International Airport",
      "updatedAt": "161750Z",
      "visibility_m": 10000,
      "taf_visibility_m": 5000,
      "worst_visibility_m": 5000,
      "ceiling_ft": 3000,
      "hazards": [
        "RA"
      ],
      "severityScore": 12,
      "metarRaw": "METAR LGAV 161750Z 03006KT 9999 FEW025 BKN030 13/07 Q1021 NOSIG",
      "tafRaw": "TAF LGAV 161700Z 1618/1718 04012KT 9999 FEW018 BKN025 \n  BECMG 1703/1705 03018G28KT \n  PROB30 \n  TEMPO 1703/1712 5000 RA SCT010 BKN020"
    },
    {
      "icao": "LICA",
      "iata": "SUF",
      "name": "Lamezia Terme Sant'Eufemia International Airport",
      "updatedAt": "161720Z",
      "visibility_m": 10000,
      "taf_visibility_m": 10000,
      "worst_visibility_m": 10000,
      "ceiling_ft": null,
      "hazards": [
        "RA"
      ],
      "severityScore": 12,
      "metarRaw": "METAR LICA 161720Z AUTO 06010KT 9999 NCD 14/11 Q1018",
      "tafRaw": "TAF LICA 161700Z 1618/1718 08012KT 9999 SCT040 \n  TEMPO 1700/1705 RA \n  TEMPO 1712/1718 08015G25KT"
    },
    {
      "icao": "LICJ",
      "iata": "PMO",
      "name": "Falcone–Borsellino Airport",
      "updatedAt": "161720Z",
      "visibility_m": 10000,
      "taf_visibility_m": 10000,
      "worst_visibility_m": 10000,
      "ceiling_ft": null,
      "hazards": [
        "RA"
      ],
      "severityScore": 12,
      "metarRaw": "METAR LICJ 161720Z 21010KT 9999 SCT040 15/11 Q1016",
      "tafRaw": "TAF LICJ 161700Z 1618/1718 VRB06KT 9999 SCT040 \n  TEMPO 1621/1701 RA \n  BECMG 1709/1711 03010KT"
    },
    {
      "icao": "LIMF",
      "iata": "TRN",
      "name": "Turin Airport",
      "updatedAt": "161720Z",
      "visibility_m": 6000,
      "taf_visibility_m": 2500,
      "worst_visibility_m": 2500,
      "ceiling_ft": 7000,
      "hazards": [
        "RA"
      ],
      "severityScore": 12,
      "metarRaw": "METAR LIMF 161720Z 20003KT 6000 -RA SCT045 OVC070 08/04 Q1020",
      "tafRaw": "TAF LIMF 161700Z 1618/1718 VRB03KT 2500 -RA OVC040"
    },
    {
      "icao": "LLBG",
      "iata": "TLV",
      "name": "Ben Gurion International Airport",
      "updatedAt": "161750Z",
      "visibility_m": 10000,
      "taf_visibility_m": 8000,
      "worst_visibility_m": 8000,
      "ceiling_ft": 3000,
      "hazards": [
        "RA"
      ],
      "severityScore": 12,
      "metarRaw": "METAR LLBG 161750Z 09005KT 9999 FEW050 14/10 Q1021 NOSIG",
      "tafRaw": "TAF LLBG 161714Z 1618/1718 VRB04KT 9999 SCT040 \n  BECMG 1708/1710 25010KT SCT035 \n  PROB30 \n  TEMPO 1712/1718 8000 RA BKN030 TX19/1711Z TN08/1704Z"
    },
    {
      "icao": "LWOH",
      "iata": "OHD",
      "name": "Ohrid St. Paul the Apostle Airport",
      "updatedAt": "161750Z",
      "visibility_m": 10000,
      "taf_visibility_m": 5000,
      "worst_visibility_m": 5000,
      "ceiling_ft": 8000,
      "hazards": [
        "RA"
      ],
      "severityScore": 12,
      "metarRaw": "METAR LWOH 161750Z VRB02KT 9999 SCT033 BKN080 05/03 Q1022",
      "tafRaw": "TAF LWOH 161730Z 1618/1718 VRB02KT 9999 SCT030 BKN080 \n  TEMPO 1705/1714 5000 RA SCT010 OVC030"
    },
    {
      "icao": "LYNI",
      "iata": "INI",
      "name": "Niš Constantine the Great Airport",
      "updatedAt": "161730Z",
      "visibility_m": 10000,
      "taf_visibility_m": 10000,
      "worst_visibility_m": 10000,
      "ceiling_ft": 1300,
      "hazards": [],
      "severityScore": 12,
      "metarRaw": "METAR LYNI 161730Z 06007KT 010V100 9999 FEW017 01/M02 Q1026 NOSIG",
      "tafRaw": "TAF LYNI 161700Z 1618/1718 05007KT 9999 FEW017 SCT050 TX03/1712Z TNM01/1706Z \n  PROB30 \n  TEMPO 1618/1702 BKN013 BKN040"
    },
    {
      "icao": "GCFV",
      "iata": "FUE",
      "name": "Fuerteventura Airport",
      "updatedAt": "161730Z",
      "visibility_m": 10000,
      "taf_visibility_m": 10000,
      "worst_visibility_m": 10000,
      "ceiling_ft": 3500,
      "hazards": [
        "DZ"
      ],
      "severityScore": 10,
      "metarRaw": "METAR GCFV 161730Z 33010KT 300V360 9999 SCT025 BKN035 20/13 Q1023",
      "tafRaw": "TAF GCFV 161400Z 1615/1715 36012KT 9999 BKN030 TX20/1714Z TN15/1706Z \n  PROB30 \n  TEMPO 1618/1620 DZ BKN014"
    },
    {
      "icao": "GCLP",
      "iata": "LPA",
      "name": "Gran Canaria Airport",
      "updatedAt": "161730Z",
      "visibility_m": 10000,
      "taf_visibility_m": 10000,
      "worst_visibility_m": 10000,
      "ceiling_ft": 2500,
      "hazards": [
        "DZ"
      ],
      "severityScore": 10,
      "metarRaw": "METAR GCLP 161730Z 35016KT 9999 FEW030 20/13 Q1023 NOSIG",
      "tafRaw": "TAF GCLP 161400Z 1615/1715 01018KT 9999 BKN025 TX21/1714Z TN15/1706Z \n  PROB40 \n  TEMPO 1615/1706 01020G30KT \n  PROB30 \n  TEMPO 1618/1621 DZ"
    },
    {
      "icao": "EPLB",
      "iata": "LUZ",
      "name": "Lublin Airport",
      "updatedAt": "161730Z",
      "visibility_m": 10000,
      "taf_visibility_m": 4000,
      "worst_visibility_m": 4000,
      "ceiling_ft": null,
      "hazards": [
        "BR"
      ],
      "severityScore": 10,
      "metarRaw": "METAR EPLB 161730Z 10009KT CAVOK M11/M14 Q1030",
      "tafRaw": "TAF EPLB 161730Z 1618/1718 11008KT 8000 NSC \n  PROB40 1618/1707 4000 BR"
    },
    {
      "icao": "LIPH",
      "iata": "TSF",
      "name": "Treviso Antonio Canova Airport",
      "updatedAt": "161720Z",
      "visibility_m": 5000,
      "taf_visibility_m": 7000,
      "worst_visibility_m": 5000,
      "ceiling_ft": null,
      "hazards": [
        "BR"
      ],
      "severityScore": 10,
      "metarRaw": "METAR LIPH 161720Z VRB01KT 5000 BR SCT020 06/05 Q1022",
      "tafRaw": "TAF LIPH 161700Z 1618/1718 VRB04KT 7000 SCT040"
    },
    {
      "icao": "LRBS",
      "iata": "BBU",
      "name": "Bucharest Băneasa Aurel Vlaicu International Airport",
      "updatedAt": "161730Z",
      "visibility_m": 10000,
      "taf_visibility_m": 3000,
      "worst_visibility_m": 3000,
      "ceiling_ft": null,
      "hazards": [
        "BR"
      ],
      "severityScore": 10,
      "metarRaw": "METAR LRBS 161730Z 08005KT 050V110 CAVOK M03/M07 Q1033 NOSIG",
      "tafRaw": "TAF LRBS 161700Z 1618/1718 VRB04KT CAVOK \n  PROB40 \n  TEMPO 1623/1707 3000 BR \n  BECMG 1709/1711 07012KT"
    },
    {
      "icao": "LROP",
      "iata": "OTP",
      "name": "Bucharest Henri Coandă International Airport",
      "updatedAt": "161730Z",
      "visibility_m": 10000,
      "taf_visibility_m": 3000,
      "worst_visibility_m": 3000,
      "ceiling_ft": null,
      "hazards": [
        "BR"
      ],
      "severityScore": 10,
      "metarRaw": "METAR LROP 161730Z 08004KT CAVOK M04/M09 Q1033 NOSIG",
      "tafRaw": "TAF LROP 161700Z 1618/1718 VRB04KT CAVOK \n  PROB40 \n  TEMPO 1623/1707 3000 BR \n  BECMG 1709/1711 07012KT"
    },
    {
      "icao": "LRSB",
      "iata": "SBZ",
      "name": "Sibiu International Airport",
      "updatedAt": "161730Z",
      "visibility_m": 10000,
      "taf_visibility_m": 3000,
      "worst_visibility_m": 3000,
      "ceiling_ft": 3200,
      "hazards": [
        "BR"
      ],
      "severityScore": 10,
      "metarRaw": "METAR LRSB 161730Z 10010KT 9999 FEW015 OVC032 01/M04 Q1027",
      "tafRaw": "TAF LRSB 161700Z 1618/1718 10010KT 9999 SCT020 OVC035 \n  BECMG 1622/1624 VRB04KT \n  PROB40 \n  TEMPO 1702/1707 3000 BR"
    },
    {
      "icao": "LZKZ",
      "iata": "KSC",
      "name": "Košice International Airport",
      "updatedAt": "161730Z",
      "visibility_m": 10000,
      "taf_visibility_m": 2500,
      "worst_visibility_m": 2500,
      "ceiling_ft": 2800,
      "hazards": [
        "BR"
      ],
      "severityScore": 10,
      "metarRaw": "METAR LZKZ 161730Z 36006KT 9999 BKN028 02/M00 Q1027 NOSIG",
      "tafRaw": "TAF LZKZ 161715Z 1618/1718 01005KT 9999 BKN015 OVC030 \n  TEMPO 1703/1709 2500 BR BKN009 OVC014 \n  BECMG 1709/1711 SCT020"
    },
    {
      "icao": "UDYZ",
      "iata": "EVN",
      "name": "Zvartnots International Airport",
      "updatedAt": "161730Z",
      "visibility_m": 10000,
      "taf_visibility_m": 2300,
      "worst_visibility_m": 2300,
      "ceiling_ft": null,
      "hazards": [
        "BR"
      ],
      "severityScore": 10,
      "metarRaw": "METAR UDYZ 161730Z 35002KT 9999 NSC M04/M08 Q1022 NOSIG",
      "tafRaw": "TAF UDYZ 161700Z 1618/1718 VRB06KT 9999 FEW040 \n  TEMPO 1700/1706 2300 BR"
    },
    {
      "icao": "GMAD",
      "iata": "AGA",
      "name": "Al Massira Airport",
      "updatedAt": "161730Z",
      "visibility_m": 10000,
      "taf_visibility_m": null,
      "worst_visibility_m": 10000,
      "ceiling_ft": 2300,
      "hazards": [],
      "severityScore": 5,
      "metarRaw": "METAR GMAD 161730Z 26011KT 9999 BKN023 16/13 Q1020 NOSIG",
      "tafRaw": null
    },
    {
      "icao": "LECH",
      "iata": "CDT",
      "name": "Castellón-Costa Azahar Airport",
      "updatedAt": "161730Z",
      "visibility_m": 10000,
      "taf_visibility_m": null,
      "worst_visibility_m": 10000,
      "ceiling_ft": 5000,
      "hazards": [],
      "severityScore": 5,
      "metarRaw": "METAR LECH 161730Z AUTO VRB02KT 9999 SCT032 SCT040 BKN050 10/08 Q1012",
      "tafRaw": null
    },
    {
      "icao": "LEXJ",
      "iata": "SDR",
      "name": "Seve Ballesteros-Santander Airport",
      "updatedAt": "161730Z",
      "visibility_m": 10000,
      "taf_visibility_m": null,
      "worst_visibility_m": 10000,
      "ceiling_ft": 6500,
      "hazards": [],
      "severityScore": 5,
      "metarRaw": "METAR LEXJ 161730Z 32003KT 280V030 9999 SCT020 BKN065 11/07 Q1010",
      "tafRaw": null
    },
    {
      "icao": "LFMN",
      "iata": "NCE",
      "name": "Nice-Côte d'Azur Airport",
      "updatedAt": "161730Z",
      "visibility_m": 10000,
      "taf_visibility_m": null,
      "worst_visibility_m": 10000,
      "ceiling_ft": 13000,
      "hazards": [],
      "severityScore": 5,
      "metarRaw": "METAR LFMN 161730Z 33008KT 310V080 9999 SCT036 OVC130 12/04 Q1018 TEMPO 09015KT",
      "tafRaw": null
    },
    {
      "icao": "LFPO",
      "iata": "ORY",
      "name": "Paris-Orly Airport",
      "updatedAt": "161730Z",
      "visibility_m": 10000,
      "taf_visibility_m": null,
      "worst_visibility_m": 10000,
      "ceiling_ft": 2500,
      "hazards": [],
      "severityScore": 5,
      "metarRaw": "METAR LFPO 161730Z AUTO 13004KT 9999 BKN025 BKN050 OVC084 10/07 Q1012",
      "tafRaw": null
    },
    {
      "icao": "LQBK",
      "iata": "BNX",
      "name": "Banja Luka International Airport",
      "updatedAt": "161730Z",
      "visibility_m": 10000,
      "taf_visibility_m": null,
      "worst_visibility_m": 10000,
      "ceiling_ft": null,
      "hazards": [],
      "severityScore": 5,
      "metarRaw": "METAR LQBK 161730Z 16001KT CAVOK 05/04 Q1022 NOSIG",
      "tafRaw": null
    },
    {
      "icao": "BIKF",
      "iata": "KEF",
      "name": "Keflavik International Airport",
      "updatedAt": "161730Z",
      "visibility_m": 10000,
      "taf_visibility_m": 10000,
      "worst_visibility_m": 10000,
      "ceiling_ft": 2000,
      "hazards": [],
      "severityScore": 0,
      "metarRaw": "METAR BIKF 161730Z 01013KT 9999 FEW013 01/M01 Q1005",
      "tafRaw": "TAF BIKF 161634Z 1618/1718 02015KT 9999 FEW030 TX05/1718Z TNM02/1706Z \n  BECMG 1623/1701 VRB02KT \n  BECMG 1709/1711 12012KT BKN020 \n  BECMG 1713/1715 12022G32KT"
    },
    {
      "icao": "EDDK",
      "iata": "CGN",
      "name": "Cologne Bonn Airport",
      "updatedAt": "161750Z",
      "visibility_m": 10000,
      "taf_visibility_m": 10000,
      "worst_visibility_m": 10000,
      "ceiling_ft": 4200,
      "hazards": [],
      "severityScore": 0,
      "metarRaw": "METAR EDDK 161750Z AUTO 17006KT 9999 BKN042 08/06 Q1016 NOSIG",
      "tafRaw": "TAF EDDK 161700Z 1618/1724 12008KT 9999 BKN030 \n  TEMPO 1618/1621 VRB03KT"
    },
    {
      "icao": "EDDS",
      "iata": "STR",
      "name": "Stuttgart Airport",
      "updatedAt": "161750Z",
      "visibility_m": 10000,
      "taf_visibility_m": 10000,
      "worst_visibility_m": 10000,
      "ceiling_ft": null,
      "hazards": [],
      "severityScore": 0,
      "metarRaw": "METAR EDDS 161750Z AUTO 08002KT CAVOK 05/02 Q1016 NOSIG",
      "tafRaw": "TAF EDDS 161700Z 1618/1718 VRB03KT CAVOK"
    },
    {
      "icao": "EDFH",
      "iata": "HHN",
      "name": "Frankfurt-Hahn Airport",
      "updatedAt": "161720Z",
      "visibility_m": 10000,
      "taf_visibility_m": 10000,
      "worst_visibility_m": 10000,
      "ceiling_ft": null,
      "hazards": [],
      "severityScore": 0,
      "metarRaw": "METAR EDFH 161720Z 15005KT CAVOK 06/04 Q1015",
      "tafRaw": "TAF EDFH 161700Z 1618/1718 16009KT CAVOK \n  BECMG 1622/1624 14014KT"
    },
    {
      "icao": "EDLW",
      "iata": "DTM",
      "name": "Dortmund Airport",
      "updatedAt": "161720Z",
      "visibility_m": 10000,
      "taf_visibility_m": 10000,
      "worst_visibility_m": 10000,
      "ceiling_ft": 2900,
      "hazards": [],
      "severityScore": 0,
      "metarRaw": "METAR EDLW 161720Z 22003KT 9999 BKN029 BKN037 OVC044 09/08 Q1015",
      "tafRaw": "TAF EDLW 161700Z 1618/1718 22005KT 9999 BKN030 \n  BECMG 1618/1620 14005KT"
    },
    {
      "icao": "ENTC",
      "iata": "TOS",
      "name": "Tromsø Airport, Langnes",
      "updatedAt": "161720Z",
      "visibility_m": 10000,
      "taf_visibility_m": 10000,
      "worst_visibility_m": 10000,
      "ceiling_ft": null,
      "hazards": [],
      "severityScore": 0,
      "metarRaw": "METAR ENTC 161720Z 24007KT CAVOK M02/M07 Q1013 NOSIG RMK WIND 2600FT 21003KT",
      "tafRaw": "TAF ENTC 161700Z 1618/1718 02005KT CAVOK"
    },
    {
      "icao": "EYKA",
      "iata": "KUN",
      "name": "Kaunas International Airport",
      "updatedAt": "161750Z",
      "visibility_m": 10000,
      "taf_visibility_m": 6000,
      "worst_visibility_m": 6000,
      "ceiling_ft": null,
      "hazards": [],
      "severityScore": 0,
      "metarRaw": "METAR EYKA 161750Z 17009KT 120V240 CAVOK M12/M15 Q1033",
      "tafRaw": "TAF EYKA 161700Z 1618/1718 15010KT 6000 NSC \n  TEMPO 1618/1706 VRB04KT \n  PROB40 \n  TEMPO 1621/1706 SCT002 \n  BECMG 1715/1718 VRB04KT"
    },
    {
      "icao": "EYVI",
      "iata": "VNO",
      "name": "Vilnius International Airport",
      "updatedAt": "161750Z",
      "visibility_m": 10000,
      "taf_visibility_m": 6000,
      "worst_visibility_m": 6000,
      "ceiling_ft": null,
      "hazards": [],
      "severityScore": 0,
      "metarRaw": "METAR EYVI 161750Z 14010KT CAVOK M14/M17 Q1034 NOSIG",
      "tafRaw": "TAF EYVI 161700Z 1618/1718 15010KT 6000 NSC \n  TEMPO 1618/1708 VRB04KT \n  PROB40 \n  TEMPO 1621/1708 SCT002 \n  BECMG 1712/1714 VRB04KT \n  TEMPO 1715/1718 15010KT"
    },
    {
      "icao": "HEGN",
      "iata": "HRG",
      "name": "Hurghada International Airport",
      "updatedAt": "161700Z",
      "visibility_m": 10000,
      "taf_visibility_m": 10000,
      "worst_visibility_m": 10000,
      "ceiling_ft": null,
      "hazards": [],
      "severityScore": 0,
      "metarRaw": "METAR HEGN 161700Z 28006KT CAVOK 18/09 Q1019 NOSIG",
      "tafRaw": "TAF HEGN 161700Z 1618/1724 31010KT CAVOK"
    },
    {
      "icao": "HEMA",
      "iata": "RMF",
      "name": "Marsa Alam International Airport",
      "updatedAt": "161700Z",
      "visibility_m": 10000,
      "taf_visibility_m": 10000,
      "worst_visibility_m": 10000,
      "ceiling_ft": null,
      "hazards": [],
      "severityScore": 0,
      "metarRaw": "METAR HEMA 161700Z 34008KT CAVOK 19/10 Q1017 NOSIG",
      "tafRaw": "TAF HEMA 161700Z 1618/1724 33012KT 9999 SCT025"
    },
    {
      "icao": "HESH",
      "iata": "SSH",
      "name": "Sharm El Sheikh International Airport",
      "updatedAt": "161700Z",
      "visibility_m": 10000,
      "taf_visibility_m": 10000,
      "worst_visibility_m": 10000,
      "ceiling_ft": null,
      "hazards": [],
      "severityScore": 0,
      "metarRaw": "METAR HESH 161700Z 35006KT CAVOK 19/07 Q1018 NOSIG",
      "tafRaw": "TAF HESH 161700Z 1618/1724 33010KT CAVOK"
    },
    {
      "icao": "LBWN",
      "iata": "VAR",
      "name": "Varna Airport",
      "updatedAt": "161730Z",
      "visibility_m": 10000,
      "taf_visibility_m": 10000,
      "worst_visibility_m": 10000,
      "ceiling_ft": null,
      "hazards": [],
      "severityScore": 0,
      "metarRaw": "METAR LBWN 161730Z AUTO 36004KT 310V070 9999 NCD M05/M09 Q1031 NOSIG",
      "tafRaw": "TAF LBWN 161700Z 1618/1718 35010KT 9999 SCT030"
    },
    {
      "icao": "LCLK",
      "iata": "LCA",
      "name": "Larnaca International Airport",
      "updatedAt": "161730Z",
      "visibility_m": 10000,
      "taf_visibility_m": 10000,
      "worst_visibility_m": 10000,
      "ceiling_ft": null,
      "hazards": [],
      "severityScore": 0,
      "metarRaw": "METAR LCLK 161730Z 31003KT 9999 FEW030 13/10 Q1021 NOSIG",
      "tafRaw": "TAF LCLK 161730Z 1618/1718 33006KT 9999 FEW025 \n  BECMG 1712/1714 03012KT"
    },
    {
      "icao": "LCPH",
      "iata": "PFO",
      "name": "Paphos International Airport",
      "updatedAt": "161730Z",
      "visibility_m": 10000,
      "taf_visibility_m": 10000,
      "worst_visibility_m": 10000,
      "ceiling_ft": 6000,
      "hazards": [],
      "severityScore": 0,
      "metarRaw": "METAR LCPH 161730Z 27006KT 250V320 9999 SCT025 BKN060 16/10 Q1020 NOSIG",
      "tafRaw": "TAF LCPH 161730Z 1618/1718 03007KT 9999 FEW025 \n  BECMG 1710/1712 15010KT"
    },
    {
      "icao": "LFSB",
      "iata": "BSL",
      "name": "EuroAirport Basel–Mulhouse–Freiburg",
      "updatedAt": "161730Z",
      "visibility_m": 10000,
      "taf_visibility_m": 10000,
      "worst_visibility_m": 10000,
      "ceiling_ft": null,
      "hazards": [],
      "severityScore": 0,
      "metarRaw": "METAR LFSB 161730Z AUTO 13004KT CAVOK 05/01 Q1015 NOSIG",
      "tafRaw": "TAF LFSB 161700Z 1618/1718 16005KT CAVOK"
    },
    {
      "icao": "LIBD",
      "iata": "BRI",
      "name": "Bari Karol Wojtyła International Airport",
      "updatedAt": "161720Z",
      "visibility_m": 10000,
      "taf_visibility_m": 10000,
      "worst_visibility_m": 10000,
      "ceiling_ft": null,
      "hazards": [],
      "severityScore": 0,
      "metarRaw": "METAR LIBD 161720Z 22004KT 9999 FEW035 08/07 Q1020",
      "tafRaw": "TAF LIBD 161700Z 1618/1718 VRB05KT 9999 FEW030"
    },
    {
      "icao": "LIBG",
      "iata": "TAR",
      "name": "Taranto-Grottaglie Marcello Arlotta Airport",
      "updatedAt": "161650Z",
      "visibility_m": 10000,
      "taf_visibility_m": 8000,
      "worst_visibility_m": 8000,
      "ceiling_ft": null,
      "hazards": [],
      "severityScore": 0,
      "metarRaw": "METAR LIBG 161650Z 06005KT 9999 FEW030 12/12 Q1020",
      "tafRaw": "TAF LIBG 161700Z 1618/1703 VRB05KT 8000 FEW025"
    },
    {
      "icao": "LIRF",
      "iata": "FCO",
      "name": "Rome–Fiumicino Leonardo da Vinci International Airport",
      "updatedAt": "161720Z",
      "visibility_m": 10000,
      "taf_visibility_m": 10000,
      "worst_visibility_m": 10000,
      "ceiling_ft": null,
      "hazards": [],
      "severityScore": 0,
      "metarRaw": "METAR LIRF 161720Z 07004KT CAVOK 10/06 Q1018 NOSIG",
      "tafRaw": "TAF LIRF 161700Z 1618/1724 06007KT CAVOK \n  BECMG 1717/1719 12010KT"
    },
    {
      "icao": "LIRN",
      "iata": "NAP",
      "name": "Naples International Airport",
      "updatedAt": "161720Z",
      "visibility_m": 10000,
      "taf_visibility_m": 10000,
      "worst_visibility_m": 10000,
      "ceiling_ft": null,
      "hazards": [],
      "severityScore": 0,
      "metarRaw": "METAR LIRN 161720Z VRB02KT CAVOK 13/05 Q1018 NOSIG",
      "tafRaw": "TAF LIRN 161700Z 1618/1718 05010KT CAVOK"
    },
    {
      "icao": "LIRP",
      "iata": "PSA",
      "name": "Pisa International Airport",
      "updatedAt": "161715Z",
      "visibility_m": 10000,
      "taf_visibility_m": 10000,
      "worst_visibility_m": 10000,
      "ceiling_ft": null,
      "hazards": [],
      "severityScore": 0,
      "metarRaw": "METAR LIRP 161715Z 27002KT CAVOK 11/10 Q1018 NOSIG",
      "tafRaw": "TAF LIRP 161700Z 1618/1718 12005KT CAVOK"
    },
    {
      "icao": "LRIA",
      "iata": "IAS",
      "name": "Iaşi Airport",
      "updatedAt": "161730Z",
      "visibility_m": 10000,
      "taf_visibility_m": 10000,
      "worst_visibility_m": 10000,
      "ceiling_ft": null,
      "hazards": [],
      "severityScore": 0,
      "metarRaw": "METAR LRIA 161730Z 26003KT 220V290 CAVOK M12/M14 Q1036",
      "tafRaw": "TAF LRIA 161700Z 1618/1703 VRB04KT CAVOK"
    },
    {
      "icao": "LRBC",
      "iata": "BCM",
      "name": "Bacău George Enescu International  Airport",
      "updatedAt": "161730Z",
      "visibility_m": 10000,
      "taf_visibility_m": 10000,
      "worst_visibility_m": 10000,
      "ceiling_ft": null,
      "hazards": [],
      "severityScore": 0,
      "metarRaw": "METAR LRBC 161730Z 02006KT CAVOK M07/M12 Q1034",
      "tafRaw": "TAF LRBC 161700Z 1618/1703 35005KT CAVOK"
    },
    {
      "icao": "LRBV",
      "iata": "GHV",
      "name": "Brașov-Ghimbav International Airport",
      "updatedAt": "161730Z",
      "visibility_m": 10000,
      "taf_visibility_m": 10000,
      "worst_visibility_m": 10000,
      "ceiling_ft": null,
      "hazards": [],
      "severityScore": 0,
      "metarRaw": "METAR LRBV 161730Z 12007KT 9999 SCT019 SCT045 M04/M09 Q1029",
      "tafRaw": "TAF LRBV 161700Z 1618/1703 10008KT 9999 SCT030"
    },
    {
      "icao": "LRCL",
      "iata": "CLJ",
      "name": "Cluj Avram Iancu International Airport",
      "updatedAt": "161730Z",
      "visibility_m": 10000,
      "taf_visibility_m": 10000,
      "worst_visibility_m": 10000,
      "ceiling_ft": 3200,
      "hazards": [],
      "severityScore": 0,
      "metarRaw": "METAR LRCL 161730Z 07004KT 9999 OVC032 02/M00 Q1028",
      "tafRaw": "TAF LRCL 161700Z 1618/1703 10008KT 9999 BKN035"
    },
    {
      "icao": "LRSM",
      "iata": "SUJ",
      "name": "Satu Mare International Airport",
      "updatedAt": "161730Z",
      "visibility_m": 10000,
      "taf_visibility_m": 10000,
      "worst_visibility_m": 10000,
      "ceiling_ft": null,
      "hazards": [],
      "severityScore": 0,
      "metarRaw": "METAR LRSM 161730Z AUTO 09007KT 9999 SCT045/// 01/M02 Q1028",
      "tafRaw": "TAF LRSM 161400Z 1615/1624 10006KT CAVOK"
    },
    {
      "icao": "LRTM",
      "iata": "TGM",
      "name": "Târgu Mureş Transilvania International Airport",
      "updatedAt": "161730Z",
      "visibility_m": 10000,
      "taf_visibility_m": 10000,
      "worst_visibility_m": 10000,
      "ceiling_ft": null,
      "hazards": [],
      "severityScore": 0,
      "metarRaw": "METAR LRTM 161730Z AUTO 10003KT 9999 NCD M04/M07 Q1029",
      "tafRaw": "TAF LRTM 161400Z 1615/1624 VRB04KT 9999 SCT045"
    },
    {
      "icao": "LYBE",
      "iata": "BEG",
      "name": "Belgrade Nikola Tesla Airport",
      "updatedAt": "161730Z",
      "visibility_m": 10000,
      "taf_visibility_m": 10000,
      "worst_visibility_m": 10000,
      "ceiling_ft": null,
      "hazards": [],
      "severityScore": 0,
      "metarRaw": "METAR LYBE 161730Z 11011KT CAVOK 03/M01 Q1025 NOSIG",
      "tafRaw": "TAF LYBE 161700Z 1618/1718 12015KT CAVOK TX04/1712Z TNM00/1706Z \n  TEMPO 1700/1712 12015G28KT"
    },
    {
      "icao": "OEJN",
      "iata": "JED",
      "name": "King Abdulaziz International Airport",
      "updatedAt": "161700Z",
      "visibility_m": 10000,
      "taf_visibility_m": 4000,
      "worst_visibility_m": 4000,
      "ceiling_ft": null,
      "hazards": [],
      "severityScore": 0,
      "metarRaw": "METAR OEJN 161700Z 34011KT 9999 FEW040 26/13 Q1013 NOSIG",
      "tafRaw": "TAF OEJN 161700Z 1618/1724 34006KT 7000 FEW040 \n  PROB30 \n  TEMPO 1618/1704 4000 DU \n  BECMG 1708/1710 27012KT \n  BECMG 1718/1720 VRB03KT"
    },
    {
      "icao": "OEMA",
      "iata": "MED",
      "name": "Prince Mohammad Bin Abdulaziz Airport",
      "updatedAt": "161700Z",
      "visibility_m": 8000,
      "taf_visibility_m": 7000,
      "worst_visibility_m": 7000,
      "ceiling_ft": null,
      "hazards": [],
      "severityScore": 0,
      "metarRaw": "METAR OEMA 161700Z 05006KT 8000 NSC 21/03 Q1019 NOSIG",
      "tafRaw": "TAF OEMA 161700Z 1618/1724 08010KT 7000 NSC \n  BECMG 1710/1712 27006KT CAVOK"
    },
    {
      "icao": "OMAA",
      "iata": "AUH",
      "name": "Zayed International Airport",
      "updatedAt": "161700Z",
      "visibility_m": 10000,
      "taf_visibility_m": 8000,
      "worst_visibility_m": 8000,
      "ceiling_ft": null,
      "hazards": [],
      "severityScore": 0,
      "metarRaw": "METAR OMAA 161700Z 29010KT 9999 FEW040 19/11 Q1019 NOSIG",
      "tafRaw": "TAF OMAA 161700Z 1618/1800 32014KT 8000 FEW040 \n  PROB30 \n  TEMPO 1704/1713 32015G25KT"
    },
    {
      "icao": "OMDB",
      "iata": "DXB",
      "name": "Dubai International Airport",
      "updatedAt": "161730Z",
      "visibility_m": 10000,
      "taf_visibility_m": 8000,
      "worst_visibility_m": 8000,
      "ceiling_ft": null,
      "hazards": [],
      "severityScore": 0,
      "metarRaw": "METAR OMDB 161730Z 27012KT 240V300 9999 SCT040 20/11 Q1018 NOSIG",
      "tafRaw": "TAF OMDB 161700Z 1618/1800 28012KT 8000 SCT040 \n  PROB30 1701/1705 22007KT \n  BECMG 1716/1718 22006KT"
    }
  ],
  "stats": {
    "icaoCount": 159,
    "metarReturned": 158,
    "tafReturned": 150,
    "stationsWritten": 159,
    "missingMetar": 1,
    "missingTaf": 9
  },
  "errors": []
}