{
  "generatedAt": "2026-02-02T03:49:29.222Z",
  "stations": [
    {
      "icao": "GMMN",
      "iata": "CMN",
      "name": "Mohammed V International Airport",
      "lat": 33.3675,
      "lon": -7.58997,
      "updatedAt": "020330Z",
      "visibility_m": 3000,
      "taf_visibility_m": 400,
      "worst_visibility_m": 400,
      "ceiling_ft": 400,
      "hazards": [
        "BR",
        "FG",
        "RA"
      ],
      "severityScore": 100,
      "metarRaw": "METAR GMMN 020330Z 22013KT 3000 BR BKN004 11/10 Q1012 BECMG 5000",
      "tafRaw": "TAF GMMN 012300Z 0200/0306 24004KT 0400 FG BKN001 \n  BECMG 0202/0204 21015KT 5000 SCT016 BKN200 \n  TEMPO 0204/0212 22020G35KT \n  TEMPO 0212/0224 4000 RA SCT013 BKN020TCU"
    },
    {
      "icao": "EDFH",
      "iata": "HHN",
      "name": "Frankfurt-Hahn Airport",
      "lat": 49.946353,
      "lon": 7.261734,
      "updatedAt": "020320Z",
      "visibility_m": 2000,
      "taf_visibility_m": 300,
      "worst_visibility_m": 300,
      "ceiling_ft": 100,
      "hazards": [
        "BR",
        "SN",
        "FG",
        "RA",
        "DZ"
      ],
      "severityScore": 100,
      "metarRaw": "METAR EDFH 020320Z 13010KT 2000 -SN BR VV/// 01/00 Q1000",
      "tafRaw": "TAF EDFH 012300Z 0200/0224 13012KT 0400 FG OVC001 \n  PROB30 \n  TEMPO 0200/0202 0800 -DZRA OVC002 \n  PROB40 \n  TEMPO 0202/0209 0300 RASN OVC002 \n  PROB40 \n  TEMPO 0209/0218 0800 OVC002"
    },
    {
      "icao": "EDJA",
      "iata": "FMM",
      "name": "Memmingen Allgau Airport",
      "lat": 47.988092,
      "lon": 10.238248,
      "updatedAt": "020320Z",
      "visibility_m": 3400,
      "taf_visibility_m": 600,
      "worst_visibility_m": 600,
      "ceiling_ft": 100,
      "hazards": [
        "FZFG",
        "BR",
        "FG"
      ],
      "severityScore": 100,
      "metarRaw": "METAR EDJA 020320Z AUTO 05004KT 020V090 3400 // OVC001/// M02/M03 Q1003",
      "tafRaw": "TAF EDJA 020200Z 0203/0212 08004KT 3500 BR FEW002 OVC004 \n  TEMPO 0203/0209 0600 FZFG VV001 \n  BECMG 0209/0212 9999 FEW004"
    },
    {
      "icao": "EDNY",
      "iata": "FDH",
      "name": "Bodensee Airport Friedrichshafen",
      "lat": 47.671299,
      "lon": 9.51149,
      "updatedAt": null,
      "visibility_m": null,
      "taf_visibility_m": 600,
      "worst_visibility_m": 600,
      "ceiling_ft": 100,
      "hazards": [
        "FZFG",
        "BR",
        "FG"
      ],
      "severityScore": 100,
      "metarRaw": null,
      "tafRaw": "TAF EDNY 020200Z 0203/0212 04004KT 4000 BR BKN006 \n  PROB30 \n  TEMPO 0203/0208 0600 FZFG VV001 \n  BECMG 0207/0209 CAVOK"
    },
    {
      "icao": "EDSB",
      "iata": "FKB",
      "name": "Karlsruhe Baden-Baden Airport",
      "lat": 48.7794,
      "lon": 8.0805,
      "updatedAt": "020320Z",
      "visibility_m": 7000,
      "taf_visibility_m": 300,
      "worst_visibility_m": 300,
      "ceiling_ft": 100,
      "hazards": [
        "FG",
        "BR",
        "RA"
      ],
      "severityScore": 100,
      "metarRaw": "METAR EDSB 020320Z AUTO 03004KT 7000 // BKN039/// OVC047/// 02/02 Q1002",
      "tafRaw": "TAF EDSB 012300Z 0200/0224 VRB03KT 0600 FG SCT005 \n  TEMPO 0200/0206 0300 FG VV001 \n  PROB40 \n  TEMPO 0205/0210 2500 RA BR BKN003 BKN015 \n  TEMPO 0210/0218 8000 SCT003 BKN012 \n  PROB30 \n  TEMPO 0218/0224 2500 BR BKN005"
    },
    {
      "icao": "EGPF",
      "iata": "GLA",
      "name": "Glasgow Airport",
      "lat": 55.871899,
      "lon": -4.43306,
      "updatedAt": "020320Z",
      "visibility_m": 9000,
      "taf_visibility_m": 300,
      "worst_visibility_m": 300,
      "ceiling_ft": 3500,
      "hazards": [
        "FG",
        "BR",
        "SHRA",
        "RA"
      ],
      "severityScore": 100,
      "metarRaw": "METAR EGPF 020320Z AUTO 08004KT 9000 OVC035 05/05 Q1000",
      "tafRaw": "TAF EGPF 012258Z 0200/0224 VRB02KT 9999 BKN020 \n  TEMPO 0200/0210 3000 BR BKN004 \n  PROB30 0200/0210 0300 FG VV/// \n  BECMG 0208/0211 08010KT \n  PROB30 \n  TEMPO 0210/0212 6000 BKN006 \n  PROB30 \n  TEMPO 0212/0224 8000 -SHRA BKN012 \n  PROB30 \n  TEMPO 0218/0224 09015G25KT"
    },
    {
      "icao": "LEBL",
      "iata": "BCN",
      "name": "Josep Tarradellas Barcelona-El Prat Airport",
      "lat": 41.2971,
      "lon": 2.07846,
      "updatedAt": "020330Z",
      "visibility_m": 10000,
      "taf_visibility_m": 3000,
      "worst_visibility_m": 3000,
      "ceiling_ft": 800,
      "hazards": [
        "TSRA",
        "RA",
        "SHRA",
        "TS"
      ],
      "severityScore": 100,
      "metarRaw": "METAR LEBL 020330Z 33009KT 9999 FEW030 08/05 Q1004 NOSIG",
      "tafRaw": "TAF LEBL 012300Z 0200/0224 33007KT 9999 FEW010 TX15/0212Z TN06/0206Z \n  TEMPO 0204/0212 BKN008 \n  TEMPO 0212/0222 4000 RA SHRA BKN008 FEW020TCU \n  BECMG 0212/0214 22010KT \n  TEMPO 0216/0219 22015G25KT \n  PROB30 0218/0222 3000 TSRA FEW020CB \n  BECMG 0219/0221 27007KT"
    },
    {
      "icao": "LFBD",
      "iata": "BOD",
      "name": "Bordeaux–Mérignac Airport",
      "lat": 44.82865,
      "lon": -0.715356,
      "updatedAt": "020330Z",
      "visibility_m": 600,
      "taf_visibility_m": 600,
      "worst_visibility_m": 600,
      "ceiling_ft": 500,
      "hazards": [
        "FG",
        "BR",
        "TSRA",
        "SHRA",
        "TS",
        "RA"
      ],
      "severityScore": 100,
      "metarRaw": "METAR LFBD 020330Z AUTO 13011KT 9999 OVC005 10/09 Q0997 TEMPO 0600 FG VV///",
      "tafRaw": "TAF LFBD 012300Z 0200/0306 13005KT CAVOK TX13/0214Z TN07/0203Z \n  TEMPO 0200/0206 2000 BR BKN003 \n  PROB40 \n  TEMPO 0200/0206 0600 FG VV/// \n  PROB40 \n  TEMPO 0213/0216 -SHRA BKN050TCU \n  TEMPO 0216/0306 4000 -SHRA BKN025TCU \n  PROB30 \n  TEMPO 0217/0220 VRB15G25KT 1500 -TSRA BKN020CB \n  BECMG 0220/0222 23010KT"
    },
    {
      "icao": "LIMC",
      "iata": "MXP",
      "name": "Milan Malpensa International Airport",
      "lat": 45.6306,
      "lon": 8.72811,
      "updatedAt": "020320Z",
      "visibility_m": 3000,
      "taf_visibility_m": 200,
      "worst_visibility_m": 200,
      "ceiling_ft": 4000,
      "hazards": [
        "BR",
        "FG",
        "RA",
        "SN"
      ],
      "severityScore": 100,
      "metarRaw": "METAR LIMC 020320Z 04002KT 3000 BR BKN040 03/03 Q1007 NOSIG",
      "tafRaw": "TAF LIMC 012300Z 0200/0306 VRB05KT 3000 BR SCT050 \n  BECMG 0200/0202 0200 FG OVC003 \n  BECMG 0210/0212 4000 BR SCT015 \n  BECMG 0218/0220 RA OVC010 \n  PROB40 \n  TEMPO 0303/0306 2000 RASN"
    },
    {
      "icao": "LPPT",
      "iata": "LIS",
      "name": "Lisbon Humberto Delgado Airport",
      "lat": 38.7813,
      "lon": -9.13592,
      "updatedAt": "020330Z",
      "visibility_m": 10000,
      "taf_visibility_m": 1200,
      "worst_visibility_m": 1200,
      "ceiling_ft": 200,
      "hazards": [
        "RA",
        "BR",
        "SHRA",
        "TS",
        "DZ"
      ],
      "severityScore": 100,
      "metarRaw": "METAR LPPT 020330Z 26014KT 230V290 9999 -RA FEW015 11/09 Q0996 RERA",
      "tafRaw": "TAF LPPT 012300Z 0200/0306 20018KT 6000 -RADZ SCT006 BKN012 \n  TEMPO 0200/0203 20025G38KT 3000 RADZ BR SCT002 BKN004 \n  PROB40 \n  TEMPO 0200/0203 1200 +RA BKN002 \n  BECMG 0203/0205 26015KT 9999 NSW SCT030 \n  TEMPO 0205/0306 26023G35KT 5000 SHRA SCT015 FEW018CB BKN025 \n  PROB30 \n  TEMPO 0205/0218 2000 TSRAGS SCT015CB \n  BECMG 0301/0303 29010KT"
    },
    {
      "icao": "LQSA",
      "iata": "SJJ",
      "name": "Sarajevo International Airport",
      "lat": 43.8246,
      "lon": 18.331499,
      "updatedAt": "020330Z",
      "visibility_m": 10000,
      "taf_visibility_m": 500,
      "worst_visibility_m": 500,
      "ceiling_ft": 2500,
      "hazards": [
        "FZFG",
        "SN",
        "FG"
      ],
      "severityScore": 100,
      "metarRaw": "METAR LQSA 020330Z 30005KT 9999 BKN025 01/M00 Q1006",
      "tafRaw": "TAF LQSA 012300Z 0200/0224 28006KT 9999 FEW010 BKN030 TX04/0213Z TNM02/0224Z \n  PROB40 \n  TEMPO 0200/0208 3000 -SN BKN005 OVC020 \n  PROB40 0220/0224 0500 FZFG BKN002"
    },
    {
      "icao": "LQTZ",
      "iata": "TZL",
      "name": "Tuzla International Airport",
      "lat": 44.459858,
      "lon": 18.723627,
      "updatedAt": "020330Z",
      "visibility_m": 6000,
      "taf_visibility_m": 400,
      "worst_visibility_m": 400,
      "ceiling_ft": 1300,
      "hazards": [
        "SN",
        "FZFG",
        "BR",
        "FG"
      ],
      "severityScore": 100,
      "metarRaw": "METAR LQTZ 020330Z VRB02KT 6000 -SN SCT007 OVC013 M01/M01 Q1009",
      "tafRaw": "TAF LQTZ 012300Z 0200/0224 10005KT 9999 SCT015 OVC030 TX04/0214Z TNM02/0224Z \n  TEMPO 0200/0207 3000 -SN BR BKN007 OVC012 \n  PROB40 \n  TEMPO 0200/0203 1200 SN BR BKN003 OVC008 \n  TEMPO 0218/0224 3000 BR \n  PROB30 0220/0224 0400 FZFG BKN002"
    },
    {
      "icao": "LZTT",
      "iata": "TAT",
      "name": "Poprad-Tatry Airport",
      "lat": 49.073601,
      "lon": 20.2411,
      "updatedAt": "020330Z",
      "visibility_m": 8000,
      "taf_visibility_m": 500,
      "worst_visibility_m": 500,
      "ceiling_ft": 1100,
      "hazards": [
        "FZFG",
        "BR",
        "FG"
      ],
      "severityScore": 100,
      "metarRaw": "METAR LZTT 020330Z VRB01KT 8000 OVC011 M06/M07 Q1008",
      "tafRaw": "TAF LZTT 012315Z 0200/0300 VRB02KT 6000 BKN012 BKN030 \n  TEMPO 0200/0212 2500 BR BKN004 OVC009 \n  PROB40 \n  TEMPO 0200/0209 0500 FZFG OVC001 \n  TEMPO 0218/0220 OVC004"
    },
    {
      "icao": "OMDB",
      "iata": "DXB",
      "name": "Dubai International Airport",
      "lat": 25.2527999878,
      "lon": 55.3643989563,
      "updatedAt": "020330Z",
      "visibility_m": 7000,
      "taf_visibility_m": 100,
      "worst_visibility_m": 100,
      "ceiling_ft": 700,
      "hazards": [
        "FG",
        "BR"
      ],
      "severityScore": 100,
      "metarRaw": "METAR OMDB 020330Z VRB02KT 7000 NSC 17/13 Q1020 NOSIG",
      "tafRaw": "TAF OMDB 012300Z 0200/0306 18005KT 8000 NSC \n  PROB40 0200/0206 3000 BR BKN007 \n  PROB30 0201/0205 0100 FG VV/// \n  BECMG 0208/0210 29010KT \n  BECMG 0216/0218 10003KT"
    },
    {
      "icao": "UAAA",
      "iata": "ALA",
      "name": "Almaty International Airport",
      "lat": 43.354267,
      "lon": 77.042828,
      "updatedAt": "020330Z",
      "visibility_m": 1200,
      "taf_visibility_m": 300,
      "worst_visibility_m": 300,
      "ceiling_ft": 20000,
      "hazards": [
        "BR",
        "FZFG",
        "FG"
      ],
      "severityScore": 100,
      "metarRaw": "METAR UAAA 020330Z VRB01MPS 1200 R05R/1200N BR FU BKN200 M04/M06 Q1020 NOSIG",
      "tafRaw": "TAF UAAA 012303Z 0200/0224 34003MPS 1500 BR FU SCT050 BKN100 TX04/0209Z TNM06/0202Z \n  TEMPO 0200/0204 20002MPS 0300 FZFG VV002 \n  BECMG 0204/0205 3100 \n  TEMPO 0206/0214 23003MPS 6000 NSW \n  BECMG 0214/0215 20003MPS \n  TEMPO 0214/0224 26002MPS 1300"
    },
    {
      "icao": "UDSG",
      "iata": "LWN",
      "name": "Shirak International Airport",
      "lat": 40.750401,
      "lon": 43.859299,
      "updatedAt": "020330Z",
      "visibility_m": 8000,
      "taf_visibility_m": 400,
      "worst_visibility_m": 400,
      "ceiling_ft": 4300,
      "hazards": [
        "FZFG",
        "BR",
        "SN",
        "FG",
        "RA"
      ],
      "severityScore": 100,
      "metarRaw": "METAR UDSG 020330Z 06002KT 8000 OVC043 M04/M05 Q1020 NOSIG",
      "tafRaw": "TAF UDSG 012258Z 0200/0224 VRB06KT 5000 BR BKN030 \n  TEMPO 0200/0206 1000 BR OVC020 \n  TEMPO 0206/0218 0400 SNRA FZFG OVC003"
    },
    {
      "icao": "UDYZ",
      "iata": "EVN",
      "name": "Zvartnots International Airport",
      "lat": 40.148941,
      "lon": 44.397887,
      "updatedAt": "020330Z",
      "visibility_m": 750,
      "taf_visibility_m": 200,
      "worst_visibility_m": 200,
      "ceiling_ft": 100,
      "hazards": [
        "FZFG",
        "FG",
        "BR",
        "SN",
        "RA"
      ],
      "severityScore": 100,
      "metarRaw": "METAR UDYZ 020330Z VRB01KT 0750 0650W R08/1500N FZFG SCT046 M02/M03 Q1020 NOSIG",
      "tafRaw": "TAF UDYZ 012300Z 0200/0224 VRB04KT 0800 FZFG FEW006 \n  TEMPO 0200/0206 0200 FZFG VV001 \n  TEMPO 0210/0218 2000 SNRA BR BKN020"
    },
    {
      "icao": "LCLK",
      "iata": "LCA",
      "name": "Larnaca International Airport",
      "lat": 34.875099,
      "lon": 33.624901,
      "updatedAt": "020330Z",
      "visibility_m": 8000,
      "taf_visibility_m": 3000,
      "worst_visibility_m": 3000,
      "ceiling_ft": 1000,
      "hazards": [
        "BR",
        "TSRA",
        "SHRA",
        "TS",
        "RA"
      ],
      "severityScore": 98,
      "metarRaw": "METAR LCLK 020330Z VRB02KT 8000 NSC 13/13 Q1007 NOSIG",
      "tafRaw": "TAF LCLK 012330Z 0200/0300 32006KT 8000 BR FEW015 \n  PROB30 \n  TEMPO 0200/0206 4000 BR BKN010 \n  PROB40 \n  TEMPO 0200/0215 5000 DU \n  PROB30 \n  TEMPO 0200/0215 3000 DU \n  BECMG 0206/0210 22020KT \n  PROB30 \n  TEMPO 0208/0300 22020G30KT \n  PROB40 \n  TEMPO 0213/0217 5000 SHRA SCT025TCU FEW030CB \n  PROB30 \n  TEMPO 0213/0217 VRB15G25KT 4000 TSRA FEW030CB \n  PROB30 \n  TEMPO 0213/0300 26009KT"
    },
    {
      "icao": "LPPR",
      "iata": "OPO",
      "name": "Francisco de Sá Carneiro Airport",
      "lat": 41.2481002808,
      "lon": -8.68138980865,
      "updatedAt": "020330Z",
      "visibility_m": 6000,
      "taf_visibility_m": 1200,
      "worst_visibility_m": 1200,
      "ceiling_ft": 1200,
      "hazards": [
        "RA",
        "BR",
        "SHRA",
        "TS",
        "DZ"
      ],
      "severityScore": 93,
      "metarRaw": "METAR LPPR 020330Z 25010G23KT 210V290 6000 +RA SCT006 BKN012 11/11 Q0991",
      "tafRaw": "TAF LPPR 012300Z 0200/0224 19020KT 5000 -RADZ BR SCT003 BKN006 \n  TEMPO 0200/0203 19025G38KT 2000 RADZ BR SCT001 BKN003 \n  PROB40 \n  TEMPO 0200/0203 1200 +RA BKN002 \n  BECMG 0203/0205 25017KT 9999 NSW SCT030 \n  TEMPO 0205/0224 25023G35KT 5000 SHRA SCT015 FEW018CB BKN025 \n  PROB40 \n  TEMPO 0205/0224 1500 +TSRAGS SCT015CB"
    },
    {
      "icao": "LEAL",
      "iata": "ALC",
      "name": "Alicante-Elche Miguel Hernández Airport",
      "lat": 38.2822,
      "lon": -0.558156,
      "updatedAt": "020330Z",
      "visibility_m": 10000,
      "taf_visibility_m": 800,
      "worst_visibility_m": 800,
      "ceiling_ft": 200,
      "hazards": [
        "BR",
        "FG"
      ],
      "severityScore": 90,
      "metarRaw": "METAR LEAL 020330Z 28004KT CAVOK 10/08 Q1005 NOSIG",
      "tafRaw": "TAF LEAL 012300Z 0200/0224 VRB04KT 9999 FEW030 TX19/0213Z TN07/0206Z \n  PROB40 \n  TEMPO 0204/0210 3000 BR BKN005 \n  PROB40 \n  TEMPO 0204/0209 0800 BCFG VV002 \n  BECMG 0211/0213 25015KT \n  TEMPO 0213/0216 25018G28KT \n  BECMG 0218/0220 26005KT"
    },
    {
      "icao": "LTFM",
      "iata": "IST",
      "name": "İstanbul Airport",
      "lat": 41.261297,
      "lon": 28.741951,
      "updatedAt": "020320Z",
      "visibility_m": 6000,
      "taf_visibility_m": 2500,
      "worst_visibility_m": 2500,
      "ceiling_ft": 300,
      "hazards": [
        "SHRA",
        "RA",
        "SHSN",
        "SN"
      ],
      "severityScore": 89,
      "metarRaw": "METAR LTFM 020320Z 01015KT 6000 2800SE -SHRA BKN003 BKN022 06/05 Q1004 NOSIG RMK RWY17L 33016KT RWY34L 36016KT RWY16R 36014KT RWY36 01015KT RWY18 01015KT",
      "tafRaw": "TAF LTFM 012240Z 0200/0306 08012KT 9999 BKN011 BKN025 \n  BECMG 0200/0202 01015KT -SHRA \n  TEMPO 0206/0209 02015G25KT 4000 SHRA \n  BECMG 0209/0212 34024G34KT -SHSNRA BKN006 BKN022 \n  PROB40 0213/0216 4000 -SHSN BKN004 BKN018 \n  BECMG 0216/0218 4000 -SHSN \n  TEMPO 0218/0222 2500 SHSN BKN003 BKN018 \n  BECMG 0221/0223 34015KT \n  BECMG 0302/0306 BKN013 BKN025"
    },
    {
      "icao": "LIMF",
      "iata": "TRN",
      "name": "Turin Airport",
      "lat": 45.200802,
      "lon": 7.64963,
      "updatedAt": "020320Z",
      "visibility_m": 3000,
      "taf_visibility_m": 300,
      "worst_visibility_m": 300,
      "ceiling_ft": 3700,
      "hazards": [
        "BR",
        "FG",
        "RA"
      ],
      "severityScore": 87,
      "metarRaw": "METAR LIMF 020320Z 30003KT 3000 BR OVC037 03/02 Q1007",
      "tafRaw": "TAF LIMF 012300Z 0200/0224 VRB04KT 0300 FG OVC002 \n  BECMG 0210/0212 3000 BR BKN010 \n  BECMG 0218/0220 4000 -RA"
    },
    {
      "icao": "LEZL",
      "iata": "SVQ",
      "name": "Sevilla Airport",
      "lat": 37.417999,
      "lon": -5.89311,
      "updatedAt": "020330Z",
      "visibility_m": 10000,
      "taf_visibility_m": 2000,
      "worst_visibility_m": 2000,
      "ceiling_ft": 4100,
      "hazards": [
        "RA",
        "TSRA",
        "SHRA",
        "TS"
      ],
      "severityScore": 76,
      "metarRaw": "METAR LEZL 020330Z AUTO 21010KT 150V250 9999 -RA SCT012 SCT022 BKN041 15/14 Q1004",
      "tafRaw": "TAF LEZL 020200Z 0203/0303 20013KT 9999 BKN025 TX16/0215Z TN10/0207Z \n  PROB40 \n  TEMPO 0203/0220 20017G27KT 3000 RA SHRA BKN014 FEW020CB \n  PROB30 \n  TEMPO 0206/0209 2000 TSRA SCT020CB \n  PROB30 \n  TEMPO 0216/0220 2000 TSRA SCT020CB"
    },
    {
      "icao": "EDDS",
      "iata": "STR",
      "name": "Stuttgart Airport",
      "lat": 48.689899,
      "lon": 9.22196,
      "updatedAt": "020320Z",
      "visibility_m": 10000,
      "taf_visibility_m": 2000,
      "worst_visibility_m": 2000,
      "ceiling_ft": 800,
      "hazards": [
        "SN",
        "FG",
        "RA"
      ],
      "severityScore": 75,
      "metarRaw": "METAR EDDS 020320Z AUTO 10005KT 070V130 CAVOK M01/M02 Q1002",
      "tafRaw": "TAF EDDS 012300Z 0200/0224 VRB03KT CAVOK \n  PROB30 \n  TEMPO 0200/0206 2000 BCFG \n  PROB30 \n  TEMPO 0206/0210 2000 -RASN BKN008 \n  BECMG 0210/0213 07005KT"
    },
    {
      "icao": "LRSB",
      "iata": "SBZ",
      "name": "Sibiu International Airport",
      "lat": 45.785841,
      "lon": 24.086666,
      "updatedAt": "020330Z",
      "visibility_m": 10000,
      "taf_visibility_m": 3000,
      "worst_visibility_m": 3000,
      "ceiling_ft": 4400,
      "hazards": [
        "BR",
        "FZRA",
        "SN",
        "RA"
      ],
      "severityScore": 75,
      "metarRaw": "METAR LRSB 020330Z 11008KT 9999 SCT017 BKN044 M02/M05 Q1009",
      "tafRaw": "TAF LRSB 012300Z 0200/0224 VRB04KT 9999 BKN045 \n  BECMG 0201/0203 5000 -SN BR BKN010 OVC030 \n  TEMPO 0205/0211 3000 -SN BR BKN005 OVC025 \n  PROB30 \n  TEMPO 0209/0212 -FZRA \n  BECMG 0212/0214 9999 NSW BKN025"
    },
    {
      "icao": "EGGW",
      "iata": "LTN",
      "name": "London Luton Airport",
      "lat": 51.874699,
      "lon": -0.368333,
      "updatedAt": "020320Z",
      "visibility_m": 3400,
      "taf_visibility_m": 2000,
      "worst_visibility_m": 2000,
      "ceiling_ft": 400,
      "hazards": [
        "RA",
        "BR",
        "DZ"
      ],
      "severityScore": 67,
      "metarRaw": "METAR EGGW 020320Z AUTO 06007KT 3400 -RA OVC004 06/06 Q0998",
      "tafRaw": "TAF EGGW 012301Z 0200/0224 09006KT 9999 SCT003 BKN008 \n  TEMPO 0200/0212 8000 -RADZ BKN003 \n  PROB40 \n  TEMPO 0200/0210 2000 DZ BR BKN001 \n  TEMPO 0215/0224 SCT008 BKN020"
    },
    {
      "icao": "LRBV",
      "iata": "GHV",
      "name": "Brașov-Ghimbav International Airport",
      "lat": 45.70558,
      "lon": 25.522871,
      "updatedAt": "020330Z",
      "visibility_m": 10000,
      "taf_visibility_m": 1500,
      "worst_visibility_m": 1500,
      "ceiling_ft": 500,
      "hazards": [
        "BR",
        "SN"
      ],
      "severityScore": 63,
      "metarRaw": "METAR LRBV 020330Z AUTO 09007KT 9999 SG BKN045/// OVC082/// M06/M09 Q1010",
      "tafRaw": "TAF LRBV 020200Z 0203/0212 08010KT 5000 -SN BR BKN015 OVC040 \n  TEMPO 0203/0208 1500 SN BKN005 OVC020"
    },
    {
      "icao": "LRTR",
      "iata": "TSR",
      "name": "Timişoara Traian Vuia Airport",
      "lat": 45.809898,
      "lon": 21.3379,
      "updatedAt": "020330Z",
      "visibility_m": 2000,
      "taf_visibility_m": 1500,
      "worst_visibility_m": 1500,
      "ceiling_ft": 500,
      "hazards": [
        "BR",
        "SN"
      ],
      "severityScore": 63,
      "metarRaw": "METAR LRTR 020330Z 23005KT 2000 SN BR BKN005 OVC020 M02/M02 Q1011",
      "tafRaw": "TAF LRTR 012300Z 0200/0224 25008KT 5000 -SN BR BKN010 BKN025 \n  TEMPO 0201/0205 1500 SN BR BKN005 OVC015 \n  BECMG 0211/0213 9999 NSW BKN020 \n  BECMG 0220/0222 5000 BR BKN010"
    },
    {
      "icao": "LFLL",
      "iata": "LYS",
      "name": "Lyon Saint-Exupéry Airport",
      "lat": 45.725996,
      "lon": 5.090139,
      "updatedAt": "020330Z",
      "visibility_m": 10000,
      "taf_visibility_m": 2000,
      "worst_visibility_m": 2000,
      "ceiling_ft": 6000,
      "hazards": [
        "TSRA",
        "RA",
        "TS"
      ],
      "severityScore": 62,
      "metarRaw": "METAR LFLL 020330Z 19015KT 9999 FEW049 BKN060 09/04 Q1002 NOSIG",
      "tafRaw": "TAF LFLL 012300Z 0200/0306 18010KT CAVOK \n  TEMPO 0208/0215 18015G27KT \n  BECMG 0218/0221 12004KT \n  TEMPO 0202/0206 18015G30KT 3000 RA SCT040 BKN060TCU \n  PROB30 \n  TEMPO 0202/0204 18020G45KT 2000 TSRA SCT040 BKN060CB"
    },
    {
      "icao": "GMMX",
      "iata": "RAK",
      "name": "Marrakesh Menara Airport",
      "lat": 31.604807,
      "lon": -8.035788,
      "updatedAt": "020330Z",
      "visibility_m": 8000,
      "taf_visibility_m": 3000,
      "worst_visibility_m": 3000,
      "ceiling_ft": 600,
      "hazards": [
        "BR",
        "SHRA",
        "RA"
      ],
      "severityScore": 61,
      "metarRaw": "METAR GMMX 020330Z 27009KT 8000 NSC 11/10 Q1015 NOSIG",
      "tafRaw": "TAF GMMX 012300Z 0200/0306 26006KT 8000 SCT026 \n  TEMPO 0203/0208 3000 BR BKN006 \n  TEMPO 0215/0300 34018KT 4000 SHRA SCT013 BKN020 FEW026TCU"
    },
    {
      "icao": "EGBB",
      "iata": "BHX",
      "name": "Birmingham Airport",
      "lat": 52.453899,
      "lon": -1.74803,
      "updatedAt": "020320Z",
      "visibility_m": 3500,
      "taf_visibility_m": null,
      "worst_visibility_m": 3500,
      "ceiling_ft": 400,
      "hazards": [
        "BR",
        "DZ"
      ],
      "severityScore": 60,
      "metarRaw": "METAR EGBB 020320Z 08006KT 3500 BR BKN004 OVC018 06/06 Q0998 REDZ",
      "tafRaw": null
    },
    {
      "icao": "ENTC",
      "iata": "TOS",
      "name": "Tromsø Airport, Langnes",
      "lat": 69.683296,
      "lon": 18.9189,
      "updatedAt": "020320Z",
      "visibility_m": 1500,
      "taf_visibility_m": null,
      "worst_visibility_m": 1500,
      "ceiling_ft": 800,
      "hazards": [
        "SN"
      ],
      "severityScore": 58,
      "metarRaw": "METAR ENTC 020320Z 19013KT 1500 -SN VV008 M01/M03 Q1018 RMK WIND 2600FT 19009KT",
      "tafRaw": null
    },
    {
      "icao": "LPPS",
      "iata": "PXO",
      "name": "Porto Santo Airport",
      "lat": 33.0733985901,
      "lon": -16.3500003815,
      "updatedAt": "020330Z",
      "visibility_m": 10000,
      "taf_visibility_m": 5000,
      "worst_visibility_m": 5000,
      "ceiling_ft": 1200,
      "hazards": [
        "BR",
        "SHRA",
        "RA",
        "DZ"
      ],
      "severityScore": 58,
      "metarRaw": "METAR LPPS 020330Z 30022KT 9999 FEW014 SCT030 16/07 Q1012",
      "tafRaw": "TAF LPPS 012300Z 0200/0306 26020G35KT 9999 SCT015 SCT030 \n  TEMPO 0200/0202 5000 -RADZ BR SCT006 BKN012 \n  BECMG 0200/0202 30020KT \n  TEMPO 0202/0224 30023G35KT \n  PROB30 \n  TEMPO 0202/0212 8000 SHRA BKN012 FEW018TCU \n  BECMG 0224/0302 30015KT"
    },
    {
      "icao": "LZIB",
      "iata": "BTS",
      "name": "M. R. Štefánik Airport",
      "lat": 48.1702,
      "lon": 17.2127,
      "updatedAt": "020330Z",
      "visibility_m": 4000,
      "taf_visibility_m": null,
      "worst_visibility_m": 4000,
      "ceiling_ft": 900,
      "hazards": [
        "BR",
        "SN"
      ],
      "severityScore": 58,
      "metarRaw": "METAR LZIB 020330Z 23003KT 4000 -SN BR FEW008 OVC009 M01/M01 Q1010 NOSIG",
      "tafRaw": null
    },
    {
      "icao": "EBCI",
      "iata": "CRL",
      "name": "Brussels South Charleroi Airport",
      "lat": 50.461963,
      "lon": 4.459562,
      "updatedAt": "020320Z",
      "visibility_m": 10000,
      "taf_visibility_m": 3000,
      "worst_visibility_m": 3000,
      "ceiling_ft": 700,
      "hazards": [
        "BR",
        "RA",
        "DZ"
      ],
      "severityScore": 57,
      "metarRaw": "METAR EBCI 020320Z 10005KT 9999 FEW007 05/05 Q0998 TEMPO BKN007",
      "tafRaw": "TAF EBCI 012304Z 0200/0306 12006KT 9999 SCT014 BKN020 \n  TEMPO 0200/0209 SCT006 BKN012 \n  PROB40 \n  TEMPO 0200/0209 3000 RA RADZ BR SCT004 BKN006 \n  PROB30 \n  TEMPO 0206/0209 BKN004 \n  PROB30 \n  TEMPO 0303/0306 4500 RA SCT006 BKN012"
    },
    {
      "icao": "EHEH",
      "iata": "EIN",
      "name": "Eindhoven Airport",
      "lat": 51.4500999451,
      "lon": 5.37452983856,
      "updatedAt": null,
      "visibility_m": null,
      "taf_visibility_m": 2000,
      "worst_visibility_m": 2000,
      "ceiling_ft": 500,
      "hazards": [
        "BR",
        "RA",
        "DZ"
      ],
      "severityScore": 57,
      "metarRaw": null,
      "tafRaw": "TAF EHEH 011752Z 0118/0224 14008KT 9999 BKN040 \n  BECMG 0123/0201 11008KT SCT018 BKN020 \n  PROB30 \n  TEMPO 0201/0205 4000 RADZ BKN008 OVC012 \n  BECMG 0204/0207 4000 BR RADZ BKN006 OVC010 \n  PROB30 \n  TEMPO 0205/0210 2000 BR SCT003 OVC005 \n  BECMG 0211/0213 6000 NSW SCT008 BKN012 \n  BECMG 0216/0218 BKN022"
    },
    {
      "icao": "LIPE",
      "iata": "BLQ",
      "name": "Bologna Guglielmo Marconi Airport",
      "lat": 44.5354,
      "lon": 11.2887,
      "updatedAt": "020320Z",
      "visibility_m": 8000,
      "taf_visibility_m": 2000,
      "worst_visibility_m": 2000,
      "ceiling_ft": 500,
      "hazards": [
        "RA",
        "FG"
      ],
      "severityScore": 57,
      "metarRaw": "METAR LIPE 020320Z 19006KT 8000 NSC 01/M00 Q1008",
      "tafRaw": "TAF LIPE 012300Z 0200/0224 VRB05KT 8000 FEW030 \n  PROB40 \n  TEMPO 0200/0207 2000 BCFG BKN005 \n  BECMG 0218/0220 4000 RA BKN014"
    },
    {
      "icao": "LPFR",
      "iata": "FAO",
      "name": "Faro - Gago Coutinho International Airport",
      "lat": 37.015909,
      "lon": -7.970939,
      "updatedAt": "020330Z",
      "visibility_m": 10000,
      "taf_visibility_m": 1500,
      "worst_visibility_m": 1500,
      "ceiling_ft": 4500,
      "hazards": [
        "RA",
        "BR",
        "SHRA",
        "DZ"
      ],
      "severityScore": 56,
      "metarRaw": "METAR LPFR 020330Z 20023KT 9999 -RA FEW015 SCT025 BKN045 16/14 Q1001",
      "tafRaw": "TAF LPFR 012300Z 0200/0224 20018KT 9999 SCT012 BKN025 \n  TEMPO 0200/0205 21023G35KT 4000 RADZ BR SCT006 BKN012 \n  PROB30 \n  TEMPO 0203/0205 22030G45KT 1500 +RA SCT002 BKN004 \n  BECMG 0205/0207 27018KT SCT030 \n  TEMPO 0207/0224 27023G35KT 5000 SHRA SCT015 FEW018CB BKN025"
    },
    {
      "icao": "LFOB",
      "iata": "BVA",
      "name": "Beauvais Tillé airport",
      "lat": 49.454399,
      "lon": 2.11278,
      "updatedAt": "020330Z",
      "visibility_m": 2000,
      "taf_visibility_m": 2000,
      "worst_visibility_m": 2000,
      "ceiling_ft": 200,
      "hazards": [
        "BR",
        "DZ"
      ],
      "severityScore": 55,
      "metarRaw": "METAR LFOB 020330Z AUTO 00000KT CAVOK 03/03 Q0997 TEMPO 2000 BR OVC002 BECMG 24010KT",
      "tafRaw": "TAF LFOB 012300Z 0200/0224 17010KT 8000 BKN009 OVC012 \n  TEMPO 0200/0202 24010KT 2000 DZ OVC006 \n  BECMG 0202/0205 24010KT SCT020 \n  PROB30 0205/0211 2000 BR OVC002 \n  BECMG 0211/0213 09010KT \n  PROB40 0213/0218 BKN014 \n  BECMG 0221/0224 BKN006 OVC012"
    },
    {
      "icao": "OMAA",
      "iata": "AUH",
      "name": "Zayed International Airport",
      "lat": 24.440966,
      "lon": 54.649237,
      "updatedAt": "020330Z",
      "visibility_m": 7000,
      "taf_visibility_m": 500,
      "worst_visibility_m": 500,
      "ceiling_ft": null,
      "hazards": [
        "FG"
      ],
      "severityScore": 55,
      "metarRaw": "METAR OMAA 020330Z 18003KT 7000 NSC 15/14 Q1019 NOSIG",
      "tafRaw": "TAF OMAA 012300Z 0200/0306 13004KT 8000 NSC \n  PROB40 0200/0206 4000 HZ \n  PROB30 0200/0205 0500 FG VV/// \n  BECMG 0209/0211 32009KT \n  BECMG 0218/0220 08006KT \n  PROB30 0223/0305 4000 HZ"
    },
    {
      "icao": "LBWN",
      "iata": "VAR",
      "name": "Varna Airport",
      "lat": 43.232101,
      "lon": 27.8251,
      "updatedAt": "020330Z",
      "visibility_m": 10000,
      "taf_visibility_m": 3000,
      "worst_visibility_m": 3000,
      "ceiling_ft": 500,
      "hazards": [
        "SHSN",
        "SN"
      ],
      "severityScore": 53,
      "metarRaw": "METAR LBWN 020330Z AUTO 01014G26KT 330V070 9999 -SHSN FEW013/// OVC027/// M04/M06 Q1009 NOSIG",
      "tafRaw": "TAF LBWN 012300Z 0200/0224 01014KT 5000 SN BKN008 OVC020 \n  TEMPO 0200/0206 01020G30KT \n  PROB40 \n  TEMPO 0202/0206 3000 SN BKN005 OVC012 \n  BECMG 0210/0212 9999 NSW SCT020 BKN040"
    },
    {
      "icao": "EDLW",
      "iata": "DTM",
      "name": "Dortmund Airport",
      "lat": 51.518299,
      "lon": 7.61224,
      "updatedAt": "020320Z",
      "visibility_m": 10000,
      "taf_visibility_m": 3000,
      "worst_visibility_m": 3000,
      "ceiling_ft": 900,
      "hazards": [
        "RA",
        "DZ"
      ],
      "severityScore": 47,
      "metarRaw": "METAR EDLW 020320Z AUTO 10008KT 9999 // FEW064/// BKN150/// 04/01 Q1002",
      "tafRaw": "TAF EDLW 011700Z 0118/0218 14006KT 9999 BKN025 \n  BECMG 0200/0204 08008KT \n  TEMPO 0207/0213 3000 RADZ BKN009"
    },
    {
      "icao": "EGPD",
      "iata": "ABZ",
      "name": "Aberdeen International Airport",
      "lat": 57.2019,
      "lon": -2.19778,
      "updatedAt": "020320Z",
      "visibility_m": 10000,
      "taf_visibility_m": 2000,
      "worst_visibility_m": 2000,
      "ceiling_ft": 700,
      "hazards": [
        "RA",
        "DZ"
      ],
      "severityScore": 47,
      "metarRaw": "METAR EGPD 020320Z AUTO 13004KT 9999 FEW007/// BKN024/// BKN036/// //////TCU 05/04 Q1002 TEMPO BKN007",
      "tafRaw": "TAF EGPD 012257Z 0200/0224 11008KT 9999 SCT012 BKN018 \n  TEMPO 0200/0224 5000 RA -RADZ BKN012 \n  PROB40 \n  TEMPO 0200/0211 2000 +RA RADZ BKN004 \n  BECMG 0206/0209 12015G25KT \n  PROB40 \n  TEMPO 0211/0224 3000 RADZ BKN006"
    },
    {
      "icao": "LGTS",
      "iata": "SKG",
      "name": "Thessaloniki Macedonia International Airport",
      "lat": 40.51928,
      "lon": 22.970009,
      "updatedAt": "020320Z",
      "visibility_m": 10000,
      "taf_visibility_m": 3000,
      "worst_visibility_m": 3000,
      "ceiling_ft": 3500,
      "hazards": [
        "TS",
        "BR",
        "RA"
      ],
      "severityScore": 47,
      "metarRaw": "METAR LGTS 020320Z 32008KT 9999 FEW015 BKN035 07/04 Q1005 NOSIG",
      "tafRaw": "TAF LGTS 012300Z 0200/0224 34010KT 9999 SCT008 BKN025 \n  PROB30 \n  TEMPO 0200/0206 5000 RA SCT008 BKN020 \n  PROB40 0200/0207 3000 BR SCT005 SCT025 \n  BECMG 0207/0209 SCT025 \n  BECMG 0218/0220 BKN030"
    },
    {
      "icao": "EETN",
      "iata": "TLL",
      "name": "Lennart Meri Tallinn Airport",
      "lat": 59.413246,
      "lon": 24.83264,
      "updatedAt": "020320Z",
      "visibility_m": 10000,
      "taf_visibility_m": 2000,
      "worst_visibility_m": 2000,
      "ceiling_ft": 300,
      "hazards": [
        "BR"
      ],
      "severityScore": 45,
      "metarRaw": "METAR EETN 020320Z 02005KT CAVOK M12/M14 Q1029",
      "tafRaw": "TAF EETN 012330Z 0200/0224 VRB02KT 9999 SCT020 \n  TEMPO 0200/0205 2000 BR BKN003 \n  BECMG 0204/0206 01010KT"
    },
    {
      "icao": "EYVI",
      "iata": "VNO",
      "name": "Vilnius International Airport",
      "lat": 54.634102,
      "lon": 25.285801,
      "updatedAt": "020320Z",
      "visibility_m": 10000,
      "taf_visibility_m": 3000,
      "worst_visibility_m": 3000,
      "ceiling_ft": 200,
      "hazards": [
        "BR"
      ],
      "severityScore": 45,
      "metarRaw": "METAR EYVI 020320Z 34002KT CAVOK M23/M25 Q1023 TEMPO BKN002",
      "tafRaw": "TAF EYVI 012300Z 0200/0224 VRB05KT 5000 BR SCT005 \n  TEMPO 0202/0207 3000 \n  BECMG 0207/0209 CAVOK"
    },
    {
      "icao": "LROP",
      "iata": "OTP",
      "name": "Bucharest Henri Coandă International Airport",
      "lat": 44.571792,
      "lon": 26.103285,
      "updatedAt": "020330Z",
      "visibility_m": 4000,
      "taf_visibility_m": null,
      "worst_visibility_m": 4000,
      "ceiling_ft": 1000,
      "hazards": [
        "BR",
        "SN"
      ],
      "severityScore": 45,
      "metarRaw": "METAR LROP 020330Z 05006KT 4000 -SN BR SCT038 M07/M10 Q1015 BECMG BKN010",
      "tafRaw": null
    },
    {
      "icao": "LHBP",
      "iata": "BUD",
      "name": "Budapest Liszt Ferenc International Airport",
      "lat": 47.43018,
      "lon": 19.262393,
      "updatedAt": "020330Z",
      "visibility_m": 7000,
      "taf_visibility_m": 2500,
      "worst_visibility_m": 2500,
      "ceiling_ft": 1700,
      "hazards": [
        "SN",
        "SHSN"
      ],
      "severityScore": 40,
      "metarRaw": "METAR LHBP 020330Z 00000KT 7000 -SN BKN017 OVC041 00/M01 Q1011 NOSIG",
      "tafRaw": "TAF LHBP 012315Z 0200/0224 VRB03KT 9999 BKN035 \n  PROB40 \n  TEMPO 0200/0210 2500 SN SHSN BKN007 OVC020 \n  BECMG 0210/0213 14006KT"
    },
    {
      "icao": "LKPR",
      "iata": "PRG",
      "name": "Václav Havel Airport Prague",
      "lat": 50.100874,
      "lon": 14.259911,
      "updatedAt": "020330Z",
      "visibility_m": 6000,
      "taf_visibility_m": 2000,
      "worst_visibility_m": 2000,
      "ceiling_ft": 1700,
      "hazards": [
        "BR",
        "SN"
      ],
      "severityScore": 40,
      "metarRaw": "METAR LKPR 020330Z 06005KT 6000 BKN017 OVC035 M05/M06 Q1008 NOSIG",
      "tafRaw": "TAF LKPR 020200Z 0203/0309 07006KT 7000 OVC012 \n  PROB30 \n  TEMPO 0203/0208 2000 -SN BR BKN007 \n  TEMPO 0212/0219 9999 BKN020 \n  TEMPO 0219/0308 3000 -SN BR OVC008"
    },
    {
      "icao": "LOWW",
      "iata": "VIE",
      "name": "Vienna International Airport",
      "lat": 48.110298,
      "lon": 16.5697,
      "updatedAt": "020320Z",
      "visibility_m": 5000,
      "taf_visibility_m": null,
      "worst_visibility_m": 5000,
      "ceiling_ft": 700,
      "hazards": [
        "BR"
      ],
      "severityScore": 40,
      "metarRaw": "METAR LOWW 020320Z 04004KT 5000 BR FEW005 OVC007 M04/M05 Q1010 NOSIG",
      "tafRaw": null
    },
    {
      "icao": "LRCV",
      "iata": "CRA",
      "name": "Craiova International Airport",
      "lat": 44.3181,
      "lon": 23.888599,
      "updatedAt": "020330Z",
      "visibility_m": 10000,
      "taf_visibility_m": 1500,
      "worst_visibility_m": 1500,
      "ceiling_ft": 4300,
      "hazards": [
        "BR",
        "SN"
      ],
      "severityScore": 38,
      "metarRaw": "METAR LRCV 020330Z 10012KT 9999 OVC043 M06/M08 Q1014",
      "tafRaw": "TAF LRCV 020200Z 0203/0212 10014KT 5000 -SN BR BKN015 OVC030 \n  TEMPO 0203/0209 1500 SN BKN005 OVC020"
    },
    {
      "icao": "GMAD",
      "iata": "AGA",
      "name": "Al Massira Airport",
      "lat": 30.322478,
      "lon": -9.412003,
      "updatedAt": "020330Z",
      "visibility_m": 5000,
      "taf_visibility_m": 3000,
      "worst_visibility_m": 3000,
      "ceiling_ft": 800,
      "hazards": [
        "BR"
      ],
      "severityScore": 35,
      "metarRaw": "METAR GMAD 020330Z 23008KT 5000 BKN008 15/15 Q1015 NOSIG",
      "tafRaw": "TAF GMAD 012300Z 0200/0306 03006KT 6000 BKN006 \n  PROB40 \n  TEMPO 0205/0210 3000 BR OVC004 \n  BECMG 0210/0212 6000 SCT010"
    },
    {
      "icao": "EFTU",
      "iata": "TKU",
      "name": "Turku Airport",
      "lat": 60.514099,
      "lon": 22.2628,
      "updatedAt": "020320Z",
      "visibility_m": 10000,
      "taf_visibility_m": 10000,
      "worst_visibility_m": 10000,
      "ceiling_ft": 300,
      "hazards": [],
      "severityScore": 35,
      "metarRaw": "METAR EFTU 020320Z AUTO 07002KT CAVOK M23/M26 Q1031",
      "tafRaw": "TAF EFTU 020222Z 0203/0303 05002KT CAVOK \n  PROB30 0203/0206 BKN003"
    },
    {
      "icao": "EPKT",
      "iata": "KTW",
      "name": "Katowice Wojciech Korfanty International Airport",
      "lat": 50.476015,
      "lon": 19.080705,
      "updatedAt": "020330Z",
      "visibility_m": 10000,
      "taf_visibility_m": null,
      "worst_visibility_m": 10000,
      "ceiling_ft": 1500,
      "hazards": [
        "SN"
      ],
      "severityScore": 35,
      "metarRaw": "METAR EPKT 020330Z 07007KT 9999 -SN OVC015 M11/M14 Q1013",
      "tafRaw": null
    },
    {
      "icao": "EYKA",
      "iata": "KUN",
      "name": "Kaunas International Airport",
      "lat": 54.963965,
      "lon": 24.08582,
      "updatedAt": "020320Z",
      "visibility_m": 9000,
      "taf_visibility_m": 3000,
      "worst_visibility_m": 3000,
      "ceiling_ft": 500,
      "hazards": [
        "BR"
      ],
      "severityScore": 35,
      "metarRaw": "METAR EYKA 020320Z 36001KT 9000 NSC M27/M30 Q1026",
      "tafRaw": "TAF EYKA 012300Z 0200/0224 VRB05KT 5000 BR NSC \n  TEMPO 0200/0207 3000 BKN005 \n  BECMG 0207/0209 CAVOK"
    },
    {
      "icao": "LRBS",
      "iata": "BBU",
      "name": "Bucharest Băneasa Aurel Vlaicu International Airport",
      "lat": 44.503133,
      "lon": 26.102944,
      "updatedAt": "020330Z",
      "visibility_m": 3000,
      "taf_visibility_m": null,
      "worst_visibility_m": 3000,
      "ceiling_ft": 1000,
      "hazards": [
        "SN"
      ],
      "severityScore": 35,
      "metarRaw": "METAR LRBS 020330Z 04011KT 360V070 3000 -SN OVC038 M07/M09 Q1015 BECMG BKN010",
      "tafRaw": null
    },
    {
      "icao": "LIPH",
      "iata": "TSF",
      "name": "Treviso Antonio Canova Airport",
      "lat": 45.648399,
      "lon": 12.1944,
      "updatedAt": "020320Z",
      "visibility_m": 10000,
      "taf_visibility_m": 4000,
      "worst_visibility_m": 4000,
      "ceiling_ft": 1400,
      "hazards": [
        "BR",
        "RA"
      ],
      "severityScore": 34,
      "metarRaw": "METAR LIPH 020320Z AUTO 30004KT 9999 BKN042/// 02/M00 Q1008",
      "tafRaw": "TAF LIPH 012300Z 0200/0224 VRB05KT 9999 FEW030 \n  PROB40 \n  TEMPO 0201/0206 4000 BR \n  BECMG 0218/0220 4000 RA BKN014"
    },
    {
      "icao": "LIRZ",
      "iata": "PEG",
      "name": "Perugia San Francesco d'Assisi – Umbria International Airport",
      "lat": 43.095901,
      "lon": 12.5132,
      "updatedAt": "020320Z",
      "visibility_m": 10000,
      "taf_visibility_m": 3000,
      "worst_visibility_m": 3000,
      "ceiling_ft": null,
      "hazards": [
        "RA",
        "FG"
      ],
      "severityScore": 32,
      "metarRaw": "METAR LIRZ 020320Z AUTO 36005KT 9999 NCD M00/M01 Q1007",
      "tafRaw": "TAF LIRZ 012300Z 0200/0224 VRB04KT CAVOK \n  TEMPO 0202/0206 3000 BCFG \n  BECMG 0220/0222 19011KT \n  TEMPO 0220/0224 4000 -RA"
    },
    {
      "icao": "EPKK",
      "iata": "KRK",
      "name": "Kraków John Paul II International Airport",
      "lat": 50.077702,
      "lon": 19.7848,
      "updatedAt": "020330Z",
      "visibility_m": 10000,
      "taf_visibility_m": 10000,
      "worst_visibility_m": 10000,
      "ceiling_ft": 1600,
      "hazards": [
        "SN"
      ],
      "severityScore": 30,
      "metarRaw": "METAR EPKK 020330Z 06011KT 9999 BKN016 OVC020 M11/M15 Q1014",
      "tafRaw": "TAF EPKK 020230Z 0203/0303 06012KT 9999 -SN OVC025 \n  PROB30 \n  TEMPO 0203/0207 BKN005 OVC010 \n  BECMG 0218/0221 OVC013 \n  TEMPO 0300/0303 BKN007 OVC013"
    },
    {
      "icao": "LBSF",
      "iata": "SOF",
      "name": "Sofia Airport",
      "lat": 42.696357,
      "lon": 23.417671,
      "updatedAt": "020330Z",
      "visibility_m": 10000,
      "taf_visibility_m": 5000,
      "worst_visibility_m": 5000,
      "ceiling_ft": 2000,
      "hazards": [
        "SHSN",
        "SN"
      ],
      "severityScore": 28,
      "metarRaw": "METAR LBSF 020330Z AUTO 13004KT 9999 -SHSN FEW012/// OVC023/// M04/M07 Q1008 NOSIG",
      "tafRaw": "TAF LBSF 012300Z 0200/0224 10010KT 8000 SCT010 BKN020 \n  TEMPO 0200/0209 5000 -SN \n  BECMG 0206/0208 VRB03KT"
    },
    {
      "icao": "LHDC",
      "iata": "DEB",
      "name": "Debrecen International Airport",
      "lat": 47.488899,
      "lon": 21.615299,
      "updatedAt": "020315Z",
      "visibility_m": 10000,
      "taf_visibility_m": 2000,
      "worst_visibility_m": 2000,
      "ceiling_ft": 2500,
      "hazards": [
        "SHSN",
        "SN"
      ],
      "severityScore": 28,
      "metarRaw": "METAR LHDC 020315Z AUTO 03005KT 9999 -SHSN OVC025 M01/M04 Q1010 NOSIG",
      "tafRaw": "TAF LHDC 020215Z 0203/0212 02007KT 9999 BKN025 \n  PROB40 \n  TEMPO 0203/0210 2000 SN SHSN BKN008 OVC015"
    },
    {
      "icao": "LEMG",
      "iata": "AGP",
      "name": "Málaga-Costa del Sol Airport",
      "lat": 36.6749,
      "lon": -4.49911,
      "updatedAt": "020330Z",
      "visibility_m": 10000,
      "taf_visibility_m": 4000,
      "worst_visibility_m": 4000,
      "ceiling_ft": 5800,
      "hazards": [
        "SHRA",
        "RA"
      ],
      "severityScore": 26,
      "metarRaw": "METAR LEMG 020330Z 00000KT 9999 FEW030 BKN058 12/11 Q1007 NOSIG",
      "tafRaw": "TAF LEMG 012300Z 0200/0224 VRB03KT 9999 FEW030 TX15/0215Z TN09/0206Z \n  BECMG 0205/0207 22010KT \n  BECMG 0209/0211 VRB03KT \n  PROB40 \n  TEMPO 0206/0214 4000 SHRA BKN014 FEW025CB \n  PROB30 \n  TEMPO 0207/0210 29015G25KT"
    },
    {
      "icao": "LEXJ",
      "iata": "SDR",
      "name": "Seve Ballesteros-Santander Airport",
      "lat": 43.427101,
      "lon": -3.82001,
      "updatedAt": "020330Z",
      "visibility_m": 10000,
      "taf_visibility_m": 3000,
      "worst_visibility_m": 3000,
      "ceiling_ft": null,
      "hazards": [
        "RA",
        "SHRA"
      ],
      "severityScore": 26,
      "metarRaw": "METAR LEXJ 020330Z AUTO 22011G21KT 150V270 9999 4000E NSC 18/09 Q0991",
      "tafRaw": "TAF LEXJ 020200Z 0203/0303 20009KT 9999 FEW040 TX17/0212Z TN10/0303Z \n  PROB30 \n  TEMPO 0203/0206 20018G30KT \n  PROB40 \n  TEMPO 0209/0220 20018G30KT \n  PROB40 \n  TEMPO 0212/0215 30015KT 3000 RA \n  PROB30 \n  TEMPO 0217/0220 3000 SHRA SCT030TCU \n  PROB30 \n  TEMPO 0218/0303 20015G25KT"
    },
    {
      "icao": "LFMN",
      "iata": "NCE",
      "name": "Nice-Côte d'Azur Airport",
      "lat": 43.658401,
      "lon": 7.21587,
      "updatedAt": "020330Z",
      "visibility_m": 10000,
      "taf_visibility_m": 3000,
      "worst_visibility_m": 3000,
      "ceiling_ft": null,
      "hazards": [
        "SHRA",
        "RA"
      ],
      "severityScore": 26,
      "metarRaw": "METAR LFMN 020330Z 34009KT 9999 SCT030 08/03 Q1006 NOSIG",
      "tafRaw": "TAF LFMN 020200Z 0203/0309 34010KT 9999 FEW030 \n  TEMPO 0211/0306 3000 SHRA SCT040TCU \n  BECMG 0218/0220 09020G30KT \n  BECMG 0304/0306 33005KT"
    },
    {
      "icao": "LFSB",
      "iata": "BSL",
      "name": "EuroAirport Basel–Mulhouse–Freiburg",
      "lat": 47.60068,
      "lon": 7.521117,
      "updatedAt": "020330Z",
      "visibility_m": 10000,
      "taf_visibility_m": 4000,
      "worst_visibility_m": 4000,
      "ceiling_ft": 3500,
      "hazards": [
        "RA",
        "SHRA"
      ],
      "severityScore": 26,
      "metarRaw": "METAR LFSB 020330Z AUTO 11010KT 9999 BKN046/// BKN056/// OVC088/// ///TCU 04/02 Q1002 NOSIG",
      "tafRaw": "TAF LFSB 012300Z 0200/0224 11007KT 9999 BKN040 \n  TEMPO 0200/0206 -SHRA FEW030TCU BKN035 \n  PROB40 \n  TEMPO 0221/0224 4000 RA"
    },
    {
      "icao": "LICA",
      "iata": "SUF",
      "name": "Lamezia Terme Sant'Eufemia International Airport",
      "lat": 38.906214,
      "lon": 16.246007,
      "updatedAt": "020320Z",
      "visibility_m": 10000,
      "taf_visibility_m": 4000,
      "worst_visibility_m": 4000,
      "ceiling_ft": null,
      "hazards": [
        "SHRA",
        "RA"
      ],
      "severityScore": 26,
      "metarRaw": "METAR LICA 020320Z 25006KT 9999 SCT025 SCT070 12/08 Q1006",
      "tafRaw": "TAF LICA 012300Z 0200/0224 28015KT 9999 SCT020 \n  TEMPO 0200/0208 4000 SHRA"
    },
    {
      "icao": "LMML",
      "iata": "MLA",
      "name": "Malta International Airport",
      "lat": 35.857498,
      "lon": 14.4775,
      "updatedAt": "020345Z",
      "visibility_m": 10000,
      "taf_visibility_m": 9000,
      "worst_visibility_m": 9000,
      "ceiling_ft": null,
      "hazards": [
        "SHRA",
        "RA"
      ],
      "severityScore": 26,
      "metarRaw": "METAR LMML 020345Z 29012KT 9999 FEW025 12/08 Q1011 NOSIG",
      "tafRaw": "TAF LMML 012300Z 0200/0224 28016KT 9999 FEW023 \n  PROB30 \n  TEMPO 0200/0211 9000 SHRA SCT019TCU \n  BECMG 0214/0217 21011KT"
    },
    {
      "icao": "LTAC",
      "iata": "ESB",
      "name": "Esenboğa International Airport",
      "lat": 40.128101,
      "lon": 32.995098,
      "updatedAt": "020320Z",
      "visibility_m": 10000,
      "taf_visibility_m": 10000,
      "worst_visibility_m": 10000,
      "ceiling_ft": 3000,
      "hazards": [
        "SHRA",
        "RA"
      ],
      "severityScore": 26,
      "metarRaw": "METAR LTAC 020320Z 28010KT 9999 -SHRA FEW017 BKN030 BKN080 04/02 Q1007 NOSIG RMK RWY21C 26010KT 220V300 RWY03L 26009KT RWY21R 25009KT RWY03R 25008KT RWY21L 26009KT",
      "tafRaw": "TAF LTAC 012240Z 0200/0224 20012KT 9999 SCT040 BKN100 \n  TEMPO 0200/0204 20015G25KT -SHRA BKN030 BKN080 \n  TEMPO 0208/0212 -SHRA BKN030 BKN080 \n  TEMPO 0213/0217 21015G25KT -SHRA BKN030 BKN080 \n  BECMG 0220/0223 32015KT"
    },
    {
      "icao": "UGKO",
      "iata": "KUT",
      "name": "David the Builder Kutaisi International Airport",
      "lat": 42.177448,
      "lon": 42.485353,
      "updatedAt": "020330Z",
      "visibility_m": 10000,
      "taf_visibility_m": 4000,
      "worst_visibility_m": 4000,
      "ceiling_ft": 5000,
      "hazards": [
        "SHRA",
        "RA"
      ],
      "severityScore": 26,
      "metarRaw": "METAR UGKO 020330Z 08015KT CAVOK 10/04 Q1011 NOSIG",
      "tafRaw": "TAF UGKO 012300Z 0200/0224 08017KT 9999 BKN080 TX14/0211Z TN08/0203Z \n  TEMPO 0200/0204 CAVOK \n  TEMPO 0204/0208 08023G37KT \n  TEMPO 0208/0218 08029G47KT 4000 SHRA BKN017CB OVC050"
    },
    {
      "icao": "GCTS",
      "iata": "TFS",
      "name": "Tenerife Sur Airport",
      "lat": 28.0445,
      "lon": -16.5725,
      "updatedAt": "020330Z",
      "visibility_m": 10000,
      "taf_visibility_m": 10000,
      "worst_visibility_m": 10000,
      "ceiling_ft": null,
      "hazards": [
        "TS"
      ],
      "severityScore": 25,
      "metarRaw": "METAR GCTS 020330Z 04003KT 9999 SCT020 17/14 Q1017 NOSIG",
      "tafRaw": "TAF GCTS 020200Z 0203/0303 10006KT 9999 SCT020 TX23/0214Z TN15/0206Z \n  PROB40 \n  TEMPO 0212/0215 28014KT \n  PROB30 \n  TEMPO 0300/0303 25010KT"
    },
    {
      "icao": "EDDN",
      "iata": "NUE",
      "name": "Nuremberg Airport",
      "lat": 49.498699,
      "lon": 11.078056,
      "updatedAt": "020320Z",
      "visibility_m": 10000,
      "taf_visibility_m": 10000,
      "worst_visibility_m": 10000,
      "ceiling_ft": 600,
      "hazards": [],
      "severityScore": 25,
      "metarRaw": "METAR EDDN 020320Z AUTO 14008KT CAVOK M00/M03 Q1006",
      "tafRaw": "TAF EDDN 012300Z 0200/0224 10006KT CAVOK \n  TEMPO 0204/0211 BKN006"
    },
    {
      "icao": "LEMD",
      "iata": "MAD",
      "name": "Adolfo Suárez Madrid–Barajas Airport",
      "lat": 40.471926,
      "lon": -3.56264,
      "updatedAt": "020330Z",
      "visibility_m": 5000,
      "taf_visibility_m": null,
      "worst_visibility_m": 5000,
      "ceiling_ft": 2400,
      "hazards": [
        "BR",
        "DZ"
      ],
      "severityScore": 25,
      "metarRaw": "METAR LEMD 020330Z 17003KT 090V220 5000 BR -DZ SCT010 BKN024 BKN033 08/08 Q1001 NOSIG",
      "tafRaw": null
    },
    {
      "icao": "EDDK",
      "iata": "CGN",
      "name": "Cologne Bonn Airport",
      "lat": 50.865898,
      "lon": 7.14274,
      "updatedAt": "020320Z",
      "visibility_m": 10000,
      "taf_visibility_m": 10000,
      "worst_visibility_m": 10000,
      "ceiling_ft": 1200,
      "hazards": [
        "RA"
      ],
      "severityScore": 24,
      "metarRaw": "METAR EDDK 020320Z AUTO 12006KT 9999 FEW041 04/01 Q1002 NOSIG",
      "tafRaw": "TAF EDDK 012300Z 0200/0306 11010KT 9999 BKN012 \n  BECMG 0200/0203 SCT012 BKN030 \n  PROB40 \n  TEMPO 0203/0207 RA"
    },
    {
      "icao": "LIPQ",
      "iata": "TRS",
      "name": "Trieste–Friuli Venezia Giulia Airport",
      "lat": 45.827499,
      "lon": 13.4722,
      "updatedAt": "020320Z",
      "visibility_m": 10000,
      "taf_visibility_m": 4000,
      "worst_visibility_m": 4000,
      "ceiling_ft": 1400,
      "hazards": [
        "RA"
      ],
      "severityScore": 24,
      "metarRaw": "METAR LIPQ 020320Z AUTO VRB01KT 9999 NCD 01/M02 Q1008",
      "tafRaw": "TAF LIPQ 012300Z 0200/0224 10008KT 9999 FEW045 \n  BECMG 0222/0224 4000 RA BKN014 SCT045"
    },
    {
      "icao": "EHBK",
      "iata": "MST",
      "name": "Maastricht Aachen Airport",
      "lat": 50.911701,
      "lon": 5.77014,
      "updatedAt": "020325Z",
      "visibility_m": 8000,
      "taf_visibility_m": 6000,
      "worst_visibility_m": 6000,
      "ceiling_ft": 4600,
      "hazards": [
        "RA",
        "DZ"
      ],
      "severityScore": 22,
      "metarRaw": "METAR EHBK 020325Z AUTO 10011KT 8000 -RADZ FEW015CB SCT030 BKN046 05/04 Q1000",
      "tafRaw": "TAF EHBK 012315Z 0200/0306 09006KT 9999 OVC040 \n  PROB40 \n  TEMPO 0200/0212 6000 RA BKN014 \n  PROB40 \n  TEMPO 0303/0306 6000 RA"
    },
    {
      "icao": "LIME",
      "iata": "BGY",
      "name": "Milan Bergamo Airport / Antonio Locatelli Air Base",
      "lat": 45.670725,
      "lon": 9.709223,
      "updatedAt": "020320Z",
      "visibility_m": 9000,
      "taf_visibility_m": 3000,
      "worst_visibility_m": 3000,
      "ceiling_ft": null,
      "hazards": [
        "BR",
        "RA"
      ],
      "severityScore": 22,
      "metarRaw": "METAR LIME 020320Z 32001KT 9000 SCT035 04/03 Q1008 NOSIG",
      "tafRaw": "TAF LIME 012300Z 0200/0224 VRB05KT 7000 SCT050 \n  TEMPO 0211/0216 3000 BR \n  BECMG 0218/0220 4000 RA"
    },
    {
      "icao": "LIPX",
      "iata": "VRN",
      "name": "Verona Villafranca Valerio Catullo Airport",
      "lat": 45.394955,
      "lon": 10.887303,
      "updatedAt": "020320Z",
      "visibility_m": 6000,
      "taf_visibility_m": 4000,
      "worst_visibility_m": 4000,
      "ceiling_ft": null,
      "hazards": [
        "BR",
        "RA"
      ],
      "severityScore": 22,
      "metarRaw": "METAR LIPX 020320Z 36004KT 6000 NSC M01/M02 Q1008",
      "tafRaw": "TAF LIPX 012300Z 0200/0224 VRB05KT 9000 SCT045 \n  PROB40 \n  TEMPO 0205/0209 4000 BR \n  BECMG 0219/0221 RA \n  BECMG 0221/0223 08010KT"
    },
    {
      "icao": "LRCL",
      "iata": "CLJ",
      "name": "Cluj Avram Iancu International Airport",
      "lat": 46.787425,
      "lon": 23.684292,
      "updatedAt": "020330Z",
      "visibility_m": 10000,
      "taf_visibility_m": 3000,
      "worst_visibility_m": 3000,
      "ceiling_ft": 1000,
      "hazards": [
        "BR"
      ],
      "severityScore": 22,
      "metarRaw": "METAR LRCL 020330Z 06004KT 9999 SCT071 01/M02 Q1009",
      "tafRaw": "TAF LRCL 020200Z 0203/0212 VRB04KT CAVOK \n  TEMPO 0203/0205 3000 BR BKN010"
    },
    {
      "icao": "LRTM",
      "iata": "TGM",
      "name": "Târgu Mureş Transilvania International Airport",
      "lat": 46.467701,
      "lon": 24.4125,
      "updatedAt": "020330Z",
      "visibility_m": 10000,
      "taf_visibility_m": 3000,
      "worst_visibility_m": 3000,
      "ceiling_ft": 1000,
      "hazards": [
        "BR"
      ],
      "severityScore": 22,
      "metarRaw": "METAR LRTM 020330Z AUTO 08005KT 9999 NCD M00/M03 Q1010",
      "tafRaw": "TAF LRTM 020200Z 0203/0212 VRB04KT CAVOK \n  TEMPO 0203/0205 3000 BR BKN010"
    },
    {
      "icao": "OJAI",
      "iata": "AMM",
      "name": "Queen Alia International Airport",
      "lat": 31.7226009369,
      "lon": 35.9931983948,
      "updatedAt": "020300Z",
      "visibility_m": 5000,
      "taf_visibility_m": 2000,
      "worst_visibility_m": 2000,
      "ceiling_ft": 3000,
      "hazards": [
        "BR",
        "RA"
      ],
      "severityScore": 22,
      "metarRaw": "METAR OJAI 020300Z 08003KT 5000 HZ NSC 13/04 Q1016 NOSIG",
      "tafRaw": "TAF OJAI 012300Z 0200/0306 24014KT 5000 HZ NSC \n  PROB40 \n  TEMPO 0206/0218 23018KT 2000 BLDU \n  PROB40 \n  TEMPO 0209/0220 3000 DU \n  BECMG 0300/0302 SCT025TCU SCT030 \n  TEMPO 0303/0306 28018KT 3000 RA BR SCT025TCU BKN030"
    },
    {
      "icao": "ENGM",
      "iata": "OSL",
      "name": "Oslo-Gardermoen International Airport",
      "lat": 60.193901,
      "lon": 11.1004,
      "updatedAt": "020320Z",
      "visibility_m": 10000,
      "taf_visibility_m": 10000,
      "worst_visibility_m": 10000,
      "ceiling_ft": 3800,
      "hazards": [
        "SN"
      ],
      "severityScore": 18,
      "metarRaw": "METAR ENGM 020320Z 07003KT 030V100 9999 -SN SCT017 BKN038 M08/M10 Q1023",
      "tafRaw": "TAF ENGM 012300Z 0200/0224 06005KT 9999 -SN BKN040"
    },
    {
      "icao": "ESKN",
      "iata": "NYO",
      "name": "Stockholm Skavsta Airport",
      "lat": 58.789656,
      "lon": 16.911479,
      "updatedAt": "020320Z",
      "visibility_m": 6000,
      "taf_visibility_m": 2500,
      "worst_visibility_m": 2500,
      "ceiling_ft": 2900,
      "hazards": [
        "SN"
      ],
      "severityScore": 18,
      "metarRaw": "METAR ESKN 020320Z 09009KT 6000 -SN FEW020 BKN029 M06/M08 Q1026",
      "tafRaw": "TAF ESKN 020230Z 0203/0303 12010KT 9000 -SN SCT012 BKN030 \n  PROB40 0203/0210 2500 SN BKN012"
    },
    {
      "icao": "ESSA",
      "iata": "ARN",
      "name": "Stockholm-Arlanda Airport",
      "lat": 59.64849,
      "lon": 17.928829,
      "updatedAt": "020320Z",
      "visibility_m": 4000,
      "taf_visibility_m": 4000,
      "worst_visibility_m": 4000,
      "ceiling_ft": 2400,
      "hazards": [
        "SN"
      ],
      "severityScore": 18,
      "metarRaw": "METAR ESSA 020320Z 06005KT 9999 FEW017 OVC024 M08/M10 Q1028 TEMPO 4000",
      "tafRaw": "TAF ESSA 020230Z 0203/0303 07005KT 9000 -SN BKN025 \n  PROB40 0203/0207 4000 -SN"
    },
    {
      "icao": "LBPD",
      "iata": "PDV",
      "name": "Plovdiv International Airport",
      "lat": 42.067799,
      "lon": 24.8508,
      "updatedAt": "020330Z",
      "visibility_m": 6000,
      "taf_visibility_m": 5000,
      "worst_visibility_m": 5000,
      "ceiling_ft": 2000,
      "hazards": [
        "SN"
      ],
      "severityScore": 18,
      "metarRaw": "METAR LBPD 020330Z AUTO 29004KT 6000 SCT001/// OVC038/// M01/M01 Q1008",
      "tafRaw": "TAF LBPD 012300Z 0200/0224 VRB03KT 8000 SCT010 OVC020 \n  TEMPO 0200/0210 5000 -SN SCT020 BKN040 \n  BECMG 0212/0214 10010KT"
    },
    {
      "icao": "LYBE",
      "iata": "BEG",
      "name": "Belgrade Nikola Tesla Airport",
      "lat": 44.818401,
      "lon": 20.309099,
      "updatedAt": "020330Z",
      "visibility_m": 10000,
      "taf_visibility_m": 5000,
      "worst_visibility_m": 5000,
      "ceiling_ft": 4000,
      "hazards": [
        "SN"
      ],
      "severityScore": 18,
      "metarRaw": "METAR LYBE 020330Z 12010KT 9999 -SN BKN040 M03/M05 Q1011 NOSIG",
      "tafRaw": "TAF LYBE 012300Z 0200/0224 12014KT 9999 BKN035 TX02/0213Z TNM02/0206Z \n  TEMPO 0200/0206 5000 -SN BKN015 BKN030"
    },
    {
      "icao": "EPRA",
      "iata": "RDO",
      "name": "Warsaw Radom Airport",
      "lat": 51.38937,
      "lon": 21.214742,
      "updatedAt": "020330Z",
      "visibility_m": 10000,
      "taf_visibility_m": 10000,
      "worst_visibility_m": 10000,
      "ceiling_ft": null,
      "hazards": [
        "RA"
      ],
      "severityScore": 12,
      "metarRaw": "METAR EPRA 020330Z 07006KT CAVOK M20/M23 Q1018",
      "tafRaw": "TAF EPRA 020230Z 0203/0212 08008KT CAVOK"
    },
    {
      "icao": "EPWR",
      "iata": "WRO",
      "name": "Copernicus Wrocław Airport",
      "lat": 51.103719,
      "lon": 16.882096,
      "updatedAt": "020330Z",
      "visibility_m": 10000,
      "taf_visibility_m": 10000,
      "worst_visibility_m": 10000,
      "ceiling_ft": 1700,
      "hazards": [],
      "severityScore": 12,
      "metarRaw": "METAR EPWR 020330Z 09009KT 9999 OVC017 M09/M13 Q1014",
      "tafRaw": "TAF EPWR 020230Z 0203/0303 09010KT 9999 OVC017 \n  PROB30 0203/0209 BKN012"
    },
    {
      "icao": "LATI",
      "iata": "TIA",
      "name": "Tirana International Airport Mother Teresa",
      "lat": 41.4147,
      "lon": 19.7206,
      "updatedAt": null,
      "visibility_m": null,
      "taf_visibility_m": 10000,
      "worst_visibility_m": 10000,
      "ceiling_ft": 8000,
      "hazards": [
        "RA"
      ],
      "severityScore": 12,
      "metarRaw": null,
      "tafRaw": "TAF LATI 012300Z 0200/0224 VRB05KT 9999 FEW040 BKN080 TX12/0212Z TN04/0204Z \n  PROB30 \n  TEMPO 0212/0216 22010KT RA"
    },
    {
      "icao": "LEBB",
      "iata": "BIO",
      "name": "Bilbao Airport",
      "lat": 43.301102,
      "lon": -2.91061,
      "updatedAt": "020330Z",
      "visibility_m": 10000,
      "taf_visibility_m": 10000,
      "worst_visibility_m": 10000,
      "ceiling_ft": null,
      "hazards": [
        "RA"
      ],
      "severityScore": 12,
      "metarRaw": "METAR LEBB 020330Z AUTO 12011KT 080V150 9999 SCT056 15/08 Q0994",
      "tafRaw": "TAF LEBB 012300Z 0200/0224 14009KT 9999 FEW050 TX16/0212Z TN09/0224Z \n  PROB40 \n  TEMPO 0200/0206 08010KT \n  PROB30 \n  TEMPO 0200/0206 RA \n  BECMG 0211/0213 22012KT \n  PROB40 \n  TEMPO 0212/0224 22016G29KT \n  PROB30 \n  TEMPO 0212/0216 RA"
    },
    {
      "icao": "LEVC",
      "iata": "VLC",
      "name": "Valencia Airport",
      "lat": 39.4893,
      "lon": -0.481625,
      "updatedAt": "020330Z",
      "visibility_m": 10000,
      "taf_visibility_m": 10000,
      "worst_visibility_m": 10000,
      "ceiling_ft": null,
      "hazards": [
        "RA"
      ],
      "severityScore": 12,
      "metarRaw": "METAR LEVC 020330Z 32004KT CAVOK 10/09 Q1004 NOSIG",
      "tafRaw": "TAF LEVC 012300Z 0200/0224 VRB04KT 9999 FEW030 TX18/0213Z TN10/0206Z \n  PROB30 \n  TEMPO 0210/0216 RA \n  BECMG 0212/0214 25015KT \n  TEMPO 0214/0218 25018G28KT"
    },
    {
      "icao": "LEZG",
      "iata": "ZAZ",
      "name": "Zaragoza Airport",
      "lat": 41.666199,
      "lon": -1.04155,
      "updatedAt": "020330Z",
      "visibility_m": 10000,
      "taf_visibility_m": 3000,
      "worst_visibility_m": 3000,
      "ceiling_ft": 7000,
      "hazards": [
        "RA"
      ],
      "severityScore": 12,
      "metarRaw": "METAR LEZG 020330Z 08008KT 9999 -RA SCT045 BKN070 08/08 Q1002 NOSIG",
      "tafRaw": "TAF LEZG 012300Z 0200/0224 11009KT 9999 FEW050 TX13/0214Z TN07/0206Z \n  PROB40 \n  TEMPO 0200/0208 4000 RA \n  PROB40 \n  TEMPO 0210/0218 3000 RA \n  BECMG 0214/0217 24010KT"
    },
    {
      "icao": "LFLS",
      "iata": "GNB",
      "name": "Grenoble Alpes Isère Airport",
      "lat": 45.3629,
      "lon": 5.32937,
      "updatedAt": "020330Z",
      "visibility_m": 10000,
      "taf_visibility_m": 10000,
      "worst_visibility_m": 10000,
      "ceiling_ft": 5000,
      "hazards": [
        "RA"
      ],
      "severityScore": 12,
      "metarRaw": "METAR LFLS 020330Z AUTO 12004KT CAVOK 02/01 Q1003 NOSIG",
      "tafRaw": "TAF LFLS 020200Z 0203/0303 09005KT 9999 SCT055 \n  BECMG 0206/0209 24007KT \n  TEMPO 0215/0218 RA BKN050 \n  BECMG 0218/0220 VRB02KT \n  BECMG 0301/0303 20012KT"
    },
    {
      "icao": "LGAV",
      "iata": "ATH",
      "name": "Athens Eleftherios Venizelos International Airport",
      "lat": 37.936401,
      "lon": 23.9445,
      "updatedAt": "020320Z",
      "visibility_m": 10000,
      "taf_visibility_m": 5000,
      "worst_visibility_m": 5000,
      "ceiling_ft": 5000,
      "hazards": [
        "RA"
      ],
      "severityScore": 12,
      "metarRaw": "METAR LGAV 020320Z 29008KT 250V320 9999 FEW015 SCT025 BKN050 10/04 Q1001 NOSIG",
      "tafRaw": "TAF LGAV 012300Z 0200/0224 36010KT 9999 SCT025 SCT070 \n  PROB40 \n  TEMPO 0200/0203 5000 RA FEW015 FEW018TCU BKN025 BKN070 \n  BECMG 0201/0203 30010KT \n  BECMG 0212/0214 VRB05KT"
    },
    {
      "icao": "LICJ",
      "iata": "PMO",
      "name": "Falcone–Borsellino Airport",
      "lat": 38.175999,
      "lon": 13.091,
      "updatedAt": "020320Z",
      "visibility_m": 10000,
      "taf_visibility_m": 10000,
      "worst_visibility_m": 10000,
      "ceiling_ft": null,
      "hazards": [
        "RA"
      ],
      "severityScore": 12,
      "metarRaw": "METAR LICJ 020320Z 29014KT 9999 SCT030 14/09 Q1009",
      "tafRaw": "TAF LICJ 012300Z 0200/0224 28015KT 9999 SCT030 \n  TEMPO 0200/0203 RA \n  BECMG 0213/0215 22012KT"
    },
    {
      "icao": "LIMJ",
      "iata": "GOA",
      "name": "Genoa Cristoforo Colombo Airport",
      "lat": 44.412039,
      "lon": 8.840732,
      "updatedAt": "020320Z",
      "visibility_m": 10000,
      "taf_visibility_m": 3000,
      "worst_visibility_m": 3000,
      "ceiling_ft": 4000,
      "hazards": [
        "RA"
      ],
      "severityScore": 12,
      "metarRaw": "METAR LIMJ 020320Z 05016KT 9999 SCT020 BKN040 06/03 Q1006",
      "tafRaw": "TAF LIMJ 012300Z 0200/0224 04014KT 9999 OVC035 \n  TEMPO 0203/0216 RA \n  BECMG 0216/0218 3000 RA"
    },
    {
      "icao": "LIPZ",
      "iata": "VCE",
      "name": "Venice Marco Polo Airport",
      "lat": 45.505299,
      "lon": 12.3519,
      "updatedAt": "020320Z",
      "visibility_m": 10000,
      "taf_visibility_m": 4000,
      "worst_visibility_m": 4000,
      "ceiling_ft": null,
      "hazards": [
        "RA"
      ],
      "severityScore": 12,
      "metarRaw": "METAR LIPZ 020320Z 03006KT CAVOK 02/M02 Q1008 NOSIG",
      "tafRaw": "TAF LIPZ 012300Z 0200/0306 05006KT CAVOK \n  BECMG 0220/0222 4000 RA \n  BECMG 0300/0302 05016KT"
    },
    {
      "icao": "LIRP",
      "iata": "PSA",
      "name": "Pisa International Airport",
      "lat": 43.683899,
      "lon": 10.3927,
      "updatedAt": "020315Z",
      "visibility_m": 10000,
      "taf_visibility_m": 10000,
      "worst_visibility_m": 10000,
      "ceiling_ft": 2000,
      "hazards": [
        "RA"
      ],
      "severityScore": 12,
      "metarRaw": "METAR LIRP 020315Z 12004KT CAVOK 03/03 Q1008 NOSIG",
      "tafRaw": "TAF LIRP 012300Z 0200/0224 13005KT CAVOK \n  BECMG 0200/0202 9999 SCT015 SCT070 \n  TEMPO 0210/0218 RA BKN025 \n  BECMG 0218/0220 09010KT BKN020"
    },
    {
      "icao": "LJLJ",
      "iata": "LJU",
      "name": "Ljubljana Jože Pučnik Airport",
      "lat": 46.223701,
      "lon": 14.4576,
      "updatedAt": "020330Z",
      "visibility_m": 10000,
      "taf_visibility_m": 10000,
      "worst_visibility_m": 10000,
      "ceiling_ft": 1700,
      "hazards": [],
      "severityScore": 12,
      "metarRaw": "METAR LJLJ 020330Z VRB03KT 9999 OVC017 01/M01 Q1008 NOSIG",
      "tafRaw": "TAF LJLJ 012300Z 0200/0300 VRB02KT 9999 BKN025 OVC050"
    },
    {
      "icao": "UBBB",
      "iata": "GYD",
      "name": "Heydar Aliyev International Airport",
      "lat": 40.467498779296875,
      "lon": 50.04669952392578,
      "updatedAt": "020330Z",
      "visibility_m": 10000,
      "taf_visibility_m": 10000,
      "worst_visibility_m": 10000,
      "ceiling_ft": 1700,
      "hazards": [],
      "severityScore": 12,
      "metarRaw": "METAR UBBB 020330Z 33008KT 9999 OVC017 06/03 Q1020 NOSIG",
      "tafRaw": "TAF UBBB 012307Z 0200/0224 32010KT 9999 BKN010 BKN020 TX10/0210Z TN04/0200Z \n  TEMPO 0200/0204 35016KT BKN005 OVC017 \n  TEMPO 0204/0208 VRB04KT SCT006 \n  BECMG 0208/0210 16012KT \n  TEMPO 0210/0222 19018KT"
    },
    {
      "icao": "ENBR",
      "iata": "BGO",
      "name": "Bergen Airport, Flesland",
      "lat": 60.2934,
      "lon": 5.21814,
      "updatedAt": "020320Z",
      "visibility_m": 10000,
      "taf_visibility_m": 10000,
      "worst_visibility_m": 10000,
      "ceiling_ft": null,
      "hazards": [
        "BR"
      ],
      "severityScore": 10,
      "metarRaw": "METAR ENBR 020320Z 07005KT CAVOK M04/M14 Q1017 RMK WIND 1200FT 12010KT",
      "tafRaw": "TAF ENBR 012300Z 0200/0224 09005KT CAVOK"
    },
    {
      "icao": "HESX",
      "iata": "SPX",
      "name": "Sphinx International Airport",
      "lat": 30.108179,
      "lon": 30.895728,
      "updatedAt": "020300Z",
      "visibility_m": 10000,
      "taf_visibility_m": 1500,
      "worst_visibility_m": 1500,
      "ceiling_ft": null,
      "hazards": [],
      "severityScore": 10,
      "metarRaw": "METAR HESX 020300Z 23007KT CAVOK 15/00 Q1013 NOSIG",
      "tafRaw": "TAF HESX 012300Z 0200/0306 20012KT CAVOK \n  TEMPO 0201/0217 4000 SA NSC \n  PROB30 \n  TEMPO 0202/0208 23009KT 1500 HZ \n  BECMG 0212/0214 27014G24KT \n  PROB40 \n  TEMPO 0212/0216 3000 SA"
    },
    {
      "icao": "LIBR",
      "iata": "BDS",
      "name": "Brindisi Airport",
      "lat": 40.6576,
      "lon": 17.947001,
      "updatedAt": "020320Z",
      "visibility_m": 10000,
      "taf_visibility_m": 10000,
      "worst_visibility_m": 10000,
      "ceiling_ft": 3000,
      "hazards": [
        "BR"
      ],
      "severityScore": 10,
      "metarRaw": "METAR LIBR 020320Z 30014KT CAVOK 08/04 Q1005",
      "tafRaw": "TAF LIBR 012300Z 0200/0224 32012KT 9999 BKN030 \n  TEMPO 0200/0206 30018G28KT \n  BECMG 0214/0216 VRB05KT \n  BECMG 0220/0222 16010KT"
    },
    {
      "icao": "LIPR",
      "iata": "RMI",
      "name": "Federico Fellini International Airport",
      "lat": 44.020024,
      "lon": 12.612198,
      "updatedAt": "020320Z",
      "visibility_m": 10000,
      "taf_visibility_m": 2000,
      "worst_visibility_m": 2000,
      "ceiling_ft": null,
      "hazards": [
        "BR"
      ],
      "severityScore": 10,
      "metarRaw": "METAR LIPR 020320Z AUTO 25006KT 9999 NCD 03/01 Q1008",
      "tafRaw": "TAF LIPR 012300Z 0200/0224 26005KT 9999 SCT050 \n  TEMPO 0200/0206 2000 BR \n  BECMG 0212/0214 07010KT \n  BECMG 0216/0218 14010KT"
    },
    {
      "icao": "LQBK",
      "iata": "BNX",
      "name": "Banja Luka International Airport",
      "lat": 44.941399,
      "lon": 17.297501,
      "updatedAt": "020330Z",
      "visibility_m": 10000,
      "taf_visibility_m": 3000,
      "worst_visibility_m": 3000,
      "ceiling_ft": 2300,
      "hazards": [
        "BR"
      ],
      "severityScore": 10,
      "metarRaw": "METAR LQBK 020330Z 05003KT 9999 BKN023 OVC047 01/M01 Q1010 NOSIG",
      "tafRaw": "TAF LQBK 012300Z 0200/0224 07005KT 9999 SCT015 OVC030 TX04/0214Z TNM01/0224Z \n  PROB40 \n  TEMPO 0200/0209 BKN010 OVC020 \n  TEMPO 0219/0224 3000 BR"
    },
    {
      "icao": "LRSM",
      "iata": "SUJ",
      "name": "Satu Mare International Airport",
      "lat": 47.7033,
      "lon": 22.8857,
      "updatedAt": "020330Z",
      "visibility_m": 10000,
      "taf_visibility_m": 3000,
      "worst_visibility_m": 3000,
      "ceiling_ft": 4000,
      "hazards": [
        "BR"
      ],
      "severityScore": 10,
      "metarRaw": "METAR LRSM 020330Z AUTO 00000KT 9999 SCT036/// OVC065/// M01/M03 Q1010",
      "tafRaw": "TAF LRSM 020200Z 0203/0212 35006KT 9999 BKN040 \n  TEMPO 0203/0206 3000 BR"
    },
    {
      "icao": "LYPG",
      "iata": "TGD",
      "name": "Podgorica Airport / Podgorica Golubovci Airbase",
      "lat": 42.359402,
      "lon": 19.2519,
      "updatedAt": "020330Z",
      "visibility_m": 10000,
      "taf_visibility_m": 3000,
      "worst_visibility_m": 3000,
      "ceiling_ft": 8000,
      "hazards": [
        "BR"
      ],
      "severityScore": 10,
      "metarRaw": "METAR LYPG 020330Z VRB01KT 9999 SCT080 04/02 Q1005 NOSIG",
      "tafRaw": "TAF LYPG 012300Z 0200/0224 02005KT 9999 FEW040 BKN080 TX09/0212Z TN02/0205Z \n  PROB40 \n  TEMPO 0203/0208 3000 BR"
    },
    {
      "icao": "EGGP",
      "iata": "LPL",
      "name": "Liverpool John Lennon Airport",
      "lat": 53.334863,
      "lon": -2.849637,
      "updatedAt": "020320Z",
      "visibility_m": 10000,
      "taf_visibility_m": null,
      "worst_visibility_m": 10000,
      "ceiling_ft": null,
      "hazards": [],
      "severityScore": 5,
      "metarRaw": "METAR EGGP 020320Z AUTO 07007KT 9999 OVC038/// 05/04 Q0999",
      "tafRaw": null
    },
    {
      "icao": "EGKK",
      "iata": "LGW",
      "name": "London Gatwick Airport",
      "lat": 51.148771,
      "lon": -0.192089,
      "updatedAt": "020320Z",
      "visibility_m": 10000,
      "taf_visibility_m": null,
      "worst_visibility_m": 10000,
      "ceiling_ft": null,
      "hazards": [],
      "severityScore": 5,
      "metarRaw": "METAR EGKK 020320Z 05006KT 9999 SCT009 07/07 Q0997",
      "tafRaw": null
    },
    {
      "icao": "EGNM",
      "iata": "LBA",
      "name": "Leeds Bradford Airport",
      "lat": 53.865898,
      "lon": -1.66057,
      "updatedAt": null,
      "visibility_m": null,
      "taf_visibility_m": null,
      "worst_visibility_m": null,
      "ceiling_ft": null,
      "hazards": [],
      "severityScore": 5,
      "metarRaw": null,
      "tafRaw": null
    },
    {
      "icao": "LCPH",
      "iata": "PFO",
      "name": "Paphos International Airport",
      "lat": 34.717999,
      "lon": 32.485699,
      "updatedAt": "020330Z",
      "visibility_m": 3000,
      "taf_visibility_m": null,
      "worst_visibility_m": 3000,
      "ceiling_ft": null,
      "hazards": [],
      "severityScore": 5,
      "metarRaw": "METAR LCPH 020330Z 32006KT 5000 DU FEW060 17/15 Q1008 TEMPO 3000 DU",
      "tafRaw": null
    },
    {
      "icao": "LECH",
      "iata": "CDT",
      "name": "Castellón-Costa Azahar Airport",
      "lat": 40.213889,
      "lon": 0.073333,
      "updatedAt": "020330Z",
      "visibility_m": 9000,
      "taf_visibility_m": null,
      "worst_visibility_m": 9000,
      "ceiling_ft": null,
      "hazards": [],
      "severityScore": 5,
      "metarRaw": "METAR LECH 020330Z AUTO 21005KT 160V250 9000 FEW070 06/04 Q1004",
      "tafRaw": null
    },
    {
      "icao": "LFPO",
      "iata": "ORY",
      "name": "Paris-Orly Airport",
      "lat": 48.72333,
      "lon": 2.37944,
      "updatedAt": "020330Z",
      "visibility_m": 10000,
      "taf_visibility_m": null,
      "worst_visibility_m": 10000,
      "ceiling_ft": null,
      "hazards": [],
      "severityScore": 5,
      "metarRaw": "METAR LFPO 020330Z 24003KT CAVOK 04/03 Q0998 NOSIG",
      "tafRaw": null
    },
    {
      "icao": "LKMT",
      "iata": "OSR",
      "name": "Leoš Janáček Airport Ostrava",
      "lat": 49.696301,
      "lon": 18.111099,
      "updatedAt": "020330Z",
      "visibility_m": 8000,
      "taf_visibility_m": null,
      "worst_visibility_m": 8000,
      "ceiling_ft": 3300,
      "hazards": [],
      "severityScore": 5,
      "metarRaw": "METAR LKMT 020330Z 05006KT 8000 FEW014 OVC033 M08/M10 Q1012 NOSIG",
      "tafRaw": null
    },
    {
      "icao": "LPMA",
      "iata": "FNC",
      "name": "Cristiano Ronaldo International Airport",
      "lat": 32.697812,
      "lon": -16.774613,
      "updatedAt": "020330Z",
      "visibility_m": 10000,
      "taf_visibility_m": null,
      "worst_visibility_m": 10000,
      "ceiling_ft": null,
      "hazards": [],
      "severityScore": 5,
      "metarRaw": "METAR LPMA 020330Z 36014KT 9999 SCT015 17/08 Q1013",
      "tafRaw": null
    },
    {
      "icao": "BIKF",
      "iata": "KEF",
      "name": "Keflavik International Airport",
      "lat": 63.985001,
      "lon": -22.6056,
      "updatedAt": "020330Z",
      "visibility_m": 10000,
      "taf_visibility_m": 10000,
      "worst_visibility_m": 10000,
      "ceiling_ft": 26000,
      "hazards": [],
      "severityScore": 0,
      "metarRaw": "METAR BIKF 020330Z 09015KT 9999 FEW023 BKN260 04/01 Q0999",
      "tafRaw": "TAF BIKF 020109Z 0203/0303 09016KT 9999 SCT025 BKN035 TX07/0215Z TN03/0303Z"
    },
    {
      "icao": "BKPR",
      "iata": "PRN",
      "name": "Priština Adem Jashari International Airport",
      "lat": 42.5728,
      "lon": 21.035801,
      "updatedAt": "020330Z",
      "visibility_m": 10000,
      "taf_visibility_m": 10000,
      "worst_visibility_m": 10000,
      "ceiling_ft": 3000,
      "hazards": [],
      "severityScore": 0,
      "metarRaw": "METAR BKPR 020330Z 35011KT 9999 SCT015 BKN030 M03/M05 Q1007 NOSIG",
      "tafRaw": "TAF BKPR 012330Z 0200/0224 04010KT 9999 SCT015 BKN030"
    },
    {
      "icao": "GCFV",
      "iata": "FUE",
      "name": "Fuerteventura Airport",
      "lat": 28.4527,
      "lon": -13.8638,
      "updatedAt": "020330Z",
      "visibility_m": 10000,
      "taf_visibility_m": 10000,
      "worst_visibility_m": 10000,
      "ceiling_ft": null,
      "hazards": [],
      "severityScore": 0,
      "metarRaw": "METAR GCFV 020330Z AUTO 32006KT CAVOK 16/12 Q1017",
      "tafRaw": "TAF GCFV 020200Z 0203/0303 27005KT 9999 FEW020 TX22/0214Z TN14/0206Z \n  BECMG 0209/0212 30015KT \n  TEMPO 0209/0220 30015G25KT \n  BECMG 0219/0221 33005KT"
    },
    {
      "icao": "GCLP",
      "iata": "LPA",
      "name": "Gran Canaria Airport",
      "lat": 27.9319,
      "lon": -15.3866,
      "updatedAt": "020330Z",
      "visibility_m": 10000,
      "taf_visibility_m": 10000,
      "worst_visibility_m": 10000,
      "ceiling_ft": null,
      "hazards": [],
      "severityScore": 0,
      "metarRaw": "METAR GCLP 020330Z 24004KT 9999 FEW020 15/09 Q1017 NOSIG",
      "tafRaw": "TAF GCLP 020200Z 0203/0303 34006KT 9999 FEW020 TX23/0214Z TN15/0206Z \n  PROB40 \n  TEMPO 0209/0215 18010KT \n  BECMG 0214/0216 36020KT \n  PROB30 \n  TEMPO 0216/0220 36020G30KT"
    },
    {
      "icao": "EDDB",
      "iata": "BER",
      "name": "Berlin Brandenburg Willy Brandt Airport",
      "lat": 52.361738,
      "lon": 13.502341,
      "updatedAt": "020320Z",
      "visibility_m": 10000,
      "taf_visibility_m": 10000,
      "worst_visibility_m": 10000,
      "ceiling_ft": 4100,
      "hazards": [],
      "severityScore": 0,
      "metarRaw": "METAR EDDB 020320Z AUTO 09011KT 9999 OVC041 M07/M13 Q1013 NOSIG",
      "tafRaw": "TAF EDDB 012300Z 0200/0224 08010KT 9999 OVC030"
    },
    {
      "icao": "EDDH",
      "iata": "HAM",
      "name": "Hamburg Helmut Schmidt Airport",
      "lat": 53.630402,
      "lon": 9.98823,
      "updatedAt": "020320Z",
      "visibility_m": 10000,
      "taf_visibility_m": 10000,
      "worst_visibility_m": 10000,
      "ceiling_ft": 2500,
      "hazards": [],
      "severityScore": 0,
      "metarRaw": "METAR EDDH 020320Z AUTO 10013KT 9999 FEW017 OVC025 M06/M10 Q1011 NOSIG",
      "tafRaw": "TAF EDDH 012300Z 0200/0306 11011KT 9999 OVC020 \n  TEMPO 0200/0306 OVC013"
    },
    {
      "icao": "EKBI",
      "iata": "BLL",
      "name": "Billund Airport",
      "lat": 55.740335,
      "lon": 9.157019,
      "updatedAt": "020320Z",
      "visibility_m": 10000,
      "taf_visibility_m": 10000,
      "worst_visibility_m": 10000,
      "ceiling_ft": 3000,
      "hazards": [],
      "severityScore": 0,
      "metarRaw": "METAR EKBI 020320Z AUTO 10013KT 9999 FEW043/// M05/M10 Q1014",
      "tafRaw": "TAF EKBI 020227Z 0203/0303 10016KT 9999 BKN030 \n  TEMPO 0203/0303 11018G28KT"
    },
    {
      "icao": "EKCH",
      "iata": "CPH",
      "name": "Copenhagen Kastrup Airport",
      "lat": 55.617900848389,
      "lon": 12.656000137329,
      "updatedAt": "020320Z",
      "visibility_m": 10000,
      "taf_visibility_m": 10000,
      "worst_visibility_m": 10000,
      "ceiling_ft": null,
      "hazards": [],
      "severityScore": 0,
      "metarRaw": "METAR EKCH 020320Z AUTO 10016KT 9999 FEW028/// M05/M11 Q1018 TEMPO 10015G28KT",
      "tafRaw": "TAF EKCH 020227Z 0203/0303 10015KT 9999 FEW030 \n  TEMPO 0203/0303 11016G26KT"
    },
    {
      "icao": "ENAL",
      "iata": "AES",
      "name": "Ålesund Airport, Vigra",
      "lat": 62.5625,
      "lon": 6.1197,
      "updatedAt": "020320Z",
      "visibility_m": 10000,
      "taf_visibility_m": 10000,
      "worst_visibility_m": 10000,
      "ceiling_ft": null,
      "hazards": [],
      "severityScore": 0,
      "metarRaw": "METAR ENAL 020320Z AUTO 14013KT 9999 NCD M02/M10 Q1018",
      "tafRaw": "TAF ENAL 020200Z 0203/0212 13012KT CAVOK"
    },
    {
      "icao": "ENHD",
      "iata": "HAU",
      "name": "Haugesund Airport, Karmøy",
      "lat": 59.345299,
      "lon": 5.20836,
      "updatedAt": "020320Z",
      "visibility_m": 10000,
      "taf_visibility_m": 10000,
      "worst_visibility_m": 10000,
      "ceiling_ft": null,
      "hazards": [],
      "severityScore": 0,
      "metarRaw": "METAR ENHD 020320Z AUTO 10010KT 090V150 9999 NCD M02/M11 Q1017",
      "tafRaw": "TAF ENHD 020200Z 0203/0212 11012KT CAVOK"
    },
    {
      "icao": "ENTO",
      "iata": "TRF",
      "name": "Sandefjord Airport, Torp",
      "lat": 59.186699,
      "lon": 10.2586,
      "updatedAt": "020320Z",
      "visibility_m": 10000,
      "taf_visibility_m": 10000,
      "worst_visibility_m": 10000,
      "ceiling_ft": 3000,
      "hazards": [],
      "severityScore": 0,
      "metarRaw": "METAR ENTO 020320Z AUTO 08003KT 030V130 9999 OVC031/// M06/M11 Q1023",
      "tafRaw": "TAF ENTO 012300Z 0200/0224 09005KT 9999 BKN030"
    },
    {
      "icao": "ENVA",
      "iata": "TRD",
      "name": "Trondheim Airport, Værnes",
      "lat": 63.457802,
      "lon": 10.924,
      "updatedAt": "020320Z",
      "visibility_m": 10000,
      "taf_visibility_m": 10000,
      "worst_visibility_m": 10000,
      "ceiling_ft": null,
      "hazards": [],
      "severityScore": 0,
      "metarRaw": "METAR ENVA 020320Z AUTO 08007KT 9999 NCD M08/M14 Q1021 RMK WIND 670FT 13012KT",
      "tafRaw": "TAF ENVA 012300Z 0200/0224 12008KT CAVOK"
    },
    {
      "icao": "ENZV",
      "iata": "SVG",
      "name": "Stavanger Airport, Sola",
      "lat": 58.876701,
      "lon": 5.63778,
      "updatedAt": "020320Z",
      "visibility_m": 10000,
      "taf_visibility_m": 10000,
      "worst_visibility_m": 10000,
      "ceiling_ft": null,
      "hazards": [],
      "severityScore": 0,
      "metarRaw": "METAR ENZV 020320Z AUTO 11006KT 9999 NCD M02/M12 Q1017",
      "tafRaw": "TAF ENZV 012300Z 0200/0224 10010KT CAVOK"
    },
    {
      "icao": "EPGD",
      "iata": "GDN",
      "name": "Gdańsk Lech Wałęsa Airport",
      "lat": 54.377602,
      "lon": 18.4662,
      "updatedAt": "020330Z",
      "visibility_m": 10000,
      "taf_visibility_m": 10000,
      "worst_visibility_m": 10000,
      "ceiling_ft": null,
      "hazards": [],
      "severityScore": 0,
      "metarRaw": "METAR EPGD 020330Z 11008KT CAVOK M20/M22 Q1021",
      "tafRaw": "TAF EPGD 012330Z 0200/0224 11008KT CAVOK"
    },
    {
      "icao": "EPLB",
      "iata": "LUZ",
      "name": "Lublin Airport",
      "lat": 51.240157,
      "lon": 22.713461,
      "updatedAt": "020330Z",
      "visibility_m": 10000,
      "taf_visibility_m": 10000,
      "worst_visibility_m": 10000,
      "ceiling_ft": null,
      "hazards": [],
      "severityScore": 0,
      "metarRaw": "METAR EPLB 020330Z 06008KT CAVOK M21/M23 Q1019",
      "tafRaw": "TAF EPLB 012330Z 0200/0224 09012KT CAVOK"
    },
    {
      "icao": "EPMO",
      "iata": "WMI",
      "name": "Modlin Airport",
      "lat": 52.451099,
      "lon": 20.6518,
      "updatedAt": "020330Z",
      "visibility_m": 10000,
      "taf_visibility_m": 10000,
      "worst_visibility_m": 10000,
      "ceiling_ft": null,
      "hazards": [],
      "severityScore": 0,
      "metarRaw": "METAR EPMO 020330Z 06011KT CAVOK M20/M22 Q1021",
      "tafRaw": "TAF EPMO 012330Z 0200/0224 08012KT CAVOK"
    },
    {
      "icao": "EPPO",
      "iata": "POZ",
      "name": "Poznań-Ławica Airport",
      "lat": 52.421598,
      "lon": 16.823359,
      "updatedAt": "020330Z",
      "visibility_m": 10000,
      "taf_visibility_m": 10000,
      "worst_visibility_m": 10000,
      "ceiling_ft": 3100,
      "hazards": [],
      "severityScore": 0,
      "metarRaw": "METAR EPPO 020330Z 08011KT 9999 BKN031 M14/M17 Q1016",
      "tafRaw": "TAF EPPO 012330Z 0200/0224 09010KT CAVOK"
    },
    {
      "icao": "EPRZ",
      "iata": "RZE",
      "name": "Rzeszów-Jasionka Airport",
      "lat": 50.109791,
      "lon": 22.024155,
      "updatedAt": "020330Z",
      "visibility_m": 10000,
      "taf_visibility_m": 10000,
      "worst_visibility_m": 10000,
      "ceiling_ft": 4300,
      "hazards": [],
      "severityScore": 0,
      "metarRaw": "METAR EPRZ 020330Z 07013KT 9999 OVC043 M12/M17 Q1016",
      "tafRaw": "TAF EPRZ 012330Z 0200/0224 07011KT 9999 BKN045 \n  TEMPO 0200/0209 BKN013 \n  PROB30 \n  TEMPO 0203/0208 BKN009 \n  BECMG 0218/0221 BKN012"
    },
    {
      "icao": "EPSC",
      "iata": "SZZ",
      "name": "Solidarity Szczecin–Goleniów Airport",
      "lat": 53.584702,
      "lon": 14.9022,
      "updatedAt": "020330Z",
      "visibility_m": 10000,
      "taf_visibility_m": 10000,
      "worst_visibility_m": 10000,
      "ceiling_ft": null,
      "hazards": [],
      "severityScore": 0,
      "metarRaw": "METAR EPSC 020330Z 09008KT CAVOK M14/M17 Q1017",
      "tafRaw": "TAF EPSC 012330Z 0200/0224 11012KT CAVOK"
    },
    {
      "icao": "EPSY",
      "iata": "SZY",
      "name": "Olsztyn-Mazury Airport",
      "lat": 53.481899,
      "lon": 20.9377,
      "updatedAt": "020330Z",
      "visibility_m": 10000,
      "taf_visibility_m": 10000,
      "worst_visibility_m": 10000,
      "ceiling_ft": null,
      "hazards": [],
      "severityScore": 0,
      "metarRaw": "METAR EPSY 020330Z 04004KT CAVOK M22/M24 Q1022",
      "tafRaw": "TAF EPSY 020230Z 0203/0212 05005KT CAVOK"
    },
    {
      "icao": "EPWA",
      "iata": "WAW",
      "name": "Warsaw Chopin Airport",
      "lat": 52.165699,
      "lon": 20.9671,
      "updatedAt": "020330Z",
      "visibility_m": 10000,
      "taf_visibility_m": 10000,
      "worst_visibility_m": 10000,
      "ceiling_ft": null,
      "hazards": [],
      "severityScore": 0,
      "metarRaw": "METAR EPWA 020330Z 09009KT CAVOK M18/M21 Q1020 NOSIG",
      "tafRaw": "TAF EPWA 020230Z 0203/0303 08010KT CAVOK"
    },
    {
      "icao": "ESGG",
      "iata": "GOT",
      "name": "Göteborg Landvetter Airport",
      "lat": 57.6628,
      "lon": 12.2798,
      "updatedAt": "020320Z",
      "visibility_m": 10000,
      "taf_visibility_m": 10000,
      "worst_visibility_m": 10000,
      "ceiling_ft": 2800,
      "hazards": [],
      "severityScore": 0,
      "metarRaw": "METAR ESGG 020320Z 10007KT 070V130 9999 OVC028 M07/M12 Q1021",
      "tafRaw": "TAF ESGG 020230Z 0203/0303 11008KT 9999 BKN027"
    },
    {
      "icao": "ESMS",
      "iata": "MMX",
      "name": "Malmö Sturup Airport",
      "lat": 55.535564,
      "lon": 13.376327,
      "updatedAt": "020320Z",
      "visibility_m": 10000,
      "taf_visibility_m": 10000,
      "worst_visibility_m": 10000,
      "ceiling_ft": null,
      "hazards": [],
      "severityScore": 0,
      "metarRaw": "METAR ESMS 020320Z 10016KT CAVOK M06/M13 Q1018",
      "tafRaw": "TAF ESMS 020227Z 0203/0303 10014KT 9999 FEW030 \n  TEMPO 0203/0303 11015G25KT"
    },
    {
      "icao": "EYPA",
      "iata": "PLQ",
      "name": "Palanga International Airport",
      "lat": 55.973202,
      "lon": 21.093901,
      "updatedAt": "020320Z",
      "visibility_m": 10000,
      "taf_visibility_m": 10000,
      "worst_visibility_m": 10000,
      "ceiling_ft": null,
      "hazards": [],
      "severityScore": 0,
      "metarRaw": "METAR EYPA 020320Z 09003KT CAVOK M22/M25 Q1028",
      "tafRaw": "TAF EYPA 012300Z 0200/0224 VRB05KT CAVOK"
    },
    {
      "icao": "HEGN",
      "iata": "HRG",
      "name": "Hurghada International Airport",
      "lat": 27.176776,
      "lon": 33.796692,
      "updatedAt": "020300Z",
      "visibility_m": 10000,
      "taf_visibility_m": 10000,
      "worst_visibility_m": 10000,
      "ceiling_ft": null,
      "hazards": [],
      "severityScore": 0,
      "metarRaw": "METAR HEGN 020300Z 31002KT CAVOK 15/10 Q1014 NOSIG",
      "tafRaw": "TAF HEGN 012300Z 0200/0306 24008KT CAVOK \n  BECMG 0209/0211 13008KT"
    },
    {
      "icao": "HEMA",
      "iata": "RMF",
      "name": "Marsa Alam International Airport",
      "lat": 25.555548,
      "lon": 34.59245,
      "updatedAt": "020300Z",
      "visibility_m": 10000,
      "taf_visibility_m": 10000,
      "worst_visibility_m": 10000,
      "ceiling_ft": null,
      "hazards": [],
      "severityScore": 0,
      "metarRaw": "METAR HEMA 020300Z 23008KT CAVOK 17/13 Q1014 NOSIG",
      "tafRaw": "TAF HEMA 012300Z 0200/0306 24008KT CAVOK \n  BECMG 0209/0211 10008KT"
    },
    {
      "icao": "HESH",
      "iata": "SSH",
      "name": "Sharm El Sheikh International Airport",
      "lat": 27.977272,
      "lon": 34.394717,
      "updatedAt": "020300Z",
      "visibility_m": 10000,
      "taf_visibility_m": 10000,
      "worst_visibility_m": 10000,
      "ceiling_ft": null,
      "hazards": [],
      "severityScore": 0,
      "metarRaw": "METAR HESH 020300Z 24003KT CAVOK 18/08 Q1014 NOSIG",
      "tafRaw": "TAF HESH 012300Z 0200/0306 26008KT CAVOK \n  BECMG 0209/0211 16008KT"
    },
    {
      "icao": "LIBD",
      "iata": "BRI",
      "name": "Bari Karol Wojtyła International Airport",
      "lat": 41.138901,
      "lon": 16.760599,
      "updatedAt": "020320Z",
      "visibility_m": 10000,
      "taf_visibility_m": 10000,
      "worst_visibility_m": 10000,
      "ceiling_ft": null,
      "hazards": [],
      "severityScore": 0,
      "metarRaw": "METAR LIBD 020320Z 27008KT CAVOK 07/03 Q1006",
      "tafRaw": "TAF LIBD 012300Z 0200/0224 26010KT 9999 FEW030 \n  BECMG 0210/0212 33008KT \n  BECMG 0216/0218 18010KT"
    },
    {
      "icao": "LIBG",
      "iata": "TAR",
      "name": "Taranto-Grottaglie Marcello Arlotta Airport",
      "lat": 40.517502,
      "lon": 17.4032,
      "updatedAt": null,
      "visibility_m": null,
      "taf_visibility_m": 10000,
      "worst_visibility_m": 10000,
      "ceiling_ft": null,
      "hazards": [],
      "severityScore": 0,
      "metarRaw": null,
      "tafRaw": "TAF LIBG 011700Z 0118/0203 34010KT 9999 FEW030"
    },
    {
      "icao": "LIBP",
      "iata": "PSR",
      "name": "Abruzzo Airport",
      "lat": 42.431079,
      "lon": 14.182981,
      "updatedAt": "020320Z",
      "visibility_m": 10000,
      "taf_visibility_m": 10000,
      "worst_visibility_m": 10000,
      "ceiling_ft": null,
      "hazards": [],
      "severityScore": 0,
      "metarRaw": "METAR LIBP 020320Z 20004KT CAVOK 02/01 Q1007",
      "tafRaw": "TAF LIBP 012300Z 0200/0224 VRB05KT 9999 SCT050"
    },
    {
      "icao": "LICC",
      "iata": "CTA",
      "name": "Catania-Fontanarossa Airport",
      "lat": 37.466801,
      "lon": 15.0664,
      "updatedAt": "020320Z",
      "visibility_m": 10000,
      "taf_visibility_m": 10000,
      "worst_visibility_m": 10000,
      "ceiling_ft": null,
      "hazards": [],
      "severityScore": 0,
      "metarRaw": "METAR LICC 020320Z 27011KT CAVOK 09/06 Q1008",
      "tafRaw": "TAF LICC 012300Z 0200/0224 28016KT 9999 SCT040 \n  TEMPO 0200/0210 28018G28KT"
    },
    {
      "icao": "LIPY",
      "iata": "AOI",
      "name": "Marche Airport",
      "lat": 43.616299,
      "lon": 13.3623,
      "updatedAt": "020320Z",
      "visibility_m": 10000,
      "taf_visibility_m": 10000,
      "worst_visibility_m": 10000,
      "ceiling_ft": null,
      "hazards": [],
      "severityScore": 0,
      "metarRaw": "METAR LIPY 020320Z AUTO 22003KT 9999 BKN046/// 06/03 Q1007",
      "tafRaw": "TAF LIPY 012300Z 0200/0224 26010KT 9999 SCT040 \n  BECMG 0212/0214 VRB05KT \n  BECMG 0216/0218 14010KT"
    },
    {
      "icao": "LIRF",
      "iata": "FCO",
      "name": "Rome–Fiumicino Leonardo da Vinci International Airport",
      "lat": 41.804532,
      "lon": 12.251998,
      "updatedAt": "020320Z",
      "visibility_m": 10000,
      "taf_visibility_m": 10000,
      "worst_visibility_m": 10000,
      "ceiling_ft": null,
      "hazards": [],
      "severityScore": 0,
      "metarRaw": "METAR LIRF 020320Z 02003KT CAVOK 02/M00 Q1007 NOSIG",
      "tafRaw": "TAF LIRF 012300Z 0200/0306 05007KT CAVOK \n  BECMG 0214/0216 16013KT \n  BECMG 0304/0306 16016G26KT"
    },
    {
      "icao": "LIRN",
      "iata": "NAP",
      "name": "Naples International Airport",
      "lat": 40.886002,
      "lon": 14.2908,
      "updatedAt": "020320Z",
      "visibility_m": 10000,
      "taf_visibility_m": 10000,
      "worst_visibility_m": 10000,
      "ceiling_ft": null,
      "hazards": [],
      "severityScore": 0,
      "metarRaw": "METAR LIRN 020320Z 30002KT CAVOK 05/01 Q1006 NOSIG",
      "tafRaw": "TAF LIRN 012300Z 0200/0224 06007KT 9999 FEW030 \n  BECMG 0214/0216 22012KT"
    },
    {
      "icao": "LLBG",
      "iata": "TLV",
      "name": "Ben Gurion International Airport",
      "lat": 32.011398,
      "lon": 34.8867,
      "updatedAt": "020320Z",
      "visibility_m": 10000,
      "taf_visibility_m": 5000,
      "worst_visibility_m": 5000,
      "ceiling_ft": null,
      "hazards": [],
      "severityScore": 0,
      "metarRaw": "METAR LLBG 020320Z 12008KT CAVOK 18/08 Q1012 NOSIG",
      "tafRaw": "TAF LLBG 012303Z 0200/0224 16007KT CAVOK \n  BECMG 0206/0208 25015KT 8000 \n  PROB40 \n  TEMPO 0210/0214 27018G28KT 5000 HZ \n  BECMG 0215/0217 VRB04KT \n  BECMG 0220/0222 16006KT 9999 FEW030 TX22/0209Z TN16/0203Z"
    },
    {
      "icao": "LRIA",
      "iata": "IAS",
      "name": "Iaşi Airport",
      "lat": 47.180278,
      "lon": 27.620833,
      "updatedAt": "020330Z",
      "visibility_m": 10000,
      "taf_visibility_m": 10000,
      "worst_visibility_m": 10000,
      "ceiling_ft": null,
      "hazards": [],
      "severityScore": 0,
      "metarRaw": "METAR LRIA 020330Z 02006KT CAVOK M11/M16 Q1018",
      "tafRaw": "TAF LRIA 020200Z 0203/0212 03008KT CAVOK"
    },
    {
      "icao": "LRBC",
      "iata": "BCM",
      "name": "Bacău George Enescu International  Airport",
      "lat": 46.5219,
      "lon": 26.910299,
      "updatedAt": "020330Z",
      "visibility_m": 10000,
      "taf_visibility_m": 10000,
      "worst_visibility_m": 10000,
      "ceiling_ft": 6900,
      "hazards": [],
      "severityScore": 0,
      "metarRaw": "METAR LRBC 020330Z 35007KT 9999 BKN069 M09/M12 Q1017",
      "tafRaw": "TAF LRBC 020200Z 0203/0212 35008KT 9999 BKN050"
    },
    {
      "icao": "LRSV",
      "iata": "SCV",
      "name": "Suceava Stefan cel Mare Airport",
      "lat": 47.6875,
      "lon": 26.35409927368164,
      "updatedAt": "020330Z",
      "visibility_m": 10000,
      "taf_visibility_m": 10000,
      "worst_visibility_m": 10000,
      "ceiling_ft": null,
      "hazards": [],
      "severityScore": 0,
      "metarRaw": "METAR LRSV 020330Z 06005KT CAVOK M13/M15 Q1014",
      "tafRaw": "TAF LRSV 020200Z 0203/0212 08008KT CAVOK"
    },
    {
      "icao": "LUKK",
      "iata": "RMO",
      "name": "Chişinău International Airport",
      "lat": 46.9277,
      "lon": 28.931,
      "updatedAt": "020330Z",
      "visibility_m": 10000,
      "taf_visibility_m": 10000,
      "worst_visibility_m": 10000,
      "ceiling_ft": null,
      "hazards": [],
      "severityScore": 0,
      "metarRaw": "METAR LUKK 020330Z 03011KT CAVOK M12/M16 Q1018 NOSIG",
      "tafRaw": "TAF LUKK 012304Z 0200/0224 03009KT CAVOK"
    },
    {
      "icao": "LWOH",
      "iata": "OHD",
      "name": "Ohrid St. Paul the Apostle Airport",
      "lat": 41.18,
      "lon": 20.7423,
      "updatedAt": null,
      "visibility_m": null,
      "taf_visibility_m": 10000,
      "worst_visibility_m": 10000,
      "ceiling_ft": 3500,
      "hazards": [],
      "severityScore": 0,
      "metarRaw": null,
      "tafRaw": "TAF LWOH 020210Z 0203/0303 30005KT 9999 SCT020 BKN035 \n  BECMG 0211/0213 16010KT"
    },
    {
      "icao": "LWSK",
      "iata": "SKP",
      "name": "Skopje International Airport",
      "lat": 41.958087,
      "lon": 21.622581,
      "updatedAt": null,
      "visibility_m": null,
      "taf_visibility_m": 10000,
      "worst_visibility_m": 10000,
      "ceiling_ft": 3500,
      "hazards": [],
      "severityScore": 0,
      "metarRaw": null,
      "tafRaw": "TAF LWSK 020210Z 0203/0303 02006KT 9999 FEW020 OVC035"
    },
    {
      "icao": "LYNI",
      "iata": "INI",
      "name": "Niš Constantine the Great Airport",
      "lat": 43.336538,
      "lon": 21.856242,
      "updatedAt": "020330Z",
      "visibility_m": 10000,
      "taf_visibility_m": 10000,
      "worst_visibility_m": 10000,
      "ceiling_ft": 3700,
      "hazards": [],
      "severityScore": 0,
      "metarRaw": "METAR LYNI 020330Z 05006KT 020V080 9999 BKN037 M03/M07 Q1010 NOSIG",
      "tafRaw": "TAF LYNI 012300Z 0200/0224 06008KT 9999 BKN030 BKN070 TX00/0213Z TNM04/0206Z"
    },
    {
      "icao": "LZKZ",
      "iata": "KSC",
      "name": "Košice International Airport",
      "lat": 48.663101,
      "lon": 21.2411,
      "updatedAt": "020330Z",
      "visibility_m": 10000,
      "taf_visibility_m": 10000,
      "worst_visibility_m": 10000,
      "ceiling_ft": 3000,
      "hazards": [],
      "severityScore": 0,
      "metarRaw": "METAR LZKZ 020330Z 04006KT CAVOK M02/M05 Q1010 NOSIG",
      "tafRaw": "TAF LZKZ 012315Z 0200/0300 01014KT 9999 BKN030 \n  BECMG 0200/0202 01004KT"
    },
    {
      "icao": "OEJN",
      "iata": "JED",
      "name": "King Abdulaziz International Airport",
      "lat": 21.6796,
      "lon": 39.156502,
      "updatedAt": "020300Z",
      "visibility_m": 10000,
      "taf_visibility_m": 7000,
      "worst_visibility_m": 7000,
      "ceiling_ft": null,
      "hazards": [],
      "severityScore": 0,
      "metarRaw": "METAR OEJN 020300Z 14002KT CAVOK 25/18 Q1013 NOSIG",
      "tafRaw": "TAF OEJN 012300Z 0200/0306 VRB03KT 7000 FEW040 \n  BECMG 0206/0208 23010KT \n  BECMG 0218/0220 VRB03KT SCT040"
    },
    {
      "icao": "OEMA",
      "iata": "MED",
      "name": "Prince Mohammad Bin Abdulaziz Airport",
      "lat": 24.5534,
      "lon": 39.705101,
      "updatedAt": "020300Z",
      "visibility_m": 10000,
      "taf_visibility_m": 7000,
      "worst_visibility_m": 7000,
      "ceiling_ft": null,
      "hazards": [],
      "severityScore": 0,
      "metarRaw": "METAR OEMA 020300Z 36005KT CAVOK 19/06 Q1018 NOSIG",
      "tafRaw": "TAF OEMA 012300Z 0200/0306 VRB03KT 9999 FEW045 \n  BECMG 0206/0208 20010KT 7000 SCT045 \n  BECMG 0218/0220 27005KT"
    }
  ],
  "stats": {
    "icaoCount": 159,
    "metarReturned": 152,
    "tafReturned": 143,
    "stationsWritten": 159,
    "missingMetar": 7,
    "missingTaf": 16
  },
  "errors": []
}