{
  "generatedAt": "2026-01-16T02:09:42.144Z",
  "stations": [
    {
      "icao": "BKPR",
      "iata": "PRN",
      "name": "Priština Adem Jashari International Airport",
      "updatedAt": "160200Z",
      "visibility_m": 8000,
      "taf_visibility_m": 300,
      "worst_visibility_m": 300,
      "ceiling_ft": 5500,
      "hazards": [
        "FZFG",
        "BR",
        "FG"
      ],
      "severityScore": 100,
      "metarRaw": "METAR BKPR 160200Z VRB01KT 8000 BKN055 03/02 Q1023 NOSIG",
      "tafRaw": "TAF BKPR 152330Z 1600/1624 VRB03KT 9999 SCT050 \n  TEMPO 1602/1609 3000 BR \n  PROB30 1603/1608 0300 FZFG BKN003"
    },
    {
      "icao": "EDDH",
      "iata": "HAM",
      "name": "Hamburg Helmut Schmidt Airport",
      "updatedAt": "160150Z",
      "visibility_m": 10000,
      "taf_visibility_m": 500,
      "worst_visibility_m": 500,
      "ceiling_ft": 100,
      "hazards": [
        "FG",
        "BR"
      ],
      "severityScore": 100,
      "metarRaw": "METAR EDDH 160150Z AUTO 15012KT CAVOK 07/05 Q1009 NOSIG",
      "tafRaw": "TAF EDDH 152300Z 1600/1706 15008KT CAVOK \n  BECMG 1610/1612 23009KT \n  BECMG 1614/1616 17003KT \n  BECMG 1623/1701 11005KT \n  PROB40 \n  TEMPO 1701/1706 3500 BR \n  PROB30 \n  TEMPO 1704/1706 0500 FG OVC001"
    },
    {
      "icao": "EDDN",
      "iata": "NUE",
      "name": "Nuremberg Airport",
      "updatedAt": "160150Z",
      "visibility_m": 1900,
      "taf_visibility_m": 800,
      "worst_visibility_m": 800,
      "ceiling_ft": 100,
      "hazards": [
        "BR",
        "FZFG",
        "FG"
      ],
      "severityScore": 100,
      "metarRaw": "METAR EDDN 160150Z AUTO 12004KT 4500 1900 BR NSC 00/M01 Q1015",
      "tafRaw": "TAF EDDN 152300Z 1600/1624 12007KT CAVOK \n  BECMG 1618/1621 4000 BR OVC002 \n  PROB40 \n  TEMPO 1619/1624 0800 FZFG OVC001"
    },
    {
      "icao": "EGBB",
      "iata": "BHX",
      "name": "Birmingham Airport",
      "updatedAt": "160150Z",
      "visibility_m": 4000,
      "taf_visibility_m": 300,
      "worst_visibility_m": 300,
      "ceiling_ft": 1900,
      "hazards": [
        "BR",
        "FG",
        "RA",
        "SHRA"
      ],
      "severityScore": 100,
      "metarRaw": "METAR EGBB 160150Z 18004KT 4000 BR SCT003 BKN019 04/03 Q1000",
      "tafRaw": "TAF EGBB 152256Z 1600/1624 21006KT 9999 BKN020 \n  TEMPO 1600/1609 4000 BR BKN003 \n  PROB40 \n  TEMPO 1600/1609 0300 FG BKN000 \n  PROB30 \n  TEMPO 1604/1608 SHRA \n  TEMPO 1609/1611 7000 BKN008 \n  TEMPO 1620/1624 BKN009 \n  TEMPO 1622/1624 7000 RA \n  PROB30 \n  TEMPO 1622/1624 4000 +RA BKN004"
    },
    {
      "icao": "EGGP",
      "iata": "LPL",
      "name": "Liverpool John Lennon Airport",
      "updatedAt": "160150Z",
      "visibility_m": 200,
      "taf_visibility_m": 300,
      "worst_visibility_m": 200,
      "ceiling_ft": 400,
      "hazards": [
        "FG",
        "BR",
        "RA",
        "DZ"
      ],
      "severityScore": 100,
      "metarRaw": "METAR EGGP 160150Z AUTO 16004KT 120V190 0200 R27/M0050N FG OVC002/// 02/02 Q0999",
      "tafRaw": "TAF EGGP 152300Z 1600/1624 VRB03KT 6000 FEW040 \n  TEMPO 1600/1611 3000 -DZ BR MIFG BKN004 \n  PROB40 1600/1606 0300 FG VV/// \n  PROB30 \n  TEMPO 1605/1608 RADZ \n  BECMG 1610/1613 15010KT 9999 \n  PROB30 \n  TEMPO 1621/1624 6000 RA BKN012"
    },
    {
      "icao": "EGGW",
      "iata": "LTN",
      "name": "London Luton Airport",
      "updatedAt": "160150Z",
      "visibility_m": 9000,
      "taf_visibility_m": 300,
      "worst_visibility_m": 300,
      "ceiling_ft": 100,
      "hazards": [
        "FG",
        "SHRA",
        "RA"
      ],
      "severityScore": 100,
      "metarRaw": "METAR EGGW 160150Z AUTO 24007KT 9000 NCD 03/02 Q1001",
      "tafRaw": "TAF EGGW 152253Z 1600/1624 27010KT 9999 SCT025 \n  TEMPO 1600/1610 6000 SCT002 BKN005 \n  PROB30 \n  TEMPO 1600/1610 0300 FG BKN001 \n  BECMG 1604/1607 18008KT \n  PROB30 \n  TEMPO 1610/1612 6000 SHRA BKN005 \n  PROB30 \n  TEMPO 1612/1619 7000 SHRA \n  PROB30 1621/1624 BKN006"
    },
    {
      "icao": "EGNM",
      "iata": "LBA",
      "name": "Leeds Bradford Airport",
      "updatedAt": null,
      "visibility_m": null,
      "taf_visibility_m": 300,
      "worst_visibility_m": 300,
      "ceiling_ft": 400,
      "hazards": [
        "FG",
        "BR",
        "RA",
        "DZ"
      ],
      "severityScore": 100,
      "metarRaw": null,
      "tafRaw": "TAF EGNM 151657Z 1518/1618 VRB03KT 9999 FEW010 \n  BECMG 1518/1521 7000 BKN008 \n  TEMPO 1518/1524 3000 RADZ BR BKN004 \n  PROB40 \n  TEMPO 1518/1524 0300 FG VV/// \n  TEMPO 1600/1612 4000 BR BKN004 \n  BECMG 1610/1613 17010KT 9999 SCT025 \n  PROB30 \n  TEMPO 1615/1618 8000 BKN009 \n  BECMG 1616/1618 11005KT"
    },
    {
      "icao": "EGPD",
      "iata": "ABZ",
      "name": "Aberdeen International Airport",
      "updatedAt": "160150Z",
      "visibility_m": 2000,
      "taf_visibility_m": 300,
      "worst_visibility_m": 300,
      "ceiling_ft": null,
      "hazards": [
        "BR",
        "FZFG",
        "FG"
      ],
      "severityScore": 100,
      "metarRaw": "METAR EGPD 160150Z AUTO VRB02KT 9999 NCD M03/M04 Q0998 TEMPO 2000 BR",
      "tafRaw": "TAF EGPD 152254Z 1600/1624 VRB03KT CAVOK \n  PROB30 \n  TEMPO 1600/1602 2000 BR MIFG \n  PROB30 1602/1610 0300 FZFG VV/// \n  TEMPO 1617/1624 2000 BR MIFG \n  PROB30 1620/1624 0300 FG VV///"
    },
    {
      "icao": "EKCH",
      "iata": "CPH",
      "name": "Copenhagen Kastrup Airport",
      "updatedAt": "160150Z",
      "visibility_m": 300,
      "taf_visibility_m": null,
      "worst_visibility_m": 300,
      "ceiling_ft": 200,
      "hazards": [
        "FG"
      ],
      "severityScore": 100,
      "metarRaw": "METAR EKCH 160150Z 15010KT 0300 R22L/0800N R04L/0900N R12/0800N FG VV002 04/04 Q1013 TEMPO 2000 BKN004",
      "tafRaw": null
    },
    {
      "icao": "ENGM",
      "iata": "OSL",
      "name": "Oslo-Gardermoen International Airport",
      "updatedAt": "160150Z",
      "visibility_m": 5000,
      "taf_visibility_m": 1000,
      "worst_visibility_m": 1000,
      "ceiling_ft": 300,
      "hazards": [
        "SHSN",
        "SN",
        "BR",
        "RA",
        "FZDZ",
        "DZ"
      ],
      "severityScore": 100,
      "metarRaw": "METAR ENGM 160150Z VRB01KT 5000 1800E -SHSN BKN003 OVC009 M00/M00 Q1010",
      "tafRaw": "TAF ENGM 152300Z 1600/1624 VRB03KT 5000 -SN BR BKN003 \n  TEMPO 1600/1605 1500 -FZDZ SNRA OVC006 \n  TEMPO 1605/1613 1000 RASN BR BKN006 \n  BECMG 1612/1614 18010KT RA \n  TEMPO 1613/1624 3000 BR BKN006"
    },
    {
      "icao": "EPGD",
      "iata": "GDN",
      "name": "Gdańsk Lech Wałęsa Airport",
      "updatedAt": "160200Z",
      "visibility_m": 2700,
      "taf_visibility_m": 500,
      "worst_visibility_m": 500,
      "ceiling_ft": 200,
      "hazards": [
        "BR",
        "FZFG",
        "FG"
      ],
      "severityScore": 100,
      "metarRaw": "METAR EPGD 160200Z 14008KT 2700 BR BKN002 M03/M03 Q1021",
      "tafRaw": "TAF EPGD 152330Z 1600/1624 16010KT 3000 BR BKN002 \n  TEMPO 1600/1610 1500 BR BKN001 \n  PROB40 1600/1609 0800 FZFG \n  BECMG 1610/1613 5000 BR OVC005 \n  BECMG 1613/1616 2000 BR BKN003 \n  TEMPO 1616/1624 0500 FZFG OVC001"
    },
    {
      "icao": "EPPO",
      "iata": "POZ",
      "name": "Poznań-Ławica Airport",
      "updatedAt": "160200Z",
      "visibility_m": 150,
      "taf_visibility_m": 200,
      "worst_visibility_m": 150,
      "ceiling_ft": 100,
      "hazards": [
        "FG",
        "BR",
        "DZ"
      ],
      "severityScore": 100,
      "metarRaw": "METAR EPPO 160200Z 11010KT 0150 R28/0550N FG VV001 01/00 Q1019",
      "tafRaw": "TAF EPPO 152330Z 1600/1624 13007KT 0800 FG BKN003 \n  TEMPO 1600/1609 0200 -DZ FG BKN001 \n  BECMG 1609/1612 3000 BR BKN005 \n  TEMPO 1609/1616 5000 BR SCT007 \n  BECMG 1616/1618 0800 FG BKN003 \n  TEMPO 1618/1624 0200 FG BKN001"
    },
    {
      "icao": "EPRA",
      "iata": "RDO",
      "name": "Warsaw Radom Airport",
      "updatedAt": "160200Z",
      "visibility_m": 5000,
      "taf_visibility_m": 700,
      "worst_visibility_m": 700,
      "ceiling_ft": 400,
      "hazards": [
        "BR",
        "RA",
        "FZFG",
        "FG"
      ],
      "severityScore": 100,
      "metarRaw": "METAR EPRA 160200Z 13007KT 5000 BR BKN004 M01/M02 Q1024",
      "tafRaw": "TAF EPRA 152330Z 1600/1609 12006KT 7000 BKN022 \n  TEMPO 1600/1608 3000 BR BKN005 OVC012 \n  PROB30 \n  TEMPO 1602/1607 0700 FZFG OVC002"
    },
    {
      "icao": "EPRZ",
      "iata": "RZE",
      "name": "Rzeszów-Jasionka Airport",
      "updatedAt": "160200Z",
      "visibility_m": 4000,
      "taf_visibility_m": 300,
      "worst_visibility_m": 300,
      "ceiling_ft": 300,
      "hazards": [
        "BR",
        "FG"
      ],
      "severityScore": 100,
      "metarRaw": "METAR EPRZ 160200Z 10008KT 4000 BR OVC003 01/00 Q1023",
      "tafRaw": "TAF EPRZ 152330Z 1600/1624 09006KT 3000 BR SCT002 OVC020 \n  TEMPO 1600/1606 0300 FG OVC002 \n  PROB40 \n  TEMPO 1600/1606 5000 BR \n  BECMG 1606/1609 CAVOK \n  PROB30 \n  TEMPO 1618/1624 3000 BR BKN004"
    },
    {
      "icao": "EPSC",
      "iata": "SZZ",
      "name": "Solidarity Szczecin–Goleniów Airport",
      "updatedAt": "160200Z",
      "visibility_m": 3200,
      "taf_visibility_m": 300,
      "worst_visibility_m": 300,
      "ceiling_ft": 400,
      "hazards": [
        "BR",
        "FG"
      ],
      "severityScore": 100,
      "metarRaw": "METAR EPSC 160200Z 13013KT 3200 BR SCT003 OVC004 02/02 Q1016",
      "tafRaw": "TAF EPSC 152330Z 1600/1624 13012KT 3000 BR BKN004 OVC020 \n  TEMPO 1600/1610 1500 BR \n  PROB40 1600/1608 0800 FG OVC001 \n  PROB40 1610/1615 6000 OVC005 \n  BECMG 1615/1618 0600 FG BKN002 \n  TEMPO 1617/1624 0300 FG OVC001"
    },
    {
      "icao": "EPWR",
      "iata": "WRO",
      "name": "Copernicus Wrocław Airport",
      "updatedAt": "160200Z",
      "visibility_m": 2300,
      "taf_visibility_m": 200,
      "worst_visibility_m": 200,
      "ceiling_ft": 100,
      "hazards": [
        "BR",
        "FZFG",
        "FG"
      ],
      "severityScore": 100,
      "metarRaw": "METAR EPWR 160200Z 12006KT 2300 BR NSC 01/01 Q1019",
      "tafRaw": "TAF EPWR 152330Z 1600/1624 12006KT 2500 BR BKN025 \n  TEMPO 1600/1609 0500 FG \n  PROB40 \n  TEMPO 1600/1609 0200 FZFG BKN001 \n  BECMG 1609/1612 8000 \n  BECMG 1615/1618 2000 BR \n  TEMPO 1616/1621 0500 FG BKN002 \n  BECMG 1621/1624 0300 FG BKN002"
    },
    {
      "icao": "ESMS",
      "iata": "MMX",
      "name": "Malmö Sturup Airport",
      "updatedAt": "160150Z",
      "visibility_m": 250,
      "taf_visibility_m": 200,
      "worst_visibility_m": 200,
      "ceiling_ft": 200,
      "hazards": [
        "FG",
        "BR"
      ],
      "severityScore": 100,
      "metarRaw": "METAR ESMS 160150Z 12008KT 0250 R17/1700N R35/1100N FG OVC002 03/03 Q1013",
      "tafRaw": "TAF ESMS 152327Z 1600/1624 14010KT 0200 FG OVC001 \n  TEMPO 1600/1602 3000 BR OVC005 \n  BECMG 1602/1604 5000 NSW FEW005 \n  TEMPO 1604/1608 1500 BR BKN004 \n  BECMG 1614/1617 3000 BR"
    },
    {
      "icao": "LBPD",
      "iata": "PDV",
      "name": "Plovdiv International Airport",
      "updatedAt": "160200Z",
      "visibility_m": 10000,
      "taf_visibility_m": 800,
      "worst_visibility_m": 800,
      "ceiling_ft": 200,
      "hazards": [
        "BR",
        "SN",
        "FG",
        "RA"
      ],
      "severityScore": 100,
      "metarRaw": "METAR LBPD 160200Z AUTO VRB02KT 9999 FEW072/// 02/01 Q1022",
      "tafRaw": "TAF LBPD 152300Z 1600/1624 VRB03KT 9999 SCT070 \n  BECMG 1600/1602 3000 BR BKN015 \n  PROB30 \n  TEMPO 1602/1605 0800 BCFG VV002 \n  BECMG 1606/1608 10010KT 9999 NSW BKN030 \n  TEMPO 1614/1618 5000 RASN BKN015 OVC030 \n  TEMPO 1618/1624 3000 SN BKN010 OVC020"
    },
    {
      "icao": "LBSF",
      "iata": "SOF",
      "name": "Sofia Airport",
      "updatedAt": "160200Z",
      "visibility_m": 10000,
      "taf_visibility_m": 600,
      "worst_visibility_m": 600,
      "ceiling_ft": 600,
      "hazards": [
        "FZFG",
        "BR",
        "SN",
        "FG",
        "RA"
      ],
      "severityScore": 100,
      "metarRaw": "METAR LBSF 160200Z AUTO 15003KT 9999 OVC059/// 01/M00 Q1023 NOSIG",
      "tafRaw": "TAF LBSF 152300Z 1600/1624 VRB03KT 4000 BR BKN050 \n  TEMPO 1600/1607 1500 BR BKN010 \n  PROB40 1602/1606 0600 FZFG SCT003 BKN006 \n  BECMG 1608/1610 9999 NSW \n  BECMG 1613/1615 08010KT \n  TEMPO 1616/1620 5000 RASN SCT010 BKN015"
    },
    {
      "icao": "LFBD",
      "iata": "BOD",
      "name": "Bordeaux–Mérignac Airport",
      "updatedAt": "160200Z",
      "visibility_m": 4000,
      "taf_visibility_m": 300,
      "worst_visibility_m": 300,
      "ceiling_ft": 500,
      "hazards": [
        "RA",
        "FG",
        "BR"
      ],
      "severityScore": 100,
      "metarRaw": "METAR LFBD 160200Z AUTO 20010KT 7000 RA FEW011/// SCT022/// BKN037/// ///TCU 10/09 Q1012 TEMPO 4000 -RA BKN005",
      "tafRaw": "TAF LFBD 152300Z 1600/1706 21010KT 9999 BKN040 TX11/1615Z TN05/1705Z \n  TEMPO 1600/1607 4000 -RA BKN010 BKN040TCU \n  PROB40 \n  TEMPO 1600/1605 BKN005 \n  BECMG 1607/1609 15005KT \n  PROB40 \n  TEMPO 1613/1616 BKN014 \n  BECMG 1620/1622 VRB03KT \n  BECMG 1622/1624 4000 BR \n  TEMPO 1700/1706 0300 FG VV///"
    },
    {
      "icao": "LHBP",
      "iata": "BUD",
      "name": "Budapest Liszt Ferenc International Airport",
      "updatedAt": "160200Z",
      "visibility_m": 3600,
      "taf_visibility_m": 500,
      "worst_visibility_m": 500,
      "ceiling_ft": 600,
      "hazards": [
        "BR",
        "FZFG",
        "FZDZ",
        "DZ",
        "FG"
      ],
      "severityScore": 100,
      "metarRaw": "METAR LHBP 160200Z 02004KT 350V050 3600 BR OVC006 00/M01 Q1023 NOSIG",
      "tafRaw": "TAF LHBP 152315Z 1600/1624 08005KT 5000 BR SCT006 OVC014 \n  TEMPO 1600/1610 02003KT 0500 -FZDZ FZFG OVC001 \n  TEMPO 1610/1618 3500 BR BKN005 OVC013 \n  TEMPO 1618/1624 1400 -FZDZ DZ BR OVC003"
    },
    {
      "icao": "LHDC",
      "iata": "DEB",
      "name": "Debrecen International Airport",
      "updatedAt": "160145Z",
      "visibility_m": 3300,
      "taf_visibility_m": 500,
      "worst_visibility_m": 500,
      "ceiling_ft": 1000,
      "hazards": [
        "BR",
        "FZFG",
        "FZRA",
        "FG",
        "RA",
        "DZ"
      ],
      "severityScore": 100,
      "metarRaw": "METAR LHDC 160145Z AUTO 05006KT 3300 BR OVC010 01/00 Q1023",
      "tafRaw": "TAF LHDC 151415Z 1515/1524 VRB03KT 5000 BR SCT004 OVC040 \n  TEMPO 1515/1524 1400 BCFG BR BKN004 OVC030 \n  PROB40 \n  TEMPO 1517/1524 0500 FZFG BKN002 OVC015 \n  TEMPO 1520/1524 -FZRADZ"
    },
    {
      "icao": "LIMC",
      "iata": "MXP",
      "name": "Milan Malpensa International Airport",
      "updatedAt": "160150Z",
      "visibility_m": 500,
      "taf_visibility_m": 800,
      "worst_visibility_m": 500,
      "ceiling_ft": 300,
      "hazards": [
        "FG",
        "BR",
        "RA"
      ],
      "severityScore": 100,
      "metarRaw": "METAR LIMC 160150Z 04002KT 0500 R35R/1500D R17L/P2000N R35L/1700U FG OVC003 06/06 Q1022 NOSIG",
      "tafRaw": "TAF LIMC 152300Z 1600/1706 VRB05KT 2000 -RA BR BKN003 BKN040 \n  TEMPO 1600/1610 0800 FG SCT010 BKN040 \n  BECMG 1616/1618 1200 BCFG BKN003 BKN040"
    },
    {
      "icao": "LIPR",
      "iata": "RMI",
      "name": "Federico Fellini International Airport",
      "updatedAt": "160150Z",
      "visibility_m": 300,
      "taf_visibility_m": 300,
      "worst_visibility_m": 300,
      "ceiling_ft": 200,
      "hazards": [
        "FG",
        "BR"
      ],
      "severityScore": 100,
      "metarRaw": "METAR LIPR 160150Z AUTO 30003KT 0300 R30/0750D FG VV002 06/06 Q1022",
      "tafRaw": "TAF LIPR 152300Z 1600/1624 VRB04KT 2000 BR BKN020 \n  TEMPO 1600/1609 0300 FG BKN001"
    },
    {
      "icao": "LIPY",
      "iata": "AOI",
      "name": "Marche Airport",
      "updatedAt": "160150Z",
      "visibility_m": 100,
      "taf_visibility_m": null,
      "worst_visibility_m": 100,
      "ceiling_ft": 200,
      "hazards": [
        "FG"
      ],
      "severityScore": 100,
      "metarRaw": "METAR LIPY 160150Z AUTO VRB01KT 0100 R22/0350N FG VV002 08/08 Q1022",
      "tafRaw": null
    },
    {
      "icao": "LKMT",
      "iata": "OSR",
      "name": "Ostrava Leos Janáček Airport",
      "updatedAt": "160200Z",
      "visibility_m": 2500,
      "taf_visibility_m": 600,
      "worst_visibility_m": 600,
      "ceiling_ft": 400,
      "hazards": [
        "BR",
        "FZFG",
        "FG"
      ],
      "severityScore": 100,
      "metarRaw": "METAR LKMT 160200Z 22011KT 3500 BR SCT006 01/00 Q1021 TEMPO 2500 BR OVC004",
      "tafRaw": "TAF LKMT 152300Z 1600/1624 22008KT 4500 BR SCT008 BKN025 \n  PROB30 \n  TEMPO 1600/1612 1200 BR BKN005 OVC014 \n  TEMPO 1617/1624 VRB02KT 2500 BR BKN004 OVC012 \n  PROB40 \n  TEMPO 1621/1624 0600 FZFG VV002"
    },
    {
      "icao": "LKPR",
      "iata": "PRG",
      "name": "Václav Havel Airport Prague",
      "updatedAt": "160200Z",
      "visibility_m": 250,
      "taf_visibility_m": 200,
      "worst_visibility_m": 200,
      "ceiling_ft": 100,
      "hazards": [
        "FZFG",
        "FG",
        "BR"
      ],
      "severityScore": 100,
      "metarRaw": "METAR LKPR 160200Z 05002KT 0250 R24/0450N R30/0375N FZFG VV001 M01/M01 Q1018 NOSIG",
      "tafRaw": "TAF LKPR 152300Z 1600/1706 VRB02KT 0200 FG VV001 \n  TEMPO 1600/1607 0500 FZFG OVC002 \n  BECMG 1608/1610 11005KT 2000 BR BKN003 \n  TEMPO 1610/1617 3500 BR BKN005 \n  BECMG 1617/1619 1000 BCFG OVC002 \n  TEMPO 1619/1706 0300 FZFG VV001"
    },
    {
      "icao": "LOWW",
      "iata": "VIE",
      "name": "Vienna International Airport",
      "updatedAt": "160150Z",
      "visibility_m": 500,
      "taf_visibility_m": 300,
      "worst_visibility_m": 300,
      "ceiling_ft": 100,
      "hazards": [
        "FZFG",
        "FZDZ",
        "FG",
        "DZ",
        "BR"
      ],
      "severityScore": 100,
      "metarRaw": "METAR LOWW 160150Z 15004KT 0700 R16/1100U R29/0800N FZFG BKN001 M01/M01 Q1022 TEMPO 0500 -FZDZ FZFG",
      "tafRaw": "TAF LOWW 152315Z 1600/1706 14006KT 0800 BCFG FEW001 BKN002 TX01/1702Z TNM01/1601Z \n  TEMPO 1600/1610 0500 FZFG VV001 \n  PROB40 \n  TEMPO 1600/1610 -FZDZ \n  PROB30 \n  TEMPO 1602/1609 0300 \n  FM161000 13010KT 3000 BR BKN002 \n  TEMPO 1610/1624 1200 -DZ BR"
    },
    {
      "icao": "LQSA",
      "iata": "SJJ",
      "name": "Sarajevo International Airport",
      "updatedAt": "160200Z",
      "visibility_m": 3000,
      "taf_visibility_m": 300,
      "worst_visibility_m": 300,
      "ceiling_ft": 5500,
      "hazards": [
        "BR",
        "FZFG",
        "FG"
      ],
      "severityScore": 100,
      "metarRaw": "METAR LQSA 160200Z VRB02KT 3000 BR BKN055 00/00 Q1023",
      "tafRaw": "TAF LQSA 152300Z 1600/1624 VRB02KT 2000 BR SCT050 TX05/1614Z TNM03/1605Z \n  TEMPO 1600/1609 0800 FZFG BKN008 \n  PROB40 1604/1608 0300 FZFG BKN002 \n  BECMG 1609/1611 8000 NSW"
    },
    {
      "icao": "LQTZ",
      "iata": "TZL",
      "name": "Tuzla International Airport",
      "updatedAt": "160200Z",
      "visibility_m": 3000,
      "taf_visibility_m": 500,
      "worst_visibility_m": 500,
      "ceiling_ft": 200,
      "hazards": [
        "BR",
        "FG"
      ],
      "severityScore": 100,
      "metarRaw": "METAR LQTZ 160200Z VRB02KT 3000 BR NSC 01/01 Q1022",
      "tafRaw": "TAF LQTZ 152300Z 1600/1624 VRB02KT 6000 SCT050 TX09/1613Z TN00/1605Z \n  TEMPO 1600/1608 3000 BR \n  PROB30 1601/1607 0500 FG BKN002 \n  PROB40 \n  TEMPO 1620/1624 2000 BR BKN004"
    },
    {
      "icao": "LRCL",
      "iata": "CLJ",
      "name": "Cluj Avram Iancu International Airport",
      "updatedAt": "160200Z",
      "visibility_m": 5000,
      "taf_visibility_m": 800,
      "worst_visibility_m": 800,
      "ceiling_ft": 600,
      "hazards": [
        "BR",
        "FZFG",
        "SN",
        "FZDZ",
        "FG",
        "DZ"
      ],
      "severityScore": 100,
      "metarRaw": "METAR LRCL 160200Z 07005KT 5000 BR OVC006 01/M00 Q1024",
      "tafRaw": "TAF LRCL 152300Z 1600/1609 VRB04KT 3000 BR OVC005 \n  TEMPO 1601/1606 0800 -FZDZ FZFG OVC002 \n  BECMG 1606/1608 3000 -SN BR BKN010 OVC020"
    },
    {
      "icao": "LRSB",
      "iata": "SBZ",
      "name": "Sibiu International Airport",
      "updatedAt": "160200Z",
      "visibility_m": 450,
      "taf_visibility_m": 350,
      "worst_visibility_m": 350,
      "ceiling_ft": 200,
      "hazards": [
        "FG",
        "RA",
        "FZFG",
        "BR",
        "FZDZ",
        "DZ"
      ],
      "severityScore": 100,
      "metarRaw": "METAR LRSB 160200Z 28001KT 0450 R27/0700N -RA FG VV002 01/01 Q1023",
      "tafRaw": "TAF LRSB 152300Z 1600/1624 VRB04KT 0350 -DZ FG BKN001 OVC002 \n  PROB40 \n  TEMPO 1601/1607 0600 -FZDZ FZFG OVC002 \n  BECMG 1607/1609 5000 -RA BR BKN010 OVC025 \n  TEMPO 1609/1614 3000 RA BR \n  BECMG 1614/1616 11010KT 9999 NSW BKN015 BKN025"
    },
    {
      "icao": "LRSV",
      "iata": "SCV",
      "name": "Suceava Stefan cel Mare Airport",
      "updatedAt": "160200Z",
      "visibility_m": 3000,
      "taf_visibility_m": 600,
      "worst_visibility_m": 600,
      "ceiling_ft": 300,
      "hazards": [
        "BR",
        "FZFG",
        "SN",
        "FG"
      ],
      "severityScore": 100,
      "metarRaw": "METAR LRSV 160200Z 07007KT 3000 BR OVC003 M10/M11 Q1026",
      "tafRaw": "TAF LRSV 152300Z 1600/1609 08007KT 1500 BR BKN002 \n  PROB30 \n  TEMPO 1600/1606 0600 -SN FZFG OVC001"
    },
    {
      "icao": "LWSK",
      "iata": "SKP",
      "name": "Skopje International Airport",
      "updatedAt": "160150Z",
      "visibility_m": 7000,
      "taf_visibility_m": 600,
      "worst_visibility_m": 600,
      "ceiling_ft": 500,
      "hazards": [
        "FZFG",
        "BR",
        "FG"
      ],
      "severityScore": 100,
      "metarRaw": "METAR LWSK 160150Z VRB01KT 7000 NSC M01/M02 Q1025 NOSIG",
      "tafRaw": "TAF LWSK 152350Z 1600/1624 VRB02KT 5000 BR NSC \n  TEMPO 1603/1609 1500 SCT010 \n  PROB30 \n  TEMPO 1605/1608 0600 FZFG BKN005 \n  BECMG 1609/1611 CAVOK"
    },
    {
      "icao": "LZIB",
      "iata": "BTS",
      "name": "M. R. Štefánik Airport",
      "updatedAt": "160200Z",
      "visibility_m": 1900,
      "taf_visibility_m": 500,
      "worst_visibility_m": 500,
      "ceiling_ft": 200,
      "hazards": [
        "BR",
        "FZDZ",
        "DZ",
        "FZFG",
        "FG"
      ],
      "severityScore": 100,
      "metarRaw": "METAR LZIB 160200Z 06006KT 1900 -FZDZ BR OVC002 M00/M00 Q1022 NOSIG",
      "tafRaw": "TAF LZIB 152315Z 1600/1700 05006KT 3500 BR OVC006 \n  TEMPO 1600/1608 0500 -FZDZ FZFG OVC002 \n  TEMPO 1608/1616 6000 BKN014 \n  TEMPO 1618/1700 0600 -FZDZ FZFG OVC002"
    },
    {
      "icao": "LZKZ",
      "iata": "KSC",
      "name": "Košice International Airport",
      "updatedAt": "160200Z",
      "visibility_m": 8000,
      "taf_visibility_m": 500,
      "worst_visibility_m": 500,
      "ceiling_ft": 1700,
      "hazards": [
        "FZFG",
        "BR",
        "FZRA",
        "FZDZ",
        "FG",
        "RA",
        "DZ"
      ],
      "severityScore": 100,
      "metarRaw": "METAR LZKZ 160200Z 36006KT 8000 OVC017 01/M01 Q1023 NOSIG",
      "tafRaw": "TAF LZKZ 152315Z 1600/1700 VRB02KT 6000 BKN020 \n  TEMPO 1600/1608 2000 -FZRA BR BKN006 \n  PROB40 \n  TEMPO 1600/1607 0500 FZDZ FZFG OVC002 \n  TEMPO 1617/1700 2000 BR BKN006"
    },
    {
      "icao": "LZTT",
      "iata": "TAT",
      "name": "Poprad-Tatry Airport",
      "updatedAt": "160200Z",
      "visibility_m": 5000,
      "taf_visibility_m": 500,
      "worst_visibility_m": 500,
      "ceiling_ft": 500,
      "hazards": [
        "BR",
        "FZFG",
        "FZDZ",
        "FG",
        "DZ"
      ],
      "severityScore": 100,
      "metarRaw": "METAR LZTT 160200Z 00000KT 5000 BR OVC005 00/M01 Q1020",
      "tafRaw": "TAF LZTT 152315Z 1600/1700 VRB02KT 6000 OVC014 \n  TEMPO 1600/1609 2000 BR OVC004 \n  PROB40 \n  TEMPO 1600/1608 0500 FZDZ FZFG OVC002 \n  TEMPO 1609/1616 8000 BKN017"
    },
    {
      "icao": "UAAA",
      "iata": "ALA",
      "name": "Almaty International Airport",
      "updatedAt": "160200Z",
      "visibility_m": 4000,
      "taf_visibility_m": 300,
      "worst_visibility_m": 300,
      "ceiling_ft": 700,
      "hazards": [
        "BR",
        "FZFG",
        "SN",
        "BLSN",
        "SHSN",
        "FG"
      ],
      "severityScore": 100,
      "metarRaw": "METAR UAAA 160200Z 31002MPS 4000 BR OVC007 M07/M09 Q1019 NOSIG",
      "tafRaw": "TAF UAAA 152302Z 1600/1624 32003G08MPS 3100 BR FU FEW004 BKN015CB OVC030 TXM08/1608Z TNM10/1603Z \n  TEMPO 1600/1604 0300 -SN FZFG OVC002 \n  TEMPO 1604/1609 1500 -SHSN BR BKN003 BKN015CB \n  FM160900 27004G09MPS 3100 -SHSN BR BKN011CB OVC020 \n  TEMPO 1609/1612 33005G12MPS 1200 -SN BR OVC003 \n  TEMPO 1612/1624 33005G12MPS 0800 SHSN BLSN FZFG VV002"
    },
    {
      "icao": "LFOB",
      "iata": "BVA",
      "name": "Beauvais Tillé airport",
      "updatedAt": "160200Z",
      "visibility_m": 10000,
      "taf_visibility_m": 800,
      "worst_visibility_m": 800,
      "ceiling_ft": 1200,
      "hazards": [
        "FG",
        "BR",
        "RA",
        "SHRA"
      ],
      "severityScore": 93,
      "metarRaw": "METAR LFOB 160200Z AUTO 25004KT 200V280 CAVOK 08/06 Q1007 BECMG BKN012",
      "tafRaw": "TAF LFOB 152300Z 1600/1624 17010G20KT 9999 BKN030 \n  TEMPO 1600/1602 21020G30KT 3500 SHRA BKN009 OVC013 \n  BECMG 1602/1604 18010KT BKN012 \n  BECMG 1604/1607 BKN008 OVC012 \n  TEMPO 1606/1609 4000 BR BKN004 OVC007 \n  BECMG 1612/1614 BKN013 OVC018 \n  BECMG 1616/1619 12005KT \n  BECMG 1619/1622 4000 -RA BR SCT020 BKN060 \n  PROB30 1622/1624 0800 FG"
    },
    {
      "icao": "LEMD",
      "iata": "MAD",
      "name": "Adolfo Suárez Madrid–Barajas Airport",
      "updatedAt": "160200Z",
      "visibility_m": 5000,
      "taf_visibility_m": 800,
      "worst_visibility_m": 800,
      "ceiling_ft": 1500,
      "hazards": [
        "BR",
        "FG",
        "RA",
        "DZ"
      ],
      "severityScore": 89,
      "metarRaw": "METAR LEMD 160200Z 12003KT 080V150 5000 BR FEW008 BKN015 OVC025 06/06 Q1015 NOSIG",
      "tafRaw": "TAF LEMD 152300Z 1600/1706 18007KT 9999 BKN020 TX11/1615Z TN05/1607Z \n  TEMPO 1600/1610 3000 BR BCFG DZRA BKN004 BKN010 \n  PROB30 \n  TEMPO 1603/1608 0800 FG VV002 \n  TEMPO 1604/1611 VRB04KT \n  PROB30 \n  TEMPO 1609/1614 DZRA BKN014 \n  TEMPO 1623/1706 BKN010"
    },
    {
      "icao": "LIPE",
      "iata": "BLQ",
      "name": "Bologna Guglielmo Marconi Airport",
      "updatedAt": "160150Z",
      "visibility_m": 1500,
      "taf_visibility_m": 300,
      "worst_visibility_m": 300,
      "ceiling_ft": 1000,
      "hazards": [
        "BR",
        "FG"
      ],
      "severityScore": 87,
      "metarRaw": "METAR LIPE 160150Z 26001KT 1500 BR OVC010 06/06 Q1022",
      "tafRaw": "TAF LIPE 152300Z 1600/1624 VRB04KT 2000 BR BKN020 \n  TEMPO 1600/1609 0300 FG BKN001"
    },
    {
      "icao": "EPKK",
      "iata": "KRK",
      "name": "Kraków John Paul II International Airport",
      "updatedAt": "160200Z",
      "visibility_m": 7000,
      "taf_visibility_m": 100,
      "worst_visibility_m": 100,
      "ceiling_ft": 2500,
      "hazards": [
        "FG",
        "BR"
      ],
      "severityScore": 85,
      "metarRaw": "METAR EPKK 160200Z 06006KT 7000 OVC025 01/M01 Q1021",
      "tafRaw": "TAF EPKK 152330Z 1600/1624 06006KT 6000 SCT010 OVC022 \n  BECMG 1600/1603 2000 BR BKN007 \n  TEMPO 1600/1609 0600 FG BKN001 \n  PROB30 \n  TEMPO 1600/1609 0100 FG \n  BECMG 1609/1612 4000 BR BKN012 \n  BECMG 1616/1619 2000 BR BKN004 \n  TEMPO 1616/1624 0600 FG OVC001"
    },
    {
      "icao": "EPKT",
      "iata": "KTW",
      "name": "Katowice Wojciech Korfanty International Airport",
      "updatedAt": "160200Z",
      "visibility_m": 2700,
      "taf_visibility_m": 100,
      "worst_visibility_m": 100,
      "ceiling_ft": 4200,
      "hazards": [
        "BR",
        "FG"
      ],
      "severityScore": 85,
      "metarRaw": "METAR EPKT 160200Z 07002KT 2700 BR SCT027 OVC042 01/00 Q1021",
      "tafRaw": "TAF EPKT 152330Z 1600/1624 14004KT 5000 BR FEW035 BKN040 \n  BECMG 1600/1603 2000 BR BKN012 \n  TEMPO 1600/1608 0700 FG OVC001 \n  PROB40 \n  TEMPO 1600/1608 0100 FG \n  BECMG 1608/1611 4000 BR \n  BECMG 1616/1619 2000 BR BKN002 \n  TEMPO 1618/1624 0600 FG OVC001"
    },
    {
      "icao": "OJAI",
      "iata": "AMM",
      "name": "Queen Alia International Airport",
      "updatedAt": "160200Z",
      "visibility_m": 200,
      "taf_visibility_m": 800,
      "worst_visibility_m": 200,
      "ceiling_ft": null,
      "hazards": [
        "FG",
        "BR"
      ],
      "severityScore": 85,
      "metarRaw": "METAR OJAI 160200Z 03002KT 0200 FG VV/// 02/02 Q1024 NOSIG",
      "tafRaw": "TAF OJAI 152200Z 1600/1706 VRB02KT 5000 HZ NSC \n  PROB30 1600/1607 1500 BR \n  PROB40 1602/1607 0800 FG \n  BECMG 1607/1609 15008KT FEW030"
    },
    {
      "icao": "LBWN",
      "iata": "VAR",
      "name": "Varna Airport",
      "updatedAt": "160200Z",
      "visibility_m": 10000,
      "taf_visibility_m": 1200,
      "worst_visibility_m": 1200,
      "ceiling_ft": 500,
      "hazards": [
        "SHRA",
        "RA",
        "SN"
      ],
      "severityScore": 79,
      "metarRaw": "METAR LBWN 160200Z AUTO 10004KT 040V140 9999 -SHRA BKN018/// OVC023/// 03/03 Q1024 NOSIG",
      "tafRaw": "TAF LBWN 152300Z 1600/1624 VRB03KT 7000 SCT015 OVC030 \n  BECMG 1601/1603 04010KT \n  BECMG 1603/1605 5000 RASN \n  BECMG 1605/1607 3000 SN BKN005 OVC020 \n  PROB40 \n  TEMPO 1607/1614 1200 SN \n  BECMG 1614/1616 9999 NSW BKN045"
    },
    {
      "icao": "EKBI",
      "iata": "BLL",
      "name": "Billund Airport",
      "updatedAt": "160150Z",
      "visibility_m": 3100,
      "taf_visibility_m": 1500,
      "worst_visibility_m": 1500,
      "ceiling_ft": 200,
      "hazards": [
        "BR",
        "RA",
        "DZ"
      ],
      "severityScore": 77,
      "metarRaw": "METAR EKBI 160150Z AUTO 13008KT 3100 BR BKN004/// BKN160/// 05/05 Q1007",
      "tafRaw": "TAF EKBI 152327Z 1600/1624 15008KT 6000 BKN016 \n  TEMPO 1600/1609 1500 -RADZ BR BKN002 \n  TEMPO 1609/1615 20015G25KT BKN008 \n  BECMG 1617/1620 3000 BR"
    },
    {
      "icao": "LPPR",
      "iata": "OPO",
      "name": "Francisco de Sá Carneiro Airport",
      "updatedAt": "160200Z",
      "visibility_m": 10000,
      "taf_visibility_m": 2000,
      "worst_visibility_m": 2000,
      "ceiling_ft": 800,
      "hazards": [
        "SHRA",
        "TS",
        "RA"
      ],
      "severityScore": 76,
      "metarRaw": "METAR LPPR 160200Z 14006KT 9999 SCT030 09/08 Q1014",
      "tafRaw": "TAF LPPR 152300Z 1600/1624 VRB02KT 9999 SCT013 BKN030 \n  TEMPO 1600/1624 5000 SHRA BKN010 FEW018CB \n  PROB40 \n  TEMPO 1602/1620 VRB15G25KT 2000 +TSRAGS BKN008 SCT015CB \n  BECMG 1603/1605 21010KT \n  BECMG 1610/1612 30007KT \n  BECMG 1620/1622 VRB02KT"
    },
    {
      "icao": "LIBR",
      "iata": "BDS",
      "name": "Brindisi Airport",
      "updatedAt": "160120Z",
      "visibility_m": 8000,
      "taf_visibility_m": 1500,
      "worst_visibility_m": 1500,
      "ceiling_ft": 100,
      "hazards": [
        "BR",
        "FG"
      ],
      "severityScore": 75,
      "metarRaw": "METAR LIBR 160120Z VRB01KT 8000 FEW040 08/07 Q1022",
      "tafRaw": "TAF LIBR 152300Z 1600/1624 VRB05KT 9999 FEW025 \n  TEMPO 1600/1607 1500 BCFG BKN001"
    },
    {
      "icao": "LIPQ",
      "iata": "TRS",
      "name": "Trieste–Friuli Venezia Giulia Airport",
      "updatedAt": "160150Z",
      "visibility_m": 1200,
      "taf_visibility_m": 1200,
      "worst_visibility_m": 1200,
      "ceiling_ft": 100,
      "hazards": [
        "BR",
        "FG"
      ],
      "severityScore": 75,
      "metarRaw": "METAR LIPQ 160150Z AUTO 10001KT 1200 R09/1900D BR OVC020/// 08/07 Q1021",
      "tafRaw": "TAF LIPQ 152300Z 1600/1624 VRB04KT 3000 BR BKN020 \n  TEMPO 1600/1606 1200 BCFG BKN001 \n  BECMG 1608/1610 8000 \n  BECMG 1616/1618 3000 BR"
    },
    {
      "icao": "LICC",
      "iata": "CTA",
      "name": "Catania-Fontanarossa Airport",
      "updatedAt": "160150Z",
      "visibility_m": 10000,
      "taf_visibility_m": 3000,
      "worst_visibility_m": 3000,
      "ceiling_ft": null,
      "hazards": [
        "BR",
        "TSRA",
        "TS",
        "RA"
      ],
      "severityScore": 72,
      "metarRaw": "METAR LICC 160150Z 24004KT CAVOK 07/04 Q1021",
      "tafRaw": "TAF LICC 152300Z 1600/1624 VRB05KT 9999 FEW015 \n  TEMPO 1600/1606 3000 BR \n  BECMG 1610/1612 08010KT \n  TEMPO 1621/1624 4000 TSRA"
    },
    {
      "icao": "EGKK",
      "iata": "LGW",
      "name": "London Gatwick Airport",
      "updatedAt": "160150Z",
      "visibility_m": 10000,
      "taf_visibility_m": 5000,
      "worst_visibility_m": 5000,
      "ceiling_ft": 400,
      "hazards": [
        "BR",
        "RA",
        "SHRA"
      ],
      "severityScore": 71,
      "metarRaw": "METAR EGKK 160150Z 23005KT 9999 SCT006 SCT010 05/05 Q1003",
      "tafRaw": "TAF EGKK 152258Z 1600/1706 25010KT 9999 BKN016 \n  BECMG 1600/1603 19006KT \n  PROB40 \n  TEMPO 1600/1606 5000 BR BKN004 \n  PROB40 \n  TEMPO 1606/1615 6000 SHRA BKN008 \n  BECMG 1615/1618 13010KT \n  PROB30 \n  TEMPO 1615/1624 7000 SHRA BKN013 \n  TEMPO 1700/1706 7000 RA -SHRA BKN006"
    },
    {
      "icao": "ENZV",
      "iata": "SVG",
      "name": "Stavanger Airport, Sola",
      "updatedAt": "160150Z",
      "visibility_m": 10000,
      "taf_visibility_m": 4000,
      "worst_visibility_m": 4000,
      "ceiling_ft": 400,
      "hazards": [
        "DZ",
        "BR",
        "RA"
      ],
      "severityScore": 67,
      "metarRaw": "METAR ENZV 160150Z AUTO 13007KT 9999 -DZ OVC048/// 06/03 Q1002",
      "tafRaw": "TAF ENZV 152300Z 1600/1624 12012KT 9999 -RA FEW020 BKN030 \n  TEMPO 1602/1614 RA \n  BECMG 1611/1613 21015KT SCT004 BKN010 \n  TEMPO 1611/1616 4000 BR BKN004 \n  BECMG 1614/1616 27015KT \n  BECMG 1616/1618 VRB05KT SCT012 BKN018"
    },
    {
      "icao": "ESGG",
      "iata": "GOT",
      "name": "Göteborg Landvetter Airport",
      "updatedAt": "160150Z",
      "visibility_m": 5000,
      "taf_visibility_m": 1200,
      "worst_visibility_m": 1200,
      "ceiling_ft": 200,
      "hazards": [
        "RA",
        "BR"
      ],
      "severityScore": 67,
      "metarRaw": "METAR ESGG 160150Z 14009KT 5000 -RA OVC002 03/03 Q1010",
      "tafRaw": "TAF ESGG 152330Z 1600/1624 16009KT 5000 OVC002 \n  TEMPO 1600/1606 1200 RA BR OVC001 \n  PROB40 1607/1614 SCT005 BKN015"
    },
    {
      "icao": "LIME",
      "iata": "BGY",
      "name": "Milan Bergamo Airport / Antonio Locatelli Air Base",
      "updatedAt": "160150Z",
      "visibility_m": 3500,
      "taf_visibility_m": 800,
      "worst_visibility_m": 800,
      "ceiling_ft": 5500,
      "hazards": [
        "BR",
        "RA",
        "FG"
      ],
      "severityScore": 67,
      "metarRaw": "METAR LIME 160150Z 09001KT 3500 -RA BR BKN055 05/05 Q1021 NOSIG",
      "tafRaw": "TAF LIME 152300Z 1600/1624 VRB03KT 2000 BR BKN020 \n  TEMPO 1600/1608 0800 FG BKN005 \n  BECMG 1616/1618 1200 BCFG BKN005"
    },
    {
      "icao": "EFTU",
      "iata": "TKU",
      "name": "Turku Airport",
      "updatedAt": "160150Z",
      "visibility_m": 10000,
      "taf_visibility_m": null,
      "worst_visibility_m": 10000,
      "ceiling_ft": 400,
      "hazards": [
        "SHRA",
        "RA"
      ],
      "severityScore": 66,
      "metarRaw": "METAR EFTU 160150Z AUTO 18006KT 9999 -SHRA OVC004 02/01 Q1022",
      "tafRaw": null
    },
    {
      "icao": "LPPT",
      "iata": "LIS",
      "name": "Lisbon Humberto Delgado Airport",
      "updatedAt": "160200Z",
      "visibility_m": 10000,
      "taf_visibility_m": 3000,
      "worst_visibility_m": 3000,
      "ceiling_ft": 1200,
      "hazards": [
        "SHRA",
        "TS",
        "RA"
      ],
      "severityScore": 63,
      "metarRaw": "METAR LPPT 160200Z 24004KT 9999 FEW012 09/08 Q1016",
      "tafRaw": "TAF LPPT 152300Z 1600/1706 29007KT 9999 FEW015 SCT035 \n  TEMPO 1600/1706 7000 SHRA BKN012 FEW020CB \n  PROB30 \n  TEMPO 1608/1619 VRB10G20KT 3000 TSRAGS SCT018CB \n  BECMG 1613/1615 32010KT \n  BECMG 1619/1621 30007KT"
    },
    {
      "icao": "LRBV",
      "iata": "GHV",
      "name": "Brașov-Ghimbav International Airport",
      "updatedAt": "160200Z",
      "visibility_m": 900,
      "taf_visibility_m": 3000,
      "worst_visibility_m": 900,
      "ceiling_ft": 500,
      "hazards": [
        "SN",
        "BR"
      ],
      "severityScore": 63,
      "metarRaw": "METAR LRBV 160200Z AUTO 00000KT 1000 0900 R21/1200D -SN VV005 00/M00 Q1023",
      "tafRaw": "TAF LRBV 152000Z 1521/1606 VRB04KT 5000 BR BKN005 OVC010 \n  TEMPO 1521/1523 3000 BR \n  PROB40 \n  TEMPO 1523/1603 3000 -SN BR BKN010 OVC020"
    },
    {
      "icao": "UGKO",
      "iata": "KUT",
      "name": "David the Builder Kutaisi International Airport",
      "updatedAt": "160200Z",
      "visibility_m": 10000,
      "taf_visibility_m": 2000,
      "worst_visibility_m": 2000,
      "ceiling_ft": 1200,
      "hazards": [
        "BR",
        "SHSN",
        "SN",
        "RA"
      ],
      "severityScore": 62,
      "metarRaw": "METAR UGKO 160200Z AUTO 12006KT 9999 FEW042/// 01/M04 Q1021 NOSIG",
      "tafRaw": "TAF UGKO 152300Z 1600/1624 08007KT 9999 BKN050 TX02/1612Z TNM01/1601Z \n  TEMPO 1600/1603 CAVOK \n  TEMPO 1603/1609 2000 SHSN SCT007 BKN015CB OVC030 \n  TEMPO 1609/1620 3000 SHSNRA SCT010 BKN020 OVC040 \n  TEMPO 1620/1624 5000 SNRA BR BKN012 OVC020"
    },
    {
      "icao": "LEZL",
      "iata": "SVQ",
      "name": "Sevilla Airport",
      "updatedAt": "160200Z",
      "visibility_m": 3200,
      "taf_visibility_m": 3000,
      "worst_visibility_m": 3000,
      "ceiling_ft": 500,
      "hazards": [
        "BR",
        "RA",
        "SHRA"
      ],
      "severityScore": 61,
      "metarRaw": "METAR LEZL 160200Z AUTO 19010KT 150V230 3200 -RA BR OVC005 13/13 Q1016",
      "tafRaw": "TAF LEZL 152000Z 1521/1621 VRB03KT CAVOK TX17/1614Z TN08/1607Z \n  TEMPO 1521/1605 VRB10KT 4000 RA SHRA FEW004CB BKN008 \n  PROB30 \n  TEMPO 1605/1609 3000 BR BKN001 \n  TEMPO 1616/1620 3000 RA"
    },
    {
      "icao": "LFPO",
      "iata": "ORY",
      "name": "Paris-Orly Airport",
      "updatedAt": "160200Z",
      "visibility_m": 4000,
      "taf_visibility_m": 4000,
      "worst_visibility_m": 4000,
      "ceiling_ft": 1000,
      "hazards": [
        "RA",
        "BR",
        "SHRA",
        "DZ"
      ],
      "severityScore": 58,
      "metarRaw": "METAR LFPO 160200Z AUTO 21007KT 180V240 9999 -RA BKN010 BKN023 BKN039 10/09 Q1008 TEMPO 4000 -RA",
      "tafRaw": "TAF LFPO 152300Z 1600/1706 21010KT 9999 SCT012 BKN020 \n  PROB40 \n  TEMPO 1600/1602 22010G20KT 4000 -RA BKN012 \n  PROB30 \n  TEMPO 1602/1605 BKN010 \n  TEMPO 1605/1612 BKN012 \n  PROB40 \n  TEMPO 1605/1610 BKN007 \n  PROB30 \n  TEMPO 1612/1615 -SHRA \n  BECMG 1616/1618 15005KT CAVOK \n  PROB40 \n  TEMPO 1621/1702 -RA \n  PROB30 1622/1701 4000 -RADZ BKN012 \n  BECMG 1702/1705 BKN006 \n  PROB40 \n  TEMPO 1705/1706 4000 BR BKN004"
    },
    {
      "icao": "LPMA",
      "iata": "FNC",
      "name": "Madeira International Airport Cristiano Ronaldo",
      "updatedAt": "160200Z",
      "visibility_m": 9000,
      "taf_visibility_m": 5000,
      "worst_visibility_m": 5000,
      "ceiling_ft": 1400,
      "hazards": [
        "RA",
        "DZ",
        "BR",
        "SHRA"
      ],
      "severityScore": 58,
      "metarRaw": "METAR LPMA 160200Z 04009KT 9000 -RADZ BKN014 15/14 Q1024",
      "tafRaw": "TAF LPMA 152300Z 1600/1624 VRB05KT 9999 SCT015 BKN030 \n  TEMPO 1600/1603 5000 RADZ BR SCT008 BKN013 \n  BECMG 1601/1603 35013KT \n  PROB30 \n  TEMPO 1603/1624 35020G32KT 8000 SHRA BKN013 FEW018CB"
    },
    {
      "icao": "LUKK",
      "iata": "RMO",
      "name": "Chişinău International Airport",
      "updatedAt": "160200Z",
      "visibility_m": 3000,
      "taf_visibility_m": null,
      "worst_visibility_m": 3000,
      "ceiling_ft": 300,
      "hazards": [
        "SN"
      ],
      "severityScore": 58,
      "metarRaw": "METAR LUKK 160200Z 01008KT 6000 -SN OVC006 M12/M14 Q1030 TEMPO 3000 SN BKN003",
      "tafRaw": null
    },
    {
      "icao": "LQBK",
      "iata": "BNX",
      "name": "Banja Luka International Airport",
      "updatedAt": "160200Z",
      "visibility_m": 10000,
      "taf_visibility_m": 3000,
      "worst_visibility_m": 3000,
      "ceiling_ft": 400,
      "hazards": [
        "BR",
        "RA"
      ],
      "severityScore": 57,
      "metarRaw": "METAR LQBK 160200Z 11003KT 040V150 CAVOK 04/03 Q1021 NOSIG",
      "tafRaw": "TAF LQBK 152300Z 1600/1624 15005KT 9999 SCT047 TX09/1613Z TN02/1605Z \n  PROB30 \n  TEMPO 1600/1606 4000 -RA BR \n  TEMPO 1622/1624 3000 BR BKN004"
    },
    {
      "icao": "EETN",
      "iata": "TLL",
      "name": "Lennart Meri Tallinn Airport",
      "updatedAt": "160150Z",
      "visibility_m": 9000,
      "taf_visibility_m": 2000,
      "worst_visibility_m": 2000,
      "ceiling_ft": 3000,
      "hazards": [
        "SN",
        "FZDZ",
        "DZ"
      ],
      "severityScore": 56,
      "metarRaw": "METAR EETN 160150Z 17010KT 9000 -SN OVC030 M06/M08 Q1026",
      "tafRaw": "TAF EETN 152330Z 1600/1624 17012KT 9999 SCT008 OVC025 \n  TEMPO 1600/1602 2000 SN DRSN BKN005 OVC025 \n  PROB30 \n  TEMPO 1600/1602 -FZDZ \n  TEMPO 1602/1618 BKN006 BKN012"
    },
    {
      "icao": "EPMO",
      "iata": "WMI",
      "name": "Modlin Airport",
      "updatedAt": "160200Z",
      "visibility_m": 2200,
      "taf_visibility_m": 1500,
      "worst_visibility_m": 1500,
      "ceiling_ft": 400,
      "hazards": [
        "BR"
      ],
      "severityScore": 55,
      "metarRaw": "METAR EPMO 160200Z 09005KT 2200 BR FEW006 M06/M06 Q1024",
      "tafRaw": "TAF EPMO 152330Z 1600/1624 10007KT 3000 BR OVC005 \n  TEMPO 1600/1606 1500 BR BKN004 \n  PROB40 1600/1606 6000 \n  BECMG 1606/1608 9999 \n  BECMG 1611/1614 BKN012 \n  BECMG 1614/1616 BKN015"
    },
    {
      "icao": "LTFM",
      "iata": "IST",
      "name": "İstanbul Airport",
      "updatedAt": "160150Z",
      "visibility_m": 8000,
      "taf_visibility_m": 2500,
      "worst_visibility_m": 2500,
      "ceiling_ft": 7000,
      "hazards": [
        "BR",
        "RA",
        "SHRA",
        "SN"
      ],
      "severityScore": 54,
      "metarRaw": "METAR LTFM 160150Z 31004KT 8000 SCT025 BKN070 08/07 Q1023 NOSIG RMK RWY17L 27004KT RWY34L 32005KT RWY16R 26003KT RWY36 29003KT RWY18 29004KT",
      "tafRaw": "TAF LTFM 152240Z 1600/1706 VRB02KT 9999 SCT025 BKN070 \n  PROB30 \n  TEMPO 1603/1606 2500 -RA BR BKN009 \n  BECMG 1606/1610 04017G27KT -SHRA SCT008 BKN022 \n  TEMPO 1618/1622 -SHRASN \n  TEMPO 1623/1703 -SHSNRA"
    },
    {
      "icao": "EPLB",
      "iata": "LUZ",
      "name": "Lublin Airport",
      "updatedAt": "160200Z",
      "visibility_m": 4800,
      "taf_visibility_m": 1500,
      "worst_visibility_m": 1500,
      "ceiling_ft": 1500,
      "hazards": [
        "BR",
        "SN"
      ],
      "severityScore": 50,
      "metarRaw": "METAR EPLB 160200Z 10008KT 4800 -SN BR OVC015 M06/M07 Q1025",
      "tafRaw": "TAF EPLB 152330Z 1600/1624 09007KT 4000 BR SCT006 OVC014 \n  TEMPO 1600/1608 1500 BR OVC005 \n  PROB40 1600/1608 6000 BKN020 \n  BECMG 1608/1611 7000 \n  BECMG 1614/1617 SCT014"
    },
    {
      "icao": "LEBL",
      "iata": "BCN",
      "name": "Josep Tarradellas Barcelona-El Prat Airport",
      "updatedAt": "160200Z",
      "visibility_m": 8000,
      "taf_visibility_m": 3000,
      "worst_visibility_m": 3000,
      "ceiling_ft": 1000,
      "hazards": [
        "BR",
        "SHRA",
        "RA"
      ],
      "severityScore": 48,
      "metarRaw": "METAR LEBL 160200Z 33007KT 8000 FEW010 07/06 Q1015 NOSIG",
      "tafRaw": "TAF LEBL 152300Z 1600/1624 34007KT 9999 SCT015 TX14/1612Z TN06/1606Z \n  PROB30 \n  TEMPO 1600/1607 3000 BR BKN010 \n  BECMG 1611/1613 14006KT \n  BECMG 1618/1620 34007KT \n  PROB40 \n  TEMPO 1620/1624 4000 SHRA FEW020TCU"
    },
    {
      "icao": "ENBR",
      "iata": "BGO",
      "name": "Bergen Airport, Flesland",
      "updatedAt": "160150Z",
      "visibility_m": 10000,
      "taf_visibility_m": 4000,
      "worst_visibility_m": 4000,
      "ceiling_ft": 500,
      "hazards": [
        "BR",
        "RA"
      ],
      "severityScore": 47,
      "metarRaw": "METAR ENBR 160150Z AUTO 11008KT 9999 SCT030/// BKN037/// BKN053/// 06/02 Q1002 RMK WIND 1200FT 14017KT",
      "tafRaw": "TAF ENBR 152300Z 1600/1624 14012KT 9999 SCT020 BKN040 \n  BECMG 1601/1603 08005KT \n  BECMG 1608/1610 BKN012 \n  TEMPO 1612/1619 4000 RA BKN005 \n  BECMG 1621/1623 BKN020"
    },
    {
      "icao": "EPSY",
      "iata": "SZY",
      "name": "Olsztyn-Mazury Airport",
      "updatedAt": "160200Z",
      "visibility_m": 3900,
      "taf_visibility_m": 3500,
      "worst_visibility_m": 3500,
      "ceiling_ft": 400,
      "hazards": [
        "BR"
      ],
      "severityScore": 45,
      "metarRaw": "METAR EPSY 160200Z 10003KT 050V160 3900 BR OVC004 M07/M08 Q1025",
      "tafRaw": "TAF EPSY 152330Z 1600/1609 14006KT 3500 BR BKN030 \n  PROB40 1600/1609 OVC003"
    },
    {
      "icao": "EBCI",
      "iata": "CRL",
      "name": "Brussels South Charleroi Airport",
      "updatedAt": "160150Z",
      "visibility_m": 10000,
      "taf_visibility_m": 4000,
      "worst_visibility_m": 4000,
      "ceiling_ft": 1800,
      "hazards": [
        "BR",
        "RA",
        "DZ"
      ],
      "severityScore": 44,
      "metarRaw": "METAR EBCI 160150Z 20017KT 9999 BKN018 BKN027 10/06 Q1006 TEMPO 20017G30KT",
      "tafRaw": "TAF EBCI 152315Z 1600/1706 17014KT 9999 SCT015 SCT035 \n  TEMPO 1600/1607 SCT009 BKN012 \n  PROB40 \n  TEMPO 1600/1603 19017G30KT 4000 -RA -RADZ BKN008 BKN012 \n  BECMG 1603/1605 23011KT \n  BECMG 1614/1616 17006KT \n  PROB40 \n  TEMPO 1702/1706 4500 -DZ BR SCT008 BKN012"
    },
    {
      "icao": "LIPX",
      "iata": "VRN",
      "name": "Verona Villafranca Valerio Catullo Airport",
      "updatedAt": "160150Z",
      "visibility_m": 3000,
      "taf_visibility_m": 1200,
      "worst_visibility_m": 1200,
      "ceiling_ft": 8500,
      "hazards": [
        "BR",
        "FG"
      ],
      "severityScore": 40,
      "metarRaw": "METAR LIPX 160150Z 30003KT 240V330 3000 BR BKN085 04/04 Q1022",
      "tafRaw": "TAF LIPX 152300Z 1600/1624 VRB04KT 4000 BR SCT020 BKN060 \n  TEMPO 1600/1608 1500 BCFG BKN010 BKN060 \n  TEMPO 1620/1624 1200 BCFG BKN010 BKN060"
    },
    {
      "icao": "LRBC",
      "iata": "BCM",
      "name": "Bacău George Enescu International  Airport",
      "updatedAt": "160200Z",
      "visibility_m": 6000,
      "taf_visibility_m": 3000,
      "worst_visibility_m": 3000,
      "ceiling_ft": 1100,
      "hazards": [
        "BR",
        "SN"
      ],
      "severityScore": 40,
      "metarRaw": "METAR LRBC 160200Z 34009KT 6000 OVC011 M05/M08 Q1028",
      "tafRaw": "TAF LRBC 152300Z 1600/1609 02007KT 5000 BR OVC010 \n  TEMPO 1600/1603 3000 -SN BR BKN005 OVC020 \n  TEMPO 1603/1608 3000 -SN BR"
    },
    {
      "icao": "LRCV",
      "iata": "CRA",
      "name": "Craiova International Airport",
      "updatedAt": "160200Z",
      "visibility_m": 3600,
      "taf_visibility_m": 3000,
      "worst_visibility_m": 3000,
      "ceiling_ft": 1000,
      "hazards": [
        "BR",
        "SN"
      ],
      "severityScore": 40,
      "metarRaw": "METAR LRCV 160200Z COR 09007KT 3600 BR NSC M01/M01 Q1024",
      "tafRaw": "TAF LRCV 152300Z 1600/1609 09010KT 5000 BR NSC \n  TEMPO 1600/1606 3000 BR \n  BECMG 1606/1608 3000 -SN BR BKN010 OVC025"
    },
    {
      "icao": "LTAC",
      "iata": "ESB",
      "name": "Esenboğa International Airport",
      "updatedAt": "160150Z",
      "visibility_m": 10000,
      "taf_visibility_m": 2000,
      "worst_visibility_m": 2000,
      "ceiling_ft": 8000,
      "hazards": [
        "BR",
        "SN",
        "RA"
      ],
      "severityScore": 40,
      "metarRaw": "METAR LTAC 160150Z 21008KT 9999 SCT011 SCT025 BKN080 03/00 Q1021 NOSIG RMK RWY21C 20008KT RWY03L 20007KT RWY21R 20008KT RWY03R 19008KT RWY21L 21009KT",
      "tafRaw": "TAF LTAC 152240Z 1600/1624 21008KT 9999 SCT035 BKN100 \n  PROB40 \n  TEMPO 1603/1607 2000 -SN BR SCT008 BKN030 BKN080 \n  TEMPO 1616/1620 -RA SCT010 BKN030 BKN080 \n  TEMPO 1620/1624 -RASN SCT010 BKN030 BKN080"
    },
    {
      "icao": "ESKN",
      "iata": "NYO",
      "name": "Stockholm Skavsta Airport",
      "updatedAt": "160150Z",
      "visibility_m": 10000,
      "taf_visibility_m": 2500,
      "worst_visibility_m": 2500,
      "ceiling_ft": 700,
      "hazards": [
        "BR"
      ],
      "severityScore": 35,
      "metarRaw": "METAR ESKN 160150Z 15013KT 9999 OVC007 03/02 Q1016",
      "tafRaw": "TAF ESKN 152330Z 1600/1624 17015KT 9999 BKN010 \n  PROB40 1600/1602 BKN009 \n  BECMG 1602/1604 OVC007 \n  TEMPO 1604/1619 17015G25KT 2500 BR BKN004 \n  PROB40 1619/1624 BKN004"
    },
    {
      "icao": "EYPA",
      "iata": "PLQ",
      "name": "Palanga International Airport",
      "updatedAt": "160150Z",
      "visibility_m": 8000,
      "taf_visibility_m": 5000,
      "worst_visibility_m": 5000,
      "ceiling_ft": 500,
      "hazards": [
        "BR"
      ],
      "severityScore": 35,
      "metarRaw": "METAR EYPA 160150Z AUTO 14010KT 8000 SCT032/// M06/M08 Q1026",
      "tafRaw": "TAF EYPA 152303Z 1600/1624 14015KT 9000 SCT010 OVC020 \n  TEMPO 1600/1606 5000 BR BKN005 \n  TEMPO 1609/1618 14020G30KT"
    },
    {
      "icao": "LGTS",
      "iata": "SKG",
      "name": "Thessaloniki Macedonia International Airport",
      "updatedAt": "160150Z",
      "visibility_m": 10000,
      "taf_visibility_m": 4000,
      "worst_visibility_m": 4000,
      "ceiling_ft": 2500,
      "hazards": [
        "TS",
        "BR"
      ],
      "severityScore": 35,
      "metarRaw": "METAR LGTS 160150Z VRB03KT CAVOK 01/01 Q1024 NOSIG",
      "tafRaw": "TAF LGTS 152300Z 1600/1624 VRB03KT 9999 FEW030 \n  PROB30 1603/1607 4000 BR SCT008 \n  BECMG 1620/1622 09013KT FEW010 BKN025"
    },
    {
      "icao": "ESSA",
      "iata": "ARN",
      "name": "Stockholm-Arlanda Airport",
      "updatedAt": "160150Z",
      "visibility_m": 10000,
      "taf_visibility_m": 3000,
      "worst_visibility_m": 3000,
      "ceiling_ft": 1000,
      "hazards": [
        "BR",
        "RA"
      ],
      "severityScore": 34,
      "metarRaw": "METAR ESSA 160150Z 17012KT 9999 BKN010 02/01 Q1017 NOSIG",
      "tafRaw": "TAF ESSA 152330Z 1600/1624 17014KT 9999 BKN015 \n  PROB40 1600/1607 4000 RA BKN012 \n  BECMG 1607/1609 OVC006 \n  PROB40 1609/1616 3000 -RA BR BKN004"
    },
    {
      "icao": "LRTR",
      "iata": "TSR",
      "name": "Timişoara Traian Vuia Airport",
      "updatedAt": "160200Z",
      "visibility_m": 5000,
      "taf_visibility_m": 1500,
      "worst_visibility_m": 1500,
      "ceiling_ft": 3500,
      "hazards": [
        "BR",
        "RA"
      ],
      "severityScore": 32,
      "metarRaw": "METAR LRTR 160200Z 11007KT 5000 -RA BR BKN035 02/02 Q1022",
      "tafRaw": "TAF LRTR 152300Z 1600/1624 10006KT 3000 -RA BR BKN045 \n  BECMG 1602/1604 BKN010 BKN030 \n  PROB40 \n  TEMPO 1610/1615 1500 RA \n  BECMG 1616/1618 5000 BR"
    },
    {
      "icao": "EDNY",
      "iata": "FDH",
      "name": "Friedrichshafen Airport",
      "updatedAt": "160150Z",
      "visibility_m": 10000,
      "taf_visibility_m": 1200,
      "worst_visibility_m": 1200,
      "ceiling_ft": null,
      "hazards": [
        "FG"
      ],
      "severityScore": 30,
      "metarRaw": "METAR EDNY 160150Z AUTO VRB01KT 9999 // NCD M02/M03 Q1015",
      "tafRaw": "TAF EDNY 151700Z 1518/1603 05003KT CAVOK \n  PROB40 \n  TEMPO 1520/1603 1200 BCFG"
    },
    {
      "icao": "LRIA",
      "iata": "IAS",
      "name": "Iaşi Airport",
      "updatedAt": "160200Z",
      "visibility_m": 10000,
      "taf_visibility_m": 3000,
      "worst_visibility_m": 3000,
      "ceiling_ft": 3400,
      "hazards": [
        "BR",
        "SN"
      ],
      "severityScore": 28,
      "metarRaw": "METAR LRIA 160200Z 01008KT 9999 OVC034 M08/M11 Q1029",
      "tafRaw": "TAF LRIA 152300Z 1600/1609 02006KT 5000 BR SCT010 OVC040 \n  TEMPO 1600/1602 3000 -SN BR BKN010 OVC035 \n  BECMG 1602/1604 8000 NSW"
    },
    {
      "icao": "LRBS",
      "iata": "BBU",
      "name": "Bucharest Băneasa Aurel Vlaicu International Airport",
      "updatedAt": "160200Z",
      "visibility_m": 5000,
      "taf_visibility_m": 3000,
      "worst_visibility_m": 3000,
      "ceiling_ft": 4700,
      "hazards": [
        "BR",
        "SN"
      ],
      "severityScore": 28,
      "metarRaw": "METAR LRBS 160200Z 06011KT 5000 BR SCT007 OVC047 M01/M02 Q1026 NOSIG",
      "tafRaw": "TAF LRBS 152300Z 1600/1624 06007KT 5000 BR BKN040 \n  TEMPO 1600/1605 3000 BR \n  TEMPO 1605/1610 06017KT 3000 -SN BKN010 OVC035 \n  BECMG 1610/1612 9999 NSW SCT025"
    },
    {
      "icao": "LROP",
      "iata": "OTP",
      "name": "Bucharest Henri Coandă International Airport",
      "updatedAt": "160200Z",
      "visibility_m": 5000,
      "taf_visibility_m": 3000,
      "worst_visibility_m": 3000,
      "ceiling_ft": 4000,
      "hazards": [
        "BR",
        "SN"
      ],
      "severityScore": 28,
      "metarRaw": "METAR LROP 160200Z 07012KT 5000 -SN BR FEW008 OVC040 M01/M03 Q1026 NOSIG",
      "tafRaw": "TAF LROP 152300Z 1600/1624 06007KT 5000 BR BKN040 \n  TEMPO 1600/1605 3000 BR \n  TEMPO 1605/1610 06017KT 3000 -SN BKN010 OVC035 \n  BECMG 1610/1612 9999 NSW SCT025"
    },
    {
      "icao": "EHBK",
      "iata": "MST",
      "name": "Maastricht Aachen Airport",
      "updatedAt": "160155Z",
      "visibility_m": 10000,
      "taf_visibility_m": 7000,
      "worst_visibility_m": 7000,
      "ceiling_ft": 3000,
      "hazards": [
        "RA",
        "SHRA"
      ],
      "severityScore": 26,
      "metarRaw": "METAR EHBK 160155Z AUTO 21020KT 9999 OVC030 10/06 Q1006",
      "tafRaw": "TAF EHBK 152238Z 1600/1706 19013KT CAVOK \n  PROB30 \n  TEMPO 1602/1611 7000 -RA -SHRA BKN014 FEW018TCU \n  BECMG 1614/1617 14005KT \n  PROB30 \n  TEMPO 1700/1704 7000 -RA"
    },
    {
      "icao": "ENVA",
      "iata": "TRD",
      "name": "Trondheim Airport, Værnes",
      "updatedAt": "160150Z",
      "visibility_m": 10000,
      "taf_visibility_m": 10000,
      "worst_visibility_m": 10000,
      "ceiling_ft": 2500,
      "hazards": [
        "SHRA",
        "RA"
      ],
      "severityScore": 26,
      "metarRaw": "METAR ENVA 160150Z AUTO 11008KT 9999 NCD 04/M04 Q1005 RMK WIND 670FT 14013KT",
      "tafRaw": "TAF ENVA 152300Z 1600/1624 10007KT 9999 FEW050 \n  TEMPO 1618/1624 21012KT SHRA SCT018CB BKN025"
    },
    {
      "icao": "LCPH",
      "iata": "PFO",
      "name": "Paphos International Airport",
      "updatedAt": "160200Z",
      "visibility_m": 10000,
      "taf_visibility_m": 5000,
      "worst_visibility_m": 5000,
      "ceiling_ft": null,
      "hazards": [
        "SHRA",
        "RA"
      ],
      "severityScore": 26,
      "metarRaw": "METAR LCPH 160200Z AUTO 08006KT 010V080 9999 NCD 08/05 Q1023 NOSIG",
      "tafRaw": "TAF LCPH 152330Z 1600/1700 02009KT 9999 FEW020 SCT035 \n  BECMG 1607/1610 24010KT \n  BECMG 1616/1619 04007KT \n  PROB30 \n  TEMPO 1616/1621 5000 SHRA SCT020TCU"
    },
    {
      "icao": "GCTS",
      "iata": "TFS",
      "name": "Tenerife Sur Airport",
      "updatedAt": "160200Z",
      "visibility_m": 10000,
      "taf_visibility_m": 10000,
      "worst_visibility_m": 10000,
      "ceiling_ft": 3000,
      "hazards": [
        "TS"
      ],
      "severityScore": 25,
      "metarRaw": "METAR GCTS 160200Z 03005KT 9999 FEW040 15/09 Q1025 NOSIG",
      "tafRaw": "TAF GCTS 152000Z 1521/1621 02005KT 9999 BKN030 TX22/1614Z TN13/1606Z"
    },
    {
      "icao": "EGPF",
      "iata": "GLA",
      "name": "Glasgow Airport",
      "updatedAt": "160150Z",
      "visibility_m": 6000,
      "taf_visibility_m": null,
      "worst_visibility_m": 6000,
      "ceiling_ft": null,
      "hazards": [
        "FG"
      ],
      "severityScore": 25,
      "metarRaw": "METAR EGPF 160150Z 20001KT 6000 MIFG NSC M02/M02 Q0998",
      "tafRaw": null
    },
    {
      "icao": "LEMG",
      "iata": "AGP",
      "name": "Málaga-Costa del Sol Airport",
      "updatedAt": "160200Z",
      "visibility_m": 10000,
      "taf_visibility_m": 3000,
      "worst_visibility_m": 3000,
      "ceiling_ft": 1200,
      "hazards": [
        "RA"
      ],
      "severityScore": 24,
      "metarRaw": "METAR LEMG 160200Z 32003KT 9999 SCT050 10/09 Q1018 NOSIG",
      "tafRaw": "TAF LEMG 152300Z 1600/1624 VRB02KT 9999 FEW080 TX18/1614Z TN11/1607Z \n  TEMPO 1606/1611 4000 RA BKN012 \n  BECMG 1611/1613 31010KT \n  BECMG 1616/1618 VRB02KT \n  TEMPO 1620/1624 3000 RA BKN012"
    },
    {
      "icao": "LEZG",
      "iata": "ZAZ",
      "name": "Zaragoza Airport",
      "updatedAt": "160200Z",
      "visibility_m": 5000,
      "taf_visibility_m": 2000,
      "worst_visibility_m": 2000,
      "ceiling_ft": 6500,
      "hazards": [
        "RA",
        "BR"
      ],
      "severityScore": 22,
      "metarRaw": "METAR LEZG 160200Z 09003KT 5000 2000NW -RA BKN065 07/07 Q1015 NOSIG",
      "tafRaw": "TAF LEZG 152300Z 1600/1624 09005KT 9999 FEW020 TX13/1614Z TN05/1606Z \n  TEMPO 1600/1612 2000 BR \n  PROB40 \n  TEMPO 1600/1603 RA \n  TEMPO 1618/1624 2000 BR"
    },
    {
      "icao": "LIMF",
      "iata": "TRN",
      "name": "Turin Airport",
      "updatedAt": "160150Z",
      "visibility_m": 4000,
      "taf_visibility_m": 4000,
      "worst_visibility_m": 4000,
      "ceiling_ft": 2000,
      "hazards": [
        "BR",
        "RA"
      ],
      "severityScore": 22,
      "metarRaw": "METAR LIMF 160150Z 30003KT 4000 BR BKN020 05/02 Q1022",
      "tafRaw": "TAF LIMF 152300Z 1600/1624 VRB03KT 6000 SCT020 BKN060 \n  TEMPO 1614/1624 4000 RA"
    },
    {
      "icao": "LIPH",
      "iata": "TSF",
      "name": "Treviso Antonio Canova Airport",
      "updatedAt": "160150Z",
      "visibility_m": 4100,
      "taf_visibility_m": 2000,
      "worst_visibility_m": 2000,
      "ceiling_ft": 1000,
      "hazards": [
        "BR"
      ],
      "severityScore": 22,
      "metarRaw": "METAR LIPH 160150Z AUTO VRB01KT 4100 BR OVC087/// 04/03 Q1022",
      "tafRaw": "TAF LIPH 152300Z 1600/1624 VRB04KT 6000 SCT040 \n  TEMPO 1600/1607 2000 BR BKN010"
    },
    {
      "icao": "LJLJ",
      "iata": "LJU",
      "name": "Ljubljana Jože Pučnik Airport",
      "updatedAt": "160200Z",
      "visibility_m": 10000,
      "taf_visibility_m": 2000,
      "worst_visibility_m": 2000,
      "ceiling_ft": 5300,
      "hazards": [
        "BR",
        "RA"
      ],
      "severityScore": 22,
      "metarRaw": "METAR LJLJ 160200Z 29005KT 9999 FEW003 SCT038 BKN053 01/01 Q1020 NOSIG",
      "tafRaw": "TAF LJLJ 152300Z 1600/1700 30004KT 9999 FEW003 SCT030 BKN045 \n  PROB40 \n  TEMPO 1601/1608 4000 BR \n  TEMPO 1620/1700 4000 BR \n  PROB30 \n  TEMPO 1621/1700 2000 -RA BR BKN013 OVC025"
    },
    {
      "icao": "LYBE",
      "iata": "BEG",
      "name": "Belgrade Nikola Tesla Airport",
      "updatedAt": "160200Z",
      "visibility_m": 5000,
      "taf_visibility_m": 2500,
      "worst_visibility_m": 2500,
      "ceiling_ft": null,
      "hazards": [
        "BR",
        "RA"
      ],
      "severityScore": 22,
      "metarRaw": "METAR LYBE 160200Z VRB02KT 5000 BR NSC 03/02 Q1022 NOSIG",
      "tafRaw": "TAF LYBE 152300Z 1600/1624 08005KT 6000 NSC TX08/1613Z TN02/1606Z \n  TEMPO 1600/1608 2500 -RA BR \n  BECMG 1613/1615 14010KT \n  TEMPO 1620/1624 13015G25KT"
    },
    {
      "icao": "LYPG",
      "iata": "TGD",
      "name": "Podgorica Airport / Podgorica Golubovci Airbase",
      "updatedAt": "160200Z",
      "visibility_m": 10000,
      "taf_visibility_m": 5000,
      "worst_visibility_m": 5000,
      "ceiling_ft": 7000,
      "hazards": [
        "BR",
        "RA"
      ],
      "severityScore": 22,
      "metarRaw": "METAR LYPG 160200Z VRB01KT 9999 SCT033 BKN070 08/07 Q1023 NOSIG",
      "tafRaw": "TAF LYPG 152300Z 1600/1624 VRB02KT 9999 SCT040 BKN070 TX14/1613Z TN04/1624Z \n  TEMPO 1600/1607 5000 -RA BR"
    },
    {
      "icao": "EDDS",
      "iata": "STR",
      "name": "Stuttgart Airport",
      "updatedAt": "160150Z",
      "visibility_m": 10000,
      "taf_visibility_m": 2000,
      "worst_visibility_m": 2000,
      "ceiling_ft": null,
      "hazards": [
        "FG"
      ],
      "severityScore": 20,
      "metarRaw": "METAR EDDS 160150Z AUTO 28002KT CAVOK 01/M00 Q1013",
      "tafRaw": "TAF EDDS 152300Z 1600/1624 VRB03KT CAVOK \n  PROB30 \n  TEMPO 1600/1609 4000 BCFG \n  PROB40 \n  TEMPO 1621/1624 2000 BCFG"
    },
    {
      "icao": "EDFH",
      "iata": "HHN",
      "name": "Frankfurt-Hahn Airport",
      "updatedAt": "160150Z",
      "visibility_m": 10000,
      "taf_visibility_m": 3000,
      "worst_visibility_m": 3000,
      "ceiling_ft": 4600,
      "hazards": [
        "FG"
      ],
      "severityScore": 20,
      "metarRaw": "METAR EDFH 160150Z 18016G27KT 150V210 9999 FEW034 BKN046 08/04 Q1010",
      "tafRaw": "TAF EDFH 152300Z 1600/1624 17010KT CAVOK \n  PROB30 \n  TEMPO 1600/1604 17015G25KT \n  TEMPO 1604/1611 BKN010 \n  PROB30 \n  TEMPO 1605/1608 BKN006 \n  TEMPO 1618/1624 3000 BCFG"
    },
    {
      "icao": "EDSB",
      "iata": "FKB",
      "name": "Karlsruhe Baden-Baden Airport",
      "updatedAt": "160150Z",
      "visibility_m": 10000,
      "taf_visibility_m": 2000,
      "worst_visibility_m": 2000,
      "ceiling_ft": null,
      "hazards": [
        "FG"
      ],
      "severityScore": 20,
      "metarRaw": "METAR EDSB 160150Z AUTO 00000KT 9999 // NCD 04/03 Q1013",
      "tafRaw": "TAF EDSB 152300Z 1600/1624 18005KT CAVOK \n  PROB30 \n  TEMPO 1600/1609 4000 BCFG \n  BECMG 1610/1612 VRB03KT \n  PROB40 \n  TEMPO 1621/1624 2000 BCFG"
    },
    {
      "icao": "HESX",
      "iata": "SPX",
      "name": "Sphinx International Airport",
      "updatedAt": "160200Z",
      "visibility_m": 3000,
      "taf_visibility_m": 1000,
      "worst_visibility_m": 1000,
      "ceiling_ft": null,
      "hazards": [
        "BR"
      ],
      "severityScore": 20,
      "metarRaw": "METAR HESX 160200Z 06002KT 3000 BR NSC 10/08 Q1023 NOSIG",
      "tafRaw": "TAF HESX 152300Z 1600/1706 36006KT 9999 FEW025 \n  TEMPO 1600/1608 3000 BR \n  PROB40 \n  TEMPO 1601/1606 1000"
    },
    {
      "icao": "LIRZ",
      "iata": "PEG",
      "name": "Perugia San Francesco d'Assisi – Umbria International Airport",
      "updatedAt": "160150Z",
      "visibility_m": 10000,
      "taf_visibility_m": 3000,
      "worst_visibility_m": 3000,
      "ceiling_ft": null,
      "hazards": [
        "FG"
      ],
      "severityScore": 20,
      "metarRaw": "METAR LIRZ 160150Z AUTO 35003KT 310V020 9999 NCD 05/05 Q1022",
      "tafRaw": "TAF LIRZ 152300Z 1600/1624 VRB04KT 9999 FEW050 \n  TEMPO 1604/1609 3000 BCFG"
    },
    {
      "icao": "LYNI",
      "iata": "INI",
      "name": "Niš Constantine the Great Airport",
      "updatedAt": "160200Z",
      "visibility_m": 10000,
      "taf_visibility_m": 1500,
      "worst_visibility_m": 1500,
      "ceiling_ft": 7300,
      "hazards": [
        "BR"
      ],
      "severityScore": 20,
      "metarRaw": "METAR LYNI 160200Z 12002KT 9999 FEW050 BKN073 05/04 Q1023 NOSIG",
      "tafRaw": "TAF LYNI 152300Z 1600/1624 11004KT 6000 BKN060 TX07/1612Z TN01/1606Z \n  TEMPO 1603/1608 1500 BR \n  BECMG 1611/1613 05011KT \n  TEMPO 1616/1624 BKN013 BKN030"
    },
    {
      "icao": "ENTO",
      "iata": "TRF",
      "name": "Sandefjord Airport, Torp",
      "updatedAt": "160150Z",
      "visibility_m": 4300,
      "taf_visibility_m": null,
      "worst_visibility_m": 4300,
      "ceiling_ft": null,
      "hazards": [
        "RA"
      ],
      "severityScore": 17,
      "metarRaw": "METAR ENTO 160150Z AUTO 15008KT 120V180 4300 +RA OVC001/// 03/03 Q1008",
      "tafRaw": null
    },
    {
      "icao": "ENHD",
      "iata": "HAU",
      "name": "Haugesund Airport, Karmøy",
      "updatedAt": "160150Z",
      "visibility_m": 10000,
      "taf_visibility_m": null,
      "worst_visibility_m": 10000,
      "ceiling_ft": null,
      "hazards": [
        "DZ"
      ],
      "severityScore": 15,
      "metarRaw": "METAR ENHD 160150Z AUTO 11010KT 9999 -DZ FEW024/// 06/03 Q1002",
      "tafRaw": null
    },
    {
      "icao": "LRTM",
      "iata": "TGM",
      "name": "Târgu Mureş Transilvania International Airport",
      "updatedAt": "160200Z",
      "visibility_m": 5000,
      "taf_visibility_m": null,
      "worst_visibility_m": 5000,
      "ceiling_ft": null,
      "hazards": [
        "BR"
      ],
      "severityScore": 15,
      "metarRaw": "METAR LRTM 160200Z AUTO 06003KT 5000 BR FEW012/// SCT100/// BKN110/// 00/M01 Q1024",
      "tafRaw": null
    },
    {
      "icao": "GMMN",
      "iata": "CMN",
      "name": "Mohammed V International Airport",
      "updatedAt": "160200Z",
      "visibility_m": 10000,
      "taf_visibility_m": 4000,
      "worst_visibility_m": 4000,
      "ceiling_ft": 10000,
      "hazards": [
        "RA"
      ],
      "severityScore": 12,
      "metarRaw": "METAR GMMN 160200Z 19007KT 9999 SCT005 BKN100 09/08 Q1022 NOSIG",
      "tafRaw": "TAF GMMN 152300Z 1600/1706 21007KT 9999 SCT020 SCT200 \n  BECMG 1605/1607 24013KT \n  TEMPO 1612/1706 4000 RA SCT013 BKN026TCU"
    },
    {
      "icao": "GMMX",
      "iata": "RAK",
      "name": "Menara Airport",
      "updatedAt": "160200Z",
      "visibility_m": 10000,
      "taf_visibility_m": 4000,
      "worst_visibility_m": 4000,
      "ceiling_ft": 2600,
      "hazards": [
        "RA"
      ],
      "severityScore": 12,
      "metarRaw": "METAR GMMX 160200Z 24003KT CAVOK 08/07 Q1022 NOSIG",
      "tafRaw": "TAF GMMX 152300Z 1600/1706 06006KT 8000 SCT026 \n  TEMPO 1616/1624 34016KT 4000 RA FEW010 BKN026 SCT090"
    },
    {
      "icao": "LEAL",
      "iata": "ALC",
      "name": "Alicante-Elche Miguel Hernández Airport",
      "updatedAt": "160200Z",
      "visibility_m": 10000,
      "taf_visibility_m": 4000,
      "worst_visibility_m": 4000,
      "ceiling_ft": null,
      "hazards": [
        "RA"
      ],
      "severityScore": 12,
      "metarRaw": "METAR LEAL 160200Z 28005KT CAVOK 11/09 Q1016 NOSIG",
      "tafRaw": "TAF LEAL 152300Z 1600/1624 VRB04KT CAVOK TX17/1613Z TN07/1606Z \n  TEMPO 1620/1624 4000 RA"
    },
    {
      "icao": "LEBB",
      "iata": "BIO",
      "name": "Bilbao Airport",
      "updatedAt": "160200Z",
      "visibility_m": 10000,
      "taf_visibility_m": 3000,
      "worst_visibility_m": 3000,
      "ceiling_ft": null,
      "hazards": [
        "RA"
      ],
      "severityScore": 12,
      "metarRaw": "METAR LEBB 160200Z AUTO 09005KT 9999 FEW048 10/05 Q1012",
      "tafRaw": "TAF LEBB 152300Z 1600/1624 12006KT 9999 FEW045 TX15/1613Z TN06/1622Z \n  TEMPO 1610/1618 20010KT \n  PROB30 \n  TEMPO 1620/1624 3000 RA"
    },
    {
      "icao": "LEXJ",
      "iata": "SDR",
      "name": "Seve Ballesteros-Santander Airport",
      "updatedAt": "160200Z",
      "visibility_m": 6000,
      "taf_visibility_m": 3000,
      "worst_visibility_m": 3000,
      "ceiling_ft": null,
      "hazards": [
        "RA"
      ],
      "severityScore": 12,
      "metarRaw": "METAR LEXJ 160200Z AUTO 00000KT 6000 SCT045 07/06 Q1012",
      "tafRaw": "TAF LEXJ 152000Z 1521/1621 20009KT 9999 SCT020 TX15/1614Z TN08/1608Z \n  PROB40 1615/1618 29010KT \n  PROB30 \n  TEMPO 1618/1621 3000 RA"
    },
    {
      "icao": "LICJ",
      "iata": "PMO",
      "name": "Falcone–Borsellino Airport",
      "updatedAt": "160150Z",
      "visibility_m": 10000,
      "taf_visibility_m": 10000,
      "worst_visibility_m": 10000,
      "ceiling_ft": null,
      "hazards": [
        "RA"
      ],
      "severityScore": 12,
      "metarRaw": "METAR LICJ 160150Z 21005KT CAVOK 11/09 Q1019",
      "tafRaw": "TAF LICJ 152300Z 1600/1624 VRB05KT CAVOK \n  TEMPO 1621/1624 RA"
    },
    {
      "icao": "LIMJ",
      "iata": "GOA",
      "name": "Genoa Cristoforo Colombo Airport",
      "updatedAt": "160150Z",
      "visibility_m": 10000,
      "taf_visibility_m": 10000,
      "worst_visibility_m": 10000,
      "ceiling_ft": 3000,
      "hazards": [
        "RA"
      ],
      "severityScore": 12,
      "metarRaw": "METAR LIMJ 160150Z 05015KT 9999 SCT023 09/06 Q1020",
      "tafRaw": "TAF LIMJ 152300Z 1600/1624 04012KT 9999 SCT020 BKN030 \n  TEMPO 1600/1618 RA"
    },
    {
      "icao": "LMML",
      "iata": "MLA",
      "name": "Malta International Airport",
      "updatedAt": "160145Z",
      "visibility_m": 10000,
      "taf_visibility_m": 7000,
      "worst_visibility_m": 7000,
      "ceiling_ft": null,
      "hazards": [
        "RA"
      ],
      "severityScore": 12,
      "metarRaw": "METAR LMML 160145Z 12011KT 9999 FEW030 15/13 Q1019 NOSIG",
      "tafRaw": "TAF LMML 152300Z 1600/1624 13012KT 9999 FEW018 \n  PROB30 \n  TEMPO 1615/1624 7000 RA"
    },
    {
      "icao": "GCLP",
      "iata": "LPA",
      "name": "Gran Canaria Airport",
      "updatedAt": "160200Z",
      "visibility_m": 10000,
      "taf_visibility_m": 10000,
      "worst_visibility_m": 10000,
      "ceiling_ft": 3400,
      "hazards": [
        "DZ"
      ],
      "severityScore": 10,
      "metarRaw": "METAR GCLP 160200Z 35011KT 9999 BKN034 17/10 Q1024 NOSIG",
      "tafRaw": "TAF GCLP 152000Z 1521/1621 36013KT 9999 BKN030 TX22/1614Z TN15/1606Z \n  PROB30 \n  TEMPO 1618/1621 02020G30KT \n  PROB30 \n  TEMPO 1618/1621 DZ BKN014"
    },
    {
      "icao": "EDDB",
      "iata": "BER",
      "name": "Berlin Brandenburg Airport",
      "updatedAt": "160150Z",
      "visibility_m": 2500,
      "taf_visibility_m": 2500,
      "worst_visibility_m": 2500,
      "ceiling_ft": null,
      "hazards": [
        "BR"
      ],
      "severityScore": 10,
      "metarRaw": "METAR EDDB 160150Z AUTO 13005KT 6000 NSC 03/02 Q1016 TEMPO 2500 BR",
      "tafRaw": "TAF EDDB 152300Z 1600/1624 16008KT 9000 NSC \n  PROB30 \n  TEMPO 1600/1606 2500 BR \n  TEMPO 1608/1613 16013KT"
    },
    {
      "icao": "EPWA",
      "iata": "WAW",
      "name": "Warsaw Chopin Airport",
      "updatedAt": "160200Z",
      "visibility_m": 4000,
      "taf_visibility_m": 2000,
      "worst_visibility_m": 2000,
      "ceiling_ft": 2500,
      "hazards": [
        "BR"
      ],
      "severityScore": 10,
      "metarRaw": "METAR EPWA 160200Z 10008KT 5000 BR BKN025 M04/M05 Q1024 TEMPO 4000 BR",
      "tafRaw": "TAF EPWA 152330Z 1600/1624 11010KT 4000 BR OVC005 \n  TEMPO 1600/1607 2000 BR BKN003 \n  PROB40 1600/1607 6000 \n  BECMG 1607/1610 9999 BKN010 \n  BECMG 1612/1615 BKN015"
    },
    {
      "icao": "EYKA",
      "iata": "KUN",
      "name": "Kaunas International Airport",
      "updatedAt": "160150Z",
      "visibility_m": 8000,
      "taf_visibility_m": 5000,
      "worst_visibility_m": 5000,
      "ceiling_ft": 2500,
      "hazards": [
        "BR"
      ],
      "severityScore": 10,
      "metarRaw": "METAR EYKA 160150Z 14008KT 120V220 8000 OVC025 M13/M15 Q1029",
      "tafRaw": "TAF EYKA 152304Z 1600/1624 16013KT 9000 OVC010 \n  TEMPO 1600/1606 5000 BR BKN005 \n  BECMG 1609/1611 NSC"
    },
    {
      "icao": "EYVI",
      "iata": "VNO",
      "name": "Vilnius International Airport",
      "updatedAt": "160150Z",
      "visibility_m": 8000,
      "taf_visibility_m": 5000,
      "worst_visibility_m": 5000,
      "ceiling_ft": null,
      "hazards": [
        "BR"
      ],
      "severityScore": 10,
      "metarRaw": "METAR EYVI 160150Z 15008KT 8000 NSC M18/M20 Q1029 NOSIG",
      "tafRaw": "TAF EYVI 152305Z 1600/1624 16012KT 9000 NSC \n  TEMPO 1600/1606 5000 BR SCT005"
    },
    {
      "icao": "LGAV",
      "iata": "ATH",
      "name": "Athens Eleftherios Venizelos International Airport",
      "updatedAt": "160150Z",
      "visibility_m": 10000,
      "taf_visibility_m": 4000,
      "worst_visibility_m": 4000,
      "ceiling_ft": null,
      "hazards": [
        "BR"
      ],
      "severityScore": 10,
      "metarRaw": "METAR LGAV 160150Z 00000KT 9999 FEW030 02/01 Q1023 NOSIG",
      "tafRaw": "TAF LGAV 152300Z 1600/1624 VRB03KT 9999 SCT025 \n  PROB30 \n  TEMPO 1600/1607 4000 BR SCT008 \n  BECMG 1618/1620 04012KT"
    },
    {
      "icao": "LIBP",
      "iata": "PSR",
      "name": "Abruzzo Airport",
      "updatedAt": "160150Z",
      "visibility_m": 10000,
      "taf_visibility_m": 4000,
      "worst_visibility_m": 4000,
      "ceiling_ft": null,
      "hazards": [
        "BR"
      ],
      "severityScore": 10,
      "metarRaw": "METAR LIBP 160150Z AUTO 25003KT 9999 FEW240/// 03/02 Q1022",
      "tafRaw": "TAF LIBP 152300Z 1600/1624 VRB05KT CAVOK \n  TEMPO 1600/1607 4000 BR"
    },
    {
      "icao": "LIPZ",
      "iata": "VCE",
      "name": "Venice Marco Polo Airport",
      "updatedAt": "160150Z",
      "visibility_m": 6000,
      "taf_visibility_m": 2000,
      "worst_visibility_m": 2000,
      "ceiling_ft": 2000,
      "hazards": [
        "BR"
      ],
      "severityScore": 10,
      "metarRaw": "METAR LIPZ 160150Z VRB01KT 6000 BKN020 06/05 Q1022 NOSIG",
      "tafRaw": "TAF LIPZ 152300Z 1600/1706 VRB04KT 6000 SCT030 \n  TEMPO 1600/1607 2000 BR BKN010 \n  TEMPO 1621/1706 2000 BR BKN010"
    },
    {
      "icao": "UDSG",
      "iata": "LWN",
      "name": "Shirak International Airport",
      "updatedAt": "160200Z",
      "visibility_m": 10000,
      "taf_visibility_m": 5000,
      "worst_visibility_m": 5000,
      "ceiling_ft": null,
      "hazards": [
        "BR"
      ],
      "severityScore": 10,
      "metarRaw": "METAR UDSG 160200Z 06001KT 9999 NSC M18/M21 Q1019 NOSIG",
      "tafRaw": "TAF UDSG 152258Z 1600/1624 VRB06KT 9999 SCT040 \n  TEMPO 1600/1606 5000 BR"
    },
    {
      "icao": "UDYZ",
      "iata": "EVN",
      "name": "Zvartnots International Airport",
      "updatedAt": "160200Z",
      "visibility_m": 10000,
      "taf_visibility_m": 2000,
      "worst_visibility_m": 2000,
      "ceiling_ft": null,
      "hazards": [
        "BR"
      ],
      "severityScore": 10,
      "metarRaw": "METAR UDYZ 160200Z 15002KT 9999 NSC M07/M10 Q1022 NOSIG",
      "tafRaw": "TAF UDYZ 152300Z 1600/1624 VRB04KT 6000 NSC \n  TEMPO 1600/1606 2000 BR"
    },
    {
      "icao": "LECH",
      "iata": "CDT",
      "name": "Castellón-Costa Azahar Airport",
      "updatedAt": "160200Z",
      "visibility_m": 10000,
      "taf_visibility_m": null,
      "worst_visibility_m": 10000,
      "ceiling_ft": null,
      "hazards": [],
      "severityScore": 5,
      "metarRaw": "METAR LECH 160200Z AUTO 09002KT CAVOK 05/01 Q1015",
      "tafRaw": null
    },
    {
      "icao": "LFLS",
      "iata": "GNB",
      "name": "Grenoble Alpes Isère Airport",
      "updatedAt": "160200Z",
      "visibility_m": 10000,
      "taf_visibility_m": null,
      "worst_visibility_m": 10000,
      "ceiling_ft": null,
      "hazards": [],
      "severityScore": 5,
      "metarRaw": "METAR LFLS 160200Z AUTO VRB02KT CAVOK 06/03 Q1015",
      "tafRaw": null
    },
    {
      "icao": "LPFR",
      "iata": "FAO",
      "name": "Faro Airport",
      "updatedAt": "160200Z",
      "visibility_m": 10000,
      "taf_visibility_m": null,
      "worst_visibility_m": 10000,
      "ceiling_ft": null,
      "hazards": [],
      "severityScore": 5,
      "metarRaw": "METAR LPFR 160200Z 27007KT 9999 FEW014 12/11 Q1016",
      "tafRaw": null
    },
    {
      "icao": "LPPS",
      "iata": "PXO",
      "name": "Porto Santo Airport",
      "updatedAt": "160200Z",
      "visibility_m": 10000,
      "taf_visibility_m": null,
      "worst_visibility_m": 10000,
      "ceiling_ft": null,
      "hazards": [],
      "severityScore": 5,
      "metarRaw": "METAR LPPS 160200Z 36013KT 9999 SCT012 SCT030 15/13 Q1024",
      "tafRaw": null
    },
    {
      "icao": "LRSM",
      "iata": "SUJ",
      "name": "Satu Mare International Airport",
      "updatedAt": "160200Z",
      "visibility_m": 9000,
      "taf_visibility_m": null,
      "worst_visibility_m": 9000,
      "ceiling_ft": null,
      "hazards": [],
      "severityScore": 5,
      "metarRaw": "METAR LRSM 160200Z AUTO 11007KT 9000 SCT045/// BKN075/// 01/M00 Q1023",
      "tafRaw": null
    },
    {
      "icao": "OEJN",
      "iata": "JED",
      "name": "King Abdulaziz International Airport",
      "updatedAt": "160200Z",
      "visibility_m": 8000,
      "taf_visibility_m": null,
      "worst_visibility_m": 8000,
      "ceiling_ft": null,
      "hazards": [],
      "severityScore": 5,
      "metarRaw": "METAR OEJN 160200Z 06008KT 8000 NSC 24/00 Q1013 NOSIG",
      "tafRaw": null
    },
    {
      "icao": "BIKF",
      "iata": "KEF",
      "name": "Keflavik International Airport",
      "updatedAt": "160200Z",
      "visibility_m": 10000,
      "taf_visibility_m": 10000,
      "worst_visibility_m": 10000,
      "ceiling_ft": 6800,
      "hazards": [],
      "severityScore": 0,
      "metarRaw": "METAR BIKF 160200Z 02016KT 9999 FEW015 BKN068 01/M02 Q0995",
      "tafRaw": "TAF BIKF 160105Z 1603/1703 02020KT 9999 FEW025 SCT040 TX02/1606Z TNM02/1703Z \n  BECMG 1616/1618 02010KT \n  BECMG 1701/1703 07010KT"
    },
    {
      "icao": "GCFV",
      "iata": "FUE",
      "name": "Fuerteventura Airport",
      "updatedAt": "160200Z",
      "visibility_m": 10000,
      "taf_visibility_m": 10000,
      "worst_visibility_m": 10000,
      "ceiling_ft": 3600,
      "hazards": [],
      "severityScore": 0,
      "metarRaw": "METAR GCFV 160200Z AUTO 35009KT 9999 OVC036 17/09 Q1024",
      "tafRaw": "TAF GCFV 152000Z 1521/1621 34006KT 9999 SCT030 TX22/1614Z TN14/1606Z \n  BECMG 1609/1611 04010KT \n  BECMG 1614/1616 34010KT"
    },
    {
      "icao": "GMAD",
      "iata": "AGA",
      "name": "Al Massira Airport",
      "updatedAt": "160200Z",
      "visibility_m": 10000,
      "taf_visibility_m": 10000,
      "worst_visibility_m": 10000,
      "ceiling_ft": null,
      "hazards": [],
      "severityScore": 0,
      "metarRaw": "METAR GMAD 160200Z 03005KT CAVOK 09/09 Q1022 NOSIG",
      "tafRaw": "TAF GMAD 152300Z 1600/1706 14003KT CAVOK \n  BECMG 1616/1618 27010KT"
    },
    {
      "icao": "EDDK",
      "iata": "CGN",
      "name": "Cologne Bonn Airport",
      "updatedAt": "160150Z",
      "visibility_m": 10000,
      "taf_visibility_m": 10000,
      "worst_visibility_m": 10000,
      "ceiling_ft": null,
      "hazards": [],
      "severityScore": 0,
      "metarRaw": "METAR EDDK 160150Z AUTO 17013KT CAVOK 11/05 Q1009 NOSIG",
      "tafRaw": "TAF EDDK 152300Z 1600/1706 14009KT 9999 SCT040"
    },
    {
      "icao": "EDJA",
      "iata": "FMM",
      "name": "Memmingen Allgau Airport",
      "updatedAt": "160150Z",
      "visibility_m": 10000,
      "taf_visibility_m": 10000,
      "worst_visibility_m": 10000,
      "ceiling_ft": null,
      "hazards": [],
      "severityScore": 0,
      "metarRaw": "METAR EDJA 160150Z AUTO 15002KT 9999 // NCD M01/M03 Q1014",
      "tafRaw": "TAF EDJA 151700Z 1518/1603 VRB03KT CAVOK"
    },
    {
      "icao": "EDLW",
      "iata": "DTM",
      "name": "Dortmund Airport",
      "updatedAt": "160150Z",
      "visibility_m": 10000,
      "taf_visibility_m": 10000,
      "worst_visibility_m": 10000,
      "ceiling_ft": null,
      "hazards": [],
      "severityScore": 0,
      "metarRaw": "METAR EDLW 160150Z AUTO 18014KT 9999 // FEW080/// BKN190/// 11/05 Q1007",
      "tafRaw": "TAF EDLW 151700Z 1518/1618 17012KT 9999 SCT030 \n  PROB30 \n  TEMPO 1521/1604 17015G25KT \n  BECMG 1612/1615 16007KT"
    },
    {
      "icao": "EHEH",
      "iata": "EIN",
      "name": "Eindhoven Airport",
      "updatedAt": "160155Z",
      "visibility_m": 10000,
      "taf_visibility_m": 10000,
      "worst_visibility_m": 10000,
      "ceiling_ft": 3100,
      "hazards": [],
      "severityScore": 0,
      "metarRaw": "METAR EHEH 160155Z AUTO 18015KT 160V230 9999 FEW024 SCT027 OVC031 11/06 Q1005 BLU",
      "tafRaw": "TAF EHEH 152340Z 1600/1706 15013KT CAVOK \n  TEMPO 1602/1606 SCT012 BKN016 \n  PROB30 1602/1606 SCT010 BKN015 \n  BECMG 1605/1607 21007KT"
    },
    {
      "icao": "ENAL",
      "iata": "AES",
      "name": "Ålesund Airport, Vigra",
      "updatedAt": "160150Z",
      "visibility_m": 10000,
      "taf_visibility_m": 10000,
      "worst_visibility_m": 10000,
      "ceiling_ft": null,
      "hazards": [],
      "severityScore": 0,
      "metarRaw": "METAR ENAL 160150Z AUTO 21007KT 9999 NCD 07/00 Q1001",
      "tafRaw": "TAF ENAL 152300Z 1600/1609 20010KT 9999 SCT050 \n  BECMG 1602/1604 14006KT"
    },
    {
      "icao": "ENTC",
      "iata": "TOS",
      "name": "Tromsø Airport, Langnes",
      "updatedAt": "160150Z",
      "visibility_m": 10000,
      "taf_visibility_m": 10000,
      "worst_visibility_m": 10000,
      "ceiling_ft": null,
      "hazards": [],
      "severityScore": 0,
      "metarRaw": "METAR ENTC 160150Z AUTO 21017KT 9999 NCD M01/M07 Q1008 RMK WIND 2600FT 19008KT",
      "tafRaw": "TAF ENTC 152300Z 1600/1624 20016KT CAVOK \n  BECMG 1604/1607 21006KT"
    },
    {
      "icao": "HEGN",
      "iata": "HRG",
      "name": "Hurghada International Airport",
      "updatedAt": "160200Z",
      "visibility_m": 10000,
      "taf_visibility_m": 10000,
      "worst_visibility_m": 10000,
      "ceiling_ft": null,
      "hazards": [],
      "severityScore": 0,
      "metarRaw": "METAR HEGN 160200Z 29010KT CAVOK 14/06 Q1021 NOSIG",
      "tafRaw": "TAF HEGN 152300Z 1600/1706 29015KT CAVOK"
    },
    {
      "icao": "HEMA",
      "iata": "RMF",
      "name": "Marsa Alam International Airport",
      "updatedAt": "160200Z",
      "visibility_m": 10000,
      "taf_visibility_m": 10000,
      "worst_visibility_m": 10000,
      "ceiling_ft": null,
      "hazards": [],
      "severityScore": 0,
      "metarRaw": "METAR HEMA 160200Z 30010KT CAVOK 14/11 Q1020 NOSIG",
      "tafRaw": "TAF HEMA 152300Z 1600/1706 30015KT 9999 SCT025"
    },
    {
      "icao": "HESH",
      "iata": "SSH",
      "name": "Sharm El Sheikh International Airport",
      "updatedAt": "160200Z",
      "visibility_m": 10000,
      "taf_visibility_m": 10000,
      "worst_visibility_m": 10000,
      "ceiling_ft": null,
      "hazards": [],
      "severityScore": 0,
      "metarRaw": "METAR HESH 160200Z 35010KT CAVOK 15/04 Q1021 NOSIG",
      "tafRaw": "TAF HESH 152300Z 1600/1706 33010KT CAVOK"
    },
    {
      "icao": "LATI",
      "iata": "TIA",
      "name": "Tirana International Airport Mother Teresa",
      "updatedAt": "160150Z",
      "visibility_m": 10000,
      "taf_visibility_m": 10000,
      "worst_visibility_m": 10000,
      "ceiling_ft": 6000,
      "hazards": [],
      "severityScore": 0,
      "metarRaw": "METAR LATI 160150Z 15004KT 9999 SCT045 BKN060 10/05 Q1023 NOSIG",
      "tafRaw": "TAF LATI 152300Z 1600/1624 VRB05KT 9999 BKN070 TX16/1612Z TN06/1605Z"
    },
    {
      "icao": "LCLK",
      "iata": "LCA",
      "name": "Larnaca International Airport",
      "updatedAt": "160200Z",
      "visibility_m": 10000,
      "taf_visibility_m": 10000,
      "worst_visibility_m": 10000,
      "ceiling_ft": null,
      "hazards": [],
      "severityScore": 0,
      "metarRaw": "METAR LCLK 160200Z 30007KT 9999 FEW040 08/07 Q1023 NOSIG",
      "tafRaw": "TAF LCLK 152330Z 1600/1700 32006KT 9999 FEW025 SCT040 \n  BECMG 1607/1610 20010KT \n  BECMG 1616/1619 32006KT"
    },
    {
      "icao": "LEVC",
      "iata": "VLC",
      "name": "Valencia Airport",
      "updatedAt": "160200Z",
      "visibility_m": 10000,
      "taf_visibility_m": 10000,
      "worst_visibility_m": 10000,
      "ceiling_ft": null,
      "hazards": [],
      "severityScore": 0,
      "metarRaw": "METAR LEVC 160200Z 24007KT CAVOK 10/05 Q1016 NOSIG",
      "tafRaw": "TAF LEVC 152300Z 1600/1624 24005KT CAVOK TX15/1612Z TN06/1606Z \n  TEMPO 1612/1618 VRB03KT \n  BECMG 1617/1619 30005KT"
    },
    {
      "icao": "LFLL",
      "iata": "LYS",
      "name": "Lyon Saint-Exupéry Airport",
      "updatedAt": "160200Z",
      "visibility_m": 10000,
      "taf_visibility_m": 10000,
      "worst_visibility_m": 10000,
      "ceiling_ft": 5000,
      "hazards": [],
      "severityScore": 0,
      "metarRaw": "METAR LFLL 160200Z 12006KT 9999 BKN050 10/05 Q1015 NOSIG",
      "tafRaw": "TAF LFLL 152300Z 1600/1706 18012KT CAVOK \n  TEMPO 1600/1603 18015G25KT \n  BECMG 1603/1605 16007KT"
    },
    {
      "icao": "LFMN",
      "iata": "NCE",
      "name": "Nice-Côte d'Azur Airport",
      "updatedAt": "160200Z",
      "visibility_m": 10000,
      "taf_visibility_m": 10000,
      "worst_visibility_m": 10000,
      "ceiling_ft": 3000,
      "hazards": [],
      "severityScore": 0,
      "metarRaw": "METAR LFMN 160200Z 33011KT CAVOK 09/05 Q1019 NOSIG",
      "tafRaw": "TAF LFMN 152000Z 1521/1703 VRB03KT 9999 SCT020 BKN030 \n  BECMG 1521/1523 34010KT CAVOK \n  BECMG 1611/1613 08015KT \n  PROB30 \n  TEMPO 1617/1622 34005KT \n  BECMG 1622/1624 34010KT \n  PROB40 \n  TEMPO 1700/1703 09012KT"
    },
    {
      "icao": "LFSB",
      "iata": "BSL",
      "name": "EuroAirport Basel–Mulhouse–Freiburg",
      "updatedAt": "160200Z",
      "visibility_m": 10000,
      "taf_visibility_m": 10000,
      "worst_visibility_m": 10000,
      "ceiling_ft": null,
      "hazards": [],
      "severityScore": 0,
      "metarRaw": "METAR LFSB 160200Z AUTO 17006KT CAVOK 03/02 Q1015 NOSIG",
      "tafRaw": "TAF LFSB 152300Z 1600/1624 17005KT CAVOK"
    },
    {
      "icao": "LIBD",
      "iata": "BRI",
      "name": "Bari Karol Wojtyła International Airport",
      "updatedAt": "160150Z",
      "visibility_m": 10000,
      "taf_visibility_m": 10000,
      "worst_visibility_m": 10000,
      "ceiling_ft": null,
      "hazards": [],
      "severityScore": 0,
      "metarRaw": "METAR LIBD 160150Z 22004KT CAVOK 04/03 Q1021",
      "tafRaw": "TAF LIBD 152300Z 1600/1624 VRB05KT 9999 FEW030"
    },
    {
      "icao": "LIBG",
      "iata": "TAR",
      "name": "Taranto-Grottaglie Marcello Arlotta Airport",
      "updatedAt": null,
      "visibility_m": null,
      "taf_visibility_m": 8000,
      "worst_visibility_m": 8000,
      "ceiling_ft": null,
      "hazards": [],
      "severityScore": 0,
      "metarRaw": null,
      "tafRaw": "TAF LIBG 151700Z 1518/1603 VRB05KT 8000 FEW025"
    },
    {
      "icao": "LICA",
      "iata": "SUF",
      "name": "Lamezia Terme Sant'Eufemia International Airport",
      "updatedAt": "160150Z",
      "visibility_m": 10000,
      "taf_visibility_m": 10000,
      "worst_visibility_m": 10000,
      "ceiling_ft": null,
      "hazards": [],
      "severityScore": 0,
      "metarRaw": "METAR LICA 160150Z AUTO 06008KT 9999 NCD 08/06 Q1021",
      "tafRaw": "TAF LICA 152300Z 1600/1624 08005KT CAVOK \n  BECMG 1608/1610 08015KT"
    },
    {
      "icao": "LIRF",
      "iata": "FCO",
      "name": "Rome–Fiumicino Leonardo da Vinci International Airport",
      "updatedAt": "160150Z",
      "visibility_m": 10000,
      "taf_visibility_m": 10000,
      "worst_visibility_m": 10000,
      "ceiling_ft": null,
      "hazards": [],
      "severityScore": 0,
      "metarRaw": "METAR LIRF 160150Z 08004KT CAVOK 06/06 Q1021 NOSIG",
      "tafRaw": "TAF LIRF 152300Z 1600/1706 08007KT 9999 FEW020"
    },
    {
      "icao": "LIRN",
      "iata": "NAP",
      "name": "Naples International Airport",
      "updatedAt": "160150Z",
      "visibility_m": 10000,
      "taf_visibility_m": 10000,
      "worst_visibility_m": 10000,
      "ceiling_ft": null,
      "hazards": [],
      "severityScore": 0,
      "metarRaw": "METAR LIRN 160150Z 34002KT CAVOK 07/05 Q1021 NOSIG",
      "tafRaw": "TAF LIRN 152300Z 1600/1624 VRB05KT CAVOK"
    },
    {
      "icao": "LIRP",
      "iata": "PSA",
      "name": "Pisa International Airport",
      "updatedAt": "160145Z",
      "visibility_m": 10000,
      "taf_visibility_m": 10000,
      "worst_visibility_m": 10000,
      "ceiling_ft": 7000,
      "hazards": [],
      "severityScore": 0,
      "metarRaw": "METAR LIRP 160145Z 12005KT 9999 SCT030 BKN070 10/10 Q1020 NOSIG",
      "tafRaw": "TAF LIRP 152300Z 1600/1624 VRB03KT 9999 SCT020 SCT040"
    },
    {
      "icao": "LLBG",
      "iata": "TLV",
      "name": "Ben Gurion International Airport",
      "updatedAt": "160150Z",
      "visibility_m": 10000,
      "taf_visibility_m": 10000,
      "worst_visibility_m": 10000,
      "ceiling_ft": 3500,
      "hazards": [],
      "severityScore": 0,
      "metarRaw": "METAR LLBG 160150Z VRB01KT CAVOK 08/06 Q1024 NOSIG RMK SCT055",
      "tafRaw": "TAF LLBG 152323Z 1600/1624 VRB03KT 9999 FEW045 \n  PROB40 \n  TEMPO 1600/1607 16005KT BKN035 \n  BECMG 1607/1609 29010KT SCT045 \n  PROB40 \n  TEMPO 1609/1615 BKN040 \n  BECMG 1615/1617 VRB04KT TX18/1611Z TN09/1604Z"
    },
    {
      "icao": "LWOH",
      "iata": "OHD",
      "name": "Ohrid St. Paul the Apostle Airport",
      "updatedAt": null,
      "visibility_m": null,
      "taf_visibility_m": 10000,
      "worst_visibility_m": 10000,
      "ceiling_ft": null,
      "hazards": [],
      "severityScore": 0,
      "metarRaw": null,
      "tafRaw": "TAF LWOH 152350Z 1600/1624 VRB02KT 9999 FEW040"
    },
    {
      "icao": "OEMA",
      "iata": "MED",
      "name": "Prince Mohammad Bin Abdulaziz Airport",
      "updatedAt": "160200Z",
      "visibility_m": 10000,
      "taf_visibility_m": 7000,
      "worst_visibility_m": 7000,
      "ceiling_ft": null,
      "hazards": [],
      "severityScore": 0,
      "metarRaw": "METAR OEMA 160200Z 03007KT CAVOK 13/M02 Q1023 NOSIG",
      "tafRaw": "TAF OEMA 152300Z 1600/1706 VRB03KT CAVOK \n  BECMG 1606/1608 08015KT 7000 NSC"
    },
    {
      "icao": "OMAA",
      "iata": "AUH",
      "name": "Zayed International Airport",
      "updatedAt": "160200Z",
      "visibility_m": 10000,
      "taf_visibility_m": 8000,
      "worst_visibility_m": 8000,
      "ceiling_ft": null,
      "hazards": [],
      "severityScore": 0,
      "metarRaw": "METAR OMAA 160200Z 30010KT CAVOK 19/11 Q1018 NOSIG",
      "tafRaw": "TAF OMAA 152300Z 1600/1706 32012KT 8000 FEW030 \n  PROB30 \n  TEMPO 1605/1613 32015G25KT"
    },
    {
      "icao": "OMDB",
      "iata": "DXB",
      "name": "Dubai International Airport",
      "updatedAt": "160200Z",
      "visibility_m": 10000,
      "taf_visibility_m": 8000,
      "worst_visibility_m": 8000,
      "ceiling_ft": null,
      "hazards": [],
      "severityScore": 0,
      "metarRaw": "METAR OMDB 160200Z 27012KT 230V290 CAVOK 20/10 Q1017 NOSIG",
      "tafRaw": "TAF OMDB 152300Z 1600/1706 29013KT 8000 FEW030 \n  PROB30 1600/1605 23008KT \n  PROB30 \n  TEMPO 1605/1615 29018G28KT \n  PROB30 1701/1705 23007KT"
    },
    {
      "icao": "UBBB",
      "iata": "GYD",
      "name": "Heydar Aliyev International Airport",
      "updatedAt": "160200Z",
      "visibility_m": 10000,
      "taf_visibility_m": 10000,
      "worst_visibility_m": 10000,
      "ceiling_ft": null,
      "hazards": [],
      "severityScore": 0,
      "metarRaw": "METAR UBBB 160200Z 20006KT CAVOK 03/00 Q1021 NOSIG",
      "tafRaw": "TAF UBBB 152302Z 1600/1624 17008KT 9999 SCT030 TX07/1610Z TNM00/1602Z \n  TEMPO 1600/1604 20010KT SCT015 \n  TEMPO 1606/1612 20014KT \n  TEMPO 1614/1616 24006KT SCT012 \n  BECMG 1616/1618 31006KT SCT010 SCT020"
    }
  ],
  "stats": {
    "icaoCount": 159,
    "metarReturned": 156,
    "tafReturned": 145,
    "stationsWritten": 159,
    "missingMetar": 3,
    "missingTaf": 14
  },
  "errors": []
}