{
  "generatedAt": "2026-01-17T18:56:52.679Z",
  "stations": [
    {
      "icao": "EDDB",
      "iata": "BER",
      "name": "Berlin Brandenburg Airport",
      "updatedAt": "171850Z",
      "visibility_m": 2000,
      "taf_visibility_m": 300,
      "worst_visibility_m": 300,
      "ceiling_ft": 200,
      "hazards": [
        "BR",
        "FZFG",
        "FG"
      ],
      "severityScore": 100,
      "metarRaw": "METAR EDDB 171850Z AUTO 10009KT 4400 BR OVC002 02/02 Q1026 TEMPO 2000 BR",
      "tafRaw": "TAF EDDB 171700Z 1718/1818 10009KT 3000 BR OVC002 \n  TEMPO 1718/1809 0700 FG OVC001 \n  PROB30 \n  TEMPO 1800/1808 0300 FZFG \n  BECMG 1808/1811 5000 SCT004"
    },
    {
      "icao": "EDDS",
      "iata": "STR",
      "name": "Stuttgart Airport",
      "updatedAt": "171850Z",
      "visibility_m": 10000,
      "taf_visibility_m": 600,
      "worst_visibility_m": 600,
      "ceiling_ft": 0,
      "hazards": [
        "FZFG",
        "BR",
        "FG"
      ],
      "severityScore": 100,
      "metarRaw": "METAR EDDS 171850Z AUTO 08005KT CAVOK M01/M02 Q1020 NOSIG",
      "tafRaw": "TAF EDDS 171700Z 1718/1818 06004KT CAVOK \n  TEMPO 1720/1810 0600 FZFG VV000 \n  TEMPO 1810/1812 BKN005 \n  TEMPO 1817/1818 4000 BR"
    },
    {
      "icao": "EDFH",
      "iata": "HHN",
      "name": "Frankfurt-Hahn Airport",
      "updatedAt": "171850Z",
      "visibility_m": 10000,
      "taf_visibility_m": 600,
      "worst_visibility_m": 600,
      "ceiling_ft": 0,
      "hazards": [
        "FZFG",
        "BR",
        "FG"
      ],
      "severityScore": 100,
      "metarRaw": "METAR EDFH 171850Z 14016KT 130V200 CAVOK 00/M00 Q1020",
      "tafRaw": "TAF EDFH 171700Z 1718/1818 13012KT CAVOK \n  BECMG 1721/1723 BKN005 \n  TEMPO 1723/1811 1200 BR BKN002 \n  PROB40 \n  TEMPO 1723/1808 0600 FZFG VV000 \n  TEMPO 1811/1815 SCT005"
    },
    {
      "icao": "EDJA",
      "iata": "FMM",
      "name": "Memmingen Allgau Airport",
      "updatedAt": "171820Z",
      "visibility_m": 800,
      "taf_visibility_m": 400,
      "worst_visibility_m": 400,
      "ceiling_ft": 100,
      "hazards": [
        "FZFG",
        "FG"
      ],
      "severityScore": 100,
      "metarRaw": "METAR EDJA 171820Z 05009KT 0800 R06/1000U FZFG VV/// M02/M02 Q1019",
      "tafRaw": "TAF EDJA 171700Z 1718/1803 05005KT 0900 FZFG OVC002 \n  BECMG 1718/1720 0400 FZFG VV001"
    },
    {
      "icao": "EFTU",
      "iata": "TKU",
      "name": "Turku Airport",
      "updatedAt": "171850Z",
      "visibility_m": 1100,
      "taf_visibility_m": 500,
      "worst_visibility_m": 500,
      "ceiling_ft": 100,
      "hazards": [
        "SHRA",
        "RA",
        "FG",
        "BR",
        "DZ"
      ],
      "severityScore": 100,
      "metarRaw": "METAR EFTU 171850Z AUTO 23004KT 1800 1100 R26/2000N -SHRA OVC001 02/02 Q1032",
      "tafRaw": "TAF EFTU 171728Z 1718/1818 23005KT 1500 BR OVC002 \n  TEMPO 1718/1809 0500 DZ FG VV001 \n  BECMG 1809/1812 8000 NSW OVC013 \n  TEMPO 1812/1818 2500 DZ OVC006"
    },
    {
      "icao": "EGBB",
      "iata": "BHX",
      "name": "Birmingham Airport",
      "updatedAt": "171850Z",
      "visibility_m": 10000,
      "taf_visibility_m": 300,
      "worst_visibility_m": 300,
      "ceiling_ft": 0,
      "hazards": [
        "FG",
        "BR",
        "DZ"
      ],
      "severityScore": 100,
      "metarRaw": "METAR EGBB 171850Z 14003KT 9999 FEW045 04/04 Q1018",
      "tafRaw": "TAF EGBB 171700Z 1718/1818 13007KT 9999 FEW019 \n  BECMG 1718/1721 7000 BKN006 \n  PROB30 1718/1721 3000 BR MIFG FEW006 \n  BECMG 1721/1724 3000 -DZ BR BKN004 \n  PROB30 \n  TEMPO 1802/1812 0300 FG BKN000 \n  BECMG 1807/1810 6000 NSW BKN005 \n  TEMPO 1807/1818 1200 DZ BR BKN002"
    },
    {
      "icao": "EGGW",
      "iata": "LTN",
      "name": "London Luton Airport",
      "updatedAt": "171850Z",
      "visibility_m": 10000,
      "taf_visibility_m": 300,
      "worst_visibility_m": 300,
      "ceiling_ft": 100,
      "hazards": [
        "FG",
        "BR",
        "DZ"
      ],
      "severityScore": 100,
      "metarRaw": "METAR EGGW 171850Z AUTO 13006KT 9999 NCD 07/06 Q1018",
      "tafRaw": "TAF EGGW 171658Z 1718/1818 12005KT 9999 FEW007 \n  BECMG 1718/1721 6000 BKN003 \n  PROB40 \n  TEMPO 1718/1722 1400 BR BKN001 \n  TEMPO 1722/1810 0300 DZ FG BKN001 \n  PROB30 \n  TEMPO 1810/1813 0600 FG BKN001 \n  BECMG 1813/1816 FEW008"
    },
    {
      "icao": "EGNM",
      "iata": "LBA",
      "name": "Leeds Bradford Airport",
      "updatedAt": "171850Z",
      "visibility_m": 300,
      "taf_visibility_m": 300,
      "worst_visibility_m": 300,
      "ceiling_ft": 200,
      "hazards": [
        "FG",
        "BR",
        "RA",
        "DZ"
      ],
      "severityScore": 100,
      "metarRaw": "METAR EGNM 171850Z 06004KT 0300 R32/0300N FG VV/// 06/06 Q1018",
      "tafRaw": "TAF EGNM 171659Z 1718/1818 13003KT 9999 SCT008 BKN016 \n  BECMG 1718/1721 0300 FG VV/// \n  TEMPO 1806/1818 RA -RADZ \n  PROB40 \n  TEMPO 1806/1818 RADZ \n  PROB30 \n  TEMPO 1806/1815 2000 BR SCT001 BKN002"
    },
    {
      "icao": "EGPD",
      "iata": "ABZ",
      "name": "Aberdeen International Airport",
      "updatedAt": "171850Z",
      "visibility_m": 4400,
      "taf_visibility_m": 300,
      "worst_visibility_m": 300,
      "ceiling_ft": 400,
      "hazards": [
        "RA",
        "DZ",
        "FG",
        "BR"
      ],
      "severityScore": 100,
      "metarRaw": "METAR EGPD 171850Z COR 13009KT 4400 -RADZ OVC004 08/07 Q1019 TEMPO RADZ",
      "tafRaw": "TAF EGPD 171655Z 1718/1818 13010KT 9999 SCT006 BKN015 \n  TEMPO 1718/1724 6000 RA -RADZ BKN006 \n  PROB30 \n  TEMPO 1718/1724 2000 +RA RADZ BR BKN002 \n  BECMG 1721/1724 VRB04KT \n  TEMPO 1800/1812 3000 BR BKN004 \n  PROB30 \n  TEMPO 1800/1810 0300 FG VV/// \n  TEMPO 1812/1818 6000 -RADZ BKN006 \n  PROB30 \n  TEMPO 1812/1818 3000 BR BKN003 \n  PROB30 \n  TEMPO 1815/1818 RADZ"
    },
    {
      "icao": "EKBI",
      "iata": "BLL",
      "name": "Billund Airport",
      "updatedAt": "171850Z",
      "visibility_m": 1800,
      "taf_visibility_m": 500,
      "worst_visibility_m": 500,
      "ceiling_ft": 100,
      "hazards": [
        "FG",
        "BR"
      ],
      "severityScore": 100,
      "metarRaw": "METAR EKBI 171850Z AUTO 10012KT 1800 BCFG OVC002/// 01/01 Q1026",
      "tafRaw": "TAF EKBI 171727Z 1718/1818 11010KT 2000 BR BKN003 \n  TEMPO 1718/1808 0500 FG VV001 \n  BECMG 1810/1812 5000 BKN005 \n  TEMPO 1812/1818 4000 BKN004"
    },
    {
      "icao": "ENTO",
      "iata": "TRF",
      "name": "Sandefjord Airport, Torp",
      "updatedAt": "171850Z",
      "visibility_m": 800,
      "taf_visibility_m": 200,
      "worst_visibility_m": 200,
      "ceiling_ft": 300,
      "hazards": [
        "FG",
        "BR",
        "RA",
        "DZ"
      ],
      "severityScore": 100,
      "metarRaw": "METAR ENTO 171850Z 36009KT 1900 RA BR VV003 00/00 Q1030 TEMPO 0800 -RA FG",
      "tafRaw": "TAF ENTO 171700Z 1718/1818 01005KT 0200 FG VV001 \n  PROB40 \n  TEMPO 1718/1818 4000 DZ BR BKN004"
    },
    {
      "icao": "EPKK",
      "iata": "KRK",
      "name": "Kraków John Paul II International Airport",
      "updatedAt": "171830Z",
      "visibility_m": 10000,
      "taf_visibility_m": 300,
      "worst_visibility_m": 300,
      "ceiling_ft": 100,
      "hazards": [
        "FZFG",
        "BR",
        "FG"
      ],
      "severityScore": 100,
      "metarRaw": "METAR EPKK 171830Z 05007KT CAVOK M04/M08 Q1031",
      "tafRaw": "TAF EPKK 171730Z 1718/1818 06010KT CAVOK \n  TEMPO 1720/1810 3500 BR \n  PROB30 1720/1808 1200 BR \n  PROB30 \n  TEMPO 1722/1808 0300 FZFG BKN001"
    },
    {
      "icao": "EPPO",
      "iata": "POZ",
      "name": "Poznań-Ławica Airport",
      "updatedAt": "171830Z",
      "visibility_m": 3300,
      "taf_visibility_m": 400,
      "worst_visibility_m": 400,
      "ceiling_ft": 100,
      "hazards": [
        "BR",
        "FZFG",
        "FG"
      ],
      "severityScore": 100,
      "metarRaw": "METAR EPPO 171830Z 11008KT 3300 BR FEW005 M00/M01 Q1030",
      "tafRaw": "TAF EPPO 171730Z 1718/1818 12010KT 1400 BR OVC001 \n  BECMG 1718/1721 CAVOK \n  BECMG 1721/1724 2000 BR BKN004 \n  TEMPO 1722/1808 0400 FZFG OVC001 \n  BECMG 1806/1809 CAVOK"
    },
    {
      "icao": "EPWR",
      "iata": "WRO",
      "name": "Copernicus Wrocław Airport",
      "updatedAt": "171830Z",
      "visibility_m": 3500,
      "taf_visibility_m": 200,
      "worst_visibility_m": 200,
      "ceiling_ft": 100,
      "hazards": [
        "BR",
        "FZFG",
        "FG"
      ],
      "severityScore": 100,
      "metarRaw": "METAR EPWR 171830Z 11008KT 3500 BR NSC 01/01 Q1029",
      "tafRaw": "TAF EPWR 171730Z 1718/1818 11007KT 5000 BR NSC \n  BECMG 1718/1721 2500 BR OVC006 \n  TEMPO 1719/1721 0600 FZFG BKN001 \n  TEMPO 1721/1809 0200 FZFG BKN001 \n  BECMG 1809/1812 CAVOK"
    },
    {
      "icao": "ESGG",
      "iata": "GOT",
      "name": "Göteborg Landvetter Airport",
      "updatedAt": "171850Z",
      "visibility_m": 500,
      "taf_visibility_m": 300,
      "worst_visibility_m": 300,
      "ceiling_ft": 200,
      "hazards": [
        "FG",
        "BR"
      ],
      "severityScore": 100,
      "metarRaw": "METAR ESGG 171850Z 12005KT 0500 R03/1600N R21/1500N FG VV002 02/02 Q1029",
      "tafRaw": "TAF ESGG 171730Z 1718/1818 10004KT 9999 BKN005 \n  TEMPO 1718/1802 0300 FG VV002 \n  PROB40 1802/1815 1200 BR BKN002 \n  PROB40 1815/1818 3500 BR"
    },
    {
      "icao": "ESKN",
      "iata": "NYO",
      "name": "Stockholm Skavsta Airport",
      "updatedAt": "171850Z",
      "visibility_m": 2500,
      "taf_visibility_m": 200,
      "worst_visibility_m": 200,
      "ceiling_ft": 200,
      "hazards": [
        "BR",
        "FG"
      ],
      "severityScore": 100,
      "metarRaw": "METAR ESKN 171850Z 16004KT 2500 BR VV002 02/02 Q1032",
      "tafRaw": "TAF ESKN 171730Z 1718/1818 14002KT 5000 BR BKN008 \n  TEMPO 1718/1808 0200 FG VV002 \n  PROB40 1808/1818 4000 BR BKN010"
    },
    {
      "icao": "ESMS",
      "iata": "MMX",
      "name": "Malmö Sturup Airport",
      "updatedAt": "171850Z",
      "visibility_m": 200,
      "taf_visibility_m": 200,
      "worst_visibility_m": 200,
      "ceiling_ft": 200,
      "hazards": [
        "FG",
        "BR"
      ],
      "severityScore": 100,
      "metarRaw": "METAR ESMS 171850Z 11008KT 0200 R17/0900N R35/0800N FG VV002 01/01 Q1029",
      "tafRaw": "TAF ESMS 171727Z 1718/1818 13008KT 0200 FG VV002 \n  TEMPO 1718/1806 4000 BR BKN005 \n  BECMG 1806/1808 CAVOK"
    },
    {
      "icao": "ESSA",
      "iata": "ARN",
      "name": "Stockholm-Arlanda Airport",
      "updatedAt": "171850Z",
      "visibility_m": 3000,
      "taf_visibility_m": 300,
      "worst_visibility_m": 300,
      "ceiling_ft": 600,
      "hazards": [
        "FG",
        "BR"
      ],
      "severityScore": 100,
      "metarRaw": "METAR ESSA 171850Z 20003KT 7000 OVC006 02/01 Q1032 BECMG 3000",
      "tafRaw": "TAF ESSA 171730Z 1718/1818 18004KT 9999 OVC005 \n  PROB40 1718/1808 0300 FG VV002 \n  TEMPO 1808/1816 4000 BR BKN012 \n  PROB40 1816/1818 2500 BR BKN004"
    },
    {
      "icao": "LFLL",
      "iata": "LYS",
      "name": "Lyon Saint-Exupéry Airport",
      "updatedAt": "171830Z",
      "visibility_m": 800,
      "taf_visibility_m": 300,
      "worst_visibility_m": 300,
      "ceiling_ft": 200,
      "hazards": [
        "BR",
        "FG"
      ],
      "severityScore": 100,
      "metarRaw": "METAR LFLL 171830Z VRB01KT 5000 BR NSC 07/06 Q1015 TEMPO 0800 BCFG",
      "tafRaw": "TAF LFLL 171700Z 1718/1824 VRB03KT CAVOK \n  PROB40 \n  TEMPO 1718/1723 0800 BCFG \n  BECMG 1720/1723 0600 FG VV/// \n  PROB40 1723/1810 0300 \n  BECMG 1810/1812 2000 BR OVC002 \n  BECMG 1812/1814 6000 NSW OVC004 \n  PROB40 \n  TEMPO 1815/1818 OVC006 \n  BECMG 1817/1819 2000 BR OVC002 \n  PROB40 1821/1824 0400 FG VV///"
    },
    {
      "icao": "LFSB",
      "iata": "BSL",
      "name": "EuroAirport Basel–Mulhouse–Freiburg",
      "updatedAt": "171830Z",
      "visibility_m": 300,
      "taf_visibility_m": 300,
      "worst_visibility_m": 300,
      "ceiling_ft": 14000,
      "hazards": [
        "FG",
        "FZFG",
        "BR"
      ],
      "severityScore": 100,
      "metarRaw": "METAR LFSB 171830Z AUTO 33006KT 8000 FEW015 BKN140 03/02 Q1019 TEMPO 0300 FG VV///",
      "tafRaw": "TAF LFSB 171700Z 1718/1818 VRB03KT CAVOK \n  BECMG 1718/1722 2000 BR OVC005 \n  TEMPO 1719/1810 0300 FG VV/// \n  PROB30 \n  TEMPO 1802/1810 4000 BR BKN010 \n  PROB30 \n  TEMPO 1803/1809 FZFG \n  BECMG 1810/1814 6000 NSW \n  TEMPO 1810/1815 BKN010 \n  PROB40 \n  TEMPO 1815/1817 FEW005 \n  PROB40 \n  TEMPO 1817/1818 2000 BR BKN003"
    },
    {
      "icao": "LIBP",
      "iata": "PSR",
      "name": "Abruzzo Airport",
      "updatedAt": "171850Z",
      "visibility_m": 2400,
      "taf_visibility_m": 300,
      "worst_visibility_m": 300,
      "ceiling_ft": 200,
      "hazards": [
        "BR",
        "FG"
      ],
      "severityScore": 100,
      "metarRaw": "METAR LIBP 171850Z AUTO 22003KT 2400 BR OVC004/// 10/10 Q1022",
      "tafRaw": "TAF LIBP 171700Z 1718/1818 VRB05KT 2000 BR BKN010 \n  PROB40 \n  TEMPO 1722/1806 0300 FG OVC002 \n  BECMG 1806/1808 7000 FEW010 \n  BECMG 1810/1812 08010KT \n  BECMG 1816/1818 VRB05KT"
    },
    {
      "icao": "LIPE",
      "iata": "BLQ",
      "name": "Bologna Guglielmo Marconi Airport",
      "updatedAt": "171850Z",
      "visibility_m": 1600,
      "taf_visibility_m": 500,
      "worst_visibility_m": 500,
      "ceiling_ft": 200,
      "hazards": [
        "BR",
        "FG"
      ],
      "severityScore": 100,
      "metarRaw": "METAR LIPE 171850Z 29004KT 1600 BR BKN002 08/08 Q1023",
      "tafRaw": "TAF LIPE 171700Z 1718/1818 VRB04KT 1400 BR BKN004 \n  TEMPO 1721/1806 0500 FG OVC001 \n  BECMG 1805/1807 3000 BKN018"
    },
    {
      "icao": "LIPY",
      "iata": "AOI",
      "name": "Marche Airport",
      "updatedAt": "171850Z",
      "visibility_m": 3500,
      "taf_visibility_m": 500,
      "worst_visibility_m": 500,
      "ceiling_ft": 100,
      "hazards": [
        "BR",
        "FG"
      ],
      "severityScore": 100,
      "metarRaw": "METAR LIPY 171850Z AUTO 33004KT 3500 BR OVC008/// 09/09 Q1022",
      "tafRaw": "TAF LIPY 171700Z 1718/1818 VRB05KT 3000 BR BKN005 \n  TEMPO 1723/1805 0500 FG OVC001 \n  BECMG 1808/1810 10010KT 7000 BKN020"
    },
    {
      "icao": "LKMT",
      "iata": "OSR",
      "name": "Ostrava Leos Janáček Airport",
      "updatedAt": "171830Z",
      "visibility_m": 350,
      "taf_visibility_m": 200,
      "worst_visibility_m": 200,
      "ceiling_ft": 200,
      "hazards": [
        "FZFG",
        "FG",
        "BR"
      ],
      "severityScore": 100,
      "metarRaw": "METAR LKMT 171830Z VRB02KT 0350 R22/0450N R04/0450N FZFG VV002 M02/M02 Q1030 NOSIG",
      "tafRaw": "TAF LKMT 171700Z 1718/1818 VRB02KT 0200 FZFG VV002 \n  PROB40 \n  TEMPO 1808/1810 1400 BR SCT005 \n  BECMG 1810/1812 CAVOK"
    },
    {
      "icao": "LQSA",
      "iata": "SJJ",
      "name": "Sarajevo International Airport",
      "updatedAt": "171830Z",
      "visibility_m": 200,
      "taf_visibility_m": 100,
      "worst_visibility_m": 100,
      "ceiling_ft": 200,
      "hazards": [
        "FZFG",
        "FG",
        "BR"
      ],
      "severityScore": 100,
      "metarRaw": "METAR LQSA 171830Z VRB01KT 0200 R11/0300N FZFG VV002 M02/M02 Q1025 NOSIG",
      "tafRaw": "TAF LQSA 171700Z 1718/1818 VRB02KT 0400 FZFG BKN003 TX02/1813Z TNM03/1800Z \n  PROB40 1718/1722 0100 OVC001 \n  PROB40 \n  TEMPO 1800/1808 1000 BR BKN012 \n  BECMG 1808/1810 6000 NSW SCT018"
    },
    {
      "icao": "LRTR",
      "iata": "TSR",
      "name": "Timişoara Traian Vuia Airport",
      "updatedAt": "171830Z",
      "visibility_m": 100,
      "taf_visibility_m": 300,
      "worst_visibility_m": 100,
      "ceiling_ft": 100,
      "hazards": [
        "FZFG",
        "FG",
        "BR"
      ],
      "severityScore": 100,
      "metarRaw": "METAR LRTR 171830Z 01004KT 0100 R11/0325N FZFG VV001 M00/M00 Q1030",
      "tafRaw": "TAF LRTR 171700Z 1718/1818 VRB04KT 0300 FZFG VV001 \n  TEMPO 1718/1721 0600 VV002 \n  BECMG 1806/1808 0800 BKN002 \n  BECMG 1808/1810 3000 BR BKN005 \n  BECMG 1810/1811 9999 NSW SCT025"
    },
    {
      "icao": "OJAI",
      "iata": "AMM",
      "name": "Queen Alia International Airport",
      "updatedAt": "171800Z",
      "visibility_m": 5000,
      "taf_visibility_m": 900,
      "worst_visibility_m": 900,
      "ceiling_ft": 2500,
      "hazards": [
        "FG",
        "BR",
        "TSRA",
        "RA",
        "TS"
      ],
      "severityScore": 100,
      "metarRaw": "METAR OJAI 171800Z 30006KT 5000 HZ NSC 08/04 Q1017 NOSIG",
      "tafRaw": "TAF OJAI 171700Z 1718/1824 25010KT 5000 BR FEW020 \n  PROB40 1800/1807 VRB02KT 0900 FG \n  BECMG 1806/1808 27016KT 4000 RA BR SCT020 BKN025 \n  TEMPO 1808/1812 28020KT 2000 TSRA FEW020CB SCT020 BKN025"
    },
    {
      "icao": "UAAA",
      "iata": "ALA",
      "name": "Almaty International Airport",
      "updatedAt": "171830Z",
      "visibility_m": 10000,
      "taf_visibility_m": 400,
      "worst_visibility_m": 400,
      "ceiling_ft": 5000,
      "hazards": [
        "FZFG",
        "BR",
        "SN",
        "FG"
      ],
      "severityScore": 100,
      "metarRaw": "METAR UAAA 171830Z VRB01MPS 9999 BKN050 OVC100 M19/M22 Q1032 NOSIG",
      "tafRaw": "TAF UAAA 171700Z 1718/1818 33003MPS 6000 BKN015CB OVC050 TXM15/1808Z TNM22/1803Z \n  TEMPO 1718/1804 3100 -SN BR BKN005 OVC011 \n  TEMPO 1804/1812 02003G08MPS 3100 BR BKN005 OVC011 \n  BECMG 1812/1813 1200 BR FU \n  TEMPO 1812/1818 0400 FZFG VV002"
    },
    {
      "icao": "UDSG",
      "iata": "LWN",
      "name": "Shirak International Airport",
      "updatedAt": "171830Z",
      "visibility_m": 2800,
      "taf_visibility_m": 200,
      "worst_visibility_m": 200,
      "ceiling_ft": 2600,
      "hazards": [
        "BR",
        "SN",
        "FZFG",
        "FG"
      ],
      "severityScore": 100,
      "metarRaw": "METAR UDSG 171830Z 05003KT 2800 -SN BR OVC026 M07/M08 Q1018 NOSIG",
      "tafRaw": "TAF UDSG 171700Z 1718/1818 VRB06KT 1200 BR OVC020 \n  TEMPO 1718/1806 0200 SN FZFG VV002"
    },
    {
      "icao": "UGKO",
      "iata": "KUT",
      "name": "David the Builder Kutaisi International Airport",
      "updatedAt": "171830Z",
      "visibility_m": 10000,
      "taf_visibility_m": 500,
      "worst_visibility_m": 500,
      "ceiling_ft": 800,
      "hazards": [
        "RA",
        "FG",
        "BR",
        "SN"
      ],
      "severityScore": 100,
      "metarRaw": "METAR UGKO 171830Z 22003KT 180V250 9999 -RA BKN008 02/01 Q1025 NOSIG",
      "tafRaw": "TAF UGKO 171700Z 1718/1818 25010KT 9999 SCT020 BKN050 TX06/1811Z TN00/1803Z \n  TEMPO 1718/1724 2000 SNRA BR BKN008 OVC025 \n  TEMPO 1723/1804 08007KT \n  PROB40 \n  TEMPO 1800/1805 0500 FG VV002"
    },
    {
      "icao": "EGPF",
      "iata": "GLA",
      "name": "Glasgow Airport",
      "updatedAt": "171850Z",
      "visibility_m": 8000,
      "taf_visibility_m": 300,
      "worst_visibility_m": 300,
      "ceiling_ft": 4700,
      "hazards": [
        "FG",
        "BR",
        "RA",
        "DZ"
      ],
      "severityScore": 97,
      "metarRaw": "METAR EGPF 171850Z AUTO 05004KT 8000 OVC047 06/05 Q1018",
      "tafRaw": "TAF EGPF 171700Z 1718/1818 09008KT 9999 SCT030 \n  TEMPO 1718/1818 7000 BKN010 \n  PROB30 \n  TEMPO 1718/1722 4000 BR BKN006 \n  PROB30 1722/1811 0300 FG VV/// \n  PROB30 \n  TEMPO 1811/1815 2000 BR BKN003 \n  PROB30 \n  TEMPO 1815/1818 3000 RADZ BR BKN004"
    },
    {
      "icao": "EPKT",
      "iata": "KTW",
      "name": "Katowice Wojciech Korfanty International Airport",
      "updatedAt": "171830Z",
      "visibility_m": 10000,
      "taf_visibility_m": 500,
      "worst_visibility_m": 500,
      "ceiling_ft": null,
      "hazards": [
        "FZFG",
        "BR",
        "FG"
      ],
      "severityScore": 95,
      "metarRaw": "METAR EPKT 171830Z 09006KT CAVOK M02/M06 Q1030",
      "tafRaw": "TAF EPKT 171730Z 1718/1818 10005KT CAVOK \n  TEMPO 1720/1808 2000 BR \n  PROB40 \n  TEMPO 1722/1806 0500 FZFG"
    },
    {
      "icao": "LYPG",
      "iata": "TGD",
      "name": "Podgorica Airport / Podgorica Golubovci Airbase",
      "updatedAt": "171830Z",
      "visibility_m": 10000,
      "taf_visibility_m": 500,
      "worst_visibility_m": 500,
      "ceiling_ft": null,
      "hazards": [
        "FZFG",
        "FG",
        "BR"
      ],
      "severityScore": 95,
      "metarRaw": "METAR LYPG 171830Z 24004KT CAVOK 07/03 Q1023 NOSIG",
      "tafRaw": "TAF LYPG 171700Z 1718/1818 36005KT CAVOK TX11/1813Z TNM02/1806Z \n  TEMPO 1718/1720 2000 BR \n  BECMG 1720/1722 0500 FG \n  BECMG 1801/1803 FZFG \n  BECMG 1807/1809 9999 NSW"
    },
    {
      "icao": "EKCH",
      "iata": "CPH",
      "name": "Copenhagen Kastrup Airport",
      "updatedAt": "171850Z",
      "visibility_m": 1200,
      "taf_visibility_m": 700,
      "worst_visibility_m": 700,
      "ceiling_ft": 200,
      "hazards": [
        "BR",
        "FG"
      ],
      "severityScore": 90,
      "metarRaw": "METAR EKCH 171850Z 12013KT 1500 BR BKN002 02/02 Q1030 TEMPO 1200",
      "tafRaw": "TAF EKCH 171727Z 1718/1818 13010KT 2500 BR BKN002 \n  TEMPO 1718/1807 0700 FG BKN005 \n  BECMG 1807/1809 CAVOK"
    },
    {
      "icao": "EPSC",
      "iata": "SZZ",
      "name": "Solidarity Szczecin–Goleniów Airport",
      "updatedAt": "171830Z",
      "visibility_m": 1100,
      "taf_visibility_m": 700,
      "worst_visibility_m": 700,
      "ceiling_ft": 200,
      "hazards": [
        "BR",
        "FG"
      ],
      "severityScore": 90,
      "metarRaw": "METAR EPSC 171830Z 11007KT 1100 R31/P2000N BR OVC002 02/02 Q1029",
      "tafRaw": "TAF EPSC 171730Z 1718/1818 11006KT 1100 BR OVC002 \n  TEMPO 1718/1722 0700 FG OVC001 \n  BECMG 1722/1801 5000 BR SCT005 \n  PROB40 1801/1809 2000 BR BKN003"
    },
    {
      "icao": "LIPR",
      "iata": "RMI",
      "name": "Federico Fellini International Airport",
      "updatedAt": "171850Z",
      "visibility_m": 4000,
      "taf_visibility_m": 500,
      "worst_visibility_m": 500,
      "ceiling_ft": 500,
      "hazards": [
        "BR",
        "FG"
      ],
      "severityScore": 90,
      "metarRaw": "METAR LIPR 171850Z 31006KT 4000 BR OVC005 08/07 Q1023",
      "tafRaw": "TAF LIPR 171700Z 1718/1818 VRB05KT 4000 BR BKN005 \n  BECMG 1721/1723 0500 FG OVC001 \n  BECMG 1806/1808 4000 BR BKN020 \n  BECMG 1810/1812 08010KT 7000"
    },
    {
      "icao": "LEBL",
      "iata": "BCN",
      "name": "Josep Tarradellas Barcelona-El Prat Airport",
      "updatedAt": "171830Z",
      "visibility_m": 10000,
      "taf_visibility_m": 2000,
      "worst_visibility_m": 2000,
      "ceiling_ft": 1200,
      "hazards": [
        "RA",
        "TSRA",
        "SHRA",
        "TS"
      ],
      "severityScore": 88,
      "metarRaw": "METAR LEBL 171830Z 02003KT 9999 RA FEW015 SCT045 BKN060 11/11 Q1009 TEMPO BKN012",
      "tafRaw": "TAF LEBL 171700Z 1718/1818 03005KT 9999 SCT020 TX13/1812Z TN10/1806Z \n  TEMPO 1718/1814 4000 SHRA BKN012 FEW020TCU \n  PROB40 \n  TEMPO 1718/1810 2000 TSRA FEW020CB \n  TEMPO 1803/1818 13007KT"
    },
    {
      "icao": "LEMD",
      "iata": "MAD",
      "name": "Adolfo Suárez Madrid–Barajas Airport",
      "updatedAt": "171830Z",
      "visibility_m": 10000,
      "taf_visibility_m": 400,
      "worst_visibility_m": 400,
      "ceiling_ft": 3500,
      "hazards": [
        "FG",
        "BR",
        "RA",
        "DZ"
      ],
      "severityScore": 87,
      "metarRaw": "METAR LEMD 171830Z 31004KT 290V360 9999 FEW014 BKN035 04/02 Q1008 NOSIG",
      "tafRaw": "TAF LEMD 171700Z 1718/1824 VRB04KT 9999 SCT035 TX09/1814Z TNM00/1808Z \n  PROB40 \n  TEMPO 1718/1722 DZRA \n  PROB40 \n  TEMPO 1718/1723 4000 BR BKN010 \n  TEMPO 1723/1810 4000 BR BKN005 BKN012 \n  PROB30 \n  TEMPO 1804/1810 0400 FG VV002 \n  PROB30 \n  TEMPO 1810/1818 04010KT"
    },
    {
      "icao": "EETN",
      "iata": "TLL",
      "name": "Lennart Meri Tallinn Airport",
      "updatedAt": "171850Z",
      "visibility_m": 3200,
      "taf_visibility_m": 2000,
      "worst_visibility_m": 2000,
      "ceiling_ft": 400,
      "hazards": [
        "BR",
        "FZDZ",
        "DZ"
      ],
      "severityScore": 83,
      "metarRaw": "METAR EETN 171850Z 20009KT 3200 -FZDZ BR BKN004 OVC012 M04/M05 Q1035 NOSIG",
      "tafRaw": "TAF EETN 171730Z 1718/1818 19010KT 9999 BKN008 OVC012 \n  TEMPO 1718/1724 2000 -FZDZ BR BKN004 OVC006 \n  TEMPO 1800/1804 SCT012 OVC020 \n  PROB40 \n  TEMPO 1804/1808 4000 -FZDZ BR OVC004"
    },
    {
      "icao": "LEXJ",
      "iata": "SDR",
      "name": "Seve Ballesteros-Santander Airport",
      "updatedAt": "171830Z",
      "visibility_m": 7000,
      "taf_visibility_m": 800,
      "worst_visibility_m": 800,
      "ceiling_ft": 3500,
      "hazards": [
        "RA",
        "FG",
        "BR",
        "SHRA"
      ],
      "severityScore": 81,
      "metarRaw": "METAR LEXJ 171830Z 23004KT 210V280 7000 -RA SCT015 BKN035 08/07 Q1011",
      "tafRaw": "TAF LEXJ 171400Z 1715/1815 22008KT 9999 FEW010 BKN025 TX12/1811Z TN07/1723Z \n  PROB30 1715/1718 3000 RA BKN010 \n  PROB30 \n  TEMPO 1717/1721 0800 SHRA FG BKN002 SCT020TCU \n  TEMPO 1718/1806 3000 RA BR BKN010 \n  PROB40 \n  TEMPO 1721/1806 0800 FG BKN002 \n  PROB30 \n  TEMPO 1806/1815 3000 RA BR"
    },
    {
      "icao": "LEBB",
      "iata": "BIO",
      "name": "Bilbao Airport",
      "updatedAt": "171830Z",
      "visibility_m": 3000,
      "taf_visibility_m": 800,
      "worst_visibility_m": 800,
      "ceiling_ft": 1000,
      "hazards": [
        "RA",
        "FG",
        "BR"
      ],
      "severityScore": 79,
      "metarRaw": "METAR LEBB 171830Z 26003KT 230V290 7000 -RA FEW007 SCT015 BKN024 08/08 Q1010 TEMPO 3000 RA BKN010",
      "tafRaw": "TAF LEBB 171700Z 1718/1818 31008KT 8000 SCT010 BKN020 TX11/1812Z TN07/1803Z \n  PROB40 \n  TEMPO 1718/1723 3000 RA BR BKN010 \n  PROB40 \n  TEMPO 1723/1806 10010KT 3000 RA BCFG BKN010 \n  PROB30 \n  TEMPO 1801/1812 0800 FG BKN002 \n  PROB40 \n  TEMPO 1806/1815 3000 RA BR BKN010"
    },
    {
      "icao": "ENGM",
      "iata": "OSL",
      "name": "Oslo-Gardermoen International Airport",
      "updatedAt": "171850Z",
      "visibility_m": 10000,
      "taf_visibility_m": 2500,
      "worst_visibility_m": 2500,
      "ceiling_ft": 400,
      "hazards": [
        "BR",
        "SN",
        "RA"
      ],
      "severityScore": 75,
      "metarRaw": "METAR ENGM 171850Z 04003KT 9999 FEW003 OVC006 00/M00 Q1030 TEMPO BKN004",
      "tafRaw": "TAF ENGM 171700Z 1718/1818 03003KT 9999 BKN005 \n  PROB40 \n  TEMPO 1718/1722 4000 -RASN BR BKN003 \n  TEMPO 1722/1818 2500 -SN BR BKN003"
    },
    {
      "icao": "LFOB",
      "iata": "BVA",
      "name": "Beauvais Tillé airport",
      "updatedAt": "171830Z",
      "visibility_m": 900,
      "taf_visibility_m": 900,
      "worst_visibility_m": 900,
      "ceiling_ft": 400,
      "hazards": [
        "FG",
        "BR"
      ],
      "severityScore": 75,
      "metarRaw": "METAR LFOB 171830Z AUTO 04005KT 010V070 CAVOK 07/06 Q1017 TEMPO 0900 FG VV///",
      "tafRaw": "TAF LFOB 171700Z 1718/1818 11005KT 9999 BKN020 \n  TEMPO 1718/1720 OVC011 \n  BECMG 1718/1722 4000 BR OVC004 \n  PROB30 1720/1810 0900 FG VV/// \n  BECMG 1810/1812 CAVOK \n  PROB40 1816/1818 4000 BR"
    },
    {
      "icao": "LHBP",
      "iata": "BUD",
      "name": "Budapest Liszt Ferenc International Airport",
      "updatedAt": "171830Z",
      "visibility_m": 10000,
      "taf_visibility_m": 1400,
      "worst_visibility_m": 1400,
      "ceiling_ft": 300,
      "hazards": [
        "BR",
        "FG"
      ],
      "severityScore": 75,
      "metarRaw": "METAR LHBP 171830Z 08007KT 040V100 9999 FEW022 00/M05 Q1031 NOSIG",
      "tafRaw": "TAF LHBP 171715Z 1718/1818 09007KT 9999 BKN014 \n  BECMG 1718/1720 CAVOK \n  BECMG 1721/1724 VRB02KT \n  TEMPO 1801/1810 2000 BCFG BR \n  PROB40 1802/1811 BKN003 \n  PROB30 1816/1818 1400 BCFG BR SCT001"
    },
    {
      "icao": "LPPT",
      "iata": "LIS",
      "name": "Lisbon Humberto Delgado Airport",
      "updatedAt": "171830Z",
      "visibility_m": 10000,
      "taf_visibility_m": 2000,
      "worst_visibility_m": 2000,
      "ceiling_ft": 300,
      "hazards": [
        "RA",
        "BR",
        "SHRA"
      ],
      "severityScore": 71,
      "metarRaw": "METAR LPPT 171830Z VRB06G16KT 9999 -RA FEW006 SCT015 FEW022TCU 08/08 Q1009 RERA",
      "tafRaw": "TAF LPPT 171700Z 1718/1824 VRB05KT 9999 SCT020 \n  BECMG 1718/1720 34007KT \n  TEMPO 1718/1724 8000 SHRA SCT015 FEW025CB BKN030 \n  BECMG 1804/1806 04008KT SCT004 \n  PROB30 \n  TEMPO 1806/1809 2000 BR BKN003 \n  BECMG 1810/1812 SCT030"
    },
    {
      "icao": "EGGP",
      "iata": "LPL",
      "name": "Liverpool John Lennon Airport",
      "updatedAt": "171850Z",
      "visibility_m": 10000,
      "taf_visibility_m": 4000,
      "worst_visibility_m": 4000,
      "ceiling_ft": 300,
      "hazards": [
        "BR",
        "RA",
        "DZ"
      ],
      "severityScore": 67,
      "metarRaw": "METAR EGGP 171850Z 12006KT 9999 FEW040 05/04 Q1018",
      "tafRaw": "TAF EGGP 171700Z 1718/1818 14006KT 9999 SCT025 \n  PROB30 \n  TEMPO 1718/1721 BKN014 \n  BECMG 1721/1724 BKN010 \n  TEMPO 1721/1806 6000 \n  PROB30 \n  TEMPO 1721/1806 4000 BR BKN006 \n  TEMPO 1806/1818 7000 -RA \n  PROB40 \n  TEMPO 1808/1818 4000 RA RADZ BKN003"
    },
    {
      "icao": "ENTC",
      "iata": "TOS",
      "name": "Tromsø Airport, Langnes",
      "updatedAt": "171850Z",
      "visibility_m": 10000,
      "taf_visibility_m": 4000,
      "worst_visibility_m": 4000,
      "ceiling_ft": 6000,
      "hazards": [
        "FZRA",
        "RA",
        "SN"
      ],
      "severityScore": 65,
      "metarRaw": "METAR ENTC 171850Z 22009KT 180V260 9999 SCT028 BKN060 M00/M03 Q1021 NOSIG RMK WIND 2600FT 19007KT",
      "tafRaw": "TAF ENTC 171700Z 1718/1818 20012KT 9999 BKN020 \n  PROB30 \n  TEMPO 1719/1721 -FZRA \n  TEMPO 1719/1801 -RA BKN010 \n  TEMPO 1801/1812 4000 SHRASN BKN012 FEW015CB \n  PROB30 \n  TEMPO 1723/1805 22015G25KT"
    },
    {
      "icao": "LLBG",
      "iata": "TLV",
      "name": "Ben Gurion International Airport",
      "updatedAt": "171850Z",
      "visibility_m": 10000,
      "taf_visibility_m": 5000,
      "worst_visibility_m": 5000,
      "ceiling_ft": 3000,
      "hazards": [
        "TSRA",
        "RA",
        "TS"
      ],
      "severityScore": 62,
      "metarRaw": "METAR LLBG 171850Z 12004KT 9999 SCT038 13/10 Q1016 NOSIG",
      "tafRaw": "TAF LLBG 171704Z 1718/1818 15006KT 9999 SCT035 \n  PROB40 \n  TEMPO 1800/1804 17012KT 7000 RA FEW025TCU BKN030 \n  PROB40 \n  TEMPO 1804/1809 21015G25KT 5000 TSRA SCT015 FEW020CB BKN030 \n  BECMG 1809/1811 23010KT \n  PROB40 \n  TEMPO 1811/1814 26016G26KT 5000 TSRA SCT015 FEW020CB BKN030 \n  PROB40 \n  TEMPO 1814/1818 7000 RA FEW025TCU BKN030 TX16/1812Z TN09/1805Z"
    },
    {
      "icao": "LPPR",
      "iata": "OPO",
      "name": "Francisco de Sá Carneiro Airport",
      "updatedAt": "171830Z",
      "visibility_m": 10000,
      "taf_visibility_m": 3000,
      "worst_visibility_m": 3000,
      "ceiling_ft": 3000,
      "hazards": [
        "BR",
        "SHRA",
        "FG",
        "RA"
      ],
      "severityScore": 56,
      "metarRaw": "METAR LPPR 171830Z 08003KT 040V100 9999 FEW020 SCT030 07/06 Q1010",
      "tafRaw": "TAF LPPR 171700Z 1718/1818 VRB05KT 9999 SCT020 BKN040 \n  TEMPO 1718/1720 5000 SHRA SCT012 FEW020CB BKN030 \n  BECMG 1722/1724 06007KT FEW012 \n  PROB30 \n  TEMPO 1800/1807 3000 BCFG BR SCT003 \n  BECMG 1811/1813 32007KT FEW030"
    },
    {
      "icao": "LFBD",
      "iata": "BOD",
      "name": "Bordeaux–Mérignac Airport",
      "updatedAt": "171830Z",
      "visibility_m": 3000,
      "taf_visibility_m": null,
      "worst_visibility_m": 3000,
      "ceiling_ft": 400,
      "hazards": [
        "RA"
      ],
      "severityScore": 52,
      "metarRaw": "METAR LFBD 171830Z AUTO 02009KT 6000 RA OVC004/// ///TCU 09/08 Q1009 TEMPO 3000 RA BKN004",
      "tafRaw": null
    },
    {
      "icao": "ENBR",
      "iata": "BGO",
      "name": "Bergen Airport, Flesland",
      "updatedAt": "171850Z",
      "visibility_m": 10000,
      "taf_visibility_m": 3000,
      "worst_visibility_m": 3000,
      "ceiling_ft": 500,
      "hazards": [
        "BR",
        "RA"
      ],
      "severityScore": 47,
      "metarRaw": "METAR ENBR 171850Z 04004KT CAVOK 03/M01 Q1026 NOSIG RMK WIND 1200FT 10009KT",
      "tafRaw": "TAF ENBR 171700Z 1718/1818 VRB05KT CAVOK \n  BECMG 1800/1802 -RA BKN025 \n  PROB30 \n  TEMPO 1802/1809 RA BKN014 \n  PROB30 1809/1818 3000 BR OVC005"
    },
    {
      "icao": "LPPS",
      "iata": "PXO",
      "name": "Porto Santo Airport",
      "updatedAt": "171830Z",
      "visibility_m": 7000,
      "taf_visibility_m": 3000,
      "worst_visibility_m": 3000,
      "ceiling_ft": 3000,
      "hazards": [
        "SHRA",
        "RA",
        "BR",
        "DZ"
      ],
      "severityScore": 46,
      "metarRaw": "METAR LPPS 171830Z 31017G30KT 7000 SHRA SCT010 BKN030 16/13 Q1018",
      "tafRaw": "TAF LPPS 171700Z 1718/1824 30015KT 9999 SCT015 BKN030 \n  TEMPO 1718/1803 31020G33KT 3000 RADZ BR SCT004 BKN008 \n  PROB30 \n  TEMPO 1722/1803 31028G40KT \n  BECMG 1803/1805 36018KT SCT015 \n  TEMPO 1805/1812 36020G32KT 8000 SHRA BKN012 \n  PROB40 \n  TEMPO 1812/1824 36020G32KT FEW015 BKN030"
    },
    {
      "icao": "EDLW",
      "iata": "DTM",
      "name": "Dortmund Airport",
      "updatedAt": "171850Z",
      "visibility_m": 10000,
      "taf_visibility_m": 2500,
      "worst_visibility_m": 2500,
      "ceiling_ft": 200,
      "hazards": [
        "BR"
      ],
      "severityScore": 45,
      "metarRaw": "METAR EDLW 171850Z 11005KT CAVOK 07/03 Q1020",
      "tafRaw": "TAF EDLW 171700Z 1718/1818 09004KT CAVOK \n  PROB30 \n  TEMPO 1802/1810 2500 BR BKN002"
    },
    {
      "icao": "EDNY",
      "iata": "FDH",
      "name": "Friedrichshafen Airport",
      "updatedAt": "171850Z",
      "visibility_m": 9000,
      "taf_visibility_m": 1200,
      "worst_visibility_m": 1200,
      "ceiling_ft": 600,
      "hazards": [
        "BR"
      ],
      "severityScore": 45,
      "metarRaw": "METAR EDNY 171850Z 03010KT 9000 OVC006 M00/M01 Q1020",
      "tafRaw": "TAF EDNY 171700Z 1718/1803 02007KT 9000 BKN006 \n  TEMPO 1718/1803 1200 BR OVC003"
    },
    {
      "icao": "ENZV",
      "iata": "SVG",
      "name": "Stavanger Airport, Sola",
      "updatedAt": "171850Z",
      "visibility_m": 10000,
      "taf_visibility_m": 3000,
      "worst_visibility_m": 3000,
      "ceiling_ft": 1400,
      "hazards": [
        "RA",
        "DZ",
        "BR"
      ],
      "severityScore": 44,
      "metarRaw": "METAR ENZV 171850Z 24002KT 9999 BKN030 04/03 Q1025 REDZ RERA TEMPO -RA BKN014",
      "tafRaw": "TAF ENZV 171700Z 1718/1818 12005KT 9999 FEW020 BKN040 \n  TEMPO 1718/1802 -RA BKN014 \n  PROB30 1802/1809 3000 BR BKN003"
    },
    {
      "icao": "LPMA",
      "iata": "FNC",
      "name": "Madeira International Airport Cristiano Ronaldo",
      "updatedAt": "171830Z",
      "visibility_m": 10000,
      "taf_visibility_m": 5000,
      "worst_visibility_m": 5000,
      "ceiling_ft": 1300,
      "hazards": [
        "BR",
        "RA",
        "DZ"
      ],
      "severityScore": 44,
      "metarRaw": "METAR LPMA 171830Z 32009KT 260V010 9999 SCT015 16/10 Q1019",
      "tafRaw": "TAF LPMA 171700Z 1718/1818 VRB05KT 9999 SCT015 BKN030 \n  TEMPO 1718/1809 5000 -RADZ BR SCT006 BKN013 \n  TEMPO 1718/1801 34013KT \n  BECMG 1801/1803 35018KT \n  TEMPO 1803/1818 35023G35KT \n  PROB30 \n  TEMPO 1803/1807 35028G40KT"
    },
    {
      "icao": "LTFM",
      "iata": "IST",
      "name": "İstanbul Airport",
      "updatedAt": "171850Z",
      "visibility_m": 10000,
      "taf_visibility_m": 2000,
      "worst_visibility_m": 2000,
      "ceiling_ft": 2800,
      "hazards": [
        "SN",
        "RA",
        "SHSN"
      ],
      "severityScore": 40,
      "metarRaw": "METAR LTFM 171850Z 02017KT 9999 -SHRASN SCT016 BKN028 01/M02 Q1029 NOSIG",
      "tafRaw": "TAF LTFM 171640Z 1718/1824 03018KT 9999 SCT016 BKN028 \n  BECMG 1718/1721 -SHSNRA \n  PROB40 \n  TEMPO 1721/1801 4000 -SHSN BKN006 BKN020 \n  PROB40 \n  TEMPO 1801/1804 4000 -SHSN BKN006 BKN020 \n  BECMG 1807/1810 35024G36KT -SHSN BKN006 BKN020 \n  TEMPO 1820/1824 2000 SHSN"
    },
    {
      "icao": "GMMN",
      "iata": "CMN",
      "name": "Mohammed V International Airport",
      "updatedAt": "171830Z",
      "visibility_m": 10000,
      "taf_visibility_m": 2000,
      "worst_visibility_m": 2000,
      "ceiling_ft": 1500,
      "hazards": [
        "SHRA",
        "RA"
      ],
      "severityScore": 38,
      "metarRaw": "METAR GMMN 171830Z 22005KT 9999 SCT020 09/06 Q1013 NOSIG",
      "tafRaw": "TAF GMMN 171700Z 1718/1824 22006KT 9999 SCT020 \n  TEMPO 1721/1811 24015G28KT 2000 SHRA BKN015 SCT033CB \n  BECMG 1811/1815 24012KT"
    },
    {
      "icao": "ENHD",
      "iata": "HAU",
      "name": "Haugesund Airport, Karmøy",
      "updatedAt": "171850Z",
      "visibility_m": 10000,
      "taf_visibility_m": 10000,
      "worst_visibility_m": 10000,
      "ceiling_ft": 1400,
      "hazards": [
        "SHRA",
        "RA"
      ],
      "severityScore": 38,
      "metarRaw": "METAR ENHD 171850Z 09007KT 9999 -SHRA SCT046 05/00 Q1026",
      "tafRaw": "TAF ENHD 171400Z 1715/1723 11008KT 9999 FEW025 BKN040 \n  TEMPO 1721/1723 -RA BKN014"
    },
    {
      "icao": "LEZG",
      "iata": "ZAZ",
      "name": "Zaragoza Airport",
      "updatedAt": "171830Z",
      "visibility_m": 5000,
      "taf_visibility_m": null,
      "worst_visibility_m": 5000,
      "ceiling_ft": 1000,
      "hazards": [
        "FG"
      ],
      "severityScore": 37,
      "metarRaw": "METAR LEZG 171830Z 29004KT 5000 BCFG FEW005 BKN010 08/08 Q1008 NOSIG",
      "tafRaw": null
    },
    {
      "icao": "UBBB",
      "iata": "GYD",
      "name": "Heydar Aliyev International Airport",
      "updatedAt": "171830Z",
      "visibility_m": 10000,
      "taf_visibility_m": 4000,
      "worst_visibility_m": 4000,
      "ceiling_ft": 500,
      "hazards": [
        "RA"
      ],
      "severityScore": 37,
      "metarRaw": "METAR UBBB 171830Z 31012KT 9999 BKN005 OVC030 04/03 Q1026 NOSIG",
      "tafRaw": "TAF UBBB 171713Z 1718/1818 31014KT 8000 BKN007 OVC025 TX06/1810Z TN02/1801Z \n  TEMPO 1718/1805 33018G28KT 4000 -RA BKN005 OVC017 \n  BECMG 1805/1807 06010KT 9999 SCT012 BKN030 \n  TEMPO 1807/1818 09016KT OVC020"
    },
    {
      "icao": "EDDH",
      "iata": "HAM",
      "name": "Hamburg Helmut Schmidt Airport",
      "updatedAt": "171850Z",
      "visibility_m": 10000,
      "taf_visibility_m": 3000,
      "worst_visibility_m": 3000,
      "ceiling_ft": 900,
      "hazards": [
        "BR"
      ],
      "severityScore": 35,
      "metarRaw": "METAR EDDH 171850Z AUTO 12011KT 9999 OVC011 04/02 Q1025 TEMPO BKN009",
      "tafRaw": "TAF EDDH 171700Z 1718/1824 12010KT 7000 OVC005 \n  TEMPO 1718/1810 BKN010 \n  PROB30 \n  TEMPO 1718/1810 3000 BR OVC003 \n  BECMG 1810/1812 BKN012 \n  BECMG 1812/1815 CAVOK"
    },
    {
      "icao": "EYKA",
      "iata": "KUN",
      "name": "Kaunas International Airport",
      "updatedAt": "171850Z",
      "visibility_m": 10000,
      "taf_visibility_m": 5000,
      "worst_visibility_m": 5000,
      "ceiling_ft": 500,
      "hazards": [
        "BR"
      ],
      "severityScore": 35,
      "metarRaw": "METAR EYKA 171850Z 14005KT 120V230 CAVOK M11/M14 Q1040",
      "tafRaw": "TAF EYKA 171711Z 1718/1818 16008KT 8000 NSC \n  TEMPO 1721/1806 5000 BR BKN005"
    },
    {
      "icao": "LOWW",
      "iata": "VIE",
      "name": "Vienna International Airport",
      "updatedAt": "171850Z",
      "visibility_m": 10000,
      "taf_visibility_m": 4000,
      "worst_visibility_m": 4000,
      "ceiling_ft": 900,
      "hazards": [
        "BR"
      ],
      "severityScore": 35,
      "metarRaw": "METAR LOWW 171850Z 13005KT CAVOK 01/M04 Q1030 NOSIG",
      "tafRaw": "TAF LOWW 171715Z 1718/1824 12012KT 9999 BKN015 TX00/1718Z TNM05/1824Z \n  TEMPO 1806/1812 4000 BR FEW006 BKN009"
    },
    {
      "icao": "LRIA",
      "iata": "IAS",
      "name": "Iaşi Airport",
      "updatedAt": "171830Z",
      "visibility_m": 10000,
      "taf_visibility_m": 5000,
      "worst_visibility_m": 5000,
      "ceiling_ft": 500,
      "hazards": [
        "BR"
      ],
      "severityScore": 35,
      "metarRaw": "METAR LRIA 171830Z COR 28004KT 240V300 CAVOK M13/M16 Q1039",
      "tafRaw": "TAF LRIA 171700Z 1718/1803 31006KT CAVOK \n  BECMG 1719/1721 BKN015 \n  PROB40 \n  TEMPO 1722/1803 5000 BR BKN005"
    },
    {
      "icao": "BIKF",
      "iata": "KEF",
      "name": "Keflavik International Airport",
      "updatedAt": "171830Z",
      "visibility_m": 10000,
      "taf_visibility_m": 4000,
      "worst_visibility_m": 4000,
      "ceiling_ft": 1300,
      "hazards": [
        "RA",
        "DZ"
      ],
      "severityScore": 34,
      "metarRaw": "METAR BIKF 171830Z 12028KT 9999 BKN013 OVC036 05/03 Q1005",
      "tafRaw": "TAF BIKF 171622Z 1718/1818 12022G32KT 9999 BKN020 TX07/1801Z TN05/1718Z \n  TEMPO 1718/1721 BKN008 \n  BECMG 1719/1721 13030G52KT \n  BECMG 1800/1802 4000 RADZ BKN008 OVC012 \n  BECMG 1815/1817 19008KT"
    },
    {
      "icao": "LEZL",
      "iata": "SVQ",
      "name": "Sevilla Airport",
      "updatedAt": "171830Z",
      "visibility_m": 10000,
      "taf_visibility_m": 4000,
      "worst_visibility_m": 4000,
      "ceiling_ft": 1400,
      "hazards": [
        "BR",
        "RA"
      ],
      "severityScore": 34,
      "metarRaw": "METAR LEZL 171830Z 17004KT CAVOK 09/07 Q1010 NOSIG",
      "tafRaw": "TAF LEZL 171400Z 1715/1815 20006KT CAVOK TX14/1715Z TN04/1807Z \n  PROB30 \n  TEMPO 1801/1806 4000 RA BR BKN014"
    },
    {
      "icao": "LIME",
      "iata": "BGY",
      "name": "Milan Bergamo Airport / Antonio Locatelli Air Base",
      "updatedAt": "171850Z",
      "visibility_m": 5000,
      "taf_visibility_m": 2000,
      "worst_visibility_m": 2000,
      "ceiling_ft": 1200,
      "hazards": [
        "BR",
        "RA"
      ],
      "severityScore": 34,
      "metarRaw": "METAR LIME 171850Z AUTO VRB01KT 5000 BR OVC066/// 08/08 Q1022",
      "tafRaw": "TAF LIME 171700Z 1718/1818 VRB03KT 4000 BR SCT040 \n  TEMPO 1721/1803 -RA BKN012 \n  TEMPO 1803/1808 2000 BKN012 \n  BECMG 1808/1810 7000"
    },
    {
      "icao": "LKPR",
      "iata": "PRG",
      "name": "Václav Havel Airport Prague",
      "updatedAt": "171830Z",
      "visibility_m": 10000,
      "taf_visibility_m": 1300,
      "worst_visibility_m": 1300,
      "ceiling_ft": 1400,
      "hazards": [
        "BR"
      ],
      "severityScore": 32,
      "metarRaw": "METAR LKPR 171830Z 11005KT 9999 OVC014 02/01 Q1025 NOSIG",
      "tafRaw": "TAF LKPR 171700Z 1718/1824 12012KT 5000 BR BKN007 \n  TEMPO 1718/1723 8000 BKN015 \n  TEMPO 1723/1802 9999 SCT015 \n  BECMG 1802/1803 CAVOK \n  PROB40 \n  TEMPO 1804/1808 1300 BR BKN003"
    },
    {
      "icao": "LRSV",
      "iata": "SCV",
      "name": "Suceava Stefan cel Mare Airport",
      "updatedAt": "171830Z",
      "visibility_m": 8000,
      "taf_visibility_m": 1500,
      "worst_visibility_m": 1500,
      "ceiling_ft": 1800,
      "hazards": [
        "BR"
      ],
      "severityScore": 32,
      "metarRaw": "METAR LRSV 171830Z COR 35008KT 8000 BKN018 M13/M15 Q1036",
      "tafRaw": "TAF LRSV 171700Z 1718/1803 VRB04KT CAVOK \n  BECMG 1720/1722 5000 BR \n  TEMPO 1723/1803 1500 BR BKN005"
    },
    {
      "icao": "LWSK",
      "iata": "SKP",
      "name": "Skopje International Airport",
      "updatedAt": "171820Z",
      "visibility_m": 5000,
      "taf_visibility_m": 1500,
      "worst_visibility_m": 1500,
      "ceiling_ft": 1300,
      "hazards": [
        "BR"
      ],
      "severityScore": 32,
      "metarRaw": "METAR LWSK 171820Z VRB01KT 5000 BR BKN013 OVC026 03/01 Q1028 NOSIG",
      "tafRaw": "TAF LWSK 171750Z 1718/1818 VRB02KT 5000 BR SCT015 OVC030 \n  TEMPO 1723/1807 1500 SCT010 BKN020 \n  BECMG 1808/1810 6000 NSW FEW015 BKN030 \n  BECMG 1811/1813 CAVOK"
    },
    {
      "icao": "GCTS",
      "iata": "TFS",
      "name": "Tenerife Sur Airport",
      "updatedAt": "171830Z",
      "visibility_m": 10000,
      "taf_visibility_m": null,
      "worst_visibility_m": 10000,
      "ceiling_ft": 5000,
      "hazards": [
        "TS"
      ],
      "severityScore": 30,
      "metarRaw": "METAR GCTS 171830Z 28005KT 250V310 9999 FEW030 BKN050 19/11 Q1019 NOSIG",
      "tafRaw": null
    },
    {
      "icao": "EHEH",
      "iata": "EIN",
      "name": "Eindhoven Airport",
      "updatedAt": "171825Z",
      "visibility_m": 10000,
      "taf_visibility_m": 4000,
      "worst_visibility_m": 4000,
      "ceiling_ft": null,
      "hazards": [
        "BR",
        "FG"
      ],
      "severityScore": 30,
      "metarRaw": "METAR EHEH 171825Z AUTO 09002KT 9999 SCT350 05/05 Q1019 BLU NOSIG RMK TREND REMOTE BY EHWX",
      "tafRaw": "TAF EHEH 171727Z 1718/1824 10004KT CAVOK \n  PROB40 1718/1806 4000 BR MIFG"
    },
    {
      "icao": "LRSB",
      "iata": "SBZ",
      "name": "Sibiu International Airport",
      "updatedAt": "171830Z",
      "visibility_m": 3000,
      "taf_visibility_m": 3000,
      "worst_visibility_m": 3000,
      "ceiling_ft": null,
      "hazards": [
        "BR",
        "FG"
      ],
      "severityScore": 30,
      "metarRaw": "METAR LRSB 171830Z 23004KT 3000 0800SE BCFG BR NSC M09/M09 Q1030",
      "tafRaw": "TAF LRSB 171700Z 1718/1818 VRB04KT 5000 BR NSC \n  TEMPO 1718/1722 3000 BR \n  BECMG 1723/1801 9999 NSW"
    },
    {
      "icao": "LTAC",
      "iata": "ESB",
      "name": "Esenboğa International Airport",
      "updatedAt": "171850Z",
      "visibility_m": 10000,
      "taf_visibility_m": 10000,
      "worst_visibility_m": 10000,
      "ceiling_ft": 3000,
      "hazards": [
        "SN",
        "SHSN"
      ],
      "severityScore": 28,
      "metarRaw": "METAR LTAC 171850Z 24003KT 190V300 9999 SCT040 SCT080 M03/M09 Q1021 NOSIG",
      "tafRaw": "TAF LTAC 171640Z 1718/1818 VRB02KT 9999 SCT040 SCT100 \n  TEMPO 1800/1804 -SN BKN030 BKN080 \n  TEMPO 1811/1815 32015KT -SHSN BKN030 BKN080"
    },
    {
      "icao": "UDYZ",
      "iata": "EVN",
      "name": "Zvartnots International Airport",
      "updatedAt": "171830Z",
      "visibility_m": 8000,
      "taf_visibility_m": 1800,
      "worst_visibility_m": 1800,
      "ceiling_ft": 4600,
      "hazards": [
        "BR",
        "SN"
      ],
      "severityScore": 28,
      "metarRaw": "METAR UDYZ 171830Z 36002KT 8000 BKN046 M01/M06 Q1019 NOSIG",
      "tafRaw": "TAF UDYZ 171700Z 1718/1818 VRB06KT 3500 BR BKN040 \n  TEMPO 1720/1806 1800 SN BR BKN020"
    },
    {
      "icao": "GMAD",
      "iata": "AGA",
      "name": "Al Massira Airport",
      "updatedAt": "171830Z",
      "visibility_m": 10000,
      "taf_visibility_m": 4000,
      "worst_visibility_m": 4000,
      "ceiling_ft": 8000,
      "hazards": [
        "SHRA",
        "RA"
      ],
      "severityScore": 26,
      "metarRaw": "METAR GMAD 171830Z 27017KT 9999 FEW030 SCT080 13/11 Q1014 NOSIG",
      "tafRaw": "TAF GMAD 171700Z 1718/1824 26014KT 8000 SCT020 BKN080 \n  TEMPO 1721/1812 4000 SHRA BKN013TCU"
    },
    {
      "icao": "GMMX",
      "iata": "RAK",
      "name": "Menara Airport",
      "updatedAt": "171830Z",
      "visibility_m": 8000,
      "taf_visibility_m": 2000,
      "worst_visibility_m": 2000,
      "ceiling_ft": 2300,
      "hazards": [
        "RA",
        "SHRA"
      ],
      "severityScore": 26,
      "metarRaw": "METAR GMMX 171830Z 23005KT 200V260 8000 BKN023 FEW030TCU 09/07 Q1014 NOSIG",
      "tafRaw": "TAF GMMX 171700Z 1718/1824 24008KT 8000 BKN023 SCT080 \n  TEMPO 1719/1723 4000 SHRA SCT013 BKN020 FEW026CB \n  TEMPO 1805/1812 30018KT 2000 SHRA SCT010 BKN020 FEW026CB \n  TEMPO 1813/1823 4000 RA SCT013 BKN020 FEW026TCU"
    },
    {
      "icao": "LCLK",
      "iata": "LCA",
      "name": "Larnaca International Airport",
      "updatedAt": "171830Z",
      "visibility_m": 10000,
      "taf_visibility_m": 5000,
      "worst_visibility_m": 5000,
      "ceiling_ft": 6000,
      "hazards": [
        "SHRA",
        "RA"
      ],
      "severityScore": 26,
      "metarRaw": "METAR LCLK 171830Z 36011KT 9999 FEW011 SCT030 BKN060 13/10 Q1016 NOSIG",
      "tafRaw": "TAF LCLK 171730Z 1718/1818 02009KT 9999 SCT025 \n  PROB30 \n  TEMPO 1718/1721 5000 SHRA SCT020TCU"
    },
    {
      "icao": "LCPH",
      "iata": "PFO",
      "name": "Paphos International Airport",
      "updatedAt": "171830Z",
      "visibility_m": 10000,
      "taf_visibility_m": 5000,
      "worst_visibility_m": 5000,
      "ceiling_ft": null,
      "hazards": [
        "SHRA",
        "RA"
      ],
      "severityScore": 26,
      "metarRaw": "METAR LCPH 171830Z 07003KT 9999 FEW025 SCT050 13/09 Q1015 NOSIG",
      "tafRaw": "TAF LCPH 171730Z 1718/1818 03009KT 9999 SCT025 \n  PROB30 \n  TEMPO 1718/1812 5000 SHRA SCT020TCU \n  BECMG 1807/1811 09010KT \n  BECMG 1815/1818 03009KT"
    },
    {
      "icao": "LEAL",
      "iata": "ALC",
      "name": "Alicante-Elche Miguel Hernández Airport",
      "updatedAt": "171830Z",
      "visibility_m": 10000,
      "taf_visibility_m": 3000,
      "worst_visibility_m": 3000,
      "ceiling_ft": null,
      "hazards": [
        "RA",
        "SHRA"
      ],
      "severityScore": 26,
      "metarRaw": "METAR LEAL 171830Z 26003KT 9999 SCT065 13/09 Q1008 NOSIG",
      "tafRaw": "TAF LEAL 171700Z 1718/1818 30008KT 9999 FEW020 TX15/1812Z TN07/1806Z \n  TEMPO 1718/1722 VRB04KT 3000 RA SHRA FEW040TCU \n  TEMPO 1812/1818 12007KT"
    },
    {
      "icao": "LICA",
      "iata": "SUF",
      "name": "Lamezia Terme Sant'Eufemia International Airport",
      "updatedAt": "171850Z",
      "visibility_m": 10000,
      "taf_visibility_m": 4000,
      "worst_visibility_m": 4000,
      "ceiling_ft": 4000,
      "hazards": [
        "SHRA",
        "RA"
      ],
      "severityScore": 26,
      "metarRaw": "METAR LICA 171850Z AUTO 07010KT 9999 BKN078/// OVC100/// 13/10 Q1019",
      "tafRaw": "TAF LICA 171700Z 1718/1818 08018KT 9999 BKN040 \n  TEMPO 1808/1818 4000 SHRA"
    },
    {
      "icao": "LPFR",
      "iata": "FAO",
      "name": "Faro Airport",
      "updatedAt": "171830Z",
      "visibility_m": 10000,
      "taf_visibility_m": 8000,
      "worst_visibility_m": 8000,
      "ceiling_ft": 3500,
      "hazards": [
        "SHRA",
        "RA"
      ],
      "severityScore": 26,
      "metarRaw": "METAR LPFR 171830Z 33005KT 9999 FEW018 FEW025CB SCT035 10/07 Q1010",
      "tafRaw": "TAF LPFR 171700Z 1718/1818 30007KT 9999 SCT030 \n  TEMPO 1718/1810 8000 SHRA SCT015 FEW025CB BKN035 \n  BECMG 1723/1801 VRB02KT \n  BECMG 1807/1809 01010KT"
    },
    {
      "icao": "BKPR",
      "iata": "PRN",
      "name": "Priština Adem Jashari International Airport",
      "updatedAt": null,
      "visibility_m": null,
      "taf_visibility_m": 10000,
      "worst_visibility_m": 10000,
      "ceiling_ft": 800,
      "hazards": [],
      "severityScore": 25,
      "metarRaw": null,
      "tafRaw": "TAF BKPR 171730Z 1718/1818 35008KT 9999 SCT015 BKN030 \n  TEMPO 1718/1805 BKN008 BKN020"
    },
    {
      "icao": "EDDN",
      "iata": "NUE",
      "name": "Nuremberg Airport",
      "updatedAt": "171850Z",
      "visibility_m": 10000,
      "taf_visibility_m": 9000,
      "worst_visibility_m": 9000,
      "ceiling_ft": 900,
      "hazards": [],
      "severityScore": 25,
      "metarRaw": "METAR EDDN 171850Z AUTO 09003KT 9999 OVC011 02/M01 Q1023 TEMPO OVC009",
      "tafRaw": "TAF EDDN 171700Z 1718/1818 10007KT 9000 OVC010 \n  BECMG 1718/1720 OVC007 \n  BECMG 1810/1812 FEW010"
    },
    {
      "icao": "LGTS",
      "iata": "SKG",
      "name": "Thessaloniki Macedonia International Airport",
      "updatedAt": "171850Z",
      "visibility_m": 10000,
      "taf_visibility_m": 10000,
      "worst_visibility_m": 10000,
      "ceiling_ft": 3500,
      "hazards": [
        "TS"
      ],
      "severityScore": 25,
      "metarRaw": "METAR LGTS 171850Z VRB03KT 9999 FEW020 BKN035 06/M01 Q1029 NOSIG",
      "tafRaw": "TAF LGTS 171700Z 1718/1818 VRB03KT 9999 FEW012 BKN025 \n  BECMG 1722/1724 14013KT"
    },
    {
      "icao": "LUKK",
      "iata": "RMO",
      "name": "Chişinău International Airport",
      "updatedAt": "171830Z",
      "visibility_m": 10000,
      "taf_visibility_m": 10000,
      "worst_visibility_m": 10000,
      "ceiling_ft": 800,
      "hazards": [],
      "severityScore": 25,
      "metarRaw": "METAR LUKK 171830Z 01012KT CAVOK M12/M15 Q1037 NOSIG",
      "tafRaw": "TAF LUKK 171705Z 1718/1818 01009KT 9999 BKN020 \n  TEMPO 1803/1809 BKN008"
    },
    {
      "icao": "GCLP",
      "iata": "LPA",
      "name": "Gran Canaria Airport",
      "updatedAt": "171830Z",
      "visibility_m": 10000,
      "taf_visibility_m": 4500,
      "worst_visibility_m": 4500,
      "ceiling_ft": 3500,
      "hazards": [
        "RA",
        "DZ"
      ],
      "severityScore": 22,
      "metarRaw": "METAR GCLP 171830Z 35009KT 9999 BKN035 16/13 Q1019 NOSIG",
      "tafRaw": "TAF GCLP 171400Z 1715/1815 35017KT 9999 SCT035 TX21/1814Z TN15/1806Z \n  PROB40 \n  TEMPO 1715/1721 35017G27KT \n  PROB30 \n  TEMPO 1715/1719 4500 DZRA \n  PROB40 \n  TEMPO 1807/1809 34020G30KT \n  TEMPO 1801/1808 27007KT \n  PROB40 \n  TEMPO 1810/1815 35020G30KT \n  PROB30 \n  TEMPO 1808/1815 4500 RA"
    },
    {
      "icao": "LFPO",
      "iata": "ORY",
      "name": "Paris-Orly Airport",
      "updatedAt": "171830Z",
      "visibility_m": 10000,
      "taf_visibility_m": 4000,
      "worst_visibility_m": 4000,
      "ceiling_ft": null,
      "hazards": [
        "BR",
        "RA"
      ],
      "severityScore": 22,
      "metarRaw": "METAR LFPO 171830Z 04005KT CAVOK 10/07 Q1016 NOSIG",
      "tafRaw": "TAF LFPO 171700Z 1718/1824 09006KT CAVOK \n  TEMPO 1723/1803 -RA \n  BECMG 1815/1818 VRB03KT \n  PROB30 \n  TEMPO 1823/1824 4000 BR"
    },
    {
      "icao": "LJLJ",
      "iata": "LJU",
      "name": "Ljubljana Jože Pučnik Airport",
      "updatedAt": "171830Z",
      "visibility_m": 5000,
      "taf_visibility_m": 3000,
      "worst_visibility_m": 3000,
      "ceiling_ft": 1300,
      "hazards": [
        "BR"
      ],
      "severityScore": 22,
      "metarRaw": "METAR LJLJ 171830Z 10006KT 5000 BR OVC013 03/02 Q1027 NOSIG",
      "tafRaw": "TAF LJLJ 171700Z 1718/1818 VRB02KT 6000 BKN010 OVC015 \n  TEMPO 1718/1808 3000 BR BKN006 OVC010"
    },
    {
      "icao": "LRBS",
      "iata": "BBU",
      "name": "Bucharest Băneasa Aurel Vlaicu International Airport",
      "updatedAt": "171830Z",
      "visibility_m": 5000,
      "taf_visibility_m": 10000,
      "worst_visibility_m": 5000,
      "ceiling_ft": 1500,
      "hazards": [
        "BR"
      ],
      "severityScore": 22,
      "metarRaw": "METAR LRBS 171830Z 08005KT 8000 FEW048 M07/M10 Q1036 TEMPO 5000 BR",
      "tafRaw": "TAF LRBS 171700Z 1718/1818 VRB04KT 9999 SCT020 \n  BECMG 1718/1720 07011KT BKN015 BKN030 \n  BECMG 1721/1723 SCT015 BKN025 \n  BECMG 1806/1808 VRB04KT \n  TEMPO 1806/1810 BKN015 BKN030"
    },
    {
      "icao": "EHBK",
      "iata": "MST",
      "name": "Maastricht Aachen Airport",
      "updatedAt": "171825Z",
      "visibility_m": 10000,
      "taf_visibility_m": 7000,
      "worst_visibility_m": 7000,
      "ceiling_ft": null,
      "hazards": [
        "FG"
      ],
      "severityScore": 20,
      "metarRaw": "METAR EHBK 171825Z AUTO 12006KT 9999 NSC 08/06 Q1019 NOSIG",
      "tafRaw": "TAF EHBK 171720Z 1718/1824 12006KT CAVOK \n  PROB30 1818/1824 7000 MIFG"
    },
    {
      "icao": "LIRP",
      "iata": "PSA",
      "name": "Pisa International Airport",
      "updatedAt": "171845Z",
      "visibility_m": 10000,
      "taf_visibility_m": 5000,
      "worst_visibility_m": 5000,
      "ceiling_ft": null,
      "hazards": [
        "FG"
      ],
      "severityScore": 20,
      "metarRaw": "METAR LIRP 171845Z 13007KT CAVOK 09/07 Q1020 NOSIG",
      "tafRaw": "TAF LIRP 171700Z 1718/1818 12011KT CAVOK \n  PROB30 \n  TEMPO 1805/1807 10006KT 5000 MIFG NSC"
    },
    {
      "icao": "EGKK",
      "iata": "LGW",
      "name": "London Gatwick Airport",
      "updatedAt": "171850Z",
      "visibility_m": 10000,
      "taf_visibility_m": null,
      "worst_visibility_m": 10000,
      "ceiling_ft": 1000,
      "hazards": [],
      "severityScore": 17,
      "metarRaw": "METAR EGKK 171850Z 09007KT 9999 BKN010 08/07 Q1018",
      "tafRaw": null
    },
    {
      "icao": "EPRA",
      "iata": "RDO",
      "name": "Warsaw Radom Airport",
      "updatedAt": "171830Z",
      "visibility_m": 10000,
      "taf_visibility_m": 10000,
      "worst_visibility_m": 10000,
      "ceiling_ft": null,
      "hazards": [
        "RA"
      ],
      "severityScore": 12,
      "metarRaw": "METAR EPRA 171830Z 10010KT CAVOK M07/M14 Q1035",
      "tafRaw": "TAF EPRA 171730Z 1718/1803 10008KT CAVOK"
    },
    {
      "icao": "LBWN",
      "iata": "VAR",
      "name": "Varna Airport",
      "updatedAt": "171830Z",
      "visibility_m": 10000,
      "taf_visibility_m": 10000,
      "worst_visibility_m": 10000,
      "ceiling_ft": 1500,
      "hazards": [],
      "severityScore": 12,
      "metarRaw": "METAR LBWN 171830Z AUTO 01008KT 340V040 9999 FEW020/// M06/M10 Q1033 NOSIG",
      "tafRaw": "TAF LBWN 171700Z 1718/1818 35010KT 9999 BKN050 \n  BECMG 1720/1722 01020KT BKN015 OVC030 \n  TEMPO 1722/1804 36024G34KT \n  BECMG 1808/1810 34010KT"
    },
    {
      "icao": "LFMN",
      "iata": "NCE",
      "name": "Nice-Côte d'Azur Airport",
      "updatedAt": "171830Z",
      "visibility_m": 10000,
      "taf_visibility_m": 10000,
      "worst_visibility_m": 10000,
      "ceiling_ft": 8000,
      "hazards": [
        "RA"
      ],
      "severityScore": 12,
      "metarRaw": "METAR LFMN 171830Z 09024KT CAVOK 15/08 Q1016 NOSIG",
      "tafRaw": "TAF LFMN 171400Z 1715/1821 35010KT 9999 FEW030 OVC080 \n  BECMG 1715/1718 09020G30KT \n  TEMPO 1719/1803 09025G35KT \n  TEMPO 1803/1821 RA"
    },
    {
      "icao": "LICC",
      "iata": "CTA",
      "name": "Catania-Fontanarossa Airport",
      "updatedAt": "171850Z",
      "visibility_m": 10000,
      "taf_visibility_m": 10000,
      "worst_visibility_m": 10000,
      "ceiling_ft": 4000,
      "hazards": [
        "RA"
      ],
      "severityScore": 12,
      "metarRaw": "METAR LICC 171850Z 06012KT 9999 FEW015 SCT040 15/13 Q1018",
      "tafRaw": "TAF LICC 171700Z 1718/1818 08013KT 9999 SCT015 BKN040 \n  TEMPO 1800/1818 RA"
    },
    {
      "icao": "LIMF",
      "iata": "TRN",
      "name": "Turin Airport",
      "updatedAt": "171850Z",
      "visibility_m": 7000,
      "taf_visibility_m": 4000,
      "worst_visibility_m": 4000,
      "ceiling_ft": 3500,
      "hazards": [
        "RA"
      ],
      "severityScore": 12,
      "metarRaw": "METAR LIMF 171850Z 30008KT 7000 -RA OVC035 08/05 Q1023",
      "tafRaw": "TAF LIMF 171700Z 1718/1818 VRB05KT 4000 -RA BKN035"
    },
    {
      "icao": "LRCV",
      "iata": "CRA",
      "name": "Craiova International Airport",
      "updatedAt": "171830Z",
      "visibility_m": 10000,
      "taf_visibility_m": 10000,
      "worst_visibility_m": 10000,
      "ceiling_ft": 1500,
      "hazards": [],
      "severityScore": 12,
      "metarRaw": "METAR LRCV 171830Z 10005KT CAVOK M07/M08 Q1033",
      "tafRaw": "TAF LRCV 171700Z 1718/1803 12007KT CAVOK \n  BECMG 1723/1801 BKN015"
    },
    {
      "icao": "LROP",
      "iata": "OTP",
      "name": "Bucharest Henri Coandă International Airport",
      "updatedAt": "171830Z",
      "visibility_m": 7000,
      "taf_visibility_m": 10000,
      "worst_visibility_m": 7000,
      "ceiling_ft": 1500,
      "hazards": [],
      "severityScore": 12,
      "metarRaw": "METAR LROP 171830Z 09006KT 7000 FEW028 SCT048 M07/M11 Q1035 NOSIG",
      "tafRaw": "TAF LROP 171700Z 1718/1818 VRB04KT 9999 SCT020 \n  BECMG 1718/1720 07011KT BKN015 BKN030 \n  BECMG 1721/1723 SCT015 BKN025 \n  BECMG 1806/1808 VRB04KT \n  TEMPO 1806/1810 BKN015 BKN030"
    },
    {
      "icao": "EPGD",
      "iata": "GDN",
      "name": "Gdańsk Lech Wałęsa Airport",
      "updatedAt": "171830Z",
      "visibility_m": 6000,
      "taf_visibility_m": 3000,
      "worst_visibility_m": 3000,
      "ceiling_ft": null,
      "hazards": [
        "BR"
      ],
      "severityScore": 10,
      "metarRaw": "METAR EPGD 171830Z 15005KT 6000 NSC M06/M07 Q1033",
      "tafRaw": "TAF EPGD 171730Z 1718/1818 15007KT 4500 BR NSC \n  BECMG 1718/1720 7000 \n  PROB40 1802/1806 3000 BR"
    },
    {
      "icao": "EPLB",
      "iata": "LUZ",
      "name": "Lublin Airport",
      "updatedAt": "171830Z",
      "visibility_m": 10000,
      "taf_visibility_m": 3000,
      "worst_visibility_m": 3000,
      "ceiling_ft": null,
      "hazards": [
        "BR"
      ],
      "severityScore": 10,
      "metarRaw": "METAR EPLB 171830Z 10007KT CAVOK M12/M14 Q1037",
      "tafRaw": "TAF EPLB 171730Z 1718/1818 10006KT CAVOK \n  PROB40 1720/1807 3000 BR"
    },
    {
      "icao": "EPMO",
      "iata": "WMI",
      "name": "Modlin Airport",
      "updatedAt": "171830Z",
      "visibility_m": 10000,
      "taf_visibility_m": 3000,
      "worst_visibility_m": 3000,
      "ceiling_ft": null,
      "hazards": [
        "BR"
      ],
      "severityScore": 10,
      "metarRaw": "METAR EPMO 171830Z 09008KT CAVOK M06/M12 Q1035",
      "tafRaw": "TAF EPMO 171730Z 1718/1818 10006KT CAVOK \n  PROB40 1721/1807 3000 BR"
    },
    {
      "icao": "HESX",
      "iata": "SPX",
      "name": "Sphinx International Airport",
      "updatedAt": "171800Z",
      "visibility_m": 10000,
      "taf_visibility_m": 3000,
      "worst_visibility_m": 3000,
      "ceiling_ft": null,
      "hazards": [
        "BR"
      ],
      "severityScore": 10,
      "metarRaw": "METAR HESX 171800Z 03004KT CAVOK 13/08 Q1017 NOSIG",
      "tafRaw": "TAF HESX 171700Z 1718/1824 36009KT CAVOK \n  TEMPO 1800/1808 VRB03KT 3000 BR NSC"
    },
    {
      "icao": "LHDC",
      "iata": "DEB",
      "name": "Debrecen International Airport",
      "updatedAt": "171815Z",
      "visibility_m": 10000,
      "taf_visibility_m": 4000,
      "worst_visibility_m": 4000,
      "ceiling_ft": null,
      "hazards": [
        "BR"
      ],
      "severityScore": 10,
      "metarRaw": "METAR LHDC 171815Z AUTO 04005KT CAVOK M02/M07 Q1031 NOSIG",
      "tafRaw": "TAF LHDC 171415Z 1715/1724 08005KT CAVOK \n  TEMPO 1721/1724 4000 BR"
    },
    {
      "icao": "LIBD",
      "iata": "BRI",
      "name": "Bari Karol Wojtyła International Airport",
      "updatedAt": "171850Z",
      "visibility_m": 10000,
      "taf_visibility_m": 4000,
      "worst_visibility_m": 4000,
      "ceiling_ft": null,
      "hazards": [
        "BR"
      ],
      "severityScore": 10,
      "metarRaw": "METAR LIBD 171850Z 22003KT 9999 FEW025 09/09 Q1021",
      "tafRaw": "TAF LIBD 171700Z 1718/1818 VRB05KT 9999 FEW015 \n  TEMPO 1718/1806 4000 BR"
    },
    {
      "icao": "LIBR",
      "iata": "BDS",
      "name": "Brindisi Airport",
      "updatedAt": "171850Z",
      "visibility_m": 10000,
      "taf_visibility_m": 10000,
      "worst_visibility_m": 10000,
      "ceiling_ft": null,
      "hazards": [
        "BR"
      ],
      "severityScore": 10,
      "metarRaw": "METAR LIBR 171850Z VRB02KT CAVOK 11/09 Q1021",
      "tafRaw": "TAF LIBR 171700Z 1718/1818 VRB05KT CAVOK \n  BECMG 1810/1812 13010KT \n  BECMG 1816/1818 VRB05KT"
    },
    {
      "icao": "LIMC",
      "iata": "MXP",
      "name": "Milan Malpensa International Airport",
      "updatedAt": "171850Z",
      "visibility_m": 10000,
      "taf_visibility_m": 7000,
      "worst_visibility_m": 7000,
      "ceiling_ft": 4000,
      "hazards": [
        "DZ"
      ],
      "severityScore": 10,
      "metarRaw": "METAR LIMC 171850Z 03004KT 9999 SCT040 SCT070 07/06 Q1023 NOSIG",
      "tafRaw": "TAF LIMC 171700Z 1718/1824 VRB04KT 7000 BKN040 \n  TEMPO 1718/1812 DZ \n  TEMPO 1817/1824 DZ"
    },
    {
      "icao": "LIPX",
      "iata": "VRN",
      "name": "Verona Villafranca Valerio Catullo Airport",
      "updatedAt": "171850Z",
      "visibility_m": 5000,
      "taf_visibility_m": 2500,
      "worst_visibility_m": 2500,
      "ceiling_ft": 7000,
      "hazards": [
        "BR"
      ],
      "severityScore": 10,
      "metarRaw": "METAR LIPX 171850Z VRB02KT 5000 BR BKN070 08/07 Q1023",
      "tafRaw": "TAF LIPX 171700Z 1718/1818 VRB04KT 9000 BKN040 \n  TEMPO 1718/1803 2500 BR \n  BECMG 1803/1805 10010KT \n  BECMG 1816/1818 VRB04KT"
    },
    {
      "icao": "LQTZ",
      "iata": "TZL",
      "name": "Tuzla International Airport",
      "updatedAt": "171830Z",
      "visibility_m": 7000,
      "taf_visibility_m": 4000,
      "worst_visibility_m": 4000,
      "ceiling_ft": 2300,
      "hazards": [
        "BR"
      ],
      "severityScore": 10,
      "metarRaw": "METAR LQTZ 171830Z VRB02KT 7000 BKN023 M00/M01 Q1028",
      "tafRaw": "TAF LQTZ 171700Z 1718/1818 10005KT 9999 SCT020 BKN035 TX01/1813Z TNM03/1805Z \n  PROB40 \n  TEMPO 1721/1807 4000 BR BKN010"
    },
    {
      "icao": "LRBC",
      "iata": "BCM",
      "name": "Bacău George Enescu International  Airport",
      "updatedAt": "171830Z",
      "visibility_m": 10000,
      "taf_visibility_m": 5000,
      "worst_visibility_m": 5000,
      "ceiling_ft": 2900,
      "hazards": [
        "BR"
      ],
      "severityScore": 10,
      "metarRaw": "METAR LRBC 171830Z 35014KT 9999 BKN029 BKN044 M10/M15 Q1038",
      "tafRaw": "TAF LRBC 171700Z 1718/1803 36010KT CAVOK \n  BECMG 1720/1722 BKN015 \n  PROB40 \n  TEMPO 1722/1803 5000 BR BKN005"
    },
    {
      "icao": "LRTM",
      "iata": "TGM",
      "name": "Târgu Mureş Transilvania International Airport",
      "updatedAt": "171830Z",
      "visibility_m": 7000,
      "taf_visibility_m": 5000,
      "worst_visibility_m": 5000,
      "ceiling_ft": null,
      "hazards": [
        "BR"
      ],
      "severityScore": 10,
      "metarRaw": "METAR LRTM 171830Z AUTO 10001KT 7000 NCD M13/M14 Q1032",
      "tafRaw": "TAF LRTM 171400Z 1715/1724 VRB04KT CAVOK \n  BECMG 1718/1720 5000 BR"
    },
    {
      "icao": "LZIB",
      "iata": "BTS",
      "name": "M. R. Štefánik Airport",
      "updatedAt": "171830Z",
      "visibility_m": 7000,
      "taf_visibility_m": 4000,
      "worst_visibility_m": 4000,
      "ceiling_ft": 3200,
      "hazards": [
        "BR"
      ],
      "severityScore": 10,
      "metarRaw": "METAR LZIB 171830Z 10006KT 7000 FEW009 BKN032 00/M00 Q1031 NOSIG",
      "tafRaw": "TAF LZIB 171715Z 1718/1818 10007KT 9999 FEW015 SCT045 \n  PROB40 \n  TEMPO 1721/1808 4000 BR FEW007 BKN012"
    },
    {
      "icao": "LZTT",
      "iata": "TAT",
      "name": "Poprad-Tatry Airport",
      "updatedAt": "171830Z",
      "visibility_m": 10000,
      "taf_visibility_m": 4000,
      "worst_visibility_m": 4000,
      "ceiling_ft": null,
      "hazards": [
        "BR"
      ],
      "severityScore": 10,
      "metarRaw": "METAR LZTT 171830Z 30003KT CAVOK M07/M08 Q1029",
      "tafRaw": "TAF LZTT 171715Z 1718/1818 VRB02KT 9999 FEW015 \n  PROB30 \n  TEMPO 1718/1721 4000 BR SCT007"
    },
    {
      "icao": "GCFV",
      "iata": "FUE",
      "name": "Fuerteventura Airport",
      "updatedAt": "171830Z",
      "visibility_m": 10000,
      "taf_visibility_m": null,
      "worst_visibility_m": 10000,
      "ceiling_ft": null,
      "hazards": [],
      "severityScore": 5,
      "metarRaw": "METAR GCFV 171830Z 32014KT 290V350 9999 SCT035 17/09 Q1018",
      "tafRaw": null
    },
    {
      "icao": "EDSB",
      "iata": "FKB",
      "name": "Karlsruhe Baden-Baden Airport",
      "updatedAt": "171850Z",
      "visibility_m": 10000,
      "taf_visibility_m": null,
      "worst_visibility_m": 10000,
      "ceiling_ft": null,
      "hazards": [],
      "severityScore": 5,
      "metarRaw": "METAR EDSB 171850Z 03009KT CAVOK 01/M00 Q1020",
      "tafRaw": null
    },
    {
      "icao": "EYVI",
      "iata": "VNO",
      "name": "Vilnius International Airport",
      "updatedAt": "171850Z",
      "visibility_m": 10000,
      "taf_visibility_m": null,
      "worst_visibility_m": 10000,
      "ceiling_ft": null,
      "hazards": [],
      "severityScore": 5,
      "metarRaw": "METAR EYVI 171850Z 16008KT CAVOK M12/M15 Q1040 NOSIG",
      "tafRaw": null
    },
    {
      "icao": "LECH",
      "iata": "CDT",
      "name": "Castellón-Costa Azahar Airport",
      "updatedAt": "171830Z",
      "visibility_m": 9000,
      "taf_visibility_m": null,
      "worst_visibility_m": 9000,
      "ceiling_ft": 2600,
      "hazards": [],
      "severityScore": 5,
      "metarRaw": "METAR LECH 171830Z AUTO 01001KT 9000 OVC026 09/08 Q1007",
      "tafRaw": null
    },
    {
      "icao": "LMML",
      "iata": "MLA",
      "name": "Malta International Airport",
      "updatedAt": "171845Z",
      "visibility_m": 10000,
      "taf_visibility_m": null,
      "worst_visibility_m": 10000,
      "ceiling_ft": null,
      "hazards": [],
      "severityScore": 5,
      "metarRaw": "METAR LMML 171845Z 05004KT 030V090 9999 FEW015 13/11 Q1017 NOSIG",
      "tafRaw": null
    },
    {
      "icao": "LRSM",
      "iata": "SUJ",
      "name": "Satu Mare International Airport",
      "updatedAt": "171830Z",
      "visibility_m": 10000,
      "taf_visibility_m": null,
      "worst_visibility_m": 10000,
      "ceiling_ft": null,
      "hazards": [],
      "severityScore": 5,
      "metarRaw": "METAR LRSM 171830Z AUTO 10005KT 9999 NCD M07/M09 Q1032",
      "tafRaw": null
    },
    {
      "icao": "EBCI",
      "iata": "CRL",
      "name": "Brussels South Charleroi Airport",
      "updatedAt": "171850Z",
      "visibility_m": 10000,
      "taf_visibility_m": 10000,
      "worst_visibility_m": 10000,
      "ceiling_ft": 4500,
      "hazards": [],
      "severityScore": 0,
      "metarRaw": "METAR EBCI 171850Z 10004KT 9999 BKN045 09/06 Q1019 NOSIG",
      "tafRaw": "TAF EBCI 171702Z 1718/1824 10004KT CAVOK"
    },
    {
      "icao": "EDDK",
      "iata": "CGN",
      "name": "Cologne Bonn Airport",
      "updatedAt": "171850Z",
      "visibility_m": 10000,
      "taf_visibility_m": 10000,
      "worst_visibility_m": 10000,
      "ceiling_ft": null,
      "hazards": [],
      "severityScore": 0,
      "metarRaw": "METAR EDDK 171850Z AUTO 11006KT 070V170 CAVOK 06/01 Q1021 NOSIG",
      "tafRaw": "TAF EDDK 171700Z 1718/1824 12006KT CAVOK"
    },
    {
      "icao": "ENAL",
      "iata": "AES",
      "name": "Ålesund Airport, Vigra",
      "updatedAt": "171850Z",
      "visibility_m": 10000,
      "taf_visibility_m": 10000,
      "worst_visibility_m": 10000,
      "ceiling_ft": null,
      "hazards": [],
      "severityScore": 0,
      "metarRaw": "METAR ENAL 171850Z 15008KT CAVOK 03/M01 Q1027",
      "tafRaw": "TAF ENAL 171700Z 1718/1803 14008KT CAVOK"
    },
    {
      "icao": "ENVA",
      "iata": "TRD",
      "name": "Trondheim Airport, Værnes",
      "updatedAt": "171850Z",
      "visibility_m": 10000,
      "taf_visibility_m": 10000,
      "worst_visibility_m": 10000,
      "ceiling_ft": null,
      "hazards": [],
      "severityScore": 0,
      "metarRaw": "METAR ENVA 171850Z 11004KT CAVOK M01/M01 Q1030 RMK WIND 670FT 14013KT",
      "tafRaw": "TAF ENVA 171700Z 1718/1818 12008KT 9999 FEW040"
    },
    {
      "icao": "EPRZ",
      "iata": "RZE",
      "name": "Rzeszów-Jasionka Airport",
      "updatedAt": "171830Z",
      "visibility_m": 10000,
      "taf_visibility_m": 10000,
      "worst_visibility_m": 10000,
      "ceiling_ft": null,
      "hazards": [],
      "severityScore": 0,
      "metarRaw": "METAR EPRZ 171830Z 09013KT CAVOK M07/M13 Q1034",
      "tafRaw": "TAF EPRZ 171730Z 1718/1818 09012KT CAVOK"
    },
    {
      "icao": "EPSY",
      "iata": "SZY",
      "name": "Olsztyn-Mazury Airport",
      "updatedAt": "171830Z",
      "visibility_m": 10000,
      "taf_visibility_m": 10000,
      "worst_visibility_m": 10000,
      "ceiling_ft": null,
      "hazards": [],
      "severityScore": 0,
      "metarRaw": "METAR EPSY 171830Z 12004KT 060V230 CAVOK M07/M13 Q1036",
      "tafRaw": "TAF EPSY 171730Z 1718/1803 12006KT CAVOK"
    },
    {
      "icao": "EPWA",
      "iata": "WAW",
      "name": "Warsaw Chopin Airport",
      "updatedAt": "171830Z",
      "visibility_m": 10000,
      "taf_visibility_m": 3000,
      "worst_visibility_m": 3000,
      "ceiling_ft": null,
      "hazards": [],
      "severityScore": 0,
      "metarRaw": "METAR EPWA 171830Z 12011KT CAVOK M05/M12 Q1035 NOSIG",
      "tafRaw": "TAF EPWA 171730Z 1718/1818 11006KT CAVOK \n  PROB40 1722/1807 3000 HZ"
    },
    {
      "icao": "EYPA",
      "iata": "PLQ",
      "name": "Palanga International Airport",
      "updatedAt": "171850Z",
      "visibility_m": 10000,
      "taf_visibility_m": 7000,
      "worst_visibility_m": 7000,
      "ceiling_ft": null,
      "hazards": [],
      "severityScore": 0,
      "metarRaw": "METAR EYPA 171850Z 15012KT CAVOK M05/M12 Q1036",
      "tafRaw": "TAF EYPA 171709Z 1718/1818 15011KT 7000 NSC \n  TEMPO 1804/1809 SCT005"
    },
    {
      "icao": "HEGN",
      "iata": "HRG",
      "name": "Hurghada International Airport",
      "updatedAt": "171800Z",
      "visibility_m": 10000,
      "taf_visibility_m": 10000,
      "worst_visibility_m": 10000,
      "ceiling_ft": null,
      "hazards": [],
      "severityScore": 0,
      "metarRaw": "METAR HEGN 171800Z 32009KT CAVOK 18/04 Q1015 NOSIG",
      "tafRaw": "TAF HEGN 171700Z 1718/1824 32010KT CAVOK"
    },
    {
      "icao": "HEMA",
      "iata": "RMF",
      "name": "Marsa Alam International Airport",
      "updatedAt": "171800Z",
      "visibility_m": 10000,
      "taf_visibility_m": 10000,
      "worst_visibility_m": 10000,
      "ceiling_ft": null,
      "hazards": [],
      "severityScore": 0,
      "metarRaw": "METAR HEMA 171800Z 30009KT CAVOK 18/11 Q1015 NOSIG",
      "tafRaw": "TAF HEMA 171700Z 1718/1824 33010KT CAVOK"
    },
    {
      "icao": "HESH",
      "iata": "SSH",
      "name": "Sharm El Sheikh International Airport",
      "updatedAt": "171800Z",
      "visibility_m": 10000,
      "taf_visibility_m": 10000,
      "worst_visibility_m": 10000,
      "ceiling_ft": null,
      "hazards": [],
      "severityScore": 0,
      "metarRaw": "METAR HESH 171800Z 34009KT CAVOK 19/09 Q1015 NOSIG",
      "tafRaw": "TAF HESH 171700Z 1718/1824 35010KT CAVOK"
    },
    {
      "icao": "LATI",
      "iata": "TIA",
      "name": "Tirana International Airport Mother Teresa",
      "updatedAt": "171850Z",
      "visibility_m": 10000,
      "taf_visibility_m": 10000,
      "worst_visibility_m": 10000,
      "ceiling_ft": null,
      "hazards": [],
      "severityScore": 0,
      "metarRaw": "METAR LATI 171850Z 15003KT CAVOK 08/01 Q1022 NOSIG",
      "tafRaw": "TAF LATI 171700Z 1718/1818 VRB05KT CAVOK TX17/1813Z TNM02/1805Z"
    },
    {
      "icao": "LBPD",
      "iata": "PDV",
      "name": "Plovdiv International Airport",
      "updatedAt": "171830Z",
      "visibility_m": 10000,
      "taf_visibility_m": 10000,
      "worst_visibility_m": 10000,
      "ceiling_ft": 3000,
      "hazards": [],
      "severityScore": 0,
      "metarRaw": "METAR LBPD 171830Z AUTO 27006KT 9999 NCD M03/M04 Q1032 NOSIG",
      "tafRaw": "TAF LBPD 171700Z 1718/1818 VRB04KT 9999 BKN030 \n  BECMG 1721/1723 09010KT \n  BECMG 1813/1815 VRB04KT"
    },
    {
      "icao": "LBSF",
      "iata": "SOF",
      "name": "Sofia Airport",
      "updatedAt": "171830Z",
      "visibility_m": 10000,
      "taf_visibility_m": 10000,
      "worst_visibility_m": 10000,
      "ceiling_ft": 3000,
      "hazards": [],
      "severityScore": 0,
      "metarRaw": "METAR LBSF 171830Z AUTO 10009KT 9999 NCD M04/M06 Q1029 NOSIG",
      "tafRaw": "TAF LBSF 171700Z 1718/1818 07010KT 9999 BKN030 \n  BECMG 1816/1818 VRB04KT"
    },
    {
      "icao": "LEMG",
      "iata": "AGP",
      "name": "Málaga-Costa del Sol Airport",
      "updatedAt": "171830Z",
      "visibility_m": 10000,
      "taf_visibility_m": 10000,
      "worst_visibility_m": 10000,
      "ceiling_ft": null,
      "hazards": [],
      "severityScore": 0,
      "metarRaw": "METAR LEMG 171830Z 29006KT 9999 FEW060 10/03 Q1010 NOSIG",
      "tafRaw": "TAF LEMG 171700Z 1718/1818 27005KT 9999 FEW030 TX13/1814Z TN06/1806Z"
    },
    {
      "icao": "LEVC",
      "iata": "VLC",
      "name": "Valencia Airport",
      "updatedAt": "171830Z",
      "visibility_m": 10000,
      "taf_visibility_m": 10000,
      "worst_visibility_m": 10000,
      "ceiling_ft": null,
      "hazards": [],
      "severityScore": 0,
      "metarRaw": "METAR LEVC 171830Z 26008KT CAVOK 09/04 Q1008 NOSIG",
      "tafRaw": "TAF LEVC 171700Z 1718/1818 27008KT 9999 FEW020 TX14/1812Z TN04/1806Z \n  BECMG 1812/1814 08007KT"
    },
    {
      "icao": "LFLS",
      "iata": "GNB",
      "name": "Grenoble Alpes Isère Airport",
      "updatedAt": "171830Z",
      "visibility_m": 10000,
      "taf_visibility_m": 10000,
      "worst_visibility_m": 10000,
      "ceiling_ft": null,
      "hazards": [],
      "severityScore": 0,
      "metarRaw": "METAR LFLS 171830Z AUTO 06004KT CAVOK 07/04 Q1015 NOSIG",
      "tafRaw": "TAF LFLS 171400Z 1715/1815 09005KT CAVOK \n  BECMG 1808/1810 VRB02KT"
    },
    {
      "icao": "LGAV",
      "iata": "ATH",
      "name": "Athens Eleftherios Venizelos International Airport",
      "updatedAt": "171850Z",
      "visibility_m": 10000,
      "taf_visibility_m": 10000,
      "worst_visibility_m": 10000,
      "ceiling_ft": 3500,
      "hazards": [],
      "severityScore": 0,
      "metarRaw": "METAR LGAV 171850Z 02014G24KT 9999 FEW020 SCT030 08/00 Q1025 NOSIG",
      "tafRaw": "TAF LGAV 171700Z 1718/1818 03022KT 9999 FEW015 SCT025 \n  TEMPO 1806/1812 03018G28KT SCT018 BKN035"
    },
    {
      "icao": "LIBG",
      "iata": "TAR",
      "name": "Taranto-Grottaglie Marcello Arlotta Airport",
      "updatedAt": "171750Z",
      "visibility_m": 10000,
      "taf_visibility_m": 10000,
      "worst_visibility_m": 10000,
      "ceiling_ft": null,
      "hazards": [],
      "severityScore": 0,
      "metarRaw": "METAR LIBG 171750Z 05005KT 9999 FEW030 11/11 Q1021",
      "tafRaw": "TAF LIBG 171700Z 1718/1803 VRB05KT 9999 FEW020"
    },
    {
      "icao": "LICJ",
      "iata": "PMO",
      "name": "Falcone–Borsellino Airport",
      "updatedAt": "171850Z",
      "visibility_m": 10000,
      "taf_visibility_m": 10000,
      "worst_visibility_m": 10000,
      "ceiling_ft": null,
      "hazards": [],
      "severityScore": 0,
      "metarRaw": "METAR LICJ 171850Z 20004KT 9999 SCT040 14/10 Q1017",
      "tafRaw": "TAF LICJ 171700Z 1718/1818 11008KT 9999 FEW040"
    },
    {
      "icao": "LIMJ",
      "iata": "GOA",
      "name": "Genoa Cristoforo Colombo Airport",
      "updatedAt": "171850Z",
      "visibility_m": 10000,
      "taf_visibility_m": 10000,
      "worst_visibility_m": 10000,
      "ceiling_ft": null,
      "hazards": [],
      "severityScore": 0,
      "metarRaw": "METAR LIMJ 171850Z 03015KT CAVOK 10/06 Q1020",
      "tafRaw": "TAF LIMJ 171700Z 1718/1818 02014KT 9999 FEW040"
    },
    {
      "icao": "LIPH",
      "iata": "TSF",
      "name": "Treviso Antonio Canova Airport",
      "updatedAt": "171850Z",
      "visibility_m": 10000,
      "taf_visibility_m": 10000,
      "worst_visibility_m": 10000,
      "ceiling_ft": null,
      "hazards": [],
      "severityScore": 0,
      "metarRaw": "METAR LIPH 171850Z 03003KT 9999 FEW070 07/06 Q1023",
      "tafRaw": "TAF LIPH 171700Z 1718/1818 04005KT 9999 SCT060"
    },
    {
      "icao": "LIPQ",
      "iata": "TRS",
      "name": "Trieste–Friuli Venezia Giulia Airport",
      "updatedAt": "171850Z",
      "visibility_m": 10000,
      "taf_visibility_m": 10000,
      "worst_visibility_m": 10000,
      "ceiling_ft": null,
      "hazards": [],
      "severityScore": 0,
      "metarRaw": "METAR LIPQ 171850Z AUTO 05003KT 010V090 9999 FEW078/// 11/02 Q1023",
      "tafRaw": "TAF LIPQ 171700Z 1718/1818 07005KT 9999 FEW070 \n  BECMG 1807/1809 07015KT"
    },
    {
      "icao": "LIPZ",
      "iata": "VCE",
      "name": "Venice Marco Polo Airport",
      "updatedAt": "171850Z",
      "visibility_m": 10000,
      "taf_visibility_m": 10000,
      "worst_visibility_m": 10000,
      "ceiling_ft": null,
      "hazards": [],
      "severityScore": 0,
      "metarRaw": "METAR LIPZ 171850Z 03008KT CAVOK 08/06 Q1023 NOSIG",
      "tafRaw": "TAF LIPZ 171700Z 1718/1824 VRB05KT 9999 SCT060 \n  BECMG 1718/1720 04012KT"
    },
    {
      "icao": "LIRF",
      "iata": "FCO",
      "name": "Rome–Fiumicino Leonardo da Vinci International Airport",
      "updatedAt": "171850Z",
      "visibility_m": 10000,
      "taf_visibility_m": 10000,
      "worst_visibility_m": 10000,
      "ceiling_ft": null,
      "hazards": [],
      "severityScore": 0,
      "metarRaw": "METAR LIRF 171850Z VRB02KT CAVOK 08/06 Q1019 NOSIG",
      "tafRaw": "TAF LIRF 171700Z 1718/1824 05008KT 9999 FEW040"
    },
    {
      "icao": "LIRN",
      "iata": "NAP",
      "name": "Naples International Airport",
      "updatedAt": "171850Z",
      "visibility_m": 10000,
      "taf_visibility_m": 10000,
      "worst_visibility_m": 10000,
      "ceiling_ft": null,
      "hazards": [],
      "severityScore": 0,
      "metarRaw": "METAR LIRN 171850Z 02007KT 330V100 CAVOK 12/07 Q1019 NOSIG",
      "tafRaw": "TAF LIRN 171700Z 1718/1818 05008KT 9999 FEW040"
    },
    {
      "icao": "LIRZ",
      "iata": "PEG",
      "name": "Perugia San Francesco d'Assisi – Umbria International Airport",
      "updatedAt": "171850Z",
      "visibility_m": 10000,
      "taf_visibility_m": 10000,
      "worst_visibility_m": 10000,
      "ceiling_ft": null,
      "hazards": [],
      "severityScore": 0,
      "metarRaw": "METAR LIRZ 171850Z AUTO 01008KT 9999 NCD 09/06 Q1020",
      "tafRaw": "TAF LIRZ 171700Z 1718/1818 02008KT CAVOK"
    },
    {
      "icao": "LQBK",
      "iata": "BNX",
      "name": "Banja Luka International Airport",
      "updatedAt": "171830Z",
      "visibility_m": 10000,
      "taf_visibility_m": 10000,
      "worst_visibility_m": 10000,
      "ceiling_ft": 2300,
      "hazards": [],
      "severityScore": 0,
      "metarRaw": "METAR LQBK 171830Z VRB01KT 9999 OVC023 02/M00 Q1029 NOSIG",
      "tafRaw": "TAF LQBK 171700Z 1718/1818 04005KT 9999 SCT020 TX00/1812Z TNM03/1805Z \n  TEMPO 1718/1806 BKN015"
    },
    {
      "icao": "LRBV",
      "iata": "GHV",
      "name": "Brașov-Ghimbav International Airport",
      "updatedAt": "171830Z",
      "visibility_m": 10000,
      "taf_visibility_m": 10000,
      "worst_visibility_m": 10000,
      "ceiling_ft": null,
      "hazards": [],
      "severityScore": 0,
      "metarRaw": "METAR LRBV 171830Z VRB01KT CAVOK M05/M11 Q1031",
      "tafRaw": "TAF LRBV 171700Z 1718/1803 VRB04KT CAVOK"
    },
    {
      "icao": "LRCL",
      "iata": "CLJ",
      "name": "Cluj Avram Iancu International Airport",
      "updatedAt": "171830Z",
      "visibility_m": 10000,
      "taf_visibility_m": 10000,
      "worst_visibility_m": 10000,
      "ceiling_ft": null,
      "hazards": [],
      "severityScore": 0,
      "metarRaw": "METAR LRCL 171830Z 06002KT CAVOK M08/M10 Q1032",
      "tafRaw": "TAF LRCL 171700Z 1718/1803 07005KT CAVOK"
    },
    {
      "icao": "LWOH",
      "iata": "OHD",
      "name": "Ohrid St. Paul the Apostle Airport",
      "updatedAt": "171850Z",
      "visibility_m": 10000,
      "taf_visibility_m": 10000,
      "worst_visibility_m": 10000,
      "ceiling_ft": 3500,
      "hazards": [],
      "severityScore": 0,
      "metarRaw": "METAR LWOH 171850Z 30005KT 260V360 9999 BKN035 04/01 Q1024",
      "tafRaw": "TAF LWOH 171750Z 1718/1818 06005KT 9999 BKN030"
    },
    {
      "icao": "LYBE",
      "iata": "BEG",
      "name": "Belgrade Nikola Tesla Airport",
      "updatedAt": "171830Z",
      "visibility_m": 10000,
      "taf_visibility_m": 10000,
      "worst_visibility_m": 10000,
      "ceiling_ft": null,
      "hazards": [],
      "severityScore": 0,
      "metarRaw": "METAR LYBE 171830Z 10010KT CAVOK M00/M05 Q1030 NOSIG",
      "tafRaw": "TAF LYBE 171700Z 1718/1818 12012KT CAVOK TX01/1813ZZ TNM05/1806Z"
    },
    {
      "icao": "LYNI",
      "iata": "INI",
      "name": "Niš Constantine the Great Airport",
      "updatedAt": "171830Z",
      "visibility_m": 10000,
      "taf_visibility_m": 10000,
      "worst_visibility_m": 10000,
      "ceiling_ft": 4000,
      "hazards": [],
      "severityScore": 0,
      "metarRaw": "METAR LYNI 171830Z VRB02KT 9999 BKN040 M01/M05 Q1029 NOSIG",
      "tafRaw": "TAF LYNI 171700Z 1718/1818 04006KT 9999 SCT035 TX02/1813Z TNM06/1806Z"
    },
    {
      "icao": "LZKZ",
      "iata": "KSC",
      "name": "Košice International Airport",
      "updatedAt": "171830Z",
      "visibility_m": 10000,
      "taf_visibility_m": 10000,
      "worst_visibility_m": 10000,
      "ceiling_ft": null,
      "hazards": [],
      "severityScore": 0,
      "metarRaw": "METAR LZKZ 171830Z VRB02KT CAVOK M02/M08 Q1032 NOSIG",
      "tafRaw": "TAF LZKZ 171715Z 1718/1818 35005KT CAVOK \n  BECMG 1720/1722 VRB02KT"
    },
    {
      "icao": "OEJN",
      "iata": "JED",
      "name": "King Abdulaziz International Airport",
      "updatedAt": "171800Z",
      "visibility_m": 10000,
      "taf_visibility_m": 7000,
      "worst_visibility_m": 7000,
      "ceiling_ft": null,
      "hazards": [],
      "severityScore": 0,
      "metarRaw": "METAR OEJN 171800Z 28004KT CAVOK 26/16 Q1013 NOSIG",
      "tafRaw": "TAF OEJN 171700Z 1718/1824 03005KT 7000 SCT040 \n  BECMG 1808/1810 28012KT \n  BECMG 1818/1820 01005KT"
    },
    {
      "icao": "OEMA",
      "iata": "MED",
      "name": "Prince Mohammad Bin Abdulaziz Airport",
      "updatedAt": "171800Z",
      "visibility_m": 8000,
      "taf_visibility_m": 7000,
      "worst_visibility_m": 7000,
      "ceiling_ft": null,
      "hazards": [],
      "severityScore": 0,
      "metarRaw": "METAR OEMA 171800Z 24005KT 8000 NSC 23/05 Q1016 NOSIG",
      "tafRaw": "TAF OEMA 171700Z 1718/1824 27005KT 7000 FEW045 \n  BECMG 1722/1800 VRB03KT \n  BECMG 1807/1809 25012KT CAVOK"
    },
    {
      "icao": "OMAA",
      "iata": "AUH",
      "name": "Zayed International Airport",
      "updatedAt": "171800Z",
      "visibility_m": 10000,
      "taf_visibility_m": 4000,
      "worst_visibility_m": 4000,
      "ceiling_ft": null,
      "hazards": [],
      "severityScore": 0,
      "metarRaw": "METAR OMAA 171800Z 27005KT CAVOK 19/11 Q1018 NOSIG",
      "tafRaw": "TAF OMAA 171700Z 1718/1900 30011KT 9999 SCT040 \n  BECMG 1814/1816 21005KT \n  PROB30 \n  TEMPO 1822/1900 4000 HZ"
    },
    {
      "icao": "OMDB",
      "iata": "DXB",
      "name": "Dubai International Airport",
      "updatedAt": "171830Z",
      "visibility_m": 10000,
      "taf_visibility_m": 8000,
      "worst_visibility_m": 8000,
      "ceiling_ft": null,
      "hazards": [],
      "severityScore": 0,
      "metarRaw": "METAR OMDB 171830Z 26007KT 210V310 9999 SCT030 20/12 Q1017 NOSIG",
      "tafRaw": "TAF OMDB 171700Z 1718/1900 22006KT 8000 SCT040 \n  BECMG 1806/1808 29012KT \n  BECMG 1816/1818 20005KT"
    }
  ],
  "stats": {
    "icaoCount": 159,
    "metarReturned": 158,
    "tafReturned": 149,
    "stationsWritten": 159,
    "missingMetar": 1,
    "missingTaf": 10
  },
  "errors": []
}