{
  "generatedAt": "2026-01-15T05:45:50.356Z",
  "stations": [
    {
      "icao": "BKPR",
      "iata": "PRN",
      "name": "Priština Adem Jashari International Airport",
      "updatedAt": "150530Z",
      "visibility_m": 10000,
      "taf_visibility_m": 150,
      "worst_visibility_m": 150,
      "ceiling_ft": 6000,
      "hazards": [
        "FZFG",
        "BR",
        "FG"
      ],
      "severityScore": 100,
      "metarRaw": "METAR BKPR 150530Z VRB02KT 9999 OVC060 01/00 Q1024 NOSIG",
      "tafRaw": "TAF BKPR 150530Z 1506/1606 VRB03KT 9999 SCT060 \n  TEMPO 1506/1509 4000 BR \n  BECMG 1519/1521 3000 BR \n  PROB40 1601/1606 0150 FZFG BKN002"
    },
    {
      "icao": "EFTU",
      "iata": "TKU",
      "name": "Turku Airport",
      "updatedAt": "150520Z",
      "visibility_m": 10000,
      "taf_visibility_m": 700,
      "worst_visibility_m": 700,
      "ceiling_ft": 800,
      "hazards": [
        "SHSN",
        "SN",
        "FG",
        "BR",
        "DZ",
        "FZDZ"
      ],
      "severityScore": 100,
      "metarRaw": "METAR EFTU 150520Z AUTO 13012KT 9999 -SHSN OVC008 M06/M08 Q1012",
      "tafRaw": "TAF EFTU 150530Z 1506/1606 13012KT 9999 -SHSN BKN009 \n  TEMPO 1506/1512 4000 -FZDZSN BKN004 \n  BECMG 1512/1514 19004KT BKN015 \n  TEMPO 1514/1519 BKN011 \n  TEMPO 1519/1603 2500 -DZ BR BKN003 \n  PROB40 1520/1602 0700 FG VV001"
    },
    {
      "icao": "EGGP",
      "iata": "LPL",
      "name": "Liverpool John Lennon Airport",
      "updatedAt": "150520Z",
      "visibility_m": 10000,
      "taf_visibility_m": 300,
      "worst_visibility_m": 300,
      "ceiling_ft": 200,
      "hazards": [
        "FG",
        "BR"
      ],
      "severityScore": 100,
      "metarRaw": "METAR EGGP 150520Z 15007KT 120V190 9999 FEW026 04/03 Q1000",
      "tafRaw": "TAF EGGP 150503Z 1506/1606 16006KT 9999 SCT025 \n  PROB30 1508/1512 8000 \n  BECMG 1512/1515 8000 \n  TEMPO 1516/1603 3000 BR MIFG BKN002 \n  PROB30 1519/1603 0300 FG VV/// \n  PROB30 \n  TEMPO 1603/1606 3000 BR BKN004"
    },
    {
      "icao": "EGGW",
      "iata": "LTN",
      "name": "London Luton Airport",
      "updatedAt": "150520Z",
      "visibility_m": 10000,
      "taf_visibility_m": 300,
      "worst_visibility_m": 300,
      "ceiling_ft": 400,
      "hazards": [
        "FG",
        "RA"
      ],
      "severityScore": 100,
      "metarRaw": "METAR EGGW 150520Z AUTO 19007KT 150V220 9999 BKN004 OVC007 07/06 Q1003",
      "tafRaw": "TAF EGGW 150457Z 1506/1606 19010KT 9999 SCT004 BKN020 \n  TEMPO 1506/1522 6000 RA BKN003 \n  PROB40 \n  TEMPO 1506/1512 3000 +RA BKN001 \n  PROB30 \n  TEMPO 1512/1518 3000 +RA \n  TEMPO 1516/1520 17018G28KT \n  BECMG 1518/1521 29010KT \n  PROB40 \n  TEMPO 1522/1606 0300 FG BKN001 \n  BECMG 1603/1606 17008KT"
    },
    {
      "icao": "ENGM",
      "iata": "OSL",
      "name": "Oslo-Gardermoen International Airport",
      "updatedAt": "150520Z",
      "visibility_m": 600,
      "taf_visibility_m": 300,
      "worst_visibility_m": 300,
      "ceiling_ft": 100,
      "hazards": [
        "FZFG",
        "FG",
        "BR",
        "SN"
      ],
      "severityScore": 100,
      "metarRaw": "METAR ENGM 150520Z VRB01KT 0900 0600SW R19R/1000N R01R/1400D R19L/1200D R01L/0700N FZFG VV002 M08/M09 Q1007 TEMPO 0600 FZFG VV001",
      "tafRaw": "TAF ENGM 150500Z 1506/1606 VRB03KT 0300 FZFG VV001 \n  PROB30 1506/1509 6000 NSW SCT002 \n  BECMG 1509/1511 8000 NSW BKN005 \n  TEMPO 1511/1606 2000 -SN BR BKN003"
    },
    {
      "icao": "EPGD",
      "iata": "GDN",
      "name": "Gdańsk Lech Wałęsa Airport",
      "updatedAt": "150530Z",
      "visibility_m": 8000,
      "taf_visibility_m": 500,
      "worst_visibility_m": 500,
      "ceiling_ft": 300,
      "hazards": [
        "FG",
        "BR"
      ],
      "severityScore": 100,
      "metarRaw": "METAR EPGD 150530Z 25005KT 8000 FEW004 00/M00 Q1017",
      "tafRaw": "TAF EPGD 150530Z 1506/1606 24005KT 7000 FEW004 \n  TEMPO 1506/1509 2000 BR BKN003 \n  PROB30 1506/1508 0500 FG \n  BECMG 1508/1510 18010KT \n  TEMPO 1509/1516 BKN007 \n  BECMG 1516/1519 BKN010 \n  TEMPO 1518/1606 4000 BR BKN004"
    },
    {
      "icao": "EPPO",
      "iata": "POZ",
      "name": "Poznań-Ławica Airport",
      "updatedAt": "150530Z",
      "visibility_m": 150,
      "taf_visibility_m": 100,
      "worst_visibility_m": 100,
      "ceiling_ft": 100,
      "hazards": [
        "FZFG",
        "FG",
        "BR",
        "RA",
        "DZ"
      ],
      "severityScore": 100,
      "metarRaw": "METAR EPPO 150530Z 11005KT 0150 R28/0550N FZFG VV001 M02/M02 Q1018",
      "tafRaw": "TAF EPPO 150530Z 1506/1606 13005KT 0100 FZFG BKN000 \n  TEMPO 1506/1508 0400 FZFG BKN001 \n  BECMG 1508/1511 6000 NSW BKN005 \n  TEMPO 1511/1519 3000 -DZRA BR \n  BECMG 1519/1522 0700 FG BKN003 \n  TEMPO 1522/1606 0100 FZFG BKN001"
    },
    {
      "icao": "EPSY",
      "iata": "SZY",
      "name": "Olsztyn-Mazury Airport",
      "updatedAt": "150530Z",
      "visibility_m": 4900,
      "taf_visibility_m": 500,
      "worst_visibility_m": 500,
      "ceiling_ft": 400,
      "hazards": [
        "BR",
        "FZFG",
        "FG"
      ],
      "severityScore": 100,
      "metarRaw": "METAR EPSY 150530Z 17001KT 4900 BR OVC004 M06/M07 Q1018",
      "tafRaw": "TAF EPSY 150530Z 1506/1515 VRB02KT 5000 BR BKN006 \n  TEMPO 1506/1509 2000 BR OVC003 \n  PROB40 1506/1509 0500 FZFG OVC001"
    },
    {
      "icao": "EPWR",
      "iata": "WRO",
      "name": "Copernicus Wrocław Airport",
      "updatedAt": "150530Z",
      "visibility_m": 2000,
      "taf_visibility_m": 100,
      "worst_visibility_m": 100,
      "ceiling_ft": 100,
      "hazards": [
        "BR",
        "FZFG",
        "FG",
        "RA"
      ],
      "severityScore": 100,
      "metarRaw": "METAR EPWR 150530Z 10005KT 2000 BR SCT011 01/01 Q1018",
      "tafRaw": "TAF EPWR 150530Z 1506/1606 12005KT 1500 BR BKN013 \n  TEMPO 1506/1508 0500 FG BKN002 \n  BECMG 1508/1510 14010KT 8000 SCT020 \n  TEMPO 1511/1516 -RA BKN014 \n  TEMPO 1518/1522 2500 BR \n  BECMG 1521/1524 0500 FG BKN002 \n  TEMPO 1523/1606 0100 FZFG BKN001"
    },
    {
      "icao": "ESGG",
      "iata": "GOT",
      "name": "Göteborg Landvetter Airport",
      "updatedAt": "150520Z",
      "visibility_m": 1800,
      "taf_visibility_m": 300,
      "worst_visibility_m": 300,
      "ceiling_ft": 200,
      "hazards": [
        "BR",
        "FG",
        "RA",
        "DZ"
      ],
      "severityScore": 100,
      "metarRaw": "METAR ESGG 150520Z 19009KT 1800 BR BKN002 OVC003 01/01 Q1010",
      "tafRaw": "TAF ESGG 150530Z 1506/1606 18006KT 8000 SCT004 \n  TEMPO 1506/1509 0300 FG VV002 \n  PROB40 1509/1512 BKN004 \n  BECMG 1513/1515 BKN006 \n  TEMPO 1515/1603 2000 -RADZ BR BKN003"
    },
    {
      "icao": "ESMS",
      "iata": "MMX",
      "name": "Malmö Sturup Airport",
      "updatedAt": "150520Z",
      "visibility_m": 450,
      "taf_visibility_m": 1000,
      "worst_visibility_m": 450,
      "ceiling_ft": 200,
      "hazards": [
        "FG",
        "BR",
        "RA",
        "DZ"
      ],
      "severityScore": 100,
      "metarRaw": "METAR ESMS 150520Z 17004KT 0450 R17/1400D R35/P2000N BCFG BKN002 00/00 Q1013",
      "tafRaw": "TAF ESMS 150527Z 1506/1606 18006KT 1200 BR FEW002 \n  BECMG 1506/1507 9999 NSW \n  BECMG 1511/1513 1000 -RADZ BR BKN006 \n  TEMPO 1514/1606 4000 BKN002"
    },
    {
      "icao": "LEMD",
      "iata": "MAD",
      "name": "Adolfo Suárez Madrid–Barajas Airport",
      "updatedAt": "150530Z",
      "visibility_m": 600,
      "taf_visibility_m": 600,
      "worst_visibility_m": 600,
      "ceiling_ft": 100,
      "hazards": [
        "FG",
        "BR",
        "RA",
        "DZ"
      ],
      "severityScore": 100,
      "metarRaw": "METAR LEMD 150530Z 32003KT 0600 0200NE R32R/P2000 FG VV001 02/02 Q1019 NOSIG",
      "tafRaw": "TAF LEMD 150500Z 1506/1612 VRB03KT 9999 SCT030 TX09/1515Z TN05/1607Z \n  TEMPO 1506/1510 0600 FG VV002 \n  TEMPO 1506/1512 3000 BR BCFG BKN002 BKN010 \n  BECMG 1512/1514 22010KT \n  TEMPO 1516/1606 3000 DZRA BR BKN014 \n  PROB30 \n  TEMPO 1606/1612 3000 BR BKN010"
    },
    {
      "icao": "LEZG",
      "iata": "ZAZ",
      "name": "Zaragoza Airport",
      "updatedAt": "150530Z",
      "visibility_m": 5000,
      "taf_visibility_m": 350,
      "worst_visibility_m": 350,
      "ceiling_ft": 100,
      "hazards": [
        "BR",
        "FG"
      ],
      "severityScore": 100,
      "metarRaw": "METAR LEZG 150530Z 08004KT 5000 BR FEW002 02/02 Q1018 NOSIG",
      "tafRaw": "TAF LEZG 150500Z 1506/1606 VRB04KT 9999 FEW020 TX17/1514Z TN05/1506Z \n  TEMPO 1506/1512 3000 BR BKN004 BKN007 BKN012 \n  TEMPO 1506/1512 0350 FG VV001 \n  BECMG 1510/1512 19012KT \n  TEMPO 1518/1606 2000 BR \n  BECMG 1600/1602 VRB03KT"
    },
    {
      "icao": "LEZL",
      "iata": "SVQ",
      "name": "Sevilla Airport",
      "updatedAt": "150530Z",
      "visibility_m": 10000,
      "taf_visibility_m": 500,
      "worst_visibility_m": 500,
      "ceiling_ft": 100,
      "hazards": [
        "FG",
        "BR",
        "RA"
      ],
      "severityScore": 100,
      "metarRaw": "METAR LEZL 150530Z 00000KT CAVOK 06/06 Q1020 NOSIG",
      "tafRaw": "TAF LEZL 150200Z 1503/1603 VRB02KT 9999 FEW030 TX14/1515Z TN06/1507Z \n  TEMPO 1503/1513 4000 BR BKN010 \n  PROB40 1503/1511 0500 FG VV001 \n  BECMG 1514/1516 22010KT \n  PROB30 \n  TEMPO 1521/1603 4000 RA BR BKN010"
    },
    {
      "icao": "LFBD",
      "iata": "BOD",
      "name": "Bordeaux–Mérignac Airport",
      "updatedAt": "150530Z",
      "visibility_m": 500,
      "taf_visibility_m": 500,
      "worst_visibility_m": 500,
      "ceiling_ft": 200,
      "hazards": [
        "FG",
        "BR",
        "SHRA",
        "RA"
      ],
      "severityScore": 100,
      "metarRaw": "METAR LFBD 150530Z AUTO 15006KT 1000 0900 R23/1300D R05/1500U R29/1100U BCFG VV/// 07/07 Q1014 TEMPO 0500 FG",
      "tafRaw": "TAF LFBD 150500Z 1506/1612 18005KT 6000 NSC TX13/1514Z TN05/1506Z \n  TEMPO 1506/1510 3000 BR BKN002 \n  PROB40 1506/1509 0500 FG VV/// \n  BECMG 1509/1511 19010KT CAVOK \n  TEMPO 1516/1612 4000 -SHRA BKN040TCU \n  PROB30 \n  TEMPO 1516/1522 20010G20KT \n  PROB30 \n  TEMPO 1523/1605 BKN007"
    },
    {
      "icao": "LHBP",
      "iata": "BUD",
      "name": "Budapest Liszt Ferenc International Airport",
      "updatedAt": "150530Z",
      "visibility_m": 1400,
      "taf_visibility_m": 300,
      "worst_visibility_m": 300,
      "ceiling_ft": 200,
      "hazards": [
        "BR",
        "FG",
        "FZFG",
        "FZRA",
        "FZDZ",
        "RA",
        "DZ"
      ],
      "severityScore": 100,
      "metarRaw": "METAR LHBP 150530Z 11005KT 3500 BR FEW003 BKN065 M03/M04 Q1021 TEMPO 1400 BCFG BKN002",
      "tafRaw": "TAF LHBP 150515Z 1506/1606 09005KT 5000 BR SCT005 BKN080 \n  PROB40 1506/1515 0500 -FZDZ FZFG VV001 \n  PROB30 \n  TEMPO 1506/1509 SG \n  BECMG 1509/1512 OVC005 \n  TEMPO 1515/1606 1200 -FZRADZ BCFG OVC002 \n  PROB40 \n  TEMPO 1518/1524 FZRA \n  PROB30 1600/1606 0300 FZFG VV001"
    },
    {
      "icao": "LHDC",
      "iata": "DEB",
      "name": "Debrecen International Airport",
      "updatedAt": "150515Z",
      "visibility_m": 1400,
      "taf_visibility_m": 100,
      "worst_visibility_m": 100,
      "ceiling_ft": 200,
      "hazards": [
        "BR",
        "SHSN",
        "FZDZ",
        "SN",
        "DZ",
        "FZFG",
        "FG"
      ],
      "severityScore": 100,
      "metarRaw": "METAR LHDC 150515Z AUTO VRB02KT 3200 -SHSN BR BKN041 M03/M03 Q1022 TEMPO 1400 -FZDZ BR BKN002",
      "tafRaw": "TAF LHDC 150515Z 1506/1515 VRB03KT 5000 BR SCT005 BKN040 \n  TEMPO 1506/1515 1400 BCFG BKN002 \n  PROB40 \n  TEMPO 1506/1509 0100 FZDZ FZFG VV001"
    },
    {
      "icao": "LKPR",
      "iata": "PRG",
      "name": "Václav Havel Airport Prague",
      "updatedAt": "150530Z",
      "visibility_m": 700,
      "taf_visibility_m": 300,
      "worst_visibility_m": 300,
      "ceiling_ft": 2000,
      "hazards": [
        "FG",
        "BR",
        "FZFG",
        "RA",
        "DZ"
      ],
      "severityScore": 100,
      "metarRaw": "METAR LKPR 150530Z VRB02KT 1000 R24/P2000N R30/1000U BR BCFG BKN020 OVC031 03/03 Q1017 TEMPO 0700 FG",
      "tafRaw": "TAF LKPR 150500Z 1506/1612 12004KT 6000 SCT012 BKN020 \n  TEMPO 1506/1516 2500 -RA BR SCT004 BKN012 \n  PROB40 \n  TEMPO 1506/1509 0900 -DZ FG BKN003 \n  BECMG 1516/1518 1500 BR SCT002 \n  TEMPO 1518/1608 VRB02KT 0300 FZFG OVC002 \n  BECMG 1610/1612 4000 BR OVC005"
    },
    {
      "icao": "LOWW",
      "iata": "VIE",
      "name": "Vienna International Airport",
      "updatedAt": "150520Z",
      "visibility_m": 550,
      "taf_visibility_m": 300,
      "worst_visibility_m": 300,
      "ceiling_ft": 100,
      "hazards": [
        "FZFG",
        "FG",
        "FZDZ",
        "DZ"
      ],
      "severityScore": 100,
      "metarRaw": "METAR LOWW 150520Z 17003KT 0550 R16/0600N R29/0600N FZFG VV001 M03/M03 Q1020 NOSIG",
      "tafRaw": "TAF LOWW 150515Z 1506/1612 15004KT 0800 FZFG SCT001 OVC002 TX00/1612Z TNM03/1506Z \n  TEMPO 1506/1612 0500 VV001 \n  PROB40 \n  TEMPO 1506/1511 0300 \n  PROB30 \n  TEMPO 1600/1608 13008KT 0300 -FZDZ FZFG \n  BECMG 1608/1610 13012KT"
    },
    {
      "icao": "LRCL",
      "iata": "CLJ",
      "name": "Cluj Avram Iancu International Airport",
      "updatedAt": "150530Z",
      "visibility_m": 2000,
      "taf_visibility_m": 800,
      "worst_visibility_m": 800,
      "ceiling_ft": 200,
      "hazards": [
        "BR",
        "FZRA",
        "RA",
        "FZFG",
        "SN",
        "FG"
      ],
      "severityScore": 100,
      "metarRaw": "METAR LRCL 150530Z 00000KT 2000 -FZRA BR OVC002 M02/M02 Q1020",
      "tafRaw": "TAF LRCL 150500Z 1506/1515 VRB04KT 1500 -SN BR BKN005 OVC015 \n  TEMPO 1506/1507 0800 -FZRA FZFG OVC001 \n  BECMG 1512/1514 5000 BR BKN015 OVC025"
    },
    {
      "icao": "LRCV",
      "iata": "CRA",
      "name": "Craiova International Airport",
      "updatedAt": "150530Z",
      "visibility_m": 4000,
      "taf_visibility_m": 800,
      "worst_visibility_m": 800,
      "ceiling_ft": 100,
      "hazards": [
        "BR",
        "FZFG",
        "FG"
      ],
      "severityScore": 100,
      "metarRaw": "METAR LRCV 150530Z 30006KT 4000 BR FEW003 M04/M04 Q1020",
      "tafRaw": "TAF LRCV 150500Z 1506/1515 VRB04KT 3000 BR SCT005 \n  TEMPO 1506/1507 0800 FZFG VV001 \n  BECMG 1508/1510 26010KT CAVOK"
    },
    {
      "icao": "LRTM",
      "iata": "TGM",
      "name": "Târgu Mureş Transilvania International Airport",
      "updatedAt": "150530Z",
      "visibility_m": 1800,
      "taf_visibility_m": 800,
      "worst_visibility_m": 800,
      "ceiling_ft": 1400,
      "hazards": [
        "SHSN",
        "SN",
        "FZFG",
        "BR",
        "FZRA",
        "FG",
        "RA"
      ],
      "severityScore": 100,
      "metarRaw": "METAR LRTM 150530Z 22002KT 1800 -SHSN FEW004 BKN014 BKN020 SCT029CB M01/M02 Q1020",
      "tafRaw": "TAF LRTM 150500Z 1506/1515 VRB04KT 1500 SN BR BKN005 OVC015 \n  PROB40 \n  TEMPO 1506/1507 0800 -FZRA FZFG OVC001 \n  BECMG 1507/1509 3000 -SN BR BKN010 OVC020 \n  BECMG 1513/1515 5000 BR BKN015 OVC025"
    },
    {
      "icao": "LRTR",
      "iata": "TSR",
      "name": "Timişoara Traian Vuia Airport",
      "updatedAt": "150530Z",
      "visibility_m": 2000,
      "taf_visibility_m": 600,
      "worst_visibility_m": 600,
      "ceiling_ft": 200,
      "hazards": [
        "BR",
        "FZFG",
        "RA",
        "FG"
      ],
      "severityScore": 100,
      "metarRaw": "METAR LRTR 150530Z 08003KT 050V110 2000 BR SCT019 SCT027 M00/M00 Q1022",
      "tafRaw": "TAF LRTR 150500Z 1506/1606 VRB04KT 1500 BR SCT020 \n  PROB30 \n  TEMPO 1506/1508 0600 FZFG BKN002 \n  BECMG 1508/1509 5000 \n  BECMG 1509/1511 9999 NSW \n  BECMG 1522/1524 5000 -RA BR BKN015 OVC040 \n  TEMPO 1601/1606 1500 RA BR BKN010 OVC030"
    },
    {
      "icao": "LWSK",
      "iata": "SKP",
      "name": "Skopje International Airport",
      "updatedAt": null,
      "visibility_m": null,
      "taf_visibility_m": 600,
      "worst_visibility_m": 600,
      "ceiling_ft": 300,
      "hazards": [
        "FZFG",
        "BR",
        "FG"
      ],
      "severityScore": 100,
      "metarRaw": null,
      "tafRaw": "TAF LWSK 150205Z 1503/1603 VRB02KT CAVOK \n  TEMPO 1503/1509 5000 BR SCT015 \n  PROB30 \n  TEMPO 1505/1508 0600 FZFG BKN003"
    },
    {
      "icao": "LZIB",
      "iata": "BTS",
      "name": "M. R. Štefánik Airport",
      "updatedAt": "150530Z",
      "visibility_m": 400,
      "taf_visibility_m": 500,
      "worst_visibility_m": 400,
      "ceiling_ft": 200,
      "hazards": [
        "FZFG",
        "FG",
        "BR",
        "FZRA",
        "RA"
      ],
      "severityScore": 100,
      "metarRaw": "METAR LZIB 150530Z 00000KT 0400 R31/0700D R22/0550D FZFG SCT004 M05/M05 Q1020 NOSIG",
      "tafRaw": "TAF LZIB 150515Z 1506/1606 06005KT 1800 BR SCT005 BKN016 \n  TEMPO 1506/1508 VRB02KT 0900 FZFG BCFG BKN005 \n  TEMPO 1510/1516 4000 BR FEW005 BKN020 \n  TEMPO 1520/1606 0900 FZFG OVC006 \n  PROB40 \n  TEMPO 1600/1606 0500 -FZRA FZFG OVC002"
    },
    {
      "icao": "LZKZ",
      "iata": "KSC",
      "name": "Košice International Airport",
      "updatedAt": "150530Z",
      "visibility_m": 2500,
      "taf_visibility_m": 700,
      "worst_visibility_m": 700,
      "ceiling_ft": 4100,
      "hazards": [
        "BR",
        "FZFG",
        "FZRA",
        "FZDZ",
        "FG",
        "RA",
        "DZ"
      ],
      "severityScore": 100,
      "metarRaw": "METAR LZKZ 150530Z 27002KT 6000 FEW010 BKN041 M03/M04 Q1020 TEMPO 2500 BR",
      "tafRaw": "TAF LZKZ 150515Z 1506/1606 VRB02KT 6000 SCT010 BKN025 \n  TEMPO 1506/1508 0700 FZFG OVC003 \n  TEMPO 1510/1516 6000 SCT015 \n  TEMPO 1518/1603 1200 -FZRA BR OVC008 \n  PROB40 \n  TEMPO 1600/1606 0900 -FZDZ FZFG OVC004"
    },
    {
      "icao": "UAAA",
      "iata": "ALA",
      "name": "Almaty International Airport",
      "updatedAt": "150530Z",
      "visibility_m": 3200,
      "taf_visibility_m": 300,
      "worst_visibility_m": 300,
      "ceiling_ft": 400,
      "hazards": [
        "BR",
        "FZFG",
        "SHSN",
        "FZDZ",
        "SN",
        "FG",
        "DZ"
      ],
      "severityScore": 100,
      "metarRaw": "METAR UAAA 150530Z VRB01MPS 3200 BR OVC004 M08/M09 Q1022 NOSIG RMK QBB120",
      "tafRaw": "TAF UAAA 150505Z 1506/1606 02003G08MPS 3100 BR FU BKN011CB OVC020 TXM04/1509Z TNM10/1603Z \n  TEMPO 1506/1509 0800 -FZDZ FZFG OVC003 \n  TEMPO 1509/1513 1500 OVC003 \n  BECMG 1513/1514 32003G08MPS 1500 \n  TEMPO 1513/1524 0500 FZFG VV002 \n  TEMPO 1600/1606 28004G09MPS 0300 SHSN FZFG BKN004 OVC011CB"
    },
    {
      "icao": "EETN",
      "iata": "TLL",
      "name": "Lennart Meri Tallinn Airport",
      "updatedAt": "150520Z",
      "visibility_m": 1000,
      "taf_visibility_m": 1000,
      "worst_visibility_m": 1000,
      "ceiling_ft": 1000,
      "hazards": [
        "SN",
        "BR",
        "SHSN",
        "FZDZ",
        "DZ"
      ],
      "severityScore": 98,
      "metarRaw": "METAR EETN 150520Z 15011KT 9999 BKN023 OVC030 M11/M13 Q1017 TEMPO 1000 +SN OVC010",
      "tafRaw": "TAF EETN 150530Z 1506/1606 16012KT 2000 SN SCT010 BKN020 \n  TEMPO 1506/1508 1000 +SHSN BKN008 SCT018CB \n  BECMG 1508/1509 9000 BKN007 OVC015 \n  PROB40 \n  TEMPO 1509/1516 3000 SG -FZDZ \n  TEMPO 1519/1606 3000 -FZDZ BR BKN004"
    },
    {
      "icao": "LPPT",
      "iata": "LIS",
      "name": "Lisbon Humberto Delgado Airport",
      "updatedAt": "150530Z",
      "visibility_m": 10000,
      "taf_visibility_m": 3000,
      "worst_visibility_m": 3000,
      "ceiling_ft": 3800,
      "hazards": [
        "BR",
        "TSRA",
        "RA",
        "SHRA",
        "TS",
        "DZ"
      ],
      "severityScore": 96,
      "metarRaw": "METAR LPPT 150530Z 20005KT 9999 BKN038 11/10 Q1019",
      "tafRaw": "TAF LPPT 150500Z 1506/1612 21005KT 9999 BKN035 \n  BECMG 1512/1514 21015KT 8000 -RA SCT012 BKN018 \n  TEMPO 1514/1517 21018G28KT 3000 RADZ BR SCT002 BKN005 FEW020TCU \n  BECMG 1517/1519 31012KT 9999 NSW SCT015 \n  BECMG 1522/1524 28010KT \n  TEMPO 1603/1612 28015G25KT 8000 SHRA BKN015 FEW018CB \n  PROB30 \n  TEMPO 1606/1612 3000 +TSRA SCT018CB"
    },
    {
      "icao": "LRSB",
      "iata": "SBZ",
      "name": "Sibiu International Airport",
      "updatedAt": "150530Z",
      "visibility_m": 9000,
      "taf_visibility_m": 1500,
      "worst_visibility_m": 1500,
      "ceiling_ft": 7000,
      "hazards": [
        "BR",
        "SN",
        "FZRA",
        "RA",
        "DZ"
      ],
      "severityScore": 95,
      "metarRaw": "METAR LRSB 150530Z VRB01KT 9000 FEW031 SCT050 BKN070 02/01 Q1019",
      "tafRaw": "TAF LRSB 150500Z 1506/1606 VRB04KT 9999 BKN045 \n  BECMG 1507/1509 BKN015 BKN035 \n  PROB40 \n  TEMPO 1509/1512 5000 -RASN BR \n  TEMPO 1512/1518 5000 -RADZ BR BKN005 OVC020 \n  BECMG 1518/1520 5000 BR BKN010 OVC020 \n  PROB40 \n  TEMPO 1600/1606 1500 -FZRADZ"
    },
    {
      "icao": "EPLB",
      "iata": "LUZ",
      "name": "Lublin Airport",
      "updatedAt": "150530Z",
      "visibility_m": 1200,
      "taf_visibility_m": 1400,
      "worst_visibility_m": 1200,
      "ceiling_ft": 200,
      "hazards": [
        "BR",
        "FZDZ",
        "DZ"
      ],
      "severityScore": 93,
      "metarRaw": "METAR EPLB 150530Z 27002KT 1200 R25/1900D -FZDZ BR OVC002 M03/M03 Q1017",
      "tafRaw": "TAF EPLB 150530Z 1506/1606 VRB02KT 2500 BR OVC002 \n  TEMPO 1506/1509 1400 -FZDZ BR \n  BECMG 1508/1511 5000 BR BKN006 \n  PROB40 1511/1518 BKN010 \n  BECMG 1513/1516 12010KT"
    },
    {
      "icao": "LIPR",
      "iata": "RMI",
      "name": "Federico Fellini International Airport",
      "updatedAt": "150520Z",
      "visibility_m": 4200,
      "taf_visibility_m": 500,
      "worst_visibility_m": 500,
      "ceiling_ft": 700,
      "hazards": [
        "BR",
        "FG"
      ],
      "severityScore": 90,
      "metarRaw": "METAR LIPR 150520Z AUTO 15003KT 4200 BR OVC063/// 06/05 Q1022",
      "tafRaw": "TAF LIPR 150500Z 1506/1606 VRB05KT 3000 BR BKN050 \n  PROB40 \n  TEMPO 1506/1509 0600 FG BKN008 \n  BECMG 1516/1518 0500 FG BKN007"
    },
    {
      "icao": "LIPY",
      "iata": "AOI",
      "name": "Marche Airport",
      "updatedAt": "150520Z",
      "visibility_m": 5000,
      "taf_visibility_m": 500,
      "worst_visibility_m": 500,
      "ceiling_ft": 500,
      "hazards": [
        "BR",
        "FG"
      ],
      "severityScore": 90,
      "metarRaw": "METAR LIPY 150520Z AUTO 14003KT 5000 BR OVC060/// 08/06 Q1022",
      "tafRaw": "TAF LIPY 150500Z 1506/1606 VRB05KT 3000 BR BKN060 \n  BECMG 1508/1510 8000 \n  BECMG 1520/1522 3000 BR \n  TEMPO 1603/1606 0500 FG BKN005"
    },
    {
      "icao": "EPMO",
      "iata": "WMI",
      "name": "Modlin Airport",
      "updatedAt": "150530Z",
      "visibility_m": 1200,
      "taf_visibility_m": 800,
      "worst_visibility_m": 800,
      "ceiling_ft": 2500,
      "hazards": [
        "BR",
        "FZFG",
        "FG"
      ],
      "severityScore": 85,
      "metarRaw": "METAR EPMO 150530Z 04002KT 1200 R08/1600D BR FEW002 BKN025 M02/M02 Q1018",
      "tafRaw": "TAF EPMO 150530Z 1506/1606 VRB02KT 1500 BR BKN003 \n  TEMPO 1506/1509 0800 FZFG -SG BKN001 \n  BECMG 1508/1511 7000 BKN007 \n  BECMG 1511/1513 13010KT BKN017 \n  TEMPO 1513/1520 BKN008"
    },
    {
      "icao": "LRBV",
      "iata": "GHV",
      "name": "Brașov-Ghimbav International Airport",
      "updatedAt": "150530Z",
      "visibility_m": 6000,
      "taf_visibility_m": 1500,
      "worst_visibility_m": 1500,
      "ceiling_ft": 800,
      "hazards": [
        "RA",
        "DZ",
        "BR",
        "SN"
      ],
      "severityScore": 85,
      "metarRaw": "METAR LRBV 150530Z 31006KT 6000 -DZRA OVC008 02/01 Q1018",
      "tafRaw": "TAF LRBV 150500Z 1506/1515 29008KT 5000 BR BKN010 OVC020 \n  TEMPO 1506/1509 1500 -SNRA BR BKN005 OVC010 \n  BECMG 1509/1511 7000 NSW BKN020 OVC045"
    },
    {
      "icao": "EYPA",
      "iata": "PLQ",
      "name": "Palanga International Airport",
      "updatedAt": "150520Z",
      "visibility_m": 7000,
      "taf_visibility_m": 3000,
      "worst_visibility_m": 3000,
      "ceiling_ft": 500,
      "hazards": [
        "SN",
        "FZDZ",
        "DZ"
      ],
      "severityScore": 81,
      "metarRaw": "METAR EYPA 150520Z 15009KT 7000 OVC005 M07/M08 Q1017",
      "tafRaw": "TAF EYPA 150500Z 1506/1606 16010KT 6000 BKN005 \n  BECMG 1507/1510 SCT005 BKN015 \n  BECMG 1511/1513 BKN005 OVC010 \n  TEMPO 1513/1517 3000 SN -FZDZ OVC005 \n  BECMG 1520/1521 BKN020 \n  TEMPO 1521/1606 BKN005"
    },
    {
      "icao": "LPPR",
      "iata": "OPO",
      "name": "Francisco de Sá Carneiro Airport",
      "updatedAt": "150530Z",
      "visibility_m": 10000,
      "taf_visibility_m": 1500,
      "worst_visibility_m": 1500,
      "ceiling_ft": 3500,
      "hazards": [
        "BR",
        "RA",
        "SHRA",
        "TS",
        "DZ"
      ],
      "severityScore": 81,
      "metarRaw": "METAR LPPR 150530Z 17013KT 9999 FEW024 BKN035 11/08 Q1016",
      "tafRaw": "TAF LPPR 150500Z 1506/1606 18010KT 9999 SCT018 BKN030 \n  BECMG 1506/1508 17020KT 8000 -RA SCT008 BKN016 \n  TEMPO 1508/1514 17025G35KT 3000 RADZ BR SCT003 BKN006 \n  PROB40 \n  TEMPO 1511/1514 17030G40KT 1500 +RA BKN003 FEW018CB \n  BECMG 1514/1516 31013KT 9999 NSW SCT018 \n  BECMG 1519/1521 VRB02KT \n  TEMPO 1521/1606 5000 SHRA SCT012 FEW020CB BKN030 \n  PROB40 \n  TEMPO 1600/1606 VRB15G25KT 2000 +TSRAGS BKN012 SCT016CB"
    },
    {
      "icao": "LZTT",
      "iata": "TAT",
      "name": "Poprad-Tatry Airport",
      "updatedAt": "150530Z",
      "visibility_m": 10000,
      "taf_visibility_m": 1200,
      "worst_visibility_m": 1200,
      "ceiling_ft": 1100,
      "hazards": [
        "BR",
        "FZRA",
        "RA"
      ],
      "severityScore": 79,
      "metarRaw": "METAR LZTT 150530Z 00000KT 9999 BKN011 OVC016 M02/M03 Q1018",
      "tafRaw": "TAF LZTT 150515Z 1506/1606 VRB02KT 8000 SCT010 BKN018 \n  TEMPO 1506/1508 2800 BR OVC004 \n  TEMPO 1509/1515 9999 FEW010 \n  PROB40 \n  TEMPO 1517/1522 2500 -FZRA BR OVC008 \n  TEMPO 1520/1606 1200 BR BKN004"
    },
    {
      "icao": "EDDH",
      "iata": "HAM",
      "name": "Hamburg Helmut Schmidt Airport",
      "updatedAt": "150520Z",
      "visibility_m": 4000,
      "taf_visibility_m": 1200,
      "worst_visibility_m": 1200,
      "ceiling_ft": 400,
      "hazards": [
        "BR",
        "DZ",
        "RA"
      ],
      "severityScore": 77,
      "metarRaw": "METAR EDDH 150520Z AUTO 14009KT 9999 OVC005 02/01 Q1011 TEMPO 4000 BR OVC004",
      "tafRaw": "TAF EDDH 150500Z 1506/1612 16010KT 9999 BKN007 \n  TEMPO 1506/1516 4000 BR \n  PROB40 \n  TEMPO 1506/1511 2500 -DZRA BKN003 \n  PROB30 \n  TEMPO 1506/1511 1200 -DZ \n  BECMG 1511/1514 SCT020"
    },
    {
      "icao": "EKBI",
      "iata": "BLL",
      "name": "Billund Airport",
      "updatedAt": "150520Z",
      "visibility_m": 6000,
      "taf_visibility_m": 1000,
      "worst_visibility_m": 1000,
      "ceiling_ft": 100,
      "hazards": [
        "BR",
        "RA",
        "DZ"
      ],
      "severityScore": 77,
      "metarRaw": "METAR EKBI 150520Z AUTO 13007KT 6000 FEW003/// 00/M00 Q1009",
      "tafRaw": "TAF EKBI 150527Z 1506/1606 15005KT 9999 BKN004 \n  TEMPO 1506/1507 SCT003 \n  BECMG 1507/1509 1000 -RADZ BR BKN001 \n  TEMPO 1509/1523 3000 RADZ BKN003 \n  BECMG 1523/1601 SCT015 \n  TEMPO 1601/1606 3000 BR BKN004"
    },
    {
      "icao": "EKCH",
      "iata": "CPH",
      "name": "Copenhagen Kastrup Airport",
      "updatedAt": "150520Z",
      "visibility_m": 8000,
      "taf_visibility_m": 1200,
      "worst_visibility_m": 1200,
      "ceiling_ft": 300,
      "hazards": [
        "BR",
        "RA",
        "DZ"
      ],
      "severityScore": 77,
      "metarRaw": "METAR EKCH 150520Z AUTO 17004KT 8000 SCT026/// 01/01 Q1013 NOSIG",
      "tafRaw": "TAF EKCH 150527Z 1506/1606 16008KT 9999 SCT020 \n  BECMG 1510/1513 BKN008 \n  BECMG 1513/1515 1200 -RADZ BR BKN003 \n  TEMPO 1515/1522 5000 NSW BKN005 \n  TEMPO 1522/1602 6000 NSW BKN020 \n  TEMPO 1602/1606 3000 BKN005"
    },
    {
      "icao": "LRSM",
      "iata": "SUJ",
      "name": "Satu Mare International Airport",
      "updatedAt": "150530Z",
      "visibility_m": 1500,
      "taf_visibility_m": 1000,
      "worst_visibility_m": 1000,
      "ceiling_ft": 200,
      "hazards": [
        "BR",
        "SN"
      ],
      "severityScore": 73,
      "metarRaw": "METAR LRSM 150530Z 31003KT 1500 BR OVC002 M01/M01 Q1021",
      "tafRaw": "TAF LRSM 150500Z 1506/1515 VRB04KT 3000 -SN BR BKN005 OVC020 \n  TEMPO 1506/1508 1000 SN BR BKN002 OVC015 \n  BECMG 1508/1510 5000 BR BKN010 OVC030 \n  BECMG 1510/1512 9999 NSW BKN015 OVC040"
    },
    {
      "icao": "EDDB",
      "iata": "BER",
      "name": "Berlin Brandenburg Airport",
      "updatedAt": "150520Z",
      "visibility_m": 10000,
      "taf_visibility_m": 700,
      "worst_visibility_m": 700,
      "ceiling_ft": 1400,
      "hazards": [
        "FG",
        "BR"
      ],
      "severityScore": 67,
      "metarRaw": "METAR EDDB 150520Z AUTO 11008KT 9999 BKN014 OVC021 OVC032 01/00 Q1015 TEMPO BKN014",
      "tafRaw": "TAF EDDB 150500Z 1506/1606 14006KT 8000 SCT015 OVC020 \n  TEMPO 1506/1513 3000 BR BKN003 \n  PROB30 \n  TEMPO 1517/1522 0700 FG"
    },
    {
      "icao": "EPSC",
      "iata": "SZZ",
      "name": "Solidarity Szczecin–Goleniów Airport",
      "updatedAt": "150530Z",
      "visibility_m": 7000,
      "taf_visibility_m": 2000,
      "worst_visibility_m": 2000,
      "ceiling_ft": 200,
      "hazards": [
        "BR",
        "RA",
        "DZ"
      ],
      "severityScore": 67,
      "metarRaw": "METAR EPSC 150530Z 11006KT 7000 NSC M02/M02 Q1016",
      "tafRaw": "TAF EPSC 150530Z 1506/1606 14010KT 6000 NSC \n  PROB40 1506/1509 2000 BR BKN003 \n  BECMG 1509/1511 BKN005 \n  TEMPO 1511/1518 2000 -RADZ BR OVC002 \n  TEMPO 1518/1606 2500 BR BKN002"
    },
    {
      "icao": "LIME",
      "iata": "BGY",
      "name": "Milan Bergamo Airport / Antonio Locatelli Air Base",
      "updatedAt": "150520Z",
      "visibility_m": 3500,
      "taf_visibility_m": 600,
      "worst_visibility_m": 600,
      "ceiling_ft": 4000,
      "hazards": [
        "BR",
        "FG",
        "RA"
      ],
      "severityScore": 67,
      "metarRaw": "METAR LIME 150520Z VRB02KT 3500 BR SCT010 BKN040 05/05 Q1022 NOSIG",
      "tafRaw": "TAF LIME 150500Z 1506/1606 VRB04KT 4000 BR FEW005 BKN040 \n  TEMPO 1506/1518 2000 -RA \n  TEMPO 1518/1606 0600 FG BKN004"
    },
    {
      "icao": "LIPX",
      "iata": "VRN",
      "name": "Verona Villafranca Valerio Catullo Airport",
      "updatedAt": "150520Z",
      "visibility_m": 10000,
      "taf_visibility_m": 600,
      "worst_visibility_m": 600,
      "ceiling_ft": 7000,
      "hazards": [
        "FG",
        "BR",
        "RA"
      ],
      "severityScore": 67,
      "metarRaw": "METAR LIPX 150520Z 35003KT 320V080 9999 BKN070 04/01 Q1022",
      "tafRaw": "TAF LIPX 150500Z 1506/1606 VRB04KT 3000 BR FEW010 BKN050 \n  TEMPO 1506/1516 1200 -RA \n  BECMG 1516/1518 0600 FG BKN004"
    },
    {
      "icao": "LPFR",
      "iata": "FAO",
      "name": "Faro Airport",
      "updatedAt": "150530Z",
      "visibility_m": 10000,
      "taf_visibility_m": 3000,
      "worst_visibility_m": 3000,
      "ceiling_ft": 300,
      "hazards": [
        "BR",
        "RA",
        "DZ"
      ],
      "severityScore": 67,
      "metarRaw": "METAR LPFR 150530Z 35002KT CAVOK 08/08 Q1020",
      "tafRaw": "TAF LPFR 150500Z 1506/1606 01005KT 9999 FEW012 \n  PROB30 \n  TEMPO 1506/1508 3000 BR BKN003 \n  BECMG 1511/1513 21007KT BKN040 \n  BECMG 1517/1519 23018KT SCT015 BKN030 \n  TEMPO 1519/1524 4000 RADZ BR SCT008 BKN012 \n  BECMG 1600/1602 31012KT SCT015"
    },
    {
      "icao": "LYNI",
      "iata": "INI",
      "name": "Niš Constantine the Great Airport",
      "updatedAt": "150530Z",
      "visibility_m": 4000,
      "taf_visibility_m": 500,
      "worst_visibility_m": 500,
      "ceiling_ft": 4500,
      "hazards": [
        "BR",
        "FG"
      ],
      "severityScore": 65,
      "metarRaw": "METAR LYNI 150530Z 10004KT 4000 BR SCT060 03/02 Q1024 NOSIG",
      "tafRaw": "TAF LYNI 150500Z 1506/1606 11004KT 5000 BR BKN045 TX07/1513Z TN00/1606Z \n  TEMPO 1509/1515 8000 NSW \n  BECMG 1518/1520 2000 \n  TEMPO 1600/1606 0500 FG"
    },
    {
      "icao": "EGKK",
      "iata": "LGW",
      "name": "London Gatwick Airport",
      "updatedAt": "150520Z",
      "visibility_m": 6000,
      "taf_visibility_m": 3000,
      "worst_visibility_m": 3000,
      "ceiling_ft": 500,
      "hazards": [
        "RA",
        "DZ",
        "SHRA"
      ],
      "severityScore": 61,
      "metarRaw": "METAR EGKK 150520Z 21008KT 6000 -RADZ BKN005 09/08 Q1005",
      "tafRaw": "TAF EGKK 150456Z 1506/1612 21009KT 9999 SCT010 \n  PROB30 \n  TEMPO 1506/1508 6000 -RADZ BKN006 \n  TEMPO 1508/1523 6000 -RADZ RA BKN007 \n  PROB30 \n  TEMPO 1508/1523 3000 RADZ +RA BKN004 \n  BECMG 1511/1514 15010KT \n  PROB30 \n  TEMPO 1512/1518 19020G30KT \n  BECMG 1517/1520 25010KT \n  PROB30 \n  TEMPO 1523/1603 6000 BKN007 \n  BECMG 1600/1603 17006KT \n  PROB40 \n  TEMPO 1603/1612 6000 SHRA BKN008"
    },
    {
      "icao": "EGBB",
      "iata": "BHX",
      "name": "Birmingham Airport",
      "updatedAt": "150520Z",
      "visibility_m": 10000,
      "taf_visibility_m": 1200,
      "worst_visibility_m": 1200,
      "ceiling_ft": 700,
      "hazards": [
        "BR",
        "RA"
      ],
      "severityScore": 57,
      "metarRaw": "METAR EGBB 150520Z 18006KT 150V230 9999 BKN007 07/06 Q1001",
      "tafRaw": "TAF EGBB 150502Z 1506/1606 18009KT 9999 SCT010 \n  TEMPO 1506/1511 6000 BKN008 \n  PROB40 \n  TEMPO 1506/1511 1200 BR BKN002 \n  TEMPO 1511/1521 6000 RA BKN009 \n  PROB40 \n  TEMPO 1511/1520 4000 +RA BKN004 \n  BECMG 1514/1517 35010KT \n  BECMG 1520/1523 20006KT \n  TEMPO 1520/1606 4000 BR BKN004 \n  PROB30 \n  TEMPO 1521/1606 BKN001"
    },
    {
      "icao": "EPRA",
      "iata": "RDO",
      "name": "Warsaw Radom Airport",
      "updatedAt": "150530Z",
      "visibility_m": 8000,
      "taf_visibility_m": 3000,
      "worst_visibility_m": 3000,
      "ceiling_ft": 500,
      "hazards": [
        "RA",
        "BR",
        "DZ"
      ],
      "severityScore": 57,
      "metarRaw": "METAR EPRA 150530Z 32007KT 8000 OVC005 01/00 Q1018",
      "tafRaw": "TAF EPRA 150530Z 1506/1515 30008KT 8000 OVC005 \n  PROB30 \n  TEMPO 1506/1509 3000 -DZ BR OVC003 \n  BECMG 1508/1510 VRB03KT BKN010"
    },
    {
      "icao": "GMMN",
      "iata": "CMN",
      "name": "Mohammed V International Airport",
      "updatedAt": "150530Z",
      "visibility_m": 2000,
      "taf_visibility_m": 800,
      "worst_visibility_m": 800,
      "ceiling_ft": null,
      "hazards": [
        "BR",
        "FG"
      ],
      "severityScore": 55,
      "metarRaw": "METAR GMMN 150530Z 15005KT 2000 BR FEW003 SCT020 06/05 Q1022 NOSIG",
      "tafRaw": "TAF GMMN 150500Z 1506/1612 20004KT 2000 BR FEW003 SCT020 \n  PROB30 \n  TEMPO 1506/1508 0800 FG SCT003 SCT020 \n  BECMG 1510/1514 28010KT SCT030 \n  BECMG 1520/1524 18004KT SCT016"
    },
    {
      "icao": "LFLS",
      "iata": "GNB",
      "name": "Grenoble Alpes Isère Airport",
      "updatedAt": "150530Z",
      "visibility_m": 800,
      "taf_visibility_m": 800,
      "worst_visibility_m": 800,
      "ceiling_ft": 6200,
      "hazards": [
        "FG",
        "BR"
      ],
      "severityScore": 55,
      "metarRaw": "METAR LFLS 150530Z AUTO 07006KT 9999 OVC062 05/04 Q1019 TEMPO 0800 BCFG",
      "tafRaw": "TAF LFLS 150200Z 1503/1603 09005KT CAVOK \n  PROB30 \n  TEMPO 1503/1505 3000 BR \n  PROB30 \n  TEMPO 1505/1508 0800 BCFG \n  BECMG 1510/1512 22010KT \n  PROB30 \n  TEMPO 1514/1518 22015G25KT \n  BECMG 1521/1524 09005KT"
    },
    {
      "icao": "LIBR",
      "iata": "BDS",
      "name": "Brindisi Airport",
      "updatedAt": "150520Z",
      "visibility_m": 7000,
      "taf_visibility_m": 800,
      "worst_visibility_m": 800,
      "ceiling_ft": null,
      "hazards": [
        "BR",
        "FG"
      ],
      "severityScore": 55,
      "metarRaw": "METAR LIBR 150520Z 19002KT 7000 NSC 04/04 Q1023",
      "tafRaw": "TAF LIBR 150500Z 1506/1606 VRB06KT 9000 FEW025 \n  TEMPO 1506/1508 2000 BCFG \n  BECMG 1520/1522 3000 BR \n  PROB40 \n  TEMPO 1603/1606 0800 FG"
    },
    {
      "icao": "LIPE",
      "iata": "BLQ",
      "name": "Bologna Guglielmo Marconi Airport",
      "updatedAt": "150520Z",
      "visibility_m": 3000,
      "taf_visibility_m": 800,
      "worst_visibility_m": 800,
      "ceiling_ft": 7000,
      "hazards": [
        "BR",
        "FG"
      ],
      "severityScore": 55,
      "metarRaw": "METAR LIPE 150520Z 20003KT 150V240 3000 BR SCT060 BKN070 04/04 Q1022",
      "tafRaw": "TAF LIPE 150500Z 1506/1606 VRB04KT 4000 BR SCT020 BKN060 \n  TEMPO 1506/1509 0800 FG \n  BECMG 1512/1514 6000 \n  BECMG 1517/1519 2000 BR"
    },
    {
      "icao": "LQSA",
      "iata": "SJJ",
      "name": "Sarajevo International Airport",
      "updatedAt": "150530Z",
      "visibility_m": 6000,
      "taf_visibility_m": 700,
      "worst_visibility_m": 700,
      "ceiling_ft": 5000,
      "hazards": [
        "FG",
        "BR"
      ],
      "severityScore": 55,
      "metarRaw": "METAR LQSA 150530Z 00000KT 6000 BKN050 01/01 Q1023 NOSIG",
      "tafRaw": "TAF LQSA 150500Z 1506/1606 VRB02KT 8000 FEW012 SCT060 TX08/1514Z TN00/1506Z \n  PROB30 1506/1508 3000 BR BKN004 \n  TEMPO 1521/1606 2500 BR BKN008 \n  PROB30 1604/1606 0700 FG BKN004"
    },
    {
      "icao": "LRBS",
      "iata": "BBU",
      "name": "Bucharest Băneasa Aurel Vlaicu International Airport",
      "updatedAt": "150530Z",
      "visibility_m": 4000,
      "taf_visibility_m": 3000,
      "worst_visibility_m": 3000,
      "ceiling_ft": 500,
      "hazards": [
        "BR",
        "SN"
      ],
      "severityScore": 53,
      "metarRaw": "METAR LRBS 150530Z 27006KT 240V320 4000 BR NSC M04/M05 Q1018 NOSIG",
      "tafRaw": "TAF LRBS 150500Z 1506/1606 25006KT 5000 BR NSC \n  BECMG 1507/1509 9999 NSW \n  BECMG 1510/1512 07010KT \n  BECMG 1518/1520 5000 BR BKN010 \n  TEMPO 1602/1606 3000 -SN BR BKN005 OVC035"
    },
    {
      "icao": "LROP",
      "iata": "OTP",
      "name": "Bucharest Henri Coandă International Airport",
      "updatedAt": "150530Z",
      "visibility_m": 5000,
      "taf_visibility_m": 3000,
      "worst_visibility_m": 3000,
      "ceiling_ft": 500,
      "hazards": [
        "BR",
        "SN"
      ],
      "severityScore": 53,
      "metarRaw": "METAR LROP 150530Z VRB03KT 5000 BR NSC M04/M06 Q1018 NOSIG",
      "tafRaw": "TAF LROP 150500Z 1506/1606 25006KT 5000 BR NSC \n  BECMG 1507/1509 9999 NSW \n  BECMG 1510/1512 07010KT \n  BECMG 1518/1520 5000 BR BKN010 \n  TEMPO 1602/1606 3000 -SN BR BKN005 OVC035"
    },
    {
      "icao": "ENHD",
      "iata": "HAU",
      "name": "Haugesund Airport, Karmøy",
      "updatedAt": "150520Z",
      "visibility_m": 10000,
      "taf_visibility_m": 4000,
      "worst_visibility_m": 4000,
      "ceiling_ft": 900,
      "hazards": [
        "RA",
        "SHRA"
      ],
      "severityScore": 51,
      "metarRaw": "METAR ENHD 150520Z 14016KT 9999 FEW012 SCT042 05/03 Q1001",
      "tafRaw": "TAF ENHD 150500Z 1506/1515 14015KT 9999 -SHRA FEW015TCU BKN030 \n  TEMPO 1509/1515 14020G30KT 4000 RA BKN009 SCT015CB"
    },
    {
      "icao": "LUKK",
      "iata": "RMO",
      "name": "Chişinău International Airport",
      "updatedAt": "150530Z",
      "visibility_m": 1000,
      "taf_visibility_m": 1200,
      "worst_visibility_m": 1000,
      "ceiling_ft": 1000,
      "hazards": [
        "BR",
        "SN"
      ],
      "severityScore": 50,
      "metarRaw": "METAR LUKK 150530Z 04005KT 4700 -SN BR SCT029 OVC038 M06/M07 Q1019 TEMPO 1000 SN BR BKN010",
      "tafRaw": "TAF LUKK 150506Z 1506/1606 03008KT 4000 SN BR BKN015 \n  TEMPO 1506/1512 1200 BKN007 \n  BECMG 1516/1518 CAVOK"
    },
    {
      "icao": "EBCI",
      "iata": "CRL",
      "name": "Brussels South Charleroi Airport",
      "updatedAt": "150520Z",
      "visibility_m": 3000,
      "taf_visibility_m": 2500,
      "worst_visibility_m": 2500,
      "ceiling_ft": 800,
      "hazards": [
        "DZ",
        "RA"
      ],
      "severityScore": 47,
      "metarRaw": "METAR EBCI 150520Z 20011KT 9999 BKN013 09/07 Q1010 TEMPO 3000 -DZ BKN008",
      "tafRaw": "TAF EBCI 150500Z 1506/1612 20011KT 9999 SCT010 SCT020 \n  TEMPO 1506/1508 2500 -RADZ BKN004 \n  TEMPO 1523/1604 19016G27KT 4000 RA -RADZ BKN006"
    },
    {
      "icao": "EDDS",
      "iata": "STR",
      "name": "Stuttgart Airport",
      "updatedAt": "150520Z",
      "visibility_m": 10000,
      "taf_visibility_m": 1800,
      "worst_visibility_m": 1800,
      "ceiling_ft": 3000,
      "hazards": [
        "SHRA",
        "RA",
        "FG"
      ],
      "severityScore": 46,
      "metarRaw": "METAR EDDS 150520Z AUTO VRB01KT 9999 -SHRA FEW049 FEW///TCU 03/03 Q1015 NOSIG",
      "tafRaw": "TAF EDDS 150500Z 1506/1606 22004KT 9999 BKN030 \n  PROB40 \n  TEMPO 1602/1606 1800 BCFG"
    },
    {
      "icao": "EDFH",
      "iata": "HHN",
      "name": "Frankfurt-Hahn Airport",
      "updatedAt": "150520Z",
      "visibility_m": 10000,
      "taf_visibility_m": 3000,
      "worst_visibility_m": 3000,
      "ceiling_ft": 600,
      "hazards": [
        "BR",
        "DZ"
      ],
      "severityScore": 45,
      "metarRaw": "METAR EDFH 150520Z 20009KT 9999 BKN006 BKN015 OVC031 07/07 Q1013",
      "tafRaw": "TAF EDFH 150500Z 1506/1606 22009KT 9999 FEW004 BKN010 \n  PROB40 \n  TEMPO 1506/1508 3000 -DZ BR BKN004 OVC010 \n  TEMPO 1508/1512 BKN015 \n  BECMG 1512/1515 SCT025 \n  BECMG 1516/1518 16009KT"
    },
    {
      "icao": "EDNY",
      "iata": "FDH",
      "name": "Friedrichshafen Airport",
      "updatedAt": "150520Z",
      "visibility_m": 9000,
      "taf_visibility_m": 2000,
      "worst_visibility_m": 2000,
      "ceiling_ft": 200,
      "hazards": [
        "BR"
      ],
      "severityScore": 45,
      "metarRaw": "METAR EDNY 150520Z 00000KT 9000 NSC M01/M01 Q1018",
      "tafRaw": "TAF EDNY 150500Z 1506/1515 VRB02KT 7000 NSC \n  PROB40 \n  TEMPO 1506/1509 3500 BR \n  PROB30 \n  TEMPO 1506/1508 2000 BR BKN002"
    },
    {
      "icao": "EPRZ",
      "iata": "RZE",
      "name": "Rzeszów-Jasionka Airport",
      "updatedAt": "150530Z",
      "visibility_m": 4000,
      "taf_visibility_m": 2000,
      "worst_visibility_m": 2000,
      "ceiling_ft": 400,
      "hazards": [
        "BR"
      ],
      "severityScore": 45,
      "metarRaw": "METAR EPRZ 150530Z 26009KT 4000 BR OVC004 01/01 Q1018",
      "tafRaw": "TAF EPRZ 150530Z 1506/1606 26010KT 2000 BR OVC003 \n  TEMPO 1506/1508 4000 BR BKN007 \n  BECMG 1508/1511 09010KT 6000 BKN012 \n  BECMG 1511/1514 BKN020 \n  TEMPO 1523/1606 2000 BR BKN013"
    },
    {
      "icao": "EPWA",
      "iata": "WAW",
      "name": "Warsaw Chopin Airport",
      "updatedAt": "150530Z",
      "visibility_m": 3500,
      "taf_visibility_m": 1400,
      "worst_visibility_m": 1400,
      "ceiling_ft": 500,
      "hazards": [
        "BR"
      ],
      "severityScore": 45,
      "metarRaw": "METAR EPWA 150530Z 28005KT 7000 BKN020 01/01 Q1018 TEMPO 3500 BR BKN005",
      "tafRaw": "TAF EPWA 150530Z 1506/1606 29005KT 5000 BR BKN018 \n  TEMPO 1506/1509 2000 BR BKN006 \n  PROB40 \n  TEMPO 1506/1509 1400 -SG BR BKN003 \n  PROB40 1510/1518 BKN008 \n  BECMG 1513/1516 13010KT"
    },
    {
      "icao": "EGNM",
      "iata": "LBA",
      "name": "Leeds Bradford Airport",
      "updatedAt": "150520Z",
      "visibility_m": 10000,
      "taf_visibility_m": 4000,
      "worst_visibility_m": 4000,
      "ceiling_ft": 1000,
      "hazards": [
        "BR",
        "RA",
        "DZ"
      ],
      "severityScore": 44,
      "metarRaw": "METAR EGNM 150520Z 22011KT 9999 BKN010 05/04 Q0998",
      "tafRaw": "TAF EGNM 150504Z 1505/1524 21010KT 9999 SCT020 \n  PROB40 \n  TEMPO 1505/1515 8000 BKN009 \n  BECMG 1509/1512 VRB03KT \n  PROB40 \n  TEMPO 1515/1520 4000 RADZ BR BKN004 \n  PROB40 \n  TEMPO 1520/1524 4000 BR BKN004"
    },
    {
      "icao": "EGPD",
      "iata": "ABZ",
      "name": "Aberdeen International Airport",
      "updatedAt": "150520Z",
      "visibility_m": 4000,
      "taf_visibility_m": 4000,
      "worst_visibility_m": 4000,
      "ceiling_ft": 1400,
      "hazards": [
        "RA",
        "BR",
        "DZ"
      ],
      "severityScore": 44,
      "metarRaw": "METAR EGPD 150520Z AUTO 20009KT 6000 -RA SCT036 BKN042 BKN049 04/02 Q0992 TEMPO 4000 RA BKN014",
      "tafRaw": "TAF EGPD 150455Z 1506/1606 20008KT 9999 FEW015 \n  TEMPO 1506/1508 8000 -RA BKN008 \n  PROB30 \n  TEMPO 1506/1507 4000 RADZ BKN006 \n  PROB30 \n  TEMPO 1521/1606 5000 BR"
    },
    {
      "icao": "LRSV",
      "iata": "SCV",
      "name": "Suceava Stefan cel Mare Airport",
      "updatedAt": "150530Z",
      "visibility_m": 3000,
      "taf_visibility_m": 3000,
      "worst_visibility_m": 3000,
      "ceiling_ft": 900,
      "hazards": [
        "SN"
      ],
      "severityScore": 43,
      "metarRaw": "METAR LRSV 150530Z 02005KT 3000 SN BKN009 M07/M08 Q1017",
      "tafRaw": "TAF LRSV 150500Z 1506/1515 05005KT 5000 -SN BKN010 OVC020 \n  PROB40 \n  TEMPO 1506/1508 3000 SN \n  BECMG 1508/1510 7000 NSW BKN015 OVC025 \n  TEMPO 1510/1515 5000 -SN"
    },
    {
      "icao": "EPKK",
      "iata": "KRK",
      "name": "Kraków John Paul II International Airport",
      "updatedAt": "150530Z",
      "visibility_m": 3000,
      "taf_visibility_m": 1200,
      "worst_visibility_m": 1200,
      "ceiling_ft": 3300,
      "hazards": [
        "BR",
        "RA",
        "DZ"
      ],
      "severityScore": 42,
      "metarRaw": "METAR EPKK 150530Z VRB01KT 3000 BR BKN033 00/M00 Q1019",
      "tafRaw": "TAF EPKK 150530Z 1506/1606 VRB02KT 3000 BR BKN020 \n  TEMPO 1506/1508 1200 BR BKN014 \n  BECMG 1508/1511 07010KT 6000 \n  TEMPO 1515/1606 2000 -RADZ BR BKN004"
    },
    {
      "icao": "EPKT",
      "iata": "KTW",
      "name": "Katowice Wojciech Korfanty International Airport",
      "updatedAt": "150530Z",
      "visibility_m": 3800,
      "taf_visibility_m": 1200,
      "worst_visibility_m": 1200,
      "ceiling_ft": 1000,
      "hazards": [
        "BR",
        "DZ"
      ],
      "severityScore": 42,
      "metarRaw": "METAR EPKT 150530Z VRB01KT 3800 BR OVC010 01/00 Q1018",
      "tafRaw": "TAF EPKT 150530Z 1506/1606 16004KT 3000 BR BKN008 \n  TEMPO 1506/1508 1200 BR BKN004 \n  BECMG 1508/1511 7000 BKN012 \n  TEMPO 1515/1606 2000 -DZ BR BKN004"
    },
    {
      "icao": "LIMF",
      "iata": "TRN",
      "name": "Turin Airport",
      "updatedAt": "150520Z",
      "visibility_m": 10000,
      "taf_visibility_m": 1200,
      "worst_visibility_m": 1200,
      "ceiling_ft": 1000,
      "hazards": [
        "FG"
      ],
      "severityScore": 42,
      "metarRaw": "METAR LIMF 150520Z VRB02KT 9999 SCT040 05/00 Q1021",
      "tafRaw": "TAF LIMF 150500Z 1506/1606 VRB03KT 8000 SCT050 \n  TEMPO 1518/1606 1200 BCFG BKN010"
    },
    {
      "icao": "LIPQ",
      "iata": "TRS",
      "name": "Trieste–Friuli Venezia Giulia Airport",
      "updatedAt": "150520Z",
      "visibility_m": 2400,
      "taf_visibility_m": 1200,
      "worst_visibility_m": 1200,
      "ceiling_ft": 3000,
      "hazards": [
        "BR",
        "FG"
      ],
      "severityScore": 40,
      "metarRaw": "METAR LIPQ 150520Z AUTO 36002KT 2400 BR BKN018/// OVC068/// 06/06 Q1022",
      "tafRaw": "TAF LIPQ 150500Z 1506/1606 VRB04KT 2000 BR BKN030 \n  BECMG 1509/1511 7000 \n  BECMG 1516/1518 3000 BR \n  TEMPO 1602/1606 1200 BCFG"
    },
    {
      "icao": "LYPG",
      "iata": "TGD",
      "name": "Podgorica Airport / Podgorica Golubovci Airbase",
      "updatedAt": "150530Z",
      "visibility_m": 1500,
      "taf_visibility_m": 2000,
      "worst_visibility_m": 1500,
      "ceiling_ft": null,
      "hazards": [
        "BR",
        "FG"
      ],
      "severityScore": 40,
      "metarRaw": "METAR LYPG 150530Z 02003KT 3000 0700N R18/1000U R36/P2000N PRFG BR FEW030 SCT070 04/03 Q1025 TEMPO 1500",
      "tafRaw": "TAF LYPG 150500Z 1506/1606 17005KT 9999 SCT034 SCT070 TX12/1513Z TN04/1506Z \n  TEMPO 1506/1507 2000 BR"
    },
    {
      "icao": "UGKO",
      "iata": "KUT",
      "name": "David the Builder Kutaisi International Airport",
      "updatedAt": "150530Z",
      "visibility_m": 10000,
      "taf_visibility_m": 2000,
      "worst_visibility_m": 2000,
      "ceiling_ft": 1000,
      "hazards": [
        "SHSN",
        "SN"
      ],
      "severityScore": 40,
      "metarRaw": "METAR UGKO 150530Z 18003KT 9999 SCT007 OVC010 00/M00 Q1025 NOSIG",
      "tafRaw": "TAF UGKO 150500Z 1506/1606 08007KT 9999 BKN050 TX06/1511Z TNM01/1602Z \n  TEMPO 1506/1509 BKN010 \n  BECMG 1509/1511 CAVOK \n  BECMG 1522/1524 OVC040 \n  TEMPO 1602/1606 2000 SHSN SCT010 BKN023CB"
    },
    {
      "icao": "ENZV",
      "iata": "SVG",
      "name": "Stavanger Airport, Sola",
      "updatedAt": "150520Z",
      "visibility_m": 10000,
      "taf_visibility_m": 4000,
      "worst_visibility_m": 4000,
      "ceiling_ft": 900,
      "hazards": [
        "RA"
      ],
      "severityScore": 37,
      "metarRaw": "METAR ENZV 150520Z 15011KT CAVOK 04/02 Q1002 NOSIG",
      "tafRaw": "TAF ENZV 150500Z 1506/1606 16012KT 9999 SCT030 \n  BECMG 1509/1511 15020G35KT \n  TEMPO 1510/1517 4000 RA BKN009 SCT018CB \n  BECMG 1514/1516 14015KT \n  PROB40 1600/1606 RA BKN012"
    },
    {
      "icao": "ENBR",
      "iata": "BGO",
      "name": "Bergen Airport, Flesland",
      "updatedAt": "150520Z",
      "visibility_m": 10000,
      "taf_visibility_m": 4000,
      "worst_visibility_m": 4000,
      "ceiling_ft": 3300,
      "hazards": [
        "BR",
        "RA",
        "SHRA"
      ],
      "severityScore": 36,
      "metarRaw": "METAR ENBR 150520Z 14013KT 9999 SCT018 BKN033 05/02 Q1001 NOSIG RMK WIND 1200FT 15025KT",
      "tafRaw": "TAF ENBR 150500Z 1506/1606 14015KT 9999 -SHRA FEW015TCU BKN025 \n  TEMPO 1512/1522 15018G28KT 4000 RA BKN009 SCT015CB \n  BECMG 1601/1603 10005KT"
    },
    {
      "icao": "EGPF",
      "iata": "GLA",
      "name": "Glasgow Airport",
      "updatedAt": "150520Z",
      "visibility_m": 10000,
      "taf_visibility_m": 4000,
      "worst_visibility_m": 4000,
      "ceiling_ft": 900,
      "hazards": [
        "BR"
      ],
      "severityScore": 35,
      "metarRaw": "METAR EGPF 150520Z AUTO 22010KT 9999 SCT043 06/05 Q0993",
      "tafRaw": "TAF EGPF 150458Z 1506/1606 19006KT 9999 SCT025 \n  PROB30 \n  TEMPO 1506/1518 BKN012 \n  PROB30 \n  TEMPO 1522/1606 4000 BR \n  PROB30 \n  TEMPO 1604/1606 BKN009"
    },
    {
      "icao": "ESSA",
      "iata": "ARN",
      "name": "Stockholm-Arlanda Airport",
      "updatedAt": "150520Z",
      "visibility_m": 10000,
      "taf_visibility_m": 2000,
      "worst_visibility_m": 2000,
      "ceiling_ft": 900,
      "hazards": [
        "BR"
      ],
      "severityScore": 35,
      "metarRaw": "METAR ESSA 150520Z 26009KT 9999 BKN009 00/M01 Q1009 TEMPO BKN009",
      "tafRaw": "TAF ESSA 150530Z 1506/1606 25008KT 9999 SCT010 BKN015 \n  TEMPO 1506/1518 BKN009 \n  PROB40 1518/1523 2000 BR BKN003 \n  BECMG 1519/1521 18010KT \n  TEMPO 1600/1606 BKN010"
    },
    {
      "icao": "LGTS",
      "iata": "SKG",
      "name": "Thessaloniki Macedonia International Airport",
      "updatedAt": "150520Z",
      "visibility_m": 10000,
      "taf_visibility_m": 4000,
      "worst_visibility_m": 4000,
      "ceiling_ft": null,
      "hazards": [
        "TS",
        "BR"
      ],
      "severityScore": 35,
      "metarRaw": "METAR LGTS 150520Z 08003KT CAVOK 01/00 Q1024 NOSIG",
      "tafRaw": "TAF LGTS 150500Z 1506/1606 VRB03KT 9999 FEW030 \n  PROB30 1603/1606 4000 BR SCT008"
    },
    {
      "icao": "LPMA",
      "iata": "FNC",
      "name": "Madeira International Airport Cristiano Ronaldo",
      "updatedAt": "150530Z",
      "visibility_m": 10000,
      "taf_visibility_m": 8000,
      "worst_visibility_m": 8000,
      "ceiling_ft": 1500,
      "hazards": [
        "RA",
        "DZ"
      ],
      "severityScore": 34,
      "metarRaw": "METAR LPMA 150530Z 33008KT 260V360 9999 BKN015 15/08 Q1024",
      "tafRaw": "TAF LPMA 150500Z 1506/1606 32007KT 9999 SCT015 \n  PROB40 \n  TEMPO 1506/1509 VRB05KT BKN013 \n  BECMG 1509/1511 VRB05KT \n  BECMG 1521/1524 BKN015 \n  TEMPO 1600/1602 8000 RADZ SCT008 BKN013 \n  BECMG 1602/1604 36012KT SCT015"
    },
    {
      "icao": "LIMC",
      "iata": "MXP",
      "name": "Milan Malpensa International Airport",
      "updatedAt": "150520Z",
      "visibility_m": 3000,
      "taf_visibility_m": 1200,
      "worst_visibility_m": 1200,
      "ceiling_ft": 4000,
      "hazards": [
        "BR",
        "RA"
      ],
      "severityScore": 32,
      "metarRaw": "METAR LIMC 150520Z VRB02KT 3000 -RA BR BKN040 05/04 Q1022 NOSIG",
      "tafRaw": "TAF LIMC 150500Z 1506/1612 VRB05KT 8000 BKN030 \n  TEMPO 1506/1521 4000 -RA BKN010 \n  TEMPO 1521/1612 1200 -RA BR BKN008"
    },
    {
      "icao": "LPPS",
      "iata": "PXO",
      "name": "Porto Santo Airport",
      "updatedAt": "150530Z",
      "visibility_m": 10000,
      "taf_visibility_m": 5000,
      "worst_visibility_m": 5000,
      "ceiling_ft": 3000,
      "hazards": [
        "BR",
        "RA",
        "DZ"
      ],
      "severityScore": 32,
      "metarRaw": "METAR LPPS 150530Z 31008KT 270V350 9999 SCT015 BKN030 15/09 Q1024",
      "tafRaw": "TAF LPPS 150500Z 1506/1612 32007KT 9999 SCT015 \n  TEMPO 1506/1521 FEW015 BKN030 \n  BECMG 1506/1508 28012KT \n  BECMG 1521/1523 5000 RADZ BR SCT006 BKN012 \n  BECMG 1601/1603 34015KT 9999 NSW SCT015"
    },
    {
      "icao": "BIKF",
      "iata": "KEF",
      "name": "Keflavik International Airport",
      "updatedAt": "150530Z",
      "visibility_m": 10000,
      "taf_visibility_m": 10000,
      "worst_visibility_m": 10000,
      "ceiling_ft": 1400,
      "hazards": [
        "SN"
      ],
      "severityScore": 30,
      "metarRaw": "METAR BIKF 150530Z 03010KT 9999 -SN BKN014 OVC041 01/M02 Q0986",
      "tafRaw": "TAF BIKF 150450Z 1506/1606 02010KT 9999 SCT030 TX02/1606Z TN00/1510Z \n  BECMG 1508/1510 02020KT"
    },
    {
      "icao": "LIBP",
      "iata": "PSR",
      "name": "Abruzzo Airport",
      "updatedAt": "150520Z",
      "visibility_m": 10000,
      "taf_visibility_m": 2000,
      "worst_visibility_m": 2000,
      "ceiling_ft": null,
      "hazards": [
        "BR",
        "FG"
      ],
      "severityScore": 30,
      "metarRaw": "METAR LIBP 150520Z AUTO 21004KT 9999 NCD 01/01 Q1023",
      "tafRaw": "TAF LIBP 150500Z 1506/1606 VRB05KT CAVOK \n  PROB40 \n  TEMPO 1506/1508 2000 BCFG \n  BECMG 1520/1522 4000 BR"
    },
    {
      "icao": "EYKA",
      "iata": "KUN",
      "name": "Kaunas International Airport",
      "updatedAt": "150520Z",
      "visibility_m": 9000,
      "taf_visibility_m": 3000,
      "worst_visibility_m": 3000,
      "ceiling_ft": 4900,
      "hazards": [
        "BR",
        "SN"
      ],
      "severityScore": 28,
      "metarRaw": "METAR EYKA 150520Z 16008KT 130V220 9000 OVC049 M11/M13 Q1020",
      "tafRaw": "TAF EYKA 150513Z 1506/1606 15009KT 8000 SCT010 BKN015 \n  TEMPO 1506/1512 5000 SN BR SCT005 BKN010 \n  PROB40 \n  TEMPO 1506/1512 3000 OVC005"
    },
    {
      "icao": "LRIA",
      "iata": "IAS",
      "name": "Iaşi Airport",
      "updatedAt": "150530Z",
      "visibility_m": 5000,
      "taf_visibility_m": 1500,
      "worst_visibility_m": 1500,
      "ceiling_ft": 2000,
      "hazards": [
        "SN"
      ],
      "severityScore": 28,
      "metarRaw": "METAR LRIA 150530Z 34006KT 5000 -SN SCT008 OVC020 M05/M06 Q1020",
      "tafRaw": "TAF LRIA 150500Z 1506/1515 36005KT 5000 -SN SCT010 OVC030 \n  TEMPO 1506/1508 1500 SN BKN005 OVC020 \n  BECMG 1508/1510 8000 NSW \n  PROB40 \n  TEMPO 1512/1515 5000 -SN BKN005 OVC020"
    },
    {
      "icao": "LRBC",
      "iata": "BCM",
      "name": "Bacău George Enescu International  Airport",
      "updatedAt": "150530Z",
      "visibility_m": 6000,
      "taf_visibility_m": 1500,
      "worst_visibility_m": 1500,
      "ceiling_ft": 4700,
      "hazards": [
        "SN"
      ],
      "severityScore": 28,
      "metarRaw": "METAR LRBC 150530Z 34006KT 6000 BKN047 M03/M05 Q1018",
      "tafRaw": "TAF LRBC 150500Z 1506/1515 35007KT 8000 BKN045 \n  TEMPO 1506/1510 5000 -SN BKN010 BKN040 \n  PROB40 \n  TEMPO 1506/1509 1500 SN"
    },
    {
      "icao": "LTAC",
      "iata": "ESB",
      "name": "Esenboğa International Airport",
      "updatedAt": "150520Z",
      "visibility_m": 5000,
      "taf_visibility_m": 2000,
      "worst_visibility_m": 2000,
      "ceiling_ft": 9000,
      "hazards": [
        "BR",
        "SN"
      ],
      "severityScore": 28,
      "metarRaw": "METAR LTAC 150520Z 22004KT 140V240 5000 BR SCT008 SCT035 BKN090 M01/M03 Q1023 NOSIG RMK RWY21C 18005KT RWY03L 20004KT 140V220 RWY21R 19005KT 140V210 RWY03R 18003KT 140V230 RWY21L 20006KT",
      "tafRaw": "TAF LTAC 150440Z 1506/1606 22008KT 9999 FEW010 SCT040 BKN100 \n  TEMPO 1506/1509 4000 BR \n  TEMPO 1602/1606 2000 -SN BR FEW008 BKN030 BKN080"
    },
    {
      "icao": "UDYZ",
      "iata": "EVN",
      "name": "Zvartnots International Airport",
      "updatedAt": "150530Z",
      "visibility_m": 10000,
      "taf_visibility_m": 2300,
      "worst_visibility_m": 2300,
      "ceiling_ft": 4600,
      "hazards": [
        "BR",
        "SN"
      ],
      "severityScore": 28,
      "metarRaw": "METAR UDYZ 150530Z 19003KT 9999 BKN046 M03/M06 Q1020 NOSIG",
      "tafRaw": "TAF UDYZ 150500Z 1506/1606 VRB06KT 9999 BKN040 \n  TEMPO 1506/1518 2300 -SN BR BKN030"
    },
    {
      "icao": "LTFM",
      "iata": "IST",
      "name": "İstanbul Airport",
      "updatedAt": "150520Z",
      "visibility_m": 10000,
      "taf_visibility_m": 4000,
      "worst_visibility_m": 4000,
      "ceiling_ft": 2900,
      "hazards": [
        "RA",
        "SHRA"
      ],
      "severityScore": 26,
      "metarRaw": "METAR LTFM 150520Z 21013KT 9999 BKN029 08/05 Q1022 RESHRA NOSIG RMK RWY17L 21012KT RWY34L 20012KT RWY16R 20010KT RWY36 21011KT RWY18 22014KT",
      "tafRaw": "TAF LTFM 150440Z 1506/1612 22017KT 9999 BKN040 \n  BECMG 1506/1509 SCT017 BKN070 \n  TEMPO 1507/1511 23015G25KT \n  BECMG 1520/1523 04006KT BKN006 BKN022 \n  BECMG 1605/1608 05017KT -SHRA \n  TEMPO 1608/1612 4000 SHRA"
    },
    {
      "icao": "GCTS",
      "iata": "TFS",
      "name": "Tenerife Sur Airport",
      "updatedAt": "150530Z",
      "visibility_m": 10000,
      "taf_visibility_m": 10000,
      "worst_visibility_m": 10000,
      "ceiling_ft": 4000,
      "hazards": [
        "TS"
      ],
      "severityScore": 25,
      "metarRaw": "METAR GCTS 150530Z 06012KT 9999 BKN040 16/09 Q1023 NOSIG",
      "tafRaw": "TAF GCTS 150200Z 1503/1603 03007KT 9999 FEW040 TX22/1514Z TN14/1506Z \n  PROB40 1509/1518 09016KT"
    },
    {
      "icao": "LBWN",
      "iata": "VAR",
      "name": "Varna Airport",
      "updatedAt": "150530Z",
      "visibility_m": 8000,
      "taf_visibility_m": 5000,
      "worst_visibility_m": 5000,
      "ceiling_ft": 1500,
      "hazards": [
        "RA"
      ],
      "severityScore": 24,
      "metarRaw": "METAR LBWN 150530Z AUTO 29006KT 8000 NCD 03/02 Q1019 NOSIG",
      "tafRaw": "TAF LBWN 150500Z 1506/1606 VRB03KT 9999 SCT040 \n  BECMG 1506/1508 27012KT \n  BECMG 1514/1516 VRB03KT \n  BECMG 1602/1604 04010KT BKN015 OVC030 \n  TEMPO 1604/1606 5000 RA"
    },
    {
      "icao": "LEXJ",
      "iata": "SDR",
      "name": "Seve Ballesteros-Santander Airport",
      "updatedAt": "150530Z",
      "visibility_m": 7000,
      "taf_visibility_m": 10000,
      "worst_visibility_m": 7000,
      "ceiling_ft": 1000,
      "hazards": [
        "RA"
      ],
      "severityScore": 24,
      "metarRaw": "METAR LEXJ 150530Z 20014G24KT 150V280 7000 FEW040 14/03 Q1010",
      "tafRaw": "TAF LEXJ 150200Z 1503/1603 21009KT 9999 FEW040 TX14/1511Z TN09/1503Z \n  TEMPO 1505/1518 20018G33KT \n  TEMPO 1509/1517 20025G43KT \n  PROB40 \n  TEMPO 1511/1521 RA BKN010"
    },
    {
      "icao": "GMMX",
      "iata": "RAK",
      "name": "Menara Airport",
      "updatedAt": "150530Z",
      "visibility_m": 10000,
      "taf_visibility_m": 3000,
      "worst_visibility_m": 3000,
      "ceiling_ft": 1000,
      "hazards": [
        "BR"
      ],
      "severityScore": 22,
      "metarRaw": "METAR GMMX 150530Z VRB02KT 9999 SCT026 07/06 Q1021 NOSIG",
      "tafRaw": "TAF GMMX 142300Z 1500/1606 12006KT 8000 SCT026 SCT080 \n  TEMPO 1503/1509 3000 BR BKN010"
    },
    {
      "icao": "EHEH",
      "iata": "EIN",
      "name": "Eindhoven Airport",
      "updatedAt": "150525Z",
      "visibility_m": 10000,
      "taf_visibility_m": 4000,
      "worst_visibility_m": 4000,
      "ceiling_ft": 3000,
      "hazards": [
        "BR",
        "RA"
      ],
      "severityScore": 22,
      "metarRaw": "METAR EHEH 150525Z AUTO 18010KT 9999 OVC030 10/08 Q1009 BLU",
      "tafRaw": "TAF EHEH 142338Z 1500/1606 17007KT CAVOK \n  BECMG 1503/1506 SCT008 BKN012 \n  TEMPO 1505/1511 4000 BR -RA SCT004 BKN007 \n  BECMG 1510/1512 SCT030 \n  BECMG 1522/1524 19012G25KT \n  PROB40 \n  TEMPO 1600/1606 SCT015 BKN018"
    },
    {
      "icao": "LEBB",
      "iata": "BIO",
      "name": "Bilbao Airport",
      "updatedAt": "150530Z",
      "visibility_m": 10000,
      "taf_visibility_m": 3000,
      "worst_visibility_m": 3000,
      "ceiling_ft": null,
      "hazards": [
        "BR",
        "RA"
      ],
      "severityScore": 22,
      "metarRaw": "METAR LEBB 150530Z 16007KT 100V210 CAVOK 13/04 Q1012 NOSIG",
      "tafRaw": "TAF LEBB 150500Z 1506/1606 20009KT 9999 FEW025 TX13/1512Z TN05/1506Z \n  TEMPO 1506/1517 20018G29KT \n  TEMPO 1509/1515 20024G44KT \n  TEMPO 1513/1520 3000 RA \n  PROB30 \n  TEMPO 1603/1606 3000 BR"
    },
    {
      "icao": "LKMT",
      "iata": "OSR",
      "name": "Ostrava Leos Janáček Airport",
      "updatedAt": "150530Z",
      "visibility_m": 6000,
      "taf_visibility_m": 4500,
      "worst_visibility_m": 4500,
      "ceiling_ft": 1600,
      "hazards": [
        "BR"
      ],
      "severityScore": 22,
      "metarRaw": "METAR LKMT 150530Z 22008KT 6000 OVC016 M01/M02 Q1019 NOSIG",
      "tafRaw": "TAF LKMT 150500Z 1506/1606 23011KT 8000 BKN025 \n  PROB40 \n  TEMPO 1506/1606 4500 BR OVC006"
    },
    {
      "icao": "ENTO",
      "iata": "TRF",
      "name": "Sandefjord Airport, Torp",
      "updatedAt": "150520Z",
      "visibility_m": 10000,
      "taf_visibility_m": null,
      "worst_visibility_m": 10000,
      "ceiling_ft": 1700,
      "hazards": [],
      "severityScore": 17,
      "metarRaw": "METAR ENTO 150520Z 36004KT 9999 BKN017 M06/M06 Q1007 NOSIG",
      "tafRaw": null
    },
    {
      "icao": "LFOB",
      "iata": "BVA",
      "name": "Beauvais Tillé airport",
      "updatedAt": "150530Z",
      "visibility_m": 10000,
      "taf_visibility_m": null,
      "worst_visibility_m": 10000,
      "ceiling_ft": 1200,
      "hazards": [],
      "severityScore": 17,
      "metarRaw": "METAR LFOB 150530Z AUTO 22014KT 9999 FEW013 OVC028 09/06 Q1010 TEMPO OVC012",
      "tafRaw": null
    },
    {
      "icao": "EDDN",
      "iata": "NUE",
      "name": "Nuremberg Airport",
      "updatedAt": "150520Z",
      "visibility_m": 8000,
      "taf_visibility_m": 10000,
      "worst_visibility_m": 8000,
      "ceiling_ft": 3300,
      "hazards": [
        "RA"
      ],
      "severityScore": 12,
      "metarRaw": "METAR EDDN 150520Z AUTO 13006KT 8000 -RA SCT028 BKN033 04/04 Q1016 NOSIG",
      "tafRaw": "TAF EDDN 150500Z 1506/1606 13006KT 9999 BKN030 \n  PROB30 \n  TEMPO 1506/1508 RA"
    },
    {
      "icao": "EDSB",
      "iata": "FKB",
      "name": "Karlsruhe Baden-Baden Airport",
      "updatedAt": "150520Z",
      "visibility_m": 9000,
      "taf_visibility_m": 10000,
      "worst_visibility_m": 9000,
      "ceiling_ft": 3800,
      "hazards": [
        "RA"
      ],
      "severityScore": 12,
      "metarRaw": "METAR EDSB 150520Z 21004KT 9000 RA OVC038 07/06 Q1016",
      "tafRaw": "TAF EDSB 150500Z 1506/1606 21004KT 9999 BKN030 \n  TEMPO 1506/1507 RA"
    },
    {
      "icao": "EHBK",
      "iata": "MST",
      "name": "Maastricht Aachen Airport",
      "updatedAt": "150525Z",
      "visibility_m": 10000,
      "taf_visibility_m": 10000,
      "worst_visibility_m": 10000,
      "ceiling_ft": 1200,
      "hazards": [],
      "severityScore": 12,
      "metarRaw": "METAR EHBK 150525Z AUTO 20011KT 170V230 9999 NSC 08/07 Q1010 NOSIG",
      "tafRaw": "TAF EHBK 150504Z 1506/1612 19010KT 9999 BKN020 \n  PROB30 \n  TEMPO 1506/1510 BKN012 \n  BECMG 1514/1517 16010KT \n  BECMG 1600/1603 21014KT"
    },
    {
      "icao": "EYVI",
      "iata": "VNO",
      "name": "Vilnius International Airport",
      "updatedAt": "150520Z",
      "visibility_m": 8000,
      "taf_visibility_m": 7000,
      "worst_visibility_m": 7000,
      "ceiling_ft": 1000,
      "hazards": [],
      "severityScore": 12,
      "metarRaw": "METAR EYVI 150520Z 16007KT 8000 NSC M16/M18 Q1020 NOSIG",
      "tafRaw": "TAF EYVI 150506Z 1506/1606 17009KT 7000 NSC \n  BECMG 1507/1510 BKN015 \n  TEMPO 1510/1521 OVC010 \n  BECMG 1522/1524 SCT015 \n  TEMPO 1600/1606 SCT010"
    },
    {
      "icao": "LEMG",
      "iata": "AGP",
      "name": "Málaga-Costa del Sol Airport",
      "updatedAt": "150530Z",
      "visibility_m": 10000,
      "taf_visibility_m": 10000,
      "worst_visibility_m": 10000,
      "ceiling_ft": null,
      "hazards": [
        "RA"
      ],
      "severityScore": 12,
      "metarRaw": "METAR LEMG 150530Z 29007KT CAVOK 06/06 Q1020 NOSIG",
      "tafRaw": "TAF LEMG 150500Z 1506/1606 29006KT 9999 FEW030 TX18/1514Z TN07/1507Z \n  PROB30 \n  TEMPO 1513/1519 RA"
    },
    {
      "icao": "LFPO",
      "iata": "ORY",
      "name": "Paris-Orly Airport",
      "updatedAt": "150530Z",
      "visibility_m": 10000,
      "taf_visibility_m": 4000,
      "worst_visibility_m": 4000,
      "ceiling_ft": 3000,
      "hazards": [
        "RA"
      ],
      "severityScore": 12,
      "metarRaw": "METAR LFPO 150530Z 22009KT 9999 BKN030 BKN230 09/06 Q1012 NOSIG",
      "tafRaw": "TAF LFPO 150500Z 1506/1612 21010KT 9999 SCT016 BKN030 \n  PROB30 \n  TEMPO 1506/1510 BKN014 \n  PROB40 \n  TEMPO 1520/1602 20015G30KT 4000 -RA BKN014 \n  BECMG 1604/1606 BKN007"
    },
    {
      "icao": "LIMJ",
      "iata": "GOA",
      "name": "Genoa Cristoforo Colombo Airport",
      "updatedAt": "150520Z",
      "visibility_m": 10000,
      "taf_visibility_m": 3000,
      "worst_visibility_m": 3000,
      "ceiling_ft": 4000,
      "hazards": [
        "RA"
      ],
      "severityScore": 12,
      "metarRaw": "METAR LIMJ 150520Z 05010KT 9999 SCT025 BKN040 11/07 Q1020",
      "tafRaw": "TAF LIMJ 150500Z 1506/1606 04010KT 9999 BKN030 \n  TEMPO 1506/1518 4000 RA \n  TEMPO 1603/1606 3000 RA"
    },
    {
      "icao": "LIRP",
      "iata": "PSA",
      "name": "Pisa International Airport",
      "updatedAt": "150515Z",
      "visibility_m": 10000,
      "taf_visibility_m": 10000,
      "worst_visibility_m": 10000,
      "ceiling_ft": 2500,
      "hazards": [
        "RA"
      ],
      "severityScore": 12,
      "metarRaw": "METAR LIRP 150515Z 12004KT 9999 BKN025 SCT040 11/11 Q1020 NOSIG",
      "tafRaw": "TAF LIRP 150500Z 1506/1606 12005KT 9999 SCT030 BKN060 \n  TEMPO 1514/1520 RA BKN015"
    },
    {
      "icao": "LJLJ",
      "iata": "LJU",
      "name": "Ljubljana Jože Pučnik Airport",
      "updatedAt": "150530Z",
      "visibility_m": 10000,
      "taf_visibility_m": 10000,
      "worst_visibility_m": 10000,
      "ceiling_ft": 5000,
      "hazards": [
        "RA"
      ],
      "severityScore": 12,
      "metarRaw": "METAR LJLJ 150530Z 00000KT 9999 FEW007 BKN050 M02/M03 Q1021 NOSIG",
      "tafRaw": "TAF LJLJ 150500Z 1506/1606 30003KT 9999 FEW010 SCT045 \n  PROB30 \n  TEMPO 1512/1606 -RA"
    },
    {
      "icao": "ESKN",
      "iata": "NYO",
      "name": "Stockholm Skavsta Airport",
      "updatedAt": "150520Z",
      "visibility_m": 10000,
      "taf_visibility_m": 2500,
      "worst_visibility_m": 2500,
      "ceiling_ft": 2200,
      "hazards": [
        "BR"
      ],
      "severityScore": 10,
      "metarRaw": "METAR ESKN 150520Z 20005KT 9999 FEW011 BKN022 01/01 Q1010",
      "tafRaw": "TAF ESKN 150530Z 1506/1606 20006KT 9999 OVC020 \n  PROB40 1506/1509 BKN013 \n  TEMPO 1509/1515 BKN007 \n  TEMPO 1515/1520 2500 BR BKN003 \n  TEMPO 1520/1606 BKN006"
    },
    {
      "icao": "HESX",
      "iata": "SPX",
      "name": "Sphinx International Airport",
      "updatedAt": "150500Z",
      "visibility_m": 10000,
      "taf_visibility_m": 3000,
      "worst_visibility_m": 3000,
      "ceiling_ft": null,
      "hazards": [
        "BR"
      ],
      "severityScore": 10,
      "metarRaw": "METAR HESX 150500Z 22004KT CAVOK 08/04 Q1025 NOSIG",
      "tafRaw": "TAF HESX 150500Z 1506/1612 34008KT 9999 SCT025 \n  TEMPO 1606/1608 VRB03KT 3000 BR NSC"
    },
    {
      "icao": "LBPD",
      "iata": "PDV",
      "name": "Plovdiv International Airport",
      "updatedAt": "150530Z",
      "visibility_m": 3000,
      "taf_visibility_m": 3000,
      "worst_visibility_m": 3000,
      "ceiling_ft": 7000,
      "hazards": [
        "BR"
      ],
      "severityScore": 10,
      "metarRaw": "METAR LBPD 150530Z AUTO VRB02KT 7000 NCD M00/M00 Q1021 TEMPO 3000 BR",
      "tafRaw": "TAF LBPD 150500Z 1506/1606 VRB04KT 9999 BKN070 \n  TEMPO 1506/1507 3000 BR SCT015 \n  BECMG 1509/1511 28010KT \n  BECMG 1518/1520 VRB04KT \n  TEMPO 1600/1606 3000 BR SCT015"
    },
    {
      "icao": "LBSF",
      "iata": "SOF",
      "name": "Sofia Airport",
      "updatedAt": "150530Z",
      "visibility_m": 3000,
      "taf_visibility_m": 3000,
      "worst_visibility_m": 3000,
      "ceiling_ft": null,
      "hazards": [
        "BR"
      ],
      "severityScore": 10,
      "metarRaw": "METAR LBSF 150530Z VRB02KT 8000 SCT031 M01/M01 Q1023 TEMPO 3000 BR",
      "tafRaw": "TAF LBSF 150500Z 1506/1606 VRB04KT 9999 SCT060 \n  TEMPO 1506/1507 3000 BR SCT010 \n  BECMG 1511/1513 30010KT \n  BECMG 1517/1519 VRB04KT \n  TEMPO 1600/1606 3000 BR SCT010"
    },
    {
      "icao": "LEAL",
      "iata": "ALC",
      "name": "Alicante-Elche Miguel Hernández Airport",
      "updatedAt": "150530Z",
      "visibility_m": 10000,
      "taf_visibility_m": 3000,
      "worst_visibility_m": 3000,
      "ceiling_ft": null,
      "hazards": [
        "BR"
      ],
      "severityScore": 10,
      "metarRaw": "METAR LEAL 150530Z 30007KT CAVOK 11/06 Q1018 NOSIG",
      "tafRaw": "TAF LEAL 150500Z 1506/1606 VRB04KT CAVOK TX18/1513Z TN07/1506Z \n  PROB40 \n  TEMPO 1518/1524 3000 BR"
    },
    {
      "icao": "LEBL",
      "iata": "BCN",
      "name": "Josep Tarradellas Barcelona-El Prat Airport",
      "updatedAt": "150530Z",
      "visibility_m": 10000,
      "taf_visibility_m": 3000,
      "worst_visibility_m": 3000,
      "ceiling_ft": null,
      "hazards": [
        "BR"
      ],
      "severityScore": 10,
      "metarRaw": "METAR LEBL 150530Z 33011KT 9999 FEW015 07/05 Q1018 NOSIG",
      "tafRaw": "TAF LEBL 150500Z 1506/1606 34008KT 9999 FEW015 TX15/1512Z TN05/1506Z \n  TEMPO 1506/1508 3000 BR SCT002 \n  BECMG 1510/1512 21010KT \n  BECMG 1520/1522 34006KT"
    },
    {
      "icao": "LIBD",
      "iata": "BRI",
      "name": "Bari Karol Wojtyła International Airport",
      "updatedAt": "150520Z",
      "visibility_m": 10000,
      "taf_visibility_m": 4000,
      "worst_visibility_m": 4000,
      "ceiling_ft": null,
      "hazards": [
        "BR"
      ],
      "severityScore": 10,
      "metarRaw": "METAR LIBD 150520Z 20006KT CAVOK 03/03 Q1023",
      "tafRaw": "TAF LIBD 150500Z 1506/1606 VRB06KT 9999 FEW040 \n  PROB30 \n  TEMPO 1506/1508 4000 BR"
    },
    {
      "icao": "LIPH",
      "iata": "TSF",
      "name": "Treviso Antonio Canova Airport",
      "updatedAt": "150520Z",
      "visibility_m": 5000,
      "taf_visibility_m": 2000,
      "worst_visibility_m": 2000,
      "ceiling_ft": null,
      "hazards": [
        "BR"
      ],
      "severityScore": 10,
      "metarRaw": "METAR LIPH 150520Z AUTO 20001KT 5000 BR BKN210/// 01/00 Q1022",
      "tafRaw": "TAF LIPH 150500Z 1506/1606 VRB04KT 3000 BR SCT040 \n  BECMG 1508/1510 8000 \n  BECMG 1519/1521 2000 BR"
    },
    {
      "icao": "LIPZ",
      "iata": "VCE",
      "name": "Venice Marco Polo Airport",
      "updatedAt": "150520Z",
      "visibility_m": 8000,
      "taf_visibility_m": 4000,
      "worst_visibility_m": 4000,
      "ceiling_ft": null,
      "hazards": [
        "BR"
      ],
      "severityScore": 10,
      "metarRaw": "METAR LIPZ 150520Z VRB02KT 8000 NSC 03/01 Q1022 NOSIG",
      "tafRaw": "TAF LIPZ 150500Z 1506/1612 VRB04KT 8000 SCT040 \n  TEMPO 1506/1510 4000 BR \n  TEMPO 1521/1607 4000 BR"
    },
    {
      "icao": "LQTZ",
      "iata": "TZL",
      "name": "Tuzla International Airport",
      "updatedAt": "150530Z",
      "visibility_m": 10000,
      "taf_visibility_m": 3000,
      "worst_visibility_m": 3000,
      "ceiling_ft": 6500,
      "hazards": [
        "BR"
      ],
      "severityScore": 10,
      "metarRaw": "METAR LQTZ 150530Z 11002KT 9999 FEW047 BKN065 01/01 Q1022",
      "tafRaw": "TAF LQTZ 150500Z 1506/1606 VRB02KT 9999 SCT040 TX08/1513Z TN00/1605Z \n  PROB40 1600/1606 3000 BR"
    },
    {
      "icao": "LWOH",
      "iata": "OHD",
      "name": "Ohrid St. Paul the Apostle Airport",
      "updatedAt": null,
      "visibility_m": null,
      "taf_visibility_m": 5000,
      "worst_visibility_m": 5000,
      "ceiling_ft": 2000,
      "hazards": [
        "BR"
      ],
      "severityScore": 10,
      "metarRaw": null,
      "tafRaw": "TAF LWOH 150205Z 1503/1603 VRB02KT 9999 SCT040 \n  PROB40 \n  TEMPO 1503/1507 5000 BR BKN020"
    },
    {
      "icao": "LYBE",
      "iata": "BEG",
      "name": "Belgrade Nikola Tesla Airport",
      "updatedAt": "150530Z",
      "visibility_m": 10000,
      "taf_visibility_m": 3000,
      "worst_visibility_m": 3000,
      "ceiling_ft": null,
      "hazards": [
        "BR"
      ],
      "severityScore": 10,
      "metarRaw": "METAR LYBE 150530Z 14003KT 110V190 CAVOK 02/00 Q1022 NOSIG",
      "tafRaw": "TAF LYBE 150500Z 1506/1606 18005KT 8000 NSC TX08/1513Z TN03/1506Z \n  PROB40 \n  TEMPO 1506/1509 3000 BR"
    },
    {
      "icao": "OJAI",
      "iata": "AMM",
      "name": "Queen Alia International Airport",
      "updatedAt": "150500Z",
      "visibility_m": 4000,
      "taf_visibility_m": 3000,
      "worst_visibility_m": 3000,
      "ceiling_ft": null,
      "hazards": [
        "BR"
      ],
      "severityScore": 10,
      "metarRaw": "METAR OJAI 150500Z 14003KT 4000 BR NSC 03/01 Q1024 NOSIG",
      "tafRaw": "TAF OJAI 150500Z 1506/1612 27012KT 5000 HZ SCT030 \n  PROB40 1602/1606 3000 BR \n  BECMG 1606/1608 14010KT"
    },
    {
      "icao": "UDSG",
      "iata": "LWN",
      "name": "Shirak International Airport",
      "updatedAt": "150530Z",
      "visibility_m": 10000,
      "taf_visibility_m": 5000,
      "worst_visibility_m": 5000,
      "ceiling_ft": null,
      "hazards": [
        "BR"
      ],
      "severityScore": 10,
      "metarRaw": "METAR UDSG 150530Z 13005KT 9999 SCT049 M15/M18 Q1019 NOSIG",
      "tafRaw": "TAF UDSG 150458Z 1506/1606 VRB06KT 9999 FEW040 \n  TEMPO 1506/1510 5000 BR"
    },
    {
      "icao": "LECH",
      "iata": "CDT",
      "name": "Castellón-Costa Azahar Airport",
      "updatedAt": "150530Z",
      "visibility_m": 10000,
      "taf_visibility_m": null,
      "worst_visibility_m": 10000,
      "ceiling_ft": null,
      "hazards": [],
      "severityScore": 5,
      "metarRaw": "METAR LECH 150530Z AUTO 19004KT CAVOK 05/02 Q1018",
      "tafRaw": null
    },
    {
      "icao": "LIBG",
      "iata": "TAR",
      "name": "Taranto-Grottaglie Marcello Arlotta Airport",
      "updatedAt": null,
      "visibility_m": null,
      "taf_visibility_m": null,
      "worst_visibility_m": null,
      "ceiling_ft": null,
      "hazards": [],
      "severityScore": 5,
      "metarRaw": null,
      "tafRaw": null
    },
    {
      "icao": "GCFV",
      "iata": "FUE",
      "name": "Fuerteventura Airport",
      "updatedAt": "150530Z",
      "visibility_m": 10000,
      "taf_visibility_m": 10000,
      "worst_visibility_m": 10000,
      "ceiling_ft": null,
      "hazards": [],
      "severityScore": 0,
      "metarRaw": "METAR GCFV 150530Z AUTO 33009KT CAVOK 15/10 Q1022",
      "tafRaw": "TAF GCFV 150200Z 1503/1603 34008KT 9999 SCT030 TX20/1514Z TN14/1506Z \n  BECMG 1509/1511 04012KT"
    },
    {
      "icao": "GCLP",
      "iata": "LPA",
      "name": "Gran Canaria Airport",
      "updatedAt": "150530Z",
      "visibility_m": 10000,
      "taf_visibility_m": 10000,
      "worst_visibility_m": 10000,
      "ceiling_ft": 3500,
      "hazards": [],
      "severityScore": 0,
      "metarRaw": "METAR GCLP 150530Z 35014KT 9999 BKN035 16/10 Q1022 NOSIG",
      "tafRaw": "TAF GCLP 150200Z 1503/1603 36015KT 9999 BKN030 TX20/1514Z TN15/1506Z"
    },
    {
      "icao": "GMAD",
      "iata": "AGA",
      "name": "Al Massira Airport",
      "updatedAt": "150530Z",
      "visibility_m": 10000,
      "taf_visibility_m": 8000,
      "worst_visibility_m": 8000,
      "ceiling_ft": null,
      "hazards": [],
      "severityScore": 0,
      "metarRaw": "METAR GMAD 150530Z 05004KT 9999 SCT026 08/08 Q1020 NOSIG",
      "tafRaw": "TAF GMAD 150500Z 1506/1612 06008KT 8000 SCT020"
    },
    {
      "icao": "EDDK",
      "iata": "CGN",
      "name": "Cologne Bonn Airport",
      "updatedAt": "150520Z",
      "visibility_m": 10000,
      "taf_visibility_m": 10000,
      "worst_visibility_m": 10000,
      "ceiling_ft": null,
      "hazards": [],
      "severityScore": 0,
      "metarRaw": "METAR EDDK 150520Z AUTO 16009KT 9999 FEW045 08/07 Q1012 NOSIG",
      "tafRaw": "TAF EDDK 150500Z 1506/1612 15010KT 9999 SCT025"
    },
    {
      "icao": "EDJA",
      "iata": "FMM",
      "name": "Memmingen Allgau Airport",
      "updatedAt": "150520Z",
      "visibility_m": 10000,
      "taf_visibility_m": 10000,
      "worst_visibility_m": 10000,
      "ceiling_ft": null,
      "hazards": [],
      "severityScore": 0,
      "metarRaw": "METAR EDJA 150520Z 21004KT 150V230 CAVOK 03/M00 Q1017",
      "tafRaw": "TAF EDJA 150500Z 1506/1515 21005KT CAVOK"
    },
    {
      "icao": "EDLW",
      "iata": "DTM",
      "name": "Dortmund Airport",
      "updatedAt": "150520Z",
      "visibility_m": 10000,
      "taf_visibility_m": 10000,
      "worst_visibility_m": 10000,
      "ceiling_ft": 3800,
      "hazards": [],
      "severityScore": 0,
      "metarRaw": "METAR EDLW 150520Z 19009KT 9999 BKN038 09/07 Q1011",
      "tafRaw": "TAF EDLW 150500Z 1506/1606 18013KT 9999 SCT030"
    },
    {
      "icao": "ENAL",
      "iata": "AES",
      "name": "Ålesund Airport, Vigra",
      "updatedAt": "150520Z",
      "visibility_m": 10000,
      "taf_visibility_m": 10000,
      "worst_visibility_m": 10000,
      "ceiling_ft": 4500,
      "hazards": [],
      "severityScore": 0,
      "metarRaw": "METAR ENAL 150520Z 17005KT 9999 BKN045 06/M00 Q0999",
      "tafRaw": "TAF ENAL 150500Z 1506/1515 15008KT 9999 BKN045"
    },
    {
      "icao": "ENTC",
      "iata": "TOS",
      "name": "Tromsø Airport, Langnes",
      "updatedAt": "150520Z",
      "visibility_m": 10000,
      "taf_visibility_m": 10000,
      "worst_visibility_m": 10000,
      "ceiling_ft": null,
      "hazards": [],
      "severityScore": 0,
      "metarRaw": "METAR ENTC 150520Z 11002KT CAVOK M07/M10 Q1006 RMK WIND 2600FT 16017KT",
      "tafRaw": "TAF ENTC 150500Z 1506/1606 20008KT CAVOK \n  TEMPO 1512/1522 20018KT"
    },
    {
      "icao": "ENVA",
      "iata": "TRD",
      "name": "Trondheim Airport, Værnes",
      "updatedAt": "150520Z",
      "visibility_m": 10000,
      "taf_visibility_m": 10000,
      "worst_visibility_m": 10000,
      "ceiling_ft": null,
      "hazards": [],
      "severityScore": 0,
      "metarRaw": "METAR ENVA 150520Z 10006KT CAVOK M03/M06 Q1004 NOSIG RMK WIND 670FT 12011KT",
      "tafRaw": "TAF ENVA 150500Z 1506/1606 12008KT CAVOK \n  TEMPO 1516/1524 16015G28KT"
    },
    {
      "icao": "HEGN",
      "iata": "HRG",
      "name": "Hurghada International Airport",
      "updatedAt": "150500Z",
      "visibility_m": 10000,
      "taf_visibility_m": 6000,
      "worst_visibility_m": 6000,
      "ceiling_ft": null,
      "hazards": [],
      "severityScore": 0,
      "metarRaw": "METAR HEGN 150500Z 28011KT CAVOK 12/07 Q1023 NOSIG",
      "tafRaw": "TAF HEGN 150500Z 1506/1612 31010G20KT 6000 FEW025"
    },
    {
      "icao": "HEMA",
      "iata": "RMF",
      "name": "Marsa Alam International Airport",
      "updatedAt": "150500Z",
      "visibility_m": 10000,
      "taf_visibility_m": 6000,
      "worst_visibility_m": 6000,
      "ceiling_ft": null,
      "hazards": [],
      "severityScore": 0,
      "metarRaw": "METAR HEMA 150500Z 32018KT CAVOK 17/06 Q1021 NOSIG",
      "tafRaw": "TAF HEMA 150500Z 1506/1612 33010G20KT 6000 FEW025"
    },
    {
      "icao": "HESH",
      "iata": "SSH",
      "name": "Sharm El Sheikh International Airport",
      "updatedAt": "150500Z",
      "visibility_m": 10000,
      "taf_visibility_m": 10000,
      "worst_visibility_m": 10000,
      "ceiling_ft": null,
      "hazards": [],
      "severityScore": 0,
      "metarRaw": "METAR HESH 150500Z 34013KT CAVOK 16/03 Q1023 NOSIG",
      "tafRaw": "TAF HESH 150500Z 1506/1612 35010KT CAVOK"
    },
    {
      "icao": "LATI",
      "iata": "TIA",
      "name": "Tirana International Airport Mother Teresa",
      "updatedAt": null,
      "visibility_m": null,
      "taf_visibility_m": 10000,
      "worst_visibility_m": 10000,
      "ceiling_ft": null,
      "hazards": [],
      "severityScore": 0,
      "metarRaw": null,
      "tafRaw": "TAF LATI 150500Z 1506/1606 VRB05KT CAVOK TX15/1512Z TN03/1506Z"
    },
    {
      "icao": "LCLK",
      "iata": "LCA",
      "name": "Larnaca International Airport",
      "updatedAt": "150530Z",
      "visibility_m": 10000,
      "taf_visibility_m": 10000,
      "worst_visibility_m": 10000,
      "ceiling_ft": null,
      "hazards": [],
      "severityScore": 0,
      "metarRaw": "METAR LCLK 150530Z 32005KT 9999 SCT050 06/04 Q1024 NOSIG",
      "tafRaw": "TAF LCLK 150530Z 1506/1606 32007KT 9999 FEW030 \n  BECMG 1507/1511 16010KT \n  BECMG 1514/1518 31006KT"
    },
    {
      "icao": "LCPH",
      "iata": "PFO",
      "name": "Paphos International Airport",
      "updatedAt": "150530Z",
      "visibility_m": 10000,
      "taf_visibility_m": 10000,
      "worst_visibility_m": 10000,
      "ceiling_ft": 4400,
      "hazards": [],
      "severityScore": 0,
      "metarRaw": "METAR LCPH 150530Z 02008KT 010V080 9999 BKN044 09/03 Q1024 NOSIG",
      "tafRaw": "TAF LCPH 150530Z 1506/1606 03007KT 9999 SCT030 \n  BECMG 1508/1512 29010KT \n  BECMG 1514/1518 02006KT"
    },
    {
      "icao": "LEVC",
      "iata": "VLC",
      "name": "Valencia Airport",
      "updatedAt": "150530Z",
      "visibility_m": 10000,
      "taf_visibility_m": 10000,
      "worst_visibility_m": 10000,
      "ceiling_ft": null,
      "hazards": [],
      "severityScore": 0,
      "metarRaw": "METAR LEVC 150530Z 29005KT CAVOK 04/03 Q1019 NOSIG",
      "tafRaw": "TAF LEVC 150500Z 1506/1606 VRB04KT CAVOK TX18/1512Z TN05/1506Z \n  TEMPO 1512/1520 20010KT"
    },
    {
      "icao": "LFLL",
      "iata": "LYS",
      "name": "Lyon Saint-Exupéry Airport",
      "updatedAt": "150530Z",
      "visibility_m": 10000,
      "taf_visibility_m": 10000,
      "worst_visibility_m": 10000,
      "ceiling_ft": 5000,
      "hazards": [],
      "severityScore": 0,
      "metarRaw": "METAR LFLL 150530Z 19015KT 9999 BKN050 11/06 Q1018 NOSIG",
      "tafRaw": "TAF LFLL 150500Z 1506/1612 19012KT CAVOK \n  BECMG 1510/1512 18018G30KT \n  BECMG 1602/1604 18008KT"
    },
    {
      "icao": "LFMN",
      "iata": "NCE",
      "name": "Nice-Côte d'Azur Airport",
      "updatedAt": "150530Z",
      "visibility_m": 10000,
      "taf_visibility_m": 10000,
      "worst_visibility_m": 10000,
      "ceiling_ft": null,
      "hazards": [],
      "severityScore": 0,
      "metarRaw": "METAR LFMN 150530Z 34009KT 9999 FEW033 09/04 Q1020 NOSIG",
      "tafRaw": "TAF LFMN 150200Z 1503/1609 34010KT CAVOK \n  BECMG 1512/1514 13005KT \n  BECMG 1517/1519 33010KT"
    },
    {
      "icao": "LFSB",
      "iata": "BSL",
      "name": "EuroAirport Basel–Mulhouse–Freiburg",
      "updatedAt": "150530Z",
      "visibility_m": 10000,
      "taf_visibility_m": 10000,
      "worst_visibility_m": 10000,
      "ceiling_ft": 4000,
      "hazards": [],
      "severityScore": 0,
      "metarRaw": "METAR LFSB 150530Z AUTO VRB02KT 9999 OVC034/// ///TCU 05/03 Q1017 BECMG OVC040",
      "tafRaw": "TAF LFSB 150500Z 1506/1606 18005KT 9999 OVC040 \n  PROB30 \n  TEMPO 1511/1518 12010KT"
    },
    {
      "icao": "LGAV",
      "iata": "ATH",
      "name": "Athens Eleftherios Venizelos International Airport",
      "updatedAt": "150520Z",
      "visibility_m": 10000,
      "taf_visibility_m": 10000,
      "worst_visibility_m": 10000,
      "ceiling_ft": null,
      "hazards": [],
      "severityScore": 0,
      "metarRaw": "METAR LGAV 150520Z 08006KT 9999 FEW035 05/02 Q1024 NOSIG",
      "tafRaw": "TAF LGAV 150500Z 1506/1606 VRB05KT 9999 FEW016 SCT025"
    },
    {
      "icao": "LICA",
      "iata": "SUF",
      "name": "Lamezia Terme Sant'Eufemia International Airport",
      "updatedAt": "150520Z",
      "visibility_m": 10000,
      "taf_visibility_m": 10000,
      "worst_visibility_m": 10000,
      "ceiling_ft": null,
      "hazards": [],
      "severityScore": 0,
      "metarRaw": "METAR LICA 150520Z AUTO 07006KT 9999 NCD 02/02 Q1024",
      "tafRaw": "TAF LICA 150500Z 1506/1606 VRB05KT CAVOK"
    },
    {
      "icao": "LICC",
      "iata": "CTA",
      "name": "Catania-Fontanarossa Airport",
      "updatedAt": "150520Z",
      "visibility_m": 10000,
      "taf_visibility_m": 10000,
      "worst_visibility_m": 10000,
      "ceiling_ft": 3500,
      "hazards": [],
      "severityScore": 0,
      "metarRaw": "METAR LICC 150520Z 21004KT 9999 BKN035 08/05 Q1023",
      "tafRaw": "TAF LICC 150500Z 1506/1606 25010KT 9999 FEW040 \n  BECMG 1512/1514 VRB05KT"
    },
    {
      "icao": "LICJ",
      "iata": "PMO",
      "name": "Falcone–Borsellino Airport",
      "updatedAt": "150520Z",
      "visibility_m": 10000,
      "taf_visibility_m": 10000,
      "worst_visibility_m": 10000,
      "ceiling_ft": null,
      "hazards": [],
      "severityScore": 0,
      "metarRaw": "METAR LICJ 150520Z 10003KT 060V140 CAVOK 10/06 Q1021",
      "tafRaw": "TAF LICJ 150500Z 1506/1606 VRB06KT CAVOK \n  BECMG 1510/1512 05010KT \n  BECMG 1516/1518 VRB05KT"
    },
    {
      "icao": "LIRF",
      "iata": "FCO",
      "name": "Rome–Fiumicino Leonardo da Vinci International Airport",
      "updatedAt": "150520Z",
      "visibility_m": 10000,
      "taf_visibility_m": 10000,
      "worst_visibility_m": 10000,
      "ceiling_ft": null,
      "hazards": [],
      "severityScore": 0,
      "metarRaw": "METAR LIRF 150520Z 09006KT 9999 SCT055 12/07 Q1022 NOSIG",
      "tafRaw": "TAF LIRF 150500Z 1506/1612 09007KT 9999 SCT050 \n  BECMG 1510/1512 15012KT \n  BECMG 1519/1521 08007KT"
    },
    {
      "icao": "LIRN",
      "iata": "NAP",
      "name": "Naples International Airport",
      "updatedAt": "150520Z",
      "visibility_m": 10000,
      "taf_visibility_m": 10000,
      "worst_visibility_m": 10000,
      "ceiling_ft": null,
      "hazards": [],
      "severityScore": 0,
      "metarRaw": "METAR LIRN 150520Z 01003KT CAVOK 07/05 Q1023 NOSIG",
      "tafRaw": "TAF LIRN 150500Z 1506/1606 VRB05KT 9999 SCT040"
    },
    {
      "icao": "LIRZ",
      "iata": "PEG",
      "name": "Perugia San Francesco d'Assisi – Umbria International Airport",
      "updatedAt": "150520Z",
      "visibility_m": 10000,
      "taf_visibility_m": 10000,
      "worst_visibility_m": 10000,
      "ceiling_ft": 4000,
      "hazards": [],
      "severityScore": 0,
      "metarRaw": "METAR LIRZ 150520Z AUTO 04005KT 9999 OVC056/// 09/07 Q1022",
      "tafRaw": "TAF LIRZ 150500Z 1506/1606 VRB05KT 9999 BKN040"
    },
    {
      "icao": "LLBG",
      "iata": "TLV",
      "name": "Ben Gurion International Airport",
      "updatedAt": "150520Z",
      "visibility_m": 10000,
      "taf_visibility_m": 10000,
      "worst_visibility_m": 10000,
      "ceiling_ft": 3500,
      "hazards": [],
      "severityScore": 0,
      "metarRaw": "METAR LLBG 150520Z VRB02KT 9999 SCT045 10/07 Q1024 NOSIG",
      "tafRaw": "TAF LLBG 150501Z 1506/1606 VRB04KT 9999 FEW045 \n  PROB40 \n  TEMPO 1506/1509 12005KT BKN040 \n  BECMG 1509/1511 32010KT \n  BECMG 1515/1517 VRB04KT SCT040 \n  TEMPO 1520/1606 16007KT BKN035 TX18/1512Z TN11/1604Z"
    },
    {
      "icao": "LMML",
      "iata": "MLA",
      "name": "Malta International Airport",
      "updatedAt": "150545Z",
      "visibility_m": 10000,
      "taf_visibility_m": 10000,
      "worst_visibility_m": 10000,
      "ceiling_ft": 2000,
      "hazards": [],
      "severityScore": 0,
      "metarRaw": "METAR LMML 150545Z 14008KT 9999 BKN020 15/12 Q1022 NOSIG",
      "tafRaw": "TAF LMML 150500Z 1506/1606 15010KT 9999 FEW020"
    },
    {
      "icao": "LQBK",
      "iata": "BNX",
      "name": "Banja Luka International Airport",
      "updatedAt": "150530Z",
      "visibility_m": 10000,
      "taf_visibility_m": 10000,
      "worst_visibility_m": 10000,
      "ceiling_ft": null,
      "hazards": [],
      "severityScore": 0,
      "metarRaw": "METAR LQBK 150530Z VRB02KT CAVOK 04/03 Q1021 NOSIG",
      "tafRaw": "TAF LQBK 150500Z 1506/1606 15006KT 9999 SCT040 TX10/1513Z TN02/1605Z"
    },
    {
      "icao": "OEJN",
      "iata": "JED",
      "name": "King Abdulaziz International Airport",
      "updatedAt": "150500Z",
      "visibility_m": 10000,
      "taf_visibility_m": 7000,
      "worst_visibility_m": 7000,
      "ceiling_ft": null,
      "hazards": [],
      "severityScore": 0,
      "metarRaw": "METAR OEJN 150500Z 36006KT CAVOK 20/09 Q1016 NOSIG",
      "tafRaw": "TAF OEJN 150500Z 1506/1612 33010KT CAVOK \n  BECMG 1518/1520 08012KT 7000 NSC \n  BECMG 1608/1610 29010KT"
    },
    {
      "icao": "OEMA",
      "iata": "MED",
      "name": "Prince Mohammad Bin Abdulaziz Airport",
      "updatedAt": "150500Z",
      "visibility_m": 10000,
      "taf_visibility_m": 3000,
      "worst_visibility_m": 3000,
      "ceiling_ft": null,
      "hazards": [],
      "severityScore": 0,
      "metarRaw": "METAR OEMA 150500Z 06004KT CAVOK 13/M03 Q1023 NOSIG",
      "tafRaw": "TAF OEMA 150500Z 1506/1612 08015KT 7000 NSC \n  PROB40 \n  TEMPO 1506/1512 3000 BLDU \n  BECMG 1600/1602 09005KT CAVOK"
    },
    {
      "icao": "OMAA",
      "iata": "AUH",
      "name": "Zayed International Airport",
      "updatedAt": "150500Z",
      "visibility_m": 10000,
      "taf_visibility_m": 8000,
      "worst_visibility_m": 8000,
      "ceiling_ft": null,
      "hazards": [],
      "severityScore": 0,
      "metarRaw": "METAR OMAA 150500Z 15003KT CAVOK 20/06 Q1017 NOSIG",
      "tafRaw": "TAF OMAA 150500Z 1506/1612 VRB02KT 8000 FEW045 \n  BECMG 1508/1510 32013KT"
    },
    {
      "icao": "OMDB",
      "iata": "DXB",
      "name": "Dubai International Airport",
      "updatedAt": "150530Z",
      "visibility_m": 10000,
      "taf_visibility_m": 8000,
      "worst_visibility_m": 8000,
      "ceiling_ft": null,
      "hazards": [],
      "severityScore": 0,
      "metarRaw": "METAR OMDB 150530Z 17005KT CAVOK 22/06 Q1018 NOSIG",
      "tafRaw": "TAF OMDB 150500Z 1506/1612 19005KT 8000 NSC \n  BECMG 1507/1509 28013KT \n  PROB30 \n  TEMPO 1606/1612 29018G28KT"
    },
    {
      "icao": "UBBB",
      "iata": "GYD",
      "name": "Heydar Aliyev International Airport",
      "updatedAt": "150530Z",
      "visibility_m": 10000,
      "taf_visibility_m": 10000,
      "worst_visibility_m": 10000,
      "ceiling_ft": 2400,
      "hazards": [],
      "severityScore": 0,
      "metarRaw": "METAR UBBB 150530Z 32010KT 9999 OVC024 04/M00 Q1024 NOSIG",
      "tafRaw": "TAF UBBB 150500Z 1506/1606 33012KT 9999 BKN020 TX06/1510Z TN01/1601Z \n  TEMPO 1506/1512 01022KT SCT010 \n  BECMG 1513/1515 VRB04KT \n  TEMPO 1518/1601 23005KT BKN006 \n  BECMG 1601/1603 19005KT"
    }
  ],
  "stats": {
    "icaoCount": 159,
    "metarReturned": 155,
    "tafReturned": 155,
    "stationsWritten": 159,
    "missingMetar": 4,
    "missingTaf": 4
  },
  "errors": []
}