{
  "generatedAt": "2026-01-24T20:12:54.973Z",
  "stations": [
    {
      "icao": "EDDS",
      "iata": "STR",
      "name": "Stuttgart Airport",
      "lat": 48.689899,
      "lon": 9.22196,
      "updatedAt": "241950Z",
      "visibility_m": 3500,
      "taf_visibility_m": 500,
      "worst_visibility_m": 500,
      "ceiling_ft": 100,
      "hazards": [
        "BR",
        "FZFG",
        "SN",
        "FG"
      ],
      "severityScore": 100,
      "metarRaw": "METAR EDDS 241950Z AUTO 00000KT 5000 BR NSC M03/M03 Q1000 BECMG 3500",
      "tafRaw": "TAF EDDS 241700Z 2418/2518 05004KT 8000 NSC \n  TEMPO 2420/2510 2500 BR BKN008 \n  PROB40 \n  TEMPO 2422/2508 0500 FZFG VV001 \n  TEMPO 2510/2518 SCT008 BKN010 \n  PROB30 \n  TEMPO 2515/2518 4000 -SN BKN005"
    },
    {
      "icao": "EDJA",
      "iata": "FMM",
      "name": "Memmingen Allgau Airport",
      "lat": 47.988092,
      "lon": 10.238248,
      "updatedAt": "241950Z",
      "visibility_m": 700,
      "taf_visibility_m": 800,
      "worst_visibility_m": 700,
      "ceiling_ft": 100,
      "hazards": [
        "FZFG",
        "FG",
        "BR"
      ],
      "severityScore": 100,
      "metarRaw": "METAR EDJA 241950Z 05006KT 0750 0700 R06/0900D FZFG VV/// M02/M02 Q1000",
      "tafRaw": "TAF EDJA 241700Z 2418/2503 04006KT 3500 BR BKN004 \n  BECMG 2420/2422 0800 FZFG OVC001"
    },
    {
      "icao": "EDNY",
      "iata": "FDH",
      "name": "Bodensee Airport Friedrichshafen",
      "lat": 47.671299,
      "lon": 9.51149,
      "updatedAt": "241950Z",
      "visibility_m": 7000,
      "taf_visibility_m": 800,
      "worst_visibility_m": 800,
      "ceiling_ft": 900,
      "hazards": [
        "FZFG",
        "BR",
        "FG"
      ],
      "severityScore": 100,
      "metarRaw": "METAR EDNY 241950Z 03004KT 350V060 7000 OVC009 01/00 Q1000",
      "tafRaw": "TAF EDNY 241700Z 2418/2503 03005KT 6000 SCT008 \n  BECMG 2418/2421 2000 BR BKN004 \n  TEMPO 2421/2503 0800 FZFG OVC001"
    },
    {
      "icao": "EPKK",
      "iata": "KRK",
      "name": "Kraków John Paul II International Airport",
      "lat": 50.077702,
      "lon": 19.7848,
      "updatedAt": "242000Z",
      "visibility_m": 3000,
      "taf_visibility_m": 800,
      "worst_visibility_m": 800,
      "ceiling_ft": 500,
      "hazards": [
        "BR",
        "FZFG",
        "FZRA",
        "RA",
        "FZDZ",
        "FG",
        "DZ"
      ],
      "severityScore": 100,
      "metarRaw": "METAR EPKK 242000Z 06007KT 3000 BR OVC005 M02/M03 Q1008",
      "tafRaw": "TAF EPKK 241730Z 2418/2518 06008KT 2500 BR OVC006 \n  TEMPO 2418/2508 0800 -FZDZ -SG FZFG OVC002 \n  PROB40 2503/2508 FZRA \n  TEMPO 2516/2518 2500 RA"
    },
    {
      "icao": "EPKT",
      "iata": "KTW",
      "name": "Katowice Wojciech Korfanty International Airport",
      "lat": 50.476015,
      "lon": 19.080705,
      "updatedAt": "242000Z",
      "visibility_m": 4800,
      "taf_visibility_m": 1400,
      "worst_visibility_m": 1400,
      "ceiling_ft": 1800,
      "hazards": [
        "BR",
        "FZRA",
        "SN",
        "RA",
        "FZDZ",
        "DZ"
      ],
      "severityScore": 100,
      "metarRaw": "METAR EPKT 242000Z 07006KT 4800 BR SCT009 BKN018 M02/M04 Q1007",
      "tafRaw": "TAF EPKT 241730Z 2418/2518 09006KT 4000 -SN BR BKN006 \n  TEMPO 2418/2424 2500 FZDZ \n  TEMPO 2500/2506 1400 FZRA BR \n  BECMG 2506/2509 6000 BKN020 \n  TEMPO 2516/2518 2500 RA BR"
    },
    {
      "icao": "EPMO",
      "iata": "WMI",
      "name": "Modlin Airport",
      "lat": 52.451099,
      "lon": 20.6518,
      "updatedAt": "242000Z",
      "visibility_m": 9000,
      "taf_visibility_m": 1500,
      "worst_visibility_m": 1500,
      "ceiling_ft": 1900,
      "hazards": [
        "SN",
        "BR",
        "FZRA",
        "FZDZ",
        "RA",
        "DZ"
      ],
      "severityScore": 100,
      "metarRaw": "METAR EPMO 242000Z 08013KT 9000 -SN OVC019 M06/M07 Q1012",
      "tafRaw": "TAF EPMO 241730Z 2418/2518 08012KT 8000 BKN022 \n  TEMPO 2418/2508 4500 -SN BR BKN007 BKN012 \n  BECMG 2508/2511 3000 -SNRA BR BKN010 \n  TEMPO 2508/2515 1500 -SNRA -FZRA BR OVC005 \n  BECMG 2514/2516 6000 \n  PROB40 \n  TEMPO 2515/2518 -FZDZ OVC005"
    },
    {
      "icao": "EPRZ",
      "iata": "RZE",
      "name": "Rzeszów-Jasionka Airport",
      "lat": 50.109791,
      "lon": 22.024155,
      "updatedAt": "242000Z",
      "visibility_m": 5000,
      "taf_visibility_m": 2000,
      "worst_visibility_m": 2000,
      "ceiling_ft": 500,
      "hazards": [
        "BR",
        "FZRA",
        "FZDZ",
        "RA",
        "DZ"
      ],
      "severityScore": 100,
      "metarRaw": "METAR EPRZ 242000Z 09010KT 5000 BR OVC005 M01/M02 Q1009",
      "tafRaw": "TAF EPRZ 241730Z 2418/2518 09008KT 6000 OVC006 \n  TEMPO 2418/2504 4000 -FZDZ BR OVC004 \n  TEMPO 2504/2508 2000 FZRA BR BKN004"
    },
    {
      "icao": "EPWA",
      "iata": "WAW",
      "name": "Warsaw Chopin Airport",
      "lat": 52.165699,
      "lon": 20.9671,
      "updatedAt": "242000Z",
      "visibility_m": 9000,
      "taf_visibility_m": 1500,
      "worst_visibility_m": 1500,
      "ceiling_ft": 1500,
      "hazards": [
        "SN",
        "BR",
        "FZRA",
        "FZDZ",
        "RA",
        "DZ"
      ],
      "severityScore": 100,
      "metarRaw": "METAR EPWA 242000Z 08009KT 9000 -SN BKN015 BKN030 M05/M07 Q1012 NOSIG",
      "tafRaw": "TAF EPWA 241730Z 2418/2518 08010KT 9000 BKN023 \n  TEMPO 2418/2508 4000 -SN BR BKN007 BKN012 \n  BECMG 2508/2511 3000 -SNRA BR BKN010 \n  TEMPO 2508/2514 1500 -SNRA -FZRA BR OVC005 \n  BECMG 2513/2515 6000 \n  PROB40 \n  TEMPO 2514/2518 -FZDZ OVC005"
    },
    {
      "icao": "EPWR",
      "iata": "WRO",
      "name": "Copernicus Wrocław Airport",
      "lat": 51.103719,
      "lon": 16.882096,
      "updatedAt": "242000Z",
      "visibility_m": 5000,
      "taf_visibility_m": 1400,
      "worst_visibility_m": 1400,
      "ceiling_ft": 1100,
      "hazards": [
        "BR",
        "FZRA",
        "SN",
        "FZDZ",
        "RA",
        "DZ"
      ],
      "severityScore": 100,
      "metarRaw": "METAR EPWR 242000Z 09007KT 5000 BR OVC011 M02/M04 Q1008",
      "tafRaw": "TAF EPWR 241730Z 2418/2518 08007KT 5000 BR OVC010 \n  BECMG 2418/2421 4500 -SN BR OVC006 \n  PROB40 \n  TEMPO 2418/2508 -FZRA -FZDZ \n  TEMPO 2423/2508 1400 SN BR OVC002 \n  BECMG 2508/2511 7000 BKN015"
    },
    {
      "icao": "LBPD",
      "iata": "PDV",
      "name": "Plovdiv International Airport",
      "lat": 42.067799,
      "lon": 24.8508,
      "updatedAt": "242000Z",
      "visibility_m": 5000,
      "taf_visibility_m": 300,
      "worst_visibility_m": 300,
      "ceiling_ft": 100,
      "hazards": [
        "BR",
        "FZFG",
        "FG"
      ],
      "severityScore": 100,
      "metarRaw": "METAR LBPD 242000Z AUTO 28003KT 5000 BR BKN008/// OVC013/// 02/02 Q1016 NOSIG",
      "tafRaw": "TAF LBPD 241700Z 2418/2518 VRB03KT 5000 BR SCT005 BKN010 \n  BECMG 2420/2421 2000 BR BKN005 \n  BECMG 2421/2423 0800 FG VV002 \n  PROB30 \n  TEMPO 2501/2506 0300 FZFG VV001 \n  BECMG 2508/2510 3000 BR SCT004 BKN007 \n  BECMG 2510/2512 6000 NSW SCT006 BKN010"
    },
    {
      "icao": "LBSF",
      "iata": "SOF",
      "name": "Sofia Airport",
      "lat": 42.696357,
      "lon": 23.417671,
      "updatedAt": "242000Z",
      "visibility_m": 1900,
      "taf_visibility_m": 300,
      "worst_visibility_m": 300,
      "ceiling_ft": 100,
      "hazards": [
        "BR",
        "FZRA",
        "RA",
        "FZFG",
        "FG"
      ],
      "severityScore": 100,
      "metarRaw": "METAR LBSF 242000Z AUTO 00000KT 1900 0600W BR BKN002/// OVC087/// M01/M01 Q1013 REFZRA NOSIG",
      "tafRaw": "TAF LBSF 241700Z 2418/2518 VRB03KT 1500 BR SCT002 BKN004 \n  BECMG 2418/2420 0800 FZFG BKN002 \n  BECMG 2420/2422 0300 FZFG VV001 \n  BECMG 2508/2510 3000 BR BKN005 \n  BECMG 2510/2512 10010KT 9999 NSW SCT030"
    },
    {
      "icao": "LBWN",
      "iata": "VAR",
      "name": "Varna Airport",
      "lat": 43.232101,
      "lon": 27.8251,
      "updatedAt": "242000Z",
      "visibility_m": 5000,
      "taf_visibility_m": 400,
      "worst_visibility_m": 400,
      "ceiling_ft": 100,
      "hazards": [
        "BR",
        "FG"
      ],
      "severityScore": 100,
      "metarRaw": "METAR LBWN 242000Z AUTO 12006KT 8000 OVC007/// 06/06 Q1015 TEMPO 5000 BR",
      "tafRaw": "TAF LBWN 241700Z 2418/2518 VRB03KT 3000 BR OVC003 \n  BECMG 2418/2420 0400 FG VV001 \n  BECMG 2508/2510 2000 BR SCT003 BKN010 \n  BECMG 2510/2512 14010KT 6000 NSW BKN020 \n  BECMG 2516/2518 VRB03KT 2000 BR BKN005"
    },
    {
      "icao": "LEMD",
      "iata": "MAD",
      "name": "Adolfo Suárez Madrid–Barajas Airport",
      "lat": 40.471926,
      "lon": -3.56264,
      "updatedAt": "242000Z",
      "visibility_m": 10000,
      "taf_visibility_m": 400,
      "worst_visibility_m": 400,
      "ceiling_ft": 200,
      "hazards": [
        "FG",
        "BR",
        "RA",
        "DZ"
      ],
      "severityScore": 100,
      "metarRaw": "METAR LEMD 242000Z 27011G21KT 240V300 9999 SCT050 06/M00 Q1008 NOSIG",
      "tafRaw": "TAF LEMD 241700Z 2418/2524 23010KT 9999 FEW030 TX10/2516Z TN02/2504Z \n  TEMPO 2418/2421 24015G25KT \n  TEMPO 2502/2511 4000 BR BKN010 \n  PROB40 \n  TEMPO 2504/2509 DZRA BKN004 \n  PROB30 \n  TEMPO 2505/2509 0400 FG VV002 \n  TEMPO 2508/2517 24016G30KT"
    },
    {
      "icao": "LFBD",
      "iata": "BOD",
      "name": "Bordeaux–Mérignac Airport",
      "lat": 44.82865,
      "lon": -0.715356,
      "updatedAt": "242000Z",
      "visibility_m": 3000,
      "taf_visibility_m": 2000,
      "worst_visibility_m": 2000,
      "ceiling_ft": 700,
      "hazards": [
        "SHRA",
        "RA",
        "TSRA",
        "TS"
      ],
      "severityScore": 100,
      "metarRaw": "METAR LFBD 242000Z AUTO 20006KT 9999 SCT024/// SCT033/// BKN043/// ///TCU 07/06 Q1000 TEMPO 24015G25KT 3000 SHRA BKN007 BKN020TCU SCT025CB",
      "tafRaw": "TAF LFBD 241700Z 2418/2524 22008KT 9999 BKN030 TX09/2514Z TN05/2505Z \n  TEMPO 2418/2424 24015G25KT 3000 SHRA BKN007 BKN020TCU SCT025CB \n  TEMPO 2504/2512 23015G25KT 4000 SHRA BKN020TCU SCT025CB \n  PROB30 2506/2512 24020G30KT 2000 TSRA BKN010 BKN025CB \n  BECMG 2512/2514 28010KT \n  PROB40 \n  TEMPO 2512/2524 30015G25KT 4000 SHRA BKN020TCU SCT030CB"
    },
    {
      "icao": "LFLL",
      "iata": "LYS",
      "name": "Lyon Saint-Exupéry Airport",
      "lat": 45.725996,
      "lon": 5.090139,
      "updatedAt": "242000Z",
      "visibility_m": 800,
      "taf_visibility_m": 400,
      "worst_visibility_m": 400,
      "ceiling_ft": 300,
      "hazards": [
        "FG",
        "BR",
        "RA"
      ],
      "severityScore": 100,
      "metarRaw": "METAR LFLL 242000Z 00000KT 0800 R35L/1200N R17R/1200U R35R/1200U R17L/1300U FG VV/// 02/02 Q1000 NOSIG",
      "tafRaw": "TAF LFLL 241700Z 2418/2524 VRB02KT 0400 FG VV/// \n  TEMPO 2418/2421 3000 BR BKN003 \n  BECMG 2505/2507 15007KT 9999 NSW SCT025 \n  TEMPO 2515/2517 RA BKN030 \n  BECMG 2522/2524 VRB02KT"
    },
    {
      "icao": "LHBP",
      "iata": "BUD",
      "name": "Budapest Liszt Ferenc International Airport",
      "lat": 47.43018,
      "lon": 19.262393,
      "updatedAt": "242000Z",
      "visibility_m": 5000,
      "taf_visibility_m": 1200,
      "worst_visibility_m": 1200,
      "ceiling_ft": 400,
      "hazards": [
        "BR",
        "RA",
        "FZRA",
        "SHRA",
        "FG"
      ],
      "severityScore": 100,
      "metarRaw": "METAR LHBP 242000Z 02004KT 7000 NSC 02/01 Q1008 BECMG 5000 -RA BR",
      "tafRaw": "TAF LHBP 241715Z 2418/2518 07006KT 5000 BR SCT008 BKN050 \n  TEMPO 2420/2507 VRB03KT 1200 -RA BCFG BR OVC004 \n  PROB40 \n  TEMPO 2500/2507 -FZRA \n  TEMPO 2507/2512 BKN005 \n  BECMG 2509/2512 07012KT 7000 NSW \n  TEMPO 2514/2518 09015KT 5000 RA SHRA BKN012 OVC030"
    },
    {
      "icao": "LIMC",
      "iata": "MXP",
      "name": "Milan Malpensa International Airport",
      "lat": 45.6306,
      "lon": 8.72811,
      "updatedAt": "241950Z",
      "visibility_m": 800,
      "taf_visibility_m": 2000,
      "worst_visibility_m": 800,
      "ceiling_ft": 200,
      "hazards": [
        "RA",
        "FG",
        "BR"
      ],
      "severityScore": 100,
      "metarRaw": "METAR LIMC 241950Z 27004KT 240V300 0800 R35R/P2000N R17L/P2000N R35L/P2000N -RA BCFG BKN002 BKN025 05/05 Q1003 BECMG 1600 RA",
      "tafRaw": "TAF LIMC 241700Z 2418/2524 VRB05KT 4000 BR SCT005 BKN030 \n  BECMG 2419/2421 2000 RA BKN010 \n  BECMG 2507/2509 6000 NSW BKN020 \n  BECMG 2518/2520 2000 BCFG"
    },
    {
      "icao": "LKMT",
      "iata": "OSR",
      "name": "Leoš Janáček Airport Ostrava",
      "lat": 49.696301,
      "lon": 18.111099,
      "updatedAt": "242000Z",
      "visibility_m": 1100,
      "taf_visibility_m": 800,
      "worst_visibility_m": 800,
      "ceiling_ft": 300,
      "hazards": [
        "BR",
        "FZDZ",
        "DZ",
        "FZFG",
        "RA",
        "FG"
      ],
      "severityScore": 100,
      "metarRaw": "METAR LKMT 242000Z 02004KT 1100 R22/P2000N R04/P2000N BR OVC003 M01/M01 Q1007 TEMPO FZDZ",
      "tafRaw": "TAF LKMT 241700Z 2418/2518 02004KT 0800 -FZDZ FZFG OVC003 \n  TEMPO 2418/2505 1200 BR OVC010 \n  BECMG 2509/2511 4000 BR \n  BECMG 2515/2517 5000 -RA OVC016"
    },
    {
      "icao": "LOWW",
      "iata": "VIE",
      "name": "Vienna International Airport",
      "lat": 48.110298,
      "lon": 16.5697,
      "updatedAt": "241950Z",
      "visibility_m": 3500,
      "taf_visibility_m": 400,
      "worst_visibility_m": 400,
      "ceiling_ft": 1100,
      "hazards": [
        "BR",
        "FZRA",
        "FZDZ",
        "RA",
        "DZ",
        "FG"
      ],
      "severityScore": 100,
      "metarRaw": "METAR LOWW 241950Z 13007KT 3500 -FZRA BR SCT003 BKN011 M01/M02 Q1006 REFZRA REFZDZ TEMPO 5000 BR",
      "tafRaw": "TAF LOWW 241715Z 2418/2524 VRB03KT 5000 BR FEW003 OVC005 TX02/2514Z TNM01/2418Z \n  PROB40 \n  TEMPO 2418/2422 1200 -FZRA BR BKN002 \n  BECMG 2423/2501 0800 FG VV002 \n  PROB30 \n  TEMPO 2503/2508 0400 VV001 \n  BECMG 2507/2509 13008KT \n  BECMG 2509/2511 1500 BR \n  TEMPO 2512/2516 4000 -RA BR OVC005 \n  TEMPO 2516/2520 RA OVC003"
    },
    {
      "icao": "LQBK",
      "iata": "BNX",
      "name": "Banja Luka International Airport",
      "lat": 44.941399,
      "lon": 17.297501,
      "updatedAt": "242000Z",
      "visibility_m": 300,
      "taf_visibility_m": null,
      "worst_visibility_m": 300,
      "ceiling_ft": 300,
      "hazards": [
        "FG"
      ],
      "severityScore": 100,
      "metarRaw": "METAR LQBK 242000Z VRB02KT 0300 R16/0375N FG VV003 00/00 Q1006 NOSIG",
      "tafRaw": null
    },
    {
      "icao": "LRIA",
      "iata": "IAS",
      "name": "Iaşi Airport",
      "lat": 47.180278,
      "lon": 27.620833,
      "updatedAt": "242000Z",
      "visibility_m": 1100,
      "taf_visibility_m": 600,
      "worst_visibility_m": 600,
      "ceiling_ft": 100,
      "hazards": [
        "BR",
        "FZFG",
        "FG"
      ],
      "severityScore": 100,
      "metarRaw": "METAR LRIA 242000Z 11013KT 1100 R14/P2000N BR OVC001 M03/M04 Q1015",
      "tafRaw": "TAF LRIA 241700Z 2418/2503 12012KT 9999 OVC010 \n  BECMG 2420/2422 3000 BR OVC005 \n  TEMPO 2423/2503 0600 FZFG OVC002"
    },
    {
      "icao": "LRBC",
      "iata": "BCM",
      "name": "Bacău George Enescu International  Airport",
      "lat": 46.5219,
      "lon": 26.910299,
      "updatedAt": "242000Z",
      "visibility_m": 700,
      "taf_visibility_m": null,
      "worst_visibility_m": 700,
      "ceiling_ft": 100,
      "hazards": [
        "FG",
        "FZDZ",
        "DZ"
      ],
      "severityScore": 100,
      "metarRaw": "METAR LRBC 242000Z 16009KT 0700 R16/P2000 -FZDZ FG OVC001 M01/M01 Q1014",
      "tafRaw": null
    },
    {
      "icao": "LRCL",
      "iata": "CLJ",
      "name": "Cluj Avram Iancu International Airport",
      "lat": 46.787425,
      "lon": 23.684292,
      "updatedAt": "242000Z",
      "visibility_m": 3000,
      "taf_visibility_m": 600,
      "worst_visibility_m": 600,
      "ceiling_ft": 200,
      "hazards": [
        "BR",
        "FZFG",
        "FG"
      ],
      "severityScore": 100,
      "metarRaw": "METAR LRCL 242000Z 00000KT 3000 BR NSC M01/M02 Q1010",
      "tafRaw": "TAF LRCL 241700Z 2418/2503 VRB04KT 3000 BR NSC \n  BECMG 2419/2421 1500 BR BKN005 \n  PROB30 \n  TEMPO 2423/2503 0600 FZFG OVC002"
    },
    {
      "icao": "LRCV",
      "iata": "CRA",
      "name": "Craiova International Airport",
      "lat": 44.3181,
      "lon": 23.888599,
      "updatedAt": "242000Z",
      "visibility_m": 4500,
      "taf_visibility_m": 300,
      "worst_visibility_m": 300,
      "ceiling_ft": 200,
      "hazards": [
        "BR",
        "FZFG",
        "FG"
      ],
      "severityScore": 100,
      "metarRaw": "METAR LRCV 242000Z 17004KT 4500 BR BKN002 OVC004 M00/M00 Q1015",
      "tafRaw": "TAF LRCV 241700Z 2418/2503 VRB04KT 1500 BR OVC002 \n  BECMG 2418/2420 0600 FZFG \n  TEMPO 2421/2503 0300 FZFG OVC001"
    },
    {
      "icao": "LROP",
      "iata": "OTP",
      "name": "Bucharest Henri Coandă International Airport",
      "lat": 44.571792,
      "lon": 26.103285,
      "updatedAt": "242000Z",
      "visibility_m": 1500,
      "taf_visibility_m": 300,
      "worst_visibility_m": 300,
      "ceiling_ft": 100,
      "hazards": [
        "BR",
        "FZDZ",
        "DZ",
        "FZFG",
        "FG"
      ],
      "severityScore": 100,
      "metarRaw": "METAR LROP 242000Z 34006KT 2000 -FZDZ BR BKN001 OVC002 M00/M00 Q1015 TEMPO 1500 -FZDZ BR",
      "tafRaw": "TAF LROP 241700Z 2418/2518 VRB04KT 1500 BR OVC002 \n  BECMG 2418/2420 0600 FZFG OVC001 \n  BECMG 2421/2423 0300 FZFG VV001 \n  BECMG 2505/2507 0800 OVC002 \n  BECMG 2507/2509 1500 BR BKN005 \n  BECMG 2509/2510 5000 BKN010 \n  BECMG 2515/2517 1500 BR BKN005"
    },
    {
      "icao": "LRSV",
      "iata": "SCV",
      "name": "Suceava Stefan cel Mare Airport",
      "lat": 47.6875,
      "lon": 26.35409927368164,
      "updatedAt": "242000Z",
      "visibility_m": 150,
      "taf_visibility_m": 300,
      "worst_visibility_m": 150,
      "ceiling_ft": 100,
      "hazards": [
        "FZFG",
        "FG",
        "FZRA",
        "RA"
      ],
      "severityScore": 100,
      "metarRaw": "METAR LRSV 242000Z 15009KT 0150 R34/0500N FZFG VV001 M03/M03 Q1011",
      "tafRaw": "TAF LRSV 241700Z 2418/2503 14010KT 0300 FZFG OVC001 \n  PROB40 \n  TEMPO 2418/2420 0800 -FZRA FZFG OVC002"
    },
    {
      "icao": "LRTM",
      "iata": "TGM",
      "name": "Târgu Mureş Transilvania International Airport",
      "lat": 46.467701,
      "lon": 24.4125,
      "updatedAt": "242000Z",
      "visibility_m": 2600,
      "taf_visibility_m": 300,
      "worst_visibility_m": 300,
      "ceiling_ft": 100,
      "hazards": [
        "BR",
        "FG"
      ],
      "severityScore": 100,
      "metarRaw": "METAR LRTM 242000Z AUTO 09001KT 2600 BR NCD M03/M04 Q1010",
      "tafRaw": "TAF LRTM 241400Z 2415/2424 VRB04KT CAVOK \n  BECMG 2416/2418 3000 BR \n  BECMG 2418/2420 0800 FG BKN002 \n  TEMPO 2420/2424 0300 FG VV001"
    },
    {
      "icao": "LUKK",
      "iata": "RMO",
      "name": "Chişinău International Airport",
      "lat": 46.9277,
      "lon": 28.931,
      "updatedAt": "242000Z",
      "visibility_m": 1500,
      "taf_visibility_m": 500,
      "worst_visibility_m": 500,
      "ceiling_ft": 300,
      "hazards": [
        "BR",
        "SN",
        "FZFG",
        "FZRA",
        "FZDZ",
        "FG",
        "RA",
        "DZ"
      ],
      "severityScore": 100,
      "metarRaw": "METAR LUKK 242000Z 11005KT 3900 -SN BR OVC004 M04/M04 Q1017 TEMPO 1500 -SN BR OVC003",
      "tafRaw": "TAF LUKK 241729Z 2418/2518 12008KT 4000 BR BKN007 OVC014 \n  TEMPO 2419/2421 1500 -SN BR BKN005 \n  BECMG 2420/2422 2500 OVC005 \n  TEMPO 2422/2505 0900 -FZDZ FZFG OVC003 \n  BECMG 2505/2507 1000 OVC003 \n  TEMPO 2505/2513 0500 -FZRA FZFG OVC001"
    },
    {
      "icao": "LYPG",
      "iata": "TGD",
      "name": "Podgorica Airport / Podgorica Golubovci Airbase",
      "lat": 42.359402,
      "lon": 19.2519,
      "updatedAt": "242000Z",
      "visibility_m": 5000,
      "taf_visibility_m": 500,
      "worst_visibility_m": 500,
      "ceiling_ft": 7000,
      "hazards": [
        "BR",
        "FG",
        "TSRA",
        "RA",
        "TS"
      ],
      "severityScore": 100,
      "metarRaw": "METAR LYPG 242000Z 31004KT 7000 FEW026 SCT050 OVC070 09/09 Q1011 TEMPO 5000 BR",
      "tafRaw": "TAF LYPG 241700Z 2418/2518 17005KT 7000 FEW010 BKN040 OVC070 TX13/2513Z TN07/2505Z \n  TEMPO 2418/2510 3000 RA BR \n  PROB40 \n  TEMPO 2420/2506 0500 FG \n  TEMPO 2514/2518 16015G25KT 2000 TSRA FEW007 SCT025CB BKN033"
    },
    {
      "icao": "LZIB",
      "iata": "BTS",
      "name": "M. R. Štefánik Airport",
      "lat": 48.1702,
      "lon": 17.2127,
      "updatedAt": "242000Z",
      "visibility_m": 2600,
      "taf_visibility_m": 500,
      "worst_visibility_m": 500,
      "ceiling_ft": 600,
      "hazards": [
        "BR",
        "RA",
        "FG",
        "DZ"
      ],
      "severityScore": 100,
      "metarRaw": "METAR LZIB 242000Z 04006KT 2600 -RA BR BKN006 BKN037 02/01 Q1006 NOSIG",
      "tafRaw": "TAF LZIB 241715Z 2418/2518 08005KT 3500 BR SCT004 BKN006 OVC014 \n  TEMPO 2418/2500 1500 -DZ BR BKN003 OVC005 \n  PROB40 \n  TEMPO 2420/2507 0500 FG VV001 \n  TEMPO 2512/2518 2000 -RA BR BKN005 OVC011 \n  TEMPO 2514/2518 12015G25KT"
    },
    {
      "icao": "UAAA",
      "iata": "ALA",
      "name": "Almaty International Airport",
      "lat": 43.354267,
      "lon": 77.042828,
      "updatedAt": "242000Z",
      "visibility_m": 5000,
      "taf_visibility_m": 250,
      "worst_visibility_m": 250,
      "ceiling_ft": 20000,
      "hazards": [
        "BR",
        "FZFG",
        "FG"
      ],
      "severityScore": 100,
      "metarRaw": "METAR UAAA 242000Z 00000MPS 5000 BR FU SCT100 OVC200 M07/M10 Q1017 NOSIG",
      "tafRaw": "TAF UAAA 241702Z 2418/2518 23003MPS 3100 BR FU SCT011 BKN020 TXM01/2508Z TNM12/2502Z \n  TEMPO 2418/2504 17002MPS 0250 FZFG VV002 \n  BECMG 2504/2505 BKN030CB OVC100 \n  TEMPO 2506/2512 6000 NSW \n  TEMPO 2512/2518 17003MPS 1200"
    },
    {
      "icao": "UDYZ",
      "iata": "EVN",
      "name": "Zvartnots International Airport",
      "lat": 40.148941,
      "lon": 44.397887,
      "updatedAt": "242000Z",
      "visibility_m": 1800,
      "taf_visibility_m": 600,
      "worst_visibility_m": 600,
      "ceiling_ft": 1100,
      "hazards": [
        "BR",
        "FZFG",
        "FG"
      ],
      "severityScore": 97,
      "metarRaw": "METAR UDYZ 242000Z 36002KT 1800 R08/P2000U BR BKN011 M03/M05 Q1021 NOSIG",
      "tafRaw": "TAF UDYZ 241700Z 2418/2518 VRB06KT 2000 BR SCT020 \n  TEMPO 2418/2506 0600 FZFG VV003"
    },
    {
      "icao": "UDSG",
      "iata": "LWN",
      "name": "Shirak International Airport",
      "lat": 40.750401,
      "lon": 43.859299,
      "updatedAt": "242000Z",
      "visibility_m": 1300,
      "taf_visibility_m": 400,
      "worst_visibility_m": 400,
      "ceiling_ft": 4000,
      "hazards": [
        "BR",
        "FZFG",
        "FG"
      ],
      "severityScore": 95,
      "metarRaw": "METAR UDSG 242000Z 20002KT 1300 R02/P2000U BR OVC040 M09/M10 Q1019 NOSIG",
      "tafRaw": "TAF UDSG 241700Z 2418/2518 VRB06KT 2000 BR BKN030 \n  TEMPO 2419/2507 0400 FZFG OVC003 \n  BECMG 2507/2509 5000 BR SCT040"
    },
    {
      "icao": "LIBR",
      "iata": "BDS",
      "name": "Brindisi Airport",
      "lat": 40.6576,
      "lon": 17.947001,
      "updatedAt": "241950Z",
      "visibility_m": 8000,
      "taf_visibility_m": 2500,
      "worst_visibility_m": 2500,
      "ceiling_ft": 1800,
      "hazards": [
        "BR",
        "TSRA",
        "DZ",
        "TS",
        "RA"
      ],
      "severityScore": 94,
      "metarRaw": "METAR LIBR 241950Z 19012KT 8000 BKN018 15/12 Q1009",
      "tafRaw": "TAF LIBR 241700Z 2418/2518 16010KT 7000 SCT015 \n  TEMPO 2423/2502 DZ \n  BECMG 2506/2508 15020G31KT \n  TEMPO 2514/2518 2500 TSRA \n  BECMG 2514/2516 26007KT"
    },
    {
      "icao": "EPRA",
      "iata": "RDO",
      "name": "Warsaw Radom Airport",
      "lat": 51.38937,
      "lon": 21.214742,
      "updatedAt": "242000Z",
      "visibility_m": 5000,
      "taf_visibility_m": 4000,
      "worst_visibility_m": 4000,
      "ceiling_ft": 600,
      "hazards": [
        "SN",
        "RA",
        "FZDZ",
        "DZ"
      ],
      "severityScore": 93,
      "metarRaw": "METAR EPRA 242000Z 07009KT 5000 -SN BKN006 OVC010 M05/M06 Q1010",
      "tafRaw": "TAF EPRA 241730Z 2418/2503 08010KT 8000 OVC012 \n  TEMPO 2418/2501 4000 -SN BKN006 OVC012 \n  PROB40 2501/2503 4000 -FZDZ OVC005"
    },
    {
      "icao": "LFSB",
      "iata": "BSL",
      "name": "EuroAirport Basel–Mulhouse–Freiburg",
      "lat": 47.60068,
      "lon": 7.521117,
      "updatedAt": "242000Z",
      "visibility_m": 300,
      "taf_visibility_m": null,
      "worst_visibility_m": 300,
      "ceiling_ft": 1500,
      "hazards": [
        "FG",
        "BR"
      ],
      "severityScore": 92,
      "metarRaw": "METAR LFSB 242000Z AUTO 36008KT 5000 BR SCT002 OVC015 02/02 Q1001 TEMPO 0300 FG VV///",
      "tafRaw": null
    },
    {
      "icao": "LEBB",
      "iata": "BIO",
      "name": "Bilbao Airport",
      "lat": 43.301102,
      "lon": -2.91061,
      "updatedAt": "242000Z",
      "visibility_m": 3000,
      "taf_visibility_m": 1500,
      "worst_visibility_m": 1500,
      "ceiling_ft": null,
      "hazards": [
        "SHRA",
        "RA",
        "TSRA",
        "TS"
      ],
      "severityScore": 86,
      "metarRaw": "METAR LEBB 242000Z 26009KT 210V300 9999 FEW032 SCT070 10/05 Q1005 TEMPO 3000 SHRA SCT025TCU",
      "tafRaw": "TAF LEBB 241700Z 2418/2518 29009KT 9999 FEW040 TX13/2512Z TN07/2423Z \n  TEMPO 2418/2422 28015G29KT 3000 SHRA SCT020TCU \n  PROB30 \n  TEMPO 2418/2422 20015G29KT 1500 TSRA SCT020CB \n  TEMPO 2501/2513 21019G33KT \n  TEMPO 2513/2518 28019G33KT 3000 SHRA SCT020TCU \n  PROB40 \n  TEMPO 2513/2518 28022G43KT TSRA SCT020CB"
    },
    {
      "icao": "LEXJ",
      "iata": "SDR",
      "name": "Seve Ballesteros-Santander Airport",
      "lat": 43.427101,
      "lon": -3.82001,
      "updatedAt": "242000Z",
      "visibility_m": 10000,
      "taf_visibility_m": 1500,
      "worst_visibility_m": 1500,
      "ceiling_ft": 5500,
      "hazards": [
        "TSRA",
        "SHRA",
        "TS",
        "RA"
      ],
      "severityScore": 86,
      "metarRaw": "METAR LEXJ 242000Z 28010KT 250V320 9999 FEW015 FEW030TCU BKN055 10/06 Q1005",
      "tafRaw": "TAF LEXJ 241400Z 2415/2515 24012KT 9999 SCT040 TX13/2514Z TN07/2422Z \n  TEMPO 2415/2420 27016G32KT \n  TEMPO 2415/2421 3000 SHRA FEW030TCU \n  PROB40 \n  TEMPO 2415/2421 1500 TSRA FEW030CB \n  TEMPO 2500/2509 20015G27KT \n  TEMPO 2509/2515 27022G43KT 3000 SHRA FEW030TCU"
    },
    {
      "icao": "LJLJ",
      "iata": "LJU",
      "name": "Ljubljana Jože Pučnik Airport",
      "lat": 46.223701,
      "lon": 14.4576,
      "updatedAt": "242000Z",
      "visibility_m": 1200,
      "taf_visibility_m": 1500,
      "worst_visibility_m": 1200,
      "ceiling_ft": 400,
      "hazards": [
        "BR",
        "RA",
        "SN"
      ],
      "severityScore": 85,
      "metarRaw": "METAR LJLJ 242000Z 20001KT 1200 R30/P2000N BR FEW001 BKN004 OVC040 01/01 Q1005 NOSIG",
      "tafRaw": "TAF LJLJ 241700Z 2418/2518 VRB02KT 6000 SCT003 OVC040 \n  TEMPO 2418/2506 1500 -RA BR BKN003 OVC040 \n  BECMG 2506/2508 RA \n  PROB40 \n  TEMPO 2510/2515 12010KT \n  PROB30 \n  TEMPO 2513/2516 1500 -RASN BKN003 OVC030 \n  BECMG 2516/2518 NSW"
    },
    {
      "icao": "EKBI",
      "iata": "BLL",
      "name": "Billund Airport",
      "lat": 55.740335,
      "lon": 9.157019,
      "updatedAt": "241950Z",
      "visibility_m": 10000,
      "taf_visibility_m": 4000,
      "worst_visibility_m": 4000,
      "ceiling_ft": 800,
      "hazards": [
        "SN",
        "FZDZ",
        "DZ"
      ],
      "severityScore": 81,
      "metarRaw": "METAR EKBI 241950Z AUTO 09014KT 9999 OVC015/// 01/M02 Q1010",
      "tafRaw": "TAF EKBI 241727Z 2418/2518 10010KT 9999 OVC010 \n  TEMPO 2418/2422 4000 -SG BKN008 \n  PROB40 2418/2422 -FZDZ \n  TEMPO 2422/2518 4000 -SN BKN008"
    },
    {
      "icao": "LTFM",
      "iata": "IST",
      "name": "İstanbul Airport",
      "lat": 41.261297,
      "lon": 28.741951,
      "updatedAt": "241950Z",
      "visibility_m": 7000,
      "taf_visibility_m": 700,
      "worst_visibility_m": 700,
      "ceiling_ft": 800,
      "hazards": [
        "FG",
        "BR"
      ],
      "severityScore": 80,
      "metarRaw": "METAR LTFM 241950Z 16005KT 7000 BKN008 BKN018 08/07 Q1016 NOSIG RMK RWY17L 13004KT RWY34L VRB03KT RWY16R 15005KT RWY36 15005KT 080V170 RWY18 14003KT",
      "tafRaw": "TAF LTFM 241640Z 2418/2524 VRB02KT 7000 BKN006 BKN022 \n  BECMG 2418/2421 2500 BR BKN004 BKN020 \n  BECMG 2422/2501 1200 BCFG \n  PROB40 2502/2505 0700 FG \n  BECMG 2505/2507 21014KT 4000 BR SCT008 BKN025 \n  BECMG 2507/2509 9999 NSW SCT032 \n  BECMG 2513/2516 CAVOK"
    },
    {
      "icao": "LICJ",
      "iata": "PMO",
      "name": "Falcone–Borsellino Airport",
      "lat": 38.175999,
      "lon": 13.091,
      "updatedAt": "241950Z",
      "visibility_m": 10000,
      "taf_visibility_m": 3000,
      "worst_visibility_m": 3000,
      "ceiling_ft": null,
      "hazards": [
        "TSRA",
        "RA",
        "SHRA",
        "TS"
      ],
      "severityScore": 76,
      "metarRaw": "METAR LICJ 241950Z VRB02KT 9999 FEW040 16/11 Q1004",
      "tafRaw": "TAF LICJ 241700Z 2418/2518 VRB05KT 9999 SCT030 \n  BECMG 2419/2421 22010KT \n  TEMPO 2422/2501 22016G26KT RA \n  BECMG 2500/2502 28014KT \n  PROB40 \n  TEMPO 2501/2507 28020G32KT 3000 TSRA \n  BECMG 2506/2508 22016KT \n  TEMPO 2508/2512 4000 SHRA"
    },
    {
      "icao": "LIRF",
      "iata": "FCO",
      "name": "Rome–Fiumicino Leonardo da Vinci International Airport",
      "lat": 41.804532,
      "lon": 12.251998,
      "updatedAt": "241950Z",
      "visibility_m": 10000,
      "taf_visibility_m": 4000,
      "worst_visibility_m": 4000,
      "ceiling_ft": null,
      "hazards": [
        "TSRA",
        "RA",
        "SHRA",
        "TS"
      ],
      "severityScore": 76,
      "metarRaw": "METAR LIRF 241950Z 15013KT 9999 FEW020 SCT050 15/12 Q1003 NOSIG",
      "tafRaw": "TAF LIRF 241700Z 2418/2524 17010KT 9999 SCT030 \n  TEMPO 2419/2422 RA \n  BECMG 2422/2424 32014KT \n  TEMPO 2422/2501 4000 TSRA \n  TEMPO 2501/2507 RA \n  BECMG 2503/2505 04010KT \n  BECMG 2510/2512 15011KT \n  TEMPO 2512/2518 4000 SHRA \n  BECMG 2516/2518 24018KT \n  BECMG 2520/2522 30010KT"
    },
    {
      "icao": "EETN",
      "iata": "TLL",
      "name": "Lennart Meri Tallinn Airport",
      "lat": 59.413246,
      "lon": 24.83264,
      "updatedAt": "241950Z",
      "visibility_m": 4000,
      "taf_visibility_m": 1200,
      "worst_visibility_m": 1200,
      "ceiling_ft": 300,
      "hazards": [
        "BR",
        "FG"
      ],
      "severityScore": 75,
      "metarRaw": "METAR EETN 241950Z 09005KT CAVOK M17/M19 Q1025 TEMPO 4000 BR",
      "tafRaw": "TAF EETN 241730Z 2418/2518 10005KT 9999 FEW003 \n  TEMPO 2418/2502 BKN004 \n  PROB30 \n  TEMPO 2418/2501 1200 BR BCFG \n  TEMPO 2502/2509 2000 BR BKN003 \n  BECMG 2506/2508 17010KT \n  TEMPO 2509/2514 BKN007"
    },
    {
      "icao": "LFMN",
      "iata": "NCE",
      "name": "Nice-Côte d'Azur Airport",
      "lat": 43.658401,
      "lon": 7.21587,
      "updatedAt": "242000Z",
      "visibility_m": 2000,
      "taf_visibility_m": 1200,
      "worst_visibility_m": 1200,
      "ceiling_ft": 4000,
      "hazards": [
        "TSRA",
        "TS",
        "RA"
      ],
      "severityScore": 72,
      "metarRaw": "METAR LFMN 242000Z 02013KT 9999 SCT030 BKN040 FEW046CB 09/06 Q0999 RERA TEMPO VRB12KT 2000 TSRA BKN020CB",
      "tafRaw": "TAF LFMN 241400Z 2415/2521 08010KT 9999 SCT040 \n  PROB40 2415/2421 09025G35KT \n  TEMPO 2416/2424 VRB15G25KT 1200 TSRA BKN008 BKN040CB \n  BECMG 2420/2422 33010KT \n  PROB40 \n  TEMPO 2500/2508 VRB15G25KT 2000 -TSRA SCT040CB \n  BECMG 2509/2512 21010KT \n  BECMG 2517/2521 31010KT"
    },
    {
      "icao": "LIBD",
      "iata": "BRI",
      "name": "Bari Karol Wojtyła International Airport",
      "lat": 41.138901,
      "lon": 16.760599,
      "updatedAt": "241950Z",
      "visibility_m": 10000,
      "taf_visibility_m": 3000,
      "worst_visibility_m": 3000,
      "ceiling_ft": null,
      "hazards": [
        "TSRA",
        "RA",
        "DZ",
        "TS"
      ],
      "severityScore": 72,
      "metarRaw": "METAR LIBD 241950Z 16008KT CAVOK 14/11 Q1007",
      "tafRaw": "TAF LIBD 241700Z 2418/2518 16006KT 9999 SCT020 \n  TEMPO 2422/2501 DZ \n  BECMG 2501/2503 16016KT \n  TEMPO 2510/2514 16017G31KT \n  BECMG 2512/2514 24012KT \n  TEMPO 2512/2515 3000 TSRA \n  TEMPO 2516/2518 RA"
    },
    {
      "icao": "LIRP",
      "iata": "PSA",
      "name": "Pisa International Airport",
      "lat": 43.683899,
      "lon": 10.3927,
      "updatedAt": "241945Z",
      "visibility_m": 8000,
      "taf_visibility_m": 5000,
      "worst_visibility_m": 5000,
      "ceiling_ft": 5000,
      "hazards": [
        "RA",
        "BR",
        "TSRA",
        "TS"
      ],
      "severityScore": 72,
      "metarRaw": "METAR LIRP 241945Z 10009KT 8000 -RA FEW025CB SCT030 BKN050 12/11 Q1000 NOSIG",
      "tafRaw": "TAF LIRP 241700Z 2418/2518 11008KT 5000 RA BR SCT015 BKN030 \n  TEMPO 2418/2420 9999 SCT030 \n  TEMPO 2419/2423 5000 TSRA FEW020CB SCT030 \n  TEMPO 2506/2510 NSW"
    },
    {
      "icao": "LFPO",
      "iata": "ORY",
      "name": "Paris-Orly Airport",
      "lat": 48.72333,
      "lon": 2.37944,
      "updatedAt": "242000Z",
      "visibility_m": 10000,
      "taf_visibility_m": 3000,
      "worst_visibility_m": 3000,
      "ceiling_ft": 200,
      "hazards": [
        "BR",
        "RA",
        "SHRA"
      ],
      "severityScore": 71,
      "metarRaw": "METAR LFPO 242000Z AUTO 18002KT CAVOK 05/03 Q0998 NOSIG",
      "tafRaw": "TAF LFPO 241700Z 2418/2524 14006KT CAVOK \n  BECMG 2502/2504 BKN004 \n  TEMPO 2504/2510 3000 BR BKN002 \n  BECMG 2505/2508 17010KT \n  BECMG 2510/2512 SCT014 \n  TEMPO 2512/2515 -RA BKN014 \n  TEMPO 2515/2523 4000 -SHRA BKN020TCU \n  PROB40 \n  TEMPO 2515/2520 BKN009 BKN020TCU"
    },
    {
      "icao": "LIMJ",
      "iata": "GOA",
      "name": "Genoa Cristoforo Colombo Airport",
      "lat": 44.412039,
      "lon": 8.840732,
      "updatedAt": "241950Z",
      "visibility_m": 6000,
      "taf_visibility_m": null,
      "worst_visibility_m": 6000,
      "ceiling_ft": 4000,
      "hazards": [
        "TSRA",
        "TS",
        "RA"
      ],
      "severityScore": 67,
      "metarRaw": "METAR LIMJ 241950Z 03013KT 360V060 6000 TSRA FEW023CB SCT029 BKN040 06/04 Q1000",
      "tafRaw": null
    },
    {
      "icao": "LIPY",
      "iata": "AOI",
      "name": "Marche Airport",
      "lat": 43.616299,
      "lon": 13.3623,
      "updatedAt": "241950Z",
      "visibility_m": 5000,
      "taf_visibility_m": 1000,
      "worst_visibility_m": 1000,
      "ceiling_ft": 700,
      "hazards": [
        "BR",
        "RA",
        "DZ"
      ],
      "severityScore": 67,
      "metarRaw": "METAR LIPY 241950Z AUTO 20003KT 170V240 5000 -RA BR OVC006/// 08/07 Q1005",
      "tafRaw": "TAF LIPY 241700Z 2418/2518 VRB04KT 7000 BKN007 \n  TEMPO 2419/2422 2000 -RA \n  BECMG 2502/2504 1000 RA \n  BECMG 2507/2509 26011KT SCT045 \n  BECMG 2509/2511 9000 NSW \n  BECMG 2514/2516 VRB04KT \n  BECMG 2516/2518 DZ"
    },
    {
      "icao": "LPPT",
      "iata": "LIS",
      "name": "Lisbon Humberto Delgado Airport",
      "lat": 38.7813,
      "lon": -9.13592,
      "updatedAt": "242000Z",
      "visibility_m": 10000,
      "taf_visibility_m": 2000,
      "worst_visibility_m": 2000,
      "ceiling_ft": 400,
      "hazards": [
        "BR",
        "DZ",
        "RA"
      ],
      "severityScore": 67,
      "metarRaw": "METAR LPPT 242000Z 26007KT 230V290 9999 FEW028 11/07 Q1017",
      "tafRaw": "TAF LPPT 241700Z 2418/2524 29008KT 9999 SCT020 \n  BECMG 2419/2421 26012KT \n  TEMPO 2423/2508 26017G27KT \n  BECMG 2423/2501 SCT012 BKN025 \n  TEMPO 2501/2517 2000 RADZ BR SCT004 BKN008 \n  BECMG 2517/2519 22008KT SCT008 \n  TEMPO 2519/2524 2000 DZ BR BKN004"
    },
    {
      "icao": "ENTC",
      "iata": "TOS",
      "name": "Tromsø Airport, Langnes",
      "lat": 69.683296,
      "lon": 18.9189,
      "updatedAt": "241950Z",
      "visibility_m": 10000,
      "taf_visibility_m": 700,
      "worst_visibility_m": 700,
      "ceiling_ft": 1200,
      "hazards": [
        "SHSN",
        "SN"
      ],
      "severityScore": 65,
      "metarRaw": "METAR ENTC 241950Z 19017KT 9999 -SHSN BKN012 BKN023 M03/M04 Q1014 RMK WIND 2600FT 26013KT",
      "tafRaw": "TAF ENTC 241700Z 2418/2518 20012KT 9999 SCT010 BKN020 \n  TEMPO 2418/2420 4000 -SN VV008 \n  TEMPO 2420/2503 1000 SN VV005 \n  TEMPO 2503/2508 0700 SHSN BKN006 SCT015CB \n  BECMG 2503/2506 36009KT \n  TEMPO 2508/2518 2000 -SHSN BKN009 FEW015CB"
    },
    {
      "icao": "LIRN",
      "iata": "NAP",
      "name": "Naples International Airport",
      "lat": 40.886002,
      "lon": 14.2908,
      "updatedAt": "241950Z",
      "visibility_m": 10000,
      "taf_visibility_m": 4000,
      "worst_visibility_m": 4000,
      "ceiling_ft": null,
      "hazards": [
        "TSRA",
        "RA",
        "TS"
      ],
      "severityScore": 62,
      "metarRaw": "METAR LIRN 241950Z VRB01KT 9999 FEW025 13/11 Q1006 NOSIG",
      "tafRaw": "TAF LIRN 241700Z 2418/2518 19008KT 9999 SCT030 \n  TEMPO 2422/2505 RA \n  TEMPO 2505/2508 4000 TSRA \n  BECMG 2505/2507 25012KT \n  TEMPO 2508/2512 RA \n  BECMG 2509/2511 19010KT \n  TEMPO 2516/2518 RA"
    },
    {
      "icao": "LIPZ",
      "iata": "VCE",
      "name": "Venice Marco Polo Airport",
      "lat": 45.505299,
      "lon": 12.3519,
      "updatedAt": "241950Z",
      "visibility_m": 10000,
      "taf_visibility_m": 1500,
      "worst_visibility_m": 1500,
      "ceiling_ft": 700,
      "hazards": [
        "RA",
        "SHRA"
      ],
      "severityScore": 61,
      "metarRaw": "METAR LIPZ 241950Z 06006KT 9999 BKN007 07/07 Q1004 NOSIG",
      "tafRaw": "TAF LIPZ 241700Z 2418/2524 04007KT 7000 BKN005 \n  TEMPO 2419/2422 3000 -RA \n  BECMG 2500/2502 3000 RA \n  PROB40 \n  TEMPO 2504/2507 1500 SHRA \n  BECMG 2509/2511 26010KT \n  BECMG 2513/2515 6000 NSW \n  BECMG 2515/2517 VRB05KT SCT010 \n  TEMPO 2520/2524 1500 -RA BKN003"
    },
    {
      "icao": "EPSC",
      "iata": "SZZ",
      "name": "Solidarity Szczecin–Goleniów Airport",
      "lat": 53.584702,
      "lon": 14.9022,
      "updatedAt": "242000Z",
      "visibility_m": 9000,
      "taf_visibility_m": 4000,
      "worst_visibility_m": 4000,
      "ceiling_ft": 1200,
      "hazards": [
        "BR",
        "FZDZ",
        "DZ"
      ],
      "severityScore": 60,
      "metarRaw": "METAR EPSC 242000Z 09007KT 9000 BKN012 OVC015 M03/M07 Q1010",
      "tafRaw": "TAF EPSC 241730Z 2418/2518 09010KT 9999 BKN012 \n  TEMPO 2421/2516 BKN007 \n  BECMG 2515/2518 4000 -FZDZ BR BKN007"
    },
    {
      "icao": "ESKN",
      "iata": "NYO",
      "name": "Stockholm Skavsta Airport",
      "lat": 58.789656,
      "lon": 16.911479,
      "updatedAt": "241950Z",
      "visibility_m": 800,
      "taf_visibility_m": null,
      "worst_visibility_m": 800,
      "ceiling_ft": 1000,
      "hazards": [
        "SN"
      ],
      "severityScore": 60,
      "metarRaw": "METAR ESKN 241950Z 06005KT 0800 R08/P2000N R26/P2000N -SN FEW003 SCT007 BKN010 M03/M04 Q1020",
      "tafRaw": null
    },
    {
      "icao": "LRBS",
      "iata": "BBU",
      "name": "Bucharest Băneasa Aurel Vlaicu International Airport",
      "lat": 44.503133,
      "lon": 26.102944,
      "updatedAt": "242000Z",
      "visibility_m": 1000,
      "taf_visibility_m": null,
      "worst_visibility_m": 1000,
      "ceiling_ft": 100,
      "hazards": [
        "BR"
      ],
      "severityScore": 60,
      "metarRaw": "METAR LRBS 242000Z VRB01KT 1000 R07/2000N BR OVC001 M00/M00 Q1015 NOSIG",
      "tafRaw": null
    },
    {
      "icao": "LIME",
      "iata": "BGY",
      "name": "Milan Bergamo Airport / Antonio Locatelli Air Base",
      "lat": 45.670725,
      "lon": 9.709223,
      "updatedAt": "241950Z",
      "visibility_m": 5000,
      "taf_visibility_m": 1400,
      "worst_visibility_m": 1400,
      "ceiling_ft": 800,
      "hazards": [
        "BR",
        "RA"
      ],
      "severityScore": 57,
      "metarRaw": "METAR LIME 241950Z AUTO 17004KT 150V210 5000 BR BKN048/// 06/06 Q1003",
      "tafRaw": "TAF LIME 241700Z 2418/2518 VRB05KT 4000 BR BKN008 BKN030 \n  BECMG 2420/2422 1400 RA \n  BECMG 2507/2509 4000 BR BKN012"
    },
    {
      "icao": "EDSB",
      "iata": "FKB",
      "name": "Karlsruhe Baden-Baden Airport",
      "lat": 48.7794,
      "lon": 8.0805,
      "updatedAt": "241950Z",
      "visibility_m": 6000,
      "taf_visibility_m": 1200,
      "worst_visibility_m": 1200,
      "ceiling_ft": 200,
      "hazards": [
        "BR"
      ],
      "severityScore": 55,
      "metarRaw": "METAR EDSB 241950Z 03004KT 6000 NSC M02/M05 Q1002",
      "tafRaw": "TAF EDSB 241700Z 2418/2518 02007KT 8000 NSC \n  BECMG 2421/2424 VRB03KT 2000 BR BKN008 \n  PROB30 \n  TEMPO 2502/2509 1200 -SG BKN002 \n  TEMPO 2509/2518 6000 SCT004 BKN010"
    },
    {
      "icao": "OJAI",
      "iata": "AMM",
      "name": "Queen Alia International Airport",
      "lat": 31.7226009369,
      "lon": 35.9931983948,
      "updatedAt": "242000Z",
      "visibility_m": 4000,
      "taf_visibility_m": 700,
      "worst_visibility_m": 700,
      "ceiling_ft": null,
      "hazards": [
        "BR",
        "FG"
      ],
      "severityScore": 55,
      "metarRaw": "METAR OJAI 242000Z 12002KT 4000 BR NSC 05/04 Q1022 NOSIG",
      "tafRaw": "TAF OJAI 241700Z 2418/2524 28012KT 4000 BR NSC \n  PROB40 2421/2508 2000 \n  PROB30 2500/2507 0700 FG \n  BECMG 2504/2506 14010KT"
    },
    {
      "icao": "LKPR",
      "iata": "PRG",
      "name": "Václav Havel Airport Prague",
      "lat": 50.100874,
      "lon": 14.259911,
      "updatedAt": "242000Z",
      "visibility_m": 5000,
      "taf_visibility_m": 2000,
      "worst_visibility_m": 2000,
      "ceiling_ft": 1300,
      "hazards": [
        "BR",
        "RA",
        "SN"
      ],
      "severityScore": 52,
      "metarRaw": "METAR LKPR 242000Z VRB01KT 5000 BR OVC013 M02/M03 Q1004 NOSIG",
      "tafRaw": "TAF LKPR 241700Z 2418/2524 VRB02KT 6000 SCT006 OVC012 \n  TEMPO 2418/2513 05004KT 3000 BR BKN006 \n  BECMG 2513/2515 09010KT 4000 -RA BR OVC006 \n  TEMPO 2515/2524 12010G20KT 2000 -RASN BR BKN003"
    },
    {
      "icao": "EGBB",
      "iata": "BHX",
      "name": "Birmingham Airport",
      "lat": 52.453899,
      "lon": -1.74803,
      "updatedAt": "241950Z",
      "visibility_m": 10000,
      "taf_visibility_m": 4000,
      "worst_visibility_m": 4000,
      "ceiling_ft": 1500,
      "hazards": [
        "RA",
        "SHRA",
        "DZ"
      ],
      "severityScore": 48,
      "metarRaw": "METAR EGBB 241950Z 12015KT 9999 -RA BKN015 06/04 Q0991",
      "tafRaw": "TAF EGBB 241700Z 2418/2518 11012KT 9999 SCT025 \n  TEMPO 2418/2424 13016G27KT 7000 RA BKN014 \n  PROB40 \n  TEMPO 2418/2424 4000 +RA +SHRA BKN009 \n  TEMPO 2500/2514 BKN006 \n  PROB30 \n  TEMPO 2500/2518 6000 RA -RADZ \n  TEMPO 2514/2518 BKN010"
    },
    {
      "icao": "EPLB",
      "iata": "LUZ",
      "name": "Lublin Airport",
      "lat": 51.240157,
      "lon": 22.713461,
      "updatedAt": "242000Z",
      "visibility_m": 7000,
      "taf_visibility_m": null,
      "worst_visibility_m": 7000,
      "ceiling_ft": 900,
      "hazards": [
        "SN"
      ],
      "severityScore": 48,
      "metarRaw": "METAR EPLB 242000Z 10011KT 7000 -SN BKN009 OVC011 M04/M05 Q1011",
      "tafRaw": null
    },
    {
      "icao": "LIPQ",
      "iata": "TRS",
      "name": "Trieste–Friuli Venezia Giulia Airport",
      "lat": 45.827499,
      "lon": 13.4722,
      "updatedAt": "241950Z",
      "visibility_m": 10000,
      "taf_visibility_m": 4000,
      "worst_visibility_m": 4000,
      "ceiling_ft": 1800,
      "hazards": [
        "RA",
        "SHRA",
        "DZ"
      ],
      "severityScore": 48,
      "metarRaw": "METAR LIPQ 241950Z AUTO 34002KT 9999 BKN024/// OVC069/// 07/07 Q1005",
      "tafRaw": "TAF LIPQ 241700Z 2418/2518 VRB06KT 8000 BKN018 \n  TEMPO 2421/2424 DZ \n  BECMG 2501/2503 RA \n  TEMPO 2504/2508 4000 SHRA \n  BECMG 2513/2515 NSW"
    },
    {
      "icao": "EGPD",
      "iata": "ABZ",
      "name": "Aberdeen International Airport",
      "lat": 57.2019,
      "lon": -2.19778,
      "updatedAt": "241950Z",
      "visibility_m": 4000,
      "taf_visibility_m": 3000,
      "worst_visibility_m": 3000,
      "ceiling_ft": 800,
      "hazards": [
        "RA",
        "DZ"
      ],
      "severityScore": 47,
      "metarRaw": "METAR EGPD 241950Z AUTO 12014KT 090V150 7000 -RA BKN007/// BKN011/// OVC016/// //////TCU 05/03 Q1001 RERA REDZ TEMPO 4000 RA",
      "tafRaw": "TAF EGPD 241659Z 2418/2518 11013KT 9999 BKN015 \n  TEMPO 2418/2518 6000 -RADZ RA BKN010 \n  TEMPO 2418/2514 12016G26KT \n  PROB40 \n  TEMPO 2418/2518 3000 RADZ BKN008"
    },
    {
      "icao": "LIPH",
      "iata": "TSF",
      "name": "Treviso Antonio Canova Airport",
      "lat": 45.648399,
      "lon": 12.1944,
      "updatedAt": "241950Z",
      "visibility_m": 10000,
      "taf_visibility_m": 4000,
      "worst_visibility_m": 4000,
      "ceiling_ft": 800,
      "hazards": [
        "RA",
        "DZ"
      ],
      "severityScore": 47,
      "metarRaw": "METAR LIPH 241950Z 05006KT 9999 -RA BKN008 07/07 Q1004",
      "tafRaw": "TAF LIPH 241700Z 2418/2518 05005KT 8000 BKN013 \n  TEMPO 2420/2423 DZ \n  BECMG 2500/2502 4000 RA \n  BECMG 2510/2512 25010KT \n  BECMG 2513/2515 7000 NSW \n  BECMG 2515/2517 VRB05KT"
    },
    {
      "icao": "LPPR",
      "iata": "OPO",
      "name": "Francisco de Sá Carneiro Airport",
      "lat": 41.2481002808,
      "lon": -8.68138980865,
      "updatedAt": "242000Z",
      "visibility_m": 7000,
      "taf_visibility_m": 2000,
      "worst_visibility_m": 2000,
      "ceiling_ft": 3000,
      "hazards": [
        "SHRA",
        "RA",
        "BR",
        "DZ"
      ],
      "severityScore": 46,
      "metarRaw": "METAR LPPR 242000Z 24007G18KT 190V280 7000 SHRA FEW020CB BKN030 11/08 Q1012",
      "tafRaw": "TAF LPPR 241700Z 2418/2518 30012KT 9999 SCT025 \n  BECMG 2418/2420 24012KT SCT008 BKN015 \n  TEMPO 2420/2502 24018G30KT 2000 RADZ BR SCT004 BKN008 \n  BECMG 2502/2504 27012KT SCT020 \n  TEMPO 2504/2516 27015G25KT 8000 SHRA SCT015 FEW020CB BKN030 \n  BECMG 2516/2518 24007KT"
    },
    {
      "icao": "LRSB",
      "iata": "SBZ",
      "name": "Sibiu International Airport",
      "lat": 45.785841,
      "lon": 24.086666,
      "updatedAt": "242000Z",
      "visibility_m": 8000,
      "taf_visibility_m": 1500,
      "worst_visibility_m": 1500,
      "ceiling_ft": 500,
      "hazards": [
        "BR"
      ],
      "severityScore": 45,
      "metarRaw": "METAR LRSB 242000Z VRB02KT 8000 NSC M01/M02 Q1009",
      "tafRaw": "TAF LRSB 241700Z 2418/2518 VRB04KT 5000 BR NSC \n  BECMG 2419/2421 3000 BR \n  TEMPO 2422/2506 1500 BR BKN005 \n  BECMG 2507/2509 CAVOK"
    },
    {
      "icao": "LIPE",
      "iata": "BLQ",
      "name": "Bologna Guglielmo Marconi Airport",
      "lat": 44.5354,
      "lon": 11.2887,
      "updatedAt": "241950Z",
      "visibility_m": 8000,
      "taf_visibility_m": 1000,
      "worst_visibility_m": 1000,
      "ceiling_ft": 1900,
      "hazards": [
        "BR",
        "RA"
      ],
      "severityScore": 44,
      "metarRaw": "METAR LIPE 241950Z VRB01KT 8000 BKN019 05/04 Q1004",
      "tafRaw": "TAF LIPE 241700Z 2418/2518 VRB06KT 4000 BR BKN010 \n  BECMG 2421/2423 1000 -RA OVC003 \n  BECMG 2509/2511 6000 SCT010 \n  TEMPO 2516/2518 3000 -RA"
    },
    {
      "icao": "LPFR",
      "iata": "FAO",
      "name": "Faro - Gago Coutinho International Airport",
      "lat": 37.015909,
      "lon": -7.970939,
      "updatedAt": "242000Z",
      "visibility_m": 10000,
      "taf_visibility_m": 4000,
      "worst_visibility_m": 4000,
      "ceiling_ft": 1200,
      "hazards": [
        "BR",
        "RA",
        "DZ"
      ],
      "severityScore": 44,
      "metarRaw": "METAR LPFR 242000Z VRB03KT 9999 FEW022 SCT035 12/07 Q1018",
      "tafRaw": "TAF LPFR 241700Z 2418/2518 30015KT 9999 SCT020 \n  BECMG 2418/2420 30005KT \n  BECMG 2503/2505 26012KT SCT015 BKN030 \n  TEMPO 2505/2518 26018G30KT 4000 -RADZ BR SCT006 BKN012"
    },
    {
      "icao": "EDDH",
      "iata": "HAM",
      "name": "Hamburg Helmut Schmidt Airport",
      "lat": 53.630402,
      "lon": 9.98823,
      "updatedAt": "241950Z",
      "visibility_m": 4000,
      "taf_visibility_m": 4000,
      "worst_visibility_m": 4000,
      "ceiling_ft": 800,
      "hazards": [
        "SN"
      ],
      "severityScore": 43,
      "metarRaw": "METAR EDDH 241950Z AUTO 10007KT 6000 OVC012 M02/M05 Q1008 TEMPO 4000 -SN BKN008",
      "tafRaw": "TAF EDDH 241700Z 2418/2524 08009KT 8000 OVC012 \n  PROB30 \n  TEMPO 2420/2424 4000 -SN OVC008 \n  TEMPO 2500/2510 OVC009 \n  TEMPO 2511/2517 OVC015 \n  TEMPO 2518/2524 OVC009"
    },
    {
      "icao": "EDDN",
      "iata": "NUE",
      "name": "Nuremberg Airport",
      "lat": 49.498699,
      "lon": 11.078056,
      "updatedAt": "241950Z",
      "visibility_m": 6000,
      "taf_visibility_m": 2000,
      "worst_visibility_m": 2000,
      "ceiling_ft": 900,
      "hazards": [
        "SN"
      ],
      "severityScore": 43,
      "metarRaw": "METAR EDDN 241950Z AUTO 09004KT 6000 FEW014 M06/M07 Q1004 NOSIG",
      "tafRaw": "TAF EDDN 241700Z 2418/2518 10006KT 7000 SCT010 \n  TEMPO 2418/2507 BKN010 \n  BECMG 2507/2509 OVC010 \n  BECMG 2515/2518 2000 -SN OVC009"
    },
    {
      "icao": "ENTO",
      "iata": "TRF",
      "name": "Sandefjord Airport, Torp",
      "lat": 59.186699,
      "lon": 10.2586,
      "updatedAt": "241950Z",
      "visibility_m": 10000,
      "taf_visibility_m": 2500,
      "worst_visibility_m": 2500,
      "ceiling_ft": 800,
      "hazards": [
        "SN"
      ],
      "severityScore": 43,
      "metarRaw": "METAR ENTO 241950Z COR 02007KT 9999 -SN OVC016/// M04/M05 Q1017 NOSIG",
      "tafRaw": "TAF ENTO 241700Z 2418/2518 04010KT 9999 -SN BKN015 \n  TEMPO 2418/2512 2500 -SN BKN008"
    },
    {
      "icao": "EDLW",
      "iata": "DTM",
      "name": "Dortmund Airport",
      "lat": 51.518299,
      "lon": 7.61224,
      "updatedAt": "241950Z",
      "visibility_m": 4100,
      "taf_visibility_m": 1200,
      "worst_visibility_m": 1200,
      "ceiling_ft": null,
      "hazards": [
        "BR",
        "FG"
      ],
      "severityScore": 40,
      "metarRaw": "METAR EDLW 241950Z 03004KT 4100 BR NSC M02/M03 Q1002",
      "tafRaw": "TAF EDLW 241700Z 2418/2518 07006KT CAVOK \n  TEMPO 2418/2501 4000 BR \n  PROB30 \n  TEMPO 2418/2424 1200 BCFG"
    },
    {
      "icao": "EFTU",
      "iata": "TKU",
      "name": "Turku Airport",
      "lat": 60.514099,
      "lon": 22.2628,
      "updatedAt": "241950Z",
      "visibility_m": 10000,
      "taf_visibility_m": 5000,
      "worst_visibility_m": 5000,
      "ceiling_ft": 1800,
      "hazards": [
        "SHSN",
        "SN"
      ],
      "severityScore": 40,
      "metarRaw": "METAR EFTU 241950Z AUTO VRB01KT 9999 -SHSN OVC018 M10/M11 Q1024",
      "tafRaw": "TAF EFTU 241737Z 2418/2518 10004KT 9999 BKN020 \n  BECMG 2420/2422 BKN012 \n  TEMPO 2422/2509 SCT008 BKN015 \n  TEMPO 2509/2518 5000 -SN SCT008 BKN020"
    },
    {
      "icao": "EPPO",
      "iata": "POZ",
      "name": "Poznań-Ławica Airport",
      "lat": 52.421598,
      "lon": 16.823359,
      "updatedAt": "242000Z",
      "visibility_m": 7000,
      "taf_visibility_m": 2000,
      "worst_visibility_m": 2000,
      "ceiling_ft": 1000,
      "hazards": [
        "BR",
        "SN"
      ],
      "severityScore": 40,
      "metarRaw": "METAR EPPO 242000Z 09008KT 7000 OVC010 M05/M07 Q1010",
      "tafRaw": "TAF EPPO 241730Z 2418/2518 09010KT 9000 OVC012 \n  BECMG 2418/2421 4000 BR OVC007 \n  TEMPO 2421/2506 2000 -SN BR OVC004 \n  BECMG 2509/2512 9000 OVC012 \n  BECMG 2512/2515 OVC015"
    },
    {
      "icao": "EPSY",
      "iata": "SZY",
      "name": "Olsztyn-Mazury Airport",
      "lat": 53.481899,
      "lon": 20.9377,
      "updatedAt": "242000Z",
      "visibility_m": 10000,
      "taf_visibility_m": 4000,
      "worst_visibility_m": 4000,
      "ceiling_ft": 1300,
      "hazards": [
        "BR",
        "SN"
      ],
      "severityScore": 40,
      "metarRaw": "METAR EPSY 242000Z 08006KT 030V120 9999 BKN013 OVC045 M08/M11 Q1014",
      "tafRaw": "TAF EPSY 241730Z 2418/2503 09008KT 8000 OVC040 \n  TEMPO 2418/2503 4000 BR BKN012 OVC022 \n  PROB30 \n  TEMPO 2418/2503 -SN BKN006 OVC010"
    },
    {
      "icao": "LZKZ",
      "iata": "KSC",
      "name": "Košice International Airport",
      "lat": 48.663101,
      "lon": 21.2411,
      "updatedAt": "242000Z",
      "visibility_m": 2500,
      "taf_visibility_m": null,
      "worst_visibility_m": 2500,
      "ceiling_ft": 900,
      "hazards": [
        "BR"
      ],
      "severityScore": 40,
      "metarRaw": "METAR LZKZ 242000Z 00000KT 3500 BR OVC010 02/02 Q1009 TEMPO 2500 BR OVC009",
      "tafRaw": null
    },
    {
      "icao": "GMMN",
      "iata": "CMN",
      "name": "Mohammed V International Airport",
      "lat": 33.3675,
      "lon": -7.58997,
      "updatedAt": "242000Z",
      "visibility_m": 8000,
      "taf_visibility_m": 2000,
      "worst_visibility_m": 2000,
      "ceiling_ft": 1600,
      "hazards": [
        "SHRA",
        "RA"
      ],
      "severityScore": 38,
      "metarRaw": "METAR GMMN 242000Z 30005KT 8000 FEW010 BKN020TCU 10/09 Q1023 NOSIG",
      "tafRaw": "TAF GMMN 241700Z 2418/2524 31016KT 9999 BKN020TCU FEW040CB \n  TEMPO 2418/2424 2000 SHRA \n  FM250000 20008KT 9999 BKN016 \n  BECMG 2508/2512 26015KT"
    },
    {
      "icao": "LIPR",
      "iata": "RMI",
      "name": "Federico Fellini International Airport",
      "lat": 44.020024,
      "lon": 12.612198,
      "updatedAt": "241950Z",
      "visibility_m": 8000,
      "taf_visibility_m": 2000,
      "worst_visibility_m": 2000,
      "ceiling_ft": 800,
      "hazards": [
        "RA"
      ],
      "severityScore": 37,
      "metarRaw": "METAR LIPR 241950Z VRB02KT 8000 BKN008 07/06 Q1004",
      "tafRaw": "TAF LIPR 241700Z 2418/2518 VRB05KT 6000 BKN008 \n  TEMPO 2421/2424 3000 -RA \n  BECMG 2500/2502 2000 RA \n  BECMG 2506/2508 25013KT SCT040 \n  BECMG 2510/2512 8000 NSW \n  BECMG 2512/2514 19007KT"
    },
    {
      "icao": "EGGW",
      "iata": "LTN",
      "name": "London Luton Airport",
      "lat": 51.874699,
      "lon": -0.368333,
      "updatedAt": "241950Z",
      "visibility_m": 10000,
      "taf_visibility_m": 4000,
      "worst_visibility_m": 4000,
      "ceiling_ft": 4700,
      "hazards": [
        "RA",
        "SHRA",
        "DZ"
      ],
      "severityScore": 36,
      "metarRaw": "METAR EGGW 241950Z AUTO 13014KT 9999 SCT016 BKN047 06/03 Q0993",
      "tafRaw": "TAF EGGW 241659Z 2418/2518 13013KT 9999 SCT025 \n  PROB40 \n  TEMPO 2418/2423 15015G27KT BKN012 \n  TEMPO 2420/2511 8000 -RA \n  PROB30 \n  TEMPO 2421/2509 4000 RADZ \n  BECMG 2423/2502 OVC006 \n  TEMPO 2501/2512 OVC003 \n  PROB30 \n  TEMPO 2511/2518 7000 SHRA \n  PROB40 \n  TEMPO 2512/2518 BKN012"
    },
    {
      "icao": "LFLS",
      "iata": "GNB",
      "name": "Grenoble Alpes Isère Airport",
      "lat": 45.3629,
      "lon": 5.32937,
      "updatedAt": "242000Z",
      "visibility_m": 4100,
      "taf_visibility_m": 10000,
      "worst_visibility_m": 4100,
      "ceiling_ft": 800,
      "hazards": [
        "BR"
      ],
      "severityScore": 35,
      "metarRaw": "METAR LFLS 242000Z AUTO 22001KT 4100 BR NSC 02/02 Q0999 BECMG 9999 NSW",
      "tafRaw": "TAF LFLS 241400Z 2415/2515 08005KT CAVOK \n  BECMG 2501/2504 BKN040 \n  PROB30 \n  TEMPO 2504/2509 BKN008"
    },
    {
      "icao": "LGTS",
      "iata": "SKG",
      "name": "Thessaloniki Macedonia International Airport",
      "lat": 40.51928,
      "lon": 22.970009,
      "updatedAt": "241950Z",
      "visibility_m": 9000,
      "taf_visibility_m": 4000,
      "worst_visibility_m": 4000,
      "ceiling_ft": 2500,
      "hazards": [
        "TS",
        "BR"
      ],
      "severityScore": 35,
      "metarRaw": "METAR LGTS 241950Z VRB01KT 9000 FEW010 OVC025 09/07 Q1016 NOSIG",
      "tafRaw": "TAF LGTS 241700Z 2418/2518 VRB03KT 9999 BKN030 \n  PROB40 2500/2508 4000 BR SCT008 BKN025 \n  BECMG 2510/2512 14013KT \n  TEMPO 2515/2518 14015G25KT"
    },
    {
      "icao": "EGPF",
      "iata": "GLA",
      "name": "Glasgow Airport",
      "lat": 55.871899,
      "lon": -4.43306,
      "updatedAt": "241950Z",
      "visibility_m": 7000,
      "taf_visibility_m": 4000,
      "worst_visibility_m": 4000,
      "ceiling_ft": 1400,
      "hazards": [
        "RA",
        "DZ"
      ],
      "severityScore": 34,
      "metarRaw": "METAR EGPF 241950Z AUTO 07014KT 7000 FEW032 06/03 Q0995",
      "tafRaw": "TAF EGPF 241656Z 2418/2518 07012KT 9999 SCT016 BKN030 \n  PROB30 \n  TEMPO 2418/2503 8000 -RA BKN014 \n  PROB30 \n  TEMPO 2418/2421 09015G25KT \n  BECMG 2421/2424 09018G28KT \n  TEMPO 2503/2510 6000 RA \n  PROB30 \n  TEMPO 2503/2510 4000 RADZ BKN014 \n  BECMG 2505/2508 10012KT \n  PROB30 \n  TEMPO 2508/2516 09015G25KT \n  TEMPO 2510/2518 8000 -RA"
    },
    {
      "icao": "LFOB",
      "iata": "BVA",
      "name": "Beauvais Tillé airport",
      "lat": 49.454399,
      "lon": 2.11278,
      "updatedAt": "242000Z",
      "visibility_m": 10000,
      "taf_visibility_m": 4000,
      "worst_visibility_m": 4000,
      "ceiling_ft": 1200,
      "hazards": [
        "RA",
        "DZ"
      ],
      "severityScore": 34,
      "metarRaw": "METAR LFOB 242000Z AUTO 14007KT CAVOK 03/02 Q0998 BECMG OVC012",
      "tafRaw": "TAF LFOB 241700Z 2418/2518 13009KT CAVOK \n  BECMG 2421/2424 OVC012 \n  TEMPO 2500/2518 OVC007 \n  PROB40 \n  TEMPO 2502/2508 4000 -DZ OVC004 \n  TEMPO 2514/2518 4000 -RA"
    },
    {
      "icao": "LIPX",
      "iata": "VRN",
      "name": "Verona Villafranca Valerio Catullo Airport",
      "lat": 45.394955,
      "lon": 10.887303,
      "updatedAt": "241950Z",
      "visibility_m": 5000,
      "taf_visibility_m": 1400,
      "worst_visibility_m": 1400,
      "ceiling_ft": 4500,
      "hazards": [
        "BR",
        "RA"
      ],
      "severityScore": 32,
      "metarRaw": "METAR LIPX 241950Z 17003KT 130V190 5000 -RA BR FEW007 SCT025 BKN045 06/06 Q1004",
      "tafRaw": "TAF LIPX 241700Z 2418/2518 VRB05KT 7000 BKN040 \n  BECMG 2420/2422 4000 RA BR \n  TEMPO 2420/2509 1400 BKN010 \n  BECMG 2507/2509 26010KT NSW \n  BECMG 2516/2518 VRB05KT"
    },
    {
      "icao": "ENGM",
      "iata": "OSL",
      "name": "Oslo-Gardermoen International Airport",
      "lat": 60.193901,
      "lon": 11.1004,
      "updatedAt": "241950Z",
      "visibility_m": 10000,
      "taf_visibility_m": 4000,
      "worst_visibility_m": 4000,
      "ceiling_ft": 1200,
      "hazards": [
        "SN"
      ],
      "severityScore": 30,
      "metarRaw": "METAR ENGM 241950Z 01003KT 9999 -SN OVC012 M06/M08 Q1018 NOSIG",
      "tafRaw": "TAF ENGM 241700Z 2418/2518 04008KT 9999 -SN BKN015 \n  TEMPO 2418/2512 4000 -SN BKN012"
    },
    {
      "icao": "EYKA",
      "iata": "KUN",
      "name": "Kaunas International Airport",
      "lat": 54.963965,
      "lon": 24.08582,
      "updatedAt": "241950Z",
      "visibility_m": 10000,
      "taf_visibility_m": 5000,
      "worst_visibility_m": 5000,
      "ceiling_ft": 3400,
      "hazards": [
        "SN",
        "BR"
      ],
      "severityScore": 28,
      "metarRaw": "METAR EYKA 241950Z 09007KT 060V120 9999 -SN FEW028 OVC034 M10/M13 Q1019",
      "tafRaw": "TAF EYKA 241707Z 2418/2518 09008KT 8000 OVC025 \n  TEMPO 2418/2424 5000 -SN BR SCT005 \n  TEMPO 2500/2508 5000 BR BKN005"
    },
    {
      "icao": "EYVI",
      "iata": "VNO",
      "name": "Vilnius International Airport",
      "lat": 54.634102,
      "lon": 25.285801,
      "updatedAt": "241950Z",
      "visibility_m": 10000,
      "taf_visibility_m": 5000,
      "worst_visibility_m": 5000,
      "ceiling_ft": 3900,
      "hazards": [
        "SN",
        "BR"
      ],
      "severityScore": 28,
      "metarRaw": "METAR EYVI 241950Z 10005KT 070V160 9999 -SN OVC039 M11/M14 Q1019 NOSIG",
      "tafRaw": "TAF EYVI 241707Z 2418/2518 VRB05KT 8000 BKN025 \n  TEMPO 2418/2424 5000 -SN BR SCT005 \n  TEMPO 2500/2509 5000 BR BKN005 \n  BECMG 2509/2512 11010KT"
    },
    {
      "icao": "EGKK",
      "iata": "LGW",
      "name": "London Gatwick Airport",
      "lat": 51.148771,
      "lon": -0.192089,
      "updatedAt": "241950Z",
      "visibility_m": 10000,
      "taf_visibility_m": 5000,
      "worst_visibility_m": 5000,
      "ceiling_ft": 3000,
      "hazards": [
        "RA",
        "SHRA"
      ],
      "severityScore": 26,
      "metarRaw": "METAR EGKK 241950Z 14010KT 9999 -RA SCT021 BKN030 08/06 Q0993",
      "tafRaw": "TAF EGKK 241656Z 2418/2524 12012KT 9999 FEW025 \n  PROB40 \n  TEMPO 2418/2423 13015G25KT 5000 SHRA BKN010 \n  TEMPO 2423/2512 7000 SHRA BKN007 \n  PROB40 \n  TEMPO 2512/2518 7000 SHRA BKN014"
    },
    {
      "icao": "LIRZ",
      "iata": "PEG",
      "name": "Perugia San Francesco d'Assisi – Umbria International Airport",
      "lat": 43.095901,
      "lon": 12.5132,
      "updatedAt": "241950Z",
      "visibility_m": 10000,
      "taf_visibility_m": 4000,
      "worst_visibility_m": 4000,
      "ceiling_ft": 3000,
      "hazards": [
        "RA",
        "SHRA"
      ],
      "severityScore": 26,
      "metarRaw": "METAR LIRZ 241950Z AUTO 09005KT 9999 SCT031/// 09/08 Q1003 RERA",
      "tafRaw": "TAF LIRZ 241700Z 2418/2518 VRB05KT 9999 BKN030 \n  TEMPO 2420/2510 4000 SHRA \n  BECMG 2509/2511 17013KT"
    },
    {
      "icao": "LMML",
      "iata": "MLA",
      "name": "Malta International Airport",
      "lat": 35.857498,
      "lon": 14.4775,
      "updatedAt": "241945Z",
      "visibility_m": 10000,
      "taf_visibility_m": 7000,
      "worst_visibility_m": 7000,
      "ceiling_ft": null,
      "hazards": [
        "SHRA",
        "RA"
      ],
      "severityScore": 26,
      "metarRaw": "METAR LMML 241945Z 15013KT CAVOK 16/13 Q1007 NOSIG",
      "tafRaw": "TAF LMML 241700Z 2418/2518 17012KT CAVOK \n  BECMG 2418/2421 17018G30KT \n  BECMG 2503/2506 29018G28KT \n  PROB40 \n  TEMPO 2504/2518 7000 SHRA BKN015TCU"
    },
    {
      "icao": "LQSA",
      "iata": "SJJ",
      "name": "Sarajevo International Airport",
      "lat": 43.8246,
      "lon": 18.331499,
      "updatedAt": "242000Z",
      "visibility_m": 10000,
      "taf_visibility_m": 3000,
      "worst_visibility_m": 3000,
      "ceiling_ft": 5000,
      "hazards": [
        "RA",
        "SHRA"
      ],
      "severityScore": 26,
      "metarRaw": "METAR LQSA 242000Z VRB02KT 9999 -RA BKN050 03/03 Q1007 NOSIG",
      "tafRaw": "TAF LQSA 241700Z 2418/2518 11006KT 9999 BKN055 TX12/2513Z TN04/2506Z \n  PROB30 \n  TEMPO 2418/2424 17011KT \n  PROB40 \n  TEMPO 2418/2424 4000 RA BKN014 OVC035 \n  TEMPO 2504/2518 17015G25KT \n  PROB40 \n  TEMPO 2504/2510 4000 SHRA SCT010 FEW035TCU BKN045 \n  PROB40 \n  TEMPO 2510/2516 17025G40KT \n  TEMPO 2516/2518 3000 SHRA SCT010 FEW035TCU BKN045"
    },
    {
      "icao": "OMAA",
      "iata": "AUH",
      "name": "Zayed International Airport",
      "lat": 24.440966,
      "lon": 54.649237,
      "updatedAt": "242000Z",
      "visibility_m": 10000,
      "taf_visibility_m": 3000,
      "worst_visibility_m": 3000,
      "ceiling_ft": null,
      "hazards": [
        "SHRA",
        "RA"
      ],
      "severityScore": 26,
      "metarRaw": "METAR OMAA 242000Z 07006KT CAVOK 18/09 Q1017 NOSIG",
      "tafRaw": "TAF OMAA 241700Z 2418/2600 08006KT 8000 NSC \n  BECMG 2501/2503 17012KT \n  PROB30 \n  TEMPO 2503/2510 17015G25KT 3000 BLDU \n  BECMG 2510/2512 04010KT \n  PROB30 \n  TEMPO 2510/2519 VRB18G28KT 3000 SHRA BLDU FEW030TCU \n  BECMG 2518/2520 30012KT"
    },
    {
      "icao": "OMDB",
      "iata": "DXB",
      "name": "Dubai International Airport",
      "lat": 25.2527999878,
      "lon": 55.3643989563,
      "updatedAt": "242000Z",
      "visibility_m": 10000,
      "taf_visibility_m": 3000,
      "worst_visibility_m": 3000,
      "ceiling_ft": null,
      "hazards": [
        "SHRA",
        "RA"
      ],
      "severityScore": 26,
      "metarRaw": "METAR OMDB 242000Z 09005KT 060V120 CAVOK 20/10 Q1017 NOSIG",
      "tafRaw": "TAF OMDB 241700Z 2418/2600 10005KT 8000 NSC \n  PROB30 \n  TEMPO 2422/2514 VRB17G27KT 4000 SHRA BLDU FEW035TCU \n  BECMG 2502/2504 16012KT \n  BECMG 2511/2513 35010KT \n  PROB30 \n  TEMPO 2514/2600 VRB20G30KT 3000 SHRA BLDU SCT025TCU \n  BECMG 2515/2517 06005KT"
    },
    {
      "icao": "GCTS",
      "iata": "TFS",
      "name": "Tenerife Sur Airport",
      "lat": 28.0445,
      "lon": -16.5725,
      "updatedAt": "242000Z",
      "visibility_m": 10000,
      "taf_visibility_m": 10000,
      "worst_visibility_m": 10000,
      "ceiling_ft": null,
      "hazards": [
        "TS"
      ],
      "severityScore": 25,
      "metarRaw": "METAR GCTS 242000Z 07012KT 9999 FEW040 18/09 Q1027 NOSIG",
      "tafRaw": "TAF GCTS 241400Z 2415/2515 07015KT 9999 FEW035 TX22/2514Z TN14/2506Z \n  PROB30 \n  TEMPO 2415/2418 08015G25KT \n  BECMG 2421/2423 01007KT \n  BECMG 2511/2513 09010KT"
    },
    {
      "icao": "EGGP",
      "iata": "LPL",
      "name": "Liverpool John Lennon Airport",
      "lat": 53.334863,
      "lon": -2.849637,
      "updatedAt": "241950Z",
      "visibility_m": 10000,
      "taf_visibility_m": 4000,
      "worst_visibility_m": 4000,
      "ceiling_ft": 1400,
      "hazards": [
        "RA"
      ],
      "severityScore": 24,
      "metarRaw": "METAR EGGP 241950Z 12020KT 9999 SCT025 07/03 Q0989",
      "tafRaw": "TAF EGGP 241702Z 2418/2518 11020G32KT 9999 FEW040 \n  TEMPO 2418/2502 7000 RA \n  PROB30 \n  TEMPO 2420/2502 4000 +RA BKN014 \n  BECMG 2501/2504 10010KT \n  PROB40 \n  TEMPO 2502/2518 8000 -RA BKN014"
    },
    {
      "icao": "LEZL",
      "iata": "SVQ",
      "name": "Sevilla Airport",
      "lat": 37.417999,
      "lon": -5.89311,
      "updatedAt": "242000Z",
      "visibility_m": 10000,
      "taf_visibility_m": 4000,
      "worst_visibility_m": 4000,
      "ceiling_ft": 1200,
      "hazards": [
        "RA"
      ],
      "severityScore": 24,
      "metarRaw": "METAR LEZL 242000Z 25006KT 220V280 9999 SCT040 12/06 Q1016 NOSIG",
      "tafRaw": "TAF LEZL 241400Z 2415/2515 28005KT CAVOK TX15/2415Z TN09/2507Z \n  PROB40 \n  TEMPO 2506/2515 4000 RA BKN012"
    },
    {
      "icao": "EBCI",
      "iata": "CRL",
      "name": "Brussels South Charleroi Airport",
      "lat": 50.461963,
      "lon": 4.459562,
      "updatedAt": "241950Z",
      "visibility_m": 10000,
      "taf_visibility_m": 4000,
      "worst_visibility_m": 4000,
      "ceiling_ft": 1200,
      "hazards": [
        "BR"
      ],
      "severityScore": 22,
      "metarRaw": "METAR EBCI 241950Z 14005KT CAVOK 03/01 Q1000 NOSIG",
      "tafRaw": "TAF EBCI 241710Z 2418/2524 13005KT CAVOK \n  PROB30 \n  TEMPO 2509/2513 BKN012 \n  PROB40 2522/2524 4000 BR"
    },
    {
      "icao": "EDDB",
      "iata": "BER",
      "name": "Berlin Brandenburg Willy Brandt Airport",
      "lat": 52.361738,
      "lon": 13.502341,
      "updatedAt": "241950Z",
      "visibility_m": 6000,
      "taf_visibility_m": 4000,
      "worst_visibility_m": 4000,
      "ceiling_ft": 1200,
      "hazards": [
        "BR"
      ],
      "severityScore": 22,
      "metarRaw": "METAR EDDB 241950Z AUTO 08008KT 6000 OVC012 M02/M05 Q1008 NOSIG",
      "tafRaw": "TAF EDDB 241700Z 2418/2518 07009KT 6000 OVC012 \n  TEMPO 2420/2423 BKN009 \n  BECMG 2423/2501 BKN009 \n  TEMPO 2501/2510 4000 BR BKN004"
    },
    {
      "icao": "LIBP",
      "iata": "PSR",
      "name": "Abruzzo Airport",
      "lat": 42.431079,
      "lon": 14.182981,
      "updatedAt": "241950Z",
      "visibility_m": 5000,
      "taf_visibility_m": 2500,
      "worst_visibility_m": 2500,
      "ceiling_ft": null,
      "hazards": [
        "BR",
        "RA"
      ],
      "severityScore": 22,
      "metarRaw": "METAR LIBP 241950Z AUTO VRB02KT 5000 BR FEW067/// SCT240/// 08/08 Q1004",
      "tafRaw": "TAF LIBP 241700Z 2418/2518 VRB06KT 7000 SCT055 \n  BECMG 2500/2502 2500 -RA \n  BECMG 2508/2510 8000"
    },
    {
      "icao": "LIMF",
      "iata": "TRN",
      "name": "Turin Airport",
      "lat": 45.200802,
      "lon": 7.64963,
      "updatedAt": "241950Z",
      "visibility_m": 5000,
      "taf_visibility_m": 2000,
      "worst_visibility_m": 2000,
      "ceiling_ft": 4500,
      "hazards": [
        "BR",
        "RA"
      ],
      "severityScore": 22,
      "metarRaw": "METAR LIMF 241950Z 31003KT 5000 -RA BR SCT020 BKN045 05/03 Q1002",
      "tafRaw": "TAF LIMF 241700Z 2418/2518 VRB03KT 6000 BKN030 \n  BECMG 2418/2420 2000 RA BKN014 \n  BECMG 2506/2508 6000 NSW SCT020"
    },
    {
      "icao": "LQTZ",
      "iata": "TZL",
      "name": "Tuzla International Airport",
      "lat": 44.459858,
      "lon": 18.723627,
      "updatedAt": "242000Z",
      "visibility_m": 2500,
      "taf_visibility_m": 2000,
      "worst_visibility_m": 2000,
      "ceiling_ft": null,
      "hazards": [
        "BR",
        "RA"
      ],
      "severityScore": 22,
      "metarRaw": "METAR LQTZ 242000Z VRB02KT 2500 BR FEW002 01/01 Q1007",
      "tafRaw": "TAF LQTZ 241700Z 2418/2518 06006KT 6000 SCT050 TX14/2514Z TN03/2502Z \n  TEMPO 2418/2504 2000 BR \n  PROB40 \n  TEMPO 2504/2508 4000 -RA BR \n  TEMPO 2508/2518 12012KT \n  TEMPO 2516/2518 4000 RA"
    },
    {
      "icao": "LRTR",
      "iata": "TSR",
      "name": "Timişoara Traian Vuia Airport",
      "lat": 45.809898,
      "lon": 21.3379,
      "updatedAt": "242000Z",
      "visibility_m": 10000,
      "taf_visibility_m": 3000,
      "worst_visibility_m": 3000,
      "ceiling_ft": 1000,
      "hazards": [
        "BR"
      ],
      "severityScore": 22,
      "metarRaw": "METAR LRTR 242000Z 09008KT CAVOK 02/01 Q1009",
      "tafRaw": "TAF LRTR 241700Z 2418/2518 08006KT CAVOK \n  PROB40 \n  TEMPO 2423/2505 3000 BR BKN010 \n  BECMG 2508/2510 14010KT"
    },
    {
      "icao": "LTAC",
      "iata": "ESB",
      "name": "Esenboğa International Airport",
      "lat": 40.128101,
      "lon": 32.995098,
      "updatedAt": "241950Z",
      "visibility_m": 2400,
      "taf_visibility_m": 2000,
      "worst_visibility_m": 2000,
      "ceiling_ft": 2500,
      "hazards": [
        "BR",
        "RA"
      ],
      "severityScore": 22,
      "metarRaw": "METAR LTAC 241950Z VRB02KT 2400 -RA BR FEW005 BKN025 BKN080 05/04 Q1017 BECMG 6000",
      "tafRaw": "TAF LTAC 241640Z 2418/2518 VRB02KT 9999 SCT040 BKN100 \n  TEMPO 2418/2422 4000 -RA BR SCT010 BKN030 BKN080 \n  TEMPO 2500/2504 2000 -RA BR SCT010 BKN030 BKN080"
    },
    {
      "icao": "UBBB",
      "iata": "GYD",
      "name": "Heydar Aliyev International Airport",
      "lat": 40.467498779296875,
      "lon": 50.04669952392578,
      "updatedAt": "242000Z",
      "visibility_m": 10000,
      "taf_visibility_m": 3000,
      "worst_visibility_m": 3000,
      "ceiling_ft": 2300,
      "hazards": [
        "BR",
        "RA"
      ],
      "severityScore": 22,
      "metarRaw": "METAR UBBB 242000Z 33004KT 9999 OVC023 04/02 Q1018 NOSIG",
      "tafRaw": "TAF UBBB 241700Z 2418/2518 VRB04KT 9999 SCT012 BKN025 TX08/2510Z TN02/2501Z \n  TEMPO 2418/2423 18005KT 6000 SCT008 \n  TEMPO 2423/2505 34005KT 3000 -RA BR BKN003 OVC017 \n  BECMG 2506/2508 32005KT \n  TEMPO 2508/2518 36012KT"
    },
    {
      "icao": "UGKO",
      "iata": "KUT",
      "name": "David the Builder Kutaisi International Airport",
      "lat": 42.177448,
      "lon": 42.485353,
      "updatedAt": "242000Z",
      "visibility_m": 10000,
      "taf_visibility_m": 4000,
      "worst_visibility_m": 4000,
      "ceiling_ft": 4900,
      "hazards": [
        "BR",
        "RA"
      ],
      "severityScore": 22,
      "metarRaw": "METAR UGKO 242000Z 08006KT 9999 SCT038 BKN049 06/06 Q1018 NOSIG",
      "tafRaw": "TAF UGKO 241700Z 2418/2518 09007KT 9999 SCT020 OVC040 TX09/2511Z TN05/2504Z \n  TEMPO 2418/2500 4000 RA BR BKN015 OVC030 \n  TEMPO 2502/2508 5000 RA BR OVC025"
    },
    {
      "icao": "LWSK",
      "iata": "SKP",
      "name": "Skopje International Airport",
      "lat": 41.958087,
      "lon": 21.622581,
      "updatedAt": "241950Z",
      "visibility_m": 4000,
      "taf_visibility_m": 1200,
      "worst_visibility_m": 1200,
      "ceiling_ft": 2500,
      "hazards": [
        "BR"
      ],
      "severityScore": 20,
      "metarRaw": "METAR LWSK 241950Z VRB01KT 4000 BR BKN025 OVC070 04/03 Q1014 NOSIG",
      "tafRaw": "TAF LWSK 241450Z 2415/2515 VRB02KT 5000 BR BKN020 OVC040 \n  BECMG 2419/2421 3000 BR BKN010 OVC030 \n  PROB40 \n  TEMPO 2505/2509 1200 BR SCT007 BKN010 OVC015"
    },
    {
      "icao": "ESSA",
      "iata": "ARN",
      "name": "Stockholm-Arlanda Airport",
      "lat": 59.64849,
      "lon": 17.928829,
      "updatedAt": "241950Z",
      "visibility_m": 10000,
      "taf_visibility_m": 4000,
      "worst_visibility_m": 4000,
      "ceiling_ft": 2600,
      "hazards": [
        "SN"
      ],
      "severityScore": 18,
      "metarRaw": "METAR ESSA 241950Z 11009KT 9999 FEW004 BKN026 OVC036 M04/M07 Q1021 NOSIG",
      "tafRaw": "TAF ESSA 241730Z 2418/2518 10006KT 9000 -SN FEW012 BKN030 \n  PROB40 2418/2518 4000 SG BKN012"
    },
    {
      "icao": "EGNM",
      "iata": "LBA",
      "name": "Leeds Bradford Airport",
      "lat": 53.865898,
      "lon": -1.66057,
      "updatedAt": "241950Z",
      "visibility_m": 10000,
      "taf_visibility_m": null,
      "worst_visibility_m": 10000,
      "ceiling_ft": 1300,
      "hazards": [],
      "severityScore": 17,
      "metarRaw": "METAR EGNM 241950Z 10014KT 9999 SCT008 BKN013 05/04 Q0993",
      "tafRaw": null
    },
    {
      "icao": "LHDC",
      "iata": "DEB",
      "name": "Debrecen International Airport",
      "lat": 47.488899,
      "lon": 21.615299,
      "updatedAt": "241945Z",
      "visibility_m": 2500,
      "taf_visibility_m": null,
      "worst_visibility_m": 2500,
      "ceiling_ft": null,
      "hazards": [
        "BR"
      ],
      "severityScore": 15,
      "metarRaw": "METAR LHDC 241945Z AUTO VRB03KT 2500 BR NSC 02/02 Q1009",
      "tafRaw": null
    },
    {
      "icao": "GMMX",
      "iata": "RAK",
      "name": "Marrakesh Menara Airport",
      "lat": 31.604807,
      "lon": -8.035788,
      "updatedAt": "242000Z",
      "visibility_m": 8000,
      "taf_visibility_m": 3000,
      "worst_visibility_m": 3000,
      "ceiling_ft": 2000,
      "hazards": [
        "RA"
      ],
      "severityScore": 12,
      "metarRaw": "METAR GMMX 242000Z 23007KT 8000 SCT010 BKN020 10/07 Q1025 NOSIG",
      "tafRaw": "TAF GMMX 241700Z 2418/2524 20006KT 8000 SCT020 \n  TEMPO 2418/2422 32023KT 3000 RA SCT010 BKN020"
    },
    {
      "icao": "EKCH",
      "iata": "CPH",
      "name": "Copenhagen Kastrup Airport",
      "lat": 55.617900848389,
      "lon": 12.656000137329,
      "updatedAt": "241950Z",
      "visibility_m": 10000,
      "taf_visibility_m": 10000,
      "worst_visibility_m": 10000,
      "ceiling_ft": 1200,
      "hazards": [],
      "severityScore": 12,
      "metarRaw": "METAR EKCH 241950Z AUTO 08016KT 9999 OVC017/// M00/M03 Q1012 NOSIG",
      "tafRaw": "TAF EKCH 241727Z 2418/2518 10015KT 9999 BKN018 \n  TEMPO 2418/2502 BKN012 \n  BECMG 2502/2505 BKN012 \n  TEMPO 2506/2518 BKN018"
    },
    {
      "icao": "ESMS",
      "iata": "MMX",
      "name": "Malmö Sturup Airport",
      "lat": 55.535564,
      "lon": 13.376327,
      "updatedAt": "241950Z",
      "visibility_m": 10000,
      "taf_visibility_m": 10000,
      "worst_visibility_m": 10000,
      "ceiling_ft": 1300,
      "hazards": [],
      "severityScore": 12,
      "metarRaw": "METAR ESMS 241950Z 08015KT 9999 OVC013 M01/M03 Q1012",
      "tafRaw": "TAF ESMS 241727Z 2418/2518 09012KT 9999 BKN012 \n  TEMPO 2418/2503 BKN020 \n  TEMPO 2503/2518 BKN007"
    },
    {
      "icao": "LCLK",
      "iata": "LCA",
      "name": "Larnaca International Airport",
      "lat": 34.875099,
      "lon": 33.624901,
      "updatedAt": "242000Z",
      "visibility_m": 10000,
      "taf_visibility_m": 10000,
      "worst_visibility_m": 10000,
      "ceiling_ft": 1400,
      "hazards": [],
      "severityScore": 12,
      "metarRaw": "METAR LCLK 242000Z 30005KT 280V340 CAVOK 10/09 Q1020 NOSIG",
      "tafRaw": "TAF LCLK 241730Z 2418/2518 35009KT 9999 FEW020 SCT040 \n  PROB30 \n  TEMPO 2418/2500 BKN014 \n  BECMG 2508/2511 08010KT \n  BECMG 2515/2518 02007KT"
    },
    {
      "icao": "LEMG",
      "iata": "AGP",
      "name": "Málaga-Costa del Sol Airport",
      "lat": 36.6749,
      "lon": -4.49911,
      "updatedAt": "242000Z",
      "visibility_m": 10000,
      "taf_visibility_m": 4000,
      "worst_visibility_m": 4000,
      "ceiling_ft": null,
      "hazards": [
        "RA"
      ],
      "severityScore": 12,
      "metarRaw": "METAR LEMG 242000Z 29009KT 9999 FEW065 09/03 Q1015 NOSIG",
      "tafRaw": "TAF LEMG 241700Z 2418/2518 31012KT 9999 SCT060 TX16/2514Z TN10/2507Z \n  BECMG 2504/2506 VRB02KT \n  PROB30 \n  TEMPO 2506/2518 4000 RA"
    },
    {
      "icao": "LEZG",
      "iata": "ZAZ",
      "name": "Zaragoza Airport",
      "lat": 41.666199,
      "lon": -1.04155,
      "updatedAt": "242000Z",
      "visibility_m": 10000,
      "taf_visibility_m": 10000,
      "worst_visibility_m": 10000,
      "ceiling_ft": 6000,
      "hazards": [
        "RA"
      ],
      "severityScore": 12,
      "metarRaw": "METAR LEZG 242000Z 28013KT 9999 BKN060 08/02 Q1004 NOSIG",
      "tafRaw": "TAF LEZG 241700Z 2418/2518 27015KT 9999 BKN050 TX14/2514Z TN06/2506Z \n  PROB30 \n  TEMPO 2418/2505 27015G25KT \n  TEMPO 2500/2506 27005KT \n  TEMPO 2505/2518 26018G28KT \n  PROB30 \n  TEMPO 2506/2508 RA \n  TEMPO 2512/2516 26030G48KT"
    },
    {
      "icao": "LGAV",
      "iata": "ATH",
      "name": "Athens Eleftherios Venizelos International Airport",
      "lat": 37.936401,
      "lon": 23.9445,
      "updatedAt": "241950Z",
      "visibility_m": 10000,
      "taf_visibility_m": 5000,
      "worst_visibility_m": 5000,
      "ceiling_ft": 2500,
      "hazards": [
        "RA"
      ],
      "severityScore": 12,
      "metarRaw": "METAR LGAV 241950Z 35002KT 9999 FEW015 SCT025 09/08 Q1016 NOSIG",
      "tafRaw": "TAF LGAV 241700Z 2418/2518 20012KT 9999 SCT015 SCT025 \n  TEMPO 2506/2515 19015G25KT \n  PROB30 \n  TEMPO 2507/2512 5000 RA SCT014 FEW020TCU BKN025 BKN060"
    },
    {
      "icao": "LICA",
      "iata": "SUF",
      "name": "Lamezia Terme Sant'Eufemia International Airport",
      "lat": 38.906214,
      "lon": 16.246007,
      "updatedAt": "241950Z",
      "visibility_m": 10000,
      "taf_visibility_m": 10000,
      "worst_visibility_m": 10000,
      "ceiling_ft": null,
      "hazards": [
        "RA"
      ],
      "severityScore": 12,
      "metarRaw": "METAR LICA 241950Z AUTO 06011KT 9999 BKN110/// BKN160/// 14/11 Q1007",
      "tafRaw": "TAF LICA 241700Z 2418/2518 07008KT 9999 SCT020 \n  BECMG 2420/2422 07018KT \n  TEMPO 2505/2515 RA \n  BECMG 2508/2510 27012KT \n  BECMG 2516/2518 VRB05KT"
    },
    {
      "icao": "LICC",
      "iata": "CTA",
      "name": "Catania-Fontanarossa Airport",
      "lat": 37.466801,
      "lon": 15.0664,
      "updatedAt": "241950Z",
      "visibility_m": 10000,
      "taf_visibility_m": 4000,
      "worst_visibility_m": 4000,
      "ceiling_ft": null,
      "hazards": [
        "RA"
      ],
      "severityScore": 12,
      "metarRaw": "METAR LICC 241950Z 11005KT CAVOK 15/12 Q1008",
      "tafRaw": "TAF LICC 241700Z 2418/2518 VRB06KT 9999 SCT030 \n  BECMG 2506/2508 25012KT \n  TEMPO 2509/2515 4000 RA"
    },
    {
      "icao": "LWOH",
      "iata": "OHD",
      "name": "Ohrid St. Paul the Apostle Airport",
      "lat": 41.18,
      "lon": 20.7423,
      "updatedAt": "241950Z",
      "visibility_m": 10000,
      "taf_visibility_m": 10000,
      "worst_visibility_m": 10000,
      "ceiling_ft": 4000,
      "hazards": [
        "RA"
      ],
      "severityScore": 12,
      "metarRaw": "METAR LWOH 241950Z VRB01KT 9999 -RA SCT015 OVC040 05/05 Q1012",
      "tafRaw": "TAF LWOH 241730Z 2418/2518 VRB02KT 9999 RA OVC040 \n  BECMG 2421/2423 16012KT"
    },
    {
      "icao": "EHEH",
      "iata": "EIN",
      "name": "Eindhoven Airport",
      "lat": 51.4500999451,
      "lon": 5.37452983856,
      "updatedAt": "241955Z",
      "visibility_m": 10000,
      "taf_visibility_m": 4500,
      "worst_visibility_m": 4500,
      "ceiling_ft": 23000,
      "hazards": [
        "BR"
      ],
      "severityScore": 10,
      "metarRaw": "METAR EHEH 241955Z AUTO 10005KT 060V140 9999 FEW150 OVC230 04/M01 Q1001 BLU NOSIG RMK TREND REMOTE BY EHWX",
      "tafRaw": "TAF EHEH 241734Z 2418/2524 09006KT 9000 NSC \n  PROB30 2418/2422 4500 BR"
    },
    {
      "icao": "ENBR",
      "iata": "BGO",
      "name": "Bergen Airport, Flesland",
      "lat": 60.2934,
      "lon": 5.21814,
      "updatedAt": "241950Z",
      "visibility_m": 10000,
      "taf_visibility_m": 10000,
      "worst_visibility_m": 10000,
      "ceiling_ft": 4000,
      "hazards": [
        "BR"
      ],
      "severityScore": 10,
      "metarRaw": "METAR ENBR 241950Z 10006KT 9999 BKN040 M02/M12 Q1014 NOSIG RMK WIND 1200FT 12012KT",
      "tafRaw": "TAF ENBR 241700Z 2418/2518 08003KT 9999 BKN040"
    },
    {
      "icao": "EYPA",
      "iata": "PLQ",
      "name": "Palanga International Airport",
      "lat": 55.973202,
      "lon": 21.093901,
      "updatedAt": "241950Z",
      "visibility_m": 10000,
      "taf_visibility_m": 5000,
      "worst_visibility_m": 5000,
      "ceiling_ft": 2000,
      "hazards": [
        "BR"
      ],
      "severityScore": 10,
      "metarRaw": "METAR EYPA 241950Z 10005KT 070V130 CAVOK M12/M15 Q1019",
      "tafRaw": "TAF EYPA 241707Z 2418/2518 VRB05KT 8000 SCT025 \n  BECMG 2418/2421 BKN020 \n  TEMPO 2421/2506 5000 BR SCT005 \n  BECMG 2506/2508 10010KT"
    },
    {
      "icao": "HESX",
      "iata": "SPX",
      "name": "Sphinx International Airport",
      "lat": 30.108179,
      "lon": 30.895728,
      "updatedAt": "242000Z",
      "visibility_m": 10000,
      "taf_visibility_m": 3000,
      "worst_visibility_m": 3000,
      "ceiling_ft": null,
      "hazards": [
        "BR"
      ],
      "severityScore": 10,
      "metarRaw": "METAR HESX 242000Z 24004KT CAVOK 13/04 Q1019 NOSIG",
      "tafRaw": "TAF HESX 241706Z 2418/2524 28007KT CAVOK \n  TEMPO 2500/2506 VRB03KT 3000 BR NSC \n  BECMG 2506/2508 14007KT"
    },
    {
      "icao": "LIBG",
      "iata": "TAR",
      "name": "Taranto-Grottaglie Marcello Arlotta Airport",
      "lat": 40.517502,
      "lon": 17.4032,
      "updatedAt": "241850Z",
      "visibility_m": 10000,
      "taf_visibility_m": 7000,
      "worst_visibility_m": 7000,
      "ceiling_ft": null,
      "hazards": [
        "DZ"
      ],
      "severityScore": 10,
      "metarRaw": "METAR LIBG 241850Z 15009KT 9999 SCT010 14/13 Q1008",
      "tafRaw": "TAF LIBG 241700Z 2418/2503 15006KT 7000 SCT012 \n  TEMPO 2419/2501 DZ \n  BECMG 2500/2502 16016KT"
    },
    {
      "icao": "LRBV",
      "iata": "GHV",
      "name": "Brașov-Ghimbav International Airport",
      "lat": 45.70558,
      "lon": 25.522871,
      "updatedAt": "242000Z",
      "visibility_m": 10000,
      "taf_visibility_m": 5000,
      "worst_visibility_m": 5000,
      "ceiling_ft": null,
      "hazards": [
        "BR"
      ],
      "severityScore": 10,
      "metarRaw": "METAR LRBV 242000Z 10005KT 070V230 CAVOK 00/M01 Q1009",
      "tafRaw": "TAF LRBV 241700Z 2418/2503 11006KT CAVOK \n  BECMG 2420/2422 5000 BR"
    },
    {
      "icao": "EDFH",
      "iata": "HHN",
      "name": "Frankfurt-Hahn Airport",
      "lat": 49.946353,
      "lon": 7.261734,
      "updatedAt": "241950Z",
      "visibility_m": 9000,
      "taf_visibility_m": null,
      "worst_visibility_m": 9000,
      "ceiling_ft": null,
      "hazards": [],
      "severityScore": 5,
      "metarRaw": "METAR EDFH 241950Z 14013KT 9000 NSC M02/M05 Q1000",
      "tafRaw": null
    },
    {
      "icao": "EPGD",
      "iata": "GDN",
      "name": "Gdańsk Lech Wałęsa Airport",
      "lat": 54.377602,
      "lon": 18.4662,
      "updatedAt": "242000Z",
      "visibility_m": 10000,
      "taf_visibility_m": null,
      "worst_visibility_m": 10000,
      "ceiling_ft": 4500,
      "hazards": [],
      "severityScore": 5,
      "metarRaw": "METAR EPGD 242000Z 11010KT 9999 BKN045 M08/M10 Q1013",
      "tafRaw": null
    },
    {
      "icao": "LEAL",
      "iata": "ALC",
      "name": "Alicante-Elche Miguel Hernández Airport",
      "lat": 38.2822,
      "lon": -0.558156,
      "updatedAt": "242000Z",
      "visibility_m": 10000,
      "taf_visibility_m": null,
      "worst_visibility_m": 10000,
      "ceiling_ft": null,
      "hazards": [],
      "severityScore": 5,
      "metarRaw": "METAR LEAL 242000Z 24008KT 200V280 CAVOK 11/M00 Q1007 NOSIG",
      "tafRaw": null
    },
    {
      "icao": "LECH",
      "iata": "CDT",
      "name": "Castellón-Costa Azahar Airport",
      "lat": 40.213889,
      "lon": 0.073333,
      "updatedAt": "242000Z",
      "visibility_m": 10000,
      "taf_visibility_m": null,
      "worst_visibility_m": 10000,
      "ceiling_ft": null,
      "hazards": [],
      "severityScore": 5,
      "metarRaw": "METAR LECH 242000Z AUTO 28012G26KT 200V360 CAVOK 09/M03 Q1003",
      "tafRaw": null
    },
    {
      "icao": "LRSM",
      "iata": "SUJ",
      "name": "Satu Mare International Airport",
      "lat": 47.7033,
      "lon": 22.8857,
      "updatedAt": "242000Z",
      "visibility_m": 8000,
      "taf_visibility_m": null,
      "worst_visibility_m": 8000,
      "ceiling_ft": null,
      "hazards": [],
      "severityScore": 5,
      "metarRaw": "METAR LRSM 242000Z AUTO 12002KT 8000 OVC060/// 02/01 Q1010",
      "tafRaw": null
    },
    {
      "icao": "LZTT",
      "iata": "TAT",
      "name": "Poprad-Tatry Airport",
      "lat": 49.073601,
      "lon": 20.2411,
      "updatedAt": "242000Z",
      "visibility_m": 10000,
      "taf_visibility_m": null,
      "worst_visibility_m": 10000,
      "ceiling_ft": 2800,
      "hazards": [],
      "severityScore": 5,
      "metarRaw": "METAR LZTT 242000Z 18006KT 9999 FEW010 BKN028 OVC050 01/01 Q1005",
      "tafRaw": null
    },
    {
      "icao": "BIKF",
      "iata": "KEF",
      "name": "Keflavik International Airport",
      "lat": 63.985001,
      "lon": -22.6056,
      "updatedAt": "242000Z",
      "visibility_m": 10000,
      "taf_visibility_m": 10000,
      "worst_visibility_m": 10000,
      "ceiling_ft": 14000,
      "hazards": [],
      "severityScore": 0,
      "metarRaw": "METAR BIKF 242000Z 08019KT 9999 SCT033 BKN140 05/M01 Q1003",
      "tafRaw": "TAF BIKF 241617Z 2418/2518 09015KT 9999 FEW025 TX04/2420Z TN02/2506Z \n  TEMPO 2418/2518 09020G30KT"
    },
    {
      "icao": "BKPR",
      "iata": "PRN",
      "name": "Priština Adem Jashari International Airport",
      "lat": 42.5728,
      "lon": 21.035801,
      "updatedAt": "242000Z",
      "visibility_m": 10000,
      "taf_visibility_m": 10000,
      "worst_visibility_m": 10000,
      "ceiling_ft": 4000,
      "hazards": [],
      "severityScore": 0,
      "metarRaw": "METAR BKPR 242000Z 18008KT 9999 SCT050 04/03 Q1011 NOSIG",
      "tafRaw": "TAF BKPR 241730Z 2418/2518 17008KT 9999 BKN040"
    },
    {
      "icao": "GCFV",
      "iata": "FUE",
      "name": "Fuerteventura Airport",
      "lat": 28.4527,
      "lon": -13.8638,
      "updatedAt": "242000Z",
      "visibility_m": 10000,
      "taf_visibility_m": 10000,
      "worst_visibility_m": 10000,
      "ceiling_ft": null,
      "hazards": [],
      "severityScore": 0,
      "metarRaw": "METAR GCFV 242000Z 01011KT 9999 FEW040 17/09 Q1027",
      "tafRaw": "TAF GCFV 241400Z 2415/2515 02014KT 9999 FEW035 TX20/2514Z TN14/2506Z \n  TEMPO 2422/2509 32005KT"
    },
    {
      "icao": "GCLP",
      "iata": "LPA",
      "name": "Gran Canaria Airport",
      "lat": 27.9319,
      "lon": -15.3866,
      "updatedAt": "242000Z",
      "visibility_m": 10000,
      "taf_visibility_m": 10000,
      "worst_visibility_m": 10000,
      "ceiling_ft": null,
      "hazards": [],
      "severityScore": 0,
      "metarRaw": "METAR GCLP 242000Z 01011KT 9999 FEW035 17/09 Q1027 NOSIG",
      "tafRaw": "TAF GCLP 241400Z 2415/2515 02017KT 9999 FEW035 TX20/2514Z TN13/2506Z \n  PROB30 \n  TEMPO 2415/2418 36020G30KT \n  BECMG 2419/2421 32007KT \n  BECMG 2509/2511 03014KT"
    },
    {
      "icao": "GMAD",
      "iata": "AGA",
      "name": "Al Massira Airport",
      "lat": 30.322478,
      "lon": -9.412003,
      "updatedAt": "242000Z",
      "visibility_m": 10000,
      "taf_visibility_m": 8000,
      "worst_visibility_m": 8000,
      "ceiling_ft": null,
      "hazards": [],
      "severityScore": 0,
      "metarRaw": "METAR GMAD 242000Z 25010KT 9999 FEW016 13/07 Q1024 NOSIG",
      "tafRaw": "TAF GMAD 241700Z 2418/2524 20010KT 8000 SCT020"
    },
    {
      "icao": "EDDK",
      "iata": "CGN",
      "name": "Cologne Bonn Airport",
      "lat": 50.865898,
      "lon": 7.14274,
      "updatedAt": "241950Z",
      "visibility_m": 10000,
      "taf_visibility_m": 10000,
      "worst_visibility_m": 10000,
      "ceiling_ft": null,
      "hazards": [],
      "severityScore": 0,
      "metarRaw": "METAR EDDK 241950Z AUTO 11003KT 070V140 CAVOK 01/M03 Q1002 NOSIG",
      "tafRaw": "TAF EDDK 241700Z 2418/2524 11006KT CAVOK"
    },
    {
      "icao": "EHBK",
      "iata": "MST",
      "name": "Maastricht Aachen Airport",
      "lat": 50.911701,
      "lon": 5.77014,
      "updatedAt": "241955Z",
      "visibility_m": 10000,
      "taf_visibility_m": 6000,
      "worst_visibility_m": 6000,
      "ceiling_ft": null,
      "hazards": [],
      "severityScore": 0,
      "metarRaw": "METAR EHBK 241955Z AUTO 10006KT 9999 NSC 03/01 Q1001 NOSIG",
      "tafRaw": "TAF EHBK 241706Z 2418/2524 08005KT CAVOK \n  BECMG 2521/2524 33005KT 6000"
    },
    {
      "icao": "ENAL",
      "iata": "AES",
      "name": "Ålesund Airport, Vigra",
      "lat": 62.5625,
      "lon": 6.1197,
      "updatedAt": "241950Z",
      "visibility_m": 10000,
      "taf_visibility_m": 10000,
      "worst_visibility_m": 10000,
      "ceiling_ft": 6000,
      "hazards": [],
      "severityScore": 0,
      "metarRaw": "METAR ENAL 241950Z 14013KT 9999 FEW045 BKN060 M01/M09 Q1014",
      "tafRaw": "TAF ENAL 241700Z 2418/2503 14012KT 9999 FEW040"
    },
    {
      "icao": "ENHD",
      "iata": "HAU",
      "name": "Haugesund Airport, Karmøy",
      "lat": 59.345299,
      "lon": 5.20836,
      "updatedAt": "241950Z",
      "visibility_m": 10000,
      "taf_visibility_m": 10000,
      "worst_visibility_m": 10000,
      "ceiling_ft": null,
      "hazards": [],
      "severityScore": 0,
      "metarRaw": "METAR ENHD 241950Z /////KT CAVOK M02/M11 Q1013 RMK WIND RWY 31 08011KT",
      "tafRaw": "TAF ENHD 241400Z 2415/2423 10008KT CAVOK"
    },
    {
      "icao": "ENVA",
      "iata": "TRD",
      "name": "Trondheim Airport, Værnes",
      "lat": 63.457802,
      "lon": 10.924,
      "updatedAt": "241950Z",
      "visibility_m": 10000,
      "taf_visibility_m": 10000,
      "worst_visibility_m": 10000,
      "ceiling_ft": 4900,
      "hazards": [],
      "severityScore": 0,
      "metarRaw": "METAR ENVA 241950Z 12006KT 9999 BKN049 M05/M13 Q1016 RMK WIND 670FT 14012KT",
      "tafRaw": "TAF ENVA 241700Z 2418/2518 09008KT CAVOK"
    },
    {
      "icao": "ENZV",
      "iata": "SVG",
      "name": "Stavanger Airport, Sola",
      "lat": 58.876701,
      "lon": 5.63778,
      "updatedAt": "241950Z",
      "visibility_m": 10000,
      "taf_visibility_m": 10000,
      "worst_visibility_m": 10000,
      "ceiling_ft": null,
      "hazards": [],
      "severityScore": 0,
      "metarRaw": "METAR ENZV 241950Z 08011KT CAVOK M01/M09 Q1013 NOSIG",
      "tafRaw": "TAF ENZV 241700Z 2418/2518 08009KT CAVOK"
    },
    {
      "icao": "ESGG",
      "iata": "GOT",
      "name": "Göteborg Landvetter Airport",
      "lat": 57.6628,
      "lon": 12.2798,
      "updatedAt": "241950Z",
      "visibility_m": 10000,
      "taf_visibility_m": 10000,
      "worst_visibility_m": 10000,
      "ceiling_ft": 4500,
      "hazards": [],
      "severityScore": 0,
      "metarRaw": "METAR ESGG 241950Z 11010KT 9999 OVC045 M05/M08 Q1015",
      "tafRaw": "TAF ESGG 241730Z 2418/2518 11011KT 9999 SCT015 OVC045"
    },
    {
      "icao": "HEGN",
      "iata": "HRG",
      "name": "Hurghada International Airport",
      "lat": 27.176776,
      "lon": 33.796692,
      "updatedAt": "242000Z",
      "visibility_m": 10000,
      "taf_visibility_m": 10000,
      "worst_visibility_m": 10000,
      "ceiling_ft": null,
      "hazards": [],
      "severityScore": 0,
      "metarRaw": "METAR HEGN 242000Z 30008KT CAVOK 18/03 Q1020 NOSIG",
      "tafRaw": "TAF HEGN 241700Z 2418/2524 30012KT CAVOK"
    },
    {
      "icao": "HEMA",
      "iata": "RMF",
      "name": "Marsa Alam International Airport",
      "lat": 25.555548,
      "lon": 34.59245,
      "updatedAt": "242000Z",
      "visibility_m": 10000,
      "taf_visibility_m": 10000,
      "worst_visibility_m": 10000,
      "ceiling_ft": null,
      "hazards": [],
      "severityScore": 0,
      "metarRaw": "METAR HEMA 242000Z 32008KT CAVOK 18/07 Q1019 NOSIG",
      "tafRaw": "TAF HEMA 241706Z 2418/2524 31012KT CAVOK"
    },
    {
      "icao": "HESH",
      "iata": "SSH",
      "name": "Sharm El Sheikh International Airport",
      "lat": 27.977272,
      "lon": 34.394717,
      "updatedAt": "242000Z",
      "visibility_m": 10000,
      "taf_visibility_m": 10000,
      "worst_visibility_m": 10000,
      "ceiling_ft": null,
      "hazards": [],
      "severityScore": 0,
      "metarRaw": "METAR HESH 242000Z 27004KT CAVOK 18/05 Q1019 NOSIG",
      "tafRaw": "TAF HESH 241700Z 2418/2524 35010KT CAVOK"
    },
    {
      "icao": "LATI",
      "iata": "TIA",
      "name": "Tirana International Airport Mother Teresa",
      "lat": 41.4147,
      "lon": 19.7206,
      "updatedAt": "241950Z",
      "visibility_m": 10000,
      "taf_visibility_m": 10000,
      "worst_visibility_m": 10000,
      "ceiling_ft": 6000,
      "hazards": [],
      "severityScore": 0,
      "metarRaw": "METAR LATI 241950Z 15003KT 9999 SCT038 09/06 Q1011 NOSIG",
      "tafRaw": "TAF LATI 241700Z 2418/2518 VRB05KT 9999 SCT030 BKN060 TX16/2512Z TN08/2505Z \n  BECMG 2510/2512 16015KT"
    },
    {
      "icao": "LCPH",
      "iata": "PFO",
      "name": "Paphos International Airport",
      "lat": 34.717999,
      "lon": 32.485699,
      "updatedAt": "242000Z",
      "visibility_m": 10000,
      "taf_visibility_m": 10000,
      "worst_visibility_m": 10000,
      "ceiling_ft": null,
      "hazards": [],
      "severityScore": 0,
      "metarRaw": "METAR LCPH 242000Z 00000KT CAVOK 11/09 Q1020 NOSIG",
      "tafRaw": "TAF LCPH 241730Z 2418/2518 06008KT 9999 FEW020 SCT040 \n  BECMG 2508/2511 14012KT \n  BECMG 2514/2517 07008KT"
    },
    {
      "icao": "LEBL",
      "iata": "BCN",
      "name": "Josep Tarradellas Barcelona-El Prat Airport",
      "lat": 41.2971,
      "lon": 2.07846,
      "updatedAt": "242000Z",
      "visibility_m": 10000,
      "taf_visibility_m": 9000,
      "worst_visibility_m": 9000,
      "ceiling_ft": 5000,
      "hazards": [],
      "severityScore": 0,
      "metarRaw": "METAR LEBL 242000Z VRB02KT 9999 FEW020 09/03 Q0998 NOSIG",
      "tafRaw": "TAF LEBL 241700Z 2418/2518 24010KT 9000 BKN050 TX16/2512Z TN08/2506Z \n  TEMPO 2418/2420 FEW020TCU \n  BECMG 2420/2422 31015KT \n  TEMPO 2420/2506 31018G28KT \n  BECMG 2507/2510 26012KT \n  TEMPO 2513/2516 25015G25KT"
    },
    {
      "icao": "LEVC",
      "iata": "VLC",
      "name": "Valencia Airport",
      "lat": 39.4893,
      "lon": -0.481625,
      "updatedAt": "242000Z",
      "visibility_m": 10000,
      "taf_visibility_m": 10000,
      "worst_visibility_m": 10000,
      "ceiling_ft": null,
      "hazards": [],
      "severityScore": 0,
      "metarRaw": "METAR LEVC 242000Z 26010KT 210V300 CAVOK 10/00 Q1006 NOSIG",
      "tafRaw": "TAF LEVC 241700Z 2418/2518 27018KT 9999 FEW055 TX17/2513Z TN08/2506Z \n  TEMPO 2418/2502 27020G30KT \n  TEMPO 2502/2509 24008KT \n  TEMPO 2508/2518 27020G30KT \n  TEMPO 2511/2517 27025G43KT"
    },
    {
      "icao": "LLBG",
      "iata": "TLV",
      "name": "Ben Gurion International Airport",
      "lat": 32.011398,
      "lon": 34.8867,
      "updatedAt": "241950Z",
      "visibility_m": 9000,
      "taf_visibility_m": 10000,
      "worst_visibility_m": 9000,
      "ceiling_ft": null,
      "hazards": [],
      "severityScore": 0,
      "metarRaw": "METAR LLBG 241950Z 12005KT 9000 NSC 12/08 Q1020 NOSIG",
      "tafRaw": "TAF LLBG 241717Z 2418/2518 VRB04KT CAVOK \n  BECMG 2508/2510 31010KT \n  BECMG 2514/2516 02005KT TX21/2511Z TN07/2504Z"
    },
    {
      "icao": "LPMA",
      "iata": "FNC",
      "name": "Cristiano Ronaldo International Airport",
      "lat": 32.697812,
      "lon": -16.774613,
      "updatedAt": "242000Z",
      "visibility_m": 10000,
      "taf_visibility_m": 10000,
      "worst_visibility_m": 10000,
      "ceiling_ft": null,
      "hazards": [],
      "severityScore": 0,
      "metarRaw": "METAR LPMA 242000Z 28005KT 9999 FEW016 15/09 Q1027",
      "tafRaw": "TAF LPMA 241700Z 2418/2518 VRB05KT 9999 SCT015"
    },
    {
      "icao": "LPPS",
      "iata": "PXO",
      "name": "Porto Santo Airport",
      "lat": 33.0733985901,
      "lon": -16.3500003815,
      "updatedAt": "242000Z",
      "visibility_m": 10000,
      "taf_visibility_m": 10000,
      "worst_visibility_m": 10000,
      "ceiling_ft": null,
      "hazards": [],
      "severityScore": 0,
      "metarRaw": "METAR LPPS 242000Z 30009KT 9999 FEW015 15/10 Q1027",
      "tafRaw": "TAF LPPS 241700Z 2418/2524 30008KT 9999 SCT015 \n  BECMG 2507/2509 27013KT \n  TEMPO 2509/2516 27015G25KT"
    },
    {
      "icao": "LYBE",
      "iata": "BEG",
      "name": "Belgrade Nikola Tesla Airport",
      "lat": 44.818401,
      "lon": 20.309099,
      "updatedAt": "242000Z",
      "visibility_m": 10000,
      "taf_visibility_m": 10000,
      "worst_visibility_m": 10000,
      "ceiling_ft": null,
      "hazards": [],
      "severityScore": 0,
      "metarRaw": "METAR LYBE 242000Z 14010KT 9999 FEW046 06/04 Q1008 NOSIG",
      "tafRaw": "TAF LYBE 241700Z 2418/2518 12007KT CAVOK TX12/2513Z TN04/2503Z \n  BECMG 2508/2510 12017KT"
    },
    {
      "icao": "LYNI",
      "iata": "INI",
      "name": "Niš Constantine the Great Airport",
      "lat": 43.336538,
      "lon": 21.856242,
      "updatedAt": "242000Z",
      "visibility_m": 10000,
      "taf_visibility_m": 10000,
      "worst_visibility_m": 10000,
      "ceiling_ft": null,
      "hazards": [],
      "severityScore": 0,
      "metarRaw": "METAR LYNI 242000Z 11003KT 9999 SCT057 07/03 Q1012 NOSIG",
      "tafRaw": "TAF LYNI 241700Z 2418/2518 10006KT 9999 SCT090 TX12/2513Z TN03/2505Z"
    },
    {
      "icao": "OEJN",
      "iata": "JED",
      "name": "King Abdulaziz International Airport",
      "lat": 21.6796,
      "lon": 39.156502,
      "updatedAt": "242000Z",
      "visibility_m": 10000,
      "taf_visibility_m": 3000,
      "worst_visibility_m": 3000,
      "ceiling_ft": null,
      "hazards": [],
      "severityScore": 0,
      "metarRaw": "METAR OEJN 242000Z 32010KT 9999 FEW040 26/21 Q1015 NOSIG",
      "tafRaw": "TAF OEJN 241700Z 2418/2524 36012KT 7000 SCT040 \n  BECMG 2518/2520 09015KT \n  TEMPO 2518/2523 3000 BLDU"
    },
    {
      "icao": "OEMA",
      "iata": "MED",
      "name": "Prince Mohammad Bin Abdulaziz Airport",
      "lat": 24.5534,
      "lon": 39.705101,
      "updatedAt": "242000Z",
      "visibility_m": 10000,
      "taf_visibility_m": 7000,
      "worst_visibility_m": 7000,
      "ceiling_ft": null,
      "hazards": [],
      "severityScore": 0,
      "metarRaw": "METAR OEMA 242000Z 27007KT CAVOK 21/14 Q1018 NOSIG",
      "tafRaw": "TAF OEMA 241700Z 2418/2524 33012KT 9999 FEW040 \n  BECMG 2506/2508 09012KT 7000 NSC"
    }
  ],
  "stats": {
    "icaoCount": 159,
    "metarReturned": 159,
    "tafReturned": 143,
    "stationsWritten": 159,
    "missingMetar": 0,
    "missingTaf": 16
  },
  "errors": []
}