{
  "generatedAt": "2026-01-19T07:46:16.924Z",
  "stations": [
    {
      "icao": "EDDS",
      "iata": "STR",
      "name": "Stuttgart Airport",
      "lat": 48.689899,
      "lon": 9.22196,
      "updatedAt": "190720Z",
      "visibility_m": 900,
      "taf_visibility_m": 500,
      "worst_visibility_m": 500,
      "ceiling_ft": 100,
      "hazards": [
        "FZFG",
        "BR",
        "FG"
      ],
      "severityScore": 100,
      "metarRaw": "METAR EDDS 190720Z AUTO VRB02KT 1800 1400 R25/1900N BR OVC001 M02/M03 Q1018 TEMPO 0900 FZFG",
      "tafRaw": "TAF EDDS 190500Z 1906/2006 VRB02KT 3000 BR OVC002 \n  PROB30 \n  TEMPO 1906/1909 0700 FZFG OVC001 \n  BECMG 1909/1912 CAVOK \n  PROB40 \n  TEMPO 1923/2006 0500 FZFG OVC001"
    },
    {
      "icao": "EDFH",
      "iata": "HHN",
      "name": "Frankfurt-Hahn Airport",
      "lat": 49.946353,
      "lon": 7.261734,
      "updatedAt": "190720Z",
      "visibility_m": 500,
      "taf_visibility_m": 500,
      "worst_visibility_m": 500,
      "ceiling_ft": 100,
      "hazards": [
        "FZFG",
        "FG",
        "BR"
      ],
      "severityScore": 100,
      "metarRaw": "METAR EDFH 190720Z 15004KT 120V180 0500 R21/0500N FZFG VV/// M01/M01 Q1017",
      "tafRaw": "TAF EDFH 190500Z 1906/2006 14010KT 0800 FZFG OVC002 \n  TEMPO 1906/1908 0500 FZFG OVC001 \n  BECMG 1908/1911 3000 BR \n  TEMPO 1911/1917 6000 BKN005 \n  TEMPO 1917/2006 0500 FZFG OVC001"
    },
    {
      "icao": "EDJA",
      "iata": "FMM",
      "name": "Memmingen Allgau Airport",
      "lat": 47.988092,
      "lon": 10.238248,
      "updatedAt": "190720Z",
      "visibility_m": 10000,
      "taf_visibility_m": 600,
      "worst_visibility_m": 600,
      "ceiling_ft": 200,
      "hazards": [
        "FZFG",
        "FG"
      ],
      "severityScore": 100,
      "metarRaw": "METAR EDJA 190720Z VRB02KT CAVOK M04/M05 Q1018",
      "tafRaw": "TAF EDJA 190500Z 1906/1915 05004KT 8000 SCT002 \n  PROB30 \n  TEMPO 1906/1909 0600 FZFG VV002"
    },
    {
      "icao": "EDNY",
      "iata": "FDH",
      "name": "Bodensee Airport Friedrichshafen",
      "lat": 47.671299,
      "lon": 9.51149,
      "updatedAt": "190720Z",
      "visibility_m": 4500,
      "taf_visibility_m": 600,
      "worst_visibility_m": 600,
      "ceiling_ft": 400,
      "hazards": [
        "BR",
        "FZFG",
        "FG"
      ],
      "severityScore": 100,
      "metarRaw": "METAR EDNY 190720Z 06003KT 030V090 4500 BR OVC004 M02/M03 Q1020",
      "tafRaw": "TAF EDNY 190500Z 1906/1915 04003KT 5000 BR OVC002 \n  TEMPO 1906/1910 3000 BR \n  PROB30 \n  TEMPO 1906/1909 0600 FZFG \n  BECMG 1910/1912 FEW002"
    },
    {
      "icao": "EDSB",
      "iata": "FKB",
      "name": "Karlsruhe Baden-Baden Airport",
      "lat": 48.7794,
      "lon": 8.0805,
      "updatedAt": "190720Z",
      "visibility_m": 6000,
      "taf_visibility_m": 500,
      "worst_visibility_m": 500,
      "ceiling_ft": 700,
      "hazards": [
        "FZFG",
        "BR",
        "FG"
      ],
      "severityScore": 100,
      "metarRaw": "METAR EDSB 190720Z VRB01KT 6000 OVC007 01/M00 Q1020",
      "tafRaw": "TAF EDSB 190500Z 1906/2006 VRB02KT 8000 OVC008 \n  TEMPO 1915/1921 SCT008 \n  BECMG 1921/1924 2000 BR OVC002 \n  TEMPO 2000/2006 0500 FZFG OVC001"
    },
    {
      "icao": "EETN",
      "iata": "TLL",
      "name": "Lennart Meri Tallinn Airport",
      "lat": 59.413246,
      "lon": 24.83264,
      "updatedAt": "190720Z",
      "visibility_m": 2000,
      "taf_visibility_m": 800,
      "worst_visibility_m": 800,
      "ceiling_ft": 300,
      "hazards": [
        "BR",
        "FZFG",
        "FZDZ",
        "FG",
        "DZ"
      ],
      "severityScore": 100,
      "metarRaw": "METAR EETN 190720Z 21007KT 3300 BR OVC003 M07/M07 Q1034 TEMPO 2000",
      "tafRaw": "TAF EETN 190530Z 1906/2006 19006KT 8000 BKN005 OVC010 \n  TEMPO 1906/1910 0800 FZFG OVC002 \n  PROB30 \n  TEMPO 1906/1909 -FZDZ \n  PROB40 \n  TEMPO 1914/1918 3000 BR OVC003 \n  TEMPO 1918/2006 0800 FZFG OVC002"
    },
    {
      "icao": "EGBB",
      "iata": "BHX",
      "name": "Birmingham Airport",
      "lat": 52.453899,
      "lon": -1.74803,
      "updatedAt": "190720Z",
      "visibility_m": 2200,
      "taf_visibility_m": 300,
      "worst_visibility_m": 300,
      "ceiling_ft": 400,
      "hazards": [
        "BR",
        "RA",
        "DZ",
        "FG"
      ],
      "severityScore": 100,
      "metarRaw": "METAR EGBB 190720Z COR 15004KT 2200 -RADZ BR BKN004 07/07 Q1012",
      "tafRaw": "TAF EGBB 190501Z 1906/2006 15005KT 3000 BR SCT003 BKN006 \n  TEMPO 1906/1912 0300 RADZ FG BKN001 \n  BECMG 1910/1913 6000 NSW \n  TEMPO 1912/1920 3000 RADZ BR BKN003 \n  PROB30 \n  TEMPO 1912/1919 0300 FG BKN001 \n  BECMG 1919/1922 SCT010 \n  TEMPO 1920/2003 4000 RADZ BKN008"
    },
    {
      "icao": "EGGP",
      "iata": "LPL",
      "name": "Liverpool John Lennon Airport",
      "lat": 53.334863,
      "lon": -2.849637,
      "updatedAt": "190720Z",
      "visibility_m": 5000,
      "taf_visibility_m": 300,
      "worst_visibility_m": 300,
      "ceiling_ft": 800,
      "hazards": [
        "BR",
        "FG",
        "RA",
        "DZ"
      ],
      "severityScore": 100,
      "metarRaw": "METAR EGGP 190720Z 11003KT 5000 BR SCT005 BKN008 BKN012 05/05 Q1012",
      "tafRaw": "TAF EGGP 190458Z 1906/2006 VRB03KT 9999 FEW008 BKN025 \n  PROB30 \n  TEMPO 1906/1910 0300 FG BKN001 \n  TEMPO 1909/1918 4000 RADZ BR BKN004 \n  TEMPO 1912/1915 16010KT \n  TEMPO 1918/2006 8000 -RA BKN010 \n  PROB30 \n  TEMPO 2002/2006 4000 RA BKN006"
    },
    {
      "icao": "EGGW",
      "iata": "LTN",
      "name": "London Luton Airport",
      "lat": 51.874699,
      "lon": -0.368333,
      "updatedAt": "190720Z",
      "visibility_m": 2600,
      "taf_visibility_m": 300,
      "worst_visibility_m": 300,
      "ceiling_ft": 200,
      "hazards": [
        "BR",
        "FG",
        "DZ",
        "RA"
      ],
      "severityScore": 100,
      "metarRaw": "METAR EGGW 190720Z AUTO 16006KT 2600 BR OVC002 06/06 Q1013",
      "tafRaw": "TAF EGGW 190456Z 1906/2006 15007KT 6000 FEW005 SCT015 \n  TEMPO 1906/1914 3000 BR BKN003 \n  PROB30 \n  TEMPO 1906/1910 0300 FG BKN001 \n  BECMG 1913/1916 9999 \n  TEMPO 1914/2006 6000 -RADZ BKN007 \n  PROB30 \n  TEMPO 2002/2006 0600 DZ FG BKN001"
    },
    {
      "icao": "EGNM",
      "iata": "LBA",
      "name": "Leeds Bradford Airport",
      "lat": 53.865898,
      "lon": -1.66057,
      "updatedAt": "190720Z",
      "visibility_m": 250,
      "taf_visibility_m": 300,
      "worst_visibility_m": 250,
      "ceiling_ft": 500,
      "hazards": [
        "FG",
        "BR",
        "RA",
        "DZ"
      ],
      "severityScore": 100,
      "metarRaw": "METAR EGNM 190720Z 07003KT 0250 R32/0400N FG VV/// 06/06 Q1012",
      "tafRaw": "TAF EGNM 190458Z 1906/2006 15004KT 0300 FG VV/// \n  PROB30 \n  TEMPO 1906/1919 2000 RADZ BR BKN005 \n  BECMG 1919/1922 9999 NSW BKN025 \n  PROB30 \n  TEMPO 1922/2006 7000 BKN012"
    },
    {
      "icao": "EGPD",
      "iata": "ABZ",
      "name": "Aberdeen International Airport",
      "lat": 57.2019,
      "lon": -2.19778,
      "updatedAt": "190720Z",
      "visibility_m": 4000,
      "taf_visibility_m": 300,
      "worst_visibility_m": 300,
      "ceiling_ft": 100,
      "hazards": [
        "BR",
        "FG",
        "DZ",
        "RA"
      ],
      "severityScore": 100,
      "metarRaw": "METAR EGPD 190720Z AUTO VRB02KT 7000 FEW006 04/03 Q1012 TEMPO 4000 BR",
      "tafRaw": "TAF EGPD 190456Z 1906/2006 14008KT 9999 SCT008 \n  TEMPO 1906/1915 5000 BR BKN012 \n  PROB30 \n  TEMPO 1906/1911 0300 FG VV/// \n  BECMG 1915/1918 4000 -RADZ BR BKN004 \n  PROB40 \n  TEMPO 1916/2006 0300 FG DZ BKN001"
    },
    {
      "icao": "EPKK",
      "iata": "KRK",
      "name": "Kraków John Paul II International Airport",
      "lat": 50.077702,
      "lon": 19.7848,
      "updatedAt": "190730Z",
      "visibility_m": 5000,
      "taf_visibility_m": 400,
      "worst_visibility_m": 400,
      "ceiling_ft": 100,
      "hazards": [
        "BR",
        "FZFG",
        "FG"
      ],
      "severityScore": 100,
      "metarRaw": "METAR EPKK 190730Z 04003KT 350V050 5000 BR NSC M12/M14 Q1034",
      "tafRaw": "TAF EPKK 190530Z 1906/2006 06004KT 5000 BR NSC \n  TEMPO 1906/1909 2000 BR \n  PROB40 \n  TEMPO 1906/1908 0600 FZFG BKN002 \n  BECMG 1923/2002 3000 BR \n  TEMPO 2000/2006 1200 BR \n  PROB40 2000/2006 0400 FZFG BKN001"
    },
    {
      "icao": "ESKN",
      "iata": "NYO",
      "name": "Stockholm Skavsta Airport",
      "lat": 58.789656,
      "lon": 16.911479,
      "updatedAt": "190720Z",
      "visibility_m": 7000,
      "taf_visibility_m": 500,
      "worst_visibility_m": 500,
      "ceiling_ft": 400,
      "hazards": [
        "FZFG",
        "FG"
      ],
      "severityScore": 100,
      "metarRaw": "METAR ESKN 190720Z 16011KT 7000 OVC004 M00/M00 Q1030",
      "tafRaw": "TAF ESKN 190530Z 1906/2006 16008KT 9999 OVC005 \n  PROB40 1906/1914 BKN004 \n  PROB40 1914/1918 SCT005 \n  PROB40 1918/2006 0500 FZFG VV002"
    },
    {
      "icao": "ESSA",
      "iata": "ARN",
      "name": "Stockholm-Arlanda Airport",
      "lat": 59.64849,
      "lon": 17.928829,
      "updatedAt": "190720Z",
      "visibility_m": 10000,
      "taf_visibility_m": 300,
      "worst_visibility_m": 300,
      "ceiling_ft": 800,
      "hazards": [
        "FZFG",
        "FG"
      ],
      "severityScore": 100,
      "metarRaw": "METAR ESSA 190720Z 17007KT 9999 BKN008 M00/M01 Q1030 TEMPO BKN010",
      "tafRaw": "TAF ESSA 190530Z 1906/2006 16007KT 9999 OVC010 \n  TEMPO 1906/1912 BKN006 \n  PROB40 1912/1919 BKN008 \n  BECMG 1919/1921 BKN004 \n  PROB40 1921/2006 0300 FZFG"
    },
    {
      "icao": "LFBD",
      "iata": "BOD",
      "name": "Bordeaux–Mérignac Airport",
      "lat": 44.82865,
      "lon": -0.715356,
      "updatedAt": "190730Z",
      "visibility_m": 500,
      "taf_visibility_m": 300,
      "worst_visibility_m": 300,
      "ceiling_ft": 300,
      "hazards": [
        "FG",
        "BR",
        "SHRA",
        "RA"
      ],
      "severityScore": 100,
      "metarRaw": "METAR LFBD 190730Z AUTO 14006KT 0600 0500 R23/0600N R05/0800N R29/0600N FG VV/// 08/08 Q1015 NOSIG",
      "tafRaw": "TAF LFBD 190500Z 1906/2012 15005KT 6000 BKN020 TX12/1913Z TN04/2006Z \n  TEMPO 1906/1910 3000 BR OVC003 \n  TEMPO 1906/1910 0500 FG VV/// \n  BECMG 1910/1912 9999 NSW SCT030 BKN045 \n  TEMPO 1913/1916 4000 -SHRA BKN030TCU \n  BECMG 2002/2004 2000 BR \n  PROB40 \n  TEMPO 2006/2011 0500 FG VV/// \n  PROB30 \n  TEMPO 2008/2011 0300 FG \n  FM201100 16005KT 8000 BKN004"
    },
    {
      "icao": "LFLL",
      "iata": "LYS",
      "name": "Lyon Saint-Exupéry Airport",
      "lat": 45.725996,
      "lon": 5.090139,
      "updatedAt": "190730Z",
      "visibility_m": 200,
      "taf_visibility_m": 200,
      "worst_visibility_m": 200,
      "ceiling_ft": 200,
      "hazards": [
        "FG",
        "BR"
      ],
      "severityScore": 100,
      "metarRaw": "METAR LFLL 190730Z 07003KT 340V110 0450 R35L/0550N R17R/0600N R35R/0600N R17L/0550N FG VV/// 02/02 Q1019 TEMPO 0200",
      "tafRaw": "TAF LFLL 190500Z 1906/2012 VRB02KT 0600 FG VV/// \n  TEMPO 1906/1910 0200 \n  TEMPO 1911/1918 3000 BR BKN002 \n  TEMPO 1918/2010 0200 \n  TEMPO 2010/2012 3000 BR BKN002"
    },
    {
      "icao": "LFPO",
      "iata": "ORY",
      "name": "Paris-Orly Airport",
      "lat": 48.72333,
      "lon": 2.37944,
      "updatedAt": "190730Z",
      "visibility_m": 5000,
      "taf_visibility_m": 500,
      "worst_visibility_m": 500,
      "ceiling_ft": 200,
      "hazards": [
        "BR",
        "FG"
      ],
      "severityScore": 100,
      "metarRaw": "METAR LFPO 190730Z 10002KT 6000 NSC 02/01 Q1017 TEMPO 5000 BR",
      "tafRaw": "TAF LFPO 190500Z 1906/2012 13004KT 6000 NSC \n  PROB30 1906/1908 4000 BR \n  BECMG 2000/2003 4000 BR BKN002 \n  PROB40 2005/2011 0800 FG \n  PROB30 2006/2010 0500 FG"
    },
    {
      "icao": "LFSB",
      "iata": "BSL",
      "name": "EuroAirport Basel–Mulhouse–Freiburg",
      "lat": 47.60068,
      "lon": 7.521117,
      "updatedAt": "190730Z",
      "visibility_m": 300,
      "taf_visibility_m": 300,
      "worst_visibility_m": 300,
      "ceiling_ft": 300,
      "hazards": [
        "FZFG",
        "FG",
        "BR"
      ],
      "severityScore": 100,
      "metarRaw": "METAR LFSB 190730Z AUTO 17003KT 7000 NSC M02/M03 Q1019 TEMPO 0300 FZFG VV///",
      "tafRaw": "TAF LFSB 190500Z 1906/2006 VRB04KT 8000 SCT005 \n  TEMPO 1906/1911 2500 BR OVC003 \n  PROB30 \n  TEMPO 1906/1910 0300 FZFG VV/// \n  TEMPO 1911/1921 34005KT \n  PROB30 \n  TEMPO 1911/1916 BKN006 \n  BECMG 1916/1920 2500 BR OVC004 \n  PROB30 \n  TEMPO 1918/1920 0300 FG VV/// \n  TEMPO 1920/2006 0300 FZFG VV///"
    },
    {
      "icao": "LHBP",
      "iata": "BUD",
      "name": "Budapest Liszt Ferenc International Airport",
      "lat": 47.43018,
      "lon": 19.262393,
      "updatedAt": "190730Z",
      "visibility_m": 4000,
      "taf_visibility_m": 400,
      "worst_visibility_m": 400,
      "ceiling_ft": 400,
      "hazards": [
        "BR",
        "FZFG",
        "FZDZ",
        "FG",
        "DZ"
      ],
      "severityScore": 100,
      "metarRaw": "METAR LHBP 190730Z 12006KT 080V150 5000 BR OVC006 M05/M06 Q1037 TEMPO 4000 BR OVC004",
      "tafRaw": "TAF LHBP 190515Z 1906/2006 10005KT 6000 OVC015 \n  TEMPO 1906/1911 VRB03KT 2000 -SG BCFG BR OVC004 \n  PROB30 \n  TEMPO 1906/1909 0600 -FZDZ FZFG OVC001 \n  BECMG 1911/1914 SCT015 \n  TEMPO 1914/1917 CAVOK \n  BECMG 1917/1920 4000 BR OVC010 \n  TEMPO 1920/2006 VRB03KT 1200 -SG BCFG OVC004 \n  PROB30 \n  TEMPO 1920/2006 0400 -FZDZ FZFG VV001"
    },
    {
      "icao": "LQSA",
      "iata": "SJJ",
      "name": "Sarajevo International Airport",
      "lat": 43.8246,
      "lon": 18.331499,
      "updatedAt": "190730Z",
      "visibility_m": 10000,
      "taf_visibility_m": 500,
      "worst_visibility_m": 500,
      "ceiling_ft": 1600,
      "hazards": [
        "FZFG",
        "BR",
        "FG"
      ],
      "severityScore": 100,
      "metarRaw": "METAR LQSA 190730Z 30003KT 9999 BKN016 M04/M04 Q1030 NOSIG",
      "tafRaw": "TAF LQSA 190500Z 1906/2006 VRB02KT 3000 BR FEW030 TX00/1913Z TNM07/2006Z \n  PROB30 \n  TEMPO 1906/1909 1200 BKN008 \n  BECMG 1909/1912 8000 NSW \n  PROB40 \n  TEMPO 1918/2006 3000 BR \n  PROB30 \n  TEMPO 1920/2006 0500 FZFG BKN002"
    },
    {
      "icao": "LRSM",
      "iata": "SUJ",
      "name": "Satu Mare International Airport",
      "lat": 47.7033,
      "lon": 22.8857,
      "updatedAt": "190730Z",
      "visibility_m": 3000,
      "taf_visibility_m": 150,
      "worst_visibility_m": 150,
      "ceiling_ft": 200,
      "hazards": [
        "BR",
        "FZFG",
        "FG"
      ],
      "severityScore": 100,
      "metarRaw": "METAR LRSM 190730Z 26003KT 3000 BR BKN002 M13/M15 Q1039",
      "tafRaw": "TAF LRSM 190500Z 1906/1915 VRB04KT 0800 FZFG BKN002 \n  TEMPO 1906/1907 0150 FZFG VV001 \n  BECMG 1907/1909 3000 BR BKN005 \n  BECMG 1909/1911 9999 NSW SCT020"
    },
    {
      "icao": "LTFM",
      "iata": "IST",
      "name": "İstanbul Airport",
      "lat": 41.261297,
      "lon": 28.741951,
      "updatedAt": "190720Z",
      "visibility_m": 4000,
      "taf_visibility_m": 2200,
      "worst_visibility_m": 2200,
      "ceiling_ft": 600,
      "hazards": [
        "SHSN",
        "SN",
        "BLSN",
        "SHRA",
        "RA"
      ],
      "severityScore": 100,
      "metarRaw": "METAR LTFM 190720Z 35027KT 4000 1200NW R35R/1100D R17L/P1500N R34L/1200N R36/P1500D -SHSN BKN006 BKN022 01/M01 Q1032 NOSIG RMK RWY17L 34026KT RWY34L 34025KT RWY16R 34022KT RWY36 34027KT RWY18 35029KT",
      "tafRaw": "TAF LTFM 190440Z 1906/2012 35024G35KT 7000 -SHSN BKN012 BKN022 \n  TEMPO 1906/1909 2200 SHSN BLSN BKN004 BKN022 \n  BECMG 1909/1912 -SHSNRA \n  PROB30 \n  TEMPO 1912/1915 3000 SHSN \n  BECMG 1915/1918 -SHRA \n  TEMPO 1918/1922 4000 SHRA \n  BECMG 1922/1924 02018KT SCT016 BKN030 \n  BECMG 2003/2006 04008KT \n  BECMG 2009/2012 SCT040"
    },
    {
      "icao": "LZKZ",
      "iata": "KSC",
      "name": "Košice International Airport",
      "lat": 48.663101,
      "lon": 21.2411,
      "updatedAt": "190730Z",
      "visibility_m": 10000,
      "taf_visibility_m": 600,
      "worst_visibility_m": 600,
      "ceiling_ft": 200,
      "hazards": [
        "FZFG",
        "FG"
      ],
      "severityScore": 100,
      "metarRaw": "METAR LZKZ 190730Z VRB01KT CAVOK M12/M13 Q1037 NOSIG",
      "tafRaw": "TAF LZKZ 190515Z 1906/2006 VRB02KT CAVOK \n  BECMG 1918/1920 2000 BCFG SCT004 \n  TEMPO 1920/2006 0600 FZFG BKN002"
    },
    {
      "icao": "UAAA",
      "iata": "ALA",
      "name": "Almaty International Airport",
      "lat": 43.354267,
      "lon": 77.042828,
      "updatedAt": "190730Z",
      "visibility_m": 4800,
      "taf_visibility_m": 300,
      "worst_visibility_m": 300,
      "ceiling_ft": 20000,
      "hazards": [
        "BR",
        "FZFG",
        "FG"
      ],
      "severityScore": 100,
      "metarRaw": "METAR UAAA 190730Z 33002MPS 300V360 4800 BR FU BKN200 M11/M15 Q1024 NOSIG",
      "tafRaw": "TAF UAAA 190501Z 1906/2006 31003MPS 6000 SCT050 BKN100 TXM09/1908Z TNM17/2003Z \n  TEMPO 1906/1911 25003G08MPS 3100 BR FU BKN011 \n  FM191100 20003MPS 1200 BR FU BKN011 OVC030 \n  TEMPO 1915/2003 0300 FZFG VV001 \n  FM200500 33003MPS 3100 BR FU SCT011 BKN030"
    },
    {
      "icao": "UDYZ",
      "iata": "EVN",
      "name": "Zvartnots International Airport",
      "lat": 40.148941,
      "lon": 44.397887,
      "updatedAt": "190730Z",
      "visibility_m": 9000,
      "taf_visibility_m": 600,
      "worst_visibility_m": 600,
      "ceiling_ft": 3300,
      "hazards": [
        "SN",
        "FZFG",
        "BR",
        "FG"
      ],
      "severityScore": 100,
      "metarRaw": "METAR UDYZ 190730Z 11006KT 9000 -SN FEW008 OVC033 00/M01 Q1016 NOSIG",
      "tafRaw": "TAF UDYZ 190500Z 1906/2006 VRB04KT 2000 BR BKN020 \n  TEMPO 1906/1915 0600 SN FZFG BKN003"
    },
    {
      "icao": "ENBR",
      "iata": "BGO",
      "name": "Bergen Airport, Flesland",
      "lat": 60.2934,
      "lon": 5.21814,
      "updatedAt": "190720Z",
      "visibility_m": 10000,
      "taf_visibility_m": 800,
      "worst_visibility_m": 800,
      "ceiling_ft": 200,
      "hazards": [
        "BR",
        "FG"
      ],
      "severityScore": 90,
      "metarRaw": "METAR ENBR 190720Z 12003KT 9999 FEW009 03/02 Q1020 NOSIG RMK WIND 1200FT 15011KT",
      "tafRaw": "TAF ENBR 190500Z 1906/2006 12005KT 9999 FEW030 \n  PROB30 1920/2006 0800 FG VV002"
    },
    {
      "icao": "LRTM",
      "iata": "TGM",
      "name": "Târgu Mureş Transilvania International Airport",
      "lat": 46.467701,
      "lon": 24.4125,
      "updatedAt": "190730Z",
      "visibility_m": 4000,
      "taf_visibility_m": 600,
      "worst_visibility_m": 600,
      "ceiling_ft": 100,
      "hazards": [
        "BR",
        "FG"
      ],
      "severityScore": 90,
      "metarRaw": "METAR LRTM 190730Z 08002KT 4000 BR FEW001 M16/M19 Q1038",
      "tafRaw": "TAF LRTM 190500Z 1906/1915 VRB04KT 3000 BR BKN003 \n  PROB40 \n  TEMPO 1906/1907 0600 FG BKN001 \n  BECMG 1907/1909 9999 NSW SCT005"
    },
    {
      "icao": "LEBL",
      "iata": "BCN",
      "name": "Josep Tarradellas Barcelona-El Prat Airport",
      "lat": 41.2971,
      "lon": 2.07846,
      "updatedAt": "190730Z",
      "visibility_m": 10000,
      "taf_visibility_m": 3000,
      "worst_visibility_m": 3000,
      "ceiling_ft": 1200,
      "hazards": [
        "TSRA",
        "SHRA",
        "TS",
        "RA"
      ],
      "severityScore": 88,
      "metarRaw": "METAR LEBL 190730Z 33007G18KT 240V360 9999 FEW015 10/09 Q1013 NOSIG",
      "tafRaw": "TAF LEBL 190500Z 1906/2006 03009KT 9999 FEW010 TX14/1912Z TN09/1906Z \n  TEMPO 1906/1910 35008KT \n  TEMPO 1906/1924 3000 SHRA FEW015TCU \n  PROB30 \n  TEMPO 1909/1918 TSRA BKN012 FEW015CB \n  PROB40 \n  TEMPO 1914/1919 04018G28KT"
    },
    {
      "icao": "LMML",
      "iata": "MLA",
      "name": "Malta International Airport",
      "lat": 35.857498,
      "lon": 14.4775,
      "updatedAt": "190745Z",
      "visibility_m": 10000,
      "taf_visibility_m": 4000,
      "worst_visibility_m": 4000,
      "ceiling_ft": 1200,
      "hazards": [
        "TSRA",
        "SHRA",
        "TS",
        "RA"
      ],
      "severityScore": 88,
      "metarRaw": "METAR LMML 190745Z 10024KT 9999 BKN012 15/13 Q1013 NOSIG",
      "tafRaw": "TAF LMML 190500Z 1906/2006 12015KT 9999 SCT015 \n  TEMPO 1906/2006 BKN013 \n  PROB40 \n  TEMPO 1906/2006 7000 SHRA BKN015TCU \n  BECMG 1914/1917 12035G45KT \n  PROB30 \n  TEMPO 1918/1924 4000 TSRA BKN012CB"
    },
    {
      "icao": "EHEH",
      "iata": "EIN",
      "name": "Eindhoven Airport",
      "lat": 51.4500999451,
      "lon": 5.37452983856,
      "updatedAt": "190733Z",
      "visibility_m": 5000,
      "taf_visibility_m": 800,
      "worst_visibility_m": 800,
      "ceiling_ft": 11000,
      "hazards": [
        "BR",
        "FZFG",
        "FG"
      ],
      "severityScore": 85,
      "metarRaw": "SPECI EHEH 190733Z AUTO 15004KT 110V270 5000 BR OVC110 M01/M01 Q1018 WHT BECMG 6000 NSW RMK TREND REMOTE BY EHWX",
      "tafRaw": "TAF EHEH 190556Z 1906/2012 13004KT 3500 BR NSC \n  PROB30 \n  TEMPO 1906/1908 0800 BCFG FZFG \n  BECMG 1907/1909 7000 NSW \n  TEMPO 1908/1918 SCT080CB \n  PROB40 1922/2008 3500 BR"
    },
    {
      "icao": "OJAI",
      "iata": "AMM",
      "name": "Queen Alia International Airport",
      "lat": 31.7226009369,
      "lon": 35.9931983948,
      "updatedAt": "190700Z",
      "visibility_m": 4500,
      "taf_visibility_m": 500,
      "worst_visibility_m": 500,
      "ceiling_ft": null,
      "hazards": [
        "FG",
        "BR",
        "RA"
      ],
      "severityScore": 77,
      "metarRaw": "METAR OJAI 190700Z 28009KT 4500 HZ SCT030 09/05 Q1019 NOSIG",
      "tafRaw": "TAF OJAI 190500Z 1906/2012 27012KT 4000 BR FEW025TCU SCT030 \n  TEMPO 1906/1912 3000 -RA BR \n  BECMG 1912/1914 5000 HZ SCT030 \n  PROB40 2000/2007 0500 FG \n  BECMG 2008/2010 04010KT 6000 NSC"
    },
    {
      "icao": "EFTU",
      "iata": "TKU",
      "name": "Turku Airport",
      "lat": 60.514099,
      "lon": 22.2628,
      "updatedAt": "190720Z",
      "visibility_m": 1300,
      "taf_visibility_m": 2500,
      "worst_visibility_m": 1300,
      "ceiling_ft": 100,
      "hazards": [
        "FG",
        "BR"
      ],
      "severityScore": 75,
      "metarRaw": "METAR EFTU 190720Z AUTO 20005KT 1300 R26/1800D BCFG OVC001 M01/M01 Q1032",
      "tafRaw": "TAF EFTU 190534Z 1906/2006 17005KT 2500 BR OVC001 \n  BECMG 1906/1908 9999 NSW SCT003 BKN011 \n  TEMPO 1908/1911 4000 BR BKN003 \n  BECMG 1911/1913 BKN008 \n  TEMPO 1913/2003 BKN010 \n  TEMPO 2003/2006 BKN004"
    },
    {
      "icao": "LHDC",
      "iata": "DEB",
      "name": "Debrecen International Airport",
      "lat": 47.488899,
      "lon": 21.615299,
      "updatedAt": "190715Z",
      "visibility_m": 2400,
      "taf_visibility_m": 1200,
      "worst_visibility_m": 1200,
      "ceiling_ft": 300,
      "hazards": [
        "BR",
        "FG"
      ],
      "severityScore": 75,
      "metarRaw": "METAR LHDC 190715Z AUTO 29005KT 2400 BR OVC003 M05/M06 Q1038 NOSIG",
      "tafRaw": "TAF LHDC 190515Z 1906/1915 VRB03KT 6000 OVC010 \n  TEMPO 1906/1910 1200 -SG BCFG BR OVC002 \n  TEMPO 1910/1915 BKN015"
    },
    {
      "icao": "LUKK",
      "iata": "RMO",
      "name": "Chişinău International Airport",
      "lat": 46.9277,
      "lon": 28.931,
      "updatedAt": "190730Z",
      "visibility_m": 10000,
      "taf_visibility_m": 800,
      "worst_visibility_m": 800,
      "ceiling_ft": 4800,
      "hazards": [
        "FG",
        "BR",
        "SN"
      ],
      "severityScore": 73,
      "metarRaw": "METAR LUKK 190730Z 32004G15KT 250V040 9999 FEW007 OVC048 M08/M09 Q1039 NOSIG",
      "tafRaw": "TAF LUKK 190512Z 1906/2006 36009KT 9999 OVC012 \n  TEMPO 1906/1910 5000 -SN OVC005 \n  BECMG 1910/1912 SCT020 \n  BECMG 1920/1922 VRB04KT 3000 BR \n  TEMPO 1922/2006 0800 FG VV///"
    },
    {
      "icao": "LRIA",
      "iata": "IAS",
      "name": "Iaşi Airport",
      "lat": 47.180278,
      "lon": 27.620833,
      "updatedAt": "190730Z",
      "visibility_m": 2500,
      "taf_visibility_m": null,
      "worst_visibility_m": 2500,
      "ceiling_ft": 100,
      "hazards": [
        "BR",
        "SN"
      ],
      "severityScore": 68,
      "metarRaw": "METAR LRIA 190730Z 30003KT 260V330 2500 -SN BR OVC001 M11/M13 Q1041",
      "tafRaw": null
    },
    {
      "icao": "LICC",
      "iata": "CTA",
      "name": "Catania-Fontanarossa Airport",
      "lat": 37.466801,
      "lon": 15.0664,
      "updatedAt": "190720Z",
      "visibility_m": 6000,
      "taf_visibility_m": 4000,
      "worst_visibility_m": 4000,
      "ceiling_ft": 2000,
      "hazards": [
        "TSRA",
        "RA",
        "TS"
      ],
      "severityScore": 62,
      "metarRaw": "METAR LICC 190720Z 11016KT 6000 BKN020 BKN040 15/13 Q1017",
      "tafRaw": "TAF LICC 190500Z 1906/2006 08015KT 9999 SCT015 BKN050 \n  TEMPO 1906/1915 4000 RA \n  BECMG 1906/1908 10025KT \n  TEMPO 1915/2006 4000 TSRA \n  BECMG 2000/2002 10025G40KT"
    },
    {
      "icao": "LICJ",
      "iata": "PMO",
      "name": "Falcone–Borsellino Airport",
      "lat": 38.175999,
      "lon": 13.091,
      "updatedAt": "190720Z",
      "visibility_m": 10000,
      "taf_visibility_m": 10000,
      "worst_visibility_m": 10000,
      "ceiling_ft": null,
      "hazards": [
        "TSRA",
        "TS",
        "RA"
      ],
      "severityScore": 62,
      "metarRaw": "METAR LICJ 190720Z 08016G34KT 050V110 9999 FEW050 16/08 Q1011",
      "tafRaw": "TAF LICJ 190500Z 1906/2006 06015KT 9999 SCT040 \n  TEMPO 1909/1916 09018G30KT \n  TEMPO 1918/2006 TSRA \n  BECMG 2002/2004 09020G40KT"
    },
    {
      "icao": "UDSG",
      "iata": "LWN",
      "name": "Shirak International Airport",
      "lat": 40.750401,
      "lon": 43.859299,
      "updatedAt": "190730Z",
      "visibility_m": 10000,
      "taf_visibility_m": 1000,
      "worst_visibility_m": 1000,
      "ceiling_ft": 4000,
      "hazards": [
        "BR",
        "SN",
        "BLSN"
      ],
      "severityScore": 60,
      "metarRaw": "METAR UDSG 190730Z 22004KT 9999 BKN040 M03/M09 Q1014 NOSIG",
      "tafRaw": "TAF UDSG 190458Z 1906/2006 36006KT 5000 BR BKN030 \n  TEMPO 1906/1918 06016G26KT 1000 SN BLSN OVC010"
    },
    {
      "icao": "EGKK",
      "iata": "LGW",
      "name": "London Gatwick Airport",
      "lat": 51.148771,
      "lon": -0.192089,
      "updatedAt": "190720Z",
      "visibility_m": 9000,
      "taf_visibility_m": 4000,
      "worst_visibility_m": 4000,
      "ceiling_ft": 300,
      "hazards": [
        "RA",
        "DZ"
      ],
      "severityScore": 57,
      "metarRaw": "METAR EGKK 190720Z 14004KT 110V170 9000 SCT005 SCT023 08/08 Q1014",
      "tafRaw": "TAF EGKK 190454Z 1906/2012 09004KT 9999 FEW008 SCT045 \n  BECMG 1906/1909 15010KT \n  TEMPO 1906/1911 BKN008 \n  PROB40 \n  TEMPO 1906/1910 6000 BKN003 \n  PROB30 \n  TEMPO 1911/1919 8000 -RADZ BKN005 \n  TEMPO 1919/2006 6000 -RADZ BKN008 \n  PROB30 \n  TEMPO 1919/2006 4000 RADZ BKN004 \n  PROB30 \n  TEMPO 2006/2012 7000 -RADZ BKN008"
    },
    {
      "icao": "BIKF",
      "iata": "KEF",
      "name": "Keflavik International Airport",
      "lat": 63.985001,
      "lon": -22.6056,
      "updatedAt": "190730Z",
      "visibility_m": 10000,
      "taf_visibility_m": 3500,
      "worst_visibility_m": 3500,
      "ceiling_ft": 1200,
      "hazards": [
        "SHRA",
        "SN",
        "RA"
      ],
      "severityScore": 56,
      "metarRaw": "METAR BIKF 190730Z 12008KT CAVOK 01/M00 Q0994",
      "tafRaw": "TAF BIKF 190431Z 1906/2006 15008KT 9999 -SHRA SCT030 TX05/1918Z TN00/1907Z \n  BECMG 1911/1913 12022G32KT \n  TEMPO 1913/2006 3500 SHRASN BKN012 \n  BECMG 1919/1921 17022G33KT \n  BECMG 2002/2004 15012KT"
    },
    {
      "icao": "LFLS",
      "iata": "GNB",
      "name": "Grenoble Alpes Isère Airport",
      "lat": 45.3629,
      "lon": 5.32937,
      "updatedAt": "190730Z",
      "visibility_m": 4000,
      "taf_visibility_m": 800,
      "worst_visibility_m": 800,
      "ceiling_ft": null,
      "hazards": [
        "BR",
        "FG"
      ],
      "severityScore": 55,
      "metarRaw": "METAR LFLS 190730Z AUTO 07005KT CAVOK 03/02 Q1017 TEMPO 4000 BR",
      "tafRaw": "TAF LFLS 190200Z 1903/2003 09005KT 7000 NSC \n  PROB40 \n  TEMPO 1903/1910 4000 BR \n  BECMG 1910/1912 VRB02KT CAVOK \n  TEMPO 1920/2003 09005KT 3000 BR \n  PROB30 \n  TEMPO 2001/2003 0800 BCFG"
    },
    {
      "icao": "LFOB",
      "iata": "BVA",
      "name": "Beauvais Tillé airport",
      "lat": 49.454399,
      "lon": 2.11278,
      "updatedAt": "190730Z",
      "visibility_m": 4200,
      "taf_visibility_m": 800,
      "worst_visibility_m": 800,
      "ceiling_ft": null,
      "hazards": [
        "BR",
        "FG"
      ],
      "severityScore": 55,
      "metarRaw": "METAR LFOB 190730Z AUTO 11006KT 4200 BR NSC 01/00 Q1017 BECMG 9999 NSW",
      "tafRaw": "TAF LFOB 190500Z 1906/2006 13005KT 6000 NSC \n  TEMPO 1906/1908 4000 BR \n  BECMG 1908/1910 CAVOK \n  PROB40 2003/2006 4000 BR \n  PROB30 \n  TEMPO 2004/2006 0800 FG VV///"
    },
    {
      "icao": "ENTO",
      "iata": "TRF",
      "name": "Sandefjord Airport, Torp",
      "lat": 59.186699,
      "lon": 10.2586,
      "updatedAt": "190720Z",
      "visibility_m": 4500,
      "taf_visibility_m": 4000,
      "worst_visibility_m": 4000,
      "ceiling_ft": 700,
      "hazards": [
        "BR",
        "DZ"
      ],
      "severityScore": 45,
      "metarRaw": "METAR ENTO 190720Z 13003KT 4500 BR FEW005 BKN007 BKN010 00/00 Q1026 TEMPO 8000 SCT008 BKN015",
      "tafRaw": "TAF ENTO 190500Z 1906/2006 11003KT 6000 BKN007 \n  TEMPO 1906/1909 4000 -DZ BR BKN004 \n  TEMPO 1912/2006 BKN012 \n  BECMG 1916/1918 03010KT"
    },
    {
      "icao": "LRSB",
      "iata": "SBZ",
      "name": "Sibiu International Airport",
      "lat": 45.785841,
      "lon": 24.086666,
      "updatedAt": "190730Z",
      "visibility_m": 4000,
      "taf_visibility_m": 1500,
      "worst_visibility_m": 1500,
      "ceiling_ft": 500,
      "hazards": [
        "BR"
      ],
      "severityScore": 45,
      "metarRaw": "METAR LRSB 190730Z 28004KT 4000 BR NSC M13/M15 Q1035",
      "tafRaw": "TAF LRSB 190500Z 1906/2006 VRB04KT CAVOK \n  TEMPO 1906/1909 3000 BR \n  BECMG 1916/1918 5000 BR \n  PROB40 \n  TEMPO 1919/2006 1500 BR BKN005"
    },
    {
      "icao": "LZIB",
      "iata": "BTS",
      "name": "M. R. Štefánik Airport",
      "lat": 48.1702,
      "lon": 17.2127,
      "updatedAt": "190730Z",
      "visibility_m": 4000,
      "taf_visibility_m": 2500,
      "worst_visibility_m": 2500,
      "ceiling_ft": 300,
      "hazards": [
        "BR"
      ],
      "severityScore": 45,
      "metarRaw": "METAR LZIB 190730Z 11010KT 6000 FEW010 M05/M06 Q1036 TEMPO 4000 BR",
      "tafRaw": "TAF LZIB 190515Z 1906/2006 13008KT CAVOK \n  TEMPO 1906/1909 07005KT 2500 BR BKN005 \n  PROB40 \n  TEMPO 1922/2006 06005KT 2500 BR BKN003"
    },
    {
      "icao": "LRTR",
      "iata": "TSR",
      "name": "Timişoara Traian Vuia Airport",
      "lat": 45.809898,
      "lon": 21.3379,
      "updatedAt": "190730Z",
      "visibility_m": 10000,
      "taf_visibility_m": 3000,
      "worst_visibility_m": 3000,
      "ceiling_ft": 500,
      "hazards": [
        "BR"
      ],
      "severityScore": 35,
      "metarRaw": "METAR LRTR 190730Z 08002KT CAVOK M07/M10 Q1037",
      "tafRaw": "TAF LRTR 190500Z 1906/2006 06006KT CAVOK \n  TEMPO 1906/1909 3000 BR BKN005 \n  PROB40 \n  TEMPO 2001/2006 3000 BR BKN005"
    },
    {
      "icao": "ESGG",
      "iata": "GOT",
      "name": "Göteborg Landvetter Airport",
      "lat": 57.6628,
      "lon": 12.2798,
      "updatedAt": "190720Z",
      "visibility_m": 10000,
      "taf_visibility_m": null,
      "worst_visibility_m": 10000,
      "ceiling_ft": 500,
      "hazards": [],
      "severityScore": 30,
      "metarRaw": "METAR ESGG 190720Z 11007KT 9999 OVC005 M02/M03 Q1026",
      "tafRaw": null
    },
    {
      "icao": "LBWN",
      "iata": "VAR",
      "name": "Varna Airport",
      "lat": 43.232101,
      "lon": 27.8251,
      "updatedAt": "190730Z",
      "visibility_m": 10000,
      "taf_visibility_m": 5000,
      "worst_visibility_m": 5000,
      "ceiling_ft": 1600,
      "hazards": [
        "SN"
      ],
      "severityScore": 30,
      "metarRaw": "METAR LBWN 190730Z 26008KT 230V290 9999 -SN BKN016 M05/M08 Q1036 NOSIG",
      "tafRaw": "TAF LBWN 190500Z 1906/2006 28012KT 9999 BKN010 OVC040 \n  BECMG 1908/1910 SCT020 OVC040 \n  PROB40 \n  TEMPO 1915/1920 5000 -SN BKN010 OVC030 \n  BECMG 2003/2005 VRB04KT"
    },
    {
      "icao": "UBBB",
      "iata": "GYD",
      "name": "Heydar Aliyev International Airport",
      "lat": 40.467498779296875,
      "lon": 50.04669952392578,
      "updatedAt": "190730Z",
      "visibility_m": 10000,
      "taf_visibility_m": 5000,
      "worst_visibility_m": 5000,
      "ceiling_ft": 2200,
      "hazards": [
        "SN",
        "RA"
      ],
      "severityScore": 30,
      "metarRaw": "METAR UBBB 190730Z 03016KT 9999 OVC022 03/M02 Q1028 NOSIG",
      "tafRaw": "TAF UBBB 190502Z 1906/2006 03014KT 9999 BKN020 TX04/1910Z TN01/2001Z \n  TEMPO 1906/1913 06022KT BKN010 \n  TEMPO 1913/1922 06008KT BKN008 \n  TEMPO 1922/2006 36020KT 5000 -SNRA BKN006 OVC017"
    },
    {
      "icao": "LRBS",
      "iata": "BBU",
      "name": "Bucharest Băneasa Aurel Vlaicu International Airport",
      "lat": 44.503133,
      "lon": 26.102944,
      "updatedAt": "190730Z",
      "visibility_m": 10000,
      "taf_visibility_m": 3000,
      "worst_visibility_m": 3000,
      "ceiling_ft": 4100,
      "hazards": [
        "SN",
        "BR"
      ],
      "severityScore": 28,
      "metarRaw": "METAR LRBS 190730Z 25005KT 230V290 9999 -SN OVC041 M06/M08 Q1040",
      "tafRaw": "TAF LRBS 190500Z 1906/2006 27007KT 9999 BKN035 \n  TEMPO 1906/1912 5000 -SN BR BKN010 BKN030 \n  TEMPO 1918/2006 5000 BR \n  PROB40 \n  TEMPO 2000/2006 3000 BR"
    },
    {
      "icao": "LROP",
      "iata": "OTP",
      "name": "Bucharest Henri Coandă International Airport",
      "lat": 44.571792,
      "lon": 26.103285,
      "updatedAt": "190730Z",
      "visibility_m": 5000,
      "taf_visibility_m": 3000,
      "worst_visibility_m": 3000,
      "ceiling_ft": 3900,
      "hazards": [
        "BR",
        "SN"
      ],
      "severityScore": 28,
      "metarRaw": "METAR LROP 190730Z 25005KT 7000 -SN BKN039 OVC044 M06/M09 Q1039 TEMPO 5000 -SN BR",
      "tafRaw": "TAF LROP 190500Z 1906/2006 27007KT 9999 BKN035 \n  TEMPO 1906/1912 5000 -SN BR BKN010 BKN030 \n  TEMPO 1918/2006 5000 BR \n  PROB40 \n  TEMPO 2000/2006 3000 BR"
    },
    {
      "icao": "ENTC",
      "iata": "TOS",
      "name": "Tromsø Airport, Langnes",
      "lat": 69.683296,
      "lon": 18.9189,
      "updatedAt": "190720Z",
      "visibility_m": 10000,
      "taf_visibility_m": 10000,
      "worst_visibility_m": 10000,
      "ceiling_ft": 2500,
      "hazards": [
        "SHRA",
        "RA"
      ],
      "severityScore": 26,
      "metarRaw": "METAR ENTC 190720Z 19007KT 9999 FEW030 02/00 Q1028 NOSIG RMK WIND 2600FT 17004KT",
      "tafRaw": "TAF ENTC 190500Z 1906/2006 20006KT 9999 -SHRA FEW015 BKN025"
    },
    {
      "icao": "LEXJ",
      "iata": "SDR",
      "name": "Seve Ballesteros-Santander Airport",
      "lat": 43.427101,
      "lon": -3.82001,
      "updatedAt": "190730Z",
      "visibility_m": 10000,
      "taf_visibility_m": 3000,
      "worst_visibility_m": 3000,
      "ceiling_ft": 4500,
      "hazards": [
        "RA",
        "SHRA"
      ],
      "severityScore": 26,
      "metarRaw": "METAR LEXJ 190730Z 22008KT 9999 BKN045 OVC055 09/04 Q1018",
      "tafRaw": "TAF LEXJ 190200Z 1903/2003 24009KT 9999 SCT025 TX13/1913Z TN06/1907Z \n  PROB30 \n  TEMPO 1903/1906 RA \n  TEMPO 1916/1923 RA BKN010 \n  PROB40 \n  TEMPO 1916/1922 3000 SHRA FEW025TCU"
    },
    {
      "icao": "LICA",
      "iata": "SUF",
      "name": "Lamezia Terme Sant'Eufemia International Airport",
      "lat": 38.906214,
      "lon": 16.246007,
      "updatedAt": "190720Z",
      "visibility_m": 10000,
      "taf_visibility_m": 10000,
      "worst_visibility_m": 10000,
      "ceiling_ft": 7000,
      "hazards": [
        "SHRA",
        "RA"
      ],
      "severityScore": 26,
      "metarRaw": "METAR LICA 190720Z AUTO 06015KT 9999 FEW039/// 12/11 Q1019",
      "tafRaw": "TAF LICA 190500Z 1906/2006 08015KT 9999 SCT020 BKN070 \n  TEMPO 1906/1909 08018G28KT SHRA \n  BECMG 1909/1911 08022G38KT \n  TEMPO 1921/2006 SHRA"
    },
    {
      "icao": "GCTS",
      "iata": "TFS",
      "name": "Tenerife Sur Airport",
      "lat": 28.0445,
      "lon": -16.5725,
      "updatedAt": "190730Z",
      "visibility_m": 10000,
      "taf_visibility_m": 10000,
      "worst_visibility_m": 10000,
      "ceiling_ft": 3500,
      "hazards": [
        "TS"
      ],
      "severityScore": 25,
      "metarRaw": "METAR GCTS 190730Z 06011KT 030V090 9999 BKN035 17/08 Q1021 NOSIG",
      "tafRaw": "TAF GCTS 190200Z 1903/2003 03008KT 9999 BKN035 TX23/1914Z TN14/1906Z \n  BECMG 1911/1913 08019KT \n  TEMPO 1912/1915 08020G30KT \n  BECMG 1921/1924 03008KT"
    },
    {
      "icao": "LGTS",
      "iata": "SKG",
      "name": "Thessaloniki Macedonia International Airport",
      "lat": 40.51928,
      "lon": 22.970009,
      "updatedAt": "190720Z",
      "visibility_m": 10000,
      "taf_visibility_m": 10000,
      "worst_visibility_m": 10000,
      "ceiling_ft": 3000,
      "hazards": [
        "TS"
      ],
      "severityScore": 25,
      "metarRaw": "METAR LGTS 190720Z VRB02KT 9999 FEW020 03/M02 Q1033 NOSIG",
      "tafRaw": "TAF LGTS 190500Z 1906/2006 11008KT 9999 FEW015 BKN030 \n  BECMG 1918/1920 FEW030"
    },
    {
      "icao": "GMMN",
      "iata": "CMN",
      "name": "Mohammed V International Airport",
      "lat": 33.3675,
      "lon": -7.58997,
      "updatedAt": "190730Z",
      "visibility_m": 10000,
      "taf_visibility_m": 4000,
      "worst_visibility_m": 4000,
      "ceiling_ft": 1500,
      "hazards": [
        "RA"
      ],
      "severityScore": 24,
      "metarRaw": "METAR GMMN 190730Z 15006KT 9999 BKN020TCU 06/05 Q1018 NOSIG",
      "tafRaw": "TAF GMMN 190500Z 1906/2012 20006KT 5000 BKN020 \n  TEMPO 1912/1918 28010KT 4000 RA BKN015 BKN030"
    },
    {
      "icao": "ENAL",
      "iata": "AES",
      "name": "Ålesund Airport, Vigra",
      "lat": 62.5625,
      "lon": 6.1197,
      "updatedAt": "190720Z",
      "visibility_m": 10000,
      "taf_visibility_m": 10000,
      "worst_visibility_m": 10000,
      "ceiling_ft": 1000,
      "hazards": [
        "RA"
      ],
      "severityScore": 24,
      "metarRaw": "METAR ENAL 190720Z 14004KT 110V170 9999 FEW015 SCT025 04/03 Q1020",
      "tafRaw": "TAF ENAL 190500Z 1906/1915 VRB05KT 9999 -RA FEW008 SCT015 \n  PROB40 \n  TEMPO 1906/1910 BKN010"
    },
    {
      "icao": "LPPR",
      "iata": "OPO",
      "name": "Francisco de Sá Carneiro Airport",
      "lat": 41.2481002808,
      "lon": -8.68138980865,
      "updatedAt": "190730Z",
      "visibility_m": 10000,
      "taf_visibility_m": 6000,
      "worst_visibility_m": 6000,
      "ceiling_ft": 1800,
      "hazards": [
        "RA"
      ],
      "severityScore": 24,
      "metarRaw": "METAR LPPR 190730Z 12006KT CAVOK 05/05 Q1020",
      "tafRaw": "TAF LPPR 190500Z 1906/2006 11005KT CAVOK \n  BECMG 1906/1908 9999 FEW012 BKN030 \n  PROB30 \n  TEMPO 1910/1914 6000 -RA BKN018 \n  BECMG 1912/1914 33007KT \n  BECMG 1919/1921 VRB02KT FEW020 \n  BECMG 2004/2006 14010KT BKN030"
    },
    {
      "icao": "LEBB",
      "iata": "BIO",
      "name": "Bilbao Airport",
      "lat": 43.301102,
      "lon": -2.91061,
      "updatedAt": "190730Z",
      "visibility_m": 10000,
      "taf_visibility_m": 3000,
      "worst_visibility_m": 3000,
      "ceiling_ft": 3800,
      "hazards": [
        "BR",
        "RA"
      ],
      "severityScore": 22,
      "metarRaw": "METAR LEBB 190730Z VRB02KT 9999 SCT028 BKN038 09/08 Q1018 NOSIG",
      "tafRaw": "TAF LEBB 190500Z 1906/2006 10005KT 9999 FEW025 SCT040 TX13/1913Z TN02/2006Z \n  PROB30 \n  TEMPO 1906/1909 3000 RA BR BKN010 \n  PROB40 1913/1918 31010KT \n  PROB40 \n  TEMPO 1914/2001 3000 RA \n  PROB30 \n  TEMPO 2001/2004 3000 BR"
    },
    {
      "icao": "LEZG",
      "iata": "ZAZ",
      "name": "Zaragoza Airport",
      "lat": 41.666199,
      "lon": -1.04155,
      "updatedAt": "190730Z",
      "visibility_m": 10000,
      "taf_visibility_m": 2000,
      "worst_visibility_m": 2000,
      "ceiling_ft": 6000,
      "hazards": [
        "BR",
        "RA"
      ],
      "severityScore": 22,
      "metarRaw": "METAR LEZG 190730Z 28009KT 9999 SCT045 BKN060 08/07 Q1015 NOSIG",
      "tafRaw": "TAF LEZG 190500Z 1906/2006 30010KT 9999 BKN030 TX12/1915Z TN06/1906Z \n  TEMPO 1906/1907 2000 RA BR BKN015 \n  TEMPO 1917/1923 4000 RA FEW020TCU \n  PROB40 \n  TEMPO 1918/1923 4000 BR RA"
    },
    {
      "icao": "LIBP",
      "iata": "PSR",
      "name": "Abruzzo Airport",
      "lat": 42.431079,
      "lon": 14.182981,
      "updatedAt": "190720Z",
      "visibility_m": 2100,
      "taf_visibility_m": 3000,
      "worst_visibility_m": 2100,
      "ceiling_ft": 3000,
      "hazards": [
        "BR",
        "RA"
      ],
      "severityScore": 22,
      "metarRaw": "METAR LIBP 190720Z AUTO VRB01KT 2100 -RA BR OVC014/// 08/08 Q1023",
      "tafRaw": "TAF LIBP 190500Z 1906/2006 VRB05KT 9999 BKN030 \n  TEMPO 1906/1918 3000 RA \n  BECMG 1910/1912 10010KT \n  BECMG 1918/1920 VRB05KT"
    },
    {
      "icao": "LIBR",
      "iata": "BDS",
      "name": "Brindisi Airport",
      "lat": 40.6576,
      "lon": 17.947001,
      "updatedAt": "190720Z",
      "visibility_m": 10000,
      "taf_visibility_m": 4000,
      "worst_visibility_m": 4000,
      "ceiling_ft": 4000,
      "hazards": [
        "RA",
        "BR"
      ],
      "severityScore": 22,
      "metarRaw": "METAR LIBR 190720Z 20005KT 9999 -RA OVC040 10/05 Q1024",
      "tafRaw": "TAF LIBR 190500Z 1906/2006 VRB05KT 9999 BKN040 \n  TEMPO 1906/1909 4000 -RA \n  BECMG 1908/1910 14010KT \n  BECMG 1916/1918 VRB05KT"
    },
    {
      "icao": "LIMF",
      "iata": "TRN",
      "name": "Turin Airport",
      "lat": 45.200802,
      "lon": 7.64963,
      "updatedAt": "190720Z",
      "visibility_m": 7000,
      "taf_visibility_m": 8000,
      "worst_visibility_m": 7000,
      "ceiling_ft": 2800,
      "hazards": [
        "RA",
        "DZ"
      ],
      "severityScore": 22,
      "metarRaw": "METAR LIMF 190720Z 26003KT 7000 -RA BKN028 05/03 Q1026",
      "tafRaw": "TAF LIMF 190500Z 1906/2006 VRB06KT 8000 DZ BKN050 \n  BECMG 1910/1912 NSW"
    },
    {
      "icao": "LIPE",
      "iata": "BLQ",
      "name": "Bologna Guglielmo Marconi Airport",
      "lat": 44.5354,
      "lon": 11.2887,
      "updatedAt": "190720Z",
      "visibility_m": 10000,
      "taf_visibility_m": 2000,
      "worst_visibility_m": 2000,
      "ceiling_ft": 2500,
      "hazards": [
        "BR",
        "RA"
      ],
      "severityScore": 22,
      "metarRaw": "METAR LIPE 190720Z VRB02KT 9999 BKN025 04/02 Q1026",
      "tafRaw": "TAF LIPE 190500Z 1906/2006 VRB05KT 8000 BKN030 \n  TEMPO 1906/1912 2000 -RA BR"
    },
    {
      "icao": "LOWW",
      "iata": "VIE",
      "name": "Vienna International Airport",
      "lat": 48.110298,
      "lon": 16.5697,
      "updatedAt": "190720Z",
      "visibility_m": 10000,
      "taf_visibility_m": 3000,
      "worst_visibility_m": 3000,
      "ceiling_ft": 1200,
      "hazards": [
        "BR"
      ],
      "severityScore": 22,
      "metarRaw": "METAR LOWW 190720Z 14019KT 9999 FEW010 BKN012 M06/M08 Q1034 TEMPO SCT012",
      "tafRaw": "TAF LOWW 190515Z 1906/2012 14013KT CAVOK TXM03/1913Z TNM07/2006Z \n  TEMPO 1906/1910 3000 BR BKN004 \n  TEMPO 1906/1917 14020G30KT \n  PROB30 \n  TEMPO 2006/2009 BKN006"
    },
    {
      "icao": "UGKO",
      "iata": "KUT",
      "name": "David the Builder Kutaisi International Airport",
      "lat": 42.177448,
      "lon": 42.485353,
      "updatedAt": "190730Z",
      "visibility_m": 10000,
      "taf_visibility_m": 4000,
      "worst_visibility_m": 4000,
      "ceiling_ft": 9000,
      "hazards": [
        "BR",
        "RA"
      ],
      "severityScore": 22,
      "metarRaw": "METAR UGKO 190730Z 23005KT 9999 BKN090 04/02 Q1019 NOSIG",
      "tafRaw": "TAF UGKO 190500Z 1906/2006 26007KT 9999 SCT023 BKN050 TX04/1911Z TNM01/2002Z \n  TEMPO 1910/1915 4000 RA BR BKN010 OVC030"
    },
    {
      "icao": "EHBK",
      "iata": "MST",
      "name": "Maastricht Aachen Airport",
      "lat": 50.911701,
      "lon": 5.77014,
      "updatedAt": "190725Z",
      "visibility_m": 7000,
      "taf_visibility_m": 7000,
      "worst_visibility_m": 7000,
      "ceiling_ft": null,
      "hazards": [
        "FG"
      ],
      "severityScore": 20,
      "metarRaw": "METAR EHBK 190725Z AUTO 20003KT 9999 NSC M00/M01 Q1018 TEMPO 7000 MIFG",
      "tafRaw": "TAF EHBK 190511Z 1906/2012 12006KT CAVOK \n  PROB30 1923/2007 7000 MIFG"
    },
    {
      "icao": "HESX",
      "iata": "SPX",
      "name": "Sphinx International Airport",
      "lat": 30.108179,
      "lon": 30.895728,
      "updatedAt": "190700Z",
      "visibility_m": 10000,
      "taf_visibility_m": 1000,
      "worst_visibility_m": 1000,
      "ceiling_ft": null,
      "hazards": [
        "BR"
      ],
      "severityScore": 20,
      "metarRaw": "METAR HESX 190700Z 22002KT CAVOK 11/07 Q1021 MOSIG",
      "tafRaw": "TAF HESX 190500Z 1906/2012 24005KT 6000 NSC \n  TEMPO 1906/1909 VBR03KT 3000 BR \n  PROB40 \n  TEMPO 1906/1908 1000 \n  BECMG 1909/1911 07008KT CAVOK"
    },
    {
      "icao": "EPMO",
      "iata": "WMI",
      "name": "Modlin Airport",
      "lat": 52.451099,
      "lon": 20.6518,
      "updatedAt": "190730Z",
      "visibility_m": 4700,
      "taf_visibility_m": null,
      "worst_visibility_m": 4700,
      "ceiling_ft": null,
      "hazards": [
        "BR"
      ],
      "severityScore": 15,
      "metarRaw": "METAR EPMO 190730Z 08004KT 4700 BR NSC M16/M17 Q1035",
      "tafRaw": null
    },
    {
      "icao": "LRCL",
      "iata": "CLJ",
      "name": "Cluj Avram Iancu International Airport",
      "lat": 46.787425,
      "lon": 23.684292,
      "updatedAt": "190730Z",
      "visibility_m": 5000,
      "taf_visibility_m": null,
      "worst_visibility_m": 5000,
      "ceiling_ft": null,
      "hazards": [
        "BR"
      ],
      "severityScore": 15,
      "metarRaw": "METAR LRCL 190730Z 07004KT 5000 BR FEW001 M14/M16 Q1037",
      "tafRaw": null
    },
    {
      "icao": "GMMX",
      "iata": "RAK",
      "name": "Marrakesh Menara Airport",
      "lat": 31.604807,
      "lon": -8.035788,
      "updatedAt": "190730Z",
      "visibility_m": 8000,
      "taf_visibility_m": 4000,
      "worst_visibility_m": 4000,
      "ceiling_ft": 2000,
      "hazards": [
        "RA"
      ],
      "severityScore": 12,
      "metarRaw": "METAR GMMX 190730Z 26003KT 230V300 8000 SCT010 BKN020 06/06 Q1017 NOSIG",
      "tafRaw": "TAF GMMX 190500Z 1906/2012 24006KT 8000 BKN023 SCT080 \n  PROB30 \n  TEMPO 1907/1909 4000 RA SCT010 BKN015"
    },
    {
      "icao": "EDDK",
      "iata": "CGN",
      "name": "Cologne Bonn Airport",
      "lat": 50.865898,
      "lon": 7.14274,
      "updatedAt": "190720Z",
      "visibility_m": 10000,
      "taf_visibility_m": 10000,
      "worst_visibility_m": 10000,
      "ceiling_ft": 1100,
      "hazards": [],
      "severityScore": 12,
      "metarRaw": "METAR EDDK 190720Z AUTO 13009KT 080V160 9999 OVC011 01/M01 Q1019 NOSIG",
      "tafRaw": "TAF EDDK 190500Z 1906/2012 12007KT 9999 BKN015 \n  BECMG 1906/1908 OVC013 \n  PROB30 \n  TEMPO 1908/1911 OVC009 \n  BECMG 1911/1914 CAVOK \n  PROB30 \n  TEMPO 2002/2008 BKN008"
    },
    {
      "icao": "EPRA",
      "iata": "RDO",
      "name": "Warsaw Radom Airport",
      "lat": 51.38937,
      "lon": 21.214742,
      "updatedAt": "190730Z",
      "visibility_m": 10000,
      "taf_visibility_m": 10000,
      "worst_visibility_m": 10000,
      "ceiling_ft": null,
      "hazards": [
        "RA"
      ],
      "severityScore": 12,
      "metarRaw": "METAR EPRA 190730Z 16005KT CAVOK M14/M16 Q1035",
      "tafRaw": "TAF EPRA 190530Z 1906/1915 15008KT CAVOK"
    },
    {
      "icao": "LEAL",
      "iata": "ALC",
      "name": "Alicante-Elche Miguel Hernández Airport",
      "lat": 38.2822,
      "lon": -0.558156,
      "updatedAt": "190730Z",
      "visibility_m": 10000,
      "taf_visibility_m": 10000,
      "worst_visibility_m": 10000,
      "ceiling_ft": null,
      "hazards": [
        "RA"
      ],
      "severityScore": 12,
      "metarRaw": "METAR LEAL 190730Z 30008KT 9999 FEW015 09/05 Q1012 NOSIG",
      "tafRaw": "TAF LEAL 190500Z 1906/2006 30005KT 9999 FEW030 TX16/1913Z TN08/1906Z \n  BECMG 1908/1910 02010KT \n  BECMG 1916/1918 32005KT \n  TEMPO 1923/2006 RA FEW020TCU"
    },
    {
      "icao": "LGAV",
      "iata": "ATH",
      "name": "Athens Eleftherios Venizelos International Airport",
      "lat": 37.936401,
      "lon": 23.9445,
      "updatedAt": "190720Z",
      "visibility_m": 10000,
      "taf_visibility_m": 5000,
      "worst_visibility_m": 5000,
      "ceiling_ft": 4000,
      "hazards": [
        "RA"
      ],
      "severityScore": 12,
      "metarRaw": "METAR LGAV 190720Z 04017KT 9999 SCT020 BKN040 05/M01 Q1029 NOSIG",
      "tafRaw": "TAF LGAV 190500Z 1906/2006 02016KT 9999 FEW020 BKN030 \n  TEMPO 1906/1924 02016G26KT \n  PROB30 \n  TEMPO 1906/1915 5000 RA FEW018 BKN020 BKN070 \n  BECMG 1922/1924 FEW020 SCT030 \n  TEMPO 2003/2006 FEW018 BKN020"
    },
    {
      "icao": "LIBD",
      "iata": "BRI",
      "name": "Bari Karol Wojtyła International Airport",
      "lat": 41.138901,
      "lon": 16.760599,
      "updatedAt": "190720Z",
      "visibility_m": 10000,
      "taf_visibility_m": 10000,
      "worst_visibility_m": 10000,
      "ceiling_ft": null,
      "hazards": [
        "RA"
      ],
      "severityScore": 12,
      "metarRaw": "METAR LIBD 190720Z AUTO VRB01KT 9999 BKN038/// 09/06 Q1023",
      "tafRaw": "TAF LIBD 190500Z 1906/2006 VRB05KT 9999 SCT040 \n  TEMPO 1906/1912 RA \n  BECMG 1908/1910 11012KT \n  BECMG 1920/1922 17005KT"
    },
    {
      "icao": "LIBG",
      "iata": "TAR",
      "name": "Taranto-Grottaglie Marcello Arlotta Airport",
      "lat": 40.517502,
      "lon": 17.4032,
      "updatedAt": null,
      "visibility_m": null,
      "taf_visibility_m": 4000,
      "worst_visibility_m": 4000,
      "ceiling_ft": 4000,
      "hazards": [
        "RA"
      ],
      "severityScore": 12,
      "metarRaw": null,
      "tafRaw": "TAF LIBG 190722Z 1907/1915 VRB06KT 9999 SCT010 BKN040 \n  TEMPO 1907/1912 4000 -RA \n  BECMG 1909/1910 15010KT"
    },
    {
      "icao": "LIME",
      "iata": "BGY",
      "name": "Milan Bergamo Airport / Antonio Locatelli Air Base",
      "lat": 45.670725,
      "lon": 9.709223,
      "updatedAt": "190720Z",
      "visibility_m": 10000,
      "taf_visibility_m": 10000,
      "worst_visibility_m": 10000,
      "ceiling_ft": 4000,
      "hazards": [
        "RA"
      ],
      "severityScore": 12,
      "metarRaw": "METAR LIME 190720Z VRB01KT 9999 -RA BKN040 05/02 Q1026 NOSIG",
      "tafRaw": "TAF LIME 190500Z 1906/2006 VRB03KT 9999 BKN045"
    },
    {
      "icao": "LIPR",
      "iata": "RMI",
      "name": "Federico Fellini International Airport",
      "lat": 44.020024,
      "lon": 12.612198,
      "updatedAt": "190720Z",
      "visibility_m": 10000,
      "taf_visibility_m": 4000,
      "worst_visibility_m": 4000,
      "ceiling_ft": 2500,
      "hazards": [
        "RA"
      ],
      "severityScore": 12,
      "metarRaw": "METAR LIPR 190720Z 10008KT 9999 BKN025 10/07 Q1024",
      "tafRaw": "TAF LIPR 190500Z 1906/2006 10012KT 9999 BKN030 \n  TEMPO 1906/1912 4000 -RA \n  TEMPO 1918/2001 4000 -RA"
    },
    {
      "icao": "LIPY",
      "iata": "AOI",
      "name": "Marche Airport",
      "lat": 43.616299,
      "lon": 13.3623,
      "updatedAt": "190720Z",
      "visibility_m": 10000,
      "taf_visibility_m": 4000,
      "worst_visibility_m": 4000,
      "ceiling_ft": null,
      "hazards": [
        "RA"
      ],
      "severityScore": 12,
      "metarRaw": "METAR LIPY 190720Z AUTO 09006KT 060V130 9999 SCT030/// 10/08 Q1024",
      "tafRaw": "TAF LIPY 190500Z 1906/2006 09012KT 9999 FEW030 SCT070 \n  TEMPO 1915/1919 4000 RA"
    },
    {
      "icao": "LIRF",
      "iata": "FCO",
      "name": "Rome–Fiumicino Leonardo da Vinci International Airport",
      "lat": 41.804532,
      "lon": 12.251998,
      "updatedAt": "190720Z",
      "visibility_m": 10000,
      "taf_visibility_m": 10000,
      "worst_visibility_m": 10000,
      "ceiling_ft": 5500,
      "hazards": [
        "RA"
      ],
      "severityScore": 12,
      "metarRaw": "METAR LIRF 190720Z 06007KT 9999 BKN055 11/07 Q1018 NOSIG",
      "tafRaw": "TAF LIRF 190500Z 1906/2012 06010KT 9999 SCT045 \n  TEMPO 1906/1908 RA \n  TEMPO 1915/1924 RA"
    },
    {
      "icao": "LIRN",
      "iata": "NAP",
      "name": "Naples International Airport",
      "lat": 40.886002,
      "lon": 14.2908,
      "updatedAt": "190720Z",
      "visibility_m": 8000,
      "taf_visibility_m": 10000,
      "worst_visibility_m": 8000,
      "ceiling_ft": 5000,
      "hazards": [
        "RA"
      ],
      "severityScore": 12,
      "metarRaw": "METAR LIRN 190720Z 06012KT 8000 -RA BKN050 10/07 Q1019 NOSIG",
      "tafRaw": "TAF LIRN 190500Z 1906/2006 05010KT 9999 SCT040 \n  TEMPO 1906/1912 RA"
    },
    {
      "icao": "LLBG",
      "iata": "TLV",
      "name": "Ben Gurion International Airport",
      "lat": 32.011398,
      "lon": 34.8867,
      "updatedAt": "190720Z",
      "visibility_m": 10000,
      "taf_visibility_m": 10000,
      "worst_visibility_m": 10000,
      "ceiling_ft": 3000,
      "hazards": [
        "RA"
      ],
      "severityScore": 12,
      "metarRaw": "METAR LLBG 190720Z VRB02KT 9999 FEW050 14/08 Q1020 NOSIG",
      "tafRaw": "TAF LLBG 190513Z 1906/2006 VRB04KT 9999 SCT040 \n  PROB40 \n  TEMPO 1906/1907 16006KT -RA BKN030 \n  BECMG 1907/1909 36008KT \n  PROB40 \n  TEMPO 1909/1912 -RA BKN030 \n  BECMG 1915/1917 VRB04KT FEW040 TX16/1912Z TN06/2004Z"
    },
    {
      "icao": "LQBK",
      "iata": "BNX",
      "name": "Banja Luka International Airport",
      "lat": 44.941399,
      "lon": 17.297501,
      "updatedAt": "190730Z",
      "visibility_m": 10000,
      "taf_visibility_m": 10000,
      "worst_visibility_m": 10000,
      "ceiling_ft": 1000,
      "hazards": [],
      "severityScore": 12,
      "metarRaw": "METAR LQBK 190730Z 02005KT 350V050 9999 BKN010 OVC017 M04/M06 Q1035 NOSIG",
      "tafRaw": "TAF LQBK 190500Z 1906/2006 03006KT 9999 BKN017 OVC025 TXM00/1914Z TNM03/2006Z \n  PROB30 \n  TEMPO 1906/1911 BKN010"
    },
    {
      "icao": "EBCI",
      "iata": "CRL",
      "name": "Brussels South Charleroi Airport",
      "lat": 50.461963,
      "lon": 4.459562,
      "updatedAt": "190720Z",
      "visibility_m": 4000,
      "taf_visibility_m": 10000,
      "worst_visibility_m": 4000,
      "ceiling_ft": null,
      "hazards": [
        "BR"
      ],
      "severityScore": 10,
      "metarRaw": "METAR EBCI 190720Z 19004KT 5000 BR NSC 01/M00 Q1017 TEMPO 4000 BR",
      "tafRaw": "TAF EBCI 190507Z 1906/2012 17004KT CAVOK"
    },
    {
      "icao": "EPKT",
      "iata": "KTW",
      "name": "Katowice Wojciech Korfanty International Airport",
      "lat": 50.476015,
      "lon": 19.080705,
      "updatedAt": "190730Z",
      "visibility_m": 4400,
      "taf_visibility_m": 2500,
      "worst_visibility_m": 2500,
      "ceiling_ft": null,
      "hazards": [
        "BR"
      ],
      "severityScore": 10,
      "metarRaw": "METAR EPKT 190730Z 00000KT 4400 BR NSC M09/M11 Q1033",
      "tafRaw": "TAF EPKT 190530Z 1906/2006 14006KT 5000 BR NSC \n  PROB40 \n  TEMPO 1906/1908 2500 BR \n  PROB40 \n  TEMPO 1922/2006 4000 BR"
    },
    {
      "icao": "EPRZ",
      "iata": "RZE",
      "name": "Rzeszów-Jasionka Airport",
      "lat": 50.109791,
      "lon": 22.024155,
      "updatedAt": "190730Z",
      "visibility_m": 7000,
      "taf_visibility_m": 4000,
      "worst_visibility_m": 4000,
      "ceiling_ft": null,
      "hazards": [
        "BR"
      ],
      "severityScore": 10,
      "metarRaw": "METAR EPRZ 190730Z 09006KT 7000 NSC M15/M17 Q1035",
      "tafRaw": "TAF EPRZ 190530Z 1906/2006 08008KT CAVOK \n  PROB30 \n  TEMPO 1906/1908 4000 BR \n  BECMG 1915/1918 14010KT"
    },
    {
      "icao": "EYVI",
      "iata": "VNO",
      "name": "Vilnius International Airport",
      "lat": 54.634102,
      "lon": 25.285801,
      "updatedAt": "190720Z",
      "visibility_m": 9000,
      "taf_visibility_m": 5000,
      "worst_visibility_m": 5000,
      "ceiling_ft": null,
      "hazards": [
        "BR"
      ],
      "severityScore": 10,
      "metarRaw": "METAR EYVI 190720Z 17008KT 9000 NSC M17/M19 Q1038 NOSIG",
      "tafRaw": "TAF EYVI 190500Z 1906/2006 18009KT 9000 NSC \n  TEMPO 1906/1909 5000 BR \n  TEMPO 2001/2006 5000 BR SCT003"
    },
    {
      "icao": "LEMD",
      "iata": "MAD",
      "name": "Adolfo Suárez Madrid–Barajas Airport",
      "lat": 40.471926,
      "lon": -3.56264,
      "updatedAt": "190730Z",
      "visibility_m": 10000,
      "taf_visibility_m": 4000,
      "worst_visibility_m": 4000,
      "ceiling_ft": null,
      "hazards": [
        "BR"
      ],
      "severityScore": 10,
      "metarRaw": "METAR LEMD 190730Z 36003KT CAVOK M01/M02 Q1016 NOSIG",
      "tafRaw": "TAF LEMD 190500Z 1906/2012 VRB02KT CAVOK TX10/1914Z TNM02/2006Z \n  PROB30 \n  TEMPO 1906/1908 4000 BR \n  TEMPO 1915/1920 01010KT"
    },
    {
      "icao": "LQTZ",
      "iata": "TZL",
      "name": "Tuzla International Airport",
      "lat": 44.459858,
      "lon": 18.723627,
      "updatedAt": "190730Z",
      "visibility_m": 7000,
      "taf_visibility_m": 3000,
      "worst_visibility_m": 3000,
      "ceiling_ft": 3000,
      "hazards": [
        "BR"
      ],
      "severityScore": 10,
      "metarRaw": "METAR LQTZ 190730Z 11004KT 7000 SCT020 M06/M07 Q1033",
      "tafRaw": "TAF LQTZ 190500Z 1906/2006 10006KT 9999 SCT017 BKN030 TX01/1913Z TNM09/2006Z \n  PROB40 \n  TEMPO 2000/2006 3000 BR"
    },
    {
      "icao": "LRCV",
      "iata": "CRA",
      "name": "Craiova International Airport",
      "lat": 44.3181,
      "lon": 23.888599,
      "updatedAt": "190730Z",
      "visibility_m": 4000,
      "taf_visibility_m": 5000,
      "worst_visibility_m": 4000,
      "ceiling_ft": 3000,
      "hazards": [
        "BR"
      ],
      "severityScore": 10,
      "metarRaw": "METAR LRCV 190730Z 02004KT 4000 BR FEW010 SCT024 M08/M10 Q1039",
      "tafRaw": "TAF LRCV 190500Z 1906/1915 VRB04KT 5000 BR BKN030 \n  BECMG 1907/1909 9999 NSW"
    },
    {
      "icao": "LTAC",
      "iata": "ESB",
      "name": "Esenboğa International Airport",
      "lat": 40.128101,
      "lon": 32.995098,
      "updatedAt": "190720Z",
      "visibility_m": 10000,
      "taf_visibility_m": 4000,
      "worst_visibility_m": 4000,
      "ceiling_ft": null,
      "hazards": [
        "BR"
      ],
      "severityScore": 10,
      "metarRaw": "METAR LTAC 190720Z VRB02KT 9999 FEW040 M05/M09 Q1023 NOSIG RMK RWY21C VRB02KT RWY03L VRB02KT RWY21R VRB01KT RWY03R VRB01KT RWY21L VRB02KT",
      "tafRaw": "TAF LTAC 190440Z 1906/2006 VRB02KT 9999 SCT040 SCT100 \n  TEMPO 1909/1913 34012KT \n  PROB30 \n  TEMPO 2002/2006 4000 BR"
    },
    {
      "icao": "EGPF",
      "iata": "GLA",
      "name": "Glasgow Airport",
      "lat": 55.871899,
      "lon": -4.43306,
      "updatedAt": "190720Z",
      "visibility_m": 7000,
      "taf_visibility_m": null,
      "worst_visibility_m": 7000,
      "ceiling_ft": 4200,
      "hazards": [],
      "severityScore": 5,
      "metarRaw": "METAR EGPF 190720Z AUTO 04006KT 7000 BKN042 04/03 Q1011",
      "tafRaw": null
    },
    {
      "icao": "EKCH",
      "iata": "CPH",
      "name": "Copenhagen Kastrup Airport",
      "lat": 55.617900848389,
      "lon": 12.656000137329,
      "updatedAt": "190720Z",
      "visibility_m": 10000,
      "taf_visibility_m": null,
      "worst_visibility_m": 10000,
      "ceiling_ft": null,
      "hazards": [],
      "severityScore": 5,
      "metarRaw": "METAR EKCH 190720Z AUTO 13014KT 9999 NCD 01/M01 Q1027 NOSIG",
      "tafRaw": null
    },
    {
      "icao": "ENGM",
      "iata": "OSL",
      "name": "Oslo-Gardermoen International Airport",
      "lat": 60.193901,
      "lon": 11.1004,
      "updatedAt": "190720Z",
      "visibility_m": 10000,
      "taf_visibility_m": null,
      "worst_visibility_m": 10000,
      "ceiling_ft": 2400,
      "hazards": [],
      "severityScore": 5,
      "metarRaw": "METAR ENGM 190720Z 11005KT 040V160 9999 VCSH FEW006 BKN024 M01/M02 Q1026 NOSIG",
      "tafRaw": null
    },
    {
      "icao": "ESMS",
      "iata": "MMX",
      "name": "Malmö Sturup Airport",
      "lat": 55.535564,
      "lon": 13.376327,
      "updatedAt": "190720Z",
      "visibility_m": 9000,
      "taf_visibility_m": null,
      "worst_visibility_m": 9000,
      "ceiling_ft": null,
      "hazards": [],
      "severityScore": 5,
      "metarRaw": "METAR ESMS 190720Z 12008KT 9000 NSC 00/M02 Q1026",
      "tafRaw": null
    },
    {
      "icao": "LECH",
      "iata": "CDT",
      "name": "Castellón-Costa Azahar Airport",
      "lat": 40.213889,
      "lon": 0.073333,
      "updatedAt": "190730Z",
      "visibility_m": 9000,
      "taf_visibility_m": null,
      "worst_visibility_m": 9000,
      "ceiling_ft": null,
      "hazards": [],
      "severityScore": 5,
      "metarRaw": "METAR LECH 190730Z AUTO 03006KT 360V060 9000 FEW048 08/05 Q1013",
      "tafRaw": null
    },
    {
      "icao": "LFMN",
      "iata": "NCE",
      "name": "Nice-Côte d'Azur Airport",
      "lat": 43.658401,
      "lon": 7.21587,
      "updatedAt": "190730Z",
      "visibility_m": 10000,
      "taf_visibility_m": null,
      "worst_visibility_m": 10000,
      "ceiling_ft": 10000,
      "hazards": [],
      "severityScore": 5,
      "metarRaw": "METAR LFMN 190730Z 08021KT 9999 BKN100 BKN150 15/05 Q1017 NOSIG",
      "tafRaw": null
    },
    {
      "icao": "BKPR",
      "iata": "PRN",
      "name": "Priština Adem Jashari International Airport",
      "lat": 42.5728,
      "lon": 21.035801,
      "updatedAt": "190730Z",
      "visibility_m": 10000,
      "taf_visibility_m": 10000,
      "worst_visibility_m": 10000,
      "ceiling_ft": null,
      "hazards": [],
      "severityScore": 0,
      "metarRaw": "METAR BKPR 190730Z 36009KT CAVOK M06/M09 Q1031 NOSIG",
      "tafRaw": "TAF BKPR 190530Z 1906/2006 02012KT 9999 SCT030"
    },
    {
      "icao": "GCFV",
      "iata": "FUE",
      "name": "Fuerteventura Airport",
      "lat": 28.4527,
      "lon": -13.8638,
      "updatedAt": "190730Z",
      "visibility_m": 10000,
      "taf_visibility_m": 10000,
      "worst_visibility_m": 10000,
      "ceiling_ft": 3500,
      "hazards": [],
      "severityScore": 0,
      "metarRaw": "METAR GCFV 190730Z 35015KT 9999 FEW030 15/09 Q1020",
      "tafRaw": "TAF GCFV 190200Z 1903/2003 36014KT 9999 BKN035 TX20/1914Z TN15/1906Z \n  PROB30 \n  TEMPO 1910/1923 02018G28KT"
    },
    {
      "icao": "GCLP",
      "iata": "LPA",
      "name": "Gran Canaria Airport",
      "lat": 27.9319,
      "lon": -15.3866,
      "updatedAt": "190730Z",
      "visibility_m": 10000,
      "taf_visibility_m": 10000,
      "worst_visibility_m": 10000,
      "ceiling_ft": 3200,
      "hazards": [],
      "severityScore": 0,
      "metarRaw": "METAR GCLP 190730Z 36013KT 9999 BKN032 16/10 Q1020 NOSIG",
      "tafRaw": "TAF GCLP 190200Z 1903/2003 01020KT 9999 SCT035 TX20/1914Z TN16/1906Z \n  PROB40 \n  TEMPO 1903/1915 01020G30KT \n  TEMPO 1915/2003 36025G35KT"
    },
    {
      "icao": "GMAD",
      "iata": "AGA",
      "name": "Al Massira Airport",
      "lat": 30.322478,
      "lon": -9.412003,
      "updatedAt": "190730Z",
      "visibility_m": 10000,
      "taf_visibility_m": 8000,
      "worst_visibility_m": 8000,
      "ceiling_ft": null,
      "hazards": [],
      "severityScore": 0,
      "metarRaw": "METAR GMAD 190730Z 25007KT CAVOK 09/04 Q1014 NOSIG",
      "tafRaw": "TAF GMAD 190500Z 1906/2012 22006KT 8000 SCT020 \n  BECMG 1912/1914 26013KT \n  BECMG 1919/1922 18006KT"
    },
    {
      "icao": "EDDB",
      "iata": "BER",
      "name": "Berlin Brandenburg Willy Brandt Airport",
      "lat": 52.361738,
      "lon": 13.502341,
      "updatedAt": "190720Z",
      "visibility_m": 10000,
      "taf_visibility_m": 10000,
      "worst_visibility_m": 10000,
      "ceiling_ft": null,
      "hazards": [],
      "severityScore": 0,
      "metarRaw": "METAR EDDB 190720Z AUTO 09011KT CAVOK M04/M06 Q1026 NOSIG",
      "tafRaw": "TAF EDDB 190500Z 1906/2006 12010KT CAVOK"
    },
    {
      "icao": "EDDH",
      "iata": "HAM",
      "name": "Hamburg Helmut Schmidt Airport",
      "lat": 53.630402,
      "lon": 9.98823,
      "updatedAt": "190720Z",
      "visibility_m": 10000,
      "taf_visibility_m": 10000,
      "worst_visibility_m": 10000,
      "ceiling_ft": null,
      "hazards": [],
      "severityScore": 0,
      "metarRaw": "METAR EDDH 190720Z AUTO 11010KT CAVOK M01/M05 Q1022 NOSIG",
      "tafRaw": "TAF EDDH 190500Z 1906/2012 12009KT CAVOK \n  BECMG 1921/1924 13004KT"
    },
    {
      "icao": "EDDN",
      "iata": "NUE",
      "name": "Nuremberg Airport",
      "lat": 49.498699,
      "lon": 11.078056,
      "updatedAt": "190720Z",
      "visibility_m": 10000,
      "taf_visibility_m": 10000,
      "worst_visibility_m": 10000,
      "ceiling_ft": null,
      "hazards": [],
      "severityScore": 0,
      "metarRaw": "METAR EDDN 190720Z AUTO 11007KT CAVOK M02/M06 Q1020 NOSIG",
      "tafRaw": "TAF EDDN 190500Z 1906/2006 10008KT CAVOK"
    },
    {
      "icao": "EDLW",
      "iata": "DTM",
      "name": "Dortmund Airport",
      "lat": 51.518299,
      "lon": 7.61224,
      "updatedAt": "190720Z",
      "visibility_m": 10000,
      "taf_visibility_m": 10000,
      "worst_visibility_m": 10000,
      "ceiling_ft": null,
      "hazards": [],
      "severityScore": 0,
      "metarRaw": "METAR EDLW 190720Z 11005KT CAVOK M00/M03 Q1018",
      "tafRaw": "TAF EDLW 190500Z 1906/2006 14004KT CAVOK"
    },
    {
      "icao": "EKBI",
      "iata": "BLL",
      "name": "Billund Airport",
      "lat": 55.740335,
      "lon": 9.157019,
      "updatedAt": "190720Z",
      "visibility_m": 10000,
      "taf_visibility_m": 10000,
      "worst_visibility_m": 10000,
      "ceiling_ft": null,
      "hazards": [],
      "severityScore": 0,
      "metarRaw": "METAR EKBI 190720Z AUTO 11008KT 9999 NCD M01/M02 Q1022",
      "tafRaw": "TAF EKBI 190527Z 1906/2006 12008KT 9999 FEW020"
    },
    {
      "icao": "ENHD",
      "iata": "HAU",
      "name": "Haugesund Airport, Karmøy",
      "lat": 59.345299,
      "lon": 5.20836,
      "updatedAt": "190720Z",
      "visibility_m": 10000,
      "taf_visibility_m": 10000,
      "worst_visibility_m": 10000,
      "ceiling_ft": null,
      "hazards": [],
      "severityScore": 0,
      "metarRaw": "METAR ENHD 190720Z 15006KT CAVOK 03/01 Q1020",
      "tafRaw": "TAF ENHD 190500Z 1906/1915 14008KT 9999 FEW050"
    },
    {
      "icao": "ENVA",
      "iata": "TRD",
      "name": "Trondheim Airport, Værnes",
      "lat": 63.457802,
      "lon": 10.924,
      "updatedAt": "190720Z",
      "visibility_m": 10000,
      "taf_visibility_m": 10000,
      "worst_visibility_m": 10000,
      "ceiling_ft": null,
      "hazards": [],
      "severityScore": 0,
      "metarRaw": "METAR ENVA 190720Z 06003KT 020V140 CAVOK 06/M01 Q1021 NOSIG RMK WIND 670FT 15012KT",
      "tafRaw": "TAF ENVA 190500Z 1906/2006 10005KT CAVOK"
    },
    {
      "icao": "ENZV",
      "iata": "SVG",
      "name": "Stavanger Airport, Sola",
      "lat": 58.876701,
      "lon": 5.63778,
      "updatedAt": "190720Z",
      "visibility_m": 10000,
      "taf_visibility_m": 10000,
      "worst_visibility_m": 10000,
      "ceiling_ft": null,
      "hazards": [],
      "severityScore": 0,
      "metarRaw": "METAR ENZV 190720Z 18005KT CAVOK 03/M01 Q1021 NOSIG",
      "tafRaw": "TAF ENZV 190500Z 1906/2006 16008KT 9999 FEW030"
    },
    {
      "icao": "EPGD",
      "iata": "GDN",
      "name": "Gdańsk Lech Wałęsa Airport",
      "lat": 54.377602,
      "lon": 18.4662,
      "updatedAt": "190730Z",
      "visibility_m": 8000,
      "taf_visibility_m": 8000,
      "worst_visibility_m": 8000,
      "ceiling_ft": null,
      "hazards": [],
      "severityScore": 0,
      "metarRaw": "METAR EPGD 190730Z 19005KT 8000 NSC M10/M11 Q1032",
      "tafRaw": "TAF EPGD 190530Z 1906/2006 18007KT 8000 NSC"
    },
    {
      "icao": "EPLB",
      "iata": "LUZ",
      "name": "Lublin Airport",
      "lat": 51.240157,
      "lon": 22.713461,
      "updatedAt": "190730Z",
      "visibility_m": 6000,
      "taf_visibility_m": 10000,
      "worst_visibility_m": 6000,
      "ceiling_ft": null,
      "hazards": [],
      "severityScore": 0,
      "metarRaw": "METAR EPLB 190730Z 09004KT 6000 NSC M18/M19 Q1036",
      "tafRaw": "TAF EPLB 190530Z 1906/2006 10007KT CAVOK"
    },
    {
      "icao": "EPPO",
      "iata": "POZ",
      "name": "Poznań-Ławica Airport",
      "lat": 52.421598,
      "lon": 16.823359,
      "updatedAt": "190730Z",
      "visibility_m": 9000,
      "taf_visibility_m": 10000,
      "worst_visibility_m": 9000,
      "ceiling_ft": null,
      "hazards": [],
      "severityScore": 0,
      "metarRaw": "METAR EPPO 190730Z 12011KT 9000 NSC M05/M09 Q1030",
      "tafRaw": "TAF EPPO 190530Z 1906/2006 10010KT CAVOK"
    },
    {
      "icao": "EPSC",
      "iata": "SZZ",
      "name": "Solidarity Szczecin–Goleniów Airport",
      "lat": 53.584702,
      "lon": 14.9022,
      "updatedAt": "190730Z",
      "visibility_m": 10000,
      "taf_visibility_m": 10000,
      "worst_visibility_m": 10000,
      "ceiling_ft": null,
      "hazards": [],
      "severityScore": 0,
      "metarRaw": "METAR EPSC 190730Z 12010KT CAVOK M04/M08 Q1028",
      "tafRaw": "TAF EPSC 190530Z 1906/2006 14010KT CAVOK"
    },
    {
      "icao": "EPSY",
      "iata": "SZY",
      "name": "Olsztyn-Mazury Airport",
      "lat": 53.481899,
      "lon": 20.9377,
      "updatedAt": "190730Z",
      "visibility_m": 10000,
      "taf_visibility_m": 10000,
      "worst_visibility_m": 10000,
      "ceiling_ft": null,
      "hazards": [],
      "severityScore": 0,
      "metarRaw": "METAR EPSY 190730Z VRB03KT CAVOK M15/M17 Q1036",
      "tafRaw": "TAF EPSY 190530Z 1906/1915 15006KT CAVOK"
    },
    {
      "icao": "EPWA",
      "iata": "WAW",
      "name": "Warsaw Chopin Airport",
      "lat": 52.165699,
      "lon": 20.9671,
      "updatedAt": "190730Z",
      "visibility_m": 9000,
      "taf_visibility_m": 10000,
      "worst_visibility_m": 9000,
      "ceiling_ft": null,
      "hazards": [],
      "severityScore": 0,
      "metarRaw": "METAR EPWA 190730Z 12008KT 9000 NSC M13/M15 Q1035 NOSIG",
      "tafRaw": "TAF EPWA 190530Z 1906/2006 13007KT CAVOK"
    },
    {
      "icao": "EPWR",
      "iata": "WRO",
      "name": "Copernicus Wrocław Airport",
      "lat": 51.103719,
      "lon": 16.882096,
      "updatedAt": "190730Z",
      "visibility_m": 8000,
      "taf_visibility_m": 10000,
      "worst_visibility_m": 8000,
      "ceiling_ft": null,
      "hazards": [],
      "severityScore": 0,
      "metarRaw": "METAR EPWR 190730Z 11008KT 8000 NSC M05/M07 Q1030",
      "tafRaw": "TAF EPWR 190530Z 1906/2006 13010KT CAVOK"
    },
    {
      "icao": "EYKA",
      "iata": "KUN",
      "name": "Kaunas International Airport",
      "lat": 54.963965,
      "lon": 24.08582,
      "updatedAt": "190720Z",
      "visibility_m": 10000,
      "taf_visibility_m": 9000,
      "worst_visibility_m": 9000,
      "ceiling_ft": null,
      "hazards": [],
      "severityScore": 0,
      "metarRaw": "METAR EYKA 190720Z 17004KT 140V210 CAVOK M15/M18 Q1038",
      "tafRaw": "TAF EYKA 190500Z 1906/2006 VRB04KT 9000 NSC"
    },
    {
      "icao": "EYPA",
      "iata": "PLQ",
      "name": "Palanga International Airport",
      "lat": 55.973202,
      "lon": 21.093901,
      "updatedAt": "190720Z",
      "visibility_m": 10000,
      "taf_visibility_m": 9000,
      "worst_visibility_m": 9000,
      "ceiling_ft": null,
      "hazards": [],
      "severityScore": 0,
      "metarRaw": "METAR EYPA 190720Z 16009KT CAVOK M10/M13 Q1035",
      "tafRaw": "TAF EYPA 190500Z 1906/2006 16010KT 9000 NSC"
    },
    {
      "icao": "HEGN",
      "iata": "HRG",
      "name": "Hurghada International Airport",
      "lat": 27.176776,
      "lon": 33.796692,
      "updatedAt": "190700Z",
      "visibility_m": 10000,
      "taf_visibility_m": 10000,
      "worst_visibility_m": 10000,
      "ceiling_ft": null,
      "hazards": [],
      "severityScore": 0,
      "metarRaw": "METAR HEGN 190700Z 30016KT CAVOK 17/09 Q1019 MOSIG",
      "tafRaw": "TAF HEGN 190500Z 1906/2012 31015KT CAVOK"
    },
    {
      "icao": "HEMA",
      "iata": "RMF",
      "name": "Marsa Alam International Airport",
      "lat": 25.555548,
      "lon": 34.59245,
      "updatedAt": "190700Z",
      "visibility_m": 10000,
      "taf_visibility_m": 10000,
      "worst_visibility_m": 10000,
      "ceiling_ft": null,
      "hazards": [],
      "severityScore": 0,
      "metarRaw": "METAR HEMA 190700Z 32013KT 9999 FEW020C 19/08 Q1018 MOSIG",
      "tafRaw": "TAF HEMA 190500Z 1906/2012 32015KT CAVOK"
    },
    {
      "icao": "HESH",
      "iata": "SSH",
      "name": "Sharm El Sheikh International Airport",
      "lat": 27.977272,
      "lon": 34.394717,
      "updatedAt": "190700Z",
      "visibility_m": 10000,
      "taf_visibility_m": 10000,
      "worst_visibility_m": 10000,
      "ceiling_ft": null,
      "hazards": [],
      "severityScore": 0,
      "metarRaw": "METAR HESH 190700Z 34008KT CAVOK 19/06 Q1018 MOSIG",
      "tafRaw": "TAF HESH 190500Z 1906/2012 36010KT CAVOK"
    },
    {
      "icao": "LATI",
      "iata": "TIA",
      "name": "Tirana International Airport Mother Teresa",
      "lat": 41.4147,
      "lon": 19.7206,
      "updatedAt": null,
      "visibility_m": null,
      "taf_visibility_m": 10000,
      "worst_visibility_m": 10000,
      "ceiling_ft": null,
      "hazards": [],
      "severityScore": 0,
      "metarRaw": null,
      "tafRaw": "TAF LATI 190500Z 1906/2006 VRB05KT CAVOK TX14/1913Z TNM05/2005Z"
    },
    {
      "icao": "LBPD",
      "iata": "PDV",
      "name": "Plovdiv International Airport",
      "lat": 42.067799,
      "lon": 24.8508,
      "updatedAt": "190730Z",
      "visibility_m": 10000,
      "taf_visibility_m": 10000,
      "worst_visibility_m": 10000,
      "ceiling_ft": 4500,
      "hazards": [],
      "severityScore": 0,
      "metarRaw": "METAR LBPD 190730Z AUTO 11005KT 9999 BKN033/// M03/M09 Q1036 NOSIG",
      "tafRaw": "TAF LBPD 190500Z 1906/2006 VRB03KT 9999 SCT030 OVC045 \n  BECMG 1909/1911 08010KT CAVOK"
    },
    {
      "icao": "LBSF",
      "iata": "SOF",
      "name": "Sofia Airport",
      "lat": 42.696357,
      "lon": 23.417671,
      "updatedAt": "190730Z",
      "visibility_m": 10000,
      "taf_visibility_m": 10000,
      "worst_visibility_m": 10000,
      "ceiling_ft": 2500,
      "hazards": [],
      "severityScore": 0,
      "metarRaw": "METAR LBSF 190730Z 00000KT 9999 FEW030 M06/M11 Q1034 NOSIG",
      "tafRaw": "TAF LBSF 190500Z 1906/2006 VRB03KT 9999 BKN025 \n  BECMG 1910/1912 10010KT CAVOK"
    },
    {
      "icao": "LCLK",
      "iata": "LCA",
      "name": "Larnaca International Airport",
      "lat": 34.875099,
      "lon": 33.624901,
      "updatedAt": "190730Z",
      "visibility_m": 10000,
      "taf_visibility_m": 10000,
      "worst_visibility_m": 10000,
      "ceiling_ft": null,
      "hazards": [],
      "severityScore": 0,
      "metarRaw": "METAR LCLK 190730Z 01015KT 9999 FEW020 10/M01 Q1023 NOSIG",
      "tafRaw": "TAF LCLK 190530Z 1906/2006 03013KT 9999 FEW025 \n  BECMG 1916/1918 33010KT"
    },
    {
      "icao": "LCPH",
      "iata": "PFO",
      "name": "Paphos International Airport",
      "lat": 34.717999,
      "lon": 32.485699,
      "updatedAt": "190730Z",
      "visibility_m": 10000,
      "taf_visibility_m": 10000,
      "worst_visibility_m": 10000,
      "ceiling_ft": null,
      "hazards": [],
      "severityScore": 0,
      "metarRaw": "METAR LCPH 190730Z 08009KT 9999 FEW030 11/M01 Q1021 NOSIG",
      "tafRaw": "TAF LCPH 190530Z 1906/2006 04009KT 9999 SCT025 \n  BECMG 1908/1910 14010KT \n  BECMG 1918/1920 05010KT"
    },
    {
      "icao": "LEMG",
      "iata": "AGP",
      "name": "Málaga-Costa del Sol Airport",
      "lat": 36.6749,
      "lon": -4.49911,
      "updatedAt": "190730Z",
      "visibility_m": 10000,
      "taf_visibility_m": 10000,
      "worst_visibility_m": 10000,
      "ceiling_ft": null,
      "hazards": [],
      "severityScore": 0,
      "metarRaw": "METAR LEMG 190730Z 28014KT CAVOK 07/02 Q1015 NOSIG",
      "tafRaw": "TAF LEMG 190500Z 1906/2006 29012KT CAVOK TX13/1914Z TN04/1906Z \n  PROB30 \n  TEMPO 1910/1917 31015G25KT"
    },
    {
      "icao": "LEVC",
      "iata": "VLC",
      "name": "Valencia Airport",
      "lat": 39.4893,
      "lon": -0.481625,
      "updatedAt": "190730Z",
      "visibility_m": 10000,
      "taf_visibility_m": 10000,
      "worst_visibility_m": 10000,
      "ceiling_ft": 4000,
      "hazards": [],
      "severityScore": 0,
      "metarRaw": "METAR LEVC 190730Z 31009KT 9999 BKN040 09/05 Q1013 NOSIG",
      "tafRaw": "TAF LEVC 190500Z 1906/2006 30007KT 9999 FEW020 TX16/1913Z TN05/1906Z \n  PROB30 \n  TEMPO 1906/1908 FEW020TCU \n  TEMPO 1912/1918 VRB04KT \n  PROB30 \n  TEMPO 1915/1919 FEW020TCU"
    },
    {
      "icao": "LEZL",
      "iata": "SVQ",
      "name": "Sevilla Airport",
      "lat": 37.417999,
      "lon": -5.89311,
      "updatedAt": "190730Z",
      "visibility_m": 10000,
      "taf_visibility_m": 10000,
      "worst_visibility_m": 10000,
      "ceiling_ft": null,
      "hazards": [],
      "severityScore": 0,
      "metarRaw": "METAR LEZL 190730Z VRB02KT CAVOK 04/03 Q1018 NOSIG",
      "tafRaw": "TAF LEZL 190200Z 1903/2003 VRB03KT CAVOK TX15/1915Z TN03/1907Z"
    },
    {
      "icao": "LIMC",
      "iata": "MXP",
      "name": "Milan Malpensa International Airport",
      "lat": 45.6306,
      "lon": 8.72811,
      "updatedAt": "190720Z",
      "visibility_m": 10000,
      "taf_visibility_m": 10000,
      "worst_visibility_m": 10000,
      "ceiling_ft": 3700,
      "hazards": [],
      "severityScore": 0,
      "metarRaw": "METAR LIMC 190720Z 11002KT 9999 BKN037 06/02 Q1026 NOSIG",
      "tafRaw": "TAF LIMC 190500Z 1906/2012 VRB03KT 9999 BKN040"
    },
    {
      "icao": "LIMJ",
      "iata": "GOA",
      "name": "Genoa Cristoforo Colombo Airport",
      "lat": 44.412039,
      "lon": 8.840732,
      "updatedAt": "190720Z",
      "visibility_m": 10000,
      "taf_visibility_m": 10000,
      "worst_visibility_m": 10000,
      "ceiling_ft": null,
      "hazards": [],
      "severityScore": 0,
      "metarRaw": "METAR LIMJ 190720Z 03013KT 9999 FEW080 09/03 Q1021",
      "tafRaw": "TAF LIMJ 190500Z 1906/2006 02013KT CAVOK \n  BECMG 1912/1914 02015G28KT"
    },
    {
      "icao": "LIPH",
      "iata": "TSF",
      "name": "Treviso Antonio Canova Airport",
      "lat": 45.648399,
      "lon": 12.1944,
      "updatedAt": "190720Z",
      "visibility_m": 10000,
      "taf_visibility_m": 10000,
      "worst_visibility_m": 10000,
      "ceiling_ft": null,
      "hazards": [],
      "severityScore": 0,
      "metarRaw": "METAR LIPH 190720Z 02005KT CAVOK 01/M05 Q1028",
      "tafRaw": "TAF LIPH 190500Z 1906/2006 05007KT 9999 FEW070"
    },
    {
      "icao": "LIPQ",
      "iata": "TRS",
      "name": "Trieste–Friuli Venezia Giulia Airport",
      "lat": 45.827499,
      "lon": 13.4722,
      "updatedAt": "190720Z",
      "visibility_m": 10000,
      "taf_visibility_m": 10000,
      "worst_visibility_m": 10000,
      "ceiling_ft": null,
      "hazards": [],
      "severityScore": 0,
      "metarRaw": "METAR LIPQ 190720Z AUTO 08006KT 050V110 9999 NCD 03/M08 Q1028",
      "tafRaw": "TAF LIPQ 190500Z 1906/2006 VRB05KT CAVOK \n  BECMG 1908/1910 08012KT \n  TEMPO 1911/1915 08015G25KT \n  BECMG 1922/1924 VRB05KT"
    },
    {
      "icao": "LIPX",
      "iata": "VRN",
      "name": "Verona Villafranca Valerio Catullo Airport",
      "lat": 45.394955,
      "lon": 10.887303,
      "updatedAt": "190720Z",
      "visibility_m": 10000,
      "taf_visibility_m": 10000,
      "worst_visibility_m": 10000,
      "ceiling_ft": 7000,
      "hazards": [],
      "severityScore": 0,
      "metarRaw": "METAR LIPX 190720Z 10005KT 9999 BKN070 06/M06 Q1026",
      "tafRaw": "TAF LIPX 190500Z 1906/2006 10007KT 9999 SCT050"
    },
    {
      "icao": "LIPZ",
      "iata": "VCE",
      "name": "Venice Marco Polo Airport",
      "lat": 45.505299,
      "lon": 12.3519,
      "updatedAt": "190720Z",
      "visibility_m": 10000,
      "taf_visibility_m": 10000,
      "worst_visibility_m": 10000,
      "ceiling_ft": null,
      "hazards": [],
      "severityScore": 0,
      "metarRaw": "METAR LIPZ 190720Z 03010KT CAVOK 01/M05 Q1027 NOSIG",
      "tafRaw": "TAF LIPZ 190500Z 1906/2012 04010KT 9999 FEW070"
    },
    {
      "icao": "LIRP",
      "iata": "PSA",
      "name": "Pisa International Airport",
      "lat": 43.683899,
      "lon": 10.3927,
      "updatedAt": "190715Z",
      "visibility_m": 10000,
      "taf_visibility_m": 10000,
      "worst_visibility_m": 10000,
      "ceiling_ft": 8000,
      "hazards": [],
      "severityScore": 0,
      "metarRaw": "METAR LIRP 190715Z 07014KT CAVOK 12/04 Q1020 NOSIG",
      "tafRaw": "TAF LIRP 190500Z 1906/2006 07012KT 9999 BKN080 \n  TEMPO 1909/1918 09015G25KT"
    },
    {
      "icao": "LIRZ",
      "iata": "PEG",
      "name": "Perugia San Francesco d'Assisi – Umbria International Airport",
      "lat": 43.095901,
      "lon": 12.5132,
      "updatedAt": "190720Z",
      "visibility_m": 10000,
      "taf_visibility_m": 10000,
      "worst_visibility_m": 10000,
      "ceiling_ft": null,
      "hazards": [],
      "severityScore": 0,
      "metarRaw": "METAR LIRZ 190720Z AUTO 04009KT 9999 NCD 10/02 Q1020",
      "tafRaw": "TAF LIRZ 190500Z 1906/2006 03013KT CAVOK"
    },
    {
      "icao": "LJLJ",
      "iata": "LJU",
      "name": "Ljubljana Jože Pučnik Airport",
      "lat": 46.223701,
      "lon": 14.4576,
      "updatedAt": "190730Z",
      "visibility_m": 10000,
      "taf_visibility_m": 10000,
      "worst_visibility_m": 10000,
      "ceiling_ft": 2300,
      "hazards": [],
      "severityScore": 0,
      "metarRaw": "METAR LJLJ 190730Z 08007KT 9999 OVC023 M02/M07 Q1032 NOSIG",
      "tafRaw": "TAF LJLJ 190500Z 1906/2006 12006KT 9999 OVC017"
    },
    {
      "icao": "LKMT",
      "iata": "OSR",
      "name": "Leoš Janáček Airport Ostrava",
      "lat": 49.696301,
      "lon": 18.111099,
      "updatedAt": "190730Z",
      "visibility_m": 10000,
      "taf_visibility_m": 10000,
      "worst_visibility_m": 10000,
      "ceiling_ft": null,
      "hazards": [],
      "severityScore": 0,
      "metarRaw": "METAR LKMT 190730Z 20004KT CAVOK M06/M07 Q1033 NOSIG",
      "tafRaw": "TAF LKMT 190500Z 1906/2006 22014KT CAVOK"
    },
    {
      "icao": "LKPR",
      "iata": "PRG",
      "name": "Václav Havel Airport Prague",
      "lat": 50.100874,
      "lon": 14.259911,
      "updatedAt": "190730Z",
      "visibility_m": 10000,
      "taf_visibility_m": 10000,
      "worst_visibility_m": 10000,
      "ceiling_ft": null,
      "hazards": [],
      "severityScore": 0,
      "metarRaw": "METAR LKPR 190730Z 11007KT CAVOK M05/M07 Q1026 NOSIG",
      "tafRaw": "TAF LKPR 190500Z 1906/2012 11010KT CAVOK"
    },
    {
      "icao": "LPFR",
      "iata": "FAO",
      "name": "Faro - Gago Coutinho International Airport",
      "lat": 37.015909,
      "lon": -7.970939,
      "updatedAt": "190730Z",
      "visibility_m": 10000,
      "taf_visibility_m": 10000,
      "worst_visibility_m": 10000,
      "ceiling_ft": null,
      "hazards": [],
      "severityScore": 0,
      "metarRaw": "METAR LPFR 190730Z 29004KT 250V330 CAVOK 06/03 Q1019",
      "tafRaw": "TAF LPFR 190500Z 1906/2006 33005KT CAVOK \n  BECMG 1913/1915 33010KT"
    },
    {
      "icao": "LPMA",
      "iata": "FNC",
      "name": "Cristiano Ronaldo International Airport",
      "lat": 32.697812,
      "lon": -16.774613,
      "updatedAt": "190730Z",
      "visibility_m": 10000,
      "taf_visibility_m": 10000,
      "worst_visibility_m": 10000,
      "ceiling_ft": null,
      "hazards": [],
      "severityScore": 0,
      "metarRaw": "METAR LPMA 190730Z 36008KT 290V070 9999 SCT015 14/10 Q1024",
      "tafRaw": "TAF LPMA 190500Z 1906/2006 01010KT 9999 SCT015 \n  PROB30 \n  TEMPO 1906/1915 01015G25KT"
    },
    {
      "icao": "LPPS",
      "iata": "PXO",
      "name": "Porto Santo Airport",
      "lat": 33.0733985901,
      "lon": -16.3500003815,
      "updatedAt": "190730Z",
      "visibility_m": 10000,
      "taf_visibility_m": 10000,
      "worst_visibility_m": 10000,
      "ceiling_ft": 3000,
      "hazards": [],
      "severityScore": 0,
      "metarRaw": "METAR LPPS 190730Z 01009KT 9999 FEW015 SCT030 14/10 Q1024",
      "tafRaw": "TAF LPPS 190500Z 1906/2012 01015KT 9999 SCT015 \n  TEMPO 1906/2012 FEW015 BKN030 \n  BECMG 1914/1916 35010KT \n  BECMG 2010/2012 31012KT"
    },
    {
      "icao": "LPPT",
      "iata": "LIS",
      "name": "Lisbon Humberto Delgado Airport",
      "lat": 38.7813,
      "lon": -9.13592,
      "updatedAt": "190730Z",
      "visibility_m": 10000,
      "taf_visibility_m": 10000,
      "worst_visibility_m": 10000,
      "ceiling_ft": 3000,
      "hazards": [],
      "severityScore": 0,
      "metarRaw": "METAR LPPT 190730Z 21003KT 180V250 9999 FEW030 08/07 Q1020",
      "tafRaw": "TAF LPPT 190500Z 1906/2012 29005KT 9999 FEW020 \n  BECMG 1912/1914 32010KT SCT020 \n  BECMG 2002/2004 VRB02KT FEW012 \n  BECMG 2009/2011 26008KT BKN030"
    },
    {
      "icao": "LRBC",
      "iata": "BCM",
      "name": "Bacău George Enescu International  Airport",
      "lat": 46.5219,
      "lon": 26.910299,
      "updatedAt": "190730Z",
      "visibility_m": 10000,
      "taf_visibility_m": 10000,
      "worst_visibility_m": 10000,
      "ceiling_ft": 5600,
      "hazards": [],
      "severityScore": 0,
      "metarRaw": "METAR LRBC 190730Z 04003KT 360V090 9999 SCT048 OVC056 M07/M11 Q1040",
      "tafRaw": "TAF LRBC 190500Z 1906/1915 32006KT 9999 BKN040"
    },
    {
      "icao": "LRBV",
      "iata": "GHV",
      "name": "Brașov-Ghimbav International Airport",
      "lat": 45.70558,
      "lon": 25.522871,
      "updatedAt": "190730Z",
      "visibility_m": 10000,
      "taf_visibility_m": 10000,
      "worst_visibility_m": 10000,
      "ceiling_ft": 4300,
      "hazards": [],
      "severityScore": 0,
      "metarRaw": "METAR LRBV 190730Z 23003KT 9999 BKN043 M10/M12 Q1035",
      "tafRaw": "TAF LRBV 190500Z 1906/1915 21007KT 9999 BKN035 \n  PROB40 \n  TEMPO 1909/1913 10010KT"
    },
    {
      "icao": "LRSV",
      "iata": "SCV",
      "name": "Suceava Stefan cel Mare Airport",
      "lat": 47.6875,
      "lon": 26.35409927368164,
      "updatedAt": "190730Z",
      "visibility_m": 8000,
      "taf_visibility_m": 10000,
      "worst_visibility_m": 8000,
      "ceiling_ft": null,
      "hazards": [],
      "severityScore": 0,
      "metarRaw": "METAR LRSV 190730Z 19003KT 8000 FEW013 M10/M11 Q1037",
      "tafRaw": "TAF LRSV 190500Z 1906/1915 VRB04KT CAVOK"
    },
    {
      "icao": "LWOH",
      "iata": "OHD",
      "name": "Ohrid St. Paul the Apostle Airport",
      "lat": 41.18,
      "lon": 20.7423,
      "updatedAt": "190720Z",
      "visibility_m": 10000,
      "taf_visibility_m": 10000,
      "worst_visibility_m": 10000,
      "ceiling_ft": null,
      "hazards": [],
      "severityScore": 0,
      "metarRaw": "METAR LWOH 190720Z 02010KT 350V050 9999 SCT033 01/M06 Q1028",
      "tafRaw": "TAF LWOH 190550Z 1906/2006 03006KT 9999 SCT040"
    },
    {
      "icao": "LWSK",
      "iata": "SKP",
      "name": "Skopje International Airport",
      "lat": 41.958087,
      "lon": 21.622581,
      "updatedAt": "190720Z",
      "visibility_m": 10000,
      "taf_visibility_m": 10000,
      "worst_visibility_m": 10000,
      "ceiling_ft": null,
      "hazards": [],
      "severityScore": 0,
      "metarRaw": "METAR LWSK 190720Z 05004KT 350V100 9999 FEW048 M04/M08 Q1034 NOSIG",
      "tafRaw": "TAF LWSK 190550Z 1906/2006 VRB03KT 9999 FEW050"
    },
    {
      "icao": "LYBE",
      "iata": "BEG",
      "name": "Belgrade Nikola Tesla Airport",
      "lat": 44.818401,
      "lon": 20.309099,
      "updatedAt": "190730Z",
      "visibility_m": 10000,
      "taf_visibility_m": 10000,
      "worst_visibility_m": 10000,
      "ceiling_ft": null,
      "hazards": [],
      "severityScore": 0,
      "metarRaw": "METAR LYBE 190730Z 11011KT CAVOK M05/M09 Q1036 NOSIG",
      "tafRaw": "TAF LYBE 190500Z 1906/2006 10014KT CAVOK TX01/1913ZZ TNM07/2005Z"
    },
    {
      "icao": "LYNI",
      "iata": "INI",
      "name": "Niš Constantine the Great Airport",
      "lat": 43.336538,
      "lon": 21.856242,
      "updatedAt": "190730Z",
      "visibility_m": 10000,
      "taf_visibility_m": 10000,
      "worst_visibility_m": 10000,
      "ceiling_ft": null,
      "hazards": [],
      "severityScore": 0,
      "metarRaw": "METAR LYNI 190730Z VRB02KT CAVOK M07/M09 Q1035 NOSIG",
      "tafRaw": "TAF LYNI 190500Z 1906/2006 05007KT CAVOK TX01/1913Z TNM10/2005Z \n  TEMPO 1908/1915 04018KT"
    },
    {
      "icao": "LYPG",
      "iata": "TGD",
      "name": "Podgorica Airport / Podgorica Golubovci Airbase",
      "lat": 42.359402,
      "lon": 19.2519,
      "updatedAt": "190730Z",
      "visibility_m": 10000,
      "taf_visibility_m": 10000,
      "worst_visibility_m": 10000,
      "ceiling_ft": null,
      "hazards": [],
      "severityScore": 0,
      "metarRaw": "METAR LYPG 190730Z 34005KT CAVOK 00/M03 Q1028 NOSIG",
      "tafRaw": "TAF LYPG 190500Z 1906/2006 35007KT CAVOK TX09/1913Z TNM02/1906Z"
    },
    {
      "icao": "LZTT",
      "iata": "TAT",
      "name": "Poprad-Tatry Airport",
      "lat": 49.073601,
      "lon": 20.2411,
      "updatedAt": "190730Z",
      "visibility_m": 10000,
      "taf_visibility_m": 10000,
      "worst_visibility_m": 10000,
      "ceiling_ft": null,
      "hazards": [],
      "severityScore": 0,
      "metarRaw": "METAR LZTT 190730Z 28005KT CAVOK M13/M15 Q1032 NOSIG",
      "tafRaw": "TAF LZTT 190515Z 1906/2006 27004KT CAVOK"
    },
    {
      "icao": "OEJN",
      "iata": "JED",
      "name": "King Abdulaziz International Airport",
      "lat": 21.6796,
      "lon": 39.156502,
      "updatedAt": "190700Z",
      "visibility_m": 10000,
      "taf_visibility_m": 10000,
      "worst_visibility_m": 10000,
      "ceiling_ft": null,
      "hazards": [],
      "severityScore": 0,
      "metarRaw": "METAR OEJN 190700Z 01009KT CAVOK 25/13 Q1015 NOSIG",
      "tafRaw": "TAF OEJN 190500Z 1906/2012 33013KT 9999 FEW040 \n  BECMG 1918/1920 03006KT \n  BECMG 2008/2010 33013KT"
    },
    {
      "icao": "OEMA",
      "iata": "MED",
      "name": "Prince Mohammad Bin Abdulaziz Airport",
      "lat": 24.5534,
      "lon": 39.705101,
      "updatedAt": "190700Z",
      "visibility_m": 10000,
      "taf_visibility_m": 10000,
      "worst_visibility_m": 10000,
      "ceiling_ft": null,
      "hazards": [],
      "severityScore": 0,
      "metarRaw": "METAR OEMA 190700Z 09002KT CAVOK 18/03 Q1019 NOSIG",
      "tafRaw": "TAF OEMA 190500Z 1906/2012 VRB03KT CAVOK \n  BECMG 1908/1910 28010KT \n  BECMG 1918/1920 VRB03KT"
    },
    {
      "icao": "OMAA",
      "iata": "AUH",
      "name": "Zayed International Airport",
      "lat": 24.440966,
      "lon": 54.649237,
      "updatedAt": "190700Z",
      "visibility_m": 10000,
      "taf_visibility_m": 8000,
      "worst_visibility_m": 8000,
      "ceiling_ft": null,
      "hazards": [],
      "severityScore": 0,
      "metarRaw": "METAR OMAA 190700Z 16009KT CAVOK 21/13 Q1016 NOSIG",
      "tafRaw": "TAF OMAA 190500Z 1906/2012 18006KT 8000 NSC \n  BECMG 1909/1911 33010KT \n  BECMG 1916/1918 14005KT \n  BECMG 2007/2009 30012KT"
    },
    {
      "icao": "OMDB",
      "iata": "DXB",
      "name": "Dubai International Airport",
      "lat": 25.2527999878,
      "lon": 55.3643989563,
      "updatedAt": "190730Z",
      "visibility_m": 10000,
      "taf_visibility_m": 4000,
      "worst_visibility_m": 4000,
      "ceiling_ft": null,
      "hazards": [],
      "severityScore": 0,
      "metarRaw": "METAR OMDB 190730Z VRB03KT 9999 FEW045 22/13 Q1017 BECMG 30010KT",
      "tafRaw": "TAF OMDB 190500Z 1906/2012 20005KT 8000 NSC \n  BECMG 1908/1910 30010KT \n  BECMG 1915/1917 12005KT \n  PROB30 2002/2006 4000 HZ \n  BECMG 2008/2010 27010KT"
    }
  ],
  "stats": {
    "icaoCount": 159,
    "metarReturned": 157,
    "tafReturned": 149,
    "stationsWritten": 159,
    "missingMetar": 2,
    "missingTaf": 10
  },
  "errors": []
}