{
  "generatedAt": "2026-01-18T05:45:55.101Z",
  "metarFetchedAt": "2026-01-18T05:45:55.988Z",
  "tafFetchedAt": "2026-01-18T05:45:56.775Z",
  "stations": [
    {
      "icao": "EDDB",
      "iata": "BER",
      "name": "Berlin Brandenburg Airport",
      "updatedAt": "180520Z",
      "visibility_m": 5000,
      "taf_visibility_m": 700,
      "worst_visibility_m": 700,
      "ceiling_ft": 400,
      "hazards": [
        "BR",
        "FZFG",
        "FG"
      ],
      "severityScore": 100,
      "metarRaw": "METAR EDDB 180520Z AUTO 11008KT 5000 BR BKN004 01/01 Q1027 TEMPO BKN005",
      "tafRaw": "TAF EDDB 180500Z 1806/1906 10009KT 5000 BR BKN005 \n  PROB40 \n  TEMPO 1806/1809 0700 FZFG BKN001 \n  BECMG 1809/1812 SCT004"
    },
    {
      "icao": "EDFH",
      "iata": "HHN",
      "name": "Frankfurt-Hahn Airport",
      "updatedAt": "180520Z",
      "visibility_m": 500,
      "taf_visibility_m": 100,
      "worst_visibility_m": 100,
      "ceiling_ft": 100,
      "hazards": [
        "FZFG",
        "FG",
        "BR"
      ],
      "severityScore": 100,
      "metarRaw": "METAR EDFH 180520Z 13018KT 0500 R21/0550N FZFG VV/// M02/M02 Q1018",
      "tafRaw": "TAF EDFH 180500Z 1806/1906 13013KT 0600 FZFG OVC002 \n  TEMPO 1806/1809 0100 FZFG VV001 \n  BECMG 1809/1812 3000 BR \n  TEMPO 1812/1817 6000 BKN005 \n  TEMPO 1818/1906 0600 FZFG VV001"
    },
    {
      "icao": "EDJA",
      "iata": "FMM",
      "name": "Memmingen Allgau Airport",
      "updatedAt": "180520Z",
      "visibility_m": 1400,
      "taf_visibility_m": 300,
      "worst_visibility_m": 300,
      "ceiling_ft": 0,
      "hazards": [
        "BR",
        "FZFG",
        "FG"
      ],
      "severityScore": 100,
      "metarRaw": "METAR EDJA 180520Z 06006KT 020V090 1400 R06/1900U BR VV/// M03/M04 Q1018",
      "tafRaw": "TAF EDJA 180500Z 1806/1815 05008KT 0700 FZFG VV000 \n  TEMPO 1806/1810 2500 BR OVC003 \n  BECMG 1806/1808 0300 FZFG \n  BECMG 1810/1812 2500 BR OVC002"
    },
    {
      "icao": "EETN",
      "iata": "TLL",
      "name": "Lennart Meri Tallinn Airport",
      "updatedAt": "180520Z",
      "visibility_m": 3000,
      "taf_visibility_m": 3000,
      "worst_visibility_m": 3000,
      "ceiling_ft": 300,
      "hazards": [
        "BR",
        "FZRA",
        "FZDZ",
        "RA",
        "DZ"
      ],
      "severityScore": 100,
      "metarRaw": "METAR EETN 180520Z 19004KT 6000 BKN003 OVC007 M03/M03 Q1037 TEMPO 3000",
      "tafRaw": "TAF EETN 180530Z 1806/1906 19008KT 8000 OVC010 \n  TEMPO 1806/1811 BKN004 \n  PROB40 \n  TEMPO 1806/1809 3000 -FZDZ BR \n  TEMPO 1811/1813 3000 -FZRA BR OVC004 \n  TEMPO 1813/1818 OVC005 \n  PROB40 \n  TEMPO 1900/1906 BKN003"
    },
    {
      "icao": "EFTU",
      "iata": "TKU",
      "name": "Turku Airport",
      "updatedAt": "180520Z",
      "visibility_m": 750,
      "taf_visibility_m": 400,
      "worst_visibility_m": 400,
      "ceiling_ft": 200,
      "hazards": [
        "FG",
        "BR",
        "RA",
        "DZ"
      ],
      "severityScore": 100,
      "metarRaw": "METAR EFTU 180520Z AUTO 20004KT 0800 0750 R26/0900U FG VV002 02/02 Q1035",
      "tafRaw": "TAF EFTU 180528Z 1806/1906 20004KT 0700 -DZRA FG VV002 \n  TEMPO 1806/1809 0400 VV001 \n  BECMG 1809/1812 4000 BR OVC007 \n  TEMPO 1812/1819 8000 NSW OVC014 \n  PROB40 1819/1906 1000 BCFG BKN003"
    },
    {
      "icao": "EGBB",
      "iata": "BHX",
      "name": "Birmingham Airport",
      "updatedAt": "180520Z",
      "visibility_m": 2600,
      "taf_visibility_m": 300,
      "worst_visibility_m": 300,
      "ceiling_ft": 200,
      "hazards": [
        "BR",
        "FG",
        "DZ"
      ],
      "severityScore": 100,
      "metarRaw": "METAR EGBB 180520Z 10006KT 2600 BR OVC002 05/05 Q1019",
      "tafRaw": "TAF EGBB 180456Z 1806/1906 13005KT 0300 FG BKN001 \n  TEMPO 1806/1810 3000 -DZ BR BKN002 \n  BECMG 1810/1813 6000 NSW BKN005 \n  TEMPO 1813/1824 1200 DZ BR BKN002 \n  PROB40 \n  TEMPO 1813/1906 0300 -DZ FG BKN001 \n  TEMPO 1900/1906 1200 BR BKN002"
    },
    {
      "icao": "EGGP",
      "iata": "LPL",
      "name": "Liverpool John Lennon Airport",
      "updatedAt": "180520Z",
      "visibility_m": 6000,
      "taf_visibility_m": 300,
      "worst_visibility_m": 300,
      "ceiling_ft": 400,
      "hazards": [
        "FG",
        "BR",
        "RA",
        "DZ"
      ],
      "severityScore": 100,
      "metarRaw": "METAR EGGP 180520Z 05004KT 6000 OVC004 04/03 Q1019",
      "tafRaw": "TAF EGGP 180457Z 1806/1906 05004KT 9999 BKN009 \n  TEMPO 1806/1906 7000 -RA \n  PROB40 \n  TEMPO 1806/1808 4000 BR BKN004 \n  PROB40 \n  TEMPO 1808/1824 4000 RA RADZ BKN003 \n  PROB30 \n  TEMPO 1900/1906 0300 FG BKN001"
    },
    {
      "icao": "EGGW",
      "iata": "LTN",
      "name": "London Luton Airport",
      "updatedAt": "180520Z",
      "visibility_m": 200,
      "taf_visibility_m": 300,
      "worst_visibility_m": 200,
      "ceiling_ft": 200,
      "hazards": [
        "FG",
        "RA",
        "BR"
      ],
      "severityScore": 100,
      "metarRaw": "METAR EGGW 180520Z AUTO 07007KT 0200 R07/0600N -RA FG OVC001/// //////TCU 06/06 Q1018",
      "tafRaw": "TAF EGGW 180500Z 1806/1906 09005KT 0300 FG VV/// \n  PROB40 1806/1810 2500 BR BKN002 \n  BECMG 1810/1813 9999 NSW FEW008 \n  PROB40 1814/1820 6000 \n  PROB40 \n  TEMPO 1814/1817 BKN008 \n  PROB40 1820/1823 3000 BR \n  BECMG 1821/1824 6000 \n  PROB30 1823/1906 0300 FG VV///"
    },
    {
      "icao": "EGNM",
      "iata": "LBA",
      "name": "Leeds Bradford Airport",
      "updatedAt": "180520Z",
      "visibility_m": 100,
      "taf_visibility_m": 300,
      "worst_visibility_m": 100,
      "ceiling_ft": 200,
      "hazards": [
        "FG",
        "BR",
        "RA",
        "DZ"
      ],
      "severityScore": 100,
      "metarRaw": "METAR EGNM 180520Z VRB02KT 0100 FG VV/// 05/05 Q1019",
      "tafRaw": "TAF EGNM 180457Z 1806/1906 06003KT 0300 FG VV/// \n  TEMPO 1806/1906 RA -RADZ \n  PROB30 \n  TEMPO 1806/1906 2000 BR SCT001 BKN002"
    },
    {
      "icao": "EGPD",
      "iata": "ABZ",
      "name": "Aberdeen International Airport",
      "updatedAt": "180520Z",
      "visibility_m": 500,
      "taf_visibility_m": 300,
      "worst_visibility_m": 300,
      "ceiling_ft": 300,
      "hazards": [
        "FG",
        "BR",
        "DZ",
        "RA"
      ],
      "severityScore": 100,
      "metarRaw": "METAR EGPD 180520Z AUTO 00000KT 0500 FG BKN009 BKN015 03/03 Q1020 TEMPO BKN003",
      "tafRaw": "TAF EGPD 180453Z 1806/1906 16004KT 9999 SCT006 BKN015 \n  TEMPO 1806/1812 3000 BR BKN004 \n  PROB30 \n  TEMPO 1806/1810 0300 FG VV/// \n  TEMPO 1812/1903 6000 -RADZ BKN006 \n  PROB30 \n  TEMPO 1812/1819 3000 BR BKN003 \n  PROB30 \n  TEMPO 1815/1818 RADZ \n  PROB30 \n  TEMPO 1819/1903 0800 FG DZ BKN001 \n  PROB30 \n  TEMPO 1903/1906 0800 FG BKN001"
    },
    {
      "icao": "EGPF",
      "iata": "GLA",
      "name": "Glasgow Airport",
      "updatedAt": "180520Z",
      "visibility_m": 3400,
      "taf_visibility_m": 300,
      "worst_visibility_m": 300,
      "ceiling_ft": 300,
      "hazards": [
        "BR",
        "FG",
        "RA",
        "DZ"
      ],
      "severityScore": 100,
      "metarRaw": "METAR EGPF 180520Z AUTO 05003KT 3400 BR NCD 05/04 Q1019",
      "tafRaw": "TAF EGPF 180453Z 1806/1906 06003KT 7000 SCT040 \n  TEMPO 1806/1811 2000 BR BKN010 \n  PROB30 1806/1811 0300 FG VV/// \n  TEMPO 1811/1906 BKN010 \n  PROB30 \n  TEMPO 1811/1815 3000 BR BKN003 \n  PROB30 \n  TEMPO 1815/1824 3000 RADZ BR BKN004 \n  TEMPO 1900/1906 9999"
    },
    {
      "icao": "EKBI",
      "iata": "BLL",
      "name": "Billund Airport",
      "updatedAt": "180520Z",
      "visibility_m": 3300,
      "taf_visibility_m": 500,
      "worst_visibility_m": 500,
      "ceiling_ft": 100,
      "hazards": [
        "BR",
        "DZ",
        "FG"
      ],
      "severityScore": 100,
      "metarRaw": "METAR EKBI 180520Z AUTO 10009KT 3300 -DZ BR OVC003/// 02/02 Q1026",
      "tafRaw": "TAF EKBI 180527Z 1806/1906 11010KT 4000 BR BKN003 \n  TEMPO 1806/1810 0500 FG VV001 \n  BECMG 1810/1812 5000 BKN005 \n  TEMPO 1812/1824 4000 BKN004 \n  BECMG 1900/1902 4000 SCT005 \n  BECMG 1905/1906 8000 NSW"
    },
    {
      "icao": "ENGM",
      "iata": "OSL",
      "name": "Oslo-Gardermoen International Airport",
      "updatedAt": "180520Z",
      "visibility_m": 3000,
      "taf_visibility_m": 2000,
      "worst_visibility_m": 2000,
      "ceiling_ft": 200,
      "hazards": [
        "BR",
        "SN",
        "FZDZ",
        "DZ"
      ],
      "severityScore": 100,
      "metarRaw": "METAR ENGM 180520Z 04005KT 5000 BR BKN002 00/M01 Q1031 TEMPO 3000",
      "tafRaw": "TAF ENGM 180500Z 1806/1906 05005KT 8000 BKN005 \n  TEMPO 1806/1816 2000 -SN BR OVC002 \n  PROB40 \n  TEMPO 1816/1906 2000 -FZDZ BR OVC002"
    },
    {
      "icao": "ENTO",
      "iata": "TRF",
      "name": "Sandefjord Airport, Torp",
      "updatedAt": "180520Z",
      "visibility_m": 800,
      "taf_visibility_m": 400,
      "worst_visibility_m": 400,
      "ceiling_ft": 200,
      "hazards": [
        "FG",
        "FZFG",
        "BR",
        "DZ"
      ],
      "severityScore": 100,
      "metarRaw": "METAR ENTO 180520Z AUTO 01006KT 0800 R18/P2000N R36/P2000N FG VV002 00/00 Q1031",
      "tafRaw": "TAF ENTO 180500Z 1806/1906 03005KT 7000 BKN004 \n  PROB40 1806/1812 0400 FZFG VV001 \n  TEMPO 1812/1906 1200 -DZ BR OVC001"
    },
    {
      "icao": "EPWR",
      "iata": "WRO",
      "name": "Copernicus Wrocław Airport",
      "updatedAt": "180530Z",
      "visibility_m": 2800,
      "taf_visibility_m": 600,
      "worst_visibility_m": 600,
      "ceiling_ft": 100,
      "hazards": [
        "BR",
        "FZFG",
        "FG"
      ],
      "severityScore": 100,
      "metarRaw": "METAR EPWR 180530Z 12009KT 2800 BR SCT003 M03/M04 Q1031",
      "tafRaw": "TAF EPWR 180530Z 1806/1906 12010KT 2500 BR NSC \n  PROB40 1806/1809 0600 FZFG OVC001 \n  BECMG 1809/1812 CAVOK \n  PROB40 1820/1906 4000 BR"
    },
    {
      "icao": "ESGG",
      "iata": "GOT",
      "name": "Göteborg Landvetter Airport",
      "updatedAt": "180520Z",
      "visibility_m": 1100,
      "taf_visibility_m": 300,
      "worst_visibility_m": 300,
      "ceiling_ft": 200,
      "hazards": [
        "BR",
        "FG"
      ],
      "severityScore": 100,
      "metarRaw": "METAR ESGG 180520Z 14006KT 1100 R03/P2000N R21/P2000N BR OVC002 M00/M00 Q1030",
      "tafRaw": "TAF ESGG 180530Z 1806/1906 12004KT 0300 FG VV002 \n  TEMPO 1806/1810 1200 BR \n  BECMG 1810/1812 9999 NSW \n  PROB40 1812/1815 2000 BR \n  PROB40 1815/1821 SCT003 \n  BECMG 1821/1823 NSC"
    },
    {
      "icao": "ESKN",
      "iata": "NYO",
      "name": "Stockholm Skavsta Airport",
      "updatedAt": "180520Z",
      "visibility_m": 650,
      "taf_visibility_m": 300,
      "worst_visibility_m": 300,
      "ceiling_ft": 200,
      "hazards": [
        "FG",
        "BR"
      ],
      "severityScore": 100,
      "metarRaw": "METAR ESKN 180520Z 15006KT 120V180 0650 R08/P2000N R26/P2000N FG VV002 02/02 Q1033",
      "tafRaw": "TAF ESKN 180530Z 1806/1906 14004KT 0300 FG VV002 \n  TEMPO 1806/1807 1200 BR \n  BECMG 1807/1809 2000 BR \n  PROB40 1809/1817 6000 BKN010 \n  PROB40 1817/1824 9999 SCT007 BKN015 \n  BECMG 1900/1902 9999 SCT015"
    },
    {
      "icao": "ESMS",
      "iata": "MMX",
      "name": "Malmö Sturup Airport",
      "updatedAt": "180520Z",
      "visibility_m": 150,
      "taf_visibility_m": 300,
      "worst_visibility_m": 150,
      "ceiling_ft": 200,
      "hazards": [
        "FG",
        "BR"
      ],
      "severityScore": 100,
      "metarRaw": "METAR ESMS 180520Z 10011KT 0150 R17/0800N R35/0700N FG VV002 02/02 Q1030",
      "tafRaw": "TAF ESMS 180527Z 1806/1906 13008KT 0300 FG VV001 \n  TEMPO 1806/1807 4000 BR BKN005 \n  BECMG 1807/1809 CAVOK"
    },
    {
      "icao": "ESSA",
      "iata": "ARN",
      "name": "Stockholm-Arlanda Airport",
      "updatedAt": "180520Z",
      "visibility_m": 150,
      "taf_visibility_m": 200,
      "worst_visibility_m": 150,
      "ceiling_ft": 200,
      "hazards": [
        "FG",
        "BR"
      ],
      "severityScore": 100,
      "metarRaw": "METAR ESSA 180520Z 16004KT 130V190 0150 R01L/1200N R19R/P2000N R01R/1100U R19L/1100U FG VV002 01/01 Q1034 TEMPO 0500",
      "tafRaw": "TAF ESSA 180530Z 1806/1906 16003KT 0200 FG VV002 \n  PROB40 1806/1807 2000 BR \n  BECMG 1807/1809 5000 \n  TEMPO 1809/1816 3000 BR BKN012 \n  PROB40 1816/1822 1200 BR BKN006 \n  BECMG 1822/1824 BKN015 \n  PROB40 1900/1906 BKN012"
    },
    {
      "icao": "LECH",
      "iata": "CDT",
      "name": "Castellón-Costa Azahar Airport",
      "updatedAt": "180530Z",
      "visibility_m": 150,
      "taf_visibility_m": null,
      "worst_visibility_m": 150,
      "ceiling_ft": 100,
      "hazards": [
        "FG"
      ],
      "severityScore": 100,
      "metarRaw": "METAR LECH 180530Z AUTO 13001KT 0150 R06/0175N FG VV001 04/04 Q1009",
      "tafRaw": null
    },
    {
      "icao": "LFLL",
      "iata": "LYS",
      "name": "Lyon Saint-Exupéry Airport",
      "updatedAt": "180530Z",
      "visibility_m": 100,
      "taf_visibility_m": 100,
      "worst_visibility_m": 100,
      "ceiling_ft": 200,
      "hazards": [
        "FG",
        "BR"
      ],
      "severityScore": 100,
      "metarRaw": "METAR LFLL 180530Z VRB02KT 0200 R35L/0400U R17R/0200N R35R/0325N R17L/0200N FG VV/// 04/04 Q1016 BECMG FM0630 0100",
      "tafRaw": "TAF LFLL 180500Z 1806/1912 VRB02KT 0200 FG VV/// \n  TEMPO 1806/1807 0400 \n  TEMPO 1807/1813 0100 \n  TEMPO 1813/1817 3000 BR BKN002 \n  PROB30 \n  TEMPO 1813/1817 6000 NSW NSC \n  FM181700 VRB02KT 0400 FG VV/// \n  TEMPO 1817/1907 0200 \n  FM190700 VRB02KT 0200 FG VV/// \n  TEMPO 1907/1912 0100"
    },
    {
      "icao": "LFSB",
      "iata": "BSL",
      "name": "EuroAirport Basel–Mulhouse–Freiburg",
      "updatedAt": "180530Z",
      "visibility_m": 300,
      "taf_visibility_m": 300,
      "worst_visibility_m": 300,
      "ceiling_ft": 200,
      "hazards": [
        "FG",
        "BR",
        "FZFG"
      ],
      "severityScore": 100,
      "metarRaw": "METAR LFSB 180530Z AUTO 03003KT 360V090 5000 BR BKN002 OVC008 01/01 Q1019 TEMPO 0300 FG VV///",
      "tafRaw": "TAF LFSB 180500Z 1806/1906 35003KT 6000 OVC010 \n  TEMPO 1806/1811 3000 BR OVC003 \n  PROB40 \n  TEMPO 1806/1810 0300 FG VV/// \n  PROB30 \n  TEMPO 1806/1809 FZFG \n  BECMG 1811/1813 NSC \n  BECMG 1817/1819 3000 BR OVC003 \n  TEMPO 1819/1902 0300 FZFG VV/// \n  BECMG 1902/1904 CAVOK"
    },
    {
      "icao": "LHDC",
      "iata": "DEB",
      "name": "Debrecen International Airport",
      "updatedAt": "180515Z",
      "visibility_m": 650,
      "taf_visibility_m": 100,
      "worst_visibility_m": 100,
      "ceiling_ft": 100,
      "hazards": [
        "FZDZ",
        "DZ",
        "FZFG",
        "BR",
        "FG"
      ],
      "severityScore": 100,
      "metarRaw": "METAR LHDC 180515Z AUTO VRB02KT 0650 R04/0750N -FZDZ VV001 M09/M10 Q1033",
      "tafRaw": "TAF LHDC 180515Z 1806/1815 VRB03KT CAVOK \n  TEMPO 1806/1810 3000 BR SCT003 \n  PROB40 \n  TEMPO 1806/1809 0100 FZFG VV001"
    },
    {
      "icao": "LKMT",
      "iata": "OSR",
      "name": "Ostrava Leos Janáček Airport",
      "updatedAt": "180530Z",
      "visibility_m": 300,
      "taf_visibility_m": 200,
      "worst_visibility_m": 200,
      "ceiling_ft": 200,
      "hazards": [
        "FZFG",
        "FG",
        "BR"
      ],
      "severityScore": 100,
      "metarRaw": "METAR LKMT 180530Z VRB01KT 0300 R22/0450N R04/0450N FZFG VV002 M06/M06 Q1032 NOSIG",
      "tafRaw": "TAF LKMT 180500Z 1806/1906 VRB02KT 0200 FZFG VV002 \n  BECMG 1809/1811 1100 BR SCT005 \n  BECMG 1812/1814 8000 NSC \n  TEMPO 1816/1823 0300 FZFG BKN001"
    },
    {
      "icao": "LQSA",
      "iata": "SJJ",
      "name": "Sarajevo International Airport",
      "updatedAt": "180530Z",
      "visibility_m": 2000,
      "taf_visibility_m": 500,
      "worst_visibility_m": 500,
      "ceiling_ft": 400,
      "hazards": [
        "BR",
        "FZFG",
        "FG"
      ],
      "severityScore": 100,
      "metarRaw": "METAR LQSA 180530Z 21001KT 2000 BR BKN004 OVC012 M01/M01 Q1028 NOSIG",
      "tafRaw": "TAF LQSA 180500Z 1806/1906 VRB02KT 3000 BR BKN006 TX02/1813Z TNM05/1906Z \n  TEMPO 1806/1809 1200 OVC004 \n  BECMG 1809/1811 6000 NSW SCT012 \n  TEMPO 1818/1906 2000 BR BKN008 \n  PROB40 \n  TEMPO 1820/1906 0500 FZFG OVC002"
    },
    {
      "icao": "OJAI",
      "iata": "AMM",
      "name": "Queen Alia International Airport",
      "updatedAt": "180500Z",
      "visibility_m": 1000,
      "taf_visibility_m": 900,
      "worst_visibility_m": 900,
      "ceiling_ft": 2500,
      "hazards": [
        "FG",
        "BR",
        "TSRA",
        "RA",
        "TS"
      ],
      "severityScore": 100,
      "metarRaw": "METAR OJAI 180500Z 00000KT 1000 MIFG NSC 02/02 Q1015 NOSIG",
      "tafRaw": "TAF OJAI 180444Z 1806/1912 VRB01KT 0900 FG FEW020 \n  BECMG 1806/1808 27012KT 4000 RA BR SCT020 BKN025 \n  PROB40 \n  TEMPO 1808/1812 29020KT 2000 TSRA FEW020CB SCT020 BKN025"
    },
    {
      "icao": "UDSG",
      "iata": "LWN",
      "name": "Shirak International Airport",
      "updatedAt": "180530Z",
      "visibility_m": 4800,
      "taf_visibility_m": 500,
      "worst_visibility_m": 500,
      "ceiling_ft": 3300,
      "hazards": [
        "BR",
        "FZFG",
        "SN",
        "FG"
      ],
      "severityScore": 100,
      "metarRaw": "METAR UDSG 180530Z 10002KT 4800 BR BKN033 M11/M11 Q1018 NOSIG",
      "tafRaw": "TAF UDSG 180458Z 1806/1906 VRB06KT 3000 BR BKN030 \n  TEMPO 1806/1812 0500 SN FZFG OVC020"
    },
    {
      "icao": "UAAA",
      "iata": "ALA",
      "name": "Almaty International Airport",
      "updatedAt": "180530Z",
      "visibility_m": 10000,
      "taf_visibility_m": 400,
      "worst_visibility_m": 400,
      "ceiling_ft": 10000,
      "hazards": [
        "FZFG",
        "BR",
        "FG"
      ],
      "severityScore": 95,
      "metarRaw": "METAR UAAA 180530Z 00000MPS 9999 SCT050 BKN100 M17/M21 Q1031 NOSIG",
      "tafRaw": "TAF UAAA 180506Z 1806/1906 35003MPS 9999 SCT050 BKN100 TXM13/1808Z TNM18/1903Z \n  TEMPO 1806/1812 05003G08MPS 4000 BR BKN011 OVC020 \n  FM181200 08003MPS 3100 BR FU SCT011 BKN100 \n  TEMPO 1812/1818 14003MPS 1200 BKN005 OVC011 \n  TEMPO 1818/1905 23003MPS 0400 FZFG VV002"
    },
    {
      "icao": "LIPR",
      "iata": "RMI",
      "name": "Federico Fellini International Airport",
      "updatedAt": "180520Z",
      "visibility_m": 2500,
      "taf_visibility_m": 800,
      "worst_visibility_m": 800,
      "ceiling_ft": 500,
      "hazards": [
        "BR",
        "FG",
        "RA"
      ],
      "severityScore": 92,
      "metarRaw": "METAR LIPR 180520Z AUTO VRB01KT 2500 BR OVC008/// 08/08 Q1023",
      "tafRaw": "TAF LIPR 180500Z 1806/1906 VRB05KT 0800 FG BKN005 \n  BECMG 1807/1809 4000 BR BKN020 \n  BECMG 1810/1812 08010KT 7000 \n  TEMPO 1811/1816 4000 -RA"
    },
    {
      "icao": "EDSB",
      "iata": "FKB",
      "name": "Karlsruhe Baden-Baden Airport",
      "updatedAt": "180520Z",
      "visibility_m": 10000,
      "taf_visibility_m": 800,
      "worst_visibility_m": 800,
      "ceiling_ft": 1200,
      "hazards": [
        "FZFG",
        "FG"
      ],
      "severityScore": 87,
      "metarRaw": "METAR EDSB 180520Z 03011KT 9999 BKN012 00/M02 Q1020",
      "tafRaw": "TAF EDSB 180500Z 1806/1906 03006KT 9999 BKN015 \n  TEMPO 1806/1812 BKN012 \n  BECMG 1818/1821 BKN009 \n  PROB40 \n  TEMPO 1902/1906 0800 FZFG OVC002"
    },
    {
      "icao": "LEZG",
      "iata": "ZAZ",
      "name": "Zaragoza Airport",
      "updatedAt": "180530Z",
      "visibility_m": 3000,
      "taf_visibility_m": 1500,
      "worst_visibility_m": 1500,
      "ceiling_ft": 400,
      "hazards": [
        "BR",
        "RA",
        "FG"
      ],
      "severityScore": 87,
      "metarRaw": "METAR LEZG 180530Z 28009KT 3000 -RA BR OVC004 07/07 Q1010 NOSIG",
      "tafRaw": "TAF LEZG 180500Z 1806/1906 29007KT 6000 SCT005 TX10/1814Z TN05/1906Z \n  TEMPO 1806/1906 1500 RA BCFG BKN005"
    },
    {
      "icao": "LEBL",
      "iata": "BCN",
      "name": "Josep Tarradellas Barcelona-El Prat Airport",
      "updatedAt": "180530Z",
      "visibility_m": 10000,
      "taf_visibility_m": 2000,
      "worst_visibility_m": 2000,
      "ceiling_ft": 3500,
      "hazards": [
        "DZ",
        "TSRA",
        "SHRA",
        "TS",
        "RA"
      ],
      "severityScore": 86,
      "metarRaw": "METAR LEBL 180530Z VRB02KT 9999 -DZ FEW016 BKN035 11/11 Q1009 NOSIG",
      "tafRaw": "TAF LEBL 180500Z 1806/1906 33005KT 9999 SCT020 TX13/1812Z TN10/1806Z \n  TEMPO 1806/1906 4000 SHRA BKN012 FEW020TCU \n  BECMG 1808/1810 09007KT \n  PROB40 \n  TEMPO 1812/1824 2000 TSRA FEW020CB \n  BECMG 1821/1824 33007KT"
    },
    {
      "icao": "LZIB",
      "iata": "BTS",
      "name": "M. R. Štefánik Airport",
      "updatedAt": "180530Z",
      "visibility_m": 1000,
      "taf_visibility_m": null,
      "worst_visibility_m": 1000,
      "ceiling_ft": 100,
      "hazards": [
        "BR",
        "FG"
      ],
      "severityScore": 80,
      "metarRaw": "METAR LZIB 180530Z 03006KT 4000 0700NE R31/P2000N R22/0700D BR BCFG SCT001 BKN029 M03/M03 Q1032 TEMPO 1000 BCFG BR BKN001",
      "tafRaw": null
    },
    {
      "icao": "LCPH",
      "iata": "PFO",
      "name": "Paphos International Airport",
      "updatedAt": "180530Z",
      "visibility_m": 5000,
      "taf_visibility_m": 2000,
      "worst_visibility_m": 2000,
      "ceiling_ft": 7000,
      "hazards": [
        "RA",
        "SHRA",
        "TS",
        "TSRA"
      ],
      "severityScore": 76,
      "metarRaw": "METAR LCPH 180530Z 09008KT 8000 -RA FEW022 FEW025CB SCT050 BKN070 11/09 Q1014 RETSRA TEMPO 5000 SHRA SCT020TCU",
      "tafRaw": "TAF LCPH 180530Z 1806/1906 07008KT 9999 SCT025 \n  BECMG 1806/1808 13010KT \n  PROB30 \n  TEMPO 1806/1817 5000 SHRA SCT020TCU \n  PROB30 \n  TEMPO 1806/1817 VRB15G25KT 2000 TSRA SCT020CB \n  BECMG 1813/1815 04009KT"
    },
    {
      "icao": "LHBP",
      "iata": "BUD",
      "name": "Budapest Liszt Ferenc International Airport",
      "updatedAt": "180530Z",
      "visibility_m": 10000,
      "taf_visibility_m": 1200,
      "worst_visibility_m": 1200,
      "ceiling_ft": 200,
      "hazards": [
        "BR",
        "FG"
      ],
      "severityScore": 75,
      "metarRaw": "METAR LHBP 180530Z 32002KT CAVOK M08/M10 Q1033 NOSIG",
      "tafRaw": "TAF LHBP 180515Z 1806/1906 VRB03KT CAVOK \n  PROB40 \n  TEMPO 1806/1809 1400 BCFG BR BKN004 \n  BECMG 1819/1823 5000 BR SCT004 \n  TEMPO 1900/1906 1200 BCFG BR BKN002"
    },
    {
      "icao": "LFBD",
      "iata": "BOD",
      "name": "Bordeaux–Mérignac Airport",
      "updatedAt": "180530Z",
      "visibility_m": 500,
      "taf_visibility_m": 500,
      "worst_visibility_m": 500,
      "ceiling_ft": 2300,
      "hazards": [
        "FG",
        "BR"
      ],
      "severityScore": 65,
      "metarRaw": "METAR LFBD 180530Z AUTO 00000KT 2600 BR SCT003 BKN023 BKN031 09/09 Q1010 TEMPO 0500 FG VV///",
      "tafRaw": "TAF LFBD 180500Z 1806/1912 10004KT 6000 BKN008 TX11/1815Z TN07/1903Z \n  TEMPO 1806/1809 0500 FG VV/// \n  TEMPO 1809/1812 OVC005 \n  BECMG 1812/1814 BKN015 \n  TEMPO 1820/1910 1500 MIFG \n  PROB40 \n  TEMPO 1900/1910 0500 FG VV/// \n  TEMPO 1910/1912 OVC005"
    },
    {
      "icao": "LLBG",
      "iata": "TLV",
      "name": "Ben Gurion International Airport",
      "updatedAt": "180520Z",
      "visibility_m": 7000,
      "taf_visibility_m": 5000,
      "worst_visibility_m": 5000,
      "ceiling_ft": 3000,
      "hazards": [
        "RA",
        "TSRA",
        "TS"
      ],
      "severityScore": 62,
      "metarRaw": "METAR LLBG 180520Z 17007KT 9999 FEW035 13/09 Q1014 BECMG 7000 RA FEW025TCU BKN030",
      "tafRaw": "TAF LLBG 180506Z 1806/1906 23012KT 9999 SCT030 \n  TEMPO 1806/1815 25018G28KT 5000 TSRA SCT015 FEW020CB BKN025 \n  BECMG 1815/1817 VRB04KT \n  PROB40 \n  TEMPO 1817/1824 19012KT 7000 RA FEW025TCU BKN030 \n  PROB40 \n  TEMPO 1900/1906 18008KT -RA BKN025 TX15/1811Z TN09/1904Z"
    },
    {
      "icao": "EKCH",
      "iata": "CPH",
      "name": "Copenhagen Kastrup Airport",
      "updatedAt": "180520Z",
      "visibility_m": 1200,
      "taf_visibility_m": null,
      "worst_visibility_m": 1200,
      "ceiling_ft": 300,
      "hazards": [
        "BR"
      ],
      "severityScore": 60,
      "metarRaw": "METAR EKCH 180520Z 12012KT 2000 BR OVC003 03/03 Q1030 TEMPO 1200",
      "tafRaw": null
    },
    {
      "icao": "EDDS",
      "iata": "STR",
      "name": "Stuttgart Airport",
      "updatedAt": "180520Z",
      "visibility_m": 10000,
      "taf_visibility_m": 1200,
      "worst_visibility_m": 1200,
      "ceiling_ft": 700,
      "hazards": [
        "FG"
      ],
      "severityScore": 55,
      "metarRaw": "METAR EDDS 180520Z AUTO 07006KT 9999 OVC007 M01/M02 Q1019 NOSIG",
      "tafRaw": "TAF EDDS 180500Z 1806/1906 08004KT 9999 OVC007 \n  BECMG 1810/1813 SCT007 \n  PROB30 \n  TEMPO 1902/1906 1200 BCFG"
    },
    {
      "icao": "EGKK",
      "iata": "LGW",
      "name": "London Gatwick Airport",
      "updatedAt": "180520Z",
      "visibility_m": 3300,
      "taf_visibility_m": 3000,
      "worst_visibility_m": 3000,
      "ceiling_ft": 300,
      "hazards": [
        "BR",
        "DZ"
      ],
      "severityScore": 55,
      "metarRaw": "METAR EGKK 180520Z 05004KT 3300 BR BKN003 07/07 Q1017",
      "tafRaw": "TAF EGKK 180454Z 1806/1912 08005KT 3000 -DZ BR BKN003 \n  TEMPO 1806/1809 6000 BKN005 \n  BECMG 1809/1812 14010KT 9999 NSW SCT015 \n  PROB30 \n  TEMPO 1812/1823 9000 \n  PROB30 \n  TEMPO 1821/1902 BKN007 \n  BECMG 1823/1902 6000 \n  PROB40 \n  TEMPO 1902/1909 3000 BR BKN003"
    },
    {
      "icao": "ENZV",
      "iata": "SVG",
      "name": "Stavanger Airport, Sola",
      "updatedAt": "180520Z",
      "visibility_m": 10000,
      "taf_visibility_m": 3000,
      "worst_visibility_m": 3000,
      "ceiling_ft": 500,
      "hazards": [
        "FG",
        "BR"
      ],
      "severityScore": 55,
      "metarRaw": "METAR ENZV 180520Z 20003KT 9999 BCFG NSC 02/01 Q1026",
      "tafRaw": "TAF ENZV 180500Z 1806/1906 16008KT 9999 FEW020 BKN040 \n  PROB40 1806/1809 3000 BR OVC005"
    },
    {
      "icao": "LEMD",
      "iata": "MAD",
      "name": "Adolfo Suárez Madrid–Barajas Airport",
      "updatedAt": "180530Z",
      "visibility_m": 9000,
      "taf_visibility_m": 600,
      "worst_visibility_m": 600,
      "ceiling_ft": 4000,
      "hazards": [
        "FG",
        "BR"
      ],
      "severityScore": 55,
      "metarRaw": "METAR LEMD 180530Z 35002KT 9000 SCT015 BKN040 02/02 Q1009 NOSIG",
      "tafRaw": "TAF LEMD 180500Z 1806/1912 VRB04KT 9999 SCT035 TX09/1814Z TNM00/1906Z \n  TEMPO 1806/1810 4000 BR BKN005 BKN012 \n  PROB30 \n  TEMPO 1806/1810 0600 FG VV002 \n  PROB30 \n  TEMPO 1811/1820 03010KT \n  PROB30 \n  TEMPO 1905/1908 4000 BR"
    },
    {
      "icao": "LFPO",
      "iata": "ORY",
      "name": "Paris-Orly Airport",
      "updatedAt": "180530Z",
      "visibility_m": 10000,
      "taf_visibility_m": 700,
      "worst_visibility_m": 700,
      "ceiling_ft": null,
      "hazards": [
        "FG",
        "BR"
      ],
      "severityScore": 55,
      "metarRaw": "METAR LFPO 180530Z 36004KT CAVOK 07/06 Q1016 NOSIG",
      "tafRaw": "TAF LFPO 180500Z 1806/1912 09006KT CAVOK \n  BECMG 1815/1818 VRB03KT \n  BECMG 1900/1903 4000 BR \n  TEMPO 1904/1908 2500 MIFG \n  PROB30 \n  TEMPO 1905/1907 0700 FG VV/// \n  BECMG 1909/1911 CAVOK"
    },
    {
      "icao": "LRTR",
      "iata": "TSR",
      "name": "Timişoara Traian Vuia Airport",
      "updatedAt": "180530Z",
      "visibility_m": 6000,
      "taf_visibility_m": 1500,
      "worst_visibility_m": 1500,
      "ceiling_ft": 200,
      "hazards": [
        "BR"
      ],
      "severityScore": 55,
      "metarRaw": "METAR LRTR 180530Z 34002KT 6000 NSC M08/M08 Q1033",
      "tafRaw": "TAF LRTR 180500Z 1806/1906 VRB04KT 5000 BR NSC \n  PROB30 \n  TEMPO 1806/1808 1500 BR BKN002 \n  BECMG 1808/1810 9999 NSW \n  BECMG 1820/1822 5000 BR \n  TEMPO 1900/1906 1500 BR BKN005"
    },
    {
      "icao": "UBBB",
      "iata": "GYD",
      "name": "Heydar Aliyev International Airport",
      "updatedAt": "180530Z",
      "visibility_m": 10000,
      "taf_visibility_m": 6000,
      "worst_visibility_m": 6000,
      "ceiling_ft": 700,
      "hazards": [
        "RA",
        "SHRA"
      ],
      "severityScore": 51,
      "metarRaw": "METAR UBBB 180530Z 33014KT 9999 -RA BKN007 OVC020 04/03 Q1028 NOSIG",
      "tafRaw": "TAF UBBB 180502Z 1806/1906 02012KT 9999 BKN008 OVC025 TX05/1808Z TN01/1901Z \n  TEMPO 1806/1810 35012KT 6000 -SHRA BKN006 SCT017CB OVC017 \n  TEMPO 1810/1818 06014KT OVC020 \n  TEMPO 1818/1906 05016KT"
    },
    {
      "icao": "BIKF",
      "iata": "KEF",
      "name": "Keflavik International Airport",
      "updatedAt": "180530Z",
      "visibility_m": 10000,
      "taf_visibility_m": 2000,
      "worst_visibility_m": 2000,
      "ceiling_ft": 1400,
      "hazards": [
        "RA",
        "SHRA",
        "DZ"
      ],
      "severityScore": 48,
      "metarRaw": "METAR BIKF 180530Z 14031G45KT 9999 -RA BKN014 OVC027 06/04 Q0994",
      "tafRaw": "TAF BIKF 180436Z 1806/1906 13038G54KT 5000 RADZ BKN012 TX07/1815Z TN01/1906Z \n  BECMG 1815/1817 19008KT \n  TEMPO 1819/1901 2000 DZRA BKN004 \n  BECMG 1901/1903 9999 -SHRA BKN025"
    },
    {
      "icao": "ENHD",
      "iata": "HAU",
      "name": "Haugesund Airport, Karmøy",
      "updatedAt": "180520Z",
      "visibility_m": 10000,
      "taf_visibility_m": 3000,
      "worst_visibility_m": 3000,
      "ceiling_ft": 500,
      "hazards": [
        "BR",
        "RA"
      ],
      "severityScore": 47,
      "metarRaw": "METAR ENHD 180520Z AUTO 00000KT 9999 SCT020/// BKN034/// 05/04 Q1026",
      "tafRaw": "TAF ENHD 180500Z 1806/1815 15008KT 9999 -RA FEW012 BKN020 \n  PROB40 1806/1812 3000 BR OVC005"
    },
    {
      "icao": "LIPE",
      "iata": "BLQ",
      "name": "Bologna Guglielmo Marconi Airport",
      "updatedAt": "180520Z",
      "visibility_m": 6000,
      "taf_visibility_m": 3000,
      "worst_visibility_m": 3000,
      "ceiling_ft": 400,
      "hazards": [
        "RA"
      ],
      "severityScore": 47,
      "metarRaw": "METAR LIPE 180520Z AUTO 34002KT 6000 OVC015/// 07/05 Q1023",
      "tafRaw": "TAF LIPE 180500Z 1806/1906 VRB04KT 6000 BKN010 \n  TEMPO 1806/1814 3000 -RA OVC004"
    },
    {
      "icao": "OMAA",
      "iata": "AUH",
      "name": "Zayed International Airport",
      "updatedAt": "180500Z",
      "visibility_m": 10000,
      "taf_visibility_m": 1200,
      "worst_visibility_m": 1200,
      "ceiling_ft": 500,
      "hazards": [
        "BR"
      ],
      "severityScore": 45,
      "metarRaw": "METAR OMAA 180500Z 20003KT 9999 FEW035 16/12 Q1017 BECMG 34010KT",
      "tafRaw": "TAF OMAA 180500Z 1806/1912 21005KT 9999 FEW040 \n  BECMG 1806/1808 34011KT \n  BECMG 1814/1816 22005KT \n  PROB40 1822/1905 4000 HZ \n  PROB30 1900/1905 1200 BR BKN005 \n  BECMG 1910/1912 34010KT"
    },
    {
      "icao": "LFOB",
      "iata": "BVA",
      "name": "Beauvais Tillé airport",
      "updatedAt": "180530Z",
      "visibility_m": 900,
      "taf_visibility_m": 2000,
      "worst_visibility_m": 900,
      "ceiling_ft": 8000,
      "hazards": [
        "FG",
        "BR"
      ],
      "severityScore": 40,
      "metarRaw": "METAR LFOB 180530Z AUTO VRB03KT CAVOK 05/05 Q1017 TEMPO 0900 FG VV///",
      "tafRaw": "TAF LFOB 180500Z 1806/1906 10005KT 9999 FEW045 BKN080 \n  PROB40 1821/1906 4000 BR \n  PROB30 1823/1906 2000 BR BCFG"
    },
    {
      "icao": "LTFM",
      "iata": "IST",
      "name": "İstanbul Airport",
      "updatedAt": "180520Z",
      "visibility_m": 10000,
      "taf_visibility_m": 1600,
      "worst_visibility_m": 1600,
      "ceiling_ft": 2500,
      "hazards": [
        "SN",
        "RA",
        "SHSN"
      ],
      "severityScore": 40,
      "metarRaw": "METAR LTFM 180520Z 02018KT 9999 -SHSNRA SCT014 BKN025 02/M02 Q1028 RESHSN NOSIG RMK RWY17L 02020KT RWY34L 01018KT RWY16R 01017KT RWY36 03017KT RWY18 04016KT",
      "tafRaw": "TAF LTFM 180440Z 1806/1912 03018KT 9999 -SHSNRA SCT013 BKN025 \n  TEMPO 1806/1810 4000 -SHSN BKN008 BKN022 \n  BECMG 1811/1814 35024G36KT -SHSN BKN006 BKN022 \n  TEMPO 1820/1824 1600 SHSN \n  TEMPO 1900/1904 2500 SHSN \n  TEMPO 1905/1909 1600 SHSN"
    },
    {
      "icao": "UGKO",
      "iata": "KUT",
      "name": "David the Builder Kutaisi International Airport",
      "updatedAt": "180530Z",
      "visibility_m": 10000,
      "taf_visibility_m": 2000,
      "worst_visibility_m": 2000,
      "ceiling_ft": 5000,
      "hazards": [
        "BR",
        "SN",
        "RA"
      ],
      "severityScore": 40,
      "metarRaw": "METAR UGKO 180530Z 31001KT 9999 BKN050 00/M01 Q1023 NOSIG",
      "tafRaw": "TAF UGKO 180500Z 1806/1906 25010KT 9999 BKN050 TX06/1811Z TN00/1823Z \n  TEMPO 1806/1809 VRB02KT \n  TEMPO 1807/1811 CAVOK \n  TEMPO 1900/1906 2000 RASN BR BKN008 OVC025"
    },
    {
      "icao": "ENTC",
      "iata": "TOS",
      "name": "Tromsø Airport, Langnes",
      "updatedAt": "180520Z",
      "visibility_m": 10000,
      "taf_visibility_m": 10000,
      "worst_visibility_m": 10000,
      "ceiling_ft": 1400,
      "hazards": [
        "RA",
        "SHRA"
      ],
      "severityScore": 38,
      "metarRaw": "METAR ENTC 180520Z AUTO 21010KT 9999 -RA FEW020/// SCT024/// BKN032/// 03/01 Q1024 RMK WIND 2600FT 21015KT",
      "tafRaw": "TAF ENTC 180500Z 1806/1906 21012KT 9999 -RA BKN020 \n  TEMPO 1806/1824 27012KT SHRA BKN014 SCT020CB"
    },
    {
      "icao": "UDYZ",
      "iata": "EVN",
      "name": "Zvartnots International Airport",
      "updatedAt": "180530Z",
      "visibility_m": 3000,
      "taf_visibility_m": 1000,
      "worst_visibility_m": 1000,
      "ceiling_ft": 4600,
      "hazards": [
        "BR",
        "SN"
      ],
      "severityScore": 38,
      "metarRaw": "METAR UDYZ 180530Z 00000KT 3000 -SN BR OVC046 M02/M04 Q1020 NOSIG",
      "tafRaw": "TAF UDYZ 180500Z 1806/1906 VRB04KT 3500 BR BKN030 \n  TEMPO 1806/1815 1000 SN BR BKN007"
    },
    {
      "icao": "LIPY",
      "iata": "AOI",
      "name": "Marche Airport",
      "updatedAt": "180520Z",
      "visibility_m": 2700,
      "taf_visibility_m": 3000,
      "worst_visibility_m": 2700,
      "ceiling_ft": 500,
      "hazards": [
        "BR"
      ],
      "severityScore": 35,
      "metarRaw": "METAR LIPY 180520Z AUTO 00000KT 2700 BR OVC005/// 09/09 Q1023",
      "tafRaw": "TAF LIPY 180500Z 1806/1906 VRB05KT 3000 BR BKN005 \n  BECMG 1808/1810 10010KT 7000 BKN020"
    },
    {
      "icao": "LQTZ",
      "iata": "TZL",
      "name": "Tuzla International Airport",
      "updatedAt": "180530Z",
      "visibility_m": 10000,
      "taf_visibility_m": 3000,
      "worst_visibility_m": 3000,
      "ceiling_ft": 700,
      "hazards": [
        "BR"
      ],
      "severityScore": 35,
      "metarRaw": "METAR LQTZ 180530Z 00000KT 9999 BKN007 OVC018 M01/M02 Q1030",
      "tafRaw": "TAF LQTZ 180500Z 1806/1906 32005KT 9999 BKN015 TX03/1814Z TNM06/1906Z \n  PROB40 \n  TEMPO 1806/1811 4000 BR OVC008 \n  TEMPO 1811/1817 10010KT \n  PROB40 \n  TEMPO 1903/1906 3000 BR"
    },
    {
      "icao": "OMDB",
      "iata": "DXB",
      "name": "Dubai International Airport",
      "updatedAt": "180530Z",
      "visibility_m": 10000,
      "taf_visibility_m": 3000,
      "worst_visibility_m": 3000,
      "ceiling_ft": 800,
      "hazards": [
        "BR"
      ],
      "severityScore": 35,
      "metarRaw": "METAR OMDB 180530Z 19008KT 160V220 9999 SCT040 18/12 Q1018 NOSIG",
      "tafRaw": "TAF OMDB 180500Z 1806/1912 20005KT 8000 SCT040 \n  BECMG 1806/1808 28010KT \n  BECMG 1816/1818 18005KT \n  PROB30 1900/1906 3000 BR BKN008 \n  BECMG 1908/1910 30010KT"
    },
    {
      "icao": "LEZL",
      "iata": "SVQ",
      "name": "Sevilla Airport",
      "updatedAt": "180530Z",
      "visibility_m": 10000,
      "taf_visibility_m": 4000,
      "worst_visibility_m": 4000,
      "ceiling_ft": 1400,
      "hazards": [
        "BR",
        "RA"
      ],
      "severityScore": 34,
      "metarRaw": "METAR LEZL 180530Z 05006KT 9999 FEW048 08/07 Q1008 NOSIG",
      "tafRaw": "TAF LEZL 180200Z 1803/1903 05008KT 9999 SCT020 TX14/1815Z TN04/1807Z \n  PROB30 \n  TEMPO 1803/1808 4000 RA BR BKN014"
    },
    {
      "icao": "EHEH",
      "iata": "EIN",
      "name": "Eindhoven Airport",
      "updatedAt": "180525Z",
      "visibility_m": 6000,
      "taf_visibility_m": 3000,
      "worst_visibility_m": 3000,
      "ceiling_ft": null,
      "hazards": [
        "BR",
        "FG"
      ],
      "severityScore": 30,
      "metarRaw": "METAR EHEH 180525Z AUTO 07002KT 6000 BR FEW290 01/01 Q1020 WHT",
      "tafRaw": "TAF EHEH 180508Z 1806/1912 08004KT CAVOK \n  PROB40 1806/1808 3000 BR MIFG \n  BECMG 1900/1902 13004KT \n  PROB30 \n  TEMPO 1822/1909 4000 BR MIFG"
    },
    {
      "icao": "LBWN",
      "iata": "VAR",
      "name": "Varna Airport",
      "updatedAt": "180530Z",
      "visibility_m": 10000,
      "taf_visibility_m": 5000,
      "worst_visibility_m": 5000,
      "ceiling_ft": 1500,
      "hazards": [
        "SN"
      ],
      "severityScore": 30,
      "metarRaw": "METAR LBWN 180530Z AUTO 26012KT 9999 FEW048/// M10/M13 Q1034 NOSIG",
      "tafRaw": "TAF LBWN 180500Z 1806/1906 35015KT 9999 BKN025 OVC040 \n  PROB30 \n  TEMPO 1806/1816 34016G26KT 5000 -SN BKN015 OVC030 \n  TEMPO 1816/1901 35015G25KT"
    },
    {
      "icao": "LIBR",
      "iata": "BDS",
      "name": "Brindisi Airport",
      "updatedAt": "180520Z",
      "visibility_m": 10000,
      "taf_visibility_m": 10000,
      "worst_visibility_m": 10000,
      "ceiling_ft": null,
      "hazards": [
        "FG",
        "BR"
      ],
      "severityScore": 30,
      "metarRaw": "METAR LIBR 180520Z VRB02KT 9999 MIFG NSC 06/06 Q1022",
      "tafRaw": "TAF LIBR 180500Z 1806/1906 VRB05KT CAVOK \n  BECMG 1810/1812 13010KT \n  BECMG 1816/1818 VRB05KT"
    },
    {
      "icao": "LRBS",
      "iata": "BBU",
      "name": "Bucharest Băneasa Aurel Vlaicu International Airport",
      "updatedAt": "180530Z",
      "visibility_m": 5000,
      "taf_visibility_m": 5000,
      "worst_visibility_m": 5000,
      "ceiling_ft": 4900,
      "hazards": [
        "BR",
        "SN"
      ],
      "severityScore": 28,
      "metarRaw": "METAR LRBS 180530Z 05007KT 030V090 6000 -SN FEW017 OVC049 M09/M12 Q1038 TEMPO 5000 BR",
      "tafRaw": "TAF LRBS 180500Z 1806/1906 07011KT 9999 SCT020 BKN045 \n  PROB40 \n  TEMPO 1806/1811 5000 -SN BKN015 OVC025 \n  BECMG 1808/1810 VRB04KT \n  PROB40 \n  TEMPO 1814/1821 5000 -SN BKN015 BKN030"
    },
    {
      "icao": "LROP",
      "iata": "OTP",
      "name": "Bucharest Henri Coandă International Airport",
      "updatedAt": "180530Z",
      "visibility_m": 5000,
      "taf_visibility_m": 5000,
      "worst_visibility_m": 5000,
      "ceiling_ft": 4800,
      "hazards": [
        "BR",
        "SN"
      ],
      "severityScore": 28,
      "metarRaw": "METAR LROP 180530Z 08009KT 5000 -SN BR FEW016 OVC048 M09/M13 Q1038 NOSIG",
      "tafRaw": "TAF LROP 180500Z 1806/1906 07011KT 9999 SCT020 BKN045 \n  PROB40 \n  TEMPO 1806/1811 5000 -SN BKN015 OVC025 \n  BECMG 1808/1810 VRB04KT \n  PROB40 \n  TEMPO 1814/1821 5000 -SN BKN015 BKN030"
    },
    {
      "icao": "LRSV",
      "iata": "SCV",
      "name": "Suceava Stefan cel Mare Airport",
      "updatedAt": "180530Z",
      "visibility_m": 5000,
      "taf_visibility_m": 5000,
      "worst_visibility_m": 5000,
      "ceiling_ft": 3200,
      "hazards": [
        "BR",
        "SN"
      ],
      "severityScore": 28,
      "metarRaw": "METAR LRSV 180530Z 25004KT 5000 BR OVC032 M12/M13 Q1037",
      "tafRaw": "TAF LRSV 180500Z 1806/1815 VRB04KT 5000 -SN BR OVC030 \n  BECMG 1806/1808 9999 NSW"
    },
    {
      "icao": "LTAC",
      "iata": "ESB",
      "name": "Esenboğa International Airport",
      "updatedAt": "180520Z",
      "visibility_m": 10000,
      "taf_visibility_m": 10000,
      "worst_visibility_m": 10000,
      "ceiling_ft": 3000,
      "hazards": [
        "SN",
        "SHSN"
      ],
      "severityScore": 28,
      "metarRaw": "METAR LTAC 180520Z 35003KT 320V050 9999 SCT040 SCT080 M05/M07 Q1020 NOSIG RMK RWY21C 32003KT 220V010 RWY03L 33003KT 290V350 RWY21R 35003KT 220V020 RWY03R VRB02KT RWY21L VRB01KT",
      "tafRaw": "TAF LTAC 180440Z 1806/1906 VRB02KT 9999 SCT040 SCT100 \n  TEMPO 1806/1809 -SN BKN030 BKN080 \n  TEMPO 1811/1815 32015KT -SHSN BKN030 BKN080"
    },
    {
      "icao": "GMAD",
      "iata": "AGA",
      "name": "Al Massira Airport",
      "updatedAt": "180530Z",
      "visibility_m": 3000,
      "taf_visibility_m": 4000,
      "worst_visibility_m": 3000,
      "ceiling_ft": 8000,
      "hazards": [
        "RA",
        "SHRA"
      ],
      "severityScore": 26,
      "metarRaw": "METAR GMAD 180530Z 17006KT 6000 -RA SCT020 SCT033 BKN080 11/11 Q1009 TEMPO 3000 +RA",
      "tafRaw": "TAF GMAD 180500Z 1806/1912 24008KT 8000 SCT020 BKN080 \n  TEMPO 1806/1812 4000 SHRA BKN013TCU"
    },
    {
      "icao": "GMMX",
      "iata": "RAK",
      "name": "Menara Airport",
      "updatedAt": "180530Z",
      "visibility_m": 10000,
      "taf_visibility_m": 3000,
      "worst_visibility_m": 3000,
      "ceiling_ft": 2300,
      "hazards": [
        "RA",
        "SHRA"
      ],
      "severityScore": 26,
      "metarRaw": "METAR GMMX 180530Z 20003KT 160V230 9999 BKN023 09/06 Q1006 NOSIG",
      "tafRaw": "TAF GMMX 180500Z 1806/1912 22007KT 8000 BKN023 SCT080 \n  TEMPO 1807/1813 32018KT 3000 SHRA SCT013 BKN020 SCT026TCU \n  TEMPO 1815/1822 4000 RA SCT016 BKN023 FEW030CB"
    },
    {
      "icao": "LEAL",
      "iata": "ALC",
      "name": "Alicante-Elche Miguel Hernández Airport",
      "updatedAt": "180530Z",
      "visibility_m": 10000,
      "taf_visibility_m": 3000,
      "worst_visibility_m": 3000,
      "ceiling_ft": null,
      "hazards": [
        "SHRA",
        "RA"
      ],
      "severityScore": 26,
      "metarRaw": "METAR LEAL 180530Z 30009KT 9999 SCT060 09/03 Q1008 NOSIG",
      "tafRaw": "TAF LEAL 180500Z 1806/1906 31009KT 9999 FEW020 TX15/1812Z TN07/1906Z \n  TEMPO 1809/1812 VRB04KT \n  TEMPO 1812/1818 12010KT \n  PROB30 \n  TEMPO 1812/1815 3000 SHRA FEW040TCU \n  TEMPO 1818/1820 VRB04KT"
    },
    {
      "icao": "LEVC",
      "iata": "VLC",
      "name": "Valencia Airport",
      "updatedAt": "180530Z",
      "visibility_m": 10000,
      "taf_visibility_m": 3000,
      "worst_visibility_m": 3000,
      "ceiling_ft": 2000,
      "hazards": [
        "RA",
        "SHRA"
      ],
      "severityScore": 26,
      "metarRaw": "METAR LEVC 180530Z 27005KT CAVOK 04/01 Q1009 NOSIG",
      "tafRaw": "TAF LEVC 180500Z 1806/1906 27007KT 9999 FEW020 TX14/1812Z TN04/1906Z \n  BECMG 1812/1814 08007KT \n  BECMG 1818/1820 30008KT \n  PROB40 \n  TEMPO 1818/1821 3000 RA SHRA BKN020 FEW030TCU \n  TEMPO 1821/1824 3000 RA SHRA BKN020 FEW030TCU"
    },
    {
      "icao": "LPPS",
      "iata": "PXO",
      "name": "Porto Santo Airport",
      "updatedAt": "180530Z",
      "visibility_m": 10000,
      "taf_visibility_m": 8000,
      "worst_visibility_m": 8000,
      "ceiling_ft": 3000,
      "hazards": [
        "SHRA",
        "RA"
      ],
      "severityScore": 26,
      "metarRaw": "METAR LPPS 180530Z 36020KT 9999 SCT010 BKN030 15/13 Q1014",
      "tafRaw": "TAF LPPS 180500Z 1806/1912 01018KT 9999 SCT015 SCT030 \n  TEMPO 1806/1818 36020G33KT 8000 SHRA BKN012"
    },
    {
      "icao": "GCTS",
      "iata": "TFS",
      "name": "Tenerife Sur Airport",
      "updatedAt": "180530Z",
      "visibility_m": 10000,
      "taf_visibility_m": 10000,
      "worst_visibility_m": 10000,
      "ceiling_ft": 5000,
      "hazards": [
        "TS"
      ],
      "severityScore": 25,
      "metarRaw": "METAR GCTS 180530Z 34007KT 9999 FEW030 15/09 Q1017 NOSIG",
      "tafRaw": "TAF GCTS 180200Z 1803/1903 36005KT 9999 BKN050 TX22/1814Z TN14/1806Z \n  TEMPO 1814/1816 12010KT \n  BECMG 1815/1817 06010KT"
    },
    {
      "icao": "EDDK",
      "iata": "CGN",
      "name": "Cologne Bonn Airport",
      "updatedAt": "180520Z",
      "visibility_m": 10000,
      "taf_visibility_m": 10000,
      "worst_visibility_m": 10000,
      "ceiling_ft": 600,
      "hazards": [],
      "severityScore": 25,
      "metarRaw": "METAR EDDK 180520Z AUTO 12008KT 080V140 9999 OVC006 00/M01 Q1021 NOSIG",
      "tafRaw": "TAF EDDK 180500Z 1806/1912 12007KT 9999 OVC006 \n  BECMG 1808/1812 CAVOK"
    },
    {
      "icao": "EDDN",
      "iata": "NUE",
      "name": "Nuremberg Airport",
      "updatedAt": "180520Z",
      "visibility_m": 10000,
      "taf_visibility_m": 10000,
      "worst_visibility_m": 10000,
      "ceiling_ft": 900,
      "hazards": [],
      "severityScore": 25,
      "metarRaw": "METAR EDDN 180520Z AUTO 09006KT 060V120 9999 OVC009 01/M00 Q1022 TEMPO OVC010",
      "tafRaw": "TAF EDDN 180500Z 1806/1906 10007KT 9999 OVC008 \n  TEMPO 1806/1810 OVC010 \n  BECMG 1810/1812 FEW010"
    },
    {
      "icao": "EDNY",
      "iata": "FDH",
      "name": "Friedrichshafen Airport",
      "updatedAt": "180520Z",
      "visibility_m": 10000,
      "taf_visibility_m": 10000,
      "worst_visibility_m": 10000,
      "ceiling_ft": 800,
      "hazards": [],
      "severityScore": 25,
      "metarRaw": "METAR EDNY 180520Z 02007KT 9999 OVC008 M01/M02 Q1019",
      "tafRaw": "TAF EDNY 180500Z 1806/1815 03007KT 9999 OVC007 \n  TEMPO 1806/1813 OVC004"
    },
    {
      "icao": "LGTS",
      "iata": "SKG",
      "name": "Thessaloniki Macedonia International Airport",
      "updatedAt": "180520Z",
      "visibility_m": 10000,
      "taf_visibility_m": 10000,
      "worst_visibility_m": 10000,
      "ceiling_ft": 3500,
      "hazards": [
        "TS"
      ],
      "severityScore": 25,
      "metarRaw": "METAR LGTS 180520Z VRB03KT 9999 FEW020 BKN035 04/M00 Q1029 NOSIG",
      "tafRaw": "TAF LGTS 180500Z 1806/1906 09007KT 9999 FEW015 BKN030"
    },
    {
      "icao": "LUKK",
      "iata": "RMO",
      "name": "Chişinău International Airport",
      "updatedAt": "180530Z",
      "visibility_m": 10000,
      "taf_visibility_m": 10000,
      "worst_visibility_m": 10000,
      "ceiling_ft": 600,
      "hazards": [],
      "severityScore": 25,
      "metarRaw": "METAR LUKK 180530Z 36012KT CAVOK M14/M16 Q1039 NOSIG",
      "tafRaw": "TAF LUKK 180522Z 1806/1906 01010KT CAVOK \n  BECMG 1809/1811 BKN015 \n  TEMPO 1820/1906 OVC006"
    },
    {
      "icao": "LEBB",
      "iata": "BIO",
      "name": "Bilbao Airport",
      "updatedAt": "180530Z",
      "visibility_m": 9000,
      "taf_visibility_m": 3000,
      "worst_visibility_m": 3000,
      "ceiling_ft": 1600,
      "hazards": [
        "RA"
      ],
      "severityScore": 24,
      "metarRaw": "METAR LEBB 180530Z VRB02KT 9000 BKN016 08/08 Q1011 NOSIG",
      "tafRaw": "TAF LEBB 180500Z 1806/1906 29008KT 9000 FEW010 BKN020 TX10/1814Z TN08/1806Z \n  TEMPO 1806/1815 3000 RA BKN010 \n  PROB30 \n  TEMPO 1815/1820 RA \n  PROB40 \n  TEMPO 1820/1906 RA"
    },
    {
      "icao": "GCFV",
      "iata": "FUE",
      "name": "Fuerteventura Airport",
      "updatedAt": "180530Z",
      "visibility_m": 4200,
      "taf_visibility_m": 4500,
      "worst_visibility_m": 4200,
      "ceiling_ft": null,
      "hazards": [
        "BR",
        "RA"
      ],
      "severityScore": 22,
      "metarRaw": "METAR GCFV 180530Z AUTO 27017KT 4200 -RA BR FEW018 SCT045 17/13 Q1014",
      "tafRaw": "TAF GCFV 180200Z 1803/1903 29008KT 9999 SCT035 TX20/1814Z TN15/1806Z \n  BECMG 1804/1806 28018KT \n  PROB40 \n  TEMPO 1805/1810 28018G28KT \n  BECMG 1810/1812 35020KT \n  PROB40 \n  TEMPO 1810/1822 35020G30KT \n  PROB30 \n  TEMPO 1806/1812 4500 RA FEW035TCU \n  BECMG 1822/1824 01010KT"
    },
    {
      "icao": "ENBR",
      "iata": "BGO",
      "name": "Bergen Airport, Flesland",
      "updatedAt": "180520Z",
      "visibility_m": 10000,
      "taf_visibility_m": 3000,
      "worst_visibility_m": 3000,
      "ceiling_ft": 2300,
      "hazards": [
        "RA",
        "BR"
      ],
      "severityScore": 22,
      "metarRaw": "METAR ENBR 180520Z VRB02KT 9999 -RA BKN023 04/03 Q1026 RMK WIND 1200FT 12010KT",
      "tafRaw": "TAF ENBR 180500Z 1806/1906 VRB05KT 9999 -RA FEW012 BKN025 \n  PROB30 \n  TEMPO 1806/1810 RA BKN014 \n  PROB30 1810/1822 3000 BR OVC005"
    },
    {
      "icao": "LIBP",
      "iata": "PSR",
      "name": "Abruzzo Airport",
      "updatedAt": "180520Z",
      "visibility_m": 3000,
      "taf_visibility_m": 2000,
      "worst_visibility_m": 2000,
      "ceiling_ft": 1000,
      "hazards": [
        "BR"
      ],
      "severityScore": 22,
      "metarRaw": "METAR LIBP 180520Z AUTO 23004KT 3000 BR OVC006/// 08/08 Q1023",
      "tafRaw": "TAF LIBP 180500Z 1806/1906 VRB05KT 2000 BR BKN010 \n  BECMG 1806/1808 7000 FEW010 \n  BECMG 1810/1812 08010KT \n  BECMG 1816/1818 VRB05KT"
    },
    {
      "icao": "EHBK",
      "iata": "MST",
      "name": "Maastricht Aachen Airport",
      "updatedAt": "180525Z",
      "visibility_m": 10000,
      "taf_visibility_m": 7000,
      "worst_visibility_m": 7000,
      "ceiling_ft": null,
      "hazards": [
        "FG"
      ],
      "severityScore": 20,
      "metarRaw": "METAR EHBK 180525Z AUTO 07006KT 9999 NSC 01/01 Q1019 NOSIG",
      "tafRaw": "TAF EHBK 180518Z 1806/1912 08005KT CAVOK \n  PROB30 1818/1906 7000 MIFG"
    },
    {
      "icao": "HESX",
      "iata": "SPX",
      "name": "Sphinx International Airport",
      "updatedAt": "180500Z",
      "visibility_m": 3000,
      "taf_visibility_m": 1000,
      "worst_visibility_m": 1000,
      "ceiling_ft": null,
      "hazards": [
        "BR"
      ],
      "severityScore": 20,
      "metarRaw": "METAR HESX 180500Z 24004KT 3000 BR NSC 08/06 Q1017 NOSIG",
      "tafRaw": "TAF HESX 180500Z 1806/1912 33009KT CAVOK \n  TEMPO 1806/1809 VRB03KT 3000 BR NSC \n  PROB40 \n  TEMPO 1806/1808 1000"
    },
    {
      "icao": "LJLJ",
      "iata": "LJU",
      "name": "Ljubljana Jože Pučnik Airport",
      "updatedAt": "180530Z",
      "visibility_m": 9000,
      "taf_visibility_m": null,
      "worst_visibility_m": 9000,
      "ceiling_ft": 1500,
      "hazards": [],
      "severityScore": 17,
      "metarRaw": "METAR LJLJ 180530Z 12002KT 9000 OVC015 01/M01 Q1028 NOSIG",
      "tafRaw": null
    },
    {
      "icao": "GCLP",
      "iata": "LPA",
      "name": "Gran Canaria Airport",
      "updatedAt": "180530Z",
      "visibility_m": 10000,
      "taf_visibility_m": 4500,
      "worst_visibility_m": 4500,
      "ceiling_ft": 5500,
      "hazards": [
        "RA"
      ],
      "severityScore": 12,
      "metarRaw": "METAR GCLP 180530Z 25006KT 9999 FEW035 BKN055 15/12 Q1016 NOSIG",
      "tafRaw": "TAF GCLP 180200Z 1803/1903 27007KT 9999 BKN040 TX21/1814Z TN15/1806Z \n  BECMG 1810/1812 36020KT \n  PROB40 \n  TEMPO 1810/1903 36020G30KT \n  PROB30 \n  TEMPO 1808/1815 4500 RA FEW035TCU"
    },
    {
      "icao": "GMMN",
      "iata": "CMN",
      "name": "Mohammed V International Airport",
      "updatedAt": "180530Z",
      "visibility_m": 8000,
      "taf_visibility_m": 2000,
      "worst_visibility_m": 2000,
      "ceiling_ft": 2000,
      "hazards": [
        "RA"
      ],
      "severityScore": 12,
      "metarRaw": "METAR GMMN 180530Z 19006KT 160V220 8000 -RA BKN020 SCT040 09/07 Q1006 NOSIG",
      "tafRaw": "TAF GMMN 180500Z 1806/1912 22008KT 9999 SCT020 SCT030 \n  TEMPO 1806/1812 2000 RA BKN010 BKN026TCU \n  BECMG 1811/1813 33013KT SCT020 FEW030CB \n  BECMG 1818/1820 21005KT"
    },
    {
      "icao": "EDDH",
      "iata": "HAM",
      "name": "Hamburg Helmut Schmidt Airport",
      "updatedAt": "180520Z",
      "visibility_m": 10000,
      "taf_visibility_m": 10000,
      "worst_visibility_m": 10000,
      "ceiling_ft": 1400,
      "hazards": [],
      "severityScore": 12,
      "metarRaw": "METAR EDDH 180520Z AUTO 11010KT 090V160 9999 OVC014 04/02 Q1024 TEMPO BKN015",
      "tafRaw": "TAF EDDH 180500Z 1806/1912 12008KT 9999 BKN013 \n  TEMPO 1806/1811 BKN015 \n  PROB30 \n  TEMPO 1806/1810 BKN007 \n  BECMG 1811/1814 FEW015"
    },
    {
      "icao": "EPRA",
      "iata": "RDO",
      "name": "Warsaw Radom Airport",
      "updatedAt": "180530Z",
      "visibility_m": 10000,
      "taf_visibility_m": 10000,
      "worst_visibility_m": 10000,
      "ceiling_ft": null,
      "hazards": [
        "RA"
      ],
      "severityScore": 12,
      "metarRaw": "METAR EPRA 180530Z 11007KT CAVOK M14/M17 Q1036",
      "tafRaw": "TAF EPRA 180530Z 1806/1815 11010KT CAVOK"
    },
    {
      "icao": "LBSF",
      "iata": "SOF",
      "name": "Sofia Airport",
      "updatedAt": "180530Z",
      "visibility_m": 10000,
      "taf_visibility_m": 10000,
      "worst_visibility_m": 10000,
      "ceiling_ft": 1800,
      "hazards": [],
      "severityScore": 12,
      "metarRaw": "METAR LBSF 180530Z 00000KT 9999 BKN018 M07/M08 Q1031 NOSIG",
      "tafRaw": "TAF LBSF 180500Z 1806/1906 VRB04KT 9999 BKN020 \n  BECMG 1809/1811 03010KT \n  BECMG 1821/1823 VRB04KT"
    },
    {
      "icao": "LEXJ",
      "iata": "SDR",
      "name": "Seve Ballesteros-Santander Airport",
      "updatedAt": "180530Z",
      "visibility_m": 8000,
      "taf_visibility_m": 3000,
      "worst_visibility_m": 3000,
      "ceiling_ft": 2000,
      "hazards": [
        "RA"
      ],
      "severityScore": 12,
      "metarRaw": "METAR LEXJ 180530Z 23008KT 8000 -RA FEW015 BKN020 07/06 Q1012",
      "tafRaw": "TAF LEXJ 180200Z 1803/1903 25009KT 9999 SCT015 BKN020 TX11/1814Z TN07/1803Z \n  TEMPO 1803/1807 3000 RA BKN010 \n  PROB40 \n  TEMPO 1807/1903 RA"
    },
    {
      "icao": "LGAV",
      "iata": "ATH",
      "name": "Athens Eleftherios Venizelos International Airport",
      "updatedAt": "180520Z",
      "visibility_m": 10000,
      "taf_visibility_m": 5000,
      "worst_visibility_m": 5000,
      "ceiling_ft": 2000,
      "hazards": [
        "RA"
      ],
      "severityScore": 12,
      "metarRaw": "METAR LGAV 180520Z 02013KT 9999 FEW020 06/M01 Q1026 NOSIG",
      "tafRaw": "TAF LGAV 180500Z 1806/1906 03015G25KT 9999 FEW020 SCT030 \n  TEMPO 1806/1906 03020G30KT SCT018 BKN030 \n  PROB30 \n  TEMPO 1818/1906 5000 RA FEW018 BKN020 BKN070"
    },
    {
      "icao": "LICA",
      "iata": "SUF",
      "name": "Lamezia Terme Sant'Eufemia International Airport",
      "updatedAt": "180520Z",
      "visibility_m": 10000,
      "taf_visibility_m": 4000,
      "worst_visibility_m": 4000,
      "ceiling_ft": 4000,
      "hazards": [
        "RA"
      ],
      "severityScore": 12,
      "metarRaw": "METAR LICA 180520Z AUTO 08009KT 9999 BKN068/// 13/10 Q1019",
      "tafRaw": "TAF LICA 180500Z 1806/1906 08018KT 9999 BKN040 \n  PROB30 \n  TEMPO 1808/1818 4000 RA"
    },
    {
      "icao": "LICC",
      "iata": "CTA",
      "name": "Catania-Fontanarossa Airport",
      "updatedAt": "180520Z",
      "visibility_m": 10000,
      "taf_visibility_m": 10000,
      "worst_visibility_m": 10000,
      "ceiling_ft": 3000,
      "hazards": [
        "RA"
      ],
      "severityScore": 12,
      "metarRaw": "METAR LICC 180520Z 08010KT 9999 FEW015 BKN030 15/13 Q1018",
      "tafRaw": "TAF LICC 180500Z 1806/1906 08014KT 9999 SCT015 BKN040 \n  TEMPO 1806/1906 RA"
    },
    {
      "icao": "LIMF",
      "iata": "TRN",
      "name": "Turin Airport",
      "updatedAt": "180520Z",
      "visibility_m": 8000,
      "taf_visibility_m": 4000,
      "worst_visibility_m": 4000,
      "ceiling_ft": 3100,
      "hazards": [
        "RA"
      ],
      "severityScore": 12,
      "metarRaw": "METAR LIMF 180520Z 31007KT 8000 OVC031 09/05 Q1023",
      "tafRaw": "TAF LIMF 180500Z 1806/1906 30007KT 4000 -RA OVC030"
    },
    {
      "icao": "LMML",
      "iata": "MLA",
      "name": "Malta International Airport",
      "updatedAt": "180545Z",
      "visibility_m": 10000,
      "taf_visibility_m": 10000,
      "worst_visibility_m": 10000,
      "ceiling_ft": 1400,
      "hazards": [],
      "severityScore": 12,
      "metarRaw": "METAR LMML 180545Z 13006KT 9999 FEW015 11/10 Q1017 NOSIG",
      "tafRaw": "TAF LMML 180500Z 1806/1906 16012KT 9999 SCT018 \n  BECMG 1816/1819 14022G32KT \n  PROB40 \n  TEMPO 1818/1906 BKN014 \n  BECMG 1901/1904 11028G48KT"
    },
    {
      "icao": "LPMA",
      "iata": "FNC",
      "name": "Madeira International Airport Cristiano Ronaldo",
      "updatedAt": "180530Z",
      "visibility_m": 10000,
      "taf_visibility_m": 10000,
      "worst_visibility_m": 10000,
      "ceiling_ft": 1500,
      "hazards": [],
      "severityScore": 12,
      "metarRaw": "METAR LPMA 180530Z 01022G38KT 320V040 9999 BKN015 FEW018TCU 16/13 Q1014",
      "tafRaw": "TAF LPMA 180500Z 1806/1906 35020G33KT 9999 SCT015 SCT030 \n  PROB30 \n  TEMPO 1806/1807 36028G40KT \n  BECMG 1808/1811 36015KT \n  TEMPO 1811/1824 01018G33KT"
    },
    {
      "icao": "LRBC",
      "iata": "BCM",
      "name": "Bacău George Enescu International  Airport",
      "updatedAt": "180530Z",
      "visibility_m": 7000,
      "taf_visibility_m": 10000,
      "worst_visibility_m": 7000,
      "ceiling_ft": 1000,
      "hazards": [],
      "severityScore": 12,
      "metarRaw": "METAR LRBC 180530Z COR 35007KT 7000 FEW007 M12/M15 Q1040",
      "tafRaw": "TAF LRBC 180500Z 1806/1815 35010KT CAVOK \n  TEMPO 1806/1808 BKN010"
    },
    {
      "icao": "LRCV",
      "iata": "CRA",
      "name": "Craiova International Airport",
      "updatedAt": "180530Z",
      "visibility_m": 10000,
      "taf_visibility_m": 10000,
      "worst_visibility_m": 10000,
      "ceiling_ft": 1700,
      "hazards": [],
      "severityScore": 12,
      "metarRaw": "METAR LRCV 180530Z 12009KT 9999 BKN017 OVC025 M08/M11 Q1037",
      "tafRaw": "TAF LRCV 180500Z 1806/1815 12010KT 9999 BKN015 \n  BECMG 1810/1812 VRB04KT SCT020"
    },
    {
      "icao": "EPKK",
      "iata": "KRK",
      "name": "Kraków John Paul II International Airport",
      "updatedAt": "180530Z",
      "visibility_m": 10000,
      "taf_visibility_m": 2500,
      "worst_visibility_m": 2500,
      "ceiling_ft": null,
      "hazards": [
        "BR"
      ],
      "severityScore": 10,
      "metarRaw": "METAR EPKK 180530Z 05007KT 010V070 CAVOK M11/M14 Q1033",
      "tafRaw": "TAF EPKK 180530Z 1806/1906 06010KT CAVOK \n  PROB40 1806/1808 4000 BR \n  PROB40 1818/1822 4000 BR \n  TEMPO 1822/1906 2500 BR"
    },
    {
      "icao": "EPKT",
      "iata": "KTW",
      "name": "Katowice Wojciech Korfanty International Airport",
      "updatedAt": "180530Z",
      "visibility_m": 10000,
      "taf_visibility_m": 2500,
      "worst_visibility_m": 2500,
      "ceiling_ft": null,
      "hazards": [
        "BR"
      ],
      "severityScore": 10,
      "metarRaw": "METAR EPKT 180530Z 11004KT CAVOK M08/M10 Q1032",
      "tafRaw": "TAF EPKT 180530Z 1806/1906 10007KT CAVOK \n  PROB40 1806/1808 4000 BR \n  TEMPO 1818/1906 2500 BR"
    },
    {
      "icao": "EYKA",
      "iata": "KUN",
      "name": "Kaunas International Airport",
      "updatedAt": "180520Z",
      "visibility_m": 9000,
      "taf_visibility_m": 5000,
      "worst_visibility_m": 5000,
      "ceiling_ft": null,
      "hazards": [
        "BR"
      ],
      "severityScore": 10,
      "metarRaw": "METAR EYKA 180520Z 15005KT 130V220 9000 NSC M14/M16 Q1041",
      "tafRaw": "TAF EYKA 180500Z 1806/1906 16006KT 8000 NSC \n  TEMPO 1806/1808 5000 BR SCT002"
    },
    {
      "icao": "EYVI",
      "iata": "VNO",
      "name": "Vilnius International Airport",
      "updatedAt": "180520Z",
      "visibility_m": 7000,
      "taf_visibility_m": 5000,
      "worst_visibility_m": 5000,
      "ceiling_ft": null,
      "hazards": [
        "BR"
      ],
      "severityScore": 10,
      "metarRaw": "METAR EYVI 180520Z 17006KT 7000 NSC M16/M18 Q1041 NOSIG",
      "tafRaw": "TAF EYVI 180500Z 1806/1906 17007KT 8000 NSC \n  TEMPO 1806/1808 5000 BR SCT002"
    },
    {
      "icao": "LIMC",
      "iata": "MXP",
      "name": "Milan Malpensa International Airport",
      "updatedAt": "180520Z",
      "visibility_m": 10000,
      "taf_visibility_m": 7000,
      "worst_visibility_m": 7000,
      "ceiling_ft": 7500,
      "hazards": [
        "DZ"
      ],
      "severityScore": 10,
      "metarRaw": "METAR LIMC 180520Z 11003KT 9999 FEW055 BKN075 07/06 Q1023 NOSIG",
      "tafRaw": "TAF LIMC 180500Z 1806/1912 VRB04KT 7000 BKN040 \n  TEMPO 1806/1812 DZ \n  BECMG 1817/1819 DZ \n  BECMG 1906/1908 NSW"
    },
    {
      "icao": "LIME",
      "iata": "BGY",
      "name": "Milan Bergamo Airport / Antonio Locatelli Air Base",
      "updatedAt": "180520Z",
      "visibility_m": 10000,
      "taf_visibility_m": 4000,
      "worst_visibility_m": 4000,
      "ceiling_ft": 7500,
      "hazards": [
        "BR"
      ],
      "severityScore": 10,
      "metarRaw": "METAR LIME 180520Z VRB01KT 9999 BKN075 04/04 Q1023 NOSIG",
      "tafRaw": "TAF LIME 180500Z 1806/1906 VRB03KT 9999 SCT040 \n  TEMPO 1900/1906 4000 BR"
    },
    {
      "icao": "LIRP",
      "iata": "PSA",
      "name": "Pisa International Airport",
      "updatedAt": "180515Z",
      "visibility_m": 10000,
      "taf_visibility_m": 5000,
      "worst_visibility_m": 5000,
      "ceiling_ft": 8000,
      "hazards": [
        "BR"
      ],
      "severityScore": 10,
      "metarRaw": "METAR LIRP 180515Z 11004KT 9999 FEW060 08/07 Q1020 NOSIG",
      "tafRaw": "TAF LIRP 180500Z 1806/1906 10006KT 9999 SCT070 \n  PROB30 \n  TEMPO 1806/1808 5000 BR NSC \n  BECMG 1810/1812 09013KT BKN080"
    },
    {
      "icao": "LIRZ",
      "iata": "PEG",
      "name": "Perugia San Francesco d'Assisi – Umbria International Airport",
      "updatedAt": "180520Z",
      "visibility_m": 1800,
      "taf_visibility_m": 10000,
      "worst_visibility_m": 1800,
      "ceiling_ft": null,
      "hazards": [
        "BR"
      ],
      "severityScore": 10,
      "metarRaw": "METAR LIRZ 180520Z AUTO 22004KT 1800 0250S R01/0800U BR BKN003/// 00/00 Q1020",
      "tafRaw": "TAF LIRZ 180500Z 1806/1906 02008KT CAVOK"
    },
    {
      "icao": "LPPR",
      "iata": "OPO",
      "name": "Francisco de Sá Carneiro Airport",
      "updatedAt": "180530Z",
      "visibility_m": 8000,
      "taf_visibility_m": 5000,
      "worst_visibility_m": 5000,
      "ceiling_ft": null,
      "hazards": [
        "BR"
      ],
      "severityScore": 10,
      "metarRaw": "METAR LPPR 180530Z 36004KT 310V080 8000 FEW002 02/02 Q1012",
      "tafRaw": "TAF LPPR 180500Z 1806/1906 05005KT CAVOK \n  TEMPO 1806/1808 5000 BR SCT003 \n  BECMG 1811/1813 32007KT \n  BECMG 1818/1820 VRB02KT"
    },
    {
      "icao": "LPPT",
      "iata": "LIS",
      "name": "Lisbon Humberto Delgado Airport",
      "updatedAt": "180530Z",
      "visibility_m": 10000,
      "taf_visibility_m": 5000,
      "worst_visibility_m": 5000,
      "ceiling_ft": null,
      "hazards": [
        "BR"
      ],
      "severityScore": 10,
      "metarRaw": "METAR LPPT 180530Z 35008KT 9999 FEW002 05/04 Q1010",
      "tafRaw": "TAF LPPT 180500Z 1806/1912 04005KT 9999 FEW030 \n  PROB30 \n  TEMPO 1806/1809 5000 BR SCT003 \n  BECMG 1818/1820 32007KT"
    },
    {
      "icao": "LRCL",
      "iata": "CLJ",
      "name": "Cluj Avram Iancu International Airport",
      "updatedAt": "180530Z",
      "visibility_m": 5000,
      "taf_visibility_m": 5000,
      "worst_visibility_m": 5000,
      "ceiling_ft": null,
      "hazards": [
        "BR"
      ],
      "severityScore": 10,
      "metarRaw": "METAR LRCL 180530Z COR 08003KT 5000 BR NSC M15/M17 Q1034",
      "tafRaw": "TAF LRCL 180500Z 1806/1815 VRB04KT 5000 BR NSC \n  BECMG 1806/1808 9999 NSW"
    },
    {
      "icao": "LRSB",
      "iata": "SBZ",
      "name": "Sibiu International Airport",
      "updatedAt": "180530Z",
      "visibility_m": 10000,
      "taf_visibility_m": 5000,
      "worst_visibility_m": 5000,
      "ceiling_ft": null,
      "hazards": [
        "BR"
      ],
      "severityScore": 10,
      "metarRaw": "METAR LRSB 180530Z 19003KT CAVOK M10/M11 Q1032",
      "tafRaw": "TAF LRSB 180500Z 1806/1906 VRB04KT CAVOK \n  TEMPO 1903/1906 5000 BR"
    },
    {
      "icao": "LRTM",
      "iata": "TGM",
      "name": "Târgu Mureş Transilvania International Airport",
      "updatedAt": "180530Z",
      "visibility_m": 3500,
      "taf_visibility_m": 3000,
      "worst_visibility_m": 3000,
      "ceiling_ft": null,
      "hazards": [
        "BR"
      ],
      "severityScore": 10,
      "metarRaw": "METAR LRTM 180530Z 22001KT 3500 BR NSC M17/M19 Q1035",
      "tafRaw": "TAF LRTM 180500Z 1806/1815 VRB04KT 5000 BR NSC \n  TEMPO 1806/1807 3000 BR \n  BECMG 1807/1809 9999 NSW"
    },
    {
      "icao": "LYPG",
      "iata": "TGD",
      "name": "Podgorica Airport / Podgorica Golubovci Airbase",
      "updatedAt": "180530Z",
      "visibility_m": 8000,
      "taf_visibility_m": 2000,
      "worst_visibility_m": 2000,
      "ceiling_ft": null,
      "hazards": [
        "BR"
      ],
      "severityScore": 10,
      "metarRaw": "METAR LYPG 180530Z 33007KT 8000 NSC 01/M00 Q1025 NOSIG",
      "tafRaw": "TAF LYPG 180500Z 1806/1906 36005KT CAVOK TX11/1813Z TN00/1905Z \n  PROB40 \n  TEMPO 1806/1807 2000 BR"
    },
    {
      "icao": "LFMN",
      "iata": "NCE",
      "name": "Nice-Côte d'Azur Airport",
      "updatedAt": "180530Z",
      "visibility_m": 10000,
      "taf_visibility_m": null,
      "worst_visibility_m": 10000,
      "ceiling_ft": 6600,
      "hazards": [],
      "severityScore": 5,
      "metarRaw": "METAR LFMN 180530Z 08013KT 9999 BKN066 BKN200 11/04 Q1017 NOSIG",
      "tafRaw": null
    },
    {
      "icao": "LIBG",
      "iata": "TAR",
      "name": "Taranto-Grottaglie Marcello Arlotta Airport",
      "updatedAt": null,
      "visibility_m": null,
      "taf_visibility_m": null,
      "worst_visibility_m": null,
      "ceiling_ft": null,
      "hazards": [],
      "severityScore": 5,
      "metarRaw": null,
      "tafRaw": null
    },
    {
      "icao": "BKPR",
      "iata": "PRN",
      "name": "Priština Adem Jashari International Airport",
      "updatedAt": "180530Z",
      "visibility_m": 10000,
      "taf_visibility_m": 10000,
      "worst_visibility_m": 10000,
      "ceiling_ft": 3000,
      "hazards": [],
      "severityScore": 0,
      "metarRaw": "METAR BKPR 180530Z 35016KT 9999 SCT015 BKN030 M02/M04 Q1028 NOSIG",
      "tafRaw": "TAF BKPR 180530Z 1806/1906 36012KT 9999 SCT015 BKN030"
    },
    {
      "icao": "EBCI",
      "iata": "CRL",
      "name": "Brussels South Charleroi Airport",
      "updatedAt": "180520Z",
      "visibility_m": 10000,
      "taf_visibility_m": 10000,
      "worst_visibility_m": 10000,
      "ceiling_ft": null,
      "hazards": [],
      "severityScore": 0,
      "metarRaw": "METAR EBCI 180520Z 06005KT CAVOK 05/03 Q1018 NOSIG",
      "tafRaw": "TAF EBCI 180505Z 1806/1912 08004KT CAVOK"
    },
    {
      "icao": "EDLW",
      "iata": "DTM",
      "name": "Dortmund Airport",
      "updatedAt": "180520Z",
      "visibility_m": 10000,
      "taf_visibility_m": 10000,
      "worst_visibility_m": 10000,
      "ceiling_ft": null,
      "hazards": [],
      "severityScore": 0,
      "metarRaw": "METAR EDLW 180520Z 13003KT CAVOK 02/01 Q1020",
      "tafRaw": "TAF EDLW 180500Z 1806/1906 12004KT CAVOK"
    },
    {
      "icao": "ENAL",
      "iata": "AES",
      "name": "Ålesund Airport, Vigra",
      "updatedAt": "180520Z",
      "visibility_m": 10000,
      "taf_visibility_m": 10000,
      "worst_visibility_m": 10000,
      "ceiling_ft": null,
      "hazards": [],
      "severityScore": 0,
      "metarRaw": "METAR ENAL 180520Z AUTO 14007KT 9999 NCD 01/M03 Q1027",
      "tafRaw": "TAF ENAL 180500Z 1806/1815 14008KT 9999 FEW060"
    },
    {
      "icao": "ENVA",
      "iata": "TRD",
      "name": "Trondheim Airport, Værnes",
      "updatedAt": "180520Z",
      "visibility_m": 10000,
      "taf_visibility_m": 10000,
      "worst_visibility_m": 10000,
      "ceiling_ft": null,
      "hazards": [],
      "severityScore": 0,
      "metarRaw": "METAR ENVA 180520Z 08005KT CAVOK M02/M04 Q1028 RMK WIND 670FT 09008KT",
      "tafRaw": "TAF ENVA 180500Z 1806/1906 12008KT 9999 FEW040"
    },
    {
      "icao": "EPGD",
      "iata": "GDN",
      "name": "Gdańsk Lech Wałęsa Airport",
      "updatedAt": "180530Z",
      "visibility_m": 10000,
      "taf_visibility_m": 10000,
      "worst_visibility_m": 10000,
      "ceiling_ft": null,
      "hazards": [],
      "severityScore": 0,
      "metarRaw": "METAR EPGD 180530Z 15006KT CAVOK M10/M11 Q1034",
      "tafRaw": "TAF EPGD 180530Z 1806/1906 15008KT CAVOK"
    },
    {
      "icao": "EPLB",
      "iata": "LUZ",
      "name": "Lublin Airport",
      "updatedAt": "180530Z",
      "visibility_m": 7000,
      "taf_visibility_m": 10000,
      "worst_visibility_m": 7000,
      "ceiling_ft": null,
      "hazards": [],
      "severityScore": 0,
      "metarRaw": "METAR EPLB 180530Z 10006KT 7000 FEW003 M19/M20 Q1037",
      "tafRaw": "TAF EPLB 180530Z 1806/1906 10008KT CAVOK"
    },
    {
      "icao": "EPMO",
      "iata": "WMI",
      "name": "Modlin Airport",
      "updatedAt": "180530Z",
      "visibility_m": 7000,
      "taf_visibility_m": 10000,
      "worst_visibility_m": 7000,
      "ceiling_ft": null,
      "hazards": [],
      "severityScore": 0,
      "metarRaw": "METAR EPMO 180530Z 08008KT 7000 NSC M14/M15 Q1037",
      "tafRaw": "TAF EPMO 180530Z 1806/1906 10008KT CAVOK"
    },
    {
      "icao": "EPPO",
      "iata": "POZ",
      "name": "Poznań-Ławica Airport",
      "updatedAt": "180530Z",
      "visibility_m": 10000,
      "taf_visibility_m": 10000,
      "worst_visibility_m": 10000,
      "ceiling_ft": null,
      "hazards": [],
      "severityScore": 0,
      "metarRaw": "METAR EPPO 180530Z 10007KT CAVOK M04/M06 Q1031",
      "tafRaw": "TAF EPPO 180530Z 1806/1906 12010KT CAVOK"
    },
    {
      "icao": "EPRZ",
      "iata": "RZE",
      "name": "Rzeszów-Jasionka Airport",
      "updatedAt": "180530Z",
      "visibility_m": 10000,
      "taf_visibility_m": 10000,
      "worst_visibility_m": 10000,
      "ceiling_ft": null,
      "hazards": [],
      "severityScore": 0,
      "metarRaw": "METAR EPRZ 180530Z 08015KT CAVOK M14/M16 Q1035",
      "tafRaw": "TAF EPRZ 180530Z 1806/1906 09012KT CAVOK \n  TEMPO 1808/1818 10015G25KT"
    },
    {
      "icao": "EPSC",
      "iata": "SZZ",
      "name": "Solidarity Szczecin–Goleniów Airport",
      "updatedAt": "180530Z",
      "visibility_m": 7000,
      "taf_visibility_m": 10000,
      "worst_visibility_m": 7000,
      "ceiling_ft": null,
      "hazards": [],
      "severityScore": 0,
      "metarRaw": "METAR EPSC 180530Z 12007KT 7000 NSC M02/M03 Q1030",
      "tafRaw": "TAF EPSC 180530Z 1806/1906 12012KT CAVOK \n  PROB40 \n  TEMPO 1815/1906 13015G25KT"
    },
    {
      "icao": "EPSY",
      "iata": "SZY",
      "name": "Olsztyn-Mazury Airport",
      "updatedAt": "180530Z",
      "visibility_m": 10000,
      "taf_visibility_m": 10000,
      "worst_visibility_m": 10000,
      "ceiling_ft": null,
      "hazards": [],
      "severityScore": 0,
      "metarRaw": "METAR EPSY 180530Z 10004KT 060V140 CAVOK M14/M15 Q1037",
      "tafRaw": "TAF EPSY 180530Z 1806/1815 12006KT CAVOK"
    },
    {
      "icao": "EPWA",
      "iata": "WAW",
      "name": "Warsaw Chopin Airport",
      "updatedAt": "180530Z",
      "visibility_m": 10000,
      "taf_visibility_m": 10000,
      "worst_visibility_m": 10000,
      "ceiling_ft": null,
      "hazards": [],
      "severityScore": 0,
      "metarRaw": "METAR EPWA 180530Z 11010KT CAVOK M12/M15 Q1037 NOSIG",
      "tafRaw": "TAF EPWA 180530Z 1806/1906 10008KT CAVOK"
    },
    {
      "icao": "EYPA",
      "iata": "PLQ",
      "name": "Palanga International Airport",
      "updatedAt": "180520Z",
      "visibility_m": 10000,
      "taf_visibility_m": 9000,
      "worst_visibility_m": 9000,
      "ceiling_ft": null,
      "hazards": [],
      "severityScore": 0,
      "metarRaw": "METAR EYPA 180520Z 15010KT CAVOK M10/M13 Q1038",
      "tafRaw": "TAF EYPA 180500Z 1806/1906 16010KT 9000 NSC \n  TEMPO 1806/1809 SCT005"
    },
    {
      "icao": "HEGN",
      "iata": "HRG",
      "name": "Hurghada International Airport",
      "updatedAt": "180500Z",
      "visibility_m": 10000,
      "taf_visibility_m": 4000,
      "worst_visibility_m": 4000,
      "ceiling_ft": null,
      "hazards": [],
      "severityScore": 0,
      "metarRaw": "METAR HEGN 180500Z 28010KT CAVOK 13/06 Q1015 NOSIG",
      "tafRaw": "TAF HEGN 180500Z 1806/1912 30010G20KT 6000 NSC \n  PROB30 \n  TEMPO 1806/1812 4000 SA"
    },
    {
      "icao": "HEMA",
      "iata": "RMF",
      "name": "Marsa Alam International Airport",
      "updatedAt": "180500Z",
      "visibility_m": 10000,
      "taf_visibility_m": 4000,
      "worst_visibility_m": 4000,
      "ceiling_ft": null,
      "hazards": [],
      "severityScore": 0,
      "metarRaw": "METAR HEMA 180500Z 27010KT CAVOK 12/10 Q1013 NOSIG",
      "tafRaw": "TAF HEMA 180500Z 1806/1912 29010G20KT 6000 NSC \n  PROB30 \n  TEMPO 1806/1812 4000 SA"
    },
    {
      "icao": "HESH",
      "iata": "SSH",
      "name": "Sharm El Sheikh International Airport",
      "updatedAt": "180500Z",
      "visibility_m": 10000,
      "taf_visibility_m": 10000,
      "worst_visibility_m": 10000,
      "ceiling_ft": null,
      "hazards": [],
      "severityScore": 0,
      "metarRaw": "METAR HESH 180500Z 29004KT CAVOK 16/06 Q1014 NOSIG",
      "tafRaw": "TAF HESH 180500Z 1806/1912 36012KT CAVOK"
    },
    {
      "icao": "LATI",
      "iata": "TIA",
      "name": "Tirana International Airport Mother Teresa",
      "updatedAt": "180520Z",
      "visibility_m": 10000,
      "taf_visibility_m": 10000,
      "worst_visibility_m": 10000,
      "ceiling_ft": null,
      "hazards": [],
      "severityScore": 0,
      "metarRaw": "METAR LATI 180520Z 00000KT CAVOK M00/M02 Q1023 NOSIG",
      "tafRaw": "TAF LATI 180500Z 1806/1906 VRB05KT CAVOK TX17/1812Z TNM01/1905Z"
    },
    {
      "icao": "LBPD",
      "iata": "PDV",
      "name": "Plovdiv International Airport",
      "updatedAt": "180530Z",
      "visibility_m": 10000,
      "taf_visibility_m": 10000,
      "worst_visibility_m": 10000,
      "ceiling_ft": null,
      "hazards": [],
      "severityScore": 0,
      "metarRaw": "METAR LBPD 180530Z AUTO 09007KT 070V130 9999 SCT030/// OVC037/// M03/M07 Q1033 NOSIG",
      "tafRaw": "TAF LBPD 180500Z 1806/1906 10010KT 9999 SCT030 \n  BECMG 1823/1901 VRB04KT"
    },
    {
      "icao": "LCLK",
      "iata": "LCA",
      "name": "Larnaca International Airport",
      "updatedAt": "180530Z",
      "visibility_m": 10000,
      "taf_visibility_m": 10000,
      "worst_visibility_m": 10000,
      "ceiling_ft": null,
      "hazards": [],
      "severityScore": 0,
      "metarRaw": "METAR LCLK 180530Z 36011KT 9999 FEW020 SCT040 10/06 Q1016 NOSIG",
      "tafRaw": "TAF LCLK 180530Z 1806/1906 01014KT 9999 SCT025"
    },
    {
      "icao": "LEMG",
      "iata": "AGP",
      "name": "Málaga-Costa del Sol Airport",
      "updatedAt": "180530Z",
      "visibility_m": 10000,
      "taf_visibility_m": 10000,
      "worst_visibility_m": 10000,
      "ceiling_ft": null,
      "hazards": [],
      "severityScore": 0,
      "metarRaw": "METAR LEMG 180530Z 31003KT CAVOK 04/02 Q1008 NOSIG",
      "tafRaw": "TAF LEMG 180500Z 1806/1906 31005KT 9999 FEW030 TX13/1814Z TN06/1806Z \n  BECMG 1811/1813 10010KT \n  BECMG 1818/1820 27010KT"
    },
    {
      "icao": "LFLS",
      "iata": "GNB",
      "name": "Grenoble Alpes Isère Airport",
      "updatedAt": "180530Z",
      "visibility_m": 10000,
      "taf_visibility_m": 10000,
      "worst_visibility_m": 10000,
      "ceiling_ft": null,
      "hazards": [],
      "severityScore": 0,
      "metarRaw": "METAR LFLS 180530Z AUTO 14003KT CAVOK 03/01 Q1015 NOSIG",
      "tafRaw": "TAF LFLS 180200Z 1803/1903 09005KT CAVOK"
    },
    {
      "icao": "LIBD",
      "iata": "BRI",
      "name": "Bari Karol Wojtyła International Airport",
      "updatedAt": "180520Z",
      "visibility_m": 10000,
      "taf_visibility_m": 7000,
      "worst_visibility_m": 7000,
      "ceiling_ft": null,
      "hazards": [],
      "severityScore": 0,
      "metarRaw": "METAR LIBD 180520Z AUTO 22004KT 9999 NCD 04/04 Q1022",
      "tafRaw": "TAF LIBD 180500Z 1806/1906 VRB05KT 7000 FEW015 \n  BECMG 1810/1812 09010KT"
    },
    {
      "icao": "LICJ",
      "iata": "PMO",
      "name": "Falcone–Borsellino Airport",
      "updatedAt": "180520Z",
      "visibility_m": 10000,
      "taf_visibility_m": 10000,
      "worst_visibility_m": 10000,
      "ceiling_ft": null,
      "hazards": [],
      "severityScore": 0,
      "metarRaw": "METAR LICJ 180520Z 19005KT CAVOK 10/07 Q1016",
      "tafRaw": "TAF LICJ 180500Z 1806/1906 11008KT 9999 FEW040"
    },
    {
      "icao": "LIMJ",
      "iata": "GOA",
      "name": "Genoa Cristoforo Colombo Airport",
      "updatedAt": "180520Z",
      "visibility_m": 10000,
      "taf_visibility_m": 10000,
      "worst_visibility_m": 10000,
      "ceiling_ft": null,
      "hazards": [],
      "severityScore": 0,
      "metarRaw": "METAR LIMJ 180520Z 02012KT CAVOK 10/06 Q1020",
      "tafRaw": "TAF LIMJ 180500Z 1806/1906 02014KT 9999 FEW040"
    },
    {
      "icao": "LIPH",
      "iata": "TSF",
      "name": "Treviso Antonio Canova Airport",
      "updatedAt": "180520Z",
      "visibility_m": 10000,
      "taf_visibility_m": 10000,
      "worst_visibility_m": 10000,
      "ceiling_ft": null,
      "hazards": [],
      "severityScore": 0,
      "metarRaw": "METAR LIPH 180520Z AUTO 01004KT 340V040 9999 OVC085/// 08/03 Q1024",
      "tafRaw": "TAF LIPH 180500Z 1806/1906 06005KT 9999 SCT060"
    },
    {
      "icao": "LIPQ",
      "iata": "TRS",
      "name": "Trieste–Friuli Venezia Giulia Airport",
      "updatedAt": "180520Z",
      "visibility_m": 10000,
      "taf_visibility_m": 10000,
      "worst_visibility_m": 10000,
      "ceiling_ft": null,
      "hazards": [],
      "severityScore": 0,
      "metarRaw": "METAR LIPQ 180520Z AUTO VRB03KT 9999 OVC088/// 09/00 Q1024",
      "tafRaw": "TAF LIPQ 180500Z 1806/1906 02005KT 9999 FEW070 \n  BECMG 1807/1809 08012KT"
    },
    {
      "icao": "LIPX",
      "iata": "VRN",
      "name": "Verona Villafranca Valerio Catullo Airport",
      "updatedAt": "180520Z",
      "visibility_m": 8000,
      "taf_visibility_m": 6000,
      "worst_visibility_m": 6000,
      "ceiling_ft": 4000,
      "hazards": [],
      "severityScore": 0,
      "metarRaw": "METAR LIPX 180520Z VRB02KT 8000 NSC 08/03 Q1023",
      "tafRaw": "TAF LIPX 180500Z 1806/1906 10008KT 6000 BKN040"
    },
    {
      "icao": "LIPZ",
      "iata": "VCE",
      "name": "Venice Marco Polo Airport",
      "updatedAt": "180520Z",
      "visibility_m": 10000,
      "taf_visibility_m": 10000,
      "worst_visibility_m": 10000,
      "ceiling_ft": null,
      "hazards": [],
      "severityScore": 0,
      "metarRaw": "METAR LIPZ 180520Z 07008KT CAVOK 07/03 Q1024 NOSIG",
      "tafRaw": "TAF LIPZ 180500Z 1806/1912 04010KT 9999 SCT060"
    },
    {
      "icao": "LIRF",
      "iata": "FCO",
      "name": "Rome–Fiumicino Leonardo da Vinci International Airport",
      "updatedAt": "180520Z",
      "visibility_m": 10000,
      "taf_visibility_m": 10000,
      "worst_visibility_m": 10000,
      "ceiling_ft": null,
      "hazards": [],
      "severityScore": 0,
      "metarRaw": "METAR LIRF 180520Z 05007KT CAVOK 09/05 Q1019 NOSIG",
      "tafRaw": "TAF LIRF 180500Z 1806/1912 05010KT 9999 FEW040"
    },
    {
      "icao": "LIRN",
      "iata": "NAP",
      "name": "Naples International Airport",
      "updatedAt": "180520Z",
      "visibility_m": 10000,
      "taf_visibility_m": 10000,
      "worst_visibility_m": 10000,
      "ceiling_ft": null,
      "hazards": [],
      "severityScore": 0,
      "metarRaw": "METAR LIRN 180520Z AUTO 02006KT 9999 NCD 10/05 Q1019",
      "tafRaw": "TAF LIRN 180500Z 1806/1906 05008KT 9999 FEW040"
    },
    {
      "icao": "LKPR",
      "iata": "PRG",
      "name": "Václav Havel Airport Prague",
      "updatedAt": "180530Z",
      "visibility_m": 10000,
      "taf_visibility_m": 10000,
      "worst_visibility_m": 10000,
      "ceiling_ft": null,
      "hazards": [],
      "severityScore": 0,
      "metarRaw": "METAR LKPR 180530Z 10010KT 9999 FEW013 M01/M02 Q1026 NOSIG",
      "tafRaw": "TAF LKPR 180500Z 1806/1912 12012KT CAVOK"
    },
    {
      "icao": "LOWW",
      "iata": "VIE",
      "name": "Vienna International Airport",
      "updatedAt": "180520Z",
      "visibility_m": 10000,
      "taf_visibility_m": 10000,
      "worst_visibility_m": 10000,
      "ceiling_ft": 2800,
      "hazards": [],
      "severityScore": 0,
      "metarRaw": "METAR LOWW 180520Z 12009KT 9999 FEW026 BKN028 M01/M03 Q1030 NOSIG",
      "tafRaw": "TAF LOWW 180515Z 1806/1912 12008KT 9999 FEW020 SCT030 TXM00/1813Z TNM06/1906Z \n  BECMG 1806/1808 14013KT \n  PROB40 \n  TEMPO 1806/1812 BKN009 \n  PROB30 \n  TEMPO 1823/1904 BKN007"
    },
    {
      "icao": "LPFR",
      "iata": "FAO",
      "name": "Faro Airport",
      "updatedAt": "180530Z",
      "visibility_m": 10000,
      "taf_visibility_m": 10000,
      "worst_visibility_m": 10000,
      "ceiling_ft": null,
      "hazards": [],
      "severityScore": 0,
      "metarRaw": "METAR LPFR 180530Z 05005KT 9999 FEW040 07/05 Q1007",
      "tafRaw": "TAF LPFR 180500Z 1806/1906 04007KT 9999 SCT035 \n  BECMG 1815/1817 35007KT CAVOK"
    },
    {
      "icao": "LQBK",
      "iata": "BNX",
      "name": "Banja Luka International Airport",
      "updatedAt": "180530Z",
      "visibility_m": 10000,
      "taf_visibility_m": 10000,
      "worst_visibility_m": 10000,
      "ceiling_ft": 2500,
      "hazards": [],
      "severityScore": 0,
      "metarRaw": "METAR LQBK 180530Z 02003KT 9999 OVC025 M01/M03 Q1031 NOSIG",
      "tafRaw": "TAF LQBK 180500Z 1806/1906 34005KT 9999 BKN020 TX02/1814Z TNM06/1906Z \n  PROB40 \n  TEMPO 1806/1821 OVC013 \n  TEMPO 1810/1818 04010KT"
    },
    {
      "icao": "LRIA",
      "iata": "IAS",
      "name": "Iaşi Airport",
      "updatedAt": "180530Z",
      "visibility_m": 10000,
      "taf_visibility_m": 10000,
      "worst_visibility_m": 10000,
      "ceiling_ft": null,
      "hazards": [],
      "severityScore": 0,
      "metarRaw": "METAR LRIA 180530Z 23004KT CAVOK M16/M18 Q1041",
      "tafRaw": "TAF LRIA 180500Z 1806/1815 29005KT CAVOK"
    },
    {
      "icao": "LRBV",
      "iata": "GHV",
      "name": "Brașov-Ghimbav International Airport",
      "updatedAt": "180530Z",
      "visibility_m": 10000,
      "taf_visibility_m": 10000,
      "worst_visibility_m": 10000,
      "ceiling_ft": null,
      "hazards": [],
      "severityScore": 0,
      "metarRaw": "METAR LRBV 180530Z 21005KT CAVOK M13/M15 Q1033",
      "tafRaw": "TAF LRBV 180500Z 1806/1815 VRB04KT CAVOK \n  TEMPO 1811/1814 08010KT"
    },
    {
      "icao": "LRSM",
      "iata": "SUJ",
      "name": "Satu Mare International Airport",
      "updatedAt": "180530Z",
      "visibility_m": 10000,
      "taf_visibility_m": 10000,
      "worst_visibility_m": 10000,
      "ceiling_ft": null,
      "hazards": [],
      "severityScore": 0,
      "metarRaw": "METAR LRSM 180530Z 10004KT CAVOK M13/M15 Q1034",
      "tafRaw": "TAF LRSM 180500Z 1806/1815 10005KT CAVOK"
    },
    {
      "icao": "LWOH",
      "iata": "OHD",
      "name": "Ohrid St. Paul the Apostle Airport",
      "updatedAt": null,
      "visibility_m": null,
      "taf_visibility_m": 10000,
      "worst_visibility_m": 10000,
      "ceiling_ft": 4000,
      "hazards": [],
      "severityScore": 0,
      "metarRaw": null,
      "tafRaw": "TAF LWOH 180540Z 1806/1906 VRB02KT 9999 BKN040"
    },
    {
      "icao": "LWSK",
      "iata": "SKP",
      "name": "Skopje International Airport",
      "updatedAt": "180520Z",
      "visibility_m": 10000,
      "taf_visibility_m": 10000,
      "worst_visibility_m": 10000,
      "ceiling_ft": 3500,
      "hazards": [],
      "severityScore": 0,
      "metarRaw": "METAR LWSK 180520Z 05005KT 9999 SCT021 OVC035 02/M02 Q1029 NOSIG",
      "tafRaw": "TAF LWSK 180540Z 1806/1906 VRB02KT 9999 SCT020 BKN040 \n  BECMG 1810/1812 CAVOK"
    },
    {
      "icao": "LYBE",
      "iata": "BEG",
      "name": "Belgrade Nikola Tesla Airport",
      "updatedAt": "180530Z",
      "visibility_m": 10000,
      "taf_visibility_m": 10000,
      "worst_visibility_m": 10000,
      "ceiling_ft": null,
      "hazards": [],
      "severityScore": 0,
      "metarRaw": "METAR LYBE 180530Z 11013KT CAVOK M04/M07 Q1033 NOSIG",
      "tafRaw": "TAF LYBE 180500Z 1806/1906 11013KT CAVOK TX01/1813Z TNM05/1906Z"
    },
    {
      "icao": "LYNI",
      "iata": "INI",
      "name": "Niš Constantine the Great Airport",
      "updatedAt": "180530Z",
      "visibility_m": 10000,
      "taf_visibility_m": 10000,
      "worst_visibility_m": 10000,
      "ceiling_ft": null,
      "hazards": [],
      "severityScore": 0,
      "metarRaw": "METAR LYNI 180530Z 02005KT CAVOK M05/M07 Q1032 NOSIG",
      "tafRaw": "TAF LYNI 180500Z 1806/1906 04008KT CAVOK TX01/1813Z TNM07/1906Z"
    },
    {
      "icao": "LZKZ",
      "iata": "KSC",
      "name": "Košice International Airport",
      "updatedAt": "180530Z",
      "visibility_m": 10000,
      "taf_visibility_m": 10000,
      "worst_visibility_m": 10000,
      "ceiling_ft": null,
      "hazards": [],
      "severityScore": 0,
      "metarRaw": "METAR LZKZ 180530Z 27002KT CAVOK M09/M12 Q1033 NOSIG",
      "tafRaw": "TAF LZKZ 180515Z 1806/1906 VRB02KT CAVOK"
    },
    {
      "icao": "LZTT",
      "iata": "TAT",
      "name": "Poprad-Tatry Airport",
      "updatedAt": "180530Z",
      "visibility_m": 10000,
      "taf_visibility_m": 10000,
      "worst_visibility_m": 10000,
      "ceiling_ft": null,
      "hazards": [],
      "severityScore": 0,
      "metarRaw": "METAR LZTT 180530Z 27006KT CAVOK M13/M15 Q1030",
      "tafRaw": "TAF LZTT 180515Z 1806/1906 VRB02KT CAVOK"
    },
    {
      "icao": "OEJN",
      "iata": "JED",
      "name": "King Abdulaziz International Airport",
      "updatedAt": "180500Z",
      "visibility_m": 10000,
      "taf_visibility_m": 7000,
      "worst_visibility_m": 7000,
      "ceiling_ft": null,
      "hazards": [],
      "severityScore": 0,
      "metarRaw": "METAR OEJN 180500Z 00000KT 9999 SCT040 24/16 Q1013 NOSIG",
      "tafRaw": "TAF OEJN 172300Z 1800/1906 VRB03KT 7000 FEW040 \n  BECMG 1806/1808 27010KT \n  BECMG 1818/1820 36005KT"
    },
    {
      "icao": "OEMA",
      "iata": "MED",
      "name": "Prince Mohammad Bin Abdulaziz Airport",
      "updatedAt": "180500Z",
      "visibility_m": 10000,
      "taf_visibility_m": 7000,
      "worst_visibility_m": 7000,
      "ceiling_ft": null,
      "hazards": [],
      "severityScore": 0,
      "metarRaw": "METAR OEMA 180500Z 00000KT CAVOK 16/07 Q1016 NOSIG",
      "tafRaw": "TAF OEMA 172300Z 1800/1906 VRB03KT 7000 FEW045 \n  BECMG 1807/1809 26010KT CAVOK \n  BECMG 1818/1820 VRB03KT"
    }
  ],
  "stats": {
    "icaoCount": 159,
    "metarReturned": 157,
    "tafReturned": 153,
    "stationsWritten": 159,
    "missingMetar": 2,
    "missingTaf": 6
  },
  "errors": []
}