{
  "generatedAt": "2026-01-16T23:57:50.716Z",
  "stations": [
    {
      "icao": "EFTU",
      "iata": "TKU",
      "name": "Turku Airport",
      "updatedAt": "162350Z",
      "visibility_m": 10000,
      "taf_visibility_m": 300,
      "worst_visibility_m": 300,
      "ceiling_ft": 600,
      "hazards": [
        "FG",
        "BR",
        "FZRA",
        "FZDZ",
        "DZ",
        "RA"
      ],
      "severityScore": 100,
      "metarRaw": "METAR EFTU 162350Z AUTO 18012KT 140V210 9999 OVC006 M02/M03 Q1026",
      "tafRaw": "TAF EFTU 162336Z 1700/1724 18012G22KT 9999 OVC007 \n  TEMPO 1700/1706 -FZRA \n  PROB40 \n  TEMPO 1700/1706 4000 -FZDZ BKN004 \n  BECMG 1706/1708 3000 -DZ BR BKN004 \n  PROB40 1710/1713 0600 FG \n  BECMG 1713/1715 24006KT 2000 \n  BECMG 1719/1721 0300 FG OVC001 \n  BECMG 1722/1724 0800 OVC002"
    },
    {
      "icao": "EGBB",
      "iata": "BHX",
      "name": "Birmingham Airport",
      "updatedAt": "162350Z",
      "visibility_m": 4000,
      "taf_visibility_m": 300,
      "worst_visibility_m": 300,
      "ceiling_ft": 2800,
      "hazards": [
        "RA",
        "FG",
        "BR",
        "SHRA"
      ],
      "severityScore": 100,
      "metarRaw": "METAR EGBB 162350Z 14010KT 4000 RA SCT009 BKN028 07/06 Q1008",
      "tafRaw": "TAF EGBB 162259Z 1700/1724 14007KT 9999 FEW012 SCT025 \n  TEMPO 1700/1707 7000 RA BKN008 \n  PROB40 \n  TEMPO 1700/1707 4000 BR BKN004 \n  PROB30 \n  TEMPO 1707/1716 8000 -SHRA \n  PROB30 \n  TEMPO 1707/1711 BKN004 \n  PROB30 \n  TEMPO 1711/1716 BKN012 \n  TEMPO 1719/1724 7000 BKN009 \n  PROB30 1719/1724 0300 FG BKN001"
    },
    {
      "icao": "EGGW",
      "iata": "LTN",
      "name": "London Luton Airport",
      "updatedAt": "162350Z",
      "visibility_m": 7000,
      "taf_visibility_m": 600,
      "worst_visibility_m": 600,
      "ceiling_ft": 100,
      "hazards": [
        "FG",
        "BR",
        "SHRA",
        "RA"
      ],
      "severityScore": 100,
      "metarRaw": "METAR EGGW 162350Z AUTO 13006KT 7000 FEW004/// SCT035/// //////TCU 05/05 Q1010",
      "tafRaw": "TAF EGGW 162258Z 1700/1724 14007KT 9999 SCT015 \n  TEMPO 1700/1706 4000 BR SHRA BKN004 \n  PROB30 1700/1702 1200 BKN001 \n  BECMG 1701/1704 BKN008 \n  PROB30 1702/1711 0600 FG BKN001 \n  BECMG 1711/1714 SCT008 \n  PROB40 \n  TEMPO 1711/1713 3000 BR BKN003 \n  TEMPO 1717/1724 6000 BKN008 \n  PROB40 1717/1724 2000 BR BKN003"
    },
    {
      "icao": "EGPD",
      "iata": "ABZ",
      "name": "Aberdeen International Airport",
      "updatedAt": "162350Z",
      "visibility_m": 4000,
      "taf_visibility_m": 300,
      "worst_visibility_m": 300,
      "ceiling_ft": 800,
      "hazards": [
        "BR",
        "FG",
        "RA",
        "SHRA",
        "DZ"
      ],
      "severityScore": 100,
      "metarRaw": "METAR EGPD 162350Z AUTO 15005KT 8000 OVC010 03/02 Q1010 TEMPO 4000 BR BKN008",
      "tafRaw": "TAF EGPD 162304Z 1700/1724 14006KT 9999 SCT012 \n  TEMPO 1700/1708 3000 BR BKN010 \n  PROB30 \n  TEMPO 1700/1708 BKN006 \n  TEMPO 1708/1721 6000 RA BKN006 \n  PROB30 \n  TEMPO 1708/1721 3000 +RA +SHRA BKN004 \n  TEMPO 1721/1724 2000 RADZ BR BKN004 \n  PROB30 \n  TEMPO 1721/1724 0300 FG BKN001"
    },
    {
      "icao": "ENGM",
      "iata": "OSL",
      "name": "Oslo-Gardermoen International Airport",
      "updatedAt": "162350Z",
      "visibility_m": 600,
      "taf_visibility_m": 500,
      "worst_visibility_m": 500,
      "ceiling_ft": 200,
      "hazards": [
        "FG",
        "FZFG",
        "BR",
        "SN",
        "RA"
      ],
      "severityScore": 100,
      "metarRaw": "METAR ENGM 162350Z 20005KT 0600 R19R/0700N R01R/0800U R19L/0600N R01L/0900U FG VV002 02/01 Q1014",
      "tafRaw": "TAF ENGM 162300Z 1700/1724 VRB03KT 0500 FG VV002 \n  TEMPO 1700/1721 4000 BR \n  BECMG 1702/1704 FZFG \n  TEMPO 1721/1724 4000 -RASN BR BKN005"
    },
    {
      "icao": "ENTO",
      "iata": "TRF",
      "name": "Sandefjord Airport, Torp",
      "updatedAt": "162350Z",
      "visibility_m": 10000,
      "taf_visibility_m": 700,
      "worst_visibility_m": 700,
      "ceiling_ft": 100,
      "hazards": [
        "FZFG",
        "FG",
        "BR",
        "DZ"
      ],
      "severityScore": 100,
      "metarRaw": "METAR ENTO 162350Z AUTO 22012KT 9999 NCD 03/03 Q1016",
      "tafRaw": "TAF ENTO 162300Z 1700/1724 24005KT 9999 FEW008 \n  PROB30 1700/1702 0800 FG VV002 \n  PROB30 1702/1706 0800 FZFG VV002 \n  BECMG 1712/1715 01010KT 4000 -DZ BR BKN004 \n  PROB40 1715/1724 0700 FG VV001"
    },
    {
      "icao": "EPGD",
      "iata": "GDN",
      "name": "Gdańsk Lech Wałęsa Airport",
      "updatedAt": "162330Z",
      "visibility_m": 1100,
      "taf_visibility_m": 350,
      "worst_visibility_m": 350,
      "ceiling_ft": 100,
      "hazards": [
        "BR",
        "FZFG",
        "FG"
      ],
      "severityScore": 100,
      "metarRaw": "METAR EPGD 162330Z 17009KT 1100 R29/1500N BR OVC001 M03/M03 Q1026",
      "tafRaw": "TAF EPGD 162330Z 1700/1724 17010KT 0800 FZFG OVC002 \n  TEMPO 1700/1708 0350 FZFG OVC001 \n  BECMG 1709/1712 6000 NSW BKN005 \n  BECMG 1712/1714 BKN012 \n  BECMG 1714/1717 SCT015"
    },
    {
      "icao": "EPKK",
      "iata": "KRK",
      "name": "Kraków John Paul II International Airport",
      "updatedAt": "162330Z",
      "visibility_m": 2000,
      "taf_visibility_m": 600,
      "worst_visibility_m": 600,
      "ceiling_ft": 300,
      "hazards": [
        "BR",
        "FZFG",
        "FG"
      ],
      "severityScore": 100,
      "metarRaw": "METAR EPKK 162330Z 07009KT 2000 BR OVC003 M02/M03 Q1027",
      "tafRaw": "TAF EPKK 162330Z 1700/1724 06008KT 3200 BR OVC003 \n  TEMPO 1700/1708 1200 BR OVC001 \n  PROB40 \n  TEMPO 1700/1708 0600 FZFG \n  BECMG 1708/1711 6000 BKN010 \n  BECMG 1711/1713 CAVOK \n  TEMPO 1717/1724 4000 BR"
    },
    {
      "icao": "EPKT",
      "iata": "KTW",
      "name": "Katowice Wojciech Korfanty International Airport",
      "updatedAt": "162330Z",
      "visibility_m": 2200,
      "taf_visibility_m": 300,
      "worst_visibility_m": 300,
      "ceiling_ft": 300,
      "hazards": [
        "BR",
        "FZFG",
        "FG"
      ],
      "severityScore": 100,
      "metarRaw": "METAR EPKT 162330Z 10004KT 2200 BR OVC003 M00/M00 Q1026",
      "tafRaw": "TAF EPKT 162330Z 1700/1724 11006KT 0300 FZFG OVC001 \n  TEMPO 1700/1707 2000 BR OVC005 \n  BECMG 1707/1710 3000 BR BKN007 \n  BECMG 1710/1712 CAVOK"
    },
    {
      "icao": "EPPO",
      "iata": "POZ",
      "name": "Poznań-Ławica Airport",
      "updatedAt": "162330Z",
      "visibility_m": 450,
      "taf_visibility_m": 300,
      "worst_visibility_m": 300,
      "ceiling_ft": 200,
      "hazards": [
        "FG",
        "FZFG",
        "BR"
      ],
      "severityScore": 100,
      "metarRaw": "METAR EPPO 162330Z 11010KT 0450 R28/1300N FG VV002 01/01 Q1025",
      "tafRaw": "TAF EPPO 162330Z 1700/1724 12010KT 1400 BR OVC002 \n  TEMPO 1700/1707 0300 FG OVC000 \n  BECMG 1710/1712 4000 BR OVC005 \n  BECMG 1715/1717 SCT008 \n  BECMG 1721/1724 2700 BR BKN004 \n  PROB40 \n  TEMPO 1722/1724 0500 FZFG BKN001"
    },
    {
      "icao": "EPSC",
      "iata": "SZZ",
      "name": "Solidarity Szczecin–Goleniów Airport",
      "updatedAt": "162330Z",
      "visibility_m": 800,
      "taf_visibility_m": 400,
      "worst_visibility_m": 400,
      "ceiling_ft": 200,
      "hazards": [
        "FG",
        "BR"
      ],
      "severityScore": 100,
      "metarRaw": "METAR EPSC 162330Z 13011KT 0800 R31/1600D FG OVC002 02/02 Q1024",
      "tafRaw": "TAF EPSC 162330Z 1700/1724 13011KT 0800 FG OVC002 \n  TEMPO 1700/1708 0400 FG OVC001 \n  BECMG 1709/1712 6000 BKN007 \n  PROB40 1712/1715 SCT007 \n  PROB40 1715/1724 3000 BR BKN004"
    },
    {
      "icao": "EPWR",
      "iata": "WRO",
      "name": "Copernicus Wrocław Airport",
      "updatedAt": "162330Z",
      "visibility_m": 150,
      "taf_visibility_m": 300,
      "worst_visibility_m": 150,
      "ceiling_ft": 100,
      "hazards": [
        "FG",
        "FZFG",
        "BR"
      ],
      "severityScore": 100,
      "metarRaw": "METAR EPWR 162330Z 12007KT 0150 R29/0900N FG OVC001 01/01 Q1024",
      "tafRaw": "TAF EPWR 162330Z 1700/1724 10005KT 0500 FG OVC002 \n  TEMPO 1700/1709 0300 FZFG OVC000 \n  BECMG 1709/1711 9999 BKN008 \n  PROB40 1711/1718 SCT008 \n  BECMG 1717/1720 4000 BR \n  BECMG 1720/1722 2500 BR \n  TEMPO 1720/1724 0500 FG BKN002"
    },
    {
      "icao": "ESGG",
      "iata": "GOT",
      "name": "Göteborg Landvetter Airport",
      "updatedAt": "162350Z",
      "visibility_m": 10000,
      "taf_visibility_m": 200,
      "worst_visibility_m": 200,
      "ceiling_ft": 500,
      "hazards": [
        "FG",
        "BR"
      ],
      "severityScore": 100,
      "metarRaw": "METAR ESGG 162350Z 20007KT 9999 BKN005 OVC008 03/03 Q1020",
      "tafRaw": "TAF ESGG 162330Z 1700/1724 18008KT 9999 BKN006 \n  PROB40 1700/1711 0200 FG VV002 \n  PROB40 1711/1718 1200 BR OVC002 \n  PROB40 1718/1724 0300 FG VV002"
    },
    {
      "icao": "ESKN",
      "iata": "NYO",
      "name": "Stockholm Skavsta Airport",
      "updatedAt": "162350Z",
      "visibility_m": 250,
      "taf_visibility_m": 300,
      "worst_visibility_m": 250,
      "ceiling_ft": 200,
      "hazards": [
        "FG",
        "BR"
      ],
      "severityScore": 100,
      "metarRaw": "METAR ESKN 162350Z 14006KT 110V180 0250 R08/1600D R26/0900N FG OVC002 02/02 Q1021",
      "tafRaw": "TAF ESKN 162330Z 1700/1724 16006KT 0300 FG VV002 \n  TEMPO 1700/1724 3000 BR"
    },
    {
      "icao": "ESMS",
      "iata": "MMX",
      "name": "Malmö Sturup Airport",
      "updatedAt": "162350Z",
      "visibility_m": 150,
      "taf_visibility_m": 100,
      "worst_visibility_m": 100,
      "ceiling_ft": 200,
      "hazards": [
        "FG",
        "FZFG",
        "BR"
      ],
      "severityScore": 100,
      "metarRaw": "METAR ESMS 162350Z 11005KT 0150 R17/0800N R35/0750N FG VV002 03/03 Q1022",
      "tafRaw": "TAF ESMS 162327Z 1700/1724 15010KT 0100 FZFG VV001 \n  TEMPO 1700/1701 2000 BR SCT004 \n  BECMG 1701/1703 0500 FG BKN002 \n  TEMPO 1703/1710 3000 BR BKN005 \n  BECMG 1710/1712 2000 BR \n  TEMPO 1712/1724 6000 NSW BKN010"
    },
    {
      "icao": "LFBD",
      "iata": "BOD",
      "name": "Bordeaux–Mérignac Airport",
      "updatedAt": "162330Z",
      "visibility_m": 1500,
      "taf_visibility_m": 500,
      "worst_visibility_m": 500,
      "ceiling_ft": 100,
      "hazards": [
        "FG",
        "BR",
        "SHRA",
        "RA"
      ],
      "severityScore": 100,
      "metarRaw": "METAR LFBD 162330Z AUTO 16006KT CAVOK 08/07 Q1011 TEMPO 1500 MIFG",
      "tafRaw": "TAF LFBD 162300Z 1700/1806 16005KT CAVOK TX09/1713Z TN05/1705Z \n  TEMPO 1700/1710 1500 MIFG \n  BECMG 1707/1709 VRB03KT \n  TEMPO 1712/1717 4500 -SHRA BKN035TCU \n  BECMG 1714/1716 36005KT \n  BECMG 1717/1718 2500 BR BKN002 \n  BECMG 1719/1721 1200 BR BKN001 \n  BECMG 1723/1801 VRB03KT \n  TEMPO 1801/1806 0500 FG VV///"
    },
    {
      "icao": "LHBP",
      "iata": "BUD",
      "name": "Budapest Liszt Ferenc International Airport",
      "updatedAt": "162330Z",
      "visibility_m": 4500,
      "taf_visibility_m": 700,
      "worst_visibility_m": 700,
      "ceiling_ft": 2300,
      "hazards": [
        "BR",
        "FG",
        "FZRA",
        "RA",
        "DZ"
      ],
      "severityScore": 100,
      "metarRaw": "METAR LHBP 162330Z 08005KT 050V110 4500 BR FEW004 OVC023 02/01 Q1028 NOSIG",
      "tafRaw": "TAF LHBP 162315Z 1700/1724 08006KT 5000 BR SCT004 OVC015 \n  TEMPO 1700/1707 0700 -DZRA FG OVC002 \n  PROB30 \n  TEMPO 1703/1707 -FZRA \n  BECMG 1707/1710 9999 NSW BKN030 \n  TEMPO 1710/1715 4000 BR BKN008 \n  BECMG 1715/1718 CAVOK"
    },
    {
      "icao": "LHDC",
      "iata": "DEB",
      "name": "Debrecen International Airport",
      "updatedAt": "162315Z",
      "visibility_m": 700,
      "taf_visibility_m": 700,
      "worst_visibility_m": 700,
      "ceiling_ft": 300,
      "hazards": [
        "FG",
        "SHRA",
        "RA",
        "BR",
        "DZ"
      ],
      "severityScore": 100,
      "metarRaw": "METAR LHDC 162315Z AUTO 07003KT 0700 R04/0800U -SHRA FG VV003 02/01 Q1029",
      "tafRaw": "TAF LHDC 161415Z 1615/1624 07005KT 8000 OVC035 \n  TEMPO 1615/1617 2500 -DZ BR OVC008 \n  PROB40 \n  TEMPO 1617/1624 0700 -DZ FG VV002"
    },
    {
      "icao": "LIBP",
      "iata": "PSR",
      "name": "Abruzzo Airport",
      "updatedAt": "162350Z",
      "visibility_m": 5000,
      "taf_visibility_m": 300,
      "worst_visibility_m": 300,
      "ceiling_ft": 200,
      "hazards": [
        "BR",
        "FG"
      ],
      "severityScore": 100,
      "metarRaw": "METAR LIBP 162350Z AUTO 22003KT 5000 BR OVC003/// 07/07 Q1022",
      "tafRaw": "TAF LIBP 162300Z 1700/1724 VRB03KT 0300 FG OVC002 \n  TEMPO 1700/1706 1500 BR BKN010 \n  BECMG 1706/1708 6000 SCT020 \n  BECMG 1718/1720 2000 BR"
    },
    {
      "icao": "LIPE",
      "iata": "BLQ",
      "name": "Bologna Guglielmo Marconi Airport",
      "updatedAt": "162350Z",
      "visibility_m": 1200,
      "taf_visibility_m": 300,
      "worst_visibility_m": 300,
      "ceiling_ft": 300,
      "hazards": [
        "BR",
        "FG"
      ],
      "severityScore": 100,
      "metarRaw": "METAR LIPE 162350Z 05003KT 020V080 1200 R12/P2000N R30/P2000N BR BKN003 07/07 Q1022",
      "tafRaw": "TAF LIPE 162300Z 1700/1724 VRB04KT 2000 BR BKN020 \n  TEMPO 1700/1709 0300 FG OVC003 \n  TEMPO 1718/1724 0300 FG OVC003"
    },
    {
      "icao": "LIPR",
      "iata": "RMI",
      "name": "Federico Fellini International Airport",
      "updatedAt": "162350Z",
      "visibility_m": 2300,
      "taf_visibility_m": 300,
      "worst_visibility_m": 300,
      "ceiling_ft": 300,
      "hazards": [
        "BR",
        "FG"
      ],
      "severityScore": 100,
      "metarRaw": "METAR LIPR 162350Z AUTO 26003KT 2300 BR OVC006/// 07/06 Q1022",
      "tafRaw": "TAF LIPR 162300Z 1700/1724 VRB04KT 0300 FG OVC003 \n  BECMG 1706/1708 6000 SCT020 \n  BECMG 1717/1719 3000 BR \n  TEMPO 1721/1724 0300 FG"
    },
    {
      "icao": "LIPY",
      "iata": "AOI",
      "name": "Marche Airport",
      "updatedAt": "162350Z",
      "visibility_m": 2300,
      "taf_visibility_m": 300,
      "worst_visibility_m": 300,
      "ceiling_ft": 100,
      "hazards": [
        "BR",
        "FG"
      ],
      "severityScore": 100,
      "metarRaw": "METAR LIPY 162350Z AUTO VRB01KT 2300 BR OVC006/// 09/08 Q1022",
      "tafRaw": "TAF LIPY 162300Z 1700/1724 VRB05KT 0300 FG OVC001 \n  BECMG 1708/1710 3000 BR BKN006 \n  BECMG 1718/1720 0300 FG OVC001"
    },
    {
      "icao": "LKMT",
      "iata": "OSR",
      "name": "Ostrava Leos Janáček Airport",
      "updatedAt": "162330Z",
      "visibility_m": 400,
      "taf_visibility_m": 300,
      "worst_visibility_m": 300,
      "ceiling_ft": 200,
      "hazards": [
        "FZFG",
        "FG",
        "BR"
      ],
      "severityScore": 100,
      "metarRaw": "METAR LKMT 162330Z 07003KT 0400 R22/0550N R04/0550N FZFG VV002 M00/M00 Q1025 NOSIG",
      "tafRaw": "TAF LKMT 162300Z 1700/1724 VRB02KT 0300 FZFG VV002 \n  TEMPO 1700/1706 0800 FG \n  PROB30 \n  TEMPO 1700/1708 1500 BR BKN005 \n  TEMPO 1710/1715 6000 NSC \n  TEMPO 1715/1718 2000 BR BKN003"
    },
    {
      "icao": "LKPR",
      "iata": "PRG",
      "name": "Václav Havel Airport Prague",
      "updatedAt": "162330Z",
      "visibility_m": 10000,
      "taf_visibility_m": 500,
      "worst_visibility_m": 500,
      "ceiling_ft": 800,
      "hazards": [
        "FG",
        "BR",
        "DZ"
      ],
      "severityScore": 100,
      "metarRaw": "METAR LKPR 162330Z 10007KT 070V140 9999 OVC008 01/M00 Q1023 NOSIG",
      "tafRaw": "TAF LKPR 162300Z 1700/1806 11005KT 4000 BR OVC007 \n  TEMPO 1700/1703 1500 BR BKN004 \n  BECMG 1703/1705 0900 FG BKN003 \n  TEMPO 1705/1708 0500 -DZ FG BKN002 \n  BECMG 1708/1710 5000 BR SCT003 BKN008 \n  BECMG 1711/1713 8000 BKN012 \n  BECMG 1716/1718 13010KT 9999 SCT012 \n  BECMG 1720/1722 CAVOK"
    },
    {
      "icao": "LOWW",
      "iata": "VIE",
      "name": "Vienna International Airport",
      "updatedAt": "162350Z",
      "visibility_m": 500,
      "taf_visibility_m": 500,
      "worst_visibility_m": 500,
      "ceiling_ft": 100,
      "hazards": [
        "FG",
        "BR",
        "FZDZ",
        "DZ"
      ],
      "severityScore": 100,
      "metarRaw": "METAR LOWW 162350Z 15005KT 0600 R16/0700N R29/0650N FG VV001 00/M00 Q1025 TEMPO 0500 FG",
      "tafRaw": "TAF LOWW 162315Z 1700/1806 14010KT 3000 BR SCT001 OVC002 TX01/1713Z TNM02/1806Z \n  TEMPO 1700/1701 0500 -FZDZ FG OVC001 \n  TEMPO 1701/1706 0500 -DZ FG OVC001 \n  BECMG 1708/1710 OVC005 \n  BECMG 1710/1712 9999 BKN010 \n  TEMPO 1714/1718 SCT012 BKN040 \n  FM171800 13010KT 9999 FEW010 SCT030"
    },
    {
      "icao": "LPPR",
      "iata": "OPO",
      "name": "Francisco de Sá Carneiro Airport",
      "updatedAt": "162330Z",
      "visibility_m": 1100,
      "taf_visibility_m": 400,
      "worst_visibility_m": 400,
      "ceiling_ft": 600,
      "hazards": [
        "FG",
        "RA",
        "DZ"
      ],
      "severityScore": 100,
      "metarRaw": "METAR LPPR 162330Z 11009KT 1100 0600S R17/0900N -DZRA PRFG SCT001 BKN006 FEW020CB 06/05 Q1014",
      "tafRaw": "TAF LPPR 162300Z 1700/1724 VRB02KT 9999 FEW008 BKN020 \n  TEMPO 1700/1724 5000 RA BKN012 FEW020CB \n  PROB40 \n  TEMPO 1700/1708 0400 FG BKN001 \n  BECMG 1715/1717 30007KT \n  BECMG 1722/1723 05005KT"
    },
    {
      "icao": "LQBK",
      "iata": "BNX",
      "name": "Banja Luka International Airport",
      "updatedAt": "162330Z",
      "visibility_m": 8000,
      "taf_visibility_m": 400,
      "worst_visibility_m": 400,
      "ceiling_ft": 200,
      "hazards": [
        "FG",
        "BR"
      ],
      "severityScore": 100,
      "metarRaw": "METAR LQBK 162330Z 14001KT 8000 NSC 03/02 Q1024 NOSIG",
      "tafRaw": "TAF LQBK 162300Z 1700/1724 33006KT CAVOK TX05/1714Z TNM00/1706Z \n  TEMPO 1700/1710 3000 BR BKN005 \n  PROB40 \n  TEMPO 1701/1709 0400 FG BKN002 \n  TEMPO 1709/1724 BKN015"
    },
    {
      "icao": "LQSA",
      "iata": "SJJ",
      "name": "Sarajevo International Airport",
      "updatedAt": "162330Z",
      "visibility_m": 300,
      "taf_visibility_m": 300,
      "worst_visibility_m": 300,
      "ceiling_ft": 300,
      "hazards": [
        "FZFG",
        "FG",
        "BR"
      ],
      "severityScore": 100,
      "metarRaw": "METAR LQSA 162330Z 23002KT 0300 R11/0175N FZFG VV003 M04/M04 Q1024",
      "tafRaw": "TAF LQSA 162300Z 1700/1724 VRB02KT 2500 BR SCT005 TX03/1714Z TNM04/1705Z \n  TEMPO 1700/1709 0300 FZFG BKN002 \n  TEMPO 1710/1719 6000 NSW \n  PROB40 1721/1724 0500 FZFG BKN003"
    },
    {
      "icao": "UAAA",
      "iata": "ALA",
      "name": "Almaty International Airport",
      "updatedAt": "162353Z",
      "visibility_m": 5000,
      "taf_visibility_m": 800,
      "worst_visibility_m": 800,
      "ceiling_ft": 3300,
      "hazards": [
        "BR",
        "SN",
        "FZFG",
        "SHSN",
        "FG"
      ],
      "severityScore": 100,
      "metarRaw": "SPECI UAAA 162353Z 26005MPS 5000 -SN BR OVC033 M17/M20 Q1027 NOSIG",
      "tafRaw": "TAF UAAA 162300Z 1700/1724 28004MPS 3100 BR BKN011CB OVC020 TXM15/1708Z TNM18/1703Z \n  TEMPO 1700/1705 0800 SHSN FZFG BKN003 OVC011CB \n  FM170700 30003MPS 6000 BKN020CB OVC050 \n  TEMPO 1707/1715 35003G08MPS 3100 -SHSN BR BKN005 BKN011CB OVC020 \n  FM171500 34003MPS 3100 BR BKN011CB OVC020 \n  TEMPO 1715/1724 0800 -SN FZFG VV003"
    },
    {
      "icao": "UDYZ",
      "iata": "EVN",
      "name": "Zvartnots International Airport",
      "updatedAt": "162330Z",
      "visibility_m": 5000,
      "taf_visibility_m": 600,
      "worst_visibility_m": 600,
      "ceiling_ft": 200,
      "hazards": [
        "BR",
        "FZFG",
        "FG"
      ],
      "severityScore": 100,
      "metarRaw": "METAR UDYZ 162330Z 25004KT 5000 BR NSC M06/M08 Q1022 NOSIG",
      "tafRaw": "TAF UDYZ 162300Z 1700/1724 VRB04KT 3500 BR NSC \n  TEMPO 1700/1706 0600 FZFG VV002"
    },
    {
      "icao": "EDDB",
      "iata": "BER",
      "name": "Berlin Brandenburg Airport",
      "updatedAt": "162350Z",
      "visibility_m": 4000,
      "taf_visibility_m": 700,
      "worst_visibility_m": 700,
      "ceiling_ft": 100,
      "hazards": [
        "BR",
        "FG"
      ],
      "severityScore": 90,
      "metarRaw": "METAR EDDB 162350Z AUTO 10006KT 7000 NCD M01/M01 Q1022 TEMPO 4000 BR",
      "tafRaw": "TAF EDDB 162300Z 1700/1724 11007KT CAVOK \n  TEMPO 1700/1707 2000 BR \n  BECMG 1705/1708 4000 BR BKN003 \n  PROB30 \n  TEMPO 1707/1710 0700 FG BKN001 \n  PROB40 \n  TEMPO 1710/1724 2000 BR"
    },
    {
      "icao": "EKCH",
      "iata": "CPH",
      "name": "Copenhagen Kastrup Airport",
      "updatedAt": "162350Z",
      "visibility_m": 2000,
      "taf_visibility_m": 600,
      "worst_visibility_m": 600,
      "ceiling_ft": 200,
      "hazards": [
        "BR",
        "FG"
      ],
      "severityScore": 90,
      "metarRaw": "METAR EKCH 162350Z 11003KT 4000 MIFG BR NSC 03/03 Q1022 BECMG 2000",
      "tafRaw": "TAF EKCH 162327Z 1700/1724 15010KT 6000 BKN030 \n  TEMPO 1700/1701 0700 BCFG \n  BECMG 1701/1704 3000 BR BKN005 \n  BECMG 1704/1706 0600 FG BKN002 \n  BECMG 1707/1709 2000 BR BKN006 \n  TEMPO 1709/1724 6000 NSW BKN003"
    },
    {
      "icao": "LIPX",
      "iata": "VRN",
      "name": "Verona Villafranca Valerio Catullo Airport",
      "updatedAt": "162350Z",
      "visibility_m": 2500,
      "taf_visibility_m": 500,
      "worst_visibility_m": 500,
      "ceiling_ft": 700,
      "hazards": [
        "BR",
        "FG"
      ],
      "severityScore": 90,
      "metarRaw": "METAR LIPX 162350Z 33002KT 2500 BR BKN007 BKN070 06/06 Q1022",
      "tafRaw": "TAF LIPX 162300Z 1700/1724 VRB04KT 2000 BR BKN012 \n  TEMPO 1700/1706 0500 FG \n  BECMG 1707/1709 6000 SCT025"
    },
    {
      "icao": "LQTZ",
      "iata": "TZL",
      "name": "Tuzla International Airport",
      "updatedAt": "162330Z",
      "visibility_m": 750,
      "taf_visibility_m": null,
      "worst_visibility_m": 750,
      "ceiling_ft": null,
      "hazards": [
        "FZFG",
        "FG"
      ],
      "severityScore": 80,
      "metarRaw": "METAR LQTZ 162330Z VRB02KT 0750 R09/0800N FZFG NSC M01/M01 Q1024",
      "tafRaw": null
    },
    {
      "icao": "LIBR",
      "iata": "BDS",
      "name": "Brindisi Airport",
      "updatedAt": "162350Z",
      "visibility_m": 10000,
      "taf_visibility_m": 400,
      "worst_visibility_m": 400,
      "ceiling_ft": 1000,
      "hazards": [
        "BR",
        "FG"
      ],
      "severityScore": 77,
      "metarRaw": "METAR LIBR 162350Z VRB02KT CAVOK 11/10 Q1020",
      "tafRaw": "TAF LIBR 162300Z 1700/1724 VRB05KT 3000 BR BKN010 \n  TEMPO 1700/1707 0400 BCFG \n  BECMG 1707/1709 8000 SCT020 \n  TEMPO 1718/1724 3000 BR"
    },
    {
      "icao": "LEBL",
      "iata": "BCN",
      "name": "Josep Tarradellas Barcelona-El Prat Airport",
      "updatedAt": "162330Z",
      "visibility_m": 9000,
      "taf_visibility_m": 2000,
      "worst_visibility_m": 2000,
      "ceiling_ft": 3500,
      "hazards": [
        "TSRA",
        "SHRA",
        "TS",
        "RA"
      ],
      "severityScore": 76,
      "metarRaw": "METAR LEBL 162330Z 05003KT 9000 FEW020 BKN035 BKN050 12/11 Q1013 NOSIG",
      "tafRaw": "TAF LEBL 162300Z 1700/1724 VRB04KT 9000 FEW020 SCT050 TX13/1712Z TN09/1706Z \n  TEMPO 1700/1704 33008KT \n  BECMG 1703/1705 11012KT \n  TEMPO 1707/1718 12015G25KT \n  TEMPO 1700/1724 3000 SHRA BKN015 SCT020TCU \n  PROB40 \n  TEMPO 1700/1724 2000 TSRA BKN015 SCT020CB"
    },
    {
      "icao": "LFSB",
      "iata": "BSL",
      "name": "EuroAirport Basel–Mulhouse–Freiburg",
      "updatedAt": "162330Z",
      "visibility_m": 10000,
      "taf_visibility_m": 300,
      "worst_visibility_m": 300,
      "ceiling_ft": null,
      "hazards": [
        "FG",
        "BR"
      ],
      "severityScore": 75,
      "metarRaw": "METAR LFSB 162330Z AUTO 21004KT 170V230 CAVOK 06/03 Q1017 NOSIG",
      "tafRaw": "TAF LFSB 162300Z 1700/1724 16003KT CAVOK \n  BECMG 1718/1721 3000 BR \n  BECMG 1721/1724 0300 FG VV///"
    },
    {
      "icao": "LIMF",
      "iata": "TRN",
      "name": "Turin Airport",
      "updatedAt": "162350Z",
      "visibility_m": 400,
      "taf_visibility_m": 600,
      "worst_visibility_m": 400,
      "ceiling_ft": 4000,
      "hazards": [
        "FG",
        "RA"
      ],
      "severityScore": 67,
      "metarRaw": "METAR LIMF 162350Z VRB01KT 0400 R36/1900D -RA FG FEW002 OVC040 06/05 Q1022",
      "tafRaw": "TAF LIMF 162300Z 1700/1724 VRB03KT 2500 -RA OVC040 \n  TEMPO 1700/1707 0600 FG"
    },
    {
      "icao": "LIPQ",
      "iata": "TRS",
      "name": "Trieste–Friuli Venezia Giulia Airport",
      "updatedAt": "162350Z",
      "visibility_m": 1800,
      "taf_visibility_m": 800,
      "worst_visibility_m": 800,
      "ceiling_ft": 1000,
      "hazards": [
        "BR",
        "FG"
      ],
      "severityScore": 67,
      "metarRaw": "METAR LIPQ 162350Z AUTO VRB01KT 1800 BR OVC005/// 08/08 Q1023",
      "tafRaw": "TAF LIPQ 162300Z 1700/1724 VRB04KT 2500 BR BKN020 \n  TEMPO 1700/1706 0800 FG OVC010 \n  BECMG 1707/1709 7000"
    },
    {
      "icao": "LZIB",
      "iata": "BTS",
      "name": "M. R. Štefánik Airport",
      "updatedAt": "162330Z",
      "visibility_m": 1400,
      "taf_visibility_m": 1400,
      "worst_visibility_m": 1400,
      "ceiling_ft": 100,
      "hazards": [
        "BR",
        "DZ"
      ],
      "severityScore": 65,
      "metarRaw": "METAR LZIB 162330Z 06007KT 2600 -DZ BR OVC002 01/01 Q1026 TEMPO 1400 DZ BR OVC001",
      "tafRaw": "TAF LZIB 162315Z 1700/1800 06006KT 6000 OVC016 \n  TEMPO 1700/1708 1400 DZ BR OVC001 \n  BECMG 1708/1710 11008KT 5000 BR FEW005 BKN010 \n  BECMG 1710/1712 9999 SCT010 BKN033 \n  TEMPO 1722/1800 3000 BR BKN012"
    },
    {
      "icao": "OJAI",
      "iata": "AMM",
      "name": "Queen Alia International Airport",
      "updatedAt": "162300Z",
      "visibility_m": 2500,
      "taf_visibility_m": 500,
      "worst_visibility_m": 500,
      "ceiling_ft": null,
      "hazards": [
        "BR",
        "FG"
      ],
      "severityScore": 65,
      "metarRaw": "METAR OJAI 162300Z 04002KT 2500 BR NSC 05/04 Q1020 NOSIG",
      "tafRaw": "TAF OJAI 162256Z 1700/1806 16006KT 3000 BR FEW035 \n  PROB30 1700/1707 VRB02KT 0500 FG \n  BECMG 1707/1709 27012KT 5000 HZ"
    },
    {
      "icao": "LTFM",
      "iata": "IST",
      "name": "İstanbul Airport",
      "updatedAt": "162350Z",
      "visibility_m": 10000,
      "taf_visibility_m": 2800,
      "worst_visibility_m": 2800,
      "ceiling_ft": 2800,
      "hazards": [
        "BR",
        "SHRA",
        "SHSN",
        "SN",
        "RA"
      ],
      "severityScore": 64,
      "metarRaw": "METAR LTFM 162350Z 03018KT 9999 SCT014 BKN028 03/M03 Q1028 NOSIG",
      "tafRaw": "TAF LTFM 162240Z 1700/1806 03018KT 9999 -SHRA SCT010 BKN022 \n  TEMPO 1700/1704 -SHRASN BKN008 BKN020 \n  BECMG 1715/1718 -SHSNRA \n  PROB40 \n  TEMPO 1718/1721 4000 -SHSN BKN006 BKN020 \n  PROB40 \n  TEMPO 1723/1802 2800 -SHSN BR BKN006 BKN020"
    },
    {
      "icao": "LUKK",
      "iata": "RMO",
      "name": "Chişinău International Airport",
      "updatedAt": "162330Z",
      "visibility_m": 10000,
      "taf_visibility_m": 2000,
      "worst_visibility_m": 2000,
      "ceiling_ft": 400,
      "hazards": [
        "BR",
        "SN"
      ],
      "severityScore": 63,
      "metarRaw": "METAR LUKK 162330Z VRB03KT CAVOK M12/M15 Q1034 NOSIG",
      "tafRaw": "TAF LUKK 162328Z 1700/1724 36008KT CAVOK \n  TEMPO 1702/1704 4000 BR BKN012 \n  TEMPO 1704/1707 2000 SN BR OVC004 \n  BECMG 1707/1709 BKN010 \n  TEMPO 1713/1718 3000 -SN BR OVC005"
    },
    {
      "icao": "LCLK",
      "iata": "LCA",
      "name": "Larnaca International Airport",
      "updatedAt": "162330Z",
      "visibility_m": 10000,
      "taf_visibility_m": 3000,
      "worst_visibility_m": 3000,
      "ceiling_ft": null,
      "hazards": [
        "TSRA",
        "RA",
        "TS"
      ],
      "severityScore": 62,
      "metarRaw": "METAR LCLK 162330Z 30005KT 9999 FEW030 11/10 Q1018 NOSIG",
      "tafRaw": "TAF LCLK 162330Z 1700/1800 31006KT 9999 -RA FEW030 SCT045 \n  PROB30 \n  TEMPO 1711/1800 5000 RA SCT025TCU FEW030CB \n  PROB30 \n  TEMPO 1711/1720 VRB13G23KT 3000 TSRA FEW030CB \n  BECMG 1711/1715 01011KT"
    },
    {
      "icao": "LCPH",
      "iata": "PFO",
      "name": "Paphos International Airport",
      "updatedAt": "162330Z",
      "visibility_m": 8000,
      "taf_visibility_m": 3000,
      "worst_visibility_m": 3000,
      "ceiling_ft": 5000,
      "hazards": [
        "RA",
        "TSRA",
        "TS"
      ],
      "severityScore": 62,
      "metarRaw": "METAR LCPH 162330Z 05005KT 010V080 8000 -RA SCT025 SCT040 BKN050 13/11 Q1018 NOSIG",
      "tafRaw": "TAF LCPH 162330Z 1700/1800 04007KT 8000 -RA FEW020 SCT030 BKN045 \n  PROB30 \n  TEMPO 1700/1800 5000 RA SCT025TCU FEW030CB \n  BECMG 1707/1711 31012KT \n  PROB30 \n  TEMPO 1709/1722 VRB13G23KT 3000 TSRA FEW030CB \n  BECMG 1714/1717 02007KT"
    },
    {
      "icao": "LMML",
      "iata": "MLA",
      "name": "Malta International Airport",
      "updatedAt": "162345Z",
      "visibility_m": 9000,
      "taf_visibility_m": 3000,
      "worst_visibility_m": 3000,
      "ceiling_ft": null,
      "hazards": [
        "TSRA",
        "TS",
        "RA"
      ],
      "severityScore": 62,
      "metarRaw": "METAR LMML 162345Z 19006KT 120V240 9000 -TSRA FEW011 SCT020CB 14/11 Q1015 RESHGR RESHGS RESHRA BECMG 9999 NSW FEW020",
      "tafRaw": "TAF LMML 162300Z 1700/1724 VRB06KT 9999 SCT015 \n  TEMPO 1700/1706 VRB15G25KT 6000 +TSGSRA BKN016CB \n  PROB40 \n  TEMPO 1700/1706 3000 +TSGRRA"
    },
    {
      "icao": "EGPF",
      "iata": "GLA",
      "name": "Glasgow Airport",
      "updatedAt": "162350Z",
      "visibility_m": 10000,
      "taf_visibility_m": 4000,
      "worst_visibility_m": 4000,
      "ceiling_ft": 800,
      "hazards": [
        "BR",
        "SHRA",
        "RA"
      ],
      "severityScore": 61,
      "metarRaw": "METAR EGPF 162350Z AUTO 06009KT 9999 SCT026 03/02 Q1008",
      "tafRaw": "TAF EGPF 162255Z 1700/1724 07008KT 9999 FEW030 \n  PROB30 \n  TEMPO 1700/1708 7000 SHRA BKN012 \n  PROB30 1708/1712 BKN012 \n  TEMPO 1718/1724 7000 \n  PROB30 1718/1724 4000 BR BKN008"
    },
    {
      "icao": "ENHD",
      "iata": "HAU",
      "name": "Haugesund Airport, Karmøy",
      "updatedAt": "162350Z",
      "visibility_m": 10000,
      "taf_visibility_m": 4000,
      "worst_visibility_m": 4000,
      "ceiling_ft": 700,
      "hazards": [
        "BR",
        "RA",
        "DZ"
      ],
      "severityScore": 57,
      "metarRaw": "METAR ENHD 162350Z AUTO 12010KT 9999 BKN046/// 05/04 Q1017",
      "tafRaw": "TAF ENHD 161400Z 1615/1623 34012KT 8000 -RA SCT010 BKN018 \n  TEMPO 1615/1618 4000 RADZ BR BKN007 \n  BECMG 1619/1621 VRB05KT"
    },
    {
      "icao": "LFLL",
      "iata": "LYS",
      "name": "Lyon Saint-Exupéry Airport",
      "updatedAt": "162330Z",
      "visibility_m": 10000,
      "taf_visibility_m": 600,
      "worst_visibility_m": 600,
      "ceiling_ft": 5000,
      "hazards": [
        "FG",
        "RA"
      ],
      "severityScore": 57,
      "metarRaw": "METAR LFLL 162330Z 15006KT CAVOK 08/04 Q1015 NOSIG",
      "tafRaw": "TAF LFLL 162300Z 1700/1806 14008KT CAVOK \n  PROB40 \n  TEMPO 1712/1716 RA BKN050 \n  BECMG 1717/1719 VRB03KT \n  PROB40 \n  TEMPO 1719/1724 0800 BCFG VV/// \n  TEMPO 1800/1806 0600 FG VV///"
    },
    {
      "icao": "LIMC",
      "iata": "MXP",
      "name": "Milan Malpensa International Airport",
      "updatedAt": "162350Z",
      "visibility_m": 2000,
      "taf_visibility_m": 1200,
      "worst_visibility_m": 1200,
      "ceiling_ft": 500,
      "hazards": [
        "BR",
        "RA"
      ],
      "severityScore": 57,
      "metarRaw": "METAR LIMC 162350Z 07004KT 2000 -RA BR OVC005 07/06 Q1022 NOSIG",
      "tafRaw": "TAF LIMC 162300Z 1700/1806 VRB03KT 3000 BR BKN020 \n  TEMPO 1700/1724 1200 -RA BKN005"
    },
    {
      "icao": "EDSB",
      "iata": "FKB",
      "name": "Karlsruhe Baden-Baden Airport",
      "updatedAt": "162350Z",
      "visibility_m": 10000,
      "taf_visibility_m": 1500,
      "worst_visibility_m": 1500,
      "ceiling_ft": 400,
      "hazards": [
        "BR"
      ],
      "severityScore": 55,
      "metarRaw": "METAR EDSB 162350Z AUTO VRB02KT 9999 // BKN120/// 01/01 Q1017",
      "tafRaw": "TAF EDSB 162300Z 1700/1724 VRB03KT CAVOK \n  PROB30 \n  TEMPO 1700/1705 2500 BR \n  TEMPO 1705/1712 1500 BR BKN005 \n  BECMG 1706/1709 02005KT \n  TEMPO 1720/1724 2000 BR BKN004"
    },
    {
      "icao": "EKBI",
      "iata": "BLL",
      "name": "Billund Airport",
      "updatedAt": "162350Z",
      "visibility_m": 10000,
      "taf_visibility_m": 1200,
      "worst_visibility_m": 1200,
      "ceiling_ft": 200,
      "hazards": [
        "BR"
      ],
      "severityScore": 55,
      "metarRaw": "METAR EKBI 162350Z AUTO 10004KT 9999 FEW020/// BKN130/// 04/04 Q1020",
      "tafRaw": "TAF EKBI 162327Z 1700/1724 12005KT 9000 BKN020 \n  TEMPO 1700/1706 BKN012 \n  BECMG 1706/1708 1200 BR VV002 \n  TEMPO 1708/1724 6000 NSW BKN006"
    },
    {
      "icao": "ENTC",
      "iata": "TOS",
      "name": "Tromsø Airport, Langnes",
      "updatedAt": "162350Z",
      "visibility_m": 10000,
      "taf_visibility_m": 1800,
      "worst_visibility_m": 1800,
      "ceiling_ft": 800,
      "hazards": [
        "SN",
        "RA"
      ],
      "severityScore": 55,
      "metarRaw": "METAR ENTC 162350Z AUTO VRB01KT 9999 NCD M08/M09 Q1013 RMK WIND 2600FT 18010KT",
      "tafRaw": "TAF ENTC 162300Z 1700/1724 02005KT CAVOK \n  TEMPO 1721/1724 20015G25KT 1800 SNRA BKN008"
    },
    {
      "icao": "ESSA",
      "iata": "ARN",
      "name": "Stockholm-Arlanda Airport",
      "updatedAt": "162350Z",
      "visibility_m": 1500,
      "taf_visibility_m": 1000,
      "worst_visibility_m": 1000,
      "ceiling_ft": 300,
      "hazards": [
        "BR"
      ],
      "severityScore": 55,
      "metarRaw": "METAR ESSA 162350Z 17012KT 1500 BR OVC003 02/02 Q1021 NOSIG",
      "tafRaw": "TAF ESSA 162330Z 1700/1724 17012KT 3000 BR OVC003 \n  TEMPO 1700/1724 1000 \n  BECMG 1705/1707 23007KT"
    },
    {
      "icao": "HESX",
      "iata": "SPX",
      "name": "Sphinx International Airport",
      "updatedAt": "162300Z",
      "visibility_m": 10000,
      "taf_visibility_m": 800,
      "worst_visibility_m": 800,
      "ceiling_ft": null,
      "hazards": [
        "FG",
        "BR"
      ],
      "severityScore": 55,
      "metarRaw": "METAR HESX 162300Z 02004KT CAVOK 11/08 Q1020 NOSIG",
      "tafRaw": "TAF HESX 162310Z 1700/1806 02007KT CAVOK \n  TEMPO 1700/1707 VRB03KT 3000 BR NSC \n  TEMPO 1702/1707 2000 \n  PROB30 \n  TEMPO 1703/1707 0800 FG \n  BECMG 1708/1710 35010KT 6000 NSC"
    },
    {
      "icao": "LFOB",
      "iata": "BVA",
      "name": "Beauvais Tillé airport",
      "updatedAt": "162330Z",
      "visibility_m": 4000,
      "taf_visibility_m": 600,
      "worst_visibility_m": 600,
      "ceiling_ft": 4900,
      "hazards": [
        "BR",
        "FG"
      ],
      "severityScore": 55,
      "metarRaw": "METAR LFOB 162330Z AUTO VRB01KT 7000 FEW008 BKN049 OVC110 07/07 Q1013 BECMG 4000 BR",
      "tafRaw": "TAF LFOB 162300Z 1700/1724 11005KT 8000 FEW010 SCT040 \n  BECMG 1700/1703 4000 BR \n  PROB40 1703/1711 0600 FG VV/// \n  BECMG 1712/1716 9999 NSW NSC \n  PROB40 \n  TEMPO 1712/1716 OVC009"
    },
    {
      "icao": "LYPG",
      "iata": "TGD",
      "name": "Podgorica Airport / Podgorica Golubovci Airbase",
      "updatedAt": "162330Z",
      "visibility_m": 3000,
      "taf_visibility_m": 600,
      "worst_visibility_m": 600,
      "ceiling_ft": null,
      "hazards": [
        "BR",
        "FG"
      ],
      "severityScore": 55,
      "metarRaw": "METAR LYPG 162330Z VRB02KT 5000 2400S BR NSC 06/05 Q1022 TEMPO 3000",
      "tafRaw": "TAF LYPG 162300Z 1700/1724 VRB02KT 5000 BR FEW010 TX12/1713Z TN03/1705Z \n  TEMPO 1700/1707 1500 \n  PROB40 \n  TEMPO 1702/1707 0600 FG \n  BECMG 1707/1709 9999 NSW"
    },
    {
      "icao": "LBPD",
      "iata": "PDV",
      "name": "Plovdiv International Airport",
      "updatedAt": "162330Z",
      "visibility_m": 10000,
      "taf_visibility_m": 3000,
      "worst_visibility_m": 3000,
      "ceiling_ft": 400,
      "hazards": [
        "SN"
      ],
      "severityScore": 53,
      "metarRaw": "METAR LBPD 162330Z AUTO 09007KT 9999 -SN BKN029/// OVC036/// M01/M01 Q1031",
      "tafRaw": "TAF LBPD 162300Z 1700/1724 10012KT 9999 SCT010 OVC030 \n  TEMPO 1700/1702 3000 -SN BKN004 OVC012 \n  BECMG 1704/1706 9999 SCT015 BKN050"
    },
    {
      "icao": "UGKO",
      "iata": "KUT",
      "name": "David the Builder Kutaisi International Airport",
      "updatedAt": "162330Z",
      "visibility_m": 10000,
      "taf_visibility_m": 3000,
      "worst_visibility_m": 3000,
      "ceiling_ft": 1500,
      "hazards": [
        "BR",
        "SN",
        "RA"
      ],
      "severityScore": 52,
      "metarRaw": "METAR UGKO 162330Z 07010KT 9999 SCT069 02/01 Q1018 NOSIG",
      "tafRaw": "TAF UGKO 162300Z 1700/1724 09007KT 9999 BKN080 TX04/1711Z TN01/1706Z \n  TEMPO 1700/1708 3000 SNRA BR BKN015 OVC040 \n  TEMPO 1701/1704 26010KT \n  TEMPO 1714/1722 4000 SHSNRA BKN017CB OVC030"
    },
    {
      "icao": "EGGP",
      "iata": "LPL",
      "name": "Liverpool John Lennon Airport",
      "updatedAt": "162350Z",
      "visibility_m": 10000,
      "taf_visibility_m": 6000,
      "worst_visibility_m": 6000,
      "ceiling_ft": 600,
      "hazards": [
        "RA",
        "DZ"
      ],
      "severityScore": 47,
      "metarRaw": "METAR EGGP 162350Z 12011KT 9999 FEW014 06/04 Q1007",
      "tafRaw": "TAF EGGP 162301Z 1700/1724 13007KT 9999 FEW025 \n  PROB30 \n  TEMPO 1700/1701 8000 -RADZ BKN014 \n  PROB30 \n  TEMPO 1701/1707 6000 RA BKN007 \n  PROB30 \n  TEMPO 1707/1712 8000 BKN006 \n  PROB30 \n  TEMPO 1712/1715 BKN014 \n  PROB30 \n  TEMPO 1718/1722 8000 -RA BKN014 \n  TEMPO 1722/1724 7000 BKN006"
    },
    {
      "icao": "EGKK",
      "iata": "LGW",
      "name": "London Gatwick Airport",
      "updatedAt": "162350Z",
      "visibility_m": 10000,
      "taf_visibility_m": 3000,
      "worst_visibility_m": 3000,
      "ceiling_ft": 3600,
      "hazards": [
        "RA",
        "BR",
        "SHRA",
        "DZ"
      ],
      "severityScore": 46,
      "metarRaw": "METAR EGKK 162350Z 13007KT 9999 -RA FEW013 BKN036 08/08 Q1010",
      "tafRaw": "TAF EGKK 162256Z 1700/1806 14006KT 9999 FEW030 \n  TEMPO 1700/1712 6000 -RADZ BKN006 \n  PROB30 \n  TEMPO 1704/1711 4000 RADZ BR BKN004 \n  PROB40 \n  TEMPO 1712/1717 7000 -SHRA SCT007 BKN011 \n  TEMPO 1719/1806 5000 -DZ BR BKN005 \n  PROB30 \n  TEMPO 1722/1806 3000 DZ BKN003"
    },
    {
      "icao": "EDDH",
      "iata": "HAM",
      "name": "Hamburg Helmut Schmidt Airport",
      "updatedAt": "162350Z",
      "visibility_m": 10000,
      "taf_visibility_m": 4500,
      "worst_visibility_m": 4500,
      "ceiling_ft": 400,
      "hazards": [
        "DZ"
      ],
      "severityScore": 45,
      "metarRaw": "METAR EDDH 162350Z AUTO 13007KT 9999 FEW041 07/05 Q1019 NOSIG",
      "tafRaw": "TAF EDDH 162300Z 1700/1806 11005KT 9999 SCT040 \n  BECMG 1709/1711 12010KT \n  BECMG 1714/1716 BKN007 \n  PROB30 \n  TEMPO 1722/1806 4500 -DZ BKN004"
    },
    {
      "icao": "EDFH",
      "iata": "HHN",
      "name": "Frankfurt-Hahn Airport",
      "updatedAt": "162350Z",
      "visibility_m": 10000,
      "taf_visibility_m": 1200,
      "worst_visibility_m": 1200,
      "ceiling_ft": 500,
      "hazards": [
        "BR"
      ],
      "severityScore": 45,
      "metarRaw": "METAR EDFH 162350Z 14008KT 120V190 CAVOK 04/03 Q1015",
      "tafRaw": "TAF EDFH 162300Z 1700/1724 14008KT CAVOK \n  TEMPO 1704/1712 14013KT \n  PROB30 \n  TEMPO 1720/1724 1200 BR BKN005"
    },
    {
      "icao": "EDJA",
      "iata": "FMM",
      "name": "Memmingen Allgau Airport",
      "updatedAt": "162350Z",
      "visibility_m": 10000,
      "taf_visibility_m": 2000,
      "worst_visibility_m": 2000,
      "ceiling_ft": 200,
      "hazards": [
        "BR"
      ],
      "severityScore": 45,
      "metarRaw": "METAR EDJA 162350Z AUTO 04006KT 9999 // BKN250/// M00/M02 Q1016",
      "tafRaw": "TAF EDJA 161700Z 1618/1703 06005KT CAVOK \n  BECMG 1701/1703 2000 BR BKN002"
    },
    {
      "icao": "LFPO",
      "iata": "ORY",
      "name": "Paris-Orly Airport",
      "updatedAt": "162330Z",
      "visibility_m": 3500,
      "taf_visibility_m": 3500,
      "worst_visibility_m": 3500,
      "ceiling_ft": 200,
      "hazards": [
        "BR"
      ],
      "severityScore": 45,
      "metarRaw": "METAR LFPO 162330Z AUTO VRB03KT 9999 FEW004 BKN022 BKN031 08/08 Q1012 TEMPO 3500 BR BKN002",
      "tafRaw": "TAF LFPO 162300Z 1700/1806 15005KT 9999 FEW003 BKN030 \n  PROB40 \n  TEMPO 1700/1711 BKN003 \n  PROB30 \n  TEMPO 1700/1710 3500 BR BKN002 \n  BECMG 1711/1713 CAVOK"
    },
    {
      "icao": "LIPZ",
      "iata": "VCE",
      "name": "Venice Marco Polo Airport",
      "updatedAt": "162350Z",
      "visibility_m": 2000,
      "taf_visibility_m": 3000,
      "worst_visibility_m": 2000,
      "ceiling_ft": 200,
      "hazards": [
        "BR"
      ],
      "severityScore": 45,
      "metarRaw": "METAR LIPZ 162350Z 27003KT 2000 BR BKN002 06/06 Q1023 NOSIG",
      "tafRaw": "TAF LIPZ 162300Z 1700/1806 VRB04KT 6000 SCT030 \n  TEMPO 1700/1706 3000 BR BKN010 \n  BECMG 1718/1720 04010KT"
    },
    {
      "icao": "LEZG",
      "iata": "ZAZ",
      "name": "Zaragoza Airport",
      "updatedAt": "162330Z",
      "visibility_m": 5000,
      "taf_visibility_m": 4000,
      "worst_visibility_m": 4000,
      "ceiling_ft": 1000,
      "hazards": [
        "FG",
        "RA"
      ],
      "severityScore": 44,
      "metarRaw": "METAR LEZG 162330Z 23002KT 5000 2000W R30R/P2000 R12R/P2000 R30L/1800D R12L/0550N BCFG SCT002 06/06 Q1012 NOSIG",
      "tafRaw": "TAF LEZG 162300Z 1700/1724 VRB04KT 9999 FEW060 TX09/1714Z TN04/1706Z \n  TEMPO 1700/1724 4000 RA BKN010 \n  BECMG 1706/1708 29007KT"
    },
    {
      "icao": "LWSK",
      "iata": "SKP",
      "name": "Skopje International Airport",
      "updatedAt": "162350Z",
      "visibility_m": 6000,
      "taf_visibility_m": 1500,
      "worst_visibility_m": 1500,
      "ceiling_ft": 1000,
      "hazards": [
        "BR",
        "RA"
      ],
      "severityScore": 44,
      "metarRaw": "METAR LWSK 162350Z VRB02KT 6000 SCT095 M01/M02 Q1025 NOSIG",
      "tafRaw": "TAF LWSK 162040Z 1621/1721 VRB02KT 5000 BR FEW080 \n  TEMPO 1702/1710 3000 BR SCT020 BKN040 \n  PROB40 \n  TEMPO 1705/1709 1500 RA BKN010 OVC030"
    },
    {
      "icao": "LIME",
      "iata": "BGY",
      "name": "Milan Bergamo Airport / Antonio Locatelli Air Base",
      "updatedAt": "162350Z",
      "visibility_m": 1700,
      "taf_visibility_m": 1500,
      "worst_visibility_m": 1500,
      "ceiling_ft": 5000,
      "hazards": [
        "BR",
        "FG"
      ],
      "severityScore": 40,
      "metarRaw": "METAR LIME 162350Z 21003KT 1700 BR BKN050 07/07 Q1022 NOSIG",
      "tafRaw": "TAF LIME 162300Z 1700/1724 VRB04KT 1500 BCFG BKN008 \n  BECMG 1707/1709 5000 SCT050"
    },
    {
      "icao": "LTAC",
      "iata": "ESB",
      "name": "Esenboğa International Airport",
      "updatedAt": "162350Z",
      "visibility_m": 10000,
      "taf_visibility_m": 2500,
      "worst_visibility_m": 2500,
      "ceiling_ft": 2500,
      "hazards": [
        "BR",
        "SN",
        "RA"
      ],
      "severityScore": 40,
      "metarRaw": "METAR LTAC 162350Z 36008KT 9999 FEW015 BKN025 BKN080 00/M05 Q1019 NOSIG",
      "tafRaw": "TAF LTAC 162240Z 1700/1724 30008KT 9999 SCT025 BKN080 \n  TEMPO 1700/1704 -RASN FEW010 BKN025 BKN080 \n  TEMPO 1705/1708 2500 -RASN BR FEW010 BKN025 BKN080"
    },
    {
      "icao": "LPFR",
      "iata": "FAO",
      "name": "Faro Airport",
      "updatedAt": "162330Z",
      "visibility_m": 10000,
      "taf_visibility_m": 5000,
      "worst_visibility_m": 5000,
      "ceiling_ft": 1500,
      "hazards": [
        "SHRA",
        "RA"
      ],
      "severityScore": 38,
      "metarRaw": "METAR LPFR 162330Z 29008KT 9999 FEW030 08/07 Q1015",
      "tafRaw": "TAF LPFR 162300Z 1700/1724 30007KT 9999 SCT030 \n  TEMPO 1700/1724 5000 SHRA BKN015 FEW025CB \n  BECMG 1711/1713 25012KT \n  BECMG 1718/1720 31010KT"
    },
    {
      "icao": "LPMA",
      "iata": "FNC",
      "name": "Madeira International Airport Cristiano Ronaldo",
      "updatedAt": "162330Z",
      "visibility_m": 10000,
      "taf_visibility_m": 8000,
      "worst_visibility_m": 8000,
      "ceiling_ft": 1300,
      "hazards": [
        "SHRA",
        "RA"
      ],
      "severityScore": 38,
      "metarRaw": "METAR LPMA 162330Z VRB05KT 9999 SCT015 16/08 Q1026",
      "tafRaw": "TAF LPMA 162300Z 1700/1724 33007KT 9999 SCT015 \n  TEMPO 1700/1710 VRB05KT \n  PROB30 \n  TEMPO 1700/1724 34015G25KT 8000 SHRA BKN013"
    },
    {
      "icao": "LPPS",
      "iata": "PXO",
      "name": "Porto Santo Airport",
      "updatedAt": "162330Z",
      "visibility_m": 10000,
      "taf_visibility_m": 5000,
      "worst_visibility_m": 5000,
      "ceiling_ft": 1200,
      "hazards": [
        "RA",
        "SHRA"
      ],
      "severityScore": 38,
      "metarRaw": "METAR LPPS 162330Z 32012KT 9999 SCT015 15/09 Q1025",
      "tafRaw": "TAF LPPS 162300Z 1700/1806 33013KT 9999 SCT015 \n  PROB40 \n  TEMPO 1700/1712 33017G27KT 8000 SHRA BKN012 \n  BECMG 1720/1722 32018KT SCT012 BKN025 \n  TEMPO 1722/1806 32022G35KT 5000 RA SCT006 BKN012"
    },
    {
      "icao": "LPPT",
      "iata": "LIS",
      "name": "Lisbon Humberto Delgado Airport",
      "updatedAt": "162330Z",
      "visibility_m": 10000,
      "taf_visibility_m": 5000,
      "worst_visibility_m": 5000,
      "ceiling_ft": 1500,
      "hazards": [
        "SHRA",
        "RA"
      ],
      "severityScore": 38,
      "metarRaw": "METAR LPPT 162330Z 31003KT 290V360 9999 FEW030 08/06 Q1015",
      "tafRaw": "TAF LPPT 162300Z 1700/1806 31007KT 9999 FEW018 SCT030 \n  TEMPO 1700/1806 5000 SHRA BKN015 FEW025CB \n  BECMG 1701/1703 VRB02KT \n  BECMG 1717/1719 34007KT \n  BECMG 1720/1723 VRB02KT"
    },
    {
      "icao": "UDSG",
      "iata": "LWN",
      "name": "Shirak International Airport",
      "updatedAt": "162330Z",
      "visibility_m": 8000,
      "taf_visibility_m": 1000,
      "worst_visibility_m": 1000,
      "ceiling_ft": 4300,
      "hazards": [
        "BR",
        "SN"
      ],
      "severityScore": 38,
      "metarRaw": "METAR UDSG 162330Z 20003KT 8000 BKN043 M13/M15 Q1020 NOSIG",
      "tafRaw": "TAF UDSG 162258Z 1700/1724 VRB06KT 9999 BKN040 \n  TEMPO 1701/1709 5000 BR OVC030 \n  TEMPO 1709/1721 1000 SN BR OVC020"
    },
    {
      "icao": "EPRA",
      "iata": "RDO",
      "name": "Warsaw Radom Airport",
      "updatedAt": "162330Z",
      "visibility_m": 10000,
      "taf_visibility_m": 10000,
      "worst_visibility_m": 10000,
      "ceiling_ft": 800,
      "hazards": [
        "RA"
      ],
      "severityScore": 37,
      "metarRaw": "METAR EPRA 162330Z 11007KT 9999 BKN008 M09/M11 Q1029",
      "tafRaw": "TAF EPRA 162330Z 1700/1709 11008KT 9999 BKN007 \n  BECMG 1701/1703 CAVOK"
    },
    {
      "icao": "LEBB",
      "iata": "BIO",
      "name": "Bilbao Airport",
      "updatedAt": "162330Z",
      "visibility_m": 10000,
      "taf_visibility_m": 3000,
      "worst_visibility_m": 3000,
      "ceiling_ft": 500,
      "hazards": [
        "RA"
      ],
      "severityScore": 37,
      "metarRaw": "METAR LEBB 162330Z AUTO 10004KT 9999 FEW060 05/03 Q1012",
      "tafRaw": "TAF LEBB 162300Z 1700/1724 12005KT 9999 FEW020 SCT030 TX09/1712Z TN05/1706Z \n  PROB30 \n  TEMPO 1700/1704 RA \n  PROB40 1712/1723 31010KT \n  PROB40 \n  TEMPO 1712/1724 3000 RA BKN005"
    },
    {
      "icao": "LGTS",
      "iata": "SKG",
      "name": "Thessaloniki Macedonia International Airport",
      "updatedAt": "162350Z",
      "visibility_m": 10000,
      "taf_visibility_m": 5000,
      "worst_visibility_m": 5000,
      "ceiling_ft": 2500,
      "hazards": [
        "TS",
        "RA"
      ],
      "severityScore": 37,
      "metarRaw": "METAR LGTS 162350Z 14005KT 9999 SCT020 10/06 Q1024 NOSIG",
      "tafRaw": "TAF LGTS 162300Z 1700/1724 08013KT 9999 FEW012 BKN025 \n  PROB30 1700/1712 5000 RA \n  BECMG 1710/1712 VRB03KT"
    },
    {
      "icao": "ENBR",
      "iata": "BGO",
      "name": "Bergen Airport, Flesland",
      "updatedAt": "162350Z",
      "visibility_m": 10000,
      "taf_visibility_m": 10000,
      "worst_visibility_m": 10000,
      "ceiling_ft": 2500,
      "hazards": [
        "BR",
        "SHRA",
        "RA"
      ],
      "severityScore": 36,
      "metarRaw": "METAR ENBR 162350Z AUTO 13006KT 9999 FEW022/// BKN031/// 04/03 Q1016 RMK WIND 1200FT 15012KT",
      "tafRaw": "TAF ENBR 162300Z 1700/1724 14008KT 9999 -SHRA FEW012 BKN025"
    },
    {
      "icao": "EDDN",
      "iata": "NUE",
      "name": "Nuremberg Airport",
      "updatedAt": "162350Z",
      "visibility_m": 10000,
      "taf_visibility_m": 3000,
      "worst_visibility_m": 3000,
      "ceiling_ft": 600,
      "hazards": [
        "BR"
      ],
      "severityScore": 35,
      "metarRaw": "METAR EDDN 162350Z AUTO 11011KT 9999 OVC006 M00/M02 Q1020",
      "tafRaw": "TAF EDDN 162300Z 1700/1724 10006KT 9999 OVC006 \n  BECMG 1702/1704 OVC004 \n  TEMPO 1704/1709 3000 BR \n  BECMG 1708/1710 OVC007 \n  PROB30 \n  TEMPO 1712/1715 SCT008"
    },
    {
      "icao": "EPMO",
      "iata": "WMI",
      "name": "Modlin Airport",
      "updatedAt": "162330Z",
      "visibility_m": 6000,
      "taf_visibility_m": 4000,
      "worst_visibility_m": 4000,
      "ceiling_ft": 800,
      "hazards": [
        "BR"
      ],
      "severityScore": 35,
      "metarRaw": "METAR EPMO 162330Z 12006KT 080V140 6000 BKN008 M08/M09 Q1030",
      "tafRaw": "TAF EPMO 162330Z 1700/1724 10006KT 6000 NSC \n  TEMPO 1700/1705 4000 BR BKN008 \n  PROB40 1700/1703 BKN004"
    },
    {
      "icao": "EPRZ",
      "iata": "RZE",
      "name": "Rzeszów-Jasionka Airport",
      "updatedAt": "162330Z",
      "visibility_m": 8000,
      "taf_visibility_m": 3000,
      "worst_visibility_m": 3000,
      "ceiling_ft": 600,
      "hazards": [
        "BR"
      ],
      "severityScore": 35,
      "metarRaw": "METAR EPRZ 162330Z 08009KT 8000 BKN006 BKN033 M09/M12 Q1030",
      "tafRaw": "TAF EPRZ 162330Z 1700/1724 09012KT 8000 OVC007 \n  TEMPO 1700/1707 3000 BR OVC004 \n  PROB40 \n  TEMPO 1700/1707 SCT017 \n  BECMG 1707/1709 CAVOK"
    },
    {
      "icao": "EPSY",
      "iata": "SZY",
      "name": "Olsztyn-Mazury Airport",
      "updatedAt": "162330Z",
      "visibility_m": 7000,
      "taf_visibility_m": 4000,
      "worst_visibility_m": 4000,
      "ceiling_ft": 700,
      "hazards": [
        "BR"
      ],
      "severityScore": 35,
      "metarRaw": "METAR EPSY 162330Z 14004KT 100V170 7000 NSC M12/M14 Q1030",
      "tafRaw": "TAF EPSY 162330Z 1700/1709 14007KT 7000 NSC \n  PROB40 1701/1704 4000 BR BKN007"
    },
    {
      "icao": "EPWA",
      "iata": "WAW",
      "name": "Warsaw Chopin Airport",
      "updatedAt": "162330Z",
      "visibility_m": 10000,
      "taf_visibility_m": 4000,
      "worst_visibility_m": 4000,
      "ceiling_ft": 900,
      "hazards": [
        "BR"
      ],
      "severityScore": 35,
      "metarRaw": "METAR EPWA 162330Z 12011KT 9999 BKN009 M08/M11 Q1030 NOSIG",
      "tafRaw": "TAF EPWA 162330Z 1700/1724 12010KT 8000 NSC \n  TEMPO 1700/1705 BKN008 \n  PROB40 \n  TEMPO 1700/1703 4000 BR BKN004"
    },
    {
      "icao": "LRSV",
      "iata": "SCV",
      "name": "Suceava Stefan cel Mare Airport",
      "updatedAt": "162330Z",
      "visibility_m": 10000,
      "taf_visibility_m": 3000,
      "worst_visibility_m": 3000,
      "ceiling_ft": 500,
      "hazards": [
        "BR"
      ],
      "severityScore": 35,
      "metarRaw": "METAR LRSV 162330Z 25004KT CAVOK M09/M13 Q1032",
      "tafRaw": "TAF LRSV 162300Z 1700/1709 25006KT CAVOK \n  TEMPO 1700/1708 3000 BR \n  PROB40 \n  TEMPO 1703/1709 BKN005"
    },
    {
      "icao": "LEMD",
      "iata": "MAD",
      "name": "Adolfo Suárez Madrid–Barajas Airport",
      "updatedAt": "162330Z",
      "visibility_m": 10000,
      "taf_visibility_m": 3000,
      "worst_visibility_m": 3000,
      "ceiling_ft": 3500,
      "hazards": [
        "BR",
        "RA",
        "DZ"
      ],
      "severityScore": 32,
      "metarRaw": "METAR LEMD 162330Z VRB02KT 9999 FEW020 BKN035 05/05 Q1010 NOSIG",
      "tafRaw": "TAF LEMD 162300Z 1700/1806 VRB04KT 9999 SCT025 TX07/1714Z TN02/1708Z \n  TEMPO 1700/1714 RA DZRA BKN010 \n  TEMPO 1700/1711 3000 BR BKN004 \n  PROB40 \n  TEMPO 1715/1719 DZRA BKN010 \n  PROB40 \n  TEMPO 1720/1806 BKN010"
    },
    {
      "icao": "LRIA",
      "iata": "IAS",
      "name": "Iaşi Airport",
      "updatedAt": "162330Z",
      "visibility_m": 4900,
      "taf_visibility_m": 1500,
      "worst_visibility_m": 1500,
      "ceiling_ft": 1000,
      "hazards": [
        "BR"
      ],
      "severityScore": 32,
      "metarRaw": "METAR LRIA 162330Z 26004KT 4900 BR NSC M15/M17 Q1036",
      "tafRaw": "TAF LRIA 162300Z 1700/1709 VRB04KT 5000 BR NSC \n  TEMPO 1700/1703 1500 BR \n  BECMG 1703/1705 1500 BR BKN010 \n  BECMG 1707/1709 5000"
    },
    {
      "icao": "EDDS",
      "iata": "STR",
      "name": "Stuttgart Airport",
      "updatedAt": "162350Z",
      "visibility_m": 10000,
      "taf_visibility_m": 1200,
      "worst_visibility_m": 1200,
      "ceiling_ft": null,
      "hazards": [
        "FG"
      ],
      "severityScore": 30,
      "metarRaw": "METAR EDDS 162350Z AUTO VRB02KT CAVOK 03/00 Q1016",
      "tafRaw": "TAF EDDS 162300Z 1700/1724 VRB03KT CAVOK \n  TEMPO 1715/1722 05005KT \n  PROB30 \n  TEMPO 1722/1724 1200 BCFG"
    },
    {
      "icao": "LATI",
      "iata": "TIA",
      "name": "Tirana International Airport Mother Teresa",
      "updatedAt": "162350Z",
      "visibility_m": 6000,
      "taf_visibility_m": 1500,
      "worst_visibility_m": 1500,
      "ceiling_ft": null,
      "hazards": [
        "FG"
      ],
      "severityScore": 30,
      "metarRaw": "METAR LATI 162350Z 25002KT 6000 0500S R17/P2000N R35/1000U BCFG NSC 07/05 Q1021 NOSIG",
      "tafRaw": "TAF LATI 162300Z 1700/1724 VRB04KT CAVOK TX17/1712Z TN05/1704Z \n  TEMPO 1700/1704 1500 BCFG NSC"
    },
    {
      "icao": "LBSF",
      "iata": "SOF",
      "name": "Sofia Airport",
      "updatedAt": "162330Z",
      "visibility_m": 10000,
      "taf_visibility_m": 4000,
      "worst_visibility_m": 4000,
      "ceiling_ft": 1500,
      "hazards": [
        "SN"
      ],
      "severityScore": 30,
      "metarRaw": "METAR LBSF 162330Z AUTO 10014KT 9999 SCT023/// OVC032/// 00/M03 Q1028 NOSIG",
      "tafRaw": "TAF LBSF 162300Z 1700/1724 10012KT 9999 SCT015 OVC030 \n  PROB30 \n  TEMPO 1700/1702 4000 -SN SCT008 BKN015 OVC025 \n  BECMG 1719/1721 VRB04KT SCT040"
    },
    {
      "icao": "LIRZ",
      "iata": "PEG",
      "name": "Perugia San Francesco d'Assisi – Umbria International Airport",
      "updatedAt": "162350Z",
      "visibility_m": 10000,
      "taf_visibility_m": 1500,
      "worst_visibility_m": 1500,
      "ceiling_ft": null,
      "hazards": [
        "FG"
      ],
      "severityScore": 30,
      "metarRaw": "METAR LIRZ 162350Z AUTO 07003KT 350V110 9999 NCD 05/03 Q1019",
      "tafRaw": "TAF LIRZ 162300Z 1700/1724 35010KT CAVOK \n  BECMG 1702/1704 VRB05KT \n  PROB40 \n  TEMPO 1702/1708 1500 BCFG"
    },
    {
      "icao": "GMMX",
      "iata": "RAK",
      "name": "Menara Airport",
      "updatedAt": "162330Z",
      "visibility_m": 4000,
      "taf_visibility_m": 3000,
      "worst_visibility_m": 3000,
      "ceiling_ft": 2000,
      "hazards": [
        "RA",
        "SHRA"
      ],
      "severityScore": 26,
      "metarRaw": "METAR GMMX 162330Z 26012KT 4000 RA SCT013 BKN020 10/09 Q1020 NOSIG",
      "tafRaw": "TAF GMMX 162300Z 1700/1806 34017KT 3000 SHRA SCT013 BKN020 FEW030TCU \n  BECMG 1712/1716 04008KT 6000 NSW BKN023 SCT080"
    },
    {
      "icao": "ENVA",
      "iata": "TRD",
      "name": "Trondheim Airport, Værnes",
      "updatedAt": "162350Z",
      "visibility_m": 10000,
      "taf_visibility_m": 10000,
      "worst_visibility_m": 10000,
      "ceiling_ft": 2500,
      "hazards": [
        "RA",
        "SHRA"
      ],
      "severityScore": 26,
      "metarRaw": "METAR ENVA 162350Z AUTO 23008KT 9999 BKN028/// BKN054/// 05/01 Q1011 RERA RMK WIND 670FT 23012KT",
      "tafRaw": "TAF ENVA 162300Z 1700/1724 21008KT 9999 FEW012 BKN025 \n  TEMPO 1700/1706 SHRA SCT018CB BKN025 \n  BECMG 1710/1712 10010KT"
    },
    {
      "icao": "LICC",
      "iata": "CTA",
      "name": "Catania-Fontanarossa Airport",
      "updatedAt": "162350Z",
      "visibility_m": 10000,
      "taf_visibility_m": 4000,
      "worst_visibility_m": 4000,
      "ceiling_ft": 5000,
      "hazards": [
        "RA",
        "SHRA"
      ],
      "severityScore": 26,
      "metarRaw": "METAR LICC 162350Z VRB02KT 9999 FEW020 SCT050 13/11 Q1016",
      "tafRaw": "TAF LICC 162300Z 1700/1724 06010KT 8000 RA SCT020 BKN050 \n  TEMPO 1700/1706 4000 SHRA"
    },
    {
      "icao": "BIKF",
      "iata": "KEF",
      "name": "Keflavik International Airport",
      "updatedAt": "162330Z",
      "visibility_m": 10000,
      "taf_visibility_m": 10000,
      "worst_visibility_m": 10000,
      "ceiling_ft": 800,
      "hazards": [],
      "severityScore": 25,
      "metarRaw": "METAR BIKF 162330Z 06006KT CAVOK M01/M02 Q1009",
      "tafRaw": "TAF BIKF 162241Z 1700/1800 05007KT CAVOK TX06/1800Z TNM02/1706Z \n  BECMG 1709/1711 12012KT BKN020 \n  TEMPO 1711/1721 BKN008 \n  BECMG 1713/1715 12022G32KT \n  BECMG 1717/1719 13030G50KT"
    },
    {
      "icao": "GCTS",
      "iata": "TFS",
      "name": "Tenerife Sur Airport",
      "updatedAt": "162330Z",
      "visibility_m": 10000,
      "taf_visibility_m": 10000,
      "worst_visibility_m": 10000,
      "ceiling_ft": 4000,
      "hazards": [
        "TS"
      ],
      "severityScore": 25,
      "metarRaw": "METAR GCTS 162330Z 35004KT 9999 FEW025 BKN040 17/12 Q1025 NOSIG",
      "tafRaw": "TAF GCTS 162000Z 1621/1721 05012KT 9999 BKN035 TX22/1714Z TN14/1706Z \n  TEMPO 1621/1703 VRB05KT \n  BECMG 1703/1705 30006KT"
    },
    {
      "icao": "EPLB",
      "iata": "LUZ",
      "name": "Lublin Airport",
      "updatedAt": "162330Z",
      "visibility_m": 10000,
      "taf_visibility_m": 10000,
      "worst_visibility_m": 10000,
      "ceiling_ft": 600,
      "hazards": [],
      "severityScore": 25,
      "metarRaw": "METAR EPLB 162330Z 11007KT CAVOK M12/M15 Q1031",
      "tafRaw": "TAF EPLB 162330Z 1700/1724 11008KT CAVOK \n  PROB40 1700/1706 BKN006"
    },
    {
      "icao": "GMMN",
      "iata": "CMN",
      "name": "Mohammed V International Airport",
      "updatedAt": "162330Z",
      "visibility_m": 8000,
      "taf_visibility_m": 3000,
      "worst_visibility_m": 3000,
      "ceiling_ft": 1600,
      "hazards": [
        "RA"
      ],
      "severityScore": 24,
      "metarRaw": "METAR GMMN 162330Z 27006KT 8000 SCT006 BKN016 10/09 Q1019 NOSIG",
      "tafRaw": "TAF GMMN 162300Z 1700/1806 28007KT 8000 SCT008 BKN020 \n  TEMPO 1700/1806 22016KT 3000 RA SCT003 BKN016 BKN023TCU"
    },
    {
      "icao": "EHEH",
      "iata": "EIN",
      "name": "Eindhoven Airport",
      "updatedAt": "162325Z",
      "visibility_m": 10000,
      "taf_visibility_m": 4500,
      "worst_visibility_m": 4500,
      "ceiling_ft": 7200,
      "hazards": [
        "RA",
        "DZ"
      ],
      "severityScore": 22,
      "metarRaw": "METAR EHEH 162325Z AUTO 11003KT 9999 FEW067 OVC072 07/07 Q1015 BLU",
      "tafRaw": "TAF EHEH 161744Z 1618/1724 19003KT 9999 FEW030 BKN035 \n  PROB40 \n  TEMPO 1623/1706 4500 -RADZ SCT018 BKN025 \n  BECMG 1715/1717 11004KT"
    },
    {
      "icao": "ENAL",
      "iata": "AES",
      "name": "Ålesund Airport, Vigra",
      "updatedAt": "162350Z",
      "visibility_m": 10000,
      "taf_visibility_m": 10000,
      "worst_visibility_m": 10000,
      "ceiling_ft": 2500,
      "hazards": [
        "RA",
        "DZ"
      ],
      "severityScore": 22,
      "metarRaw": "METAR ENAL 162350Z AUTO 19007KT 9999 SCT020/// BKN047/// 05/03 Q1014 REDZRA",
      "tafRaw": "TAF ENAL 162300Z 1700/1709 19008KT 9999 FEW015 BKN025"
    },
    {
      "icao": "EYPA",
      "iata": "PLQ",
      "name": "Palanga International Airport",
      "updatedAt": "162350Z",
      "visibility_m": 9000,
      "taf_visibility_m": 5000,
      "worst_visibility_m": 5000,
      "ceiling_ft": 1000,
      "hazards": [
        "BR"
      ],
      "severityScore": 22,
      "metarRaw": "METAR EYPA 162350Z AUTO 15011KT 9000 NCD M09/M12 Q1030",
      "tafRaw": "TAF EYPA 162300Z 1700/1724 15011KT 5000 BR OVC010 \n  BECMG 1700/1703 SCT010 \n  BECMG 1704/1707 8000 NSW NSC"
    },
    {
      "icao": "LJLJ",
      "iata": "LJU",
      "name": "Ljubljana Jože Pučnik Airport",
      "updatedAt": "162330Z",
      "visibility_m": 10000,
      "taf_visibility_m": 4000,
      "worst_visibility_m": 4000,
      "ceiling_ft": 3000,
      "hazards": [
        "BR",
        "RA"
      ],
      "severityScore": 22,
      "metarRaw": "METAR LJLJ 162330Z VRB02KT 9999 BKN030 OVC050 01/01 Q1022 NOSIG",
      "tafRaw": "TAF LJLJ 162300Z 1700/1800 30004KT 9999 BKN037 \n  PROB40 \n  TEMPO 1700/1800 4000 -RA BR BKN014 OVC025"
    },
    {
      "icao": "EYVI",
      "iata": "VNO",
      "name": "Vilnius International Airport",
      "updatedAt": "162350Z",
      "visibility_m": 10000,
      "taf_visibility_m": 1500,
      "worst_visibility_m": 1500,
      "ceiling_ft": null,
      "hazards": [
        "BR"
      ],
      "severityScore": 20,
      "metarRaw": "METAR EYVI 162350Z 16008KT CAVOK M14/M17 Q1035 NOSIG",
      "tafRaw": "TAF EYVI 162300Z 1700/1724 16010KT 8000 NSC \n  TEMPO 1700/1706 VRB04KT 5000 BR \n  PROB40 \n  TEMPO 1700/1706 1500 SCT002"
    },
    {
      "icao": "LIRP",
      "iata": "PSA",
      "name": "Pisa International Airport",
      "updatedAt": "162345Z",
      "visibility_m": 10000,
      "taf_visibility_m": 5000,
      "worst_visibility_m": 5000,
      "ceiling_ft": null,
      "hazards": [
        "FG"
      ],
      "severityScore": 20,
      "metarRaw": "METAR LIRP 162345Z 12003KT CAVOK 07/07 Q1018 NOSIG",
      "tafRaw": "TAF LIRP 162300Z 1700/1724 10005KT CAVOK \n  TEMPO 1700/1707 5000 MIFG NSC"
    },
    {
      "icao": "LRBS",
      "iata": "BBU",
      "name": "Bucharest Băneasa Aurel Vlaicu International Airport",
      "updatedAt": "162330Z",
      "visibility_m": 5000,
      "taf_visibility_m": 1500,
      "worst_visibility_m": 1500,
      "ceiling_ft": null,
      "hazards": [
        "BR"
      ],
      "severityScore": 20,
      "metarRaw": "METAR LRBS 162330Z 00000KT 8000 NSC M08/M09 Q1035 TEMPO 5000 BR",
      "tafRaw": "TAF LRBS 162300Z 1700/1724 VRB04KT 5000 BR NSC \n  PROB40 \n  TEMPO 1700/1706 1500 BR \n  BECMG 1706/1708 CAVOK \n  BECMG 1709/1711 07010KT \n  TEMPO 1720/1724 07020KT"
    },
    {
      "icao": "LROP",
      "iata": "OTP",
      "name": "Bucharest Henri Coandă International Airport",
      "updatedAt": "162330Z",
      "visibility_m": 5000,
      "taf_visibility_m": 1500,
      "worst_visibility_m": 1500,
      "ceiling_ft": null,
      "hazards": [
        "BR"
      ],
      "severityScore": 20,
      "metarRaw": "METAR LROP 162330Z 29003KT 260V320 8000 NSC M08/M10 Q1034 TEMPO 5000 BR",
      "tafRaw": "TAF LROP 162300Z 1700/1724 VRB04KT 5000 BR NSC \n  PROB40 \n  TEMPO 1700/1706 1500 BR \n  BECMG 1706/1708 CAVOK \n  BECMG 1709/1711 07010KT \n  TEMPO 1720/1724 07020KT"
    },
    {
      "icao": "LRTR",
      "iata": "TSR",
      "name": "Timişoara Traian Vuia Airport",
      "updatedAt": "162330Z",
      "visibility_m": 10000,
      "taf_visibility_m": 1500,
      "worst_visibility_m": 1500,
      "ceiling_ft": 2600,
      "hazards": [
        "BR"
      ],
      "severityScore": 20,
      "metarRaw": "METAR LRTR 162330Z 10007KT 9999 FEW015 OVC026 01/M01 Q1028",
      "tafRaw": "TAF LRTR 162300Z 1700/1724 10009KT 9999 SCT020 BKN030 \n  TEMPO 1700/1704 BKN015 \n  BECMG 1718/1720 5000 BR \n  BECMG 1722/1724 1500 BR BKN005"
    },
    {
      "icao": "LECH",
      "iata": "CDT",
      "name": "Castellón-Costa Azahar Airport",
      "updatedAt": "162330Z",
      "visibility_m": 10000,
      "taf_visibility_m": null,
      "worst_visibility_m": 10000,
      "ceiling_ft": 1600,
      "hazards": [],
      "severityScore": 17,
      "metarRaw": "METAR LECH 162330Z AUTO 03007KT 9999 SCT011 OVC016 09/08 Q1011",
      "tafRaw": null
    },
    {
      "icao": "GCFV",
      "iata": "FUE",
      "name": "Fuerteventura Airport",
      "updatedAt": "162330Z",
      "visibility_m": 10000,
      "taf_visibility_m": 4500,
      "worst_visibility_m": 4500,
      "ceiling_ft": null,
      "hazards": [
        "RA"
      ],
      "severityScore": 12,
      "metarRaw": "METAR GCFV 162330Z AUTO 34008KT CAVOK 16/11 Q1024",
      "tafRaw": "TAF GCFV 162000Z 1621/1721 36010KT 9999 SCT035 TX20/1714Z TN15/1706Z \n  PROB30 \n  TEMPO 1715/1718 4500 RA"
    },
    {
      "icao": "EHBK",
      "iata": "MST",
      "name": "Maastricht Aachen Airport",
      "updatedAt": "162355Z",
      "visibility_m": 10000,
      "taf_visibility_m": 7000,
      "worst_visibility_m": 7000,
      "ceiling_ft": 4000,
      "hazards": [
        "RA"
      ],
      "severityScore": 12,
      "metarRaw": "METAR EHBK 162355Z AUTO 09006KT 9999 NSC 08/07 Q1015",
      "tafRaw": "TAF EHBK 162318Z 1700/1806 12004KT 9999 BKN040 \n  PROB30 \n  TEMPO 1700/1704 7000 RA \n  PROB30 1800/1806 7000"
    },
    {
      "icao": "ENZV",
      "iata": "SVG",
      "name": "Stavanger Airport, Sola",
      "updatedAt": "162350Z",
      "visibility_m": 10000,
      "taf_visibility_m": 10000,
      "worst_visibility_m": 10000,
      "ceiling_ft": 4000,
      "hazards": [
        "RA"
      ],
      "severityScore": 12,
      "metarRaw": "METAR ENZV 162350Z 13007KT 9999 SCT022 BKN040 04/03 Q1017",
      "tafRaw": "TAF ENZV 162300Z 1700/1724 12008KT 9999 SCT025 BKN040 \n  TEMPO 1718/1724 RA BKN014"
    },
    {
      "icao": "LEAL",
      "iata": "ALC",
      "name": "Alicante-Elche Miguel Hernández Airport",
      "updatedAt": "162330Z",
      "visibility_m": 10000,
      "taf_visibility_m": 10000,
      "worst_visibility_m": 10000,
      "ceiling_ft": 2300,
      "hazards": [
        "RA"
      ],
      "severityScore": 12,
      "metarRaw": "METAR LEAL 162330Z 32003KT 280V010 9999 FEW018 BKN023 13/09 Q1011 NOSIG",
      "tafRaw": "TAF LEAL 162300Z 1700/1724 VRB04KT 9999 FEW020 TX14/1713Z TN07/1706Z \n  PROB40 \n  TEMPO 1706/1721 RA BKN014 \n  TEMPO 1713/1724 31010KT"
    },
    {
      "icao": "LEVC",
      "iata": "VLC",
      "name": "Valencia Airport",
      "updatedAt": "162330Z",
      "visibility_m": 10000,
      "taf_visibility_m": 4000,
      "worst_visibility_m": 4000,
      "ceiling_ft": 6200,
      "hazards": [
        "RA"
      ],
      "severityScore": 12,
      "metarRaw": "METAR LEVC 162330Z VRB01KT 9999 OVC062 10/09 Q1011 NOSIG",
      "tafRaw": "TAF LEVC 162300Z 1700/1724 VRB04KT 9999 FEW060 TX13/1712Z TN04/1706Z \n  TEMPO 1700/1713 4000 RA BKN014 \n  TEMPO 1711/1722 27009KT"
    },
    {
      "icao": "LEXJ",
      "iata": "SDR",
      "name": "Seve Ballesteros-Santander Airport",
      "updatedAt": "162330Z",
      "visibility_m": 9000,
      "taf_visibility_m": 3000,
      "worst_visibility_m": 3000,
      "ceiling_ft": 4500,
      "hazards": [
        "RA"
      ],
      "severityScore": 12,
      "metarRaw": "METAR LEXJ 162330Z AUTO 22005KT 9000 -RA BKN045 BKN050 BKN060 08/06 Q1012",
      "tafRaw": "TAF LEXJ 162000Z 1621/1721 22007KT 9999 FEW030 BKN040 TX11/1714Z TN06/1705Z \n  PROB40 \n  TEMPO 1621/1701 RA \n  PROB30 \n  TEMPO 1709/1715 RA \n  PROB40 \n  TEMPO 1715/1721 3000 RA BKN010"
    },
    {
      "icao": "LFLS",
      "iata": "GNB",
      "name": "Grenoble Alpes Isère Airport",
      "updatedAt": "162330Z",
      "visibility_m": 10000,
      "taf_visibility_m": 10000,
      "worst_visibility_m": 10000,
      "ceiling_ft": 5000,
      "hazards": [
        "RA"
      ],
      "severityScore": 12,
      "metarRaw": "METAR LFLS 162330Z AUTO 04006KT 240V050 CAVOK 07/03 Q1015",
      "tafRaw": "TAF LFLS 161400Z 1615/1715 16008KT CAVOK \n  PROB30 \n  TEMPO 1621/1623 23008KT -RA BKN060 \n  BECMG 1704/1706 07008KT RA BKN050"
    },
    {
      "icao": "LFMN",
      "iata": "NCE",
      "name": "Nice-Côte d'Azur Airport",
      "updatedAt": "162330Z",
      "visibility_m": 10000,
      "taf_visibility_m": 10000,
      "worst_visibility_m": 10000,
      "ceiling_ft": 3600,
      "hazards": [
        "RA"
      ],
      "severityScore": 12,
      "metarRaw": "METAR LFMN 162330Z 33010KT 9999 -RA FEW020 SCT030 BKN036 10/08 Q1018 TEMPO RA",
      "tafRaw": "TAF LFMN 162000Z 1621/1803 01012KT 9999 SCT040 BKN100 \n  TEMPO 1621/1704 08017KT \n  TEMPO 1621/1710 RA BKN020 \n  BECMG 1712/1714 08015KT \n  TEMPO 1716/1802 09025KT NSC"
    },
    {
      "icao": "LGAV",
      "iata": "ATH",
      "name": "Athens Eleftherios Venizelos International Airport",
      "updatedAt": "162350Z",
      "visibility_m": 10000,
      "taf_visibility_m": 5000,
      "worst_visibility_m": 5000,
      "ceiling_ft": 3000,
      "hazards": [
        "RA"
      ],
      "severityScore": 12,
      "metarRaw": "METAR LGAV 162350Z VRB03KT 9999 FEW025 BKN030 08/05 Q1021 NOSIG",
      "tafRaw": "TAF LGAV 162300Z 1700/1724 04012KT 9999 FEW018 BKN025 \n  BECMG 1703/1705 03018G28KT \n  PROB30 \n  TEMPO 1703/1712 5000 RA SCT010 BKN020"
    },
    {
      "icao": "LICA",
      "iata": "SUF",
      "name": "Lamezia Terme Sant'Eufemia International Airport",
      "updatedAt": "162350Z",
      "visibility_m": 10000,
      "taf_visibility_m": 10000,
      "worst_visibility_m": 10000,
      "ceiling_ft": null,
      "hazards": [
        "RA"
      ],
      "severityScore": 12,
      "metarRaw": "METAR LICA 162350Z AUTO 07009KT 9999 -RA OVC049/// 14/12 Q1018 RERA",
      "tafRaw": "TAF LICA 162300Z 1700/1724 08012KT CAVOK"
    },
    {
      "icao": "LICJ",
      "iata": "PMO",
      "name": "Falcone–Borsellino Airport",
      "updatedAt": "162350Z",
      "visibility_m": 10000,
      "taf_visibility_m": 10000,
      "worst_visibility_m": 10000,
      "ceiling_ft": null,
      "hazards": [
        "RA"
      ],
      "severityScore": 12,
      "metarRaw": "METAR LICJ 162350Z 10011KT 9999 SCT050 16/07 Q1016",
      "tafRaw": "TAF LICJ 162300Z 1700/1724 10012KT 9999 SCT060 \n  TEMPO 1700/1706 RA \n  BECMG 1708/1710 VRB05KT"
    },
    {
      "icao": "LIMJ",
      "iata": "GOA",
      "name": "Genoa Cristoforo Colombo Airport",
      "updatedAt": "162350Z",
      "visibility_m": 10000,
      "taf_visibility_m": 8000,
      "worst_visibility_m": 8000,
      "ceiling_ft": null,
      "hazards": [
        "RA"
      ],
      "severityScore": 12,
      "metarRaw": "METAR LIMJ 162350Z 04018KT 9999 FEW070 10/06 Q1019",
      "tafRaw": "TAF LIMJ 162300Z 1700/1724 03017KT 8000 SCT030 \n  TEMPO 1700/1703 RA"
    },
    {
      "icao": "LLBG",
      "iata": "TLV",
      "name": "Ben Gurion International Airport",
      "updatedAt": "162350Z",
      "visibility_m": 10000,
      "taf_visibility_m": 7000,
      "worst_visibility_m": 7000,
      "ceiling_ft": 3000,
      "hazards": [
        "RA"
      ],
      "severityScore": 12,
      "metarRaw": "METAR LLBG 162350Z VRB03KT CAVOK 10/07 Q1019 NOSIG RMK FEW060",
      "tafRaw": "TAF LLBG 162302Z 1700/1724 VRB04KT 9999 SCT040 \n  TEMPO 1710/1714 28008KT \n  PROB30 \n  TEMPO 1714/1718 RA BKN035 \n  PROB40 \n  TEMPO 1718/1724 17015KT 7000 RA FEW025TCU BKN030 TX19/1711Z TN08/1704Z"
    },
    {
      "icao": "LWOH",
      "iata": "OHD",
      "name": "Ohrid St. Paul the Apostle Airport",
      "updatedAt": null,
      "visibility_m": null,
      "taf_visibility_m": 5000,
      "worst_visibility_m": 5000,
      "ceiling_ft": 3000,
      "hazards": [
        "RA"
      ],
      "severityScore": 12,
      "metarRaw": null,
      "tafRaw": "TAF LWOH 162040Z 1621/1721 VRB02KT 9999 SCT030 \n  TEMPO 1705/1714 5000 RA SCT010 OVC030"
    },
    {
      "icao": "UBBB",
      "iata": "GYD",
      "name": "Heydar Aliyev International Airport",
      "updatedAt": "162330Z",
      "visibility_m": 10000,
      "taf_visibility_m": 5000,
      "worst_visibility_m": 5000,
      "ceiling_ft": 3800,
      "hazards": [
        "RA"
      ],
      "severityScore": 12,
      "metarRaw": "METAR UBBB 162330Z 30008KT 9999 FEW015 BKN038 04/03 Q1023 NOSIG",
      "tafRaw": "TAF UBBB 162300Z 1700/1724 35005KT 9999 BKN020 TX07/1710Z TN03/1701Z \n  TEMPO 1700/1704 31008KT 6000 BKN005 \n  TEMPO 1704/1714 03012KT SCT010 \n  TEMPO 1714/1724 03012KT 5000 -RA BKN006 OVC017"
    },
    {
      "icao": "BKPR",
      "iata": "PRN",
      "name": "Priština Adem Jashari International Airport",
      "updatedAt": "162330Z",
      "visibility_m": 10000,
      "taf_visibility_m": 2000,
      "worst_visibility_m": 2000,
      "ceiling_ft": null,
      "hazards": [
        "BR"
      ],
      "severityScore": 10,
      "metarRaw": "METAR BKPR 162330Z 34011KT 9999 SCT010 00/M00 Q1025 NOSIG",
      "tafRaw": "TAF BKPR 162330Z 1700/1724 36010KT 9999 FEW010 SCT040 \n  PROB30 1702/1708 2000 BR"
    },
    {
      "icao": "GCLP",
      "iata": "LPA",
      "name": "Gran Canaria Airport",
      "updatedAt": "162330Z",
      "visibility_m": 10000,
      "taf_visibility_m": 4500,
      "worst_visibility_m": 4500,
      "ceiling_ft": 2500,
      "hazards": [
        "DZ"
      ],
      "severityScore": 10,
      "metarRaw": "METAR GCLP 162330Z 01014KT 340V040 9999 -DZ BKN025 16/13 Q1025 REDZ NOSIG",
      "tafRaw": "TAF GCLP 162000Z 1621/1721 01018KT 9999 SCT030 TX21/1714Z TN15/1706Z \n  PROB40 \n  TEMPO 1621/1706 01020G30KT \n  PROB40 \n  TEMPO 1710/1719 36020G30KT \n  PROB30 \n  TEMPO 1714/1717 4500 DZ"
    },
    {
      "icao": "EBCI",
      "iata": "CRL",
      "name": "Brussels South Charleroi Airport",
      "updatedAt": "162350Z",
      "visibility_m": 10000,
      "taf_visibility_m": 3500,
      "worst_visibility_m": 3500,
      "ceiling_ft": 4800,
      "hazards": [
        "DZ"
      ],
      "severityScore": 10,
      "metarRaw": "METAR EBCI 162350Z 10004KT 9999 FEW042 BKN048 08/06 Q1014 NOSIG",
      "tafRaw": "TAF EBCI 162310Z 1700/1806 15005KT 9999 SCT010 BKN014 \n  TEMPO 1702/1709 3500 -DZ SCT004 BKN006 \n  BECMG 1710/1712 SCT016 BKN040"
    },
    {
      "icao": "EYKA",
      "iata": "KUN",
      "name": "Kaunas International Airport",
      "updatedAt": "162350Z",
      "visibility_m": 10000,
      "taf_visibility_m": 3000,
      "worst_visibility_m": 3000,
      "ceiling_ft": null,
      "hazards": [
        "BR"
      ],
      "severityScore": 10,
      "metarRaw": "METAR EYKA 162350Z 18007KT 110V250 CAVOK M12/M15 Q1035",
      "tafRaw": "TAF EYKA 162300Z 1700/1724 16010KT 8000 NSC \n  TEMPO 1700/1706 VRB04KT 5000 BR \n  PROB40 \n  TEMPO 1700/1706 3000 SCT002"
    },
    {
      "icao": "LEZL",
      "iata": "SVQ",
      "name": "Sevilla Airport",
      "updatedAt": "162330Z",
      "visibility_m": 10000,
      "taf_visibility_m": 3000,
      "worst_visibility_m": 3000,
      "ceiling_ft": null,
      "hazards": [
        "BR"
      ],
      "severityScore": 10,
      "metarRaw": "METAR LEZL 162330Z 27004KT CAVOK 09/09 Q1014 NOSIG",
      "tafRaw": "TAF LEZL 162000Z 1621/1721 VRB03KT CAVOK TX14/1715Z TN04/1707Z \n  PROB30 \n  TEMPO 1703/1709 3000 BR"
    },
    {
      "icao": "LIPH",
      "iata": "TSF",
      "name": "Treviso Antonio Canova Airport",
      "updatedAt": "162350Z",
      "visibility_m": 2800,
      "taf_visibility_m": 7000,
      "worst_visibility_m": 2800,
      "ceiling_ft": null,
      "hazards": [
        "BR"
      ],
      "severityScore": 10,
      "metarRaw": "METAR LIPH 162350Z AUTO 15001KT 2800 BR BKN014/// OVC070/// 06/05 Q1023",
      "tafRaw": "TAF LIPH 162300Z 1700/1724 VRB04KT 7000 SCT040"
    },
    {
      "icao": "LRBC",
      "iata": "BCM",
      "name": "Bacău George Enescu International  Airport",
      "updatedAt": "162330Z",
      "visibility_m": 7000,
      "taf_visibility_m": 5000,
      "worst_visibility_m": 5000,
      "ceiling_ft": null,
      "hazards": [
        "BR"
      ],
      "severityScore": 10,
      "metarRaw": "METAR LRBC 162330Z 04004KT 7000 NSC M12/M15 Q1035",
      "tafRaw": "TAF LRBC 162300Z 1700/1709 03005KT 8000 NSC \n  PROB40 \n  TEMPO 1700/1706 5000 BR"
    },
    {
      "icao": "LRCV",
      "iata": "CRA",
      "name": "Craiova International Airport",
      "updatedAt": "162330Z",
      "visibility_m": 10000,
      "taf_visibility_m": 3000,
      "worst_visibility_m": 3000,
      "ceiling_ft": 4900,
      "hazards": [
        "BR"
      ],
      "severityScore": 10,
      "metarRaw": "METAR LRCV 162330Z 36002KT 9999 OVC049 M03/M05 Q1034",
      "tafRaw": "TAF LRCV 162300Z 1700/1709 VRB04KT 9999 OVC045 \n  PROB40 \n  TEMPO 1703/1706 3000 BR \n  BECMG 1707/1709 09010KT"
    },
    {
      "icao": "LRSB",
      "iata": "SBZ",
      "name": "Sibiu International Airport",
      "updatedAt": "162330Z",
      "visibility_m": 10000,
      "taf_visibility_m": 3000,
      "worst_visibility_m": 3000,
      "ceiling_ft": null,
      "hazards": [
        "BR"
      ],
      "severityScore": 10,
      "metarRaw": "METAR LRSB 162330Z 24005KT 9999 FEW026 M04/M05 Q1028",
      "tafRaw": "TAF LRSB 162300Z 1700/1724 VRB04KT 9999 SCT035 \n  PROB40 \n  TEMPO 1702/1707 3000 BR"
    },
    {
      "icao": "LZTT",
      "iata": "TAT",
      "name": "Poprad-Tatry Airport",
      "updatedAt": "162330Z",
      "visibility_m": 10000,
      "taf_visibility_m": 2500,
      "worst_visibility_m": 2500,
      "ceiling_ft": 3000,
      "hazards": [
        "BR"
      ],
      "severityScore": 10,
      "metarRaw": "METAR LZTT 162330Z 16004KT 9999 FEW004 OVC030 01/M00 Q1026",
      "tafRaw": "TAF LZTT 162315Z 1700/1800 22004KT 7000 FEW006 OVC030 \n  PROB30 \n  TEMPO 1700/1710 2500 BR FEW003 OVC012"
    },
    {
      "icao": "EDNY",
      "iata": "FDH",
      "name": "Friedrichshafen Airport",
      "updatedAt": "162350Z",
      "visibility_m": 1700,
      "taf_visibility_m": null,
      "worst_visibility_m": 1700,
      "ceiling_ft": null,
      "hazards": [],
      "severityScore": 5,
      "metarRaw": "METAR EDNY 162350Z AUTO 00000KT 5000 1700 // BKN140/// BKN200/// M00/M00 Q1017",
      "tafRaw": null
    },
    {
      "icao": "EETN",
      "iata": "TLL",
      "name": "Lennart Meri Tallinn Airport",
      "updatedAt": "162350Z",
      "visibility_m": 10000,
      "taf_visibility_m": null,
      "worst_visibility_m": 10000,
      "ceiling_ft": null,
      "hazards": [],
      "severityScore": 5,
      "metarRaw": "METAR EETN 162350Z 17009KT CAVOK M09/M12 Q1030",
      "tafRaw": null
    },
    {
      "icao": "EGNM",
      "iata": "LBA",
      "name": "Leeds Bradford Airport",
      "updatedAt": null,
      "visibility_m": null,
      "taf_visibility_m": null,
      "worst_visibility_m": null,
      "ceiling_ft": null,
      "hazards": [],
      "severityScore": 5,
      "metarRaw": null,
      "tafRaw": null
    },
    {
      "icao": "GMAD",
      "iata": "AGA",
      "name": "Al Massira Airport",
      "updatedAt": "162330Z",
      "visibility_m": 10000,
      "taf_visibility_m": 6000,
      "worst_visibility_m": 6000,
      "ceiling_ft": 2000,
      "hazards": [],
      "severityScore": 0,
      "metarRaw": "METAR GMAD 162330Z 26014KT CAVOK 13/13 Q1020 NOSIG",
      "tafRaw": "TAF GMAD 162300Z 1700/1806 12004KT 6000 SCT008 BKN020"
    },
    {
      "icao": "EDDK",
      "iata": "CGN",
      "name": "Cologne Bonn Airport",
      "updatedAt": "162350Z",
      "visibility_m": 10000,
      "taf_visibility_m": 10000,
      "worst_visibility_m": 10000,
      "ceiling_ft": 3000,
      "hazards": [],
      "severityScore": 0,
      "metarRaw": "METAR EDDK 162350Z AUTO 12006KT CAVOK 09/05 Q1016 NOSIG",
      "tafRaw": "TAF EDDK 162300Z 1700/1806 VRB03KT 9999 BKN030 \n  BECMG 1700/1703 12007KT"
    },
    {
      "icao": "EDLW",
      "iata": "DTM",
      "name": "Dortmund Airport",
      "updatedAt": "162350Z",
      "visibility_m": 10000,
      "taf_visibility_m": 10000,
      "worst_visibility_m": 10000,
      "ceiling_ft": 3000,
      "hazards": [],
      "severityScore": 0,
      "metarRaw": "METAR EDLW 162350Z AUTO 11004KT 9999 // OVC050/// 09/05 Q1016",
      "tafRaw": "TAF EDLW 161700Z 1618/1718 22005KT 9999 BKN030 \n  BECMG 1618/1620 14005KT"
    },
    {
      "icao": "HEGN",
      "iata": "HRG",
      "name": "Hurghada International Airport",
      "updatedAt": "162300Z",
      "visibility_m": 10000,
      "taf_visibility_m": 10000,
      "worst_visibility_m": 10000,
      "ceiling_ft": null,
      "hazards": [],
      "severityScore": 0,
      "metarRaw": "METAR HEGN 162300Z 29006KT CAVOK 14/03 Q1018 NOSIG",
      "tafRaw": "TAF HEGN 162300Z 1700/1806 28010KT CAVOK"
    },
    {
      "icao": "HEMA",
      "iata": "RMF",
      "name": "Marsa Alam International Airport",
      "updatedAt": "162300Z",
      "visibility_m": 10000,
      "taf_visibility_m": 10000,
      "worst_visibility_m": 10000,
      "ceiling_ft": null,
      "hazards": [],
      "severityScore": 0,
      "metarRaw": "METAR HEMA 162300Z 28007KT CAVOK 14/08 Q1018 NOSIG",
      "tafRaw": "TAF HEMA 162300Z 1700/1806 29008KT CAVOK"
    },
    {
      "icao": "HESH",
      "iata": "SSH",
      "name": "Sharm El Sheikh International Airport",
      "updatedAt": "162300Z",
      "visibility_m": 10000,
      "taf_visibility_m": 10000,
      "worst_visibility_m": 10000,
      "ceiling_ft": null,
      "hazards": [],
      "severityScore": 0,
      "metarRaw": "METAR HESH 162300Z 28004KT CAVOK 15/05 Q1017 NOSIG",
      "tafRaw": "TAF HESH 162300Z 1700/1806 31008KT CAVOK"
    },
    {
      "icao": "LBWN",
      "iata": "VAR",
      "name": "Varna Airport",
      "updatedAt": "162330Z",
      "visibility_m": 10000,
      "taf_visibility_m": 10000,
      "worst_visibility_m": 10000,
      "ceiling_ft": 2000,
      "hazards": [],
      "severityScore": 0,
      "metarRaw": "METAR LBWN 162330Z AUTO 36011KT 9999 OVC021/// M05/M08 Q1032 NOSIG",
      "tafRaw": "TAF LBWN 162300Z 1700/1724 35012KT 9999 BKN020 \n  BECMG 1718/1720 01023KT"
    },
    {
      "icao": "LEMG",
      "iata": "AGP",
      "name": "Málaga-Costa del Sol Airport",
      "updatedAt": "162330Z",
      "visibility_m": 10000,
      "taf_visibility_m": 10000,
      "worst_visibility_m": 10000,
      "ceiling_ft": null,
      "hazards": [],
      "severityScore": 0,
      "metarRaw": "METAR LEMG 162330Z 27005KT 9999 FEW050 SCT068 10/09 Q1013 NOSIG",
      "tafRaw": "TAF LEMG 162300Z 1700/1724 27006KT 9999 FEW030 SCT050 TX15/1714Z TN07/1707Z \n  BECMG 1710/1712 33010KT \n  BECMG 1719/1721 27006KT"
    },
    {
      "icao": "LIBD",
      "iata": "BRI",
      "name": "Bari Karol Wojtyła International Airport",
      "updatedAt": "162350Z",
      "visibility_m": 8000,
      "taf_visibility_m": 10000,
      "worst_visibility_m": 8000,
      "ceiling_ft": null,
      "hazards": [],
      "severityScore": 0,
      "metarRaw": "METAR LIBD 162350Z 24005KT 8000 SCT040 08/07 Q1021",
      "tafRaw": "TAF LIBD 162300Z 1700/1724 VRB05KT 9999 FEW030"
    },
    {
      "icao": "LIBG",
      "iata": "TAR",
      "name": "Taranto-Grottaglie Marcello Arlotta Airport",
      "updatedAt": null,
      "visibility_m": null,
      "taf_visibility_m": 8000,
      "worst_visibility_m": 8000,
      "ceiling_ft": null,
      "hazards": [],
      "severityScore": 0,
      "metarRaw": null,
      "tafRaw": "TAF LIBG 161700Z 1618/1703 VRB05KT 8000 FEW025"
    },
    {
      "icao": "LIRF",
      "iata": "FCO",
      "name": "Rome–Fiumicino Leonardo da Vinci International Airport",
      "updatedAt": "162350Z",
      "visibility_m": 10000,
      "taf_visibility_m": 10000,
      "worst_visibility_m": 10000,
      "ceiling_ft": null,
      "hazards": [],
      "severityScore": 0,
      "metarRaw": "METAR LIRF 162350Z 05003KT CAVOK 07/06 Q1018 NOSIG",
      "tafRaw": "TAF LIRF 162300Z 1700/1806 05008KT CAVOK"
    },
    {
      "icao": "LIRN",
      "iata": "NAP",
      "name": "Naples International Airport",
      "updatedAt": "162350Z",
      "visibility_m": 10000,
      "taf_visibility_m": 10000,
      "worst_visibility_m": 10000,
      "ceiling_ft": null,
      "hazards": [],
      "severityScore": 0,
      "metarRaw": "METAR LIRN 162350Z 30003KT CAVOK 07/04 Q1018 NOSIG",
      "tafRaw": "TAF LIRN 162300Z 1700/1724 05007KT CAVOK"
    },
    {
      "icao": "LRBV",
      "iata": "GHV",
      "name": "Brașov-Ghimbav International Airport",
      "updatedAt": "162330Z",
      "visibility_m": 10000,
      "taf_visibility_m": 10000,
      "worst_visibility_m": 10000,
      "ceiling_ft": 3000,
      "hazards": [],
      "severityScore": 0,
      "metarRaw": "METAR LRBV 162330Z AUTO 19003KT 9999 NCD M08/M11 Q1030",
      "tafRaw": "TAF LRBV 162000Z 1621/1706 VRB04KT 9999 BKN030"
    },
    {
      "icao": "LRCL",
      "iata": "CLJ",
      "name": "Cluj Avram Iancu International Airport",
      "updatedAt": "162330Z",
      "visibility_m": 10000,
      "taf_visibility_m": 10000,
      "worst_visibility_m": 10000,
      "ceiling_ft": null,
      "hazards": [],
      "severityScore": 0,
      "metarRaw": "METAR LRCL 162330Z 06006KT CAVOK M05/M08 Q1030",
      "tafRaw": "TAF LRCL 162300Z 1700/1709 06006KT CAVOK"
    },
    {
      "icao": "LRSM",
      "iata": "SUJ",
      "name": "Satu Mare International Airport",
      "updatedAt": "162330Z",
      "visibility_m": 10000,
      "taf_visibility_m": 10000,
      "worst_visibility_m": 10000,
      "ceiling_ft": null,
      "hazards": [],
      "severityScore": 0,
      "metarRaw": "METAR LRSM 162330Z AUTO 12007KT 9999 BKN042/// 02/M07 Q1029",
      "tafRaw": "TAF LRSM 161400Z 1615/1624 10006KT CAVOK"
    },
    {
      "icao": "LRTM",
      "iata": "TGM",
      "name": "Târgu Mureş Transilvania International Airport",
      "updatedAt": "162330Z",
      "visibility_m": 8000,
      "taf_visibility_m": 10000,
      "worst_visibility_m": 8000,
      "ceiling_ft": null,
      "hazards": [],
      "severityScore": 0,
      "metarRaw": "METAR LRTM 162330Z AUTO 09004KT 8000 NCD M10/M11 Q1030",
      "tafRaw": "TAF LRTM 161400Z 1615/1624 VRB04KT 9999 SCT045"
    },
    {
      "icao": "LYBE",
      "iata": "BEG",
      "name": "Belgrade Nikola Tesla Airport",
      "updatedAt": "162330Z",
      "visibility_m": 10000,
      "taf_visibility_m": 10000,
      "worst_visibility_m": 10000,
      "ceiling_ft": null,
      "hazards": [],
      "severityScore": 0,
      "metarRaw": "METAR LYBE 162330Z 12012KT CAVOK 00/M04 Q1027 NOSIG",
      "tafRaw": "TAF LYBE 162300Z 1700/1724 12015KT CAVOK TX04/1712Z TNM01/1706Z"
    },
    {
      "icao": "LYNI",
      "iata": "INI",
      "name": "Niš Constantine the Great Airport",
      "updatedAt": "162330Z",
      "visibility_m": 10000,
      "taf_visibility_m": 10000,
      "worst_visibility_m": 10000,
      "ceiling_ft": 2300,
      "hazards": [],
      "severityScore": 0,
      "metarRaw": "METAR LYNI 162330Z 02005KT 330V070 9999 BKN023 M00/M04 Q1029 NOSIG",
      "tafRaw": "TAF LYNI 162300Z 1700/1724 05007KT 9999 FEW017 SCT050 TX03/1712Z TNM02/1706Z"
    },
    {
      "icao": "LZKZ",
      "iata": "KSC",
      "name": "Košice International Airport",
      "updatedAt": "162330Z",
      "visibility_m": 10000,
      "taf_visibility_m": 10000,
      "worst_visibility_m": 10000,
      "ceiling_ft": 4300,
      "hazards": [],
      "severityScore": 0,
      "metarRaw": "METAR LZKZ 162330Z VRB02KT 9999 OVC043 03/M01 Q1029 NOSIG",
      "tafRaw": "TAF LZKZ 162315Z 1700/1800 02006KT 9999 OVC042 \n  BECMG 1709/1711 FEW020 \n  BECMG 1716/1718 33004KT \n  PROB40 \n  TEMPO 1715/1718 BKN012"
    },
    {
      "icao": "OEJN",
      "iata": "JED",
      "name": "King Abdulaziz International Airport",
      "updatedAt": "162300Z",
      "visibility_m": 10000,
      "taf_visibility_m": 3000,
      "worst_visibility_m": 3000,
      "ceiling_ft": null,
      "hazards": [],
      "severityScore": 0,
      "metarRaw": "METAR OEJN 162300Z 36004KT 9999 FEW040 23/12 Q1014 NOSIG",
      "tafRaw": "TAF OEJN 162300Z 1700/1806 VRB03KT 7000 FEW040 \n  PROB30 \n  TEMPO 1700/1706 3000 HZ \n  BECMG 1706/1708 28010KT \n  BECMG 1718/1720 VRB03KT"
    },
    {
      "icao": "OEMA",
      "iata": "MED",
      "name": "Prince Mohammad Bin Abdulaziz Airport",
      "updatedAt": "162300Z",
      "visibility_m": 10000,
      "taf_visibility_m": 7000,
      "worst_visibility_m": 7000,
      "ceiling_ft": null,
      "hazards": [],
      "severityScore": 0,
      "metarRaw": "METAR OEMA 162300Z 34005KT CAVOK 16/00 Q1020 NOSIG",
      "tafRaw": "TAF OEMA 162300Z 1700/1806 04008KT 7000 FEW040 \n  BECMG 1710/1712 27010KT \n  BECMG 1718/1720 VRB03KT"
    },
    {
      "icao": "OMAA",
      "iata": "AUH",
      "name": "Zayed International Airport",
      "updatedAt": "162300Z",
      "visibility_m": 10000,
      "taf_visibility_m": 8000,
      "worst_visibility_m": 8000,
      "ceiling_ft": null,
      "hazards": [],
      "severityScore": 0,
      "metarRaw": "METAR OMAA 162300Z 30010KT 9999 SCT040 19/10 Q1018 NOSIG",
      "tafRaw": "TAF OMAA 162300Z 1700/1806 32014KT 8000 SCT035 \n  PROB30 \n  TEMPO 1704/1713 32015G25KT"
    },
    {
      "icao": "OMDB",
      "iata": "DXB",
      "name": "Dubai International Airport",
      "updatedAt": "162300Z",
      "visibility_m": 10000,
      "taf_visibility_m": 8000,
      "worst_visibility_m": 8000,
      "ceiling_ft": null,
      "hazards": [],
      "severityScore": 0,
      "metarRaw": "METAR OMDB 162300Z 27012KT 9999 SCT040 20/10 Q1017 NOSIG",
      "tafRaw": "TAF OMDB 162300Z 1700/1806 28012KT 8000 SCT040 \n  PROB30 1701/1705 22007KT \n  BECMG 1716/1718 22006KT"
    }
  ],
  "stats": {
    "icaoCount": 159,
    "metarReturned": 156,
    "tafReturned": 154,
    "stationsWritten": 159,
    "missingMetar": 3,
    "missingTaf": 5
  },
  "errors": []
}