{
  "generatedAt": "2026-01-29T09:09:55.438Z",
  "stations": [
    {
      "icao": "EBCI",
      "iata": "CRL",
      "name": "Brussels South Charleroi Airport",
      "lat": 50.461963,
      "lon": 4.459562,
      "updatedAt": "290850Z",
      "visibility_m": 400,
      "taf_visibility_m": 400,
      "worst_visibility_m": 400,
      "ceiling_ft": 100,
      "hazards": [
        "FG",
        "BR",
        "DZ",
        "RA"
      ],
      "severityScore": 100,
      "metarRaw": "METAR EBCI 290850Z VRB01KT 1200 R24/P2000N BR BKN001 BKN002 01/01 Q0998 TEMPO 0400 -DZ FG BKN001",
      "tafRaw": "TAF EBCI 290505Z 2906/3012 02003KT 2500 -SG BR BKN003 \n  PROB40 \n  TEMPO 2906/2908 0400 BCFG BKN001 \n  BECMG 2908/2910 3500 BKN005 \n  BECMG 2910/2912 6000 NSW BKN010 \n  BECMG 2913/2915 BKN016 \n  TEMPO 3009/3012 4000 -RADZ BKN006"
    },
    {
      "icao": "EDDN",
      "iata": "NUE",
      "name": "Nuremberg Airport",
      "lat": 49.498699,
      "lon": 11.078056,
      "updatedAt": "290850Z",
      "visibility_m": 2800,
      "taf_visibility_m": 350,
      "worst_visibility_m": 350,
      "ceiling_ft": 500,
      "hazards": [
        "BR",
        "SN",
        "FZFG",
        "FG"
      ],
      "severityScore": 100,
      "metarRaw": "METAR EDDN 290850Z AUTO 34003KT 2800 -SN BR FEW003 OVC011 00/M00 Q0997 TEMPO 3000 BKN005",
      "tafRaw": "TAF EDDN 290500Z 2906/3006 VRB02KT 3500 -SN BR BKN005 \n  TEMPO 2906/2909 1200 SN BKN002 \n  TEMPO 2909/2916 BKN002 \n  BECMG 2916/2919 0600 FZFG VV002 \n  PROB40 \n  TEMPO 2919/3006 0350 FZFG VV001"
    },
    {
      "icao": "EDDS",
      "iata": "STR",
      "name": "Stuttgart Airport",
      "lat": 48.689899,
      "lon": 9.22196,
      "updatedAt": "290850Z",
      "visibility_m": 2000,
      "taf_visibility_m": 500,
      "worst_visibility_m": 500,
      "ceiling_ft": 400,
      "hazards": [
        "BR",
        "SN",
        "RA",
        "FZFG",
        "FG"
      ],
      "severityScore": 100,
      "metarRaw": "METAR EDDS 290850Z AUTO VRB02KT 3400 -SN BR FEW006 SCT020 BKN025 01/00 Q0997 TEMPO 2000 RASN BKN004",
      "tafRaw": "TAF EDDS 290500Z 2906/3006 VRB03KT 6000 SCT002 BKN010 \n  TEMPO 2906/2914 1500 -SNRA BR BKN002 \n  TEMPO 2918/3006 1500 BCFG BKN001 \n  PROB30 \n  TEMPO 2921/3006 0500 FZFG"
    },
    {
      "icao": "EDFH",
      "iata": "HHN",
      "name": "Frankfurt-Hahn Airport",
      "lat": 49.946353,
      "lon": 7.261734,
      "updatedAt": "290850Z",
      "visibility_m": 1500,
      "taf_visibility_m": 300,
      "worst_visibility_m": 300,
      "ceiling_ft": 300,
      "hazards": [
        "BR",
        "FZFG",
        "SN",
        "FG"
      ],
      "severityScore": 100,
      "metarRaw": "METAR EDFH 290850Z 15004KT 1500 BR OVC003 M00/M00 Q0997",
      "tafRaw": "TAF EDFH 290500Z 2906/3006 16005KT 3000 BR SCT001 BKN005 \n  TEMPO 2906/2916 0300 -SN FZFG VV001 \n  PROB40 \n  TEMPO 2916/3006 0300 FZFG VV001"
    },
    {
      "icao": "EDSB",
      "iata": "FKB",
      "name": "Karlsruhe Baden-Baden Airport",
      "lat": 48.7794,
      "lon": 8.0805,
      "updatedAt": "290850Z",
      "visibility_m": 7000,
      "taf_visibility_m": 800,
      "worst_visibility_m": 800,
      "ceiling_ft": 1000,
      "hazards": [
        "DZ",
        "FZFG",
        "BR",
        "RA",
        "FG"
      ],
      "severityScore": 100,
      "metarRaw": "METAR EDSB 290850Z 20003KT 7000 -DZ FEW007 BKN010 OVC012 03/02 Q0999",
      "tafRaw": "TAF EDSB 290500Z 2906/3006 VRB03KT 6000 SCT003 BKN015 \n  PROB40 \n  TEMPO 2906/2912 3000 -RA BR BKN003 \n  PROB30 \n  TEMPO 2912/2921 BKN009 \n  PROB40 \n  TEMPO 2921/3006 08006KT 0800 FZFG BKN001"
    },
    {
      "icao": "EGBB",
      "iata": "BHX",
      "name": "Birmingham Airport",
      "lat": 52.453899,
      "lon": -1.74803,
      "updatedAt": "290850Z",
      "visibility_m": 4100,
      "taf_visibility_m": 300,
      "worst_visibility_m": 300,
      "ceiling_ft": 200,
      "hazards": [
        "BR",
        "FZFG",
        "FG",
        "RA"
      ],
      "severityScore": 100,
      "metarRaw": "METAR EGBB 290850Z 12011KT 4100 BR OVC002 03/03 Q0997",
      "tafRaw": "TAF EGBB 290454Z 2906/3006 14008KT 0300 FG FZFG VV/// \n  PROB30 \n  TEMPO 2906/2911 3000 BR BKN005 \n  BECMG 2909/2912 9999 NSW FEW025 \n  PROB40 \n  TEMPO 2911/2914 BKN012 \n  PROB30 \n  TEMPO 2918/3006 13015G25KT \n  TEMPO 2919/3006 BKN014 \n  TEMPO 2922/3006 7000 RA \n  PROB30 \n  TEMPO 2923/3006 4000 +RA BKN008"
    },
    {
      "icao": "EGKK",
      "iata": "LGW",
      "name": "London Gatwick Airport",
      "lat": 51.148771,
      "lon": -0.192089,
      "updatedAt": "290850Z",
      "visibility_m": 400,
      "taf_visibility_m": 300,
      "worst_visibility_m": 300,
      "ceiling_ft": 200,
      "hazards": [
        "FG",
        "FZFG",
        "BR",
        "RA",
        "DZ"
      ],
      "severityScore": 100,
      "metarRaw": "METAR EGKK 290850Z 08007KT 0400 R26L/P1500N FG BKN002 BKN017 02/02 Q0998",
      "tafRaw": "TAF EGKK 290451Z 2906/3012 09003KT 0300 FZFG VV/// \n  PROB40 \n  TEMPO 2906/2909 5000 BR SCT015 \n  BECMG 2909/2912 9999 NSW BKN014 \n  PROB30 \n  TEMPO 2912/2915 2000 BR BKN002 \n  BECMG 2915/2918 SCT020 \n  TEMPO 2922/3012 8000 -RA BKN012 \n  PROB30 \n  TEMPO 3002/3009 4000 RADZ BKN006"
    },
    {
      "icao": "EPKK",
      "iata": "KRK",
      "name": "Kraków John Paul II International Airport",
      "lat": 50.077702,
      "lon": 19.7848,
      "updatedAt": "290900Z",
      "visibility_m": 5000,
      "taf_visibility_m": 1200,
      "worst_visibility_m": 1200,
      "ceiling_ft": 600,
      "hazards": [
        "BR",
        "SN",
        "FZDZ",
        "DZ"
      ],
      "severityScore": 100,
      "metarRaw": "METAR EPKK 290900Z 06011KT 5000 BR BKN006 OVC008 M01/M02 Q1001",
      "tafRaw": "TAF EPKK 290830Z 2909/3009 06010KT 3500 -FZDZ OVC005 \n  BECMG 2909/2911 6000 -SN BKN011 \n  TEMPO 2909/3009 3000 -SG BR BKN006 \n  PROB40 \n  TEMPO 2917/3009 1200 SN BKN002"
    },
    {
      "icao": "LEMD",
      "iata": "MAD",
      "name": "Adolfo Suárez Madrid–Barajas Airport",
      "lat": 40.471926,
      "lon": -3.56264,
      "updatedAt": "290900Z",
      "visibility_m": 10000,
      "taf_visibility_m": 800,
      "worst_visibility_m": 800,
      "ceiling_ft": 200,
      "hazards": [
        "FG",
        "BR",
        "RA",
        "DZ"
      ],
      "severityScore": 100,
      "metarRaw": "METAR LEMD 290900Z 21008KT 9999 SCT050 10/10 Q1004 NOSIG",
      "tafRaw": "TAF LEMD 290500Z 2906/3012 VRB04KT 9999 SCT020 TX14/2915Z TN06/3007Z \n  TEMPO 2906/2909 3000 DZRA RA BR BKN004 BKN010 \n  PROB30 \n  TEMPO 2906/2909 0800 FG VV002 \n  BECMG 2906/2908 25010KT \n  PROB30 \n  TEMPO 2907/2912 25015G25KT \n  TEMPO 2910/2915 VRB04KT DZRA \n  PROB30 \n  TEMPO 2916/3002 25015G25KT"
    },
    {
      "icao": "LFLS",
      "iata": "GNB",
      "name": "Grenoble Alpes Isère Airport",
      "lat": 45.3629,
      "lon": 5.32937,
      "updatedAt": "290900Z",
      "visibility_m": 250,
      "taf_visibility_m": 300,
      "worst_visibility_m": 250,
      "ceiling_ft": 900,
      "hazards": [
        "FG",
        "FZFG",
        "BR",
        "RA"
      ],
      "severityScore": 100,
      "metarRaw": "METAR LFLS 290900Z AUTO VRB01KT 0250 R09/0650U R27/0275N FG VV/// 02/02 Q1000 NOSIG",
      "tafRaw": "TAF LFLS 290800Z 2909/3009 VRB03KT CAVOK \n  TEMPO 2909/2911 0300 FG VV/// \n  TEMPO 2911/2916 36008KT \n  BECMG 2916/2918 08005KT \n  TEMPO 2918/2924 0600 FG \n  PROB30 \n  TEMPO 2919/2923 FZFG \n  FM300000 VRB03KT 9999 BKN050 \n  TEMPO 3000/3008 20008KT 4000 -RA BR BKN009 OVC040 \n  FM300800 08006KT 9999 BKN060 \n  PROB40 \n  TEMPO 3008/3009 3000 BR BKN009"
    },
    {
      "icao": "LFOB",
      "iata": "BVA",
      "name": "Beauvais Tillé airport",
      "lat": 49.454399,
      "lon": 2.11278,
      "updatedAt": "290900Z",
      "visibility_m": 250,
      "taf_visibility_m": 400,
      "worst_visibility_m": 250,
      "ceiling_ft": 300,
      "hazards": [
        "FZFG",
        "FG",
        "BR",
        "RA"
      ],
      "severityScore": 100,
      "metarRaw": "METAR LFOB 290900Z AUTO 15003KT 0300 0250 R30/0275N R12/0375N FG VV/// 00/00 Q0999 TEMPO 0400 FZFG",
      "tafRaw": "TAF LFOB 290500Z 2906/3006 15005KT 3000 BR OVC003 \n  TEMPO 2906/2911 0400 FZFG VV/// \n  BECMG 2911/2915 9999 NSW BKN008 OVC012 \n  PROB40 \n  TEMPO 2915/2920 SCT009 \n  TEMPO 3000/3006 4000 RA OVC004"
    },
    {
      "icao": "LFPO",
      "iata": "ORY",
      "name": "Paris-Orly Airport",
      "lat": 48.72333,
      "lon": 2.37944,
      "updatedAt": "290900Z",
      "visibility_m": 450,
      "taf_visibility_m": 300,
      "worst_visibility_m": 300,
      "ceiling_ft": 400,
      "hazards": [
        "FG",
        "BR",
        "RA"
      ],
      "severityScore": 100,
      "metarRaw": "METAR LFPO 290900Z 19005KT 140V230 0450 R02/0900U R25/0700N R07/0750U R24/0650N R06/0650U FG VV/// 01/01 Q1000 NOSIG",
      "tafRaw": "TAF LFPO 290500Z 2906/3012 16005KT 0800 FG VV/// \n  TEMPO 2906/2910 0300 \n  BECMG 2911/2913 3000 BR BKN004 \n  BECMG 2913/2915 8000 NSW BKN008 \n  BECMG 2915/2917 BKN017 \n  TEMPO 3000/3006 4000 -RA BKN008 \n  PROB40 \n  TEMPO 3001/3006 BKN004 \n  BECMG 3006/3008 23010KT \n  TEMPO 3006/3010 BKN008"
    },
    {
      "icao": "LIMC",
      "iata": "MXP",
      "name": "Milan Malpensa International Airport",
      "lat": 45.6306,
      "lon": 8.72811,
      "updatedAt": "290850Z",
      "visibility_m": 300,
      "taf_visibility_m": null,
      "worst_visibility_m": 300,
      "ceiling_ft": 200,
      "hazards": [
        "FG"
      ],
      "severityScore": 100,
      "metarRaw": "METAR LIMC 290850Z VRB02KT 0300 R35R/0375N R17L/0400N R35L/0400N FG VV002 04/04 Q0995 NOSIG",
      "tafRaw": null
    },
    {
      "icao": "LIPR",
      "iata": "RMI",
      "name": "Federico Fellini International Airport",
      "lat": 44.020024,
      "lon": 12.612198,
      "updatedAt": "290850Z",
      "visibility_m": 300,
      "taf_visibility_m": 800,
      "worst_visibility_m": 300,
      "ceiling_ft": 200,
      "hazards": [
        "FG",
        "BR"
      ],
      "severityScore": 100,
      "metarRaw": "METAR LIPR 290850Z VRB02KT 0300 R30/0600U FG OVC002 05/05 Q0995",
      "tafRaw": "TAF LIPR 290500Z 2906/3006 VRB05KT 3000 BR FEW005 \n  TEMPO 2906/2911 0800 FG BKN002 \n  BECMG 2911/2913 6000 \n  BECMG 2918/2920 3000 BR \n  TEMPO 3004/3006 1200 BCFG"
    },
    {
      "icao": "LIPX",
      "iata": "VRN",
      "name": "Verona Villafranca Valerio Catullo Airport",
      "lat": 45.394955,
      "lon": 10.887303,
      "updatedAt": "290850Z",
      "visibility_m": 200,
      "taf_visibility_m": null,
      "worst_visibility_m": 200,
      "ceiling_ft": 100,
      "hazards": [
        "FG"
      ],
      "severityScore": 100,
      "metarRaw": "METAR LIPX 290850Z VRB02KT 0200 R04/0275N FG BKN001 05/05 Q0995",
      "tafRaw": null
    },
    {
      "icao": "LIPZ",
      "iata": "VCE",
      "name": "Venice Marco Polo Airport",
      "lat": 45.505299,
      "lon": 12.3519,
      "updatedAt": "290850Z",
      "visibility_m": 900,
      "taf_visibility_m": 200,
      "worst_visibility_m": 200,
      "ceiling_ft": 200,
      "hazards": [
        "FG",
        "BR"
      ],
      "severityScore": 100,
      "metarRaw": "METAR LIPZ 290850Z VRB02KT 0900 R04R/1100N FG BKN002 05/05 Q0995 BECMG 1500 BCFG",
      "tafRaw": "TAF LIPZ 290500Z 2906/3012 24006KT 0400 FG OVC001 \n  BECMG 2909/2911 6000 SCT010 \n  BECMG 2918/2920 3000 BR \n  BECMG 2922/2924 0200 FG OVC001 \n  BECMG 3009/3011 6000 SCT020"
    },
    {
      "icao": "LKPR",
      "iata": "PRG",
      "name": "Václav Havel Airport Prague",
      "lat": 50.100874,
      "lon": 14.259911,
      "updatedAt": "290900Z",
      "visibility_m": 1700,
      "taf_visibility_m": 400,
      "worst_visibility_m": 400,
      "ceiling_ft": 300,
      "hazards": [
        "SN",
        "FZFG",
        "BR",
        "FG"
      ],
      "severityScore": 100,
      "metarRaw": "METAR LKPR 290900Z 08010KT 1700 SN OVC003 M01/M01 Q0997 NOSIG",
      "tafRaw": "TAF LKPR 290800Z 2909/3015 06009KT 3000 -SN BR OVC005 \n  TEMPO 2909/3003 0700 SN OVC002 \n  PROB40 \n  TEMPO 2921/3010 0400 FZFG VV002 \n  TEMPO 3011/3015 5000 BR BKN010"
    },
    {
      "icao": "LQBK",
      "iata": "BNX",
      "name": "Banja Luka International Airport",
      "lat": 44.941399,
      "lon": 17.297501,
      "updatedAt": "290900Z",
      "visibility_m": 10000,
      "taf_visibility_m": 300,
      "worst_visibility_m": 300,
      "ceiling_ft": 100,
      "hazards": [
        "FG"
      ],
      "severityScore": 100,
      "metarRaw": "METAR LQBK 290900Z 15003KT 9999 FEW005 07/06 Q0995 NOSIG",
      "tafRaw": "TAF LQBK 290500Z 2906/3006 16005KT 9999 SCT045 TX10/2913Z TN02/2906Z \n  TEMPO 2906/2910 2000 BCFG \n  PROB40 2906/2909 0300 FG BKN001 \n  BECMG 2913/2916 33010KT \n  PROB30 2918/2924 BKN015 OVC030 \n  BECMG 3003/3006 27005KT"
    },
    {
      "icao": "LRIA",
      "iata": "IAS",
      "name": "Iaşi Airport",
      "lat": 47.180278,
      "lon": 27.620833,
      "updatedAt": "290900Z",
      "visibility_m": 600,
      "taf_visibility_m": 300,
      "worst_visibility_m": 300,
      "ceiling_ft": 100,
      "hazards": [
        "FG",
        "BR",
        "DZ"
      ],
      "severityScore": 100,
      "metarRaw": "METAR LRIA 290900Z VRB03KT 0600 R14/1000U FG OVC001 02/01 Q1000",
      "tafRaw": "TAF LRIA 290800Z 2909/2918 31006KT 0300 FG OVC001 \n  BECMG 2909/2910 0600 OVC002 \n  BECMG 2910/2912 1500 BR BKN005 BKN025 \n  PROB40 \n  TEMPO 2912/2915 3000 BKN010 BKN025 \n  TEMPO 2915/2918 0600 -DZ FG OVC002"
    },
    {
      "icao": "LRSB",
      "iata": "SBZ",
      "name": "Sibiu International Airport",
      "lat": 45.785841,
      "lon": 24.086666,
      "updatedAt": "290900Z",
      "visibility_m": 10000,
      "taf_visibility_m": 300,
      "worst_visibility_m": 300,
      "ceiling_ft": 100,
      "hazards": [
        "FG",
        "BR",
        "RA"
      ],
      "severityScore": 100,
      "metarRaw": "METAR LRSB 290900Z 01001KT 9999 FEW065 SCT080 05/03 Q0997 NOSIG",
      "tafRaw": "TAF LRSB 290500Z 2906/3006 VRB04KT 9999 SCT035 BKN060 \n  TEMPO 2906/2909 3000 -RA BR BKN015 BKN050 \n  BECMG 2914/2916 3000 BR BKN010 \n  BECMG 2918/2920 1500 BR OVC005 \n  BECMG 2921/2923 0600 FG OVC002 \n  TEMPO 3002/3006 0300 FG OVC001"
    },
    {
      "icao": "LRSV",
      "iata": "SCV",
      "name": "Suceava Stefan cel Mare Airport",
      "lat": 47.6875,
      "lon": 26.35409927368164,
      "updatedAt": "290900Z",
      "visibility_m": 500,
      "taf_visibility_m": 300,
      "worst_visibility_m": 300,
      "ceiling_ft": 100,
      "hazards": [
        "FZFG",
        "FG",
        "BR",
        "SN",
        "FZDZ",
        "RA",
        "DZ"
      ],
      "severityScore": 100,
      "metarRaw": "METAR LRSV 290900Z 35008KT 0500 R34/0900U FZFG VV001 M00/M01 Q0999",
      "tafRaw": "TAF LRSV 290800Z 2909/2918 01006KT 0800 FZFG OVC002 \n  TEMPO 2909/2911 0300 -FZDZ FZFG OVC001 \n  BECMG 2911/2913 1500 -RASN BR BKN005 OVC020 \n  TEMPO 2914/2918 0600 -SN BR BKN002 OVC015"
    },
    {
      "icao": "LUKK",
      "iata": "RMO",
      "name": "Chişinău International Airport",
      "lat": 46.9277,
      "lon": 28.931,
      "updatedAt": "290900Z",
      "visibility_m": 300,
      "taf_visibility_m": 200,
      "worst_visibility_m": 200,
      "ceiling_ft": 200,
      "hazards": [
        "FG",
        "BR"
      ],
      "severityScore": 100,
      "metarRaw": "METAR LUKK 290900Z VRB03KT 0300 0250NW R08/0400N FG VV002 03/03 Q0999 NOSIG",
      "tafRaw": "TAF LUKK 290516Z 2906/3006 VRB05KT 0500 FG VV002 \n  TEMPO 2906/2909 0200 VV001 \n  TEMPO 2912/3006 1500 BR OVC003"
    },
    {
      "icao": "UAAA",
      "iata": "ALA",
      "name": "Almaty International Airport",
      "lat": 43.354267,
      "lon": 77.042828,
      "updatedAt": "290900Z",
      "visibility_m": 3000,
      "taf_visibility_m": 200,
      "worst_visibility_m": 200,
      "ceiling_ft": 900,
      "hazards": [
        "BR",
        "FZFG",
        "FG"
      ],
      "severityScore": 100,
      "metarRaw": "METAR UAAA 290900Z 08003MPS 040V120 3000 BR OVC009 M00/M03 Q1028 NOSIG",
      "tafRaw": "TAF UAAA 290504Z 2906/3006 04003MPS 2000 BR BKN004 OVC011 TXM01/2908Z TNM05/3002Z \n  TEMPO 2906/2908 0400 FZFG VV002 \n  TEMPO 2908/2912 3100 BKN011 OVC030 \n  BECMG 2914/2915 0700 FZFG VV003 \n  TEMPO 2914/3002 0200 VV001 \n  TEMPO 3002/3006 0200 VV001"
    },
    {
      "icao": "UDYZ",
      "iata": "EVN",
      "name": "Zvartnots International Airport",
      "lat": 40.148941,
      "lon": 44.397887,
      "updatedAt": "290900Z",
      "visibility_m": 4100,
      "taf_visibility_m": 800,
      "worst_visibility_m": 800,
      "ceiling_ft": 500,
      "hazards": [
        "BR",
        "FZFG",
        "SN",
        "FG"
      ],
      "severityScore": 100,
      "metarRaw": "METAR UDYZ 290900Z VRB01KT 4100 BR FEW016 M02/M06 Q1018 NOSIG",
      "tafRaw": "TAF UDYZ 290500Z 2906/3006 24006KT 2000 BR BKN015 \n  TEMPO 2906/2909 0800 -SN FZFG OVC005"
    },
    {
      "icao": "EHBK",
      "iata": "MST",
      "name": "Maastricht Aachen Airport",
      "lat": 50.911701,
      "lon": 5.77014,
      "updatedAt": "290855Z",
      "visibility_m": 5000,
      "taf_visibility_m": 700,
      "worst_visibility_m": 700,
      "ceiling_ft": 200,
      "hazards": [
        "BR",
        "FG"
      ],
      "severityScore": 90,
      "metarRaw": "METAR EHBK 290855Z AUTO VRB02KT 5000 BR BKN008/// OVC009/// 00/M01 Q0999 TEMPO BKN002",
      "tafRaw": "TAF EHBK 290509Z 2906/3012 30003KT 3000 BR BKN004 \n  PROB40 \n  TEMPO 2906/2909 6000 NSW BKN006 \n  BECMG 2909/2912 9999 NSW BKN008 \n  PROB40 \n  TEMPO 2912/2921 BKN012 \n  BECMG 2914/2917 BKN016 \n  BECMG 2917/2920 7000 \n  PROB30 \n  TEMPO 3002/3007 0700 FG BKN001 \n  BECMG 3004/3007 09005KT \n  BECMG 3007/3010 CAVOK"
    },
    {
      "icao": "LIME",
      "iata": "BGY",
      "name": "Milan Bergamo Airport / Antonio Locatelli Air Base",
      "lat": 45.670725,
      "lon": 9.709223,
      "updatedAt": "290850Z",
      "visibility_m": 3000,
      "taf_visibility_m": 800,
      "worst_visibility_m": 800,
      "ceiling_ft": 300,
      "hazards": [
        "BR",
        "FG"
      ],
      "severityScore": 90,
      "metarRaw": "METAR LIME 290850Z VRB02KT 3000 BR BKN003 05/05 Q0995 BECMG 5000 BR",
      "tafRaw": "TAF LIME 290500Z 2906/3006 VRB04KT 6000 SCT010 BKN025 \n  TEMPO 2906/2909 0800 FG BKN008 \n  TEMPO 2920/3006 0800 FG BKN005"
    },
    {
      "icao": "LIPE",
      "iata": "BLQ",
      "name": "Bologna Guglielmo Marconi Airport",
      "lat": 44.5354,
      "lon": 11.2887,
      "updatedAt": "290850Z",
      "visibility_m": 8000,
      "taf_visibility_m": 600,
      "worst_visibility_m": 600,
      "ceiling_ft": 200,
      "hazards": [
        "FG",
        "BR"
      ],
      "severityScore": 90,
      "metarRaw": "METAR LIPE 290850Z 21003KT 8000 SCT070 06/05 Q0995",
      "tafRaw": "TAF LIPE 290500Z 2906/3006 VRB05KT 4000 BR SCT020 \n  TEMPO 2906/2908 0800 FG BKN002 \n  BECMG 2908/2910 8000 \n  BECMG 2918/2920 4000 BR \n  BECMG 3002/3004 0600 FG OVC002"
    },
    {
      "icao": "LIPH",
      "iata": "TSF",
      "name": "Treviso Antonio Canova Airport",
      "lat": 45.648399,
      "lon": 12.1944,
      "updatedAt": "290850Z",
      "visibility_m": 700,
      "taf_visibility_m": 600,
      "worst_visibility_m": 600,
      "ceiling_ft": 200,
      "hazards": [
        "FG",
        "BR"
      ],
      "severityScore": 90,
      "metarRaw": "METAR LIPH 290850Z VRB01KT 0700 R07/1000N FG VV002 06/06 Q0995",
      "tafRaw": "TAF LIPH 290500Z 2906/3006 VRB05KT 0800 FG BKN002 \n  BECMG 2909/2911 7000 SCT020 \n  BECMG 2917/2919 3000 BR \n  TEMPO 2921/3006 0600 FG OVC002"
    },
    {
      "icao": "LFBD",
      "iata": "BOD",
      "name": "Bordeaux–Mérignac Airport",
      "lat": 44.82865,
      "lon": -0.715356,
      "updatedAt": "290900Z",
      "visibility_m": 10000,
      "taf_visibility_m": 2000,
      "worst_visibility_m": 2000,
      "ceiling_ft": 1000,
      "hazards": [
        "TSRA",
        "SHRA",
        "TS",
        "RA"
      ],
      "severityScore": 88,
      "metarRaw": "METAR LFBD 290900Z AUTO 17006KT 140V200 CAVOK 07/05 Q0998 NOSIG",
      "tafRaw": "TAF LFBD 290500Z 2906/3012 VRB03KT CAVOK TX12/2915Z TN05/2906Z \n  BECMG 2910/2912 23010KT \n  TEMPO 2912/3006 4000 SHRA BKN010 BKN030TCU \n  PROB30 \n  TEMPO 2921/2924 27015G30KT 2000 TSRA BKN010 BKN025CB"
    },
    {
      "icao": "LTAC",
      "iata": "ESB",
      "name": "Esenboğa International Airport",
      "lat": 40.128101,
      "lon": 32.995098,
      "updatedAt": "290850Z",
      "visibility_m": 7000,
      "taf_visibility_m": 400,
      "worst_visibility_m": 400,
      "ceiling_ft": 10000,
      "hazards": [
        "FG",
        "SHRA",
        "RA"
      ],
      "severityScore": 81,
      "metarRaw": "METAR LTAC 290850Z VRB01KT 7000 SCT040 BKN100 05/03 Q1011 NOSIG RMK RWY21C 15002KT RWY03L VRB01KT RWY21R VRB01KT RWY03R VRB02KT RWY21L 00000KT",
      "tafRaw": "TAF LTAC 290440Z 2906/3006 VRB02KT 2000 BCFG BKN010 \n  TEMPO 2906/2907 0400 FG BKN001 \n  BECMG 2908/2910 8000 SCT040 BKN100 \n  BECMG 2910/2912 21015KT \n  TEMPO 2913/2917 20020G30KT -SHRA BKN030 BKN080 \n  TEMPO 2920/2924 21020G35KT -SHRA BKN030 BKN080 \n  TEMPO 3002/3006 21020G30KT -SHRA BKN030 BKN080"
    },
    {
      "icao": "LPPT",
      "iata": "LIS",
      "name": "Lisbon Humberto Delgado Airport",
      "lat": 38.7813,
      "lon": -9.13592,
      "updatedAt": "290900Z",
      "visibility_m": 5000,
      "taf_visibility_m": 1200,
      "worst_visibility_m": 1200,
      "ceiling_ft": 400,
      "hazards": [
        "BR",
        "RA",
        "DZ"
      ],
      "severityScore": 77,
      "metarRaw": "METAR LPPT 290900Z 25018KT 5000 -DZRA BR BKN004 16/16 Q1009",
      "tafRaw": "TAF LPPT 290500Z 2906/3012 23015KT 6000 -RA SCT004 BKN008 \n  TEMPO 2906/2914 23018G30KT 3000 RADZ BR SCT002 BKN004 \n  PROB30 \n  TEMPO 2906/2911 1200 DZ BR BKN002 \n  BECMG 2914/2916 29010KT 9999 NSW SCT020 \n  BECMG 2922/2924 25007KT SCT012 \n  PROB30 \n  TEMPO 3003/3009 3000 BR SCT003"
    },
    {
      "icao": "LEBB",
      "iata": "BIO",
      "name": "Bilbao Airport",
      "lat": 43.301102,
      "lon": -2.91061,
      "updatedAt": "290900Z",
      "visibility_m": 10000,
      "taf_visibility_m": 3000,
      "worst_visibility_m": 3000,
      "ceiling_ft": null,
      "hazards": [
        "TSRA",
        "SHRA",
        "TS",
        "RA"
      ],
      "severityScore": 76,
      "metarRaw": "METAR LEBB 290900Z 20016KT 170V250 9999 FEW070 13/06 Q0999 NOSIG",
      "tafRaw": "TAF LEBB 290500Z 2906/3006 22009KT 9999 FEW030 TX16/2914Z TN08/3002Z \n  PROB40 \n  TEMPO 2906/2912 20015G25KT \n  PROB30 \n  TEMPO 2906/2907 3000 SHRA SCT035TCU \n  TEMPO 2917/2923 27018G28KT 3000 SHRA SCT035TCU \n  PROB40 \n  TEMPO 2917/2923 TSRA SCT035CB"
    },
    {
      "icao": "LEXJ",
      "iata": "SDR",
      "name": "Seve Ballesteros-Santander Airport",
      "lat": 43.427101,
      "lon": -3.82001,
      "updatedAt": "290900Z",
      "visibility_m": 10000,
      "taf_visibility_m": 3000,
      "worst_visibility_m": 3000,
      "ceiling_ft": null,
      "hazards": [
        "TSRA",
        "SHRA",
        "TS",
        "RA"
      ],
      "severityScore": 76,
      "metarRaw": "METAR LEXJ 290900Z 22008KT 190V250 9999 FEW050 13/05 Q0997",
      "tafRaw": "TAF LEXJ 290800Z 2909/3009 22009KT 9999 FEW040 TX16/2914Z TN09/3005Z \n  TEMPO 2918/2923 24018G28KT \n  TEMPO 2916/2922 3000 SHRA SCT035TCU \n  PROB40 \n  TEMPO 2917/2921 27025G45KT TSRA SCT035CB \n  TEMPO 3007/3009 20018G30KT"
    },
    {
      "icao": "LMML",
      "iata": "MLA",
      "name": "Malta International Airport",
      "lat": 35.857498,
      "lon": 14.4775,
      "updatedAt": "290845Z",
      "visibility_m": 10000,
      "taf_visibility_m": 4000,
      "worst_visibility_m": 4000,
      "ceiling_ft": null,
      "hazards": [
        "TSRA",
        "SHRA",
        "TS",
        "RA"
      ],
      "severityScore": 76,
      "metarRaw": "METAR LMML 290845Z 26030G43KT 9999 FEW028 15/10 Q1003 NOSIG",
      "tafRaw": "TAF LMML 290500Z 2906/3006 28030G40KT 9999 FEW020 \n  PROB30 \n  TEMPO 2906/2912 8000 SHRA BKN015TCU \n  BECMG 2915/2918 29022KT \n  BECMG 2921/2924 25010KT \n  PROB40 \n  TEMPO 3000/3006 4000 TSRA TSRAGS BKN015CB"
    },
    {
      "icao": "EDLW",
      "iata": "DTM",
      "name": "Dortmund Airport",
      "lat": 51.518299,
      "lon": 7.61224,
      "updatedAt": "290850Z",
      "visibility_m": 3000,
      "taf_visibility_m": 1500,
      "worst_visibility_m": 1500,
      "ceiling_ft": 400,
      "hazards": [
        "BR",
        "SN"
      ],
      "severityScore": 73,
      "metarRaw": "METAR EDLW 290850Z COR 04007KT 3000 BR BKN004 M00/M01 Q0999",
      "tafRaw": "TAF EDLW 290500Z 2906/3006 07006KT 6000 OVC007 \n  TEMPO 2906/2908 2500 -SN BR BKN004 \n  PROB30 \n  TEMPO 2908/2910 3500 -SN BR BKN004 \n  TEMPO 2912/2924 3000 -SN BKN004 \n  PROB30 \n  TEMPO 2913/2922 1500 SN \n  BECMG 3000/3003 BKN010 \n  BECMG 3003/3006 BKN020"
    },
    {
      "icao": "LGTS",
      "iata": "SKG",
      "name": "Thessaloniki Macedonia International Airport",
      "lat": 40.51928,
      "lon": 22.970009,
      "updatedAt": "290850Z",
      "visibility_m": 7000,
      "taf_visibility_m": 3000,
      "worst_visibility_m": 3000,
      "ceiling_ft": 2000,
      "hazards": [
        "BR",
        "TS",
        "TSRA",
        "RA"
      ],
      "severityScore": 72,
      "metarRaw": "METAR LGTS 290850Z VRB02KT 7000 3500NE BR SCT006 BKN020 09/09 Q0997 NOSIG",
      "tafRaw": "TAF LGTS 290500Z 2906/3006 34010KT 9999 FEW010 BKN025 \n  TEMPO 2906/3006 5000 RA \n  PROB40 \n  TEMPO 2910/2914 3000 TSRA FEW008 FEW018CB BKN020"
    },
    {
      "icao": "EGPF",
      "iata": "GLA",
      "name": "Glasgow Airport",
      "lat": 55.871899,
      "lon": -4.43306,
      "updatedAt": "290850Z",
      "visibility_m": 7000,
      "taf_visibility_m": 3000,
      "worst_visibility_m": 3000,
      "ceiling_ft": 300,
      "hazards": [
        "BR",
        "RA",
        "DZ"
      ],
      "severityScore": 67,
      "metarRaw": "METAR EGPF 290850Z AUTO 07007KT 7000 NCD 02/02 Q0998",
      "tafRaw": "TAF EGPF 290501Z 2906/3006 09007KT 9999 FEW018 SCT040 \n  TEMPO 2906/2908 3000 BR BKN003 \n  PROB30 \n  TEMPO 2908/2910 6000 \n  BECMG 2918/2921 09015G25KT \n  TEMPO 3004/3006 7000 RA -RADZ BKN014"
    },
    {
      "icao": "LHBP",
      "iata": "BUD",
      "name": "Budapest Liszt Ferenc International Airport",
      "lat": 47.43018,
      "lon": 19.262393,
      "updatedAt": "290900Z",
      "visibility_m": 9000,
      "taf_visibility_m": 1400,
      "worst_visibility_m": 1400,
      "ceiling_ft": 500,
      "hazards": [
        "RA",
        "BR",
        "DZ"
      ],
      "severityScore": 67,
      "metarRaw": "METAR LHBP 290900Z 06006KT 040V100 9000 -RA OVC005 04/04 Q0996 NOSIG",
      "tafRaw": "TAF LHBP 290515Z 2906/3006 06009KT 8000 -RA FEW007 OVC025 \n  TEMPO 2906/2917 2500 RA BKN004 OVC015 \n  BECMG 2914/2917 01005KT \n  TEMPO 2917/3006 VRB02KT 1400 DZ BR OVC002"
    },
    {
      "icao": "LRTR",
      "iata": "TSR",
      "name": "Timişoara Traian Vuia Airport",
      "lat": 45.809898,
      "lon": 21.3379,
      "updatedAt": "290900Z",
      "visibility_m": 10000,
      "taf_visibility_m": 600,
      "worst_visibility_m": 600,
      "ceiling_ft": 4300,
      "hazards": [
        "FG",
        "BR",
        "RA"
      ],
      "severityScore": 67,
      "metarRaw": "METAR LRTR 290900Z 11009KT 9999 BKN043 07/07 Q0996 NOSIG",
      "tafRaw": "TAF LRTR 290500Z 2906/3006 11010KT 9999 -RA OVC040 \n  TEMPO 2906/2910 5000 RA BKN010 OVC025 \n  BECMG 2916/2918 26006KT 5000 BR BKN010 \n  BECMG 2920/2922 3000 BR BKN005 \n  TEMPO 3001/3004 0600 FG OVC001"
    },
    {
      "icao": "LIPY",
      "iata": "AOI",
      "name": "Marche Airport",
      "lat": 43.616299,
      "lon": 13.3623,
      "updatedAt": "290850Z",
      "visibility_m": 10000,
      "taf_visibility_m": 1200,
      "worst_visibility_m": 1200,
      "ceiling_ft": 7000,
      "hazards": [
        "BR",
        "SHRA",
        "FG",
        "RA"
      ],
      "severityScore": 66,
      "metarRaw": "METAR LIPY 290850Z AUTO 26006KT 9999 OVC083/// 10/06 Q0995",
      "tafRaw": "TAF LIPY 290500Z 2906/3006 VRB05KT 9999 FEW030 BKN070 \n  BECMG 2910/2912 35010KT \n  BECMG 2914/2916 VRB05KT \n  TEMPO 2914/2918 SHRA \n  BECMG 2922/2924 4000 BR \n  TEMPO 3000/3006 1200 BCFG"
    },
    {
      "icao": "EDJA",
      "iata": "FMM",
      "name": "Memmingen Allgau Airport",
      "lat": 47.988092,
      "lon": 10.238248,
      "updatedAt": "290850Z",
      "visibility_m": 2400,
      "taf_visibility_m": 2000,
      "worst_visibility_m": 2000,
      "ceiling_ft": 400,
      "hazards": [
        "SN",
        "RA"
      ],
      "severityScore": 65,
      "metarRaw": "METAR EDJA 290850Z 23008KT 2400 -SN BKN004 BKN009 OVC023 00/M00 Q0996",
      "tafRaw": "TAF EDJA 290800Z 2909/2918 25008KT 4000 -SN OVC005 \n  TEMPO 2909/2911 2000 SN BKN003 \n  TEMPO 2911/2913 2500 -SNRA \n  BECMG 2913/2916 6000 \n  TEMPO 2914/2918 SCT007 BKN015"
    },
    {
      "icao": "EETN",
      "iata": "TLL",
      "name": "Lennart Meri Tallinn Airport",
      "lat": 59.413246,
      "lon": 24.83264,
      "updatedAt": "290850Z",
      "visibility_m": 10000,
      "taf_visibility_m": 2000,
      "worst_visibility_m": 2000,
      "ceiling_ft": 300,
      "hazards": [
        "BR",
        "FG"
      ],
      "severityScore": 65,
      "metarRaw": "METAR EETN 290850Z 09009KT CAVOK M11/M13 Q1019 NOSIG",
      "tafRaw": "TAF EETN 290530Z 2906/3006 09010KT 9999 SCT012 \n  TEMPO 2906/2912 BKN010 \n  PROB40 \n  TEMPO 3000/3006 2000 MIFG BR BKN003"
    },
    {
      "icao": "LIPQ",
      "iata": "TRS",
      "name": "Trieste–Friuli Venezia Giulia Airport",
      "lat": 45.827499,
      "lon": 13.4722,
      "updatedAt": "290850Z",
      "visibility_m": 10000,
      "taf_visibility_m": 1500,
      "worst_visibility_m": 1500,
      "ceiling_ft": 500,
      "hazards": [
        "BR",
        "FG"
      ],
      "severityScore": 65,
      "metarRaw": "METAR LIPQ 290850Z AUTO 04003KT 020V080 9999 OVC010/// 09/07 Q0995",
      "tafRaw": "TAF LIPQ 290500Z 2906/3006 VRB05KT 2000 BR OVC005 \n  TEMPO 2907/2909 8000 SCT020 \n  TEMPO 2920/2924 1500 BCFG"
    },
    {
      "icao": "LZIB",
      "iata": "BTS",
      "name": "M. R. Štefánik Airport",
      "lat": 48.1702,
      "lon": 17.2127,
      "updatedAt": "290900Z",
      "visibility_m": 7000,
      "taf_visibility_m": 2000,
      "worst_visibility_m": 2000,
      "ceiling_ft": 800,
      "hazards": [
        "RA",
        "BR",
        "SN"
      ],
      "severityScore": 65,
      "metarRaw": "METAR LZIB 290900Z 36006KT 7000 -RA FEW009 BKN011 BKN017 04/04 Q0997 TEMPO BKN008",
      "tafRaw": "TAF LZIB 290515Z 2906/3006 03009KT 6000 -RA SCT004 OVC010 \n  TEMPO 2906/2909 4000 RA OVC004 \n  BECMG 2908/2910 35003KT 4000 -RA BR \n  TEMPO 2909/2914 2000 RA BR OVC004 \n  BECMG 2916/2918 31005KT 9999 -RA SCT008 OVC020 \n  PROB40 \n  TEMPO 2919/3000 4000 -RASN SCT004 OVC008 \n  BECMG 2923/3001 NSW"
    },
    {
      "icao": "LZTT",
      "iata": "TAT",
      "name": "Poprad-Tatry Airport",
      "lat": 49.073601,
      "lon": 20.2411,
      "updatedAt": "290900Z",
      "visibility_m": 4000,
      "taf_visibility_m": 700,
      "worst_visibility_m": 700,
      "ceiling_ft": 1200,
      "hazards": [
        "BR",
        "SN"
      ],
      "severityScore": 65,
      "metarRaw": "METAR LZTT 290900Z 07006KT 4000 -SN BR FEW005 BKN012 OVC020 M00/M01 Q0997 NOSIG",
      "tafRaw": "TAF LZTT 290515Z 2906/3006 07007KT 6000 -SN SCT010 BKN018 \n  TEMPO 2906/2918 VRB02KT 2800 -SN BR FEW003 OVC010 \n  PROB30 \n  TEMPO 2906/2908 0700 SN BR SCT001 OVC003 \n  BECMG 2920/2922 9999 NSW SCT008 BKN025"
    },
    {
      "icao": "EDDK",
      "iata": "CGN",
      "name": "Cologne Bonn Airport",
      "lat": 50.865898,
      "lon": 7.14274,
      "updatedAt": "290850Z",
      "visibility_m": 5000,
      "taf_visibility_m": 2500,
      "worst_visibility_m": 2500,
      "ceiling_ft": 800,
      "hazards": [
        "BR",
        "SN",
        "DZ"
      ],
      "severityScore": 63,
      "metarRaw": "METAR EDDK 290850Z AUTO VRB02KT 5000 BR OVC008 01/00 Q0999 BECMG 5000",
      "tafRaw": "TAF EDDK 290500Z 2906/3012 12003KT 6000 OVC006 \n  TEMPO 2906/2908 2500 -SN BR BKN002 \n  PROB30 \n  TEMPO 2908/2910 3000 -DZ BR BKN004 \n  BECMG 2911/2914 BKN010 \n  BECMG 2918/2921 BKN020 \n  BECMG 3003/3006 13008KT \n  TEMPO 3003/3009 BKN005 \n  TEMPO 3009/3012 BKN010"
    },
    {
      "icao": "EHEH",
      "iata": "EIN",
      "name": "Eindhoven Airport",
      "lat": 51.4500999451,
      "lon": 5.37452983856,
      "updatedAt": null,
      "visibility_m": null,
      "taf_visibility_m": 2000,
      "worst_visibility_m": 2000,
      "ceiling_ft": 400,
      "hazards": [
        "BR",
        "SN"
      ],
      "severityScore": 63,
      "metarRaw": null,
      "tafRaw": "TAF EHEH 290513Z 2906/3012 02006KT 4000 BR -SN BKN006 OVC008 \n  TEMPO 2906/2910 2000 -SN BKN004 OVC006 \n  BECMG 2914/2916 13004KT 6000 NSW OVC014 \n  BECMG 3000/3002 11005KT NSC \n  TEMPO 3000/3009 3000 BR"
    },
    {
      "icao": "EPKT",
      "iata": "KTW",
      "name": "Katowice Wojciech Korfanty International Airport",
      "lat": 50.476015,
      "lon": 19.080705,
      "updatedAt": "290900Z",
      "visibility_m": 10000,
      "taf_visibility_m": 1200,
      "worst_visibility_m": 1200,
      "ceiling_ft": 800,
      "hazards": [
        "BR",
        "SN"
      ],
      "severityScore": 63,
      "metarRaw": "METAR EPKT 290900Z 06011KT 9999 OVC008 M01/M03 Q1001",
      "tafRaw": "TAF EPKT 290530Z 2906/3006 06010KT 9999 -SN OVC008 \n  PROB40 \n  TEMPO 2906/2908 3000 -SN BR BKN004 \n  BECMG 2907/2910 BKN015 \n  TEMPO 2910/2924 3000 -SN BR BKN006 \n  PROB40 \n  TEMPO 2917/2924 1200 SN BKN002 \n  BECMG 3000/3003 BKN006 \n  TEMPO 3000/3006 1200 SN BKN002"
    },
    {
      "icao": "LKMT",
      "iata": "OSR",
      "name": "Leoš Janáček Airport Ostrava",
      "lat": 49.696301,
      "lon": 18.111099,
      "updatedAt": "290900Z",
      "visibility_m": 4000,
      "taf_visibility_m": 1400,
      "worst_visibility_m": 1400,
      "ceiling_ft": 500,
      "hazards": [
        "BR",
        "SN"
      ],
      "severityScore": 63,
      "metarRaw": "METAR LKMT 290900Z 04010KT 4000 BR OVC005 M00/M01 Q0999 TEMPO 5000 BR",
      "tafRaw": "TAF LKMT 290500Z 2906/3006 03009KT 4000 -SN BR SCT003 OVC005 \n  TEMPO 2906/2918 1400 SN OVC002"
    },
    {
      "icao": "LGAV",
      "iata": "ATH",
      "name": "Athens Eleftherios Venizelos International Airport",
      "lat": 37.936401,
      "lon": 23.9445,
      "updatedAt": "290850Z",
      "visibility_m": 10000,
      "taf_visibility_m": 3000,
      "worst_visibility_m": 3000,
      "ceiling_ft": 7000,
      "hazards": [
        "TSRA",
        "RA",
        "TS"
      ],
      "severityScore": 62,
      "metarRaw": "METAR LGAV 290850Z 21014KT 9999 SCT018 SCT035 BKN070 17/09 Q0999 NOSIG",
      "tafRaw": "TAF LGAV 290500Z 2906/3006 19018KT 9999 SCT018 SCT070 \n  TEMPO 2906/2915 20020G30KT \n  PROB40 \n  TEMPO 2906/2915 5000 RA SCT012 FEW018TCU BKN070 \n  PROB40 \n  TEMPO 2909/2912 3000 TSRA SCT010 FEW018CB BKN020 BKN070 \n  BECMG 2919/2921 26012KT"
    },
    {
      "icao": "LPPR",
      "iata": "OPO",
      "name": "Francisco de Sá Carneiro Airport",
      "lat": 41.2481002808,
      "lon": -8.68138980865,
      "updatedAt": "290900Z",
      "visibility_m": 3800,
      "taf_visibility_m": null,
      "worst_visibility_m": 3800,
      "ceiling_ft": 500,
      "hazards": [
        "BR",
        "RA",
        "DZ"
      ],
      "severityScore": 62,
      "metarRaw": "METAR LPPR 290900Z 27005KT 230V320 3800 RADZ BR SCT002 BKN005 14/13 Q1004",
      "tafRaw": null
    },
    {
      "icao": "LPFR",
      "iata": "FAO",
      "name": "Faro - Gago Coutinho International Airport",
      "lat": 37.015909,
      "lon": -7.970939,
      "updatedAt": "290900Z",
      "visibility_m": 4000,
      "taf_visibility_m": 2000,
      "worst_visibility_m": 2000,
      "ceiling_ft": 500,
      "hazards": [
        "BR",
        "DZ",
        "RA"
      ],
      "severityScore": 57,
      "metarRaw": "METAR LPFR 290900Z 24018KT 4000 -DZ BR FEW003 BKN005 BKN010 16/15 Q1013",
      "tafRaw": "TAF LPFR 290500Z 2906/3006 25018KT 8000 SCT008 BKN015 \n  TEMPO 2906/2919 25018G30KT 5000 -RADZ BR SCT004 BKN008 \n  PROB30 \n  TEMPO 2906/2909 2000 DZRA BR SCT001 BKN003 \n  BECMG 2919/2921 28010KT 5000 BR SCT004 BKN008 \n  TEMPO 2921/3006 2000 BR BKN003 \n  BECMG 3001/3003 26005KT"
    },
    {
      "icao": "EPRZ",
      "iata": "RZE",
      "name": "Rzeszów-Jasionka Airport",
      "lat": 50.109791,
      "lon": 22.024155,
      "updatedAt": "290900Z",
      "visibility_m": 10000,
      "taf_visibility_m": 2000,
      "worst_visibility_m": 2000,
      "ceiling_ft": 800,
      "hazards": [
        "BR",
        "SN"
      ],
      "severityScore": 53,
      "metarRaw": "METAR EPRZ 290900Z 03010KT 9999 OVC008 M01/M02 Q1001",
      "tafRaw": "TAF EPRZ 290530Z 2906/3006 04008KT 7000 OVC003 \n  BECMG 2906/2909 OVC012 \n  BECMG 2909/2912 OVC020 \n  TEMPO 2914/3006 2000 -SN BR BKN003"
    },
    {
      "icao": "EPSY",
      "iata": "SZY",
      "name": "Olsztyn-Mazury Airport",
      "lat": 53.481899,
      "lon": 20.9377,
      "updatedAt": "290900Z",
      "visibility_m": 8000,
      "taf_visibility_m": 4000,
      "worst_visibility_m": 4000,
      "ceiling_ft": 800,
      "hazards": [
        "BR",
        "SN"
      ],
      "severityScore": 53,
      "metarRaw": "METAR EPSY 290900Z 03008KT 8000 OVC008 M08/M09 Q1006",
      "tafRaw": "TAF EPSY 290830Z 2909/2918 04010KT 8000 BKN010 \n  PROB30 \n  TEMPO 2909/2915 4000 -SN BR BKN004 OVC010"
    },
    {
      "icao": "UBBB",
      "iata": "GYD",
      "name": "Heydar Aliyev International Airport",
      "lat": 40.467498779296875,
      "lon": 50.04669952392578,
      "updatedAt": "290900Z",
      "visibility_m": 8000,
      "taf_visibility_m": 1200,
      "worst_visibility_m": 1200,
      "ceiling_ft": 2500,
      "hazards": [
        "RA",
        "BR",
        "FG"
      ],
      "severityScore": 52,
      "metarRaw": "METAR UBBB 290900Z 16008KT 8000 -RA SCT015 OVC025 06/05 Q1013 NOSIG",
      "tafRaw": "TAF UBBB 290500Z 2906/3006 14006KT 9999 BKN012 BKN025 TX09/2911Z TN04/3001Z \n  TEMPO 2906/2912 18012KT 6000 -RA BKN007 OVC017 \n  BECMG 2915/2917 VRB04KT \n  BECMG 2919/2921 5000 BR SCT007 \n  TEMPO 2921/3006 18005KT 1200 BCFG OVC003"
    },
    {
      "icao": "EGGW",
      "iata": "LTN",
      "name": "London Luton Airport",
      "lat": 51.874699,
      "lon": -0.368333,
      "updatedAt": "290850Z",
      "visibility_m": 2700,
      "taf_visibility_m": null,
      "worst_visibility_m": 2700,
      "ceiling_ft": 300,
      "hazards": [
        "BR"
      ],
      "severityScore": 50,
      "metarRaw": "METAR EGGW 290850Z AUTO 12008KT 2700 BR BKN003 04/04 Q0998",
      "tafRaw": null
    },
    {
      "icao": "EYKA",
      "iata": "KUN",
      "name": "Kaunas International Airport",
      "lat": 54.963965,
      "lon": 24.08582,
      "updatedAt": "290850Z",
      "visibility_m": 10000,
      "taf_visibility_m": 1500,
      "worst_visibility_m": 1500,
      "ceiling_ft": 1500,
      "hazards": [
        "SN",
        "BR"
      ],
      "severityScore": 50,
      "metarRaw": "METAR EYKA 290850Z 02006KT 340V070 9999 -SN OVC015 M09/M12 Q1009",
      "tafRaw": "TAF EYKA 290509Z 2906/3006 03010KT 9000 OVC015 \n  TEMPO 2909/2912 BKN020 \n  TEMPO 2916/2924 1500 BR BKN005"
    },
    {
      "icao": "LJLJ",
      "iata": "LJU",
      "name": "Ljubljana Jože Pučnik Airport",
      "lat": 46.223701,
      "lon": 14.4576,
      "updatedAt": "290900Z",
      "visibility_m": 2000,
      "taf_visibility_m": null,
      "worst_visibility_m": 2000,
      "ceiling_ft": 300,
      "hazards": [
        "BR"
      ],
      "severityScore": 50,
      "metarRaw": "METAR LJLJ 290900Z 27002KT 2000 BR OVC003 05/05 Q0994 NOSIG",
      "tafRaw": null
    },
    {
      "icao": "GMMN",
      "iata": "CMN",
      "name": "Mohammed V International Airport",
      "lat": 33.3675,
      "lon": -7.58997,
      "updatedAt": "290900Z",
      "visibility_m": 10000,
      "taf_visibility_m": 4000,
      "worst_visibility_m": 4000,
      "ceiling_ft": 400,
      "hazards": [
        "RA"
      ],
      "severityScore": 47,
      "metarRaw": "METAR GMMN 290900Z 21011KT 190V250 9999 BKN004 BKN016 15/14 Q1021 NOSIG",
      "tafRaw": "TAF GMMN 290500Z 2906/3012 22015KT 8000 BKN008 BKN016 \n  PROB30 \n  TEMPO 2906/2916 4000 RA \n  BECMG 2909/2912 SCT010 BKN016"
    },
    {
      "icao": "EGGP",
      "iata": "LPL",
      "name": "Liverpool John Lennon Airport",
      "lat": 53.334863,
      "lon": -2.849637,
      "updatedAt": "290850Z",
      "visibility_m": 7000,
      "taf_visibility_m": 4000,
      "worst_visibility_m": 4000,
      "ceiling_ft": 900,
      "hazards": [
        "BR",
        "RA"
      ],
      "severityScore": 47,
      "metarRaw": "METAR EGGP 290850Z 12012KT 7000 BKN009 BKN011 05/03 Q0996",
      "tafRaw": "TAF EGGP 290455Z 2906/3006 14007KT 9999 SCT020 \n  TEMPO 2906/2912 7000 BKN008 \n  PROB30 \n  TEMPO 2906/2910 4000 BR BKN006 \n  PROB30 \n  TEMPO 2914/2922 13016G26KT BKN014 \n  TEMPO 2922/3006 7000 -RA BKN014 \n  PROB30 \n  TEMPO 2922/3003 13018G28KT 4000 RA BKN009 \n  PROB40 \n  TEMPO 3003/3006 4000 RA BKN006"
    },
    {
      "icao": "EPRA",
      "iata": "RDO",
      "name": "Warsaw Radom Airport",
      "lat": 51.38937,
      "lon": 21.214742,
      "updatedAt": "290900Z",
      "visibility_m": 6000,
      "taf_visibility_m": 5000,
      "worst_visibility_m": 5000,
      "ceiling_ft": 600,
      "hazards": [
        "RA",
        "BR"
      ],
      "severityScore": 47,
      "metarRaw": "METAR EPRA 290900Z 03008KT 6000 BKN006 M01/M02 Q1003",
      "tafRaw": "TAF EPRA 290830Z 2909/2918 05008KT 5000 BR BKN005 \n  BECMG 2910/2912 8000 BKN010"
    },
    {
      "icao": "LBWN",
      "iata": "VAR",
      "name": "Varna Airport",
      "lat": 43.232101,
      "lon": 27.8251,
      "updatedAt": "290900Z",
      "visibility_m": 10000,
      "taf_visibility_m": 1200,
      "worst_visibility_m": 1200,
      "ceiling_ft": 500,
      "hazards": [
        "RA"
      ],
      "severityScore": 47,
      "metarRaw": "METAR LBWN 290900Z AUTO 11006KT 9999 SCT018/// 12/10 Q1000 NOSIG",
      "tafRaw": "TAF LBWN 290500Z 2906/3006 09010KT 9999 SCT020 BKN045 \n  BECMG 2910/2912 4000 RA BKN010 OVC030 \n  TEMPO 2916/2921 1200 +RA BKN005 OVC010 \n  BECMG 2921/2923 36014KT"
    },
    {
      "icao": "EPGD",
      "iata": "GDN",
      "name": "Gdańsk Lech Wałęsa Airport",
      "lat": 54.377602,
      "lon": 18.4662,
      "updatedAt": "290900Z",
      "visibility_m": 10000,
      "taf_visibility_m": 3000,
      "worst_visibility_m": 3000,
      "ceiling_ft": 400,
      "hazards": [
        "BR"
      ],
      "severityScore": 45,
      "metarRaw": "METAR EPGD 290900Z 07008KT 9999 -SG OVC004 M07/M08 Q1008",
      "tafRaw": "TAF EPGD 290530Z 2906/3006 08010KT 9999 OVC007 \n  TEMPO 2906/3006 3000 -SG BR OVC003"
    },
    {
      "icao": "LYBE",
      "iata": "BEG",
      "name": "Belgrade Nikola Tesla Airport",
      "lat": 44.818401,
      "lon": 20.309099,
      "updatedAt": "290900Z",
      "visibility_m": 10000,
      "taf_visibility_m": 4000,
      "worst_visibility_m": 4000,
      "ceiling_ft": 200,
      "hazards": [
        "BR"
      ],
      "severityScore": 45,
      "metarRaw": "METAR LYBE 290900Z 18005KT 150V210 CAVOK 11/04 Q0995 NOSIG",
      "tafRaw": "TAF LYBE 290500Z 2906/3006 16005KT CAVOK TX14/2913Z TN04/3006Z \n  BECMG 2920/2922 BKN005 BKN025 \n  TEMPO 3000/3006 30010KT 4000 BR BKN002 BKN023"
    },
    {
      "icao": "LRBS",
      "iata": "BBU",
      "name": "Bucharest Băneasa Aurel Vlaicu International Airport",
      "lat": 44.503133,
      "lon": 26.102944,
      "updatedAt": "290900Z",
      "visibility_m": 10000,
      "taf_visibility_m": 1500,
      "worst_visibility_m": 1500,
      "ceiling_ft": 1500,
      "hazards": [
        "BR",
        "RA"
      ],
      "severityScore": 44,
      "metarRaw": "METAR LRBS 290900Z 00000KT CAVOK 06/04 Q0999 NOSIG",
      "tafRaw": "TAF LRBS 290500Z 2906/3006 VRB04KT 5000 BR NSC \n  TEMPO 2906/2907 1500 BR \n  BECMG 2908/2910 9999 NSW \n  BECMG 2912/2914 07012KT \n  BECMG 2922/2924 5000 -RA BR BKN015 OVC035 \n  BECMG 3002/3004 VRB04KT"
    },
    {
      "icao": "LROP",
      "iata": "OTP",
      "name": "Bucharest Henri Coandă International Airport",
      "lat": 44.571792,
      "lon": 26.103285,
      "updatedAt": "290900Z",
      "visibility_m": 7000,
      "taf_visibility_m": 1500,
      "worst_visibility_m": 1500,
      "ceiling_ft": 1500,
      "hazards": [
        "BR",
        "RA"
      ],
      "severityScore": 44,
      "metarRaw": "METAR LROP 290900Z VRB01KT 7000 NSC 05/05 Q0999 NOSIG",
      "tafRaw": "TAF LROP 290500Z 2906/3006 VRB04KT 5000 BR NSC \n  TEMPO 2906/2907 1500 BR \n  BECMG 2908/2910 9999 NSW \n  BECMG 2912/2914 07012KT \n  BECMG 2922/2924 5000 -RA BR BKN015 OVC035 \n  BECMG 3002/3004 VRB04KT"
    },
    {
      "icao": "EDDB",
      "iata": "BER",
      "name": "Berlin Brandenburg Willy Brandt Airport",
      "lat": 52.361738,
      "lon": 13.502341,
      "updatedAt": "290850Z",
      "visibility_m": 10000,
      "taf_visibility_m": 2000,
      "worst_visibility_m": 2000,
      "ceiling_ft": 900,
      "hazards": [
        "SN"
      ],
      "severityScore": 43,
      "metarRaw": "METAR EDDB 290850Z AUTO 08011KT 9999 OVC010 M01/M03 Q1003 TEMPO BKN009",
      "tafRaw": "TAF EDDB 290500Z 2906/3006 07010KT 9999 OVC012 \n  TEMPO 2906/3006 BKN008 \n  PROB30 \n  TEMPO 2921/3006 2000 -SN BKN004"
    },
    {
      "icao": "EDDH",
      "iata": "HAM",
      "name": "Hamburg Helmut Schmidt Airport",
      "lat": 53.630402,
      "lon": 9.98823,
      "updatedAt": "290850Z",
      "visibility_m": 10000,
      "taf_visibility_m": 2500,
      "worst_visibility_m": 2500,
      "ceiling_ft": 900,
      "hazards": [
        "SN"
      ],
      "severityScore": 43,
      "metarRaw": "METAR EDDH 290850Z AUTO 08011KT 9999 OVC011 00/M02 Q1004 TEMPO OVC009",
      "tafRaw": "TAF EDDH 290500Z 2906/3012 08010KT 9999 OVC015 \n  TEMPO 2906/2924 OVC013 \n  PROB30 \n  TEMPO 2906/2912 BKN008 \n  BECMG 3000/3003 OVC008 \n  TEMPO 3002/3012 2500 -SN BKN004"
    },
    {
      "icao": "EDNY",
      "iata": "FDH",
      "name": "Bodensee Airport Friedrichshafen",
      "lat": 47.671299,
      "lon": 9.51149,
      "updatedAt": "290850Z",
      "visibility_m": 8000,
      "taf_visibility_m": 4500,
      "worst_visibility_m": 4500,
      "ceiling_ft": 1000,
      "hazards": [
        "RA",
        "SN"
      ],
      "severityScore": 42,
      "metarRaw": "METAR EDNY 290850Z 26006KT 230V300 8000 -RA SCT008 BKN010 OVC038 02/01 Q0998",
      "tafRaw": "TAF EDNY 290800Z 2909/2918 25006KT 9999 BKN011 \n  TEMPO 2909/2912 4500 RASN OVC008 \n  PROB30 \n  TEMPO 2912/2916 4500 RA OVC008 \n  BECMG 2915/2918 VRB02KT BKN025"
    },
    {
      "icao": "LEZG",
      "iata": "ZAZ",
      "name": "Zaragoza Airport",
      "lat": 41.666199,
      "lon": -1.04155,
      "updatedAt": "290900Z",
      "visibility_m": 10000,
      "taf_visibility_m": 4000,
      "worst_visibility_m": 4000,
      "ceiling_ft": 5000,
      "hazards": [
        "FG",
        "BR",
        "RA"
      ],
      "severityScore": 42,
      "metarRaw": "METAR LEZG 290900Z 08006KT 9999 3000SW BCFG FEW003 BKN050 06/06 Q1002 NOSIG",
      "tafRaw": "TAF LEZG 290500Z 2906/3006 10006KT 9999 FEW040 TX14/2913Z TN06/2906Z \n  PROB40 \n  TEMPO 2906/2909 20005KT 4000 RA BR BKN030 \n  BECMG 2917/2920 25012KT \n  TEMPO 2919/2923 25015G28KT \n  TEMPO 3000/3006 25006KT"
    },
    {
      "icao": "LRCL",
      "iata": "CLJ",
      "name": "Cluj Avram Iancu International Airport",
      "lat": 46.787425,
      "lon": 23.684292,
      "updatedAt": "290900Z",
      "visibility_m": 1800,
      "taf_visibility_m": 1500,
      "worst_visibility_m": 1500,
      "ceiling_ft": 3100,
      "hazards": [
        "BR",
        "RA",
        "DZ"
      ],
      "severityScore": 42,
      "metarRaw": "METAR LRCL 290900Z 00000KT 1800 -RA BR SCT021 OVC031 02/02 Q0997",
      "tafRaw": "TAF LRCL 290800Z 2909/2918 VRB04KT 3000 -RA BR OVC030 \n  TEMPO 2909/2911 1500 -RA BR BKN010 OVC025 \n  BECMG 2912/2914 5000 \n  BECMG 2916/2918 1500 -DZ BR BKN005 OVC020"
    },
    {
      "icao": "EGNM",
      "iata": "LBA",
      "name": "Leeds Bradford Airport",
      "lat": 53.865898,
      "lon": -1.66057,
      "updatedAt": "290850Z",
      "visibility_m": 4000,
      "taf_visibility_m": null,
      "worst_visibility_m": 4000,
      "ceiling_ft": 500,
      "hazards": [
        "BR"
      ],
      "severityScore": 40,
      "metarRaw": "METAR EGNM 290850Z 11011KT 080V140 4000 BR SCT003 OVC005 02/02 Q0998",
      "tafRaw": null
    },
    {
      "icao": "ENTC",
      "iata": "TOS",
      "name": "Tromsø Airport, Langnes",
      "lat": 69.683296,
      "lon": 18.9189,
      "updatedAt": "290850Z",
      "visibility_m": 10000,
      "taf_visibility_m": 1500,
      "worst_visibility_m": 1500,
      "ceiling_ft": 5600,
      "hazards": [
        "SHSN",
        "SN"
      ],
      "severityScore": 38,
      "metarRaw": "METAR ENTC 290850Z 22005KT 180V250 9999 FEW005 SCT007 BKN056 M07/M09 Q1021 NOSIG RMK WIND 2600FT 29004KT",
      "tafRaw": "TAF ENTC 290500Z 2906/3006 22005KT 9999 FEW007 SCT025 \n  TEMPO 2906/2921 BKN007 FEW025CB \n  PROB40 \n  TEMPO 2910/2921 1500 SHSN VV006"
    },
    {
      "icao": "LICA",
      "iata": "SUF",
      "name": "Lamezia Terme Sant'Eufemia International Airport",
      "lat": 38.906214,
      "lon": 16.246007,
      "updatedAt": "290850Z",
      "visibility_m": 3100,
      "taf_visibility_m": 10000,
      "worst_visibility_m": 3100,
      "ceiling_ft": null,
      "hazards": [
        "BR",
        "RA",
        "SHRA"
      ],
      "severityScore": 36,
      "metarRaw": "METAR LICA 290850Z AUTO 30007KT 230V040 3100 +RA BR OVC005/// 11/11 Q0993",
      "tafRaw": "TAF LICA 290500Z 2906/3006 07010KT 9999 SCT040 \n  TEMPO 2906/2915 SHRA \n  BECMG 2906/2908 27022G34KT \n  BECMG 2920/2922 27018KT"
    },
    {
      "icao": "LIRZ",
      "iata": "PEG",
      "name": "Perugia San Francesco d'Assisi – Umbria International Airport",
      "lat": 43.095901,
      "lon": 12.5132,
      "updatedAt": "290850Z",
      "visibility_m": 10000,
      "taf_visibility_m": 3000,
      "worst_visibility_m": 3000,
      "ceiling_ft": 2500,
      "hazards": [
        "BR",
        "SHRA",
        "RA"
      ],
      "severityScore": 36,
      "metarRaw": "METAR LIRZ 290850Z AUTO 16003KT 130V190 9999 NCD 09/07 Q0995",
      "tafRaw": "TAF LIRZ 290500Z 2906/3006 VRB05KT 7000 BKN025 \n  TEMPO 2913/2916 SHRA \n  TEMPO 3000/3006 3000 BR"
    },
    {
      "icao": "EPPO",
      "iata": "POZ",
      "name": "Poznań-Ławica Airport",
      "lat": 52.421598,
      "lon": 16.823359,
      "updatedAt": "290900Z",
      "visibility_m": 9000,
      "taf_visibility_m": 4000,
      "worst_visibility_m": 4000,
      "ceiling_ft": 800,
      "hazards": [
        "BR"
      ],
      "severityScore": 35,
      "metarRaw": "METAR EPPO 290900Z 05011KT 9000 BKN008 OVC023 M04/M06 Q1005",
      "tafRaw": "TAF EPPO 290530Z 2906/3006 04010KT 7000 OVC008 \n  BECMG 2908/2911 OVC013 \n  TEMPO 2912/2915 BKN016 \n  BECMG 2915/2918 OVC006 \n  TEMPO 2920/3006 4000 BR BKN004 OVC006"
    },
    {
      "icao": "EYVI",
      "iata": "VNO",
      "name": "Vilnius International Airport",
      "lat": 54.634102,
      "lon": 25.285801,
      "updatedAt": "290850Z",
      "visibility_m": 10000,
      "taf_visibility_m": null,
      "worst_visibility_m": 10000,
      "ceiling_ft": 1000,
      "hazards": [
        "SN"
      ],
      "severityScore": 35,
      "metarRaw": "METAR EYVI 290850Z 05011KT 9999 -SN OVC010 M10/M11 Q1007 NOSIG",
      "tafRaw": null
    },
    {
      "icao": "LFLL",
      "iata": "LYS",
      "name": "Lyon Saint-Exupéry Airport",
      "lat": 45.725996,
      "lon": 5.090139,
      "updatedAt": "290900Z",
      "visibility_m": 3000,
      "taf_visibility_m": null,
      "worst_visibility_m": 3000,
      "ceiling_ft": null,
      "hazards": [
        "BR",
        "FG"
      ],
      "severityScore": 35,
      "metarRaw": "METAR LFLL 290900Z 00000KT 3000 0400N R35L/1800U R17R/1500U R35R/1400U R17L/1300U BCFG BR FEW001 03/03 Q1000 NOSIG",
      "tafRaw": null
    },
    {
      "icao": "LRBC",
      "iata": "BCM",
      "name": "Bacău George Enescu International  Airport",
      "lat": 46.5219,
      "lon": 26.910299,
      "updatedAt": "290900Z",
      "visibility_m": 8000,
      "taf_visibility_m": 3000,
      "worst_visibility_m": 3000,
      "ceiling_ft": 600,
      "hazards": [
        "BR"
      ],
      "severityScore": 35,
      "metarRaw": "METAR LRBC 290900Z 34008KT 8000 OVC006 03/03 Q1000",
      "tafRaw": "TAF LRBC 290800Z 2909/2918 34008KT 7000 OVC005 \n  TEMPO 2910/2915 OVC010 \n  BECMG 2916/2918 3000 BR"
    },
    {
      "icao": "LRCV",
      "iata": "CRA",
      "name": "Craiova International Airport",
      "lat": 44.3181,
      "lon": 23.888599,
      "updatedAt": "290900Z",
      "visibility_m": 10000,
      "taf_visibility_m": 3000,
      "worst_visibility_m": 3000,
      "ceiling_ft": 500,
      "hazards": [
        "BR"
      ],
      "severityScore": 35,
      "metarRaw": "METAR LRCV 290900Z 07006KT CAVOK 06/05 Q0998",
      "tafRaw": "TAF LRCV 290800Z 2909/2918 VRB04KT CAVOK \n  BECMG 2916/2918 3000 BR BKN005"
    },
    {
      "icao": "LEZL",
      "iata": "SVQ",
      "name": "Sevilla Airport",
      "lat": 37.417999,
      "lon": -5.89311,
      "updatedAt": "290900Z",
      "visibility_m": 9000,
      "taf_visibility_m": 3000,
      "worst_visibility_m": 3000,
      "ceiling_ft": 1100,
      "hazards": [
        "BR",
        "RA"
      ],
      "severityScore": 34,
      "metarRaw": "METAR LEZL 290900Z 24015KT 9000 OVC011 18/17 Q1011 BECMG BKN016",
      "tafRaw": "TAF LEZL 290800Z 2909/3009 24012KT 8000 FEW010 BKN016 TX18/2915Z TN10/3007Z \n  PROB40 \n  TEMPO 2909/2912 BKN012 \n  TEMPO 2909/2916 24016G28KT \n  PROB40 \n  TEMPO 2915/2922 4000 RA BKN012 \n  TEMPO 2922/3009 3000 BR BKN006"
    },
    {
      "icao": "UDSG",
      "iata": "LWN",
      "name": "Shirak International Airport",
      "lat": 40.750401,
      "lon": 43.859299,
      "updatedAt": "290900Z",
      "visibility_m": 3900,
      "taf_visibility_m": 1000,
      "worst_visibility_m": 1000,
      "ceiling_ft": 1000,
      "hazards": [
        "BR"
      ],
      "severityScore": 32,
      "metarRaw": "METAR UDSG 290900Z 15002KT 3900 BR NSC M06/M09 Q1015 NOSIG",
      "tafRaw": "TAF UDSG 290500Z 2906/3006 VRB06KT 5000 BR SCT030 \n  TEMPO 2906/2909 1000 BR BKN010"
    },
    {
      "icao": "EFTU",
      "iata": "TKU",
      "name": "Turku Airport",
      "lat": 60.514099,
      "lon": 22.2628,
      "updatedAt": "290850Z",
      "visibility_m": 3800,
      "taf_visibility_m": 3000,
      "worst_visibility_m": 3000,
      "ceiling_ft": 1700,
      "hazards": [
        "SN"
      ],
      "severityScore": 30,
      "metarRaw": "METAR EFTU 290850Z AUTO 08006KT 9000 3800 -SN OVC017 M12/M14 Q1021",
      "tafRaw": "TAF EFTU 290834Z 2909/3009 07006KT 9999 BKN015 \n  PROB30 \n  TEMPO 2909/2912 3000 -SN BKN012 \n  PROB40 \n  TEMPO 2912/2924 BKN008 \n  PROB30 \n  TEMPO 3000/3009 3000 -SN BKN003"
    },
    {
      "icao": "EKCH",
      "iata": "CPH",
      "name": "Copenhagen Kastrup Airport",
      "lat": 55.617900848389,
      "lon": 12.656000137329,
      "updatedAt": "290850Z",
      "visibility_m": 10000,
      "taf_visibility_m": 2000,
      "worst_visibility_m": 2000,
      "ceiling_ft": 1200,
      "hazards": [
        "SN"
      ],
      "severityScore": 30,
      "metarRaw": "METAR EKCH 290850Z AUTO 05013KT 9999 OVC023/// M02/M06 Q1010 NOSIG",
      "tafRaw": "TAF EKCH 290827Z 2909/3009 08008KT 9999 BKN022 \n  TEMPO 3005/3009 2000 SN BKN012"
    },
    {
      "icao": "ENTO",
      "iata": "TRF",
      "name": "Sandefjord Airport, Torp",
      "lat": 59.186699,
      "lon": 10.2586,
      "updatedAt": "290850Z",
      "visibility_m": 10000,
      "taf_visibility_m": 10000,
      "worst_visibility_m": 10000,
      "ceiling_ft": 1400,
      "hazards": [
        "SN"
      ],
      "severityScore": 30,
      "metarRaw": "METAR ENTO 290850Z 01007KT 9999 OVC015 M09/M11 Q1017 TEMPO BKN014",
      "tafRaw": "TAF ENTO 290500Z 2906/3006 02008KT 9999 -SN BKN025 \n  TEMPO 2906/2909 BKN014 \n  TEMPO 2921/3006 BKN014"
    },
    {
      "icao": "EPSC",
      "iata": "SZZ",
      "name": "Solidarity Szczecin–Goleniów Airport",
      "lat": 53.584702,
      "lon": 14.9022,
      "updatedAt": "290900Z",
      "visibility_m": 10000,
      "taf_visibility_m": null,
      "worst_visibility_m": 10000,
      "ceiling_ft": 600,
      "hazards": [],
      "severityScore": 30,
      "metarRaw": "METAR EPSC 290900Z 06007KT 020V080 9999 BKN006 OVC008 M04/M05 Q1006",
      "tafRaw": null
    },
    {
      "icao": "ESMS",
      "iata": "MMX",
      "name": "Malmö Sturup Airport",
      "lat": 55.535564,
      "lon": 13.376327,
      "updatedAt": "290850Z",
      "visibility_m": 10000,
      "taf_visibility_m": 2000,
      "worst_visibility_m": 2000,
      "ceiling_ft": 1800,
      "hazards": [
        "SN"
      ],
      "severityScore": 30,
      "metarRaw": "METAR ESMS 290850Z 09015KT 9999 OVC018 M02/M06 Q1009",
      "tafRaw": "TAF ESMS 290827Z 2909/3009 08016KT 9999 OVC020 \n  BECMG 2918/2920 09015G28KT \n  TEMPO 3000/3009 2000 SN BKN012"
    },
    {
      "icao": "LOWW",
      "iata": "VIE",
      "name": "Vienna International Airport",
      "lat": 48.110298,
      "lon": 16.5697,
      "updatedAt": "290850Z",
      "visibility_m": 6000,
      "taf_visibility_m": null,
      "worst_visibility_m": 6000,
      "ceiling_ft": 1100,
      "hazards": [
        "RA"
      ],
      "severityScore": 29,
      "metarRaw": "METAR LOWW 290850Z 32004KT 6000 -RA FEW003 BKN011 03/03 Q0997 TEMPO FEW008 BKN015",
      "tafRaw": null
    },
    {
      "icao": "ESSA",
      "iata": "ARN",
      "name": "Stockholm-Arlanda Airport",
      "lat": 59.64849,
      "lon": 17.928829,
      "updatedAt": "290850Z",
      "visibility_m": 10000,
      "taf_visibility_m": 10000,
      "worst_visibility_m": 10000,
      "ceiling_ft": 3000,
      "hazards": [
        "SHSN",
        "SN"
      ],
      "severityScore": 28,
      "metarRaw": "METAR ESSA 290850Z 02009KT 9999 BKN030 M07/M09 Q1017 NOSIG",
      "tafRaw": "TAF ESSA 290830Z 2909/3009 02009KT 9999 -SHSN BKN020"
    },
    {
      "icao": "LBPD",
      "iata": "PDV",
      "name": "Plovdiv International Airport",
      "lat": 42.067799,
      "lon": 24.8508,
      "updatedAt": "290900Z",
      "visibility_m": 10000,
      "taf_visibility_m": 5000,
      "worst_visibility_m": 5000,
      "ceiling_ft": 4000,
      "hazards": [
        "SHRA",
        "RA"
      ],
      "severityScore": 26,
      "metarRaw": "METAR LBPD 290900Z AUTO 30004KT 270V330 9999 -SHRA FEW058/// OVC069/// 06/06 Q0999 NOSIG",
      "tafRaw": "TAF LBPD 290500Z 2906/3006 VRB04KT 9999 BKN040 \n  BECMG 2910/2912 5000 RA SCT020 OVC050 \n  BECMG 2919/2921 30010KT"
    },
    {
      "icao": "LCLK",
      "iata": "LCA",
      "name": "Larnaca International Airport",
      "lat": 34.875099,
      "lon": 33.624901,
      "updatedAt": "290900Z",
      "visibility_m": 10000,
      "taf_visibility_m": 5000,
      "worst_visibility_m": 5000,
      "ceiling_ft": null,
      "hazards": [
        "SHRA",
        "RA"
      ],
      "severityScore": 26,
      "metarRaw": "METAR LCLK 290900Z 21011KT 180V240 9999 FEW020 19/14 Q1016 NOSIG",
      "tafRaw": "TAF LCLK 290530Z 2906/3006 26010KT 9999 FEW030 SCT040 \n  BECMG 2908/2912 19018KT \n  PROB30 \n  TEMPO 2909/2916 5000 SHRA \n  PROB40 \n  TEMPO 2916/3006 19022G32KT \n  PROB40 \n  TEMPO 2921/3006 5000 SHRA"
    },
    {
      "icao": "LCPH",
      "iata": "PFO",
      "name": "Paphos International Airport",
      "lat": 34.717999,
      "lon": 32.485699,
      "updatedAt": "290900Z",
      "visibility_m": 10000,
      "taf_visibility_m": 5000,
      "worst_visibility_m": 5000,
      "ceiling_ft": 5000,
      "hazards": [
        "SHRA",
        "RA"
      ],
      "severityScore": 26,
      "metarRaw": "METAR LCPH 290900Z 14004KT 090V160 9999 FEW040 BKN050 18/11 Q1016 NOSIG",
      "tafRaw": "TAF LCPH 290530Z 2906/3006 07007KT 9999 FEW030 SCT040 \n  BECMG 2907/2911 18016KT \n  PROB40 \n  TEMPO 2909/3006 5000 SHRA \n  PROB40 \n  TEMPO 2914/3006 17022G32KT"
    },
    {
      "icao": "LICC",
      "iata": "CTA",
      "name": "Catania-Fontanarossa Airport",
      "lat": 37.466801,
      "lon": 15.0664,
      "updatedAt": "290850Z",
      "visibility_m": 10000,
      "taf_visibility_m": 10000,
      "worst_visibility_m": 10000,
      "ceiling_ft": null,
      "hazards": [
        "SHRA",
        "RA"
      ],
      "severityScore": 26,
      "metarRaw": "METAR LICC 290850Z 26018KT 9999 FEW030 16/13 Q0994",
      "tafRaw": "TAF LICC 290500Z 2906/3006 26020G32KT 9999 SCT030 \n  TEMPO 2906/2909 SHRA \n  BECMG 2916/2918 26013KT"
    },
    {
      "icao": "LIRF",
      "iata": "FCO",
      "name": "Rome–Fiumicino Leonardo da Vinci International Airport",
      "lat": 41.804532,
      "lon": 12.251998,
      "updatedAt": "290850Z",
      "visibility_m": 10000,
      "taf_visibility_m": 10000,
      "worst_visibility_m": 10000,
      "ceiling_ft": null,
      "hazards": [
        "SHRA",
        "RA"
      ],
      "severityScore": 26,
      "metarRaw": "METAR LIRF 290850Z 10010KT 9999 FEW025 10/09 Q0996 NOSIG",
      "tafRaw": "TAF LIRF 290500Z 2906/3012 07007KT 9999 SCT030 \n  TEMPO 2906/2908 SHRA \n  BECMG 2910/2912 31011KT \n  BECMG 2916/2918 VRB05KT"
    },
    {
      "icao": "LIRN",
      "iata": "NAP",
      "name": "Naples International Airport",
      "lat": 40.886002,
      "lon": 14.2908,
      "updatedAt": "290850Z",
      "visibility_m": 10000,
      "taf_visibility_m": 10000,
      "worst_visibility_m": 10000,
      "ceiling_ft": 6000,
      "hazards": [
        "SHRA",
        "RA"
      ],
      "severityScore": 26,
      "metarRaw": "METAR LIRN 290850Z 31004KT 250V340 9999 FEW020 BKN060 10/08 Q0996 NOSIG",
      "tafRaw": "TAF LIRN 290500Z 2906/3006 04008KT 9999 SCT030 \n  TEMPO 2906/2909 SHRA \n  BECMG 2906/2908 34015KT \n  BECMG 2919/2921 VRB05KT"
    },
    {
      "icao": "LTFM",
      "iata": "IST",
      "name": "İstanbul Airport",
      "lat": 41.261297,
      "lon": 28.741951,
      "updatedAt": "290850Z",
      "visibility_m": 10000,
      "taf_visibility_m": 3500,
      "worst_visibility_m": 3500,
      "ceiling_ft": 10000,
      "hazards": [
        "SHRA",
        "RA"
      ],
      "severityScore": 26,
      "metarRaw": "METAR LTFM 290850Z 20016KT 9999 SCT035 BKN100 16/08 Q1002 NOSIG RMK RWY17L 19014KT RWY34L 19015KT RWY16R 21014KT RWY36 20016KT RWY18 20017KT",
      "tafRaw": "TAF LTFM 290440Z 2906/3012 21020G33KT 9999 SCT035 BKN100 \n  BECMG 2907/2910 -SHRA BKN032 BKN080 \n  BECMG 2911/2914 14015G25KT SCT035 BKN090 \n  BECMG 2918/2921 18020G35KT \n  BECMG 2922/3001 BKN035 BKN080 \n  TEMPO 3002/3006 3500 SHRA BKN022 BKN080 \n  PROB30 \n  TEMPO 3006/3010 4000 SHRA FEW017TCU BKN022 \n  BECMG 3008/3011 31010KT BKN022"
    },
    {
      "icao": "GCTS",
      "iata": "TFS",
      "name": "Tenerife Sur Airport",
      "lat": 28.0445,
      "lon": -16.5725,
      "updatedAt": "290900Z",
      "visibility_m": 10000,
      "taf_visibility_m": 10000,
      "worst_visibility_m": 10000,
      "ceiling_ft": 3500,
      "hazards": [
        "TS"
      ],
      "severityScore": 25,
      "metarRaw": "METAR GCTS 290900Z 00000KT 9999 FEW020 BKN035 19/15 Q1025 NOSIG",
      "tafRaw": "TAF GCTS 290800Z 2909/3009 26008KT 9999 BKN030 TX23/2914Z TN15/3006Z \n  PROB40 \n  TEMPO 2916/2923 08010KT"
    },
    {
      "icao": "EPWA",
      "iata": "WAW",
      "name": "Warsaw Chopin Airport",
      "lat": 52.165699,
      "lon": 20.9671,
      "updatedAt": "290900Z",
      "visibility_m": 7000,
      "taf_visibility_m": 7000,
      "worst_visibility_m": 7000,
      "ceiling_ft": 800,
      "hazards": [],
      "severityScore": 25,
      "metarRaw": "METAR EPWA 290900Z 03005KT 360V080 7000 OVC008 M03/M05 Q1005 NOSIG",
      "tafRaw": "TAF EPWA 290830Z 2909/3009 03008KT 7000 SCT008 BKN025 \n  PROB40 \n  TEMPO 2909/2915 BKN008"
    },
    {
      "icao": "LIMF",
      "iata": "TRN",
      "name": "Turin Airport",
      "lat": 45.200802,
      "lon": 7.64963,
      "updatedAt": "290850Z",
      "visibility_m": 3000,
      "taf_visibility_m": null,
      "worst_visibility_m": 3000,
      "ceiling_ft": null,
      "hazards": [
        "FG"
      ],
      "severityScore": 25,
      "metarRaw": "METAR LIMF 290850Z 21004KT 3000 BCFG NSC 02/01 Q0994",
      "tafRaw": null
    },
    {
      "icao": "BIKF",
      "iata": "KEF",
      "name": "Keflavik International Airport",
      "lat": 63.985001,
      "lon": -22.6056,
      "updatedAt": "290900Z",
      "visibility_m": 10000,
      "taf_visibility_m": 7000,
      "worst_visibility_m": 7000,
      "ceiling_ft": 1700,
      "hazards": [
        "RA"
      ],
      "severityScore": 24,
      "metarRaw": "METAR BIKF 290900Z 04011KT CAVOK 02/M02 Q0998",
      "tafRaw": "TAF BIKF 290738Z 2909/3009 04012KT 9999 FEW025 TX05/2915Z TN01/3006Z \n  TEMPO 2915/2920 7000 RA BKN017 \n  BECMG 2917/2919 09008KT"
    },
    {
      "icao": "LQTZ",
      "iata": "TZL",
      "name": "Tuzla International Airport",
      "lat": 44.459858,
      "lon": 18.723627,
      "updatedAt": "290900Z",
      "visibility_m": 10000,
      "taf_visibility_m": 5000,
      "worst_visibility_m": 5000,
      "ceiling_ft": 1000,
      "hazards": [
        "RA"
      ],
      "severityScore": 24,
      "metarRaw": "METAR LQTZ 290900Z VRB02KT 9999 FEW065 12/04 Q0995",
      "tafRaw": "TAF LQTZ 290500Z 2906/3006 27005KT 9999 SCT050 TX13/2913Z TN02/2906Z \n  PROB40 \n  TEMPO 2913/2917 03010KT \n  BECMG 2919/2922 5000 -RA BKN010 OVC030 \n  PROB40 \n  TEMPO 3000/3006 33010KT"
    },
    {
      "icao": "LRSM",
      "iata": "SUJ",
      "name": "Satu Mare International Airport",
      "lat": 47.7033,
      "lon": 22.8857,
      "updatedAt": "290900Z",
      "visibility_m": 10000,
      "taf_visibility_m": 5000,
      "worst_visibility_m": 5000,
      "ceiling_ft": 1500,
      "hazards": [
        "RA"
      ],
      "severityScore": 24,
      "metarRaw": "METAR LRSM 290900Z 06003KT 9999 FEW040 05/03 Q0997",
      "tafRaw": "TAF LRSM 290800Z 2909/2918 VRB04KT 9999 BKN045 \n  TEMPO 2909/2915 5000 RA BKN015 OVC035"
    },
    {
      "icao": "LYNI",
      "iata": "INI",
      "name": "Niš Constantine the Great Airport",
      "lat": 43.336538,
      "lon": 21.856242,
      "updatedAt": "290900Z",
      "visibility_m": 10000,
      "taf_visibility_m": 10000,
      "worst_visibility_m": 10000,
      "ceiling_ft": 1000,
      "hazards": [
        "RA"
      ],
      "severityScore": 24,
      "metarRaw": "METAR LYNI 290900Z VRB02KT CAVOK 07/04 Q0997 NOSIG",
      "tafRaw": "TAF LYNI 290500Z 2906/3006 09005KT 9999 SCT060 TX13/2913Z TN04/3006Z \n  TEMPO 2921/3001 RA \n  BECMG 3002/3004 BKN010 BKN020"
    },
    {
      "icao": "EGPD",
      "iata": "ABZ",
      "name": "Aberdeen International Airport",
      "lat": 57.2019,
      "lon": -2.19778,
      "updatedAt": "290850Z",
      "visibility_m": 10000,
      "taf_visibility_m": 4000,
      "worst_visibility_m": 4000,
      "ceiling_ft": 2100,
      "hazards": [
        "RA",
        "DZ"
      ],
      "severityScore": 22,
      "metarRaw": "METAR EGPD 290850Z COR AUTO 15012KT 9999 SCT017 BKN021 BKN027 05/02 Q1001 NOSIG",
      "tafRaw": "TAF EGPD 290454Z 2906/3006 13012KT 9999 SCT015 BKN030 \n  TEMPO 2906/3006 6000 -RADZ BKN012 \n  PROB40 \n  TEMPO 2906/2912 14015G25KT 4000 RADZ BKN008 \n  BECMG 2920/2923 13016G28KT \n  PROB40 \n  TEMPO 2920/3006 4000 RADZ BKN006"
    },
    {
      "icao": "EPLB",
      "iata": "LUZ",
      "name": "Lublin Airport",
      "lat": 51.240157,
      "lon": 22.713461,
      "updatedAt": "290900Z",
      "visibility_m": 9000,
      "taf_visibility_m": 3500,
      "worst_visibility_m": 3500,
      "ceiling_ft": 1300,
      "hazards": [
        "BR"
      ],
      "severityScore": 22,
      "metarRaw": "METAR EPLB 290900Z 04008KT 9000 FEW007 OVC013 M00/M01 Q1003",
      "tafRaw": "TAF EPLB 290530Z 2906/3006 02007KT 7000 BKN018 \n  TEMPO 2906/2909 BKN006 \n  PROB40 2909/2918 BKN013 \n  PROB40 \n  TEMPO 2918/3006 3500 -SG BR BKN006"
    },
    {
      "icao": "LATI",
      "iata": "TIA",
      "name": "Tirana International Airport Mother Teresa",
      "lat": 41.4147,
      "lon": 19.7206,
      "updatedAt": "290850Z",
      "visibility_m": 10000,
      "taf_visibility_m": 4000,
      "worst_visibility_m": 4000,
      "ceiling_ft": 7800,
      "hazards": [
        "BR",
        "RA"
      ],
      "severityScore": 22,
      "metarRaw": "METAR LATI 290850Z VRB02KT 9999 SCT060 BKN078 11/08 Q0994 NOSIG",
      "tafRaw": "TAF LATI 290500Z 2906/3006 VRB05KT 9999 SCT030 BKN060 TX13/2912Z TN09/3005Z \n  TEMPO 2914/2919 RA \n  TEMPO 2919/3003 4000 RA BR BKN015 OVC040"
    },
    {
      "icao": "LHDC",
      "iata": "DEB",
      "name": "Debrecen International Airport",
      "lat": 47.488899,
      "lon": 21.615299,
      "updatedAt": "290845Z",
      "visibility_m": 10000,
      "taf_visibility_m": 4500,
      "worst_visibility_m": 4500,
      "ceiling_ft": 4000,
      "hazards": [
        "RA",
        "BR"
      ],
      "severityScore": 22,
      "metarRaw": "METAR LHDC 290845Z AUTO 05007KT 9999 -RA OVC040 05/04 Q0997 NOSIG",
      "tafRaw": "TAF LHDC 290815Z 2909/2918 06008KT 9999 -RA FEW008 OVC035 \n  TEMPO 2909/2912 4500 RA BR BKN008 \n  TEMPO 2912/2918 BKN012"
    },
    {
      "icao": "LIBR",
      "iata": "BDS",
      "name": "Brindisi Airport",
      "lat": 40.6576,
      "lon": 17.947001,
      "updatedAt": "290850Z",
      "visibility_m": 10000,
      "taf_visibility_m": 10000,
      "worst_visibility_m": 10000,
      "ceiling_ft": 3000,
      "hazards": [
        "BR",
        "RA"
      ],
      "severityScore": 22,
      "metarRaw": "METAR LIBR 290850Z 01009KT 9999 BKN030 13/10 Q0993 RERA",
      "tafRaw": "TAF LIBR 290500Z 2906/3006 17008KT 9999 SCT020 \n  BECMG 2910/2912 30015KT \n  TEMPO 2911/2915 RA"
    },
    {
      "icao": "LRTM",
      "iata": "TGM",
      "name": "Târgu Mureş Transilvania International Airport",
      "lat": 46.467701,
      "lon": 24.4125,
      "updatedAt": "290900Z",
      "visibility_m": 2600,
      "taf_visibility_m": 2500,
      "worst_visibility_m": 2500,
      "ceiling_ft": 3500,
      "hazards": [
        "BR",
        "RA"
      ],
      "severityScore": 22,
      "metarRaw": "METAR LRTM 290900Z 08003KT 2600 -RA BR SCT008 BKN035 01/01 Q0998",
      "tafRaw": "TAF LRTM 290800Z 2909/2918 VRB04KT 2500 -RA BR SCT010 BKN035 \n  BECMG 2910/2912 5000 \n  BECMG 2915/2917 3000 BR BKN005 OVC020"
    },
    {
      "icao": "LWSK",
      "iata": "SKP",
      "name": "Skopje International Airport",
      "lat": 41.958087,
      "lon": 21.622581,
      "updatedAt": "290850Z",
      "visibility_m": 5000,
      "taf_visibility_m": 5000,
      "worst_visibility_m": 5000,
      "ceiling_ft": 5000,
      "hazards": [
        "BR",
        "RA"
      ],
      "severityScore": 22,
      "metarRaw": "METAR LWSK 290850Z 19003KT 5000 BR FEW020 OVC050 05/04 Q0998 NOSIG",
      "tafRaw": "TAF LWSK 290900Z 2909/3009 VRB02KT 5000 BR SCT020 OVC040 \n  TEMPO 2909/2919 RA"
    },
    {
      "icao": "LZKZ",
      "iata": "KSC",
      "name": "Košice International Airport",
      "lat": 48.663101,
      "lon": 21.2411,
      "updatedAt": "290900Z",
      "visibility_m": 10000,
      "taf_visibility_m": 3000,
      "worst_visibility_m": 3000,
      "ceiling_ft": 3900,
      "hazards": [
        "RA",
        "BR"
      ],
      "severityScore": 22,
      "metarRaw": "METAR LZKZ 290900Z 01010KT 9999 -RA FEW018 OVC039 03/02 Q0998 NOSIG",
      "tafRaw": "TAF LZKZ 290515Z 2906/3006 01015KT 9999 SCT013 OVC020 \n  TEMPO 2906/2914 3000 -RA BR SCT005 OVC013"
    },
    {
      "icao": "OJAI",
      "iata": "AMM",
      "name": "Queen Alia International Airport",
      "lat": 31.7226009369,
      "lon": 35.9931983948,
      "updatedAt": "290900Z",
      "visibility_m": 4000,
      "taf_visibility_m": 2000,
      "worst_visibility_m": 2000,
      "ceiling_ft": 3000,
      "hazards": [
        "BR",
        "RA"
      ],
      "severityScore": 22,
      "metarRaw": "METAR OJAI 290900Z 24012KT 4000 BR SCT030 12/06 Q1021 NOSIG",
      "tafRaw": "TAF OJAI 290500Z 2906/3012 24014KT 3000 BR SCT025TCU BKN030 \n  TEMPO 2906/2910 27018KT 2000 RA BR \n  BECMG 2912/2914 5000 HZ FEW025TCU SCT030"
    },
    {
      "icao": "EKBI",
      "iata": "BLL",
      "name": "Billund Airport",
      "lat": 55.740335,
      "lon": 9.157019,
      "updatedAt": "290850Z",
      "visibility_m": 10000,
      "taf_visibility_m": 4000,
      "worst_visibility_m": 4000,
      "ceiling_ft": 2500,
      "hazards": [
        "SN"
      ],
      "severityScore": 18,
      "metarRaw": "METAR EKBI 290850Z 06015KT 9999 BKN025 M02/M06 Q1009",
      "tafRaw": "TAF EKBI 290832Z 2909/3009 08015KT 9999 BKN020 \n  TEMPO 2909/2921 BKN012 \n  TEMPO 2921/3009 09015G25KT 4000 -SN DRSN BKN012"
    },
    {
      "icao": "ESKN",
      "iata": "NYO",
      "name": "Stockholm Skavsta Airport",
      "lat": 58.789656,
      "lon": 16.911479,
      "updatedAt": "290850Z",
      "visibility_m": 10000,
      "taf_visibility_m": 10000,
      "worst_visibility_m": 10000,
      "ceiling_ft": 3000,
      "hazards": [
        "SN"
      ],
      "severityScore": 18,
      "metarRaw": "METAR ESKN 290850Z 03008KT 350V060 9999 BKN030 M05/M07 Q1016",
      "tafRaw": "TAF ESKN 290830Z 2909/3009 02009KT 9999 -SN BKN025"
    },
    {
      "icao": "EPWR",
      "iata": "WRO",
      "name": "Copernicus Wrocław Airport",
      "lat": 51.103719,
      "lon": 16.882096,
      "updatedAt": "290900Z",
      "visibility_m": 10000,
      "taf_visibility_m": 10000,
      "worst_visibility_m": 10000,
      "ceiling_ft": 1200,
      "hazards": [],
      "severityScore": 12,
      "metarRaw": "METAR EPWR 290900Z 08008KT 9999 OVC012 00/M02 Q1002",
      "tafRaw": "TAF EPWR 290830Z 2909/3009 08010KT 9999 OVC012 \n  BECMG 2909/2912 BKN017 \n  BECMG 2916/2919 OVC011 \n  TEMPO 3000/3006 OVC008 \n  BECMG 3007/3009 BKN020"
    },
    {
      "icao": "EYPA",
      "iata": "PLQ",
      "name": "Palanga International Airport",
      "lat": 55.973202,
      "lon": 21.093901,
      "updatedAt": "290850Z",
      "visibility_m": 10000,
      "taf_visibility_m": 9000,
      "worst_visibility_m": 9000,
      "ceiling_ft": 1500,
      "hazards": [],
      "severityScore": 12,
      "metarRaw": "METAR EYPA 290850Z 07010KT CAVOK M09/M14 Q1012",
      "tafRaw": "TAF EYPA 290509Z 2906/3006 05013KT 9000 OVC015 \n  TEMPO 2912/2924 SCT020"
    },
    {
      "icao": "LBSF",
      "iata": "SOF",
      "name": "Sofia Airport",
      "lat": 42.696357,
      "lon": 23.417671,
      "updatedAt": "290900Z",
      "visibility_m": 10000,
      "taf_visibility_m": 5000,
      "worst_visibility_m": 5000,
      "ceiling_ft": 5700,
      "hazards": [
        "RA"
      ],
      "severityScore": 12,
      "metarRaw": "METAR LBSF 290900Z 13006KT 080V170 9999 -RA OVC057 07/03 Q0998 NOSIG",
      "tafRaw": "TAF LBSF 290500Z 2906/3006 12010KT 9999 SCT040 BKN070 \n  BECMG 2910/2912 VRB03KT \n  TEMPO 2916/2922 5000 RA BKN020 OVC040 \n  BECMG 3002/3004 5000 RA BKN020 OVC040"
    },
    {
      "icao": "LEMG",
      "iata": "AGP",
      "name": "Málaga-Costa del Sol Airport",
      "lat": 36.6749,
      "lon": -4.49911,
      "updatedAt": "290900Z",
      "visibility_m": 10000,
      "taf_visibility_m": 10000,
      "worst_visibility_m": 10000,
      "ceiling_ft": 2500,
      "hazards": [
        "RA"
      ],
      "severityScore": 12,
      "metarRaw": "METAR LEMG 290900Z VRB01KT 9999 FEW030 SCT055 16/14 Q1011 NOSIG",
      "tafRaw": "TAF LEMG 290500Z 2906/3006 29006KT 9999 FEW020 BKN025 TX19/2914Z TN11/3006Z \n  PROB30 \n  TEMPO 2918/2924 RA"
    },
    {
      "icao": "LEVC",
      "iata": "VLC",
      "name": "Valencia Airport",
      "lat": 39.4893,
      "lon": -0.481625,
      "updatedAt": "290900Z",
      "visibility_m": 10000,
      "taf_visibility_m": 4000,
      "worst_visibility_m": 4000,
      "ceiling_ft": 2000,
      "hazards": [
        "RA"
      ],
      "severityScore": 12,
      "metarRaw": "METAR LEVC 290900Z 12003KT 080V140 9999 FEW040 13/08 Q1003 NOSIG",
      "tafRaw": "TAF LEVC 290500Z 2906/3006 VRB04KT 9999 FEW030 TX21/2914Z TN10/2906Z \n  BECMG 2910/2912 27009KT \n  TEMPO 2911/2914 27015G25KT \n  TEMPO 2914/2918 4000 RA BKN020 \n  BECMG 2920/2922 30020KT \n  TEMPO 2922/3003 30025G40KT \n  TEMPO 3003/3006 30015G30KT"
    },
    {
      "icao": "LFSB",
      "iata": "BSL",
      "name": "EuroAirport Basel–Mulhouse–Freiburg",
      "lat": 47.60068,
      "lon": 7.521117,
      "updatedAt": "290900Z",
      "visibility_m": 10000,
      "taf_visibility_m": 10000,
      "worst_visibility_m": 10000,
      "ceiling_ft": 1600,
      "hazards": [],
      "severityScore": 12,
      "metarRaw": "METAR LFSB 290900Z AUTO 10003KT 070V130 9999 BKN016 BKN039 OVC064 04/03 Q0999 TEMPO 25010G20KT",
      "tafRaw": "TAF LFSB 290500Z 2906/3006 VRB03KT 9999 BKN009 OVC025 \n  BECMG 2906/2909 FEW010 BKN030 \n  PROB30 \n  TEMPO 2909/2912 25010G20KT"
    },
    {
      "icao": "LIBG",
      "iata": "TAR",
      "name": "Taranto-Grottaglie Marcello Arlotta Airport",
      "lat": 40.517502,
      "lon": 17.4032,
      "updatedAt": "290850Z",
      "visibility_m": 10000,
      "taf_visibility_m": 3000,
      "worst_visibility_m": 3000,
      "ceiling_ft": null,
      "hazards": [
        "RA"
      ],
      "severityScore": 12,
      "metarRaw": "METAR LIBG 290850Z 02007KT 9999 FEW025 SCT040 12/08 Q0992",
      "tafRaw": "TAF LIBG 290800Z 2909/2918 05010KT 9999 SCT030 \n  TEMPO 2909/2912 4000 -RA \n  BECMG 2912/2914 32010KT \n  TEMPO 2912/2915 3000 RA"
    },
    {
      "icao": "LIMJ",
      "iata": "GOA",
      "name": "Genoa Cristoforo Colombo Airport",
      "lat": 44.412039,
      "lon": 8.840732,
      "updatedAt": "290850Z",
      "visibility_m": 10000,
      "taf_visibility_m": 4000,
      "worst_visibility_m": 4000,
      "ceiling_ft": null,
      "hazards": [
        "RA"
      ],
      "severityScore": 12,
      "metarRaw": "METAR LIMJ 290850Z 04008KT 9999 FEW060 08/03 Q0994",
      "tafRaw": "TAF LIMJ 290500Z 2906/3006 04008KT 9999 SCT040 \n  TEMPO 2906/2909 4000 RA"
    },
    {
      "icao": "LIRP",
      "iata": "PSA",
      "name": "Pisa International Airport",
      "lat": 43.683899,
      "lon": 10.3927,
      "updatedAt": "290845Z",
      "visibility_m": 10000,
      "taf_visibility_m": 10000,
      "worst_visibility_m": 10000,
      "ceiling_ft": 2500,
      "hazards": [
        "RA"
      ],
      "severityScore": 12,
      "metarRaw": "METAR LIRP 290845Z 04003KT 9999 BKN025 09/09 Q0993 NOSIG",
      "tafRaw": "TAF LIRP 290500Z 2906/3006 12007KT 9999 SCT020 SCT050 \n  TEMPO 2906/2909 RA \n  TEMPO 2912/2918 VRB03KT"
    },
    {
      "icao": "LLBG",
      "iata": "TLV",
      "name": "Ben Gurion International Airport",
      "lat": 32.011398,
      "lon": 34.8867,
      "updatedAt": "290850Z",
      "visibility_m": 10000,
      "taf_visibility_m": 7000,
      "worst_visibility_m": 7000,
      "ceiling_ft": 3000,
      "hazards": [
        "RA"
      ],
      "severityScore": 12,
      "metarRaw": "METAR LLBG 290850Z 20011KT 9999 SCT050 17/10 Q1020 NOSIG RMK SCT080",
      "tafRaw": "TAF LLBG 290500Z 2906/3006 18010KT 9999 SCT035 \n  PROB40 \n  TEMPO 2906/2912 23015KT 7000 RA BKN030 \n  BECMG 2914/2916 VRB04KT FEW040 \n  BECMG 2922/2924 16008KT CAVOK TX19/2911Z TN13/3004Z"
    },
    {
      "icao": "LWOH",
      "iata": "OHD",
      "name": "Ohrid St. Paul the Apostle Airport",
      "lat": 41.18,
      "lon": 20.7423,
      "updatedAt": "290850Z",
      "visibility_m": 10000,
      "taf_visibility_m": 10000,
      "worst_visibility_m": 10000,
      "ceiling_ft": 4000,
      "hazards": [
        "RA"
      ],
      "severityScore": 12,
      "metarRaw": "METAR LWOH 290850Z 31004KT 280V350 9999 SCT020 OVC040 06/05 Q0996",
      "tafRaw": "TAF LWOH 290900Z 2909/3009 VRB02KT 9999 SCT020 OVC040 \n  TEMPO 2906/2909 RA"
    },
    {
      "icao": "LYPG",
      "iata": "TGD",
      "name": "Podgorica Airport / Podgorica Golubovci Airbase",
      "lat": 42.359402,
      "lon": 19.2519,
      "updatedAt": "290900Z",
      "visibility_m": 10000,
      "taf_visibility_m": 5000,
      "worst_visibility_m": 5000,
      "ceiling_ft": 8000,
      "hazards": [
        "RA"
      ],
      "severityScore": 12,
      "metarRaw": "METAR LYPG 290900Z 34005KT 9999 FEW016 SCT050 BKN080 10/09 Q0995 NOSIG",
      "tafRaw": "TAF LYPG 290500Z 2906/3006 36005KT 9999 SCT040 TX13/2913Z TN06/3005Z \n  PROB40 \n  TEMPO 2922/3006 5000 RA"
    },
    {
      "icao": "ENBR",
      "iata": "BGO",
      "name": "Bergen Airport, Flesland",
      "lat": 60.2934,
      "lon": 5.21814,
      "updatedAt": "290850Z",
      "visibility_m": 10000,
      "taf_visibility_m": 10000,
      "worst_visibility_m": 10000,
      "ceiling_ft": null,
      "hazards": [
        "BR"
      ],
      "severityScore": 10,
      "metarRaw": "METAR ENBR 290850Z 13004KT 090V170 9999 SCT027 M03/M07 Q1012 NOSIG RMK WIND 1200FT 17009KT",
      "tafRaw": "TAF ENBR 290500Z 2906/3006 VRB03KT 9999 SCT030"
    },
    {
      "icao": "EPMO",
      "iata": "WMI",
      "name": "Modlin Airport",
      "lat": 52.451099,
      "lon": 20.6518,
      "updatedAt": "290900Z",
      "visibility_m": 7000,
      "taf_visibility_m": 4500,
      "worst_visibility_m": 4500,
      "ceiling_ft": 2600,
      "hazards": [
        "BR"
      ],
      "severityScore": 10,
      "metarRaw": "METAR EPMO 290900Z 02008KT 7000 SCT009 OVC026 M06/M07 Q1005",
      "tafRaw": "TAF EPMO 290530Z 2906/3006 04010KT 7000 SCT008 BKN020 \n  TEMPO 2906/2909 4500 BR BKN008 \n  PROB40 2909/2920 BKN013 \n  PROB40 2920/3006 BKN007"
    },
    {
      "icao": "LIBP",
      "iata": "PSR",
      "name": "Abruzzo Airport",
      "lat": 42.431079,
      "lon": 14.182981,
      "updatedAt": "290850Z",
      "visibility_m": 10000,
      "taf_visibility_m": 4000,
      "worst_visibility_m": 4000,
      "ceiling_ft": null,
      "hazards": [
        "BR"
      ],
      "severityScore": 10,
      "metarRaw": "METAR LIBP 290850Z AUTO 19004KT 140V220 9999 FEW051/// OVC068/// 12/05 Q0995",
      "tafRaw": "TAF LIBP 290500Z 2906/3006 VRB05KT 9999 SCT060 \n  BECMG 2910/2912 36010KT \n  BECMG 2916/2918 23006KT \n  TEMPO 2919/3006 4000 BR"
    },
    {
      "icao": "BKPR",
      "iata": "PRN",
      "name": "Priština Adem Jashari International Airport",
      "lat": 42.5728,
      "lon": 21.035801,
      "updatedAt": "290900Z",
      "visibility_m": 10000,
      "taf_visibility_m": null,
      "worst_visibility_m": 10000,
      "ceiling_ft": 7000,
      "hazards": [],
      "severityScore": 5,
      "metarRaw": "METAR BKPR 290900Z 20005KT 9999 BKN070 07/05 Q0996 NOSIG",
      "tafRaw": null
    },
    {
      "icao": "ENZV",
      "iata": "SVG",
      "name": "Stavanger Airport, Sola",
      "lat": 58.876701,
      "lon": 5.63778,
      "updatedAt": "290850Z",
      "visibility_m": 10000,
      "taf_visibility_m": null,
      "worst_visibility_m": 10000,
      "ceiling_ft": null,
      "hazards": [],
      "severityScore": 5,
      "metarRaw": "METAR ENZV 290850Z 13005KT CAVOK M05/M13 Q1012 NOSIG",
      "tafRaw": null
    },
    {
      "icao": "LECH",
      "iata": "CDT",
      "name": "Castellón-Costa Azahar Airport",
      "lat": 40.213889,
      "lon": 0.073333,
      "updatedAt": "290900Z",
      "visibility_m": 10000,
      "taf_visibility_m": null,
      "worst_visibility_m": 10000,
      "ceiling_ft": null,
      "hazards": [],
      "severityScore": 5,
      "metarRaw": "METAR LECH 290900Z AUTO VRB02KT CAVOK 07/04 Q1002",
      "tafRaw": null
    },
    {
      "icao": "LQSA",
      "iata": "SJJ",
      "name": "Sarajevo International Airport",
      "lat": 43.8246,
      "lon": 18.331499,
      "updatedAt": "290900Z",
      "visibility_m": 10000,
      "taf_visibility_m": null,
      "worst_visibility_m": 10000,
      "ceiling_ft": null,
      "hazards": [],
      "severityScore": 5,
      "metarRaw": "METAR LQSA 290900Z VRB01KT CAVOK 06/04 Q0995 NOSIG",
      "tafRaw": null
    },
    {
      "icao": "GCFV",
      "iata": "FUE",
      "name": "Fuerteventura Airport",
      "lat": 28.4527,
      "lon": -13.8638,
      "updatedAt": "290900Z",
      "visibility_m": 10000,
      "taf_visibility_m": 10000,
      "worst_visibility_m": 10000,
      "ceiling_ft": 2900,
      "hazards": [],
      "severityScore": 0,
      "metarRaw": "METAR GCFV 290900Z 32006KT 9999 FEW024 BKN029 19/13 Q1024",
      "tafRaw": "TAF GCFV 290800Z 2909/3009 33008KT 9999 BKN030 TX23/2914Z TN15/3006Z"
    },
    {
      "icao": "GCLP",
      "iata": "LPA",
      "name": "Gran Canaria Airport",
      "lat": 27.9319,
      "lon": -15.3866,
      "updatedAt": "290900Z",
      "visibility_m": 10000,
      "taf_visibility_m": 10000,
      "worst_visibility_m": 10000,
      "ceiling_ft": 3200,
      "hazards": [],
      "severityScore": 0,
      "metarRaw": "METAR GCLP 290900Z 33007KT 280V010 9999 BKN032 19/12 Q1024 NOSIG",
      "tafRaw": "TAF GCLP 290800Z 2909/3009 36010KT 9999 BKN035 TX22/2914Z TN16/3006Z"
    },
    {
      "icao": "GMAD",
      "iata": "AGA",
      "name": "Al Massira Airport",
      "lat": 30.322478,
      "lon": -9.412003,
      "updatedAt": "290900Z",
      "visibility_m": 8000,
      "taf_visibility_m": 6000,
      "worst_visibility_m": 6000,
      "ceiling_ft": 2000,
      "hazards": [],
      "severityScore": 0,
      "metarRaw": "METAR GMAD 290900Z 00000KT 8000 FEW006 BKN020 15/15 Q1022 NOSIG",
      "tafRaw": "TAF GMAD 290500Z 2906/3012 06008KT 6000 BKN006 \n  BECMG 2911/2913 27013KT 8000 SCT020"
    },
    {
      "icao": "GMMX",
      "iata": "RAK",
      "name": "Marrakesh Menara Airport",
      "lat": 31.604807,
      "lon": -8.035788,
      "updatedAt": "290900Z",
      "visibility_m": 5000,
      "taf_visibility_m": 8000,
      "worst_visibility_m": 5000,
      "ceiling_ft": 2000,
      "hazards": [],
      "severityScore": 0,
      "metarRaw": "METAR GMMX 290900Z VRB02KT 5000 BKN020 SCT080 14/12 Q1023 NOSIG",
      "tafRaw": "TAF GMMX 290500Z 2906/3012 06006KT 8000 SCT020 SCT080 \n  TEMPO 2915/2921 34016KT"
    },
    {
      "icao": "ENAL",
      "iata": "AES",
      "name": "Ålesund Airport, Vigra",
      "lat": 62.5625,
      "lon": 6.1197,
      "updatedAt": "290850Z",
      "visibility_m": 10000,
      "taf_visibility_m": 10000,
      "worst_visibility_m": 10000,
      "ceiling_ft": 3000,
      "hazards": [],
      "severityScore": 0,
      "metarRaw": "METAR ENAL 290850Z 14014KT 9999 FEW034 M01/M06 Q1012",
      "tafRaw": "TAF ENAL 290800Z 2909/2918 14008KT 9999 BKN030"
    },
    {
      "icao": "ENGM",
      "iata": "OSL",
      "name": "Oslo-Gardermoen International Airport",
      "lat": 60.193901,
      "lon": 11.1004,
      "updatedAt": "290850Z",
      "visibility_m": 10000,
      "taf_visibility_m": 10000,
      "worst_visibility_m": 10000,
      "ceiling_ft": 3000,
      "hazards": [],
      "severityScore": 0,
      "metarRaw": "METAR ENGM 290850Z 35005KT CAVOK M15/M17 Q1017 NOSIG",
      "tafRaw": "TAF ENGM 290500Z 2906/3006 02007KT 9999 BKN030"
    },
    {
      "icao": "ENHD",
      "iata": "HAU",
      "name": "Haugesund Airport, Karmøy",
      "lat": 59.345299,
      "lon": 5.20836,
      "updatedAt": "290850Z",
      "visibility_m": 10000,
      "taf_visibility_m": 10000,
      "worst_visibility_m": 10000,
      "ceiling_ft": null,
      "hazards": [],
      "severityScore": 0,
      "metarRaw": "METAR ENHD 290850Z 10006KT CAVOK M07/M12 Q1012",
      "tafRaw": "TAF ENHD 290800Z 2909/2918 10008KT CAVOK"
    },
    {
      "icao": "ENVA",
      "iata": "TRD",
      "name": "Trondheim Airport, Værnes",
      "lat": 63.457802,
      "lon": 10.924,
      "updatedAt": "290850Z",
      "visibility_m": 10000,
      "taf_visibility_m": 10000,
      "worst_visibility_m": 10000,
      "ceiling_ft": null,
      "hazards": [],
      "severityScore": 0,
      "metarRaw": "METAR ENVA 290850Z 12007KT CAVOK M17/M20 Q1017 NOSIG RMK WIND 670FT 10008KT",
      "tafRaw": "TAF ENVA 290500Z 2906/3006 10008KT CAVOK"
    },
    {
      "icao": "ESGG",
      "iata": "GOT",
      "name": "Göteborg Landvetter Airport",
      "lat": 57.6628,
      "lon": 12.2798,
      "updatedAt": "290850Z",
      "visibility_m": 10000,
      "taf_visibility_m": 10000,
      "worst_visibility_m": 10000,
      "ceiling_ft": 2700,
      "hazards": [],
      "severityScore": 0,
      "metarRaw": "METAR ESGG 290850Z 10009KT 060V130 9999 OVC027 M04/M10 Q1012",
      "tafRaw": "TAF ESGG 290830Z 2909/3009 08008KT 9999 OVC030"
    },
    {
      "icao": "HEGN",
      "iata": "HRG",
      "name": "Hurghada International Airport",
      "lat": 27.176776,
      "lon": 33.796692,
      "updatedAt": "290800Z",
      "visibility_m": 10000,
      "taf_visibility_m": 2000,
      "worst_visibility_m": 2000,
      "ceiling_ft": null,
      "hazards": [],
      "severityScore": 0,
      "metarRaw": "METAR HEGN 290800Z 30005KT CAVOK 20/04 Q1022 NOSIG",
      "tafRaw": "TAF HEGN 290500Z 2906/3012 30008KT 6000 NSC \n  TEMPO 2906/2912 4000 DU \n  TEMPO 2906/2909 2000"
    },
    {
      "icao": "HEMA",
      "iata": "RMF",
      "name": "Marsa Alam International Airport",
      "lat": 25.555548,
      "lon": 34.59245,
      "updatedAt": "290800Z",
      "visibility_m": 4000,
      "taf_visibility_m": 2000,
      "worst_visibility_m": 2000,
      "ceiling_ft": null,
      "hazards": [],
      "severityScore": 0,
      "metarRaw": "METAR HEMA 290800Z 34008KT 4000 DU NSC 21/08 Q1021 NOSIG",
      "tafRaw": "TAF HEMA 290500Z 2906/3012 31008KT 6000 NSC \n  TEMPO 2906/2912 4000 DU \n  TEMPO 2906/2909 2000"
    },
    {
      "icao": "HESH",
      "iata": "SSH",
      "name": "Sharm El Sheikh International Airport",
      "lat": 27.977272,
      "lon": 34.394717,
      "updatedAt": "290800Z",
      "visibility_m": 10000,
      "taf_visibility_m": 4000,
      "worst_visibility_m": 4000,
      "ceiling_ft": null,
      "hazards": [],
      "severityScore": 0,
      "metarRaw": "METAR HESH 290800Z 36008KT CAVOK 21/06 Q1021 NOSIG",
      "tafRaw": "TAF HESH 290500Z 2906/3012 22008KT 6000 NSC \n  TEMPO 2906/2912 4000 HZ"
    },
    {
      "icao": "HESX",
      "iata": "SPX",
      "name": "Sphinx International Airport",
      "lat": 30.108179,
      "lon": 30.895728,
      "updatedAt": "290800Z",
      "visibility_m": 10000,
      "taf_visibility_m": 4000,
      "worst_visibility_m": 4000,
      "ceiling_ft": null,
      "hazards": [],
      "severityScore": 0,
      "metarRaw": "METAR HESX 290800Z 19009KT CAVOK 16/04 Q1020 NOSIG",
      "tafRaw": "TAF HESX 290500Z 2906/3012 19012KT 9999 SCT025 \n  TEMPO 2910/2920 4000 SA"
    },
    {
      "icao": "LEAL",
      "iata": "ALC",
      "name": "Alicante-Elche Miguel Hernández Airport",
      "lat": 38.2822,
      "lon": -0.558156,
      "updatedAt": "290900Z",
      "visibility_m": 10000,
      "taf_visibility_m": 10000,
      "worst_visibility_m": 10000,
      "ceiling_ft": null,
      "hazards": [],
      "severityScore": 0,
      "metarRaw": "METAR LEAL 290900Z 00000KT 9999 FEW066 16/07 Q1004 NOSIG",
      "tafRaw": "TAF LEAL 290500Z 2906/3006 VRB04KT 9999 FEW040 TX22/2914Z TN11/2906Z \n  BECMG 2910/2912 22010KT \n  PROB40 \n  TEMPO 2916/2919 25015G25KT \n  BECMG 2921/2923 30020KT \n  TEMPO 2922/3006 30020G30KT \n  TEMPO 3000/3003 30030G45KT"
    },
    {
      "icao": "LEBL",
      "iata": "BCN",
      "name": "Josep Tarradellas Barcelona-El Prat Airport",
      "lat": 41.2971,
      "lon": 2.07846,
      "updatedAt": "290900Z",
      "visibility_m": 10000,
      "taf_visibility_m": 10000,
      "worst_visibility_m": 10000,
      "ceiling_ft": 3000,
      "hazards": [],
      "severityScore": 0,
      "metarRaw": "METAR LEBL 290900Z 32006KT 280V360 9999 FEW025 10/05 Q1002 NOSIG",
      "tafRaw": "TAF LEBL 290500Z 2906/3006 VRB04KT 9999 FEW020 TX14/2912Z TN07/2906Z \n  TEMPO 2906/2912 BKN030 \n  TEMPO 2912/2918 25010KT"
    },
    {
      "icao": "LFMN",
      "iata": "NCE",
      "name": "Nice-Côte d'Azur Airport",
      "lat": 43.658401,
      "lon": 7.21587,
      "updatedAt": "290900Z",
      "visibility_m": 10000,
      "taf_visibility_m": 10000,
      "worst_visibility_m": 10000,
      "ceiling_ft": null,
      "hazards": [],
      "severityScore": 0,
      "metarRaw": "METAR LFMN 290900Z 33008KT 9999 FEW016 08/04 Q0995 NOSIG",
      "tafRaw": "TAF LFMN 290800Z 2909/3015 33010KT CAVOK \n  BECMG 2909/2911 VRB05KT \n  PROB40 \n  TEMPO 2915/2917 08010KT \n  BECMG 2917/2919 34010KT \n  BECMG 3012/3014 09006KT"
    },
    {
      "icao": "LIBD",
      "iata": "BRI",
      "name": "Bari Karol Wojtyła International Airport",
      "lat": 41.138901,
      "lon": 16.760599,
      "updatedAt": "290850Z",
      "visibility_m": 10000,
      "taf_visibility_m": 10000,
      "worst_visibility_m": 10000,
      "ceiling_ft": null,
      "hazards": [],
      "severityScore": 0,
      "metarRaw": "METAR LIBD 290850Z 26006KT 9999 FEW040 10/08 Q0993",
      "tafRaw": "TAF LIBD 290500Z 2906/3006 VRB05KT 9999 FEW020 SCT050 \n  BECMG 2910/2912 29012KT"
    },
    {
      "icao": "LICJ",
      "iata": "PMO",
      "name": "Falcone–Borsellino Airport",
      "lat": 38.175999,
      "lon": 13.091,
      "updatedAt": "290850Z",
      "visibility_m": 10000,
      "taf_visibility_m": 10000,
      "worst_visibility_m": 10000,
      "ceiling_ft": null,
      "hazards": [],
      "severityScore": 0,
      "metarRaw": "METAR LICJ 290850Z 30024KT 9999 SCT030 14/08 Q1001",
      "tafRaw": "TAF LICJ 290500Z 2906/3006 29026G36KT 9999 SCT040 \n  BECMG 2917/2919 23015G25KT"
    },
    {
      "icao": "LPMA",
      "iata": "FNC",
      "name": "Cristiano Ronaldo International Airport",
      "lat": 32.697812,
      "lon": -16.774613,
      "updatedAt": "290900Z",
      "visibility_m": 10000,
      "taf_visibility_m": 10000,
      "worst_visibility_m": 10000,
      "ceiling_ft": null,
      "hazards": [],
      "severityScore": 0,
      "metarRaw": "METAR LPMA 290900Z 31003KT 9999 FEW014 18/14 Q1021",
      "tafRaw": "TAF LPMA 290500Z 2906/3006 VRB05KT 9999 SCT015"
    },
    {
      "icao": "LPPS",
      "iata": "PXO",
      "name": "Porto Santo Airport",
      "lat": 33.0733985901,
      "lon": -16.3500003815,
      "updatedAt": "290900Z",
      "visibility_m": 10000,
      "taf_visibility_m": 10000,
      "worst_visibility_m": 10000,
      "ceiling_ft": null,
      "hazards": [],
      "severityScore": 0,
      "metarRaw": "METAR LPPS 290900Z 28014KT 9999 FEW012 18/16 Q1021",
      "tafRaw": "TAF LPPS 290500Z 2906/3012 27015KT 9999 SCT012 SCT030"
    },
    {
      "icao": "LRBV",
      "iata": "GHV",
      "name": "Brașov-Ghimbav International Airport",
      "lat": 45.70558,
      "lon": 25.522871,
      "updatedAt": "290900Z",
      "visibility_m": 10000,
      "taf_visibility_m": 10000,
      "worst_visibility_m": 10000,
      "ceiling_ft": null,
      "hazards": [],
      "severityScore": 0,
      "metarRaw": "METAR LRBV 290900Z 05005KT 010V100 9999 FEW084 06/02 Q0997",
      "tafRaw": "TAF LRBV 290800Z 2909/2918 VRB04KT 9999 SCT065"
    },
    {
      "icao": "OEJN",
      "iata": "JED",
      "name": "King Abdulaziz International Airport",
      "lat": 21.6796,
      "lon": 39.156502,
      "updatedAt": "290900Z",
      "visibility_m": 10000,
      "taf_visibility_m": 10000,
      "worst_visibility_m": 10000,
      "ceiling_ft": null,
      "hazards": [],
      "severityScore": 0,
      "metarRaw": "METAR OEJN 290900Z 34008KT CAVOK 28/07 Q1017 NOSIG",
      "tafRaw": "TAF OEJN 290500Z 2906/3012 33013KT CAVOK \n  BECMG 2918/2920 03006KT \n  BECMG 3006/3008 33010KT"
    },
    {
      "icao": "OEMA",
      "iata": "MED",
      "name": "Prince Mohammad Bin Abdulaziz Airport",
      "lat": 24.5534,
      "lon": 39.705101,
      "updatedAt": "290900Z",
      "visibility_m": 10000,
      "taf_visibility_m": 10000,
      "worst_visibility_m": 10000,
      "ceiling_ft": null,
      "hazards": [],
      "severityScore": 0,
      "metarRaw": "METAR OEMA 290900Z 09005KT CAVOK 21/M04 Q1022 NOSIG",
      "tafRaw": "TAF OEMA 290500Z 2906/3012 09010KT CAVOK \n  BECMG 3006/3008 27010KT"
    },
    {
      "icao": "OMAA",
      "iata": "AUH",
      "name": "Zayed International Airport",
      "lat": 24.440966,
      "lon": 54.649237,
      "updatedAt": "290900Z",
      "visibility_m": 10000,
      "taf_visibility_m": 8000,
      "worst_visibility_m": 8000,
      "ceiling_ft": null,
      "hazards": [],
      "severityScore": 0,
      "metarRaw": "METAR OMAA 290900Z 23006KT 150V270 CAVOK 27/06 Q1017 BECMG 30010KT",
      "tafRaw": "TAF OMAA 290500Z 2906/3012 19007KT 8000 NSC \n  BECMG 2909/2911 31011KT \n  BECMG 2916/2918 VRB02KT \n  BECMG 3004/3006 30012KT"
    },
    {
      "icao": "OMDB",
      "iata": "DXB",
      "name": "Dubai International Airport",
      "lat": 25.2527999878,
      "lon": 55.3643989563,
      "updatedAt": "290900Z",
      "visibility_m": 10000,
      "taf_visibility_m": 4000,
      "worst_visibility_m": 4000,
      "ceiling_ft": null,
      "hazards": [],
      "severityScore": 0,
      "metarRaw": "METAR OMDB 290900Z 27009KT CAVOK 26/12 Q1017 NOSIG",
      "tafRaw": "TAF OMDB 290500Z 2906/3012 21008KT 8000 NSC \n  BECMG 2909/2911 28010KT \n  BECMG 2916/2918 14005KT \n  PROB30 3002/3005 4000 HZ \n  BECMG 3005/3007 27013KT"
    },
    {
      "icao": "UGKO",
      "iata": "KUT",
      "name": "David the Builder Kutaisi International Airport",
      "lat": 42.177448,
      "lon": 42.485353,
      "updatedAt": "290900Z",
      "visibility_m": 10000,
      "taf_visibility_m": 10000,
      "worst_visibility_m": 10000,
      "ceiling_ft": null,
      "hazards": [],
      "severityScore": 0,
      "metarRaw": "METAR UGKO 290900Z 09006KT CAVOK 14/M01 Q1011 NOSIG",
      "tafRaw": "TAF UGKO 290500Z 2906/3006 09007KT CAVOK TX16/2911Z TN05/2906Z"
    }
  ],
  "stats": {
    "icaoCount": 159,
    "metarReturned": 158,
    "tafReturned": 144,
    "stationsWritten": 159,
    "missingMetar": 1,
    "missingTaf": 15
  },
  "errors": []
}