{
  "generatedAt": "2026-01-16T04:59:54.448Z",
  "stations": [
    {
      "icao": "BKPR",
      "iata": "PRN",
      "name": "Priština Adem Jashari International Airport",
      "updatedAt": null,
      "visibility_m": null,
      "taf_visibility_m": 300,
      "worst_visibility_m": 300,
      "ceiling_ft": 300,
      "hazards": [
        "FZFG",
        "BR",
        "FG"
      ],
      "severityScore": 100,
      "metarRaw": null,
      "tafRaw": "TAF BKPR 152330Z 1600/1624 VRB03KT 9999 SCT050 \n  TEMPO 1602/1609 3000 BR \n  PROB30 1603/1608 0300 FZFG BKN003"
    },
    {
      "icao": "EDDH",
      "iata": "HAM",
      "name": "Hamburg Helmut Schmidt Airport",
      "updatedAt": "160450Z",
      "visibility_m": 10000,
      "taf_visibility_m": 500,
      "worst_visibility_m": 500,
      "ceiling_ft": 100,
      "hazards": [
        "FG",
        "BR"
      ],
      "severityScore": 100,
      "metarRaw": "METAR EDDH 160450Z AUTO 15012KT CAVOK 06/04 Q1009 NOSIG",
      "tafRaw": "TAF EDDH 152300Z 1600/1706 15008KT CAVOK \n  BECMG 1610/1612 23009KT \n  BECMG 1614/1616 17003KT \n  BECMG 1623/1701 11005KT \n  PROB40 \n  TEMPO 1701/1706 3500 BR \n  PROB30 \n  TEMPO 1704/1706 0500 FG OVC001"
    },
    {
      "icao": "EDDN",
      "iata": "NUE",
      "name": "Nuremberg Airport",
      "updatedAt": "160450Z",
      "visibility_m": 10000,
      "taf_visibility_m": 800,
      "worst_visibility_m": 800,
      "ceiling_ft": 100,
      "hazards": [
        "FZFG",
        "BR",
        "FG"
      ],
      "severityScore": 100,
      "metarRaw": "METAR EDDN 160450Z AUTO 12005KT CAVOK M00/M01 Q1016",
      "tafRaw": "TAF EDDN 152300Z 1600/1624 12007KT CAVOK \n  BECMG 1618/1621 4000 BR OVC002 \n  PROB40 \n  TEMPO 1619/1624 0800 FZFG OVC001"
    },
    {
      "icao": "EGBB",
      "iata": "BHX",
      "name": "Birmingham Airport",
      "updatedAt": "160450Z",
      "visibility_m": 9000,
      "taf_visibility_m": 300,
      "worst_visibility_m": 300,
      "ceiling_ft": 900,
      "hazards": [
        "FG",
        "BR",
        "RA",
        "SHRA"
      ],
      "severityScore": 100,
      "metarRaw": "METAR EGBB 160450Z 16008KT 9000 BKN009 04/04 Q1002",
      "tafRaw": "TAF EGBB 152256Z 1600/1624 21006KT 9999 BKN020 \n  TEMPO 1600/1609 4000 BR BKN003 \n  PROB40 \n  TEMPO 1600/1609 0300 FG BKN000 \n  PROB30 \n  TEMPO 1604/1608 SHRA \n  TEMPO 1609/1611 7000 BKN008 \n  TEMPO 1620/1624 BKN009 \n  TEMPO 1622/1624 7000 RA \n  PROB30 \n  TEMPO 1622/1624 4000 +RA BKN004"
    },
    {
      "icao": "EGGW",
      "iata": "LTN",
      "name": "London Luton Airport",
      "updatedAt": "160450Z",
      "visibility_m": 100,
      "taf_visibility_m": null,
      "worst_visibility_m": 100,
      "ceiling_ft": 100,
      "hazards": [
        "FG"
      ],
      "severityScore": 100,
      "metarRaw": "METAR EGGW 160450Z AUTO 18004KT 150V220 0100 FG OVC001 02/02 Q1003",
      "tafRaw": null
    },
    {
      "icao": "EGPD",
      "iata": "ABZ",
      "name": "Aberdeen International Airport",
      "updatedAt": "160450Z",
      "visibility_m": 2000,
      "taf_visibility_m": 300,
      "worst_visibility_m": 300,
      "ceiling_ft": null,
      "hazards": [
        "BR",
        "FZFG",
        "FG"
      ],
      "severityScore": 100,
      "metarRaw": "METAR EGPD 160450Z AUTO VRB01KT 9999 NCD M04/M04 Q0999 TEMPO 2000 BR",
      "tafRaw": "TAF EGPD 152254Z 1600/1624 VRB03KT CAVOK \n  PROB30 \n  TEMPO 1600/1602 2000 BR MIFG \n  PROB30 1602/1610 0300 FZFG VV/// \n  TEMPO 1617/1624 2000 BR MIFG \n  PROB30 1620/1624 0300 FG VV///"
    },
    {
      "icao": "EKCH",
      "iata": "CPH",
      "name": "Copenhagen Kastrup Airport",
      "updatedAt": "160450Z",
      "visibility_m": 4000,
      "taf_visibility_m": 300,
      "worst_visibility_m": 300,
      "ceiling_ft": 300,
      "hazards": [
        "BR",
        "FG"
      ],
      "severityScore": 100,
      "metarRaw": "METAR EKCH 160450Z 14011KT 4000 BR BKN003 04/04 Q1012 BECMG 8000",
      "tafRaw": "TAF EKCH 160227Z 1603/1703 15017KT 0300 FG OVC001 \n  TEMPO 1603/1605 3000 BR OVC004 \n  BECMG 1605/1607 8000 NSW SCT005 \n  BECMG 1614/1617 BKN012 \n  BECMG 1617/1620 20006KT BKN025"
    },
    {
      "icao": "ENGM",
      "iata": "OSL",
      "name": "Oslo-Gardermoen International Airport",
      "updatedAt": "160450Z",
      "visibility_m": 1500,
      "taf_visibility_m": 1000,
      "worst_visibility_m": 1000,
      "ceiling_ft": 400,
      "hazards": [
        "SN",
        "RA",
        "BR",
        "FZDZ",
        "DZ"
      ],
      "severityScore": 100,
      "metarRaw": "METAR ENGM 160450Z 04003KT 4000 1600E -SN FEW004 BKN016 M00/M00 Q1009 TEMPO 1500 -SNRA BKN004",
      "tafRaw": "TAF ENGM 152300Z 1600/1624 VRB03KT 5000 -SN BR BKN003 \n  TEMPO 1600/1605 1500 -FZDZ SNRA OVC006 \n  TEMPO 1605/1613 1000 RASN BR BKN006 \n  BECMG 1612/1614 18010KT RA \n  TEMPO 1613/1624 3000 BR BKN006"
    },
    {
      "icao": "EPGD",
      "iata": "GDN",
      "name": "Gdańsk Lech Wałęsa Airport",
      "updatedAt": "160430Z",
      "visibility_m": 400,
      "taf_visibility_m": 500,
      "worst_visibility_m": 400,
      "ceiling_ft": 100,
      "hazards": [
        "FZFG",
        "FG",
        "BR"
      ],
      "severityScore": 100,
      "metarRaw": "METAR EPGD 160430Z 15009KT 0400 R29/0900N FZFG VV001 M04/M04 Q1021",
      "tafRaw": "TAF EPGD 152330Z 1600/1624 16010KT 3000 BR BKN002 \n  TEMPO 1600/1610 1500 BR BKN001 \n  PROB40 1600/1609 0800 FZFG \n  BECMG 1610/1613 5000 BR OVC005 \n  BECMG 1613/1616 2000 BR BKN003 \n  TEMPO 1616/1624 0500 FZFG OVC001"
    },
    {
      "icao": "EPRZ",
      "iata": "RZE",
      "name": "Rzeszów-Jasionka Airport",
      "updatedAt": "160430Z",
      "visibility_m": 4000,
      "taf_visibility_m": 300,
      "worst_visibility_m": 300,
      "ceiling_ft": 400,
      "hazards": [
        "BR",
        "FG"
      ],
      "severityScore": 100,
      "metarRaw": "METAR EPRZ 160430Z 09011KT 4000 BR OVC004 01/00 Q1024",
      "tafRaw": "TAF EPRZ 152330Z 1600/1624 09006KT 3000 BR SCT002 OVC020 \n  TEMPO 1600/1606 0300 FG OVC002 \n  PROB40 \n  TEMPO 1600/1606 5000 BR \n  BECMG 1606/1609 CAVOK \n  PROB30 \n  TEMPO 1618/1624 3000 BR BKN004"
    },
    {
      "icao": "EPSC",
      "iata": "SZZ",
      "name": "Solidarity Szczecin–Goleniów Airport",
      "updatedAt": "160430Z",
      "visibility_m": 700,
      "taf_visibility_m": 300,
      "worst_visibility_m": 300,
      "ceiling_ft": 100,
      "hazards": [
        "FG",
        "BR"
      ],
      "severityScore": 100,
      "metarRaw": "METAR EPSC 160430Z 13013KT 0700 R31/1600N FG OVC001 02/02 Q1017",
      "tafRaw": "TAF EPSC 152330Z 1600/1624 13012KT 3000 BR BKN004 OVC020 \n  TEMPO 1600/1610 1500 BR \n  PROB40 1600/1608 0800 FG OVC001 \n  PROB40 1610/1615 6000 OVC005 \n  BECMG 1615/1618 0600 FG BKN002 \n  TEMPO 1617/1624 0300 FG OVC001"
    },
    {
      "icao": "EPWR",
      "iata": "WRO",
      "name": "Copernicus Wrocław Airport",
      "updatedAt": "160430Z",
      "visibility_m": 2800,
      "taf_visibility_m": 300,
      "worst_visibility_m": 300,
      "ceiling_ft": 100,
      "hazards": [
        "BR",
        "FG"
      ],
      "severityScore": 100,
      "metarRaw": "METAR EPWR 160430Z 11008KT 2800 BR NSC 01/01 Q1019",
      "tafRaw": "TAF EPWR 160230Z 1603/1703 12006KT 2000 BR BKN025 \n  TEMPO 1603/1609 0300 FG \n  PROB30 \n  TEMPO 1603/1609 BKN001 \n  BECMG 1609/1612 8000 \n  BECMG 1615/1618 2000 BR \n  TEMPO 1616/1621 0500 FG BKN002 \n  BECMG 1621/1624 0300 FG BKN002"
    },
    {
      "icao": "ESMS",
      "iata": "MMX",
      "name": "Malmö Sturup Airport",
      "updatedAt": "160450Z",
      "visibility_m": 200,
      "taf_visibility_m": 200,
      "worst_visibility_m": 200,
      "ceiling_ft": 200,
      "hazards": [
        "FG",
        "BR"
      ],
      "severityScore": 100,
      "metarRaw": "METAR ESMS 160450Z 13010KT 0200 R17/0800N R35/0800N FG VV002 03/03 Q1013",
      "tafRaw": "TAF ESMS 160227Z 1603/1703 14010KT 0200 FG OVC001 \n  TEMPO 1603/1606 1500 BR BKN004 \n  BECMG 1606/1608 6000 NSW BKN006 \n  BECMG 1611/1614 SCT006 \n  BECMG 1614/1617 3000 BR \n  BECMG 1701/1703 BKN004"
    },
    {
      "icao": "LBPD",
      "iata": "PDV",
      "name": "Plovdiv International Airport",
      "updatedAt": "160430Z",
      "visibility_m": 10000,
      "taf_visibility_m": 800,
      "worst_visibility_m": 800,
      "ceiling_ft": 200,
      "hazards": [
        "BR",
        "SN",
        "FG",
        "RA"
      ],
      "severityScore": 100,
      "metarRaw": "METAR LBPD 160430Z AUTO 00000KT 9999 OVC070/// 03/02 Q1023 NOSIG",
      "tafRaw": "TAF LBPD 152300Z 1600/1624 VRB03KT 9999 SCT070 \n  BECMG 1600/1602 3000 BR BKN015 \n  PROB30 \n  TEMPO 1602/1605 0800 BCFG VV002 \n  BECMG 1606/1608 10010KT 9999 NSW BKN030 \n  TEMPO 1614/1618 5000 RASN BKN015 OVC030 \n  TEMPO 1618/1624 3000 SN BKN010 OVC020"
    },
    {
      "icao": "LBSF",
      "iata": "SOF",
      "name": "Sofia Airport",
      "updatedAt": "160430Z",
      "visibility_m": 8000,
      "taf_visibility_m": 600,
      "worst_visibility_m": 600,
      "ceiling_ft": 6300,
      "hazards": [
        "FZFG",
        "BR",
        "SN",
        "FG",
        "RA"
      ],
      "severityScore": 100,
      "metarRaw": "METAR LBSF 160430Z VRB01KT 8000 BKN063 01/00 Q1023 NOSIG",
      "tafRaw": "TAF LBSF 152300Z 1600/1624 VRB03KT 4000 BR BKN050 \n  TEMPO 1600/1607 1500 BR BKN010 \n  PROB40 1602/1606 0600 FZFG SCT003 BKN006 \n  BECMG 1608/1610 9999 NSW \n  BECMG 1613/1615 08010KT \n  TEMPO 1616/1620 5000 RASN SCT010 BKN015"
    },
    {
      "icao": "LEZL",
      "iata": "SVQ",
      "name": "Sevilla Airport",
      "updatedAt": "160430Z",
      "visibility_m": 9000,
      "taf_visibility_m": 3000,
      "worst_visibility_m": 3000,
      "ceiling_ft": 500,
      "hazards": [
        "BR",
        "TSRA",
        "RA",
        "SHRA",
        "TS"
      ],
      "severityScore": 100,
      "metarRaw": "METAR LEZL 160430Z 20009KT 150V260 9000 OVC005 14/14 Q1014 NOSIG",
      "tafRaw": "TAF LEZL 160200Z 1603/1703 24005KT CAVOK TX17/1614Z TN08/1607Z \n  TEMPO 1603/1605 VRB10KT 4000 RA SHRA FEW004CB BKN008 \n  PROB30 \n  TEMPO 1605/1609 3000 BR BKN001 \n  TEMPO 1617/1620 3000 TSRA SHRA FEW065CB"
    },
    {
      "icao": "LHBP",
      "iata": "BUD",
      "name": "Budapest Liszt Ferenc International Airport",
      "updatedAt": "160430Z",
      "visibility_m": 3700,
      "taf_visibility_m": 500,
      "worst_visibility_m": 500,
      "ceiling_ft": 400,
      "hazards": [
        "BR",
        "FZFG",
        "FZDZ",
        "DZ",
        "FG"
      ],
      "severityScore": 100,
      "metarRaw": "METAR LHBP 160430Z 06003KT 020V090 3700 BR OVC004 00/M01 Q1022 NOSIG",
      "tafRaw": "TAF LHBP 152315Z 1600/1624 08005KT 5000 BR SCT006 OVC014 \n  TEMPO 1600/1610 02003KT 0500 -FZDZ FZFG OVC001 \n  TEMPO 1610/1618 3500 BR BKN005 OVC013 \n  TEMPO 1618/1624 1400 -FZDZ DZ BR OVC003"
    },
    {
      "icao": "LIMC",
      "iata": "MXP",
      "name": "Milan Malpensa International Airport",
      "updatedAt": "160450Z",
      "visibility_m": 400,
      "taf_visibility_m": 800,
      "worst_visibility_m": 400,
      "ceiling_ft": 100,
      "hazards": [
        "FG",
        "BR",
        "RA"
      ],
      "severityScore": 100,
      "metarRaw": "METAR LIMC 160450Z VRB01KT 0400 R35R/0550N R17L/1900U R35L/1800U FG OVC001 06/06 Q1021 NOSIG",
      "tafRaw": "TAF LIMC 152300Z 1600/1706 VRB05KT 2000 -RA BR BKN003 BKN040 \n  TEMPO 1600/1610 0800 FG SCT010 BKN040 \n  BECMG 1616/1618 1200 BCFG BKN003 BKN040"
    },
    {
      "icao": "LIPR",
      "iata": "RMI",
      "name": "Federico Fellini International Airport",
      "updatedAt": "160450Z",
      "visibility_m": 1400,
      "taf_visibility_m": 300,
      "worst_visibility_m": 300,
      "ceiling_ft": 100,
      "hazards": [
        "BR",
        "FG"
      ],
      "severityScore": 100,
      "metarRaw": "METAR LIPR 160450Z AUTO VRB01KT 1400 R30/P2000N BR OVC003/// 06/06 Q1021",
      "tafRaw": "TAF LIPR 152300Z 1600/1624 VRB04KT 2000 BR BKN020 \n  TEMPO 1600/1609 0300 FG BKN001"
    },
    {
      "icao": "LIPY",
      "iata": "AOI",
      "name": "Marche Airport",
      "updatedAt": "160450Z",
      "visibility_m": 200,
      "taf_visibility_m": null,
      "worst_visibility_m": 200,
      "ceiling_ft": 200,
      "hazards": [
        "FG"
      ],
      "severityScore": 100,
      "metarRaw": "METAR LIPY 160450Z AUTO 18003KT 0200 R22/0750N FG VV002 07/07 Q1022",
      "tafRaw": null
    },
    {
      "icao": "LKMT",
      "iata": "OSR",
      "name": "Ostrava Leos Janáček Airport",
      "updatedAt": "160430Z",
      "visibility_m": 2500,
      "taf_visibility_m": 600,
      "worst_visibility_m": 600,
      "ceiling_ft": 900,
      "hazards": [
        "BR",
        "FZFG",
        "FG"
      ],
      "severityScore": 100,
      "metarRaw": "METAR LKMT 160430Z 21006KT 2500 BR OVC009 01/01 Q1021 NOSIG",
      "tafRaw": "TAF LKMT 152300Z 1600/1624 22008KT 4500 BR SCT008 BKN025 \n  PROB30 \n  TEMPO 1600/1612 1200 BR BKN005 OVC014 \n  TEMPO 1617/1624 VRB02KT 2500 BR BKN004 OVC012 \n  PROB40 \n  TEMPO 1621/1624 0600 FZFG VV002"
    },
    {
      "icao": "LKPR",
      "iata": "PRG",
      "name": "Václav Havel Airport Prague",
      "updatedAt": "160430Z",
      "visibility_m": 400,
      "taf_visibility_m": 200,
      "worst_visibility_m": 200,
      "ceiling_ft": 100,
      "hazards": [
        "FZFG",
        "FZDZ",
        "FG",
        "DZ",
        "BR"
      ],
      "severityScore": 100,
      "metarRaw": "METAR LKPR 160430Z 04003KT 010V070 0400 R24/0500D R30/0500D FZFG VV001 M01/M01 Q1018 REFZDZ NOSIG",
      "tafRaw": "TAF LKPR 160200Z 1603/1709 VRB02KT 0200 FG VV001 \n  TEMPO 1603/1607 0500 FZFG OVC002 \n  BECMG 1608/1610 11005KT 2000 BR BKN003 \n  TEMPO 1610/1617 3500 BR BKN005 \n  BECMG 1617/1619 1000 BCFG OVC002 \n  TEMPO 1619/1708 0300 FZFG VV001"
    },
    {
      "icao": "LOWW",
      "iata": "VIE",
      "name": "Vienna International Airport",
      "updatedAt": "160450Z",
      "visibility_m": 1200,
      "taf_visibility_m": 300,
      "worst_visibility_m": 300,
      "ceiling_ft": 100,
      "hazards": [
        "FZDZ",
        "FG",
        "DZ",
        "FZFG",
        "BR"
      ],
      "severityScore": 100,
      "metarRaw": "METAR LOWW 160450Z 14006KT 1200 R16/1400U R29/1300N BCFG VV001 M01/M01 Q1022 TEMPO -FZDZ",
      "tafRaw": "TAF LOWW 160215Z 1603/1709 14006KT 0800 BCFG FEW001 BKN002 TX01/1702Z TNM01/1605Z \n  TEMPO 1603/1610 0500 FZFG VV001 \n  PROB40 \n  TEMPO 1603/1610 -FZDZ \n  PROB30 \n  TEMPO 1603/1609 0300 \n  FM161000 13010KT 3000 BR BKN002 \n  TEMPO 1610/1624 1200 -DZ BR"
    },
    {
      "icao": "LQSA",
      "iata": "SJJ",
      "name": "Sarajevo International Airport",
      "updatedAt": "160430Z",
      "visibility_m": 1200,
      "taf_visibility_m": 300,
      "worst_visibility_m": 300,
      "ceiling_ft": 200,
      "hazards": [
        "BR",
        "FZFG",
        "FG"
      ],
      "severityScore": 100,
      "metarRaw": "METAR LQSA 160430Z VRB01KT 1200 R11/0400N BR BKN002 M01/M01 Q1023 NOSIG",
      "tafRaw": "TAF LQSA 152300Z 1600/1624 VRB02KT 2000 BR SCT050 TX05/1614Z TNM03/1605Z \n  TEMPO 1600/1609 0800 FZFG BKN008 \n  PROB40 1604/1608 0300 FZFG BKN002 \n  BECMG 1609/1611 8000 NSW"
    },
    {
      "icao": "LQTZ",
      "iata": "TZL",
      "name": "Tuzla International Airport",
      "updatedAt": "160430Z",
      "visibility_m": 3500,
      "taf_visibility_m": 500,
      "worst_visibility_m": 500,
      "ceiling_ft": 200,
      "hazards": [
        "BR",
        "FG"
      ],
      "severityScore": 100,
      "metarRaw": "METAR LQTZ 160430Z VRB01KT 3500 BR NSC 01/01 Q1022",
      "tafRaw": "TAF LQTZ 152300Z 1600/1624 VRB02KT 6000 SCT050 TX09/1613Z TN00/1605Z \n  TEMPO 1600/1608 3000 BR \n  PROB30 1601/1607 0500 FG BKN002 \n  PROB40 \n  TEMPO 1620/1624 2000 BR BKN004"
    },
    {
      "icao": "LRCL",
      "iata": "CLJ",
      "name": "Cluj Avram Iancu International Airport",
      "updatedAt": "160430Z",
      "visibility_m": 3500,
      "taf_visibility_m": 1500,
      "worst_visibility_m": 1500,
      "ceiling_ft": 400,
      "hazards": [
        "BR",
        "DZ",
        "SN",
        "FZDZ"
      ],
      "severityScore": 100,
      "metarRaw": "METAR LRCL 160430Z 07005KT 3500 -DZ BR OVC004 00/M00 Q1024",
      "tafRaw": "TAF LRCL 160200Z 1603/1612 VRB04KT 5000 BR OVC005 \n  PROB30 \n  TEMPO 1603/1606 1500 -FZDZ BR BKN002 OVC005 \n  BECMG 1606/1608 3000 -SN BR BKN010 OVC020 \n  BECMG 1610/1612 9999 NSW BKN020"
    },
    {
      "icao": "LRSB",
      "iata": "SBZ",
      "name": "Sibiu International Airport",
      "updatedAt": "160430Z",
      "visibility_m": 600,
      "taf_visibility_m": 350,
      "worst_visibility_m": 350,
      "ceiling_ft": 400,
      "hazards": [
        "FG",
        "RA",
        "FZFG",
        "BR",
        "FZDZ",
        "DZ"
      ],
      "severityScore": 100,
      "metarRaw": "METAR LRSB 160430Z 08003KT 0600 R27/1500D -RA FG FEW002 OVC004 01/01 Q1022",
      "tafRaw": "TAF LRSB 152300Z 1600/1624 VRB04KT 0350 -DZ FG BKN001 OVC002 \n  PROB40 \n  TEMPO 1601/1607 0600 -FZDZ FZFG OVC002 \n  BECMG 1607/1609 5000 -RA BR BKN010 OVC025 \n  TEMPO 1609/1614 3000 RA BR \n  BECMG 1614/1616 11010KT 9999 NSW BKN015 BKN025"
    },
    {
      "icao": "LWSK",
      "iata": "SKP",
      "name": "Skopje International Airport",
      "updatedAt": "160450Z",
      "visibility_m": 2000,
      "taf_visibility_m": 600,
      "worst_visibility_m": 600,
      "ceiling_ft": 400,
      "hazards": [
        "BR",
        "FZFG",
        "FG"
      ],
      "severityScore": 100,
      "metarRaw": "METAR LWSK 160450Z 15002KT 2000 BR BKN004 M03/M04 Q1025 NOSIG",
      "tafRaw": "TAF LWSK 160230Z 1603/1703 VRB02KT 5000 BR NSC \n  TEMPO 1604/1608 1500 SCT010 \n  PROB30 \n  TEMPO 1605/1607 0600 FZFG BKN005 \n  BECMG 1609/1611 CAVOK"
    },
    {
      "icao": "LZIB",
      "iata": "BTS",
      "name": "M. R. Štefánik Airport",
      "updatedAt": "160430Z",
      "visibility_m": 2800,
      "taf_visibility_m": 500,
      "worst_visibility_m": 500,
      "ceiling_ft": 400,
      "hazards": [
        "BR",
        "FZFG",
        "FZDZ",
        "FG",
        "DZ"
      ],
      "severityScore": 100,
      "metarRaw": "METAR LZIB 160430Z 05004KT 2800 BR SCT003 OVC004 M00/M00 Q1022 NOSIG",
      "tafRaw": "TAF LZIB 152315Z 1600/1700 05006KT 3500 BR OVC006 \n  TEMPO 1600/1608 0500 -FZDZ FZFG OVC002 \n  TEMPO 1608/1616 6000 BKN014 \n  TEMPO 1618/1700 0600 -FZDZ FZFG OVC002"
    },
    {
      "icao": "LZKZ",
      "iata": "KSC",
      "name": "Košice International Airport",
      "updatedAt": "160430Z",
      "visibility_m": 8000,
      "taf_visibility_m": 500,
      "worst_visibility_m": 500,
      "ceiling_ft": 1400,
      "hazards": [
        "FZFG",
        "BR",
        "FZRA",
        "FZDZ",
        "FG",
        "RA",
        "DZ"
      ],
      "severityScore": 100,
      "metarRaw": "METAR LZKZ 160430Z 03002KT 8000 OVC014 00/M01 Q1023 NOSIG",
      "tafRaw": "TAF LZKZ 152315Z 1600/1700 VRB02KT 6000 BKN020 \n  TEMPO 1600/1608 2000 -FZRA BR BKN006 \n  PROB40 \n  TEMPO 1600/1607 0500 FZDZ FZFG OVC002 \n  TEMPO 1617/1700 2000 BR BKN006"
    },
    {
      "icao": "LZTT",
      "iata": "TAT",
      "name": "Poprad-Tatry Airport",
      "updatedAt": "160430Z",
      "visibility_m": 4000,
      "taf_visibility_m": 500,
      "worst_visibility_m": 500,
      "ceiling_ft": 600,
      "hazards": [
        "BR",
        "FZFG",
        "FZDZ",
        "FG",
        "DZ"
      ],
      "severityScore": 100,
      "metarRaw": "METAR LZTT 160430Z 00000KT 4000 BR OVC006 M00/M01 Q1021",
      "tafRaw": "TAF LZTT 152315Z 1600/1700 VRB02KT 6000 OVC014 \n  TEMPO 1600/1609 2000 BR OVC004 \n  PROB40 \n  TEMPO 1600/1608 0500 FZDZ FZFG OVC002 \n  TEMPO 1609/1616 8000 BKN017"
    },
    {
      "icao": "UAAA",
      "iata": "ALA",
      "name": "Almaty International Airport",
      "updatedAt": "160430Z",
      "visibility_m": 2700,
      "taf_visibility_m": 300,
      "worst_visibility_m": 300,
      "ceiling_ft": 3100,
      "hazards": [
        "BR",
        "SN",
        "FZFG",
        "BLSN",
        "SHSN",
        "FG"
      ],
      "severityScore": 100,
      "metarRaw": "METAR UAAA 160430Z 29002MPS 260V010 2700 -SN BR OVC031 M09/M10 Q1019 NOSIG",
      "tafRaw": "TAF UAAA 152302Z 1600/1624 32003G08MPS 3100 BR FU FEW004 BKN015CB OVC030 TXM08/1608Z TNM10/1603Z \n  TEMPO 1600/1604 0300 -SN FZFG OVC002 \n  TEMPO 1604/1609 1500 -SHSN BR BKN003 BKN015CB \n  FM160900 27004G09MPS 3100 -SHSN BR BKN011CB OVC020 \n  TEMPO 1609/1612 33005G12MPS 1200 -SN BR OVC003 \n  TEMPO 1612/1624 33005G12MPS 0800 SHSN BLSN FZFG VV002"
    },
    {
      "icao": "LFBD",
      "iata": "BOD",
      "name": "Bordeaux–Mérignac Airport",
      "updatedAt": "160430Z",
      "visibility_m": 4000,
      "taf_visibility_m": 300,
      "worst_visibility_m": 300,
      "ceiling_ft": 1000,
      "hazards": [
        "RA",
        "FG",
        "BR"
      ],
      "severityScore": 99,
      "metarRaw": "METAR LFBD 160430Z AUTO 18008KT 9999 FEW033 SCT060 OVC074 09/08 Q1012 TEMPO 4000 -RA BKN010 BKN040TCU",
      "tafRaw": "TAF LFBD 152300Z 1600/1706 21010KT 9999 BKN040 TX11/1615Z TN05/1705Z \n  TEMPO 1600/1607 4000 -RA BKN010 BKN040TCU \n  PROB40 \n  TEMPO 1600/1605 BKN005 \n  BECMG 1607/1609 15005KT \n  PROB40 \n  TEMPO 1613/1616 BKN014 \n  BECMG 1620/1622 VRB03KT \n  BECMG 1622/1624 4000 BR \n  TEMPO 1700/1706 0300 FG VV///"
    },
    {
      "icao": "EPKK",
      "iata": "KRK",
      "name": "Kraków John Paul II International Airport",
      "updatedAt": "160430Z",
      "visibility_m": 7000,
      "taf_visibility_m": 400,
      "worst_visibility_m": 400,
      "ceiling_ft": 4700,
      "hazards": [
        "FZFG",
        "FG",
        "BR"
      ],
      "severityScore": 95,
      "metarRaw": "METAR EPKK 160430Z 04005KT 7000 FEW007 OVC047 01/M01 Q1022",
      "tafRaw": "TAF EPKK 160230Z 1603/1703 06006KT 7000 OVC025 \n  PROB40 \n  TEMPO 1603/1608 0400 FG OVC001 \n  TEMPO 1608/1616 BKN012 \n  BECMG 1616/1619 4000 BR BKN004 \n  PROB40 \n  TEMPO 1621/1703 0600 FZFG OVC001"
    },
    {
      "icao": "EPPO",
      "iata": "POZ",
      "name": "Poznań-Ławica Airport",
      "updatedAt": "160430Z",
      "visibility_m": 500,
      "taf_visibility_m": null,
      "worst_visibility_m": 500,
      "ceiling_ft": 200,
      "hazards": [
        "FG"
      ],
      "severityScore": 95,
      "metarRaw": "METAR EPPO 160430Z 12010KT 0500 R28/P2000U FG VV002 01/00 Q1019",
      "tafRaw": null
    },
    {
      "icao": "LEMD",
      "iata": "MAD",
      "name": "Adolfo Suárez Madrid–Barajas Airport",
      "updatedAt": "160430Z",
      "visibility_m": 3000,
      "taf_visibility_m": 800,
      "worst_visibility_m": 800,
      "ceiling_ft": 1000,
      "hazards": [
        "BR",
        "DZ",
        "FG",
        "RA"
      ],
      "severityScore": 89,
      "metarRaw": "METAR LEMD 160430Z VRB01KT 3000 1200N DZ BR SCT002 BKN010 06/06 Q1013 NOSIG",
      "tafRaw": "TAF LEMD 152300Z 1600/1706 18007KT 9999 BKN020 TX11/1615Z TN05/1607Z \n  TEMPO 1600/1610 3000 BR BCFG DZRA BKN004 BKN010 \n  PROB30 \n  TEMPO 1603/1608 0800 FG VV002 \n  TEMPO 1604/1611 VRB04KT \n  PROB30 \n  TEMPO 1609/1614 DZRA BKN014 \n  TEMPO 1623/1706 BKN010"
    },
    {
      "icao": "LIPE",
      "iata": "BLQ",
      "name": "Bologna Guglielmo Marconi Airport",
      "updatedAt": "160450Z",
      "visibility_m": 2000,
      "taf_visibility_m": 300,
      "worst_visibility_m": 300,
      "ceiling_ft": 1000,
      "hazards": [
        "BR",
        "FG"
      ],
      "severityScore": 87,
      "metarRaw": "METAR LIPE 160450Z 29003KT 270V330 2000 BR OVC010 06/06 Q1022",
      "tafRaw": "TAF LIPE 152300Z 1600/1624 VRB04KT 2000 BR BKN020 \n  TEMPO 1600/1609 0300 FG BKN001"
    },
    {
      "icao": "OJAI",
      "iata": "AMM",
      "name": "Queen Alia International Airport",
      "updatedAt": "160400Z",
      "visibility_m": 200,
      "taf_visibility_m": 800,
      "worst_visibility_m": 200,
      "ceiling_ft": null,
      "hazards": [
        "FG",
        "BR"
      ],
      "severityScore": 85,
      "metarRaw": "METAR OJAI 160400Z 33003KT 0200 FG VV/// 01/01 Q1024 NOSIG",
      "tafRaw": "TAF OJAI 152200Z 1600/1706 VRB02KT 5000 HZ NSC \n  PROB30 1600/1607 1500 BR \n  PROB40 1602/1607 0800 FG \n  BECMG 1607/1609 15008KT FEW030"
    },
    {
      "icao": "LPPR",
      "iata": "OPO",
      "name": "Francisco de Sá Carneiro Airport",
      "updatedAt": "160430Z",
      "visibility_m": 10000,
      "taf_visibility_m": 2000,
      "worst_visibility_m": 2000,
      "ceiling_ft": 800,
      "hazards": [
        "SHRA",
        "TS",
        "RA"
      ],
      "severityScore": 76,
      "metarRaw": "METAR LPPR 160430Z 17005KT 150V230 9999 FEW007 SCT020 09/08 Q1013",
      "tafRaw": "TAF LPPR 152300Z 1600/1624 VRB02KT 9999 SCT013 BKN030 \n  TEMPO 1600/1624 5000 SHRA BKN010 FEW018CB \n  PROB40 \n  TEMPO 1602/1620 VRB15G25KT 2000 +TSRAGS BKN008 SCT015CB \n  BECMG 1603/1605 21010KT \n  BECMG 1610/1612 30007KT \n  BECMG 1620/1622 VRB02KT"
    },
    {
      "icao": "LIBR",
      "iata": "BDS",
      "name": "Brindisi Airport",
      "updatedAt": "160450Z",
      "visibility_m": 5000,
      "taf_visibility_m": 1500,
      "worst_visibility_m": 1500,
      "ceiling_ft": 100,
      "hazards": [
        "BR",
        "FG"
      ],
      "severityScore": 75,
      "metarRaw": "METAR LIBR 160450Z VRB02KT 5000 BR NSC 07/07 Q1020",
      "tafRaw": "TAF LIBR 152300Z 1600/1624 VRB05KT 9999 FEW025 \n  TEMPO 1600/1607 1500 BCFG BKN001"
    },
    {
      "icao": "LIPQ",
      "iata": "TRS",
      "name": "Trieste–Friuli Venezia Giulia Airport",
      "updatedAt": "160450Z",
      "visibility_m": 1600,
      "taf_visibility_m": 1200,
      "worst_visibility_m": 1200,
      "ceiling_ft": 100,
      "hazards": [
        "BR",
        "FG"
      ],
      "severityScore": 75,
      "metarRaw": "METAR LIPQ 160450Z AUTO VRB02KT 1600 BR OVC019/// 08/07 Q1021",
      "tafRaw": "TAF LIPQ 152300Z 1600/1624 VRB04KT 3000 BR BKN020 \n  TEMPO 1600/1606 1200 BCFG BKN001 \n  BECMG 1608/1610 8000 \n  BECMG 1616/1618 3000 BR"
    },
    {
      "icao": "LRBV",
      "iata": "GHV",
      "name": "Brașov-Ghimbav International Airport",
      "updatedAt": "160430Z",
      "visibility_m": 1300,
      "taf_visibility_m": 1500,
      "worst_visibility_m": 1300,
      "ceiling_ft": 300,
      "hazards": [
        "BR",
        "SN"
      ],
      "severityScore": 73,
      "metarRaw": "METAR LRBV 160430Z AUTO 00000KT 1600 1300 R21/P2000N UP VV003 00/M00 Q1023",
      "tafRaw": "TAF LRBV 160200Z 1603/1612 VRB04KT 3000 -SN BR BKN010 OVC030 \n  BECMG 1606/1608 08010KT \n  TEMPO 1606/1612 1500 SN BR BKN005 OVC025"
    },
    {
      "icao": "LICC",
      "iata": "CTA",
      "name": "Catania-Fontanarossa Airport",
      "updatedAt": "160450Z",
      "visibility_m": 10000,
      "taf_visibility_m": 3000,
      "worst_visibility_m": 3000,
      "ceiling_ft": null,
      "hazards": [
        "BR",
        "TSRA",
        "TS",
        "RA"
      ],
      "severityScore": 72,
      "metarRaw": "METAR LICC 160450Z 23004KT CAVOK 06/03 Q1020",
      "tafRaw": "TAF LICC 152300Z 1600/1624 VRB05KT 9999 FEW015 \n  TEMPO 1600/1606 3000 BR \n  BECMG 1610/1612 08010KT \n  TEMPO 1621/1624 4000 TSRA"
    },
    {
      "icao": "ESGG",
      "iata": "GOT",
      "name": "Göteborg Landvetter Airport",
      "updatedAt": "160450Z",
      "visibility_m": 3500,
      "taf_visibility_m": 1200,
      "worst_visibility_m": 1200,
      "ceiling_ft": 200,
      "hazards": [
        "BR",
        "RA"
      ],
      "severityScore": 67,
      "metarRaw": "METAR ESGG 160450Z 14011KT 3500 BR OVC002 04/03 Q1010",
      "tafRaw": "TAF ESGG 160230Z 1603/1703 16009KT 5000 -RA OVC002 \n  TEMPO 1603/1606 1200 RA BR \n  PROB40 1607/1614 SCT005 BKN015 \n  PROB40 1609/1618 16015G25KT"
    },
    {
      "icao": "LIME",
      "iata": "BGY",
      "name": "Milan Bergamo Airport / Antonio Locatelli Air Base",
      "updatedAt": "160450Z",
      "visibility_m": 6000,
      "taf_visibility_m": 800,
      "worst_visibility_m": 800,
      "ceiling_ft": 5000,
      "hazards": [
        "RA",
        "FG",
        "BR"
      ],
      "severityScore": 67,
      "metarRaw": "METAR LIME 160450Z VRB02KT 6000 -RA FEW025 BKN050 05/05 Q1021 NOSIG",
      "tafRaw": "TAF LIME 152300Z 1600/1624 VRB03KT 2000 BR BKN020 \n  TEMPO 1600/1608 0800 FG BKN005 \n  BECMG 1616/1618 1200 BCFG BKN005"
    },
    {
      "icao": "LBWN",
      "iata": "VAR",
      "name": "Varna Airport",
      "updatedAt": "160430Z",
      "visibility_m": 10000,
      "taf_visibility_m": 1200,
      "worst_visibility_m": 1200,
      "ceiling_ft": 500,
      "hazards": [
        "RA",
        "SN"
      ],
      "severityScore": 65,
      "metarRaw": "METAR LBWN 160430Z AUTO 12004KT 020V190 9999 -RA SCT010/// OVC019/// 02/02 Q1025 NOSIG",
      "tafRaw": "TAF LBWN 152300Z 1600/1624 VRB03KT 7000 SCT015 OVC030 \n  BECMG 1601/1603 04010KT \n  BECMG 1603/1605 5000 RASN \n  BECMG 1605/1607 3000 SN BKN005 OVC020 \n  PROB40 \n  TEMPO 1607/1614 1200 SN \n  BECMG 1614/1616 9999 NSW BKN045"
    },
    {
      "icao": "ENBR",
      "iata": "BGO",
      "name": "Bergen Airport, Flesland",
      "updatedAt": "160450Z",
      "visibility_m": 10000,
      "taf_visibility_m": 4000,
      "worst_visibility_m": 4000,
      "ceiling_ft": 500,
      "hazards": [
        "SHRA",
        "BR",
        "RA"
      ],
      "severityScore": 61,
      "metarRaw": "METAR ENBR 160450Z 10007KT 9999 -SHRA FEW035 06/01 Q1002 RMK WIND 1200FT 12017KT",
      "tafRaw": "TAF ENBR 152300Z 1600/1624 14012KT 9999 SCT020 BKN040 \n  BECMG 1601/1603 08005KT \n  BECMG 1608/1610 BKN012 \n  TEMPO 1612/1619 4000 RA BKN005 \n  BECMG 1621/1623 BKN020"
    },
    {
      "icao": "LFPO",
      "iata": "ORY",
      "name": "Paris-Orly Airport",
      "updatedAt": "160430Z",
      "visibility_m": 10000,
      "taf_visibility_m": 4000,
      "worst_visibility_m": 4000,
      "ceiling_ft": 1200,
      "hazards": [
        "BR",
        "RA",
        "SHRA",
        "DZ"
      ],
      "severityScore": 58,
      "metarRaw": "METAR LFPO 160430Z 20006KT 9999 FEW013 BKN230 09/07 Q1009 TEMPO BKN012",
      "tafRaw": "TAF LFPO 152300Z 1600/1706 21010KT 9999 SCT012 BKN020 \n  PROB40 \n  TEMPO 1600/1602 22010G20KT 4000 -RA BKN012 \n  PROB30 \n  TEMPO 1602/1605 BKN010 \n  TEMPO 1605/1612 BKN012 \n  PROB40 \n  TEMPO 1605/1610 BKN007 \n  PROB30 \n  TEMPO 1612/1615 -SHRA \n  BECMG 1616/1618 15005KT CAVOK \n  PROB40 \n  TEMPO 1621/1702 -RA \n  PROB30 1622/1701 4000 -RADZ BKN012 \n  BECMG 1702/1705 BKN006 \n  PROB40 \n  TEMPO 1705/1706 4000 BR BKN004"
    },
    {
      "icao": "LPMA",
      "iata": "FNC",
      "name": "Madeira International Airport Cristiano Ronaldo",
      "updatedAt": "160430Z",
      "visibility_m": 10000,
      "taf_visibility_m": 5000,
      "worst_visibility_m": 5000,
      "ceiling_ft": 1400,
      "hazards": [
        "RA",
        "DZ",
        "BR",
        "SHRA"
      ],
      "severityScore": 58,
      "metarRaw": "METAR LPMA 160430Z 35017KT 9999 -RADZ BKN014 16/12 Q1023",
      "tafRaw": "TAF LPMA 152300Z 1600/1624 VRB05KT 9999 SCT015 BKN030 \n  TEMPO 1600/1603 5000 RADZ BR SCT008 BKN013 \n  BECMG 1601/1603 35013KT \n  PROB30 \n  TEMPO 1603/1624 35020G32KT 8000 SHRA BKN013 FEW018CB"
    },
    {
      "icao": "LUKK",
      "iata": "RMO",
      "name": "Chişinău International Airport",
      "updatedAt": "160430Z",
      "visibility_m": 2000,
      "taf_visibility_m": null,
      "worst_visibility_m": 2000,
      "ceiling_ft": 300,
      "hazards": [
        "SN"
      ],
      "severityScore": 58,
      "metarRaw": "METAR LUKK 160430Z 01010KT 8000 -SN OVC005 M13/M14 Q1031 TEMPO 2000 SN BKN003",
      "tafRaw": null
    },
    {
      "icao": "EFTU",
      "iata": "TKU",
      "name": "Turku Airport",
      "updatedAt": "160450Z",
      "visibility_m": 10000,
      "taf_visibility_m": 4000,
      "worst_visibility_m": 4000,
      "ceiling_ft": 2900,
      "hazards": [
        "FZRA",
        "RA",
        "DZ"
      ],
      "severityScore": 57,
      "metarRaw": "METAR EFTU 160450Z AUTO 18008KT 9999 SCT007 OVC029 01/00 Q1023",
      "tafRaw": "TAF EFTU 160228Z 1603/1703 18007KT 9000 OVC003 \n  TEMPO 1603/1607 6000 DZRA \n  BECMG 1603/1605 BKN008 \n  BECMG 1605/1607 BKN013 \n  PROB30 \n  TEMPO 1608/1616 BKN015 \n  TEMPO 1616/1624 7000 -FZRA OVC008 \n  BECMG 1701/1703 4000 -FZRA BKN006"
    },
    {
      "icao": "LQBK",
      "iata": "BNX",
      "name": "Banja Luka International Airport",
      "updatedAt": "160430Z",
      "visibility_m": 10000,
      "taf_visibility_m": 3000,
      "worst_visibility_m": 3000,
      "ceiling_ft": 400,
      "hazards": [
        "BR",
        "RA"
      ],
      "severityScore": 57,
      "metarRaw": "METAR LQBK 160430Z 13005KT CAVOK 03/02 Q1021 NOSIG",
      "tafRaw": "TAF LQBK 152300Z 1600/1624 15005KT 9999 SCT047 TX09/1613Z TN02/1605Z \n  PROB30 \n  TEMPO 1600/1606 4000 -RA BR \n  TEMPO 1622/1624 3000 BR BKN004"
    },
    {
      "icao": "EETN",
      "iata": "TLL",
      "name": "Lennart Meri Tallinn Airport",
      "updatedAt": "160450Z",
      "visibility_m": 10000,
      "taf_visibility_m": 2000,
      "worst_visibility_m": 2000,
      "ceiling_ft": 3000,
      "hazards": [
        "SN",
        "FZDZ",
        "DZ"
      ],
      "severityScore": 56,
      "metarRaw": "METAR EETN 160450Z 17009KT 9999 OVC030 M06/M08 Q1027 NOSIG",
      "tafRaw": "TAF EETN 152330Z 1600/1624 17012KT 9999 SCT008 OVC025 \n  TEMPO 1600/1602 2000 SN DRSN BKN005 OVC025 \n  PROB30 \n  TEMPO 1600/1602 -FZDZ \n  TEMPO 1602/1618 BKN006 BKN012"
    },
    {
      "icao": "LTFM",
      "iata": "IST",
      "name": "İstanbul Airport",
      "updatedAt": "160450Z",
      "visibility_m": 6000,
      "taf_visibility_m": 2500,
      "worst_visibility_m": 2500,
      "ceiling_ft": 7000,
      "hazards": [
        "BR",
        "RA",
        "SHRA",
        "SN"
      ],
      "severityScore": 54,
      "metarRaw": "METAR LTFM 160450Z 32005KT 6000 FEW009 SCT025 BKN070 08/07 Q1023 NOSIG RMK RWY17L 28004KT RWY34L 31005KT RWY16R VRB02KT RWY36 32004KT RWY18 30004KT 270V350",
      "tafRaw": "TAF LTFM 152240Z 1600/1706 VRB02KT 9999 SCT025 BKN070 \n  PROB30 \n  TEMPO 1603/1606 2500 -RA BR BKN009 \n  BECMG 1606/1610 04017G27KT -SHRA SCT008 BKN022 \n  TEMPO 1618/1622 -SHRASN \n  TEMPO 1623/1703 -SHSNRA"
    },
    {
      "icao": "LRBC",
      "iata": "BCM",
      "name": "Bacău George Enescu International  Airport",
      "updatedAt": "160430Z",
      "visibility_m": 5000,
      "taf_visibility_m": 3000,
      "worst_visibility_m": 3000,
      "ceiling_ft": 900,
      "hazards": [
        "SN",
        "BR"
      ],
      "severityScore": 53,
      "metarRaw": "METAR LRBC 160430Z 35009KT 5000 -SN OVC009 M06/M08 Q1030",
      "tafRaw": "TAF LRBC 160200Z 1603/1612 35007KT 5000 BR OVC010 \n  PROB30 \n  TEMPO 1603/1608 3000 -SN BR \n  BECMG 1608/1610 9999 NSW SCT020"
    },
    {
      "icao": "LROP",
      "iata": "OTP",
      "name": "Bucharest Henri Coandă International Airport",
      "updatedAt": "160430Z",
      "visibility_m": 3000,
      "taf_visibility_m": 3000,
      "worst_visibility_m": 3000,
      "ceiling_ft": 700,
      "hazards": [
        "BR",
        "SN"
      ],
      "severityScore": 53,
      "metarRaw": "METAR LROP 160430Z 07017KT 3000 -SN BR BKN007 OVC038 M02/M04 Q1027 NOSIG",
      "tafRaw": "TAF LROP 152300Z 1600/1624 06007KT 5000 BR BKN040 \n  TEMPO 1600/1605 3000 BR \n  TEMPO 1605/1610 06017KT 3000 -SN BKN010 OVC035 \n  BECMG 1610/1612 9999 NSW SCT025"
    },
    {
      "icao": "ENTO",
      "iata": "TRF",
      "name": "Sandefjord Airport, Torp",
      "updatedAt": "160450Z",
      "visibility_m": 7000,
      "taf_visibility_m": null,
      "worst_visibility_m": 7000,
      "ceiling_ft": 200,
      "hazards": [
        "RA"
      ],
      "severityScore": 52,
      "metarRaw": "METAR ENTO 160450Z 12005KT 7000 RA BKN002 OVC003 03/03 Q1007",
      "tafRaw": null
    },
    {
      "icao": "LPPT",
      "iata": "LIS",
      "name": "Lisbon Humberto Delgado Airport",
      "updatedAt": "160430Z",
      "visibility_m": 10000,
      "taf_visibility_m": 3000,
      "worst_visibility_m": 3000,
      "ceiling_ft": 4400,
      "hazards": [
        "SHRA",
        "TS",
        "RA"
      ],
      "severityScore": 51,
      "metarRaw": "METAR LPPT 160430Z 23005KT 9999 VCSH FEW016 FEW020TCU BKN044 09/09 Q1015",
      "tafRaw": "TAF LPPT 152300Z 1600/1706 29007KT 9999 FEW015 SCT035 \n  TEMPO 1600/1706 7000 SHRA BKN012 FEW020CB \n  PROB30 \n  TEMPO 1608/1619 VRB10G20KT 3000 TSRAGS SCT018CB \n  BECMG 1613/1615 32010KT \n  BECMG 1619/1621 30007KT"
    },
    {
      "icao": "EGPF",
      "iata": "GLA",
      "name": "Glasgow Airport",
      "updatedAt": "160450Z",
      "visibility_m": 2000,
      "taf_visibility_m": null,
      "worst_visibility_m": 2000,
      "ceiling_ft": 200,
      "hazards": [
        "BR"
      ],
      "severityScore": 50,
      "metarRaw": "METAR EGPF 160450Z AUTO 07003KT 040V110 2000 BR OVC002 00/00 Q0999",
      "tafRaw": null
    },
    {
      "icao": "LFOB",
      "iata": "BVA",
      "name": "Beauvais Tillé airport",
      "updatedAt": "160430Z",
      "visibility_m": 4000,
      "taf_visibility_m": null,
      "worst_visibility_m": 4000,
      "ceiling_ft": 400,
      "hazards": [
        "BR"
      ],
      "severityScore": 50,
      "metarRaw": "METAR LFOB 160430Z AUTO VRB02KT CAVOK 04/04 Q1008 TEMPO 4000 BR BKN004 OVC007",
      "tafRaw": null
    },
    {
      "icao": "LHDC",
      "iata": "DEB",
      "name": "Debrecen International Airport",
      "updatedAt": "160415Z",
      "visibility_m": 2800,
      "taf_visibility_m": null,
      "worst_visibility_m": 2800,
      "ceiling_ft": 900,
      "hazards": [
        "BR",
        "DZ"
      ],
      "severityScore": 50,
      "metarRaw": "METAR LHDC 160415Z AUTO 05005KT 2800 -DZ BR OVC009 01/00 Q1023 NOSIG",
      "tafRaw": null
    },
    {
      "icao": "UGKO",
      "iata": "KUT",
      "name": "David the Builder Kutaisi International Airport",
      "updatedAt": "160430Z",
      "visibility_m": 4000,
      "taf_visibility_m": 2000,
      "worst_visibility_m": 2000,
      "ceiling_ft": 4900,
      "hazards": [
        "SHSN",
        "SN",
        "BR",
        "RA"
      ],
      "severityScore": 50,
      "metarRaw": "METAR UGKO 160430Z 11007KT 4000 -SHSN SCT003 BKN010CB OVC049 00/M02 Q1022 NOSIG",
      "tafRaw": "TAF UGKO 152300Z 1600/1624 08007KT 9999 BKN050 TX02/1612Z TNM01/1601Z \n  TEMPO 1600/1603 CAVOK \n  TEMPO 1603/1609 2000 SHSN SCT007 BKN015CB OVC030 \n  TEMPO 1609/1620 3000 SHSNRA SCT010 BKN020 OVC040 \n  TEMPO 1620/1624 5000 SNRA BR BKN012 OVC020"
    },
    {
      "icao": "LEBL",
      "iata": "BCN",
      "name": "Josep Tarradellas Barcelona-El Prat Airport",
      "updatedAt": "160430Z",
      "visibility_m": 8000,
      "taf_visibility_m": 3000,
      "worst_visibility_m": 3000,
      "ceiling_ft": 1000,
      "hazards": [
        "BR",
        "SHRA",
        "RA"
      ],
      "severityScore": 48,
      "metarRaw": "METAR LEBL 160430Z 33005KT 8000 FEW012 SCT058 06/04 Q1014 NOSIG",
      "tafRaw": "TAF LEBL 152300Z 1600/1624 34007KT 9999 SCT015 TX14/1612Z TN06/1606Z \n  PROB30 \n  TEMPO 1600/1607 3000 BR BKN010 \n  BECMG 1611/1613 14006KT \n  BECMG 1618/1620 34007KT \n  PROB40 \n  TEMPO 1620/1624 4000 SHRA FEW020TCU"
    },
    {
      "icao": "EPRA",
      "iata": "RDO",
      "name": "Warsaw Radom Airport",
      "updatedAt": "160430Z",
      "visibility_m": 8000,
      "taf_visibility_m": 3000,
      "worst_visibility_m": 3000,
      "ceiling_ft": 600,
      "hazards": [
        "RA",
        "BR"
      ],
      "severityScore": 47,
      "metarRaw": "METAR EPRA 160430Z 12007KT 8000 OVC006 M02/M03 Q1024",
      "tafRaw": "TAF EPRA 160230Z 1603/1612 12007KT 7000 OVC006 \n  TEMPO 1603/1606 3000 BR OVC003 \n  BECMG 1606/1609 7000 BKN012"
    },
    {
      "icao": "ESSA",
      "iata": "ARN",
      "name": "Stockholm-Arlanda Airport",
      "updatedAt": "160450Z",
      "visibility_m": 10000,
      "taf_visibility_m": 3000,
      "worst_visibility_m": 3000,
      "ceiling_ft": 900,
      "hazards": [
        "BR",
        "RA"
      ],
      "severityScore": 47,
      "metarRaw": "METAR ESSA 160450Z 16014KT 9999 OVC010 02/01 Q1017 TEMPO BKN009",
      "tafRaw": "TAF ESSA 160230Z 1603/1703 17014KT 9999 BKN010 \n  PROB40 1603/1607 4000 RA OVC008 \n  BECMG 1607/1609 OVC006 \n  PROB40 1609/1616 3000 -RA BR BKN004 \n  TEMPO 1616/1623 18015G25KT"
    },
    {
      "icao": "EDJA",
      "iata": "FMM",
      "name": "Memmingen Allgau Airport",
      "updatedAt": "160450Z",
      "visibility_m": 10000,
      "taf_visibility_m": 800,
      "worst_visibility_m": 800,
      "ceiling_ft": null,
      "hazards": [
        "FG"
      ],
      "severityScore": 45,
      "metarRaw": "METAR EDJA 160450Z VRB02KT CAVOK M02/M03 Q1015",
      "tafRaw": "TAF EDJA 160200Z 1603/1612 VRB03KT CAVOK \n  TEMPO 1603/1609 0800 BCFG"
    },
    {
      "icao": "EPMO",
      "iata": "WMI",
      "name": "Modlin Airport",
      "updatedAt": "160430Z",
      "visibility_m": 3100,
      "taf_visibility_m": 1500,
      "worst_visibility_m": 1500,
      "ceiling_ft": 600,
      "hazards": [
        "BR"
      ],
      "severityScore": 45,
      "metarRaw": "METAR EPMO 160430Z 09007KT 3100 BR BKN006 M06/M06 Q1025",
      "tafRaw": "TAF EPMO 152330Z 1600/1624 10007KT 3000 BR OVC005 \n  TEMPO 1600/1606 1500 BR BKN004 \n  PROB40 1600/1606 6000 \n  BECMG 1606/1608 9999 \n  BECMG 1611/1614 BKN012 \n  BECMG 1614/1616 BKN015"
    },
    {
      "icao": "LIPX",
      "iata": "VRN",
      "name": "Verona Villafranca Valerio Catullo Airport",
      "updatedAt": "160450Z",
      "visibility_m": 7000,
      "taf_visibility_m": 1200,
      "worst_visibility_m": 1200,
      "ceiling_ft": 6500,
      "hazards": [
        "BR",
        "FG"
      ],
      "severityScore": 40,
      "metarRaw": "METAR LIPX 160450Z 18002KT 7000 BKN065 04/03 Q1021",
      "tafRaw": "TAF LIPX 152300Z 1600/1624 VRB04KT 4000 BR SCT020 BKN060 \n  TEMPO 1600/1608 1500 BCFG BKN010 BKN060 \n  TEMPO 1620/1624 1200 BCFG BKN010 BKN060"
    },
    {
      "icao": "LRCV",
      "iata": "CRA",
      "name": "Craiova International Airport",
      "updatedAt": "160430Z",
      "visibility_m": 4300,
      "taf_visibility_m": 3000,
      "worst_visibility_m": 3000,
      "ceiling_ft": 1000,
      "hazards": [
        "BR",
        "SN"
      ],
      "severityScore": 40,
      "metarRaw": "METAR LRCV 160430Z 10006KT 4300 BR NSC M01/M01 Q1025",
      "tafRaw": "TAF LRCV 160200Z 1603/1612 09010KT 5000 BR NSC \n  TEMPO 1603/1606 3000 BR \n  BECMG 1606/1608 9999 NSW BKN015 BKN040 \n  TEMPO 1609/1612 3000 -SN BR BKN010 OVC030"
    },
    {
      "icao": "LRTM",
      "iata": "TGM",
      "name": "Târgu Mureş Transilvania International Airport",
      "updatedAt": "160430Z",
      "visibility_m": 5000,
      "taf_visibility_m": 3000,
      "worst_visibility_m": 3000,
      "ceiling_ft": 1000,
      "hazards": [
        "BR",
        "SN"
      ],
      "severityScore": 40,
      "metarRaw": "METAR LRTM 160430Z AUTO 04006KT 5000 BR BKN006/// BKN100/// 00/M01 Q1024",
      "tafRaw": "TAF LRTM 160200Z 1603/1612 VRB04KT 5000 -SN BR BKN030 \n  TEMPO 1608/1612 3000 SN BR BKN010 OVC025"
    },
    {
      "icao": "LTAC",
      "iata": "ESB",
      "name": "Esenboğa International Airport",
      "updatedAt": "160450Z",
      "visibility_m": 10000,
      "taf_visibility_m": 2000,
      "worst_visibility_m": 2000,
      "ceiling_ft": 2500,
      "hazards": [
        "SN",
        "RA",
        "BR"
      ],
      "severityScore": 40,
      "metarRaw": "METAR LTAC 160450Z 22005KT 9999 SCT010 BKN025 BKN080 02/00 Q1021 RERASN NOSIG RMK RWY21C 20007KT RWY03L 21006KT RWY21R 21006KT RWY03R 21007KT RWY21L 21009KT",
      "tafRaw": "TAF LTAC 152240Z 1600/1624 21008KT 9999 SCT035 BKN100 \n  PROB40 \n  TEMPO 1603/1607 2000 -SN BR SCT008 BKN030 BKN080 \n  TEMPO 1616/1620 -RA SCT010 BKN030 BKN080 \n  TEMPO 1620/1624 -RASN SCT010 BKN030 BKN080"
    },
    {
      "icao": "ENZV",
      "iata": "SVG",
      "name": "Stavanger Airport, Sola",
      "updatedAt": "160450Z",
      "visibility_m": 10000,
      "taf_visibility_m": 4000,
      "worst_visibility_m": 4000,
      "ceiling_ft": 4800,
      "hazards": [
        "SHRA",
        "RA",
        "BR"
      ],
      "severityScore": 36,
      "metarRaw": "METAR ENZV 160450Z 12008KT 9999 -SHRA SCT041 BKN048 05/02 Q1001",
      "tafRaw": "TAF ENZV 152300Z 1600/1624 12012KT 9999 -RA FEW020 BKN030 \n  TEMPO 1602/1614 RA \n  BECMG 1611/1613 21015KT SCT004 BKN010 \n  TEMPO 1611/1616 4000 BR BKN004 \n  BECMG 1614/1616 27015KT \n  BECMG 1616/1618 VRB05KT SCT012 BKN018"
    },
    {
      "icao": "EPLB",
      "iata": "LUZ",
      "name": "Lublin Airport",
      "updatedAt": "160430Z",
      "visibility_m": 6000,
      "taf_visibility_m": null,
      "worst_visibility_m": 6000,
      "ceiling_ft": 1600,
      "hazards": [
        "SN"
      ],
      "severityScore": 35,
      "metarRaw": "METAR EPLB 160430Z 10008KT 6000 -SN OVC016 M07/M08 Q1027",
      "tafRaw": null
    },
    {
      "icao": "EPWA",
      "iata": "WAW",
      "name": "Warsaw Chopin Airport",
      "updatedAt": "160430Z",
      "visibility_m": 6000,
      "taf_visibility_m": 2000,
      "worst_visibility_m": 2000,
      "ceiling_ft": 800,
      "hazards": [
        "BR"
      ],
      "severityScore": 35,
      "metarRaw": "METAR EPWA 160430Z 12008KT 6000 OVC008 M04/M05 Q1025 TEMPO SCT008",
      "tafRaw": "TAF EPWA 160230Z 1603/1703 11010KT 5000 BR BKN025 \n  TEMPO 1603/1607 4000 BR BKN003 OVC005 \n  PROB40 1604/1607 2000 BR \n  TEMPO 1607/1703 BKN010 \n  PROB40 1607/1613 BKN005"
    },
    {
      "icao": "ESKN",
      "iata": "NYO",
      "name": "Stockholm Skavsta Airport",
      "updatedAt": "160450Z",
      "visibility_m": 8000,
      "taf_visibility_m": 2500,
      "worst_visibility_m": 2500,
      "ceiling_ft": 500,
      "hazards": [
        "BR"
      ],
      "severityScore": 35,
      "metarRaw": "METAR ESKN 160450Z 15012KT 130V190 8000 OVC005 03/02 Q1017",
      "tafRaw": "TAF ESKN 160230Z 1603/1703 17015KT 9999 OVC006 \n  TEMPO 1604/1619 17015G25KT 2500 BR BKN004 \n  PROB40 1619/1622 BKN004 \n  PROB40 1622/1703 BKN015"
    },
    {
      "icao": "EYKA",
      "iata": "KUN",
      "name": "Kaunas International Airport",
      "updatedAt": "160450Z",
      "visibility_m": 7000,
      "taf_visibility_m": 5000,
      "worst_visibility_m": 5000,
      "ceiling_ft": 500,
      "hazards": [
        "BR"
      ],
      "severityScore": 35,
      "metarRaw": "METAR EYKA 160450Z 14005KT 100V170 7000 NSC M15/M18 Q1030",
      "tafRaw": "TAF EYKA 152304Z 1600/1624 16013KT 9000 OVC010 \n  TEMPO 1600/1606 5000 BR BKN005 \n  BECMG 1609/1611 NSC"
    },
    {
      "icao": "EYPA",
      "iata": "PLQ",
      "name": "Palanga International Airport",
      "updatedAt": "160450Z",
      "visibility_m": 7000,
      "taf_visibility_m": 5000,
      "worst_visibility_m": 5000,
      "ceiling_ft": 500,
      "hazards": [
        "BR"
      ],
      "severityScore": 35,
      "metarRaw": "METAR EYPA 160450Z 13009KT 7000 NSC M07/M09 Q1025",
      "tafRaw": "TAF EYPA 152303Z 1600/1624 14015KT 9000 SCT010 OVC020 \n  TEMPO 1600/1606 5000 BR BKN005 \n  TEMPO 1609/1618 14020G30KT"
    },
    {
      "icao": "LGTS",
      "iata": "SKG",
      "name": "Thessaloniki Macedonia International Airport",
      "updatedAt": "160450Z",
      "visibility_m": 8000,
      "taf_visibility_m": 4000,
      "worst_visibility_m": 4000,
      "ceiling_ft": 2500,
      "hazards": [
        "TS",
        "BR"
      ],
      "severityScore": 35,
      "metarRaw": "METAR LGTS 160450Z 11004KT 8000 FEW012 01/01 Q1023 NOSIG",
      "tafRaw": "TAF LGTS 152300Z 1600/1624 VRB03KT 9999 FEW030 \n  PROB30 1603/1607 4000 BR SCT008 \n  BECMG 1620/1622 09013KT FEW010 BKN025"
    },
    {
      "icao": "ENHD",
      "iata": "HAU",
      "name": "Haugesund Airport, Karmøy",
      "updatedAt": "160450Z",
      "visibility_m": 10000,
      "taf_visibility_m": 10000,
      "worst_visibility_m": 10000,
      "ceiling_ft": 1400,
      "hazards": [
        "DZ",
        "RA"
      ],
      "severityScore": 34,
      "metarRaw": "METAR ENHD 160450Z AUTO 10007KT 9999 -DZ OVC027/// 05/04 Q1001",
      "tafRaw": "TAF ENHD 160200Z 1603/1612 11012KT 9999 -RA FEW012 BKN020 \n  TEMPO 1604/1612 RA BKN014"
    },
    {
      "icao": "LEMG",
      "iata": "AGP",
      "name": "Málaga-Costa del Sol Airport",
      "updatedAt": "160430Z",
      "visibility_m": 10000,
      "taf_visibility_m": 3000,
      "worst_visibility_m": 3000,
      "ceiling_ft": 1200,
      "hazards": [
        "DZ",
        "RA"
      ],
      "severityScore": 34,
      "metarRaw": "METAR LEMG 160430Z 32002KT 9999 -DZ FEW035 SCT050 10/09 Q1017 NOSIG",
      "tafRaw": "TAF LEMG 152300Z 1600/1624 VRB02KT 9999 FEW080 TX18/1614Z TN11/1607Z \n  TEMPO 1606/1611 4000 RA BKN012 \n  BECMG 1611/1613 31010KT \n  BECMG 1616/1618 VRB02KT \n  TEMPO 1620/1624 3000 RA BKN012"
    },
    {
      "icao": "EBCI",
      "iata": "CRL",
      "name": "Brussels South Charleroi Airport",
      "updatedAt": "160450Z",
      "visibility_m": 10000,
      "taf_visibility_m": 4000,
      "worst_visibility_m": 4000,
      "ceiling_ft": 4700,
      "hazards": [
        "BR",
        "RA",
        "DZ"
      ],
      "severityScore": 32,
      "metarRaw": "METAR EBCI 160450Z 21012KT 9999 SCT018 BKN047 10/06 Q1008 NOSIG",
      "tafRaw": "TAF EBCI 152315Z 1600/1706 17014KT 9999 SCT015 SCT035 \n  TEMPO 1600/1607 SCT009 BKN012 \n  PROB40 \n  TEMPO 1600/1603 19017G30KT 4000 -RA -RADZ BKN008 BKN012 \n  BECMG 1603/1605 23011KT \n  BECMG 1614/1616 17006KT \n  PROB40 \n  TEMPO 1702/1706 4500 -DZ BR SCT008 BKN012"
    },
    {
      "icao": "LRTR",
      "iata": "TSR",
      "name": "Timişoara Traian Vuia Airport",
      "updatedAt": "160430Z",
      "visibility_m": 4000,
      "taf_visibility_m": 1500,
      "worst_visibility_m": 1500,
      "ceiling_ft": 4400,
      "hazards": [
        "BR",
        "RA"
      ],
      "severityScore": 32,
      "metarRaw": "METAR LRTR 160430Z 10007KT 4000 -RA BR BKN044 02/02 Q1022",
      "tafRaw": "TAF LRTR 152300Z 1600/1624 10006KT 3000 -RA BR BKN045 \n  BECMG 1602/1604 BKN010 BKN030 \n  PROB40 \n  TEMPO 1610/1615 1500 RA \n  BECMG 1616/1618 5000 BR"
    },
    {
      "icao": "EGNM",
      "iata": "LBA",
      "name": "Leeds Bradford Airport",
      "updatedAt": "160450Z",
      "visibility_m": 10000,
      "taf_visibility_m": null,
      "worst_visibility_m": 10000,
      "ceiling_ft": 900,
      "hazards": [],
      "severityScore": 30,
      "metarRaw": "METAR EGNM 160450Z 23005KT 9999 BKN009 03/02 Q1000",
      "tafRaw": null
    },
    {
      "icao": "LRBS",
      "iata": "BBU",
      "name": "Bucharest Băneasa Aurel Vlaicu International Airport",
      "updatedAt": "160430Z",
      "visibility_m": 2000,
      "taf_visibility_m": 3000,
      "worst_visibility_m": 2000,
      "ceiling_ft": 3400,
      "hazards": [
        "BR",
        "SN"
      ],
      "severityScore": 28,
      "metarRaw": "METAR LRBS 160430Z 06013KT 2000 -SN BR SCT007 OVC034 M02/M03 Q1027 NOSIG",
      "tafRaw": "TAF LRBS 152300Z 1600/1624 06007KT 5000 BR BKN040 \n  TEMPO 1600/1605 3000 BR \n  TEMPO 1605/1610 06017KT 3000 -SN BKN010 OVC035 \n  BECMG 1610/1612 9999 NSW SCT025"
    },
    {
      "icao": "EHBK",
      "iata": "MST",
      "name": "Maastricht Aachen Airport",
      "updatedAt": "160455Z",
      "visibility_m": 10000,
      "taf_visibility_m": 7000,
      "worst_visibility_m": 7000,
      "ceiling_ft": 4600,
      "hazards": [
        "RA",
        "SHRA"
      ],
      "severityScore": 26,
      "metarRaw": "METAR EHBK 160455Z AUTO 21015KT 9999 OVC046 10/07 Q1008 NOSIG",
      "tafRaw": "TAF EHBK 152238Z 1600/1706 19013KT CAVOK \n  PROB30 \n  TEMPO 1602/1611 7000 -RA -SHRA BKN014 FEW018TCU \n  BECMG 1614/1617 14005KT \n  PROB30 \n  TEMPO 1700/1704 7000 -RA"
    },
    {
      "icao": "ENVA",
      "iata": "TRD",
      "name": "Trondheim Airport, Værnes",
      "updatedAt": "160450Z",
      "visibility_m": 10000,
      "taf_visibility_m": 10000,
      "worst_visibility_m": 10000,
      "ceiling_ft": 2500,
      "hazards": [
        "SHRA",
        "RA"
      ],
      "severityScore": 26,
      "metarRaw": "METAR ENVA 160450Z 13004KT CAVOK 05/M03 Q1006 RMK WIND 670FT 16015KT",
      "tafRaw": "TAF ENVA 152300Z 1600/1624 10007KT 9999 FEW050 \n  TEMPO 1618/1624 21012KT SHRA SCT018CB BKN025"
    },
    {
      "icao": "LCPH",
      "iata": "PFO",
      "name": "Paphos International Airport",
      "updatedAt": "160430Z",
      "visibility_m": 10000,
      "taf_visibility_m": 5000,
      "worst_visibility_m": 5000,
      "ceiling_ft": null,
      "hazards": [
        "SHRA",
        "RA"
      ],
      "severityScore": 26,
      "metarRaw": "METAR LCPH 160430Z 07005KT 010V080 CAVOK 08/05 Q1023 NOSIG",
      "tafRaw": "TAF LCPH 152330Z 1600/1700 02009KT 9999 FEW020 SCT035 \n  BECMG 1607/1610 24010KT \n  BECMG 1616/1619 04007KT \n  PROB30 \n  TEMPO 1616/1621 5000 SHRA SCT020TCU"
    },
    {
      "icao": "GCTS",
      "iata": "TFS",
      "name": "Tenerife Sur Airport",
      "updatedAt": "160430Z",
      "visibility_m": 10000,
      "taf_visibility_m": 10000,
      "worst_visibility_m": 10000,
      "ceiling_ft": 3500,
      "hazards": [
        "TS"
      ],
      "severityScore": 25,
      "metarRaw": "METAR GCTS 160430Z 36007KT 9999 FEW040 16/09 Q1024 NOSIG",
      "tafRaw": "TAF GCTS 160200Z 1603/1703 01005KT 9999 BKN035 TX22/1614Z TN13/1606Z \n  BECMG 1609/1611 28010KT \n  BECMG 1613/1615 18004KT \n  PROB40 \n  TEMPO 1619/1703 04010KT"
    },
    {
      "icao": "GMMX",
      "iata": "RAK",
      "name": "Menara Airport",
      "updatedAt": "160430Z",
      "visibility_m": 3000,
      "taf_visibility_m": 4000,
      "worst_visibility_m": 3000,
      "ceiling_ft": 2600,
      "hazards": [
        "BR",
        "RA"
      ],
      "severityScore": 22,
      "metarRaw": "METAR GMMX 160430Z 25004KT 210V280 3000 BR SCT003 SCT030 09/09 Q1022 NOSIG",
      "tafRaw": "TAF GMMX 152300Z 1600/1706 06006KT 8000 SCT026 \n  TEMPO 1616/1624 34016KT 4000 RA FEW010 BKN026 SCT090"
    },
    {
      "icao": "LEZG",
      "iata": "ZAZ",
      "name": "Zaragoza Airport",
      "updatedAt": "160430Z",
      "visibility_m": 6000,
      "taf_visibility_m": 2000,
      "worst_visibility_m": 2000,
      "ceiling_ft": null,
      "hazards": [
        "BR",
        "RA"
      ],
      "severityScore": 22,
      "metarRaw": "METAR LEZG 160430Z 08004KT 6000 2000NW FEW002 SCT070 07/07 Q1014 NOSIG",
      "tafRaw": "TAF LEZG 152300Z 1600/1624 09005KT 9999 FEW020 TX13/1614Z TN05/1606Z \n  TEMPO 1600/1612 2000 BR \n  PROB40 \n  TEMPO 1600/1603 RA \n  TEMPO 1618/1624 2000 BR"
    },
    {
      "icao": "LIMF",
      "iata": "TRN",
      "name": "Turin Airport",
      "updatedAt": "160450Z",
      "visibility_m": 5000,
      "taf_visibility_m": 4000,
      "worst_visibility_m": 4000,
      "ceiling_ft": 2000,
      "hazards": [
        "BR",
        "RA"
      ],
      "severityScore": 22,
      "metarRaw": "METAR LIMF 160450Z 28003KT 5000 BR BKN020 OVC060 04/02 Q1021",
      "tafRaw": "TAF LIMF 152300Z 1600/1624 VRB03KT 6000 SCT020 BKN060 \n  TEMPO 1614/1624 4000 RA"
    },
    {
      "icao": "LIPH",
      "iata": "TSF",
      "name": "Treviso Antonio Canova Airport",
      "updatedAt": "160450Z",
      "visibility_m": 5000,
      "taf_visibility_m": 2000,
      "worst_visibility_m": 2000,
      "ceiling_ft": 1000,
      "hazards": [
        "BR"
      ],
      "severityScore": 22,
      "metarRaw": "METAR LIPH 160450Z AUTO VRB01KT 5000 BR BKN030/// 02/02 Q1021",
      "tafRaw": "TAF LIPH 152300Z 1600/1624 VRB04KT 6000 SCT040 \n  TEMPO 1600/1607 2000 BR BKN010"
    },
    {
      "icao": "LJLJ",
      "iata": "LJU",
      "name": "Ljubljana Jože Pučnik Airport",
      "updatedAt": "160430Z",
      "visibility_m": 10000,
      "taf_visibility_m": 2000,
      "worst_visibility_m": 2000,
      "ceiling_ft": 5300,
      "hazards": [
        "BR",
        "RA"
      ],
      "severityScore": 22,
      "metarRaw": "METAR LJLJ 160430Z 31003KT 9999 FEW004 SCT035 BKN053 01/01 Q1020 NOSIG",
      "tafRaw": "TAF LJLJ 152300Z 1600/1700 30004KT 9999 FEW003 SCT030 BKN045 \n  PROB40 \n  TEMPO 1601/1608 4000 BR \n  TEMPO 1620/1700 4000 BR \n  PROB30 \n  TEMPO 1621/1700 2000 -RA BR BKN013 OVC025"
    },
    {
      "icao": "LRSV",
      "iata": "SCV",
      "name": "Suceava Stefan cel Mare Airport",
      "updatedAt": "160430Z",
      "visibility_m": 4000,
      "taf_visibility_m": 3000,
      "worst_visibility_m": 3000,
      "ceiling_ft": 1700,
      "hazards": [
        "BR"
      ],
      "severityScore": 22,
      "metarRaw": "METAR LRSV 160430Z 07007KT 4000 BR OVC017 M11/M12 Q1028",
      "tafRaw": "TAF LRSV 160200Z 1603/1612 08007KT 3000 BR BKN002 \n  BECMG 1609/1611 9999 NSW SCT005"
    },
    {
      "icao": "LYBE",
      "iata": "BEG",
      "name": "Belgrade Nikola Tesla Airport",
      "updatedAt": "160430Z",
      "visibility_m": 5000,
      "taf_visibility_m": 2500,
      "worst_visibility_m": 2500,
      "ceiling_ft": null,
      "hazards": [
        "BR",
        "RA"
      ],
      "severityScore": 22,
      "metarRaw": "METAR LYBE 160430Z 02003KT 350V080 5000 BR NSC 02/01 Q1022 NOSIG",
      "tafRaw": "TAF LYBE 152300Z 1600/1624 08005KT 6000 NSC TX08/1613Z TN02/1606Z \n  TEMPO 1600/1608 2500 -RA BR \n  BECMG 1613/1615 14010KT \n  TEMPO 1620/1624 13015G25KT"
    },
    {
      "icao": "LYPG",
      "iata": "TGD",
      "name": "Podgorica Airport / Podgorica Golubovci Airbase",
      "updatedAt": "160430Z",
      "visibility_m": 7000,
      "taf_visibility_m": 5000,
      "worst_visibility_m": 5000,
      "ceiling_ft": 8000,
      "hazards": [
        "BR",
        "RA"
      ],
      "severityScore": 22,
      "metarRaw": "METAR LYPG 160430Z 29003KT 7000 FEW030 BKN080 07/07 Q1023 NOSIG",
      "tafRaw": "TAF LYPG 152300Z 1600/1624 VRB02KT 9999 SCT040 BKN070 TX14/1613Z TN04/1624Z \n  TEMPO 1600/1607 5000 -RA BR"
    },
    {
      "icao": "EDDS",
      "iata": "STR",
      "name": "Stuttgart Airport",
      "updatedAt": "160450Z",
      "visibility_m": 10000,
      "taf_visibility_m": 2000,
      "worst_visibility_m": 2000,
      "ceiling_ft": null,
      "hazards": [
        "FG"
      ],
      "severityScore": 20,
      "metarRaw": "METAR EDDS 160450Z AUTO VRB02KT CAVOK M00/M01 Q1014",
      "tafRaw": "TAF EDDS 152300Z 1600/1624 VRB03KT CAVOK \n  PROB30 \n  TEMPO 1600/1609 4000 BCFG \n  PROB40 \n  TEMPO 1621/1624 2000 BCFG"
    },
    {
      "icao": "EDFH",
      "iata": "HHN",
      "name": "Frankfurt-Hahn Airport",
      "updatedAt": "160450Z",
      "visibility_m": 10000,
      "taf_visibility_m": 3000,
      "worst_visibility_m": 3000,
      "ceiling_ft": 4300,
      "hazards": [
        "FG"
      ],
      "severityScore": 20,
      "metarRaw": "METAR EDFH 160450Z 21012KT 170V230 9999 FEW021 BKN043 08/05 Q1011",
      "tafRaw": "TAF EDFH 152300Z 1600/1624 17010KT CAVOK \n  PROB30 \n  TEMPO 1600/1604 17015G25KT \n  TEMPO 1604/1611 BKN010 \n  PROB30 \n  TEMPO 1605/1608 BKN006 \n  TEMPO 1618/1624 3000 BCFG"
    },
    {
      "icao": "LIRZ",
      "iata": "PEG",
      "name": "Perugia San Francesco d'Assisi – Umbria International Airport",
      "updatedAt": "160450Z",
      "visibility_m": 10000,
      "taf_visibility_m": 3000,
      "worst_visibility_m": 3000,
      "ceiling_ft": null,
      "hazards": [
        "FG"
      ],
      "severityScore": 20,
      "metarRaw": "METAR LIRZ 160450Z AUTO 01004KT 9999 NCD 03/03 Q1021",
      "tafRaw": "TAF LIRZ 152300Z 1600/1624 VRB04KT 9999 FEW050 \n  TEMPO 1604/1609 3000 BCFG"
    },
    {
      "icao": "LYNI",
      "iata": "INI",
      "name": "Niš Constantine the Great Airport",
      "updatedAt": "160430Z",
      "visibility_m": 8000,
      "taf_visibility_m": 1500,
      "worst_visibility_m": 1500,
      "ceiling_ft": 8000,
      "hazards": [
        "BR"
      ],
      "severityScore": 20,
      "metarRaw": "METAR LYNI 160430Z 13003KT 100V220 8000 BKN080 03/03 Q1022 NOSIG",
      "tafRaw": "TAF LYNI 152300Z 1600/1624 11004KT 6000 BKN060 TX07/1612Z TN01/1606Z \n  TEMPO 1603/1608 1500 BR \n  BECMG 1611/1613 05011KT \n  TEMPO 1616/1624 BKN013 BKN030"
    },
    {
      "icao": "EKBI",
      "iata": "BLL",
      "name": "Billund Airport",
      "updatedAt": "160450Z",
      "visibility_m": 4800,
      "taf_visibility_m": null,
      "worst_visibility_m": 4800,
      "ceiling_ft": null,
      "hazards": [
        "BR"
      ],
      "severityScore": 15,
      "metarRaw": "METAR EKBI 160450Z AUTO 13009KT 4800 BR SCT003/// BKN057/// 04/04 Q1006",
      "tafRaw": null
    },
    {
      "icao": "EPKT",
      "iata": "KTW",
      "name": "Katowice Wojciech Korfanty International Airport",
      "updatedAt": "160430Z",
      "visibility_m": 4700,
      "taf_visibility_m": null,
      "worst_visibility_m": 4700,
      "ceiling_ft": 4200,
      "hazards": [
        "BR"
      ],
      "severityScore": 15,
      "metarRaw": "METAR EPKT 160430Z 12004KT 4700 BR OVC042 01/01 Q1021",
      "tafRaw": null
    },
    {
      "icao": "GMMN",
      "iata": "CMN",
      "name": "Mohammed V International Airport",
      "updatedAt": "160430Z",
      "visibility_m": 10000,
      "taf_visibility_m": 4000,
      "worst_visibility_m": 4000,
      "ceiling_ft": 4000,
      "hazards": [
        "RA"
      ],
      "severityScore": 12,
      "metarRaw": "METAR GMMN 160430Z 20009KT 9999 SCT020 BKN040 09/07 Q1021 NOSIG",
      "tafRaw": "TAF GMMN 152300Z 1600/1706 21007KT 9999 SCT020 SCT200 \n  BECMG 1605/1607 24013KT \n  TEMPO 1612/1706 4000 RA SCT013 BKN026TCU"
    },
    {
      "icao": "LEAL",
      "iata": "ALC",
      "name": "Alicante-Elche Miguel Hernández Airport",
      "updatedAt": "160430Z",
      "visibility_m": 10000,
      "taf_visibility_m": 4000,
      "worst_visibility_m": 4000,
      "ceiling_ft": 5500,
      "hazards": [
        "RA"
      ],
      "severityScore": 12,
      "metarRaw": "METAR LEAL 160430Z 23005KT 9999 BKN055 11/08 Q1015 NOSIG",
      "tafRaw": "TAF LEAL 152300Z 1600/1624 VRB04KT CAVOK TX17/1613Z TN07/1606Z \n  TEMPO 1620/1624 4000 RA"
    },
    {
      "icao": "LEBB",
      "iata": "BIO",
      "name": "Bilbao Airport",
      "updatedAt": "160430Z",
      "visibility_m": 10000,
      "taf_visibility_m": 3000,
      "worst_visibility_m": 3000,
      "ceiling_ft": null,
      "hazards": [
        "RA"
      ],
      "severityScore": 12,
      "metarRaw": "METAR LEBB 160430Z 11003KT 050V180 9999 FEW070 09/05 Q1011 NOSIG",
      "tafRaw": "TAF LEBB 152300Z 1600/1624 12006KT 9999 FEW045 TX15/1613Z TN06/1622Z \n  TEMPO 1610/1618 20010KT \n  PROB30 \n  TEMPO 1620/1624 3000 RA"
    },
    {
      "icao": "LEXJ",
      "iata": "SDR",
      "name": "Seve Ballesteros-Santander Airport",
      "updatedAt": "160430Z",
      "visibility_m": 10000,
      "taf_visibility_m": 3000,
      "worst_visibility_m": 3000,
      "ceiling_ft": 4000,
      "hazards": [
        "RA"
      ],
      "severityScore": 12,
      "metarRaw": "METAR LEXJ 160430Z VRB02KT 9999 BKN040 07/06 Q1011",
      "tafRaw": "TAF LEXJ 160200Z 1603/1703 VRB03KT 9999 FEW045 TX15/1614Z TN06/1607Z \n  PROB40 1608/1615 20012KT \n  PROB40 1615/1618 29010KT \n  PROB40 \n  TEMPO 1618/1624 3000 RA \n  PROB30 1621/1703 20010KT"
    },
    {
      "icao": "LFLS",
      "iata": "GNB",
      "name": "Grenoble Alpes Isère Airport",
      "updatedAt": "160430Z",
      "visibility_m": 10000,
      "taf_visibility_m": 4500,
      "worst_visibility_m": 4500,
      "ceiling_ft": 7400,
      "hazards": [
        "RA"
      ],
      "severityScore": 12,
      "metarRaw": "METAR LFLS 160430Z AUTO 31003KT 9999 FEW058 BKN074 06/03 Q1014 NOSIG",
      "tafRaw": "TAF LFLS 160200Z 1603/1703 VRB02KT 9999 FEW060 \n  FM161700 09005KT 9999 BKN060 OVC090 \n  TEMPO 1618/1622 17012KT \n  PROB30 \n  TEMPO 1618/1623 4500 -RA"
    },
    {
      "icao": "LFMN",
      "iata": "NCE",
      "name": "Nice-Côte d'Azur Airport",
      "updatedAt": "160430Z",
      "visibility_m": 10000,
      "taf_visibility_m": 10000,
      "worst_visibility_m": 10000,
      "ceiling_ft": 2000,
      "hazards": [
        "RA"
      ],
      "severityScore": 12,
      "metarRaw": "METAR LFMN 160430Z 33013KT 9999 FEW033 08/04 Q1019 NOSIG",
      "tafRaw": "TAF LFMN 160200Z 1603/1709 33010KT CAVOK \n  BECMG 1612/1614 09012KT BKN020 \n  TEMPO 1620/1707 -RA BKN020TCU \n  BECMG 1623/1702 33010KT"
    },
    {
      "icao": "LICJ",
      "iata": "PMO",
      "name": "Falcone–Borsellino Airport",
      "updatedAt": "160450Z",
      "visibility_m": 10000,
      "taf_visibility_m": 10000,
      "worst_visibility_m": 10000,
      "ceiling_ft": null,
      "hazards": [
        "RA"
      ],
      "severityScore": 12,
      "metarRaw": "METAR LICJ 160450Z 05007KT CAVOK 11/09 Q1018",
      "tafRaw": "TAF LICJ 152300Z 1600/1624 VRB05KT CAVOK \n  TEMPO 1621/1624 RA"
    },
    {
      "icao": "LIMJ",
      "iata": "GOA",
      "name": "Genoa Cristoforo Colombo Airport",
      "updatedAt": "160450Z",
      "visibility_m": 10000,
      "taf_visibility_m": 10000,
      "worst_visibility_m": 10000,
      "ceiling_ft": 3000,
      "hazards": [
        "RA"
      ],
      "severityScore": 12,
      "metarRaw": "METAR LIMJ 160450Z 05013KT 9999 SCT025 09/06 Q1020",
      "tafRaw": "TAF LIMJ 152300Z 1600/1624 04012KT 9999 SCT020 BKN030 \n  TEMPO 1600/1618 RA"
    },
    {
      "icao": "LMML",
      "iata": "MLA",
      "name": "Malta International Airport",
      "updatedAt": "160445Z",
      "visibility_m": 10000,
      "taf_visibility_m": 7000,
      "worst_visibility_m": 7000,
      "ceiling_ft": null,
      "hazards": [
        "RA"
      ],
      "severityScore": 12,
      "metarRaw": "METAR LMML 160445Z 12008KT 9999 FEW030 15/14 Q1018 NOSIG",
      "tafRaw": "TAF LMML 152300Z 1600/1624 13012KT 9999 FEW018 \n  PROB30 \n  TEMPO 1615/1624 7000 RA"
    },
    {
      "icao": "LRSM",
      "iata": "SUJ",
      "name": "Satu Mare International Airport",
      "updatedAt": "160430Z",
      "visibility_m": 10000,
      "taf_visibility_m": 10000,
      "worst_visibility_m": 10000,
      "ceiling_ft": 1500,
      "hazards": [],
      "severityScore": 12,
      "metarRaw": "METAR LRSM 160430Z AUTO 09008KT 9999 OVC045/// 01/M00 Q1023",
      "tafRaw": "TAF LRSM 160200Z 1603/1612 10005KT 9999 BKN030 \n  TEMPO 1603/1607 BKN015 BKN030"
    },
    {
      "icao": "GCLP",
      "iata": "LPA",
      "name": "Gran Canaria Airport",
      "updatedAt": "160430Z",
      "visibility_m": 10000,
      "taf_visibility_m": 10000,
      "worst_visibility_m": 10000,
      "ceiling_ft": 3400,
      "hazards": [
        "DZ"
      ],
      "severityScore": 10,
      "metarRaw": "METAR GCLP 160430Z 36011KT 9999 BKN034 17/10 Q1023 NOSIG",
      "tafRaw": "TAF GCLP 160200Z 1603/1703 36013KT 9999 BKN035 TX22/1614Z TN15/1606Z \n  PROB30 \n  TEMPO 1618/1703 02020G30KT \n  PROB30 \n  TEMPO 1618/1621 DZ BKN014"
    },
    {
      "icao": "EDDB",
      "iata": "BER",
      "name": "Berlin Brandenburg Airport",
      "updatedAt": "160450Z",
      "visibility_m": 2500,
      "taf_visibility_m": 2500,
      "worst_visibility_m": 2500,
      "ceiling_ft": null,
      "hazards": [
        "BR"
      ],
      "severityScore": 10,
      "metarRaw": "METAR EDDB 160450Z AUTO 12006KT 6000 NSC 03/03 Q1015 TEMPO 2500 BR",
      "tafRaw": "TAF EDDB 152300Z 1600/1624 16008KT 9000 NSC \n  PROB30 \n  TEMPO 1600/1606 2500 BR \n  TEMPO 1608/1613 16013KT"
    },
    {
      "icao": "EPSY",
      "iata": "SZY",
      "name": "Olsztyn-Mazury Airport",
      "updatedAt": "160430Z",
      "visibility_m": 3500,
      "taf_visibility_m": 3500,
      "worst_visibility_m": 3500,
      "ceiling_ft": 2100,
      "hazards": [
        "BR"
      ],
      "severityScore": 10,
      "metarRaw": "METAR EPSY 160430Z 11004KT 060V170 3500 BR OVC021 M07/M08 Q1025",
      "tafRaw": "TAF EPSY 160230Z 1603/1612 14006KT 3500 BR BKN030 \n  PROB40 1603/1609 OVC003"
    },
    {
      "icao": "EYVI",
      "iata": "VNO",
      "name": "Vilnius International Airport",
      "updatedAt": "160450Z",
      "visibility_m": 9000,
      "taf_visibility_m": 5000,
      "worst_visibility_m": 5000,
      "ceiling_ft": null,
      "hazards": [
        "BR"
      ],
      "severityScore": 10,
      "metarRaw": "METAR EYVI 160450Z 15006KT 9000 NSC M19/M21 Q1031 NOSIG",
      "tafRaw": "TAF EYVI 152305Z 1600/1624 16012KT 9000 NSC \n  TEMPO 1600/1606 5000 BR SCT005"
    },
    {
      "icao": "LGAV",
      "iata": "ATH",
      "name": "Athens Eleftherios Venizelos International Airport",
      "updatedAt": "160450Z",
      "visibility_m": 10000,
      "taf_visibility_m": 4000,
      "worst_visibility_m": 4000,
      "ceiling_ft": null,
      "hazards": [
        "BR"
      ],
      "severityScore": 10,
      "metarRaw": "METAR LGAV 160450Z VRB03KT 9999 FEW030 06/04 Q1023 NOSIG",
      "tafRaw": "TAF LGAV 152300Z 1600/1624 VRB03KT 9999 SCT025 \n  PROB30 \n  TEMPO 1600/1607 4000 BR SCT008 \n  BECMG 1618/1620 04012KT"
    },
    {
      "icao": "LIBP",
      "iata": "PSR",
      "name": "Abruzzo Airport",
      "updatedAt": "160450Z",
      "visibility_m": 10000,
      "taf_visibility_m": 4000,
      "worst_visibility_m": 4000,
      "ceiling_ft": null,
      "hazards": [
        "BR"
      ],
      "severityScore": 10,
      "metarRaw": "METAR LIBP 160450Z AUTO VRB02KT 9999 NCD 03/02 Q1022",
      "tafRaw": "TAF LIBP 152300Z 1600/1624 VRB05KT CAVOK \n  TEMPO 1600/1607 4000 BR"
    },
    {
      "icao": "LIPZ",
      "iata": "VCE",
      "name": "Venice Marco Polo Airport",
      "updatedAt": "160450Z",
      "visibility_m": 6000,
      "taf_visibility_m": 2000,
      "worst_visibility_m": 2000,
      "ceiling_ft": 2000,
      "hazards": [
        "BR"
      ],
      "severityScore": 10,
      "metarRaw": "METAR LIPZ 160450Z 32004KT 300V030 6000 BKN020 06/04 Q1022 NOSIG",
      "tafRaw": "TAF LIPZ 152300Z 1600/1706 VRB04KT 6000 SCT030 \n  TEMPO 1600/1607 2000 BR BKN010 \n  TEMPO 1621/1706 2000 BR BKN010"
    },
    {
      "icao": "UDSG",
      "iata": "LWN",
      "name": "Shirak International Airport",
      "updatedAt": "160430Z",
      "visibility_m": 10000,
      "taf_visibility_m": 5000,
      "worst_visibility_m": 5000,
      "ceiling_ft": null,
      "hazards": [
        "BR"
      ],
      "severityScore": 10,
      "metarRaw": "METAR UDSG 160430Z 17003KT 9999 NSC M20/M23 Q1020 NOSIG",
      "tafRaw": "TAF UDSG 152258Z 1600/1624 VRB06KT 9999 SCT040 \n  TEMPO 1600/1606 5000 BR"
    },
    {
      "icao": "UDYZ",
      "iata": "EVN",
      "name": "Zvartnots International Airport",
      "updatedAt": "160430Z",
      "visibility_m": 10000,
      "taf_visibility_m": 2000,
      "worst_visibility_m": 2000,
      "ceiling_ft": null,
      "hazards": [
        "BR"
      ],
      "severityScore": 10,
      "metarRaw": "METAR UDYZ 160430Z 13001KT 9999 NSC M08/M10 Q1023 NOSIG",
      "tafRaw": "TAF UDYZ 152300Z 1600/1624 VRB04KT 6000 NSC \n  TEMPO 1600/1606 2000 BR"
    },
    {
      "icao": "EDSB",
      "iata": "FKB",
      "name": "Karlsruhe Baden-Baden Airport",
      "updatedAt": "160450Z",
      "visibility_m": 10000,
      "taf_visibility_m": null,
      "worst_visibility_m": 10000,
      "ceiling_ft": null,
      "hazards": [],
      "severityScore": 5,
      "metarRaw": "METAR EDSB 160450Z 16003KT CAVOK 01/00 Q1014",
      "tafRaw": null
    },
    {
      "icao": "EGGP",
      "iata": "LPL",
      "name": "Liverpool John Lennon Airport",
      "updatedAt": "160450Z",
      "visibility_m": 10000,
      "taf_visibility_m": null,
      "worst_visibility_m": 10000,
      "ceiling_ft": null,
      "hazards": [],
      "severityScore": 5,
      "metarRaw": "METAR EGGP 160450Z AUTO 14008KT 9999 R27/M0050N BKN006/// 03/02 Q1000",
      "tafRaw": null
    },
    {
      "icao": "EGKK",
      "iata": "LGW",
      "name": "London Gatwick Airport",
      "updatedAt": "160450Z",
      "visibility_m": 8000,
      "taf_visibility_m": null,
      "worst_visibility_m": 8000,
      "ceiling_ft": 4800,
      "hazards": [],
      "severityScore": 5,
      "metarRaw": "METAR EGKK 160450Z 06003KT 8000 FEW002 SCT013 BKN048 03/03 Q1004",
      "tafRaw": null
    },
    {
      "icao": "HEGN",
      "iata": "HRG",
      "name": "Hurghada International Airport",
      "updatedAt": "160400Z",
      "visibility_m": 10000,
      "taf_visibility_m": null,
      "worst_visibility_m": 10000,
      "ceiling_ft": null,
      "hazards": [],
      "severityScore": 5,
      "metarRaw": "METAR HEGN 160400Z 28010KT CAVOK 13/07 Q1021 NOSIG",
      "tafRaw": null
    },
    {
      "icao": "HEMA",
      "iata": "RMF",
      "name": "Marsa Alam International Airport",
      "updatedAt": "160400Z",
      "visibility_m": 10000,
      "taf_visibility_m": null,
      "worst_visibility_m": 10000,
      "ceiling_ft": null,
      "hazards": [],
      "severityScore": 5,
      "metarRaw": "METAR HEMA 160400Z 32011KT CAVOK 15/09 Q1019 NOSIG",
      "tafRaw": null
    },
    {
      "icao": "HESH",
      "iata": "SSH",
      "name": "Sharm El Sheikh International Airport",
      "updatedAt": "160400Z",
      "visibility_m": 10000,
      "taf_visibility_m": null,
      "worst_visibility_m": 10000,
      "ceiling_ft": null,
      "hazards": [],
      "severityScore": 5,
      "metarRaw": "METAR HESH 160400Z 33008KT CAVOK 16/05 Q1021 NOSIG",
      "tafRaw": null
    },
    {
      "icao": "HESX",
      "iata": "SPX",
      "name": "Sphinx International Airport",
      "updatedAt": null,
      "visibility_m": null,
      "taf_visibility_m": null,
      "worst_visibility_m": null,
      "ceiling_ft": null,
      "hazards": [],
      "severityScore": 5,
      "metarRaw": null,
      "tafRaw": null
    },
    {
      "icao": "LECH",
      "iata": "CDT",
      "name": "Castellón-Costa Azahar Airport",
      "updatedAt": "160430Z",
      "visibility_m": 10000,
      "taf_visibility_m": null,
      "worst_visibility_m": 10000,
      "ceiling_ft": 6600,
      "hazards": [],
      "severityScore": 5,
      "metarRaw": "METAR LECH 160430Z AUTO 15002KT 9999 BKN066 06/02 Q1014",
      "tafRaw": null
    },
    {
      "icao": "LPFR",
      "iata": "FAO",
      "name": "Faro Airport",
      "updatedAt": "160430Z",
      "visibility_m": 10000,
      "taf_visibility_m": null,
      "worst_visibility_m": 10000,
      "ceiling_ft": null,
      "hazards": [],
      "severityScore": 5,
      "metarRaw": "METAR LPFR 160430Z 29007KT 9999 FEW014 12/11 Q1016",
      "tafRaw": null
    },
    {
      "icao": "LPPS",
      "iata": "PXO",
      "name": "Porto Santo Airport",
      "updatedAt": "160430Z",
      "visibility_m": 10000,
      "taf_visibility_m": null,
      "worst_visibility_m": 10000,
      "ceiling_ft": null,
      "hazards": [],
      "severityScore": 5,
      "metarRaw": "METAR LPPS 160430Z 34013KT 9999 SCT014 16/11 Q1024",
      "tafRaw": null
    },
    {
      "icao": "OEJN",
      "iata": "JED",
      "name": "King Abdulaziz International Airport",
      "updatedAt": "160400Z",
      "visibility_m": 7000,
      "taf_visibility_m": null,
      "worst_visibility_m": 7000,
      "ceiling_ft": null,
      "hazards": [],
      "severityScore": 5,
      "metarRaw": "METAR OEJN 160400Z 06008KT 7000 FEW040 23/00 Q1014 NOSIG",
      "tafRaw": null
    },
    {
      "icao": "OMDB",
      "iata": "DXB",
      "name": "Dubai International Airport",
      "updatedAt": "160430Z",
      "visibility_m": 10000,
      "taf_visibility_m": null,
      "worst_visibility_m": 10000,
      "ceiling_ft": null,
      "hazards": [],
      "severityScore": 5,
      "metarRaw": "METAR OMDB 160430Z 29014KT 9999 FEW035 21/09 Q1019 NOSIG",
      "tafRaw": null
    },
    {
      "icao": "BIKF",
      "iata": "KEF",
      "name": "Keflavik International Airport",
      "updatedAt": "160430Z",
      "visibility_m": 10000,
      "taf_visibility_m": 10000,
      "worst_visibility_m": 10000,
      "ceiling_ft": null,
      "hazards": [],
      "severityScore": 0,
      "metarRaw": "METAR BIKF 160430Z 02014KT CAVOK 01/M02 Q0997",
      "tafRaw": "TAF BIKF 160432Z 1606/1706 02020KT 9999 SCT035 TX02/1609Z TNM02/1706Z \n  BECMG 1616/1618 02010KT \n  BECMG 1623/1701 09008KT"
    },
    {
      "icao": "GCFV",
      "iata": "FUE",
      "name": "Fuerteventura Airport",
      "updatedAt": "160430Z",
      "visibility_m": 10000,
      "taf_visibility_m": 10000,
      "worst_visibility_m": 10000,
      "ceiling_ft": 3600,
      "hazards": [],
      "severityScore": 0,
      "metarRaw": "METAR GCFV 160430Z AUTO 35010KT 9999 OVC036 17/08 Q1023",
      "tafRaw": "TAF GCFV 160200Z 1603/1703 34007KT 9999 SCT035 TX22/1614Z TN14/1606Z \n  BECMG 1609/1611 04010KT \n  BECMG 1614/1616 34010KT"
    },
    {
      "icao": "GMAD",
      "iata": "AGA",
      "name": "Al Massira Airport",
      "updatedAt": "160430Z",
      "visibility_m": 10000,
      "taf_visibility_m": 10000,
      "worst_visibility_m": 10000,
      "ceiling_ft": null,
      "hazards": [],
      "severityScore": 0,
      "metarRaw": "METAR GMAD 160430Z 09005KT CAVOK 08/08 Q1022 NOSIG",
      "tafRaw": "TAF GMAD 152300Z 1600/1706 14003KT CAVOK \n  BECMG 1616/1618 27010KT"
    },
    {
      "icao": "EDDK",
      "iata": "CGN",
      "name": "Cologne Bonn Airport",
      "updatedAt": "160450Z",
      "visibility_m": 10000,
      "taf_visibility_m": 10000,
      "worst_visibility_m": 10000,
      "ceiling_ft": 3400,
      "hazards": [],
      "severityScore": 0,
      "metarRaw": "METAR EDDK 160450Z AUTO 19010KT 9999 BKN034 11/05 Q1010 NOSIG",
      "tafRaw": "TAF EDDK 152300Z 1600/1706 14009KT 9999 SCT040"
    },
    {
      "icao": "EDLW",
      "iata": "DTM",
      "name": "Dortmund Airport",
      "updatedAt": "160450Z",
      "visibility_m": 10000,
      "taf_visibility_m": 10000,
      "worst_visibility_m": 10000,
      "ceiling_ft": 3600,
      "hazards": [],
      "severityScore": 0,
      "metarRaw": "METAR EDLW 160450Z 17013KT 9999 BKN036 OVC041 11/05 Q1009",
      "tafRaw": "TAF EDLW 160420Z 1605/1624 18011KT 9999 BKN030 \n  BECMG 1613/1616 15005KT"
    },
    {
      "icao": "EDNY",
      "iata": "FDH",
      "name": "Friedrichshafen Airport",
      "updatedAt": "160450Z",
      "visibility_m": 7000,
      "taf_visibility_m": 10000,
      "worst_visibility_m": 7000,
      "ceiling_ft": null,
      "hazards": [],
      "severityScore": 0,
      "metarRaw": "METAR EDNY 160450Z 04003KT 010V070 7000 FEW006 M02/M02 Q1016",
      "tafRaw": "TAF EDNY 160200Z 1603/1612 VRB03KT CAVOK"
    },
    {
      "icao": "EHEH",
      "iata": "EIN",
      "name": "Eindhoven Airport",
      "updatedAt": "160425Z",
      "visibility_m": 10000,
      "taf_visibility_m": 10000,
      "worst_visibility_m": 10000,
      "ceiling_ft": 2800,
      "hazards": [],
      "severityScore": 0,
      "metarRaw": "METAR EHEH 160425Z AUTO 20015KT 9999 SCT024 BKN028 BKN031 11/07 Q1006 BLU",
      "tafRaw": "TAF EHEH 152340Z 1600/1706 15013KT CAVOK \n  TEMPO 1602/1606 SCT012 BKN016 \n  PROB30 1602/1606 SCT010 BKN015 \n  BECMG 1605/1607 21007KT"
    },
    {
      "icao": "ENAL",
      "iata": "AES",
      "name": "Ålesund Airport, Vigra",
      "updatedAt": "160450Z",
      "visibility_m": 10000,
      "taf_visibility_m": 10000,
      "worst_visibility_m": 10000,
      "ceiling_ft": null,
      "hazards": [],
      "severityScore": 0,
      "metarRaw": "METAR ENAL 160450Z AUTO 22007KT 9999 SCT063/// 07/M01 Q1002",
      "tafRaw": "TAF ENAL 160200Z 1603/1612 14007KT 9999 SCT050"
    },
    {
      "icao": "ENTC",
      "iata": "TOS",
      "name": "Tromsø Airport, Langnes",
      "updatedAt": "160450Z",
      "visibility_m": 10000,
      "taf_visibility_m": 10000,
      "worst_visibility_m": 10000,
      "ceiling_ft": null,
      "hazards": [],
      "severityScore": 0,
      "metarRaw": "METAR ENTC 160450Z 21014KT CAVOK M01/M07 Q1009 RMK WIND 2600FT 17011KT",
      "tafRaw": "TAF ENTC 152300Z 1600/1624 20016KT CAVOK \n  BECMG 1604/1607 21006KT"
    },
    {
      "icao": "LATI",
      "iata": "TIA",
      "name": "Tirana International Airport Mother Teresa",
      "updatedAt": "160450Z",
      "visibility_m": 10000,
      "taf_visibility_m": 10000,
      "worst_visibility_m": 10000,
      "ceiling_ft": 5500,
      "hazards": [],
      "severityScore": 0,
      "metarRaw": "METAR LATI 160450Z 06002KT 9999 OVC055 09/06 Q1022 NOSIG",
      "tafRaw": "TAF LATI 152300Z 1600/1624 VRB05KT 9999 BKN070 TX16/1612Z TN06/1605Z"
    },
    {
      "icao": "LCLK",
      "iata": "LCA",
      "name": "Larnaca International Airport",
      "updatedAt": "160430Z",
      "visibility_m": 10000,
      "taf_visibility_m": 10000,
      "worst_visibility_m": 10000,
      "ceiling_ft": null,
      "hazards": [],
      "severityScore": 0,
      "metarRaw": "METAR LCLK 160430Z 30007KT 9999 FEW030 08/07 Q1023 NOSIG",
      "tafRaw": "TAF LCLK 152330Z 1600/1700 32006KT 9999 FEW025 SCT040 \n  BECMG 1607/1610 20010KT \n  BECMG 1616/1619 32006KT"
    },
    {
      "icao": "LEVC",
      "iata": "VLC",
      "name": "Valencia Airport",
      "updatedAt": "160430Z",
      "visibility_m": 10000,
      "taf_visibility_m": 10000,
      "worst_visibility_m": 10000,
      "ceiling_ft": null,
      "hazards": [],
      "severityScore": 0,
      "metarRaw": "METAR LEVC 160430Z 27005KT 9999 FEW050 10/05 Q1015 NOSIG",
      "tafRaw": "TAF LEVC 152300Z 1600/1624 24005KT CAVOK TX15/1612Z TN06/1606Z \n  TEMPO 1612/1618 VRB03KT \n  BECMG 1617/1619 30005KT"
    },
    {
      "icao": "LFLL",
      "iata": "LYS",
      "name": "Lyon Saint-Exupéry Airport",
      "updatedAt": "160430Z",
      "visibility_m": 10000,
      "taf_visibility_m": 10000,
      "worst_visibility_m": 10000,
      "ceiling_ft": null,
      "hazards": [],
      "severityScore": 0,
      "metarRaw": "METAR LFLL 160430Z 17007KT CAVOK 09/05 Q1014 NOSIG",
      "tafRaw": "TAF LFLL 152300Z 1600/1706 18012KT CAVOK \n  TEMPO 1600/1603 18015G25KT \n  BECMG 1603/1605 16007KT"
    },
    {
      "icao": "LFSB",
      "iata": "BSL",
      "name": "EuroAirport Basel–Mulhouse–Freiburg",
      "updatedAt": "160430Z",
      "visibility_m": 7000,
      "taf_visibility_m": 10000,
      "worst_visibility_m": 7000,
      "ceiling_ft": null,
      "hazards": [],
      "severityScore": 0,
      "metarRaw": "METAR LFSB 160430Z AUTO 17008KT 7000 NSC 03/02 Q1015 NOSIG",
      "tafRaw": "TAF LFSB 152300Z 1600/1624 17005KT CAVOK"
    },
    {
      "icao": "LIBD",
      "iata": "BRI",
      "name": "Bari Karol Wojtyła International Airport",
      "updatedAt": "160450Z",
      "visibility_m": 10000,
      "taf_visibility_m": 10000,
      "worst_visibility_m": 10000,
      "ceiling_ft": null,
      "hazards": [],
      "severityScore": 0,
      "metarRaw": "METAR LIBD 160450Z 20005KT CAVOK 03/03 Q1021",
      "tafRaw": "TAF LIBD 152300Z 1600/1624 VRB05KT 9999 FEW030"
    },
    {
      "icao": "LIBG",
      "iata": "TAR",
      "name": "Taranto-Grottaglie Marcello Arlotta Airport",
      "updatedAt": null,
      "visibility_m": null,
      "taf_visibility_m": 8000,
      "worst_visibility_m": 8000,
      "ceiling_ft": null,
      "hazards": [],
      "severityScore": 0,
      "metarRaw": null,
      "tafRaw": "TAF LIBG 151700Z 1518/1603 VRB05KT 8000 FEW025"
    },
    {
      "icao": "LICA",
      "iata": "SUF",
      "name": "Lamezia Terme Sant'Eufemia International Airport",
      "updatedAt": "160450Z",
      "visibility_m": 10000,
      "taf_visibility_m": 10000,
      "worst_visibility_m": 10000,
      "ceiling_ft": null,
      "hazards": [],
      "severityScore": 0,
      "metarRaw": "METAR LICA 160450Z AUTO 07007KT 9999 NCD 08/06 Q1020",
      "tafRaw": "TAF LICA 152300Z 1600/1624 08005KT CAVOK \n  BECMG 1608/1610 08015KT"
    },
    {
      "icao": "LIRF",
      "iata": "FCO",
      "name": "Rome–Fiumicino Leonardo da Vinci International Airport",
      "updatedAt": "160450Z",
      "visibility_m": 10000,
      "taf_visibility_m": 10000,
      "worst_visibility_m": 10000,
      "ceiling_ft": null,
      "hazards": [],
      "severityScore": 0,
      "metarRaw": "METAR LIRF 160450Z 08007KT CAVOK 07/06 Q1021 NOSIG",
      "tafRaw": "TAF LIRF 152300Z 1600/1706 08007KT 9999 FEW020"
    },
    {
      "icao": "LIRN",
      "iata": "NAP",
      "name": "Naples International Airport",
      "updatedAt": "160450Z",
      "visibility_m": 10000,
      "taf_visibility_m": 10000,
      "worst_visibility_m": 10000,
      "ceiling_ft": null,
      "hazards": [],
      "severityScore": 0,
      "metarRaw": "METAR LIRN 160450Z 01004KT CAVOK 06/04 Q1021 NOSIG",
      "tafRaw": "TAF LIRN 152300Z 1600/1624 VRB05KT CAVOK"
    },
    {
      "icao": "LIRP",
      "iata": "PSA",
      "name": "Pisa International Airport",
      "updatedAt": "160445Z",
      "visibility_m": 10000,
      "taf_visibility_m": 10000,
      "worst_visibility_m": 10000,
      "ceiling_ft": 7000,
      "hazards": [],
      "severityScore": 0,
      "metarRaw": "METAR LIRP 160445Z 15003KT 9999 FEW040 BKN070 10/09 Q1020 NOSIG",
      "tafRaw": "TAF LIRP 152300Z 1600/1624 VRB03KT 9999 SCT020 SCT040"
    },
    {
      "icao": "LLBG",
      "iata": "TLV",
      "name": "Ben Gurion International Airport",
      "updatedAt": "160450Z",
      "visibility_m": 10000,
      "taf_visibility_m": 10000,
      "worst_visibility_m": 10000,
      "ceiling_ft": 3500,
      "hazards": [],
      "severityScore": 0,
      "metarRaw": "METAR LLBG 160450Z VRB02KT CAVOK 09/06 Q1023 NOSIG RMK FEW055",
      "tafRaw": "TAF LLBG 152323Z 1600/1624 VRB03KT 9999 FEW045 \n  PROB40 \n  TEMPO 1600/1607 16005KT BKN035 \n  BECMG 1607/1609 29010KT SCT045 \n  PROB40 \n  TEMPO 1609/1615 BKN040 \n  BECMG 1615/1617 VRB04KT TX18/1611Z TN09/1604Z"
    },
    {
      "icao": "LRIA",
      "iata": "IAS",
      "name": "Iaşi Airport",
      "updatedAt": "160430Z",
      "visibility_m": 10000,
      "taf_visibility_m": 10000,
      "worst_visibility_m": 10000,
      "ceiling_ft": 3500,
      "hazards": [],
      "severityScore": 0,
      "metarRaw": "METAR LRIA 160430Z 32005KT CAVOK M13/M15 Q1031",
      "tafRaw": "TAF LRIA 160200Z 1603/1612 02006KT 9999 SCT010 OVC035"
    },
    {
      "icao": "LWOH",
      "iata": "OHD",
      "name": "Ohrid St. Paul the Apostle Airport",
      "updatedAt": null,
      "visibility_m": null,
      "taf_visibility_m": 10000,
      "worst_visibility_m": 10000,
      "ceiling_ft": null,
      "hazards": [],
      "severityScore": 0,
      "metarRaw": null,
      "tafRaw": "TAF LWOH 160230Z 1603/1703 VRB02KT 9999 FEW040"
    },
    {
      "icao": "OEMA",
      "iata": "MED",
      "name": "Prince Mohammad Bin Abdulaziz Airport",
      "updatedAt": "160400Z",
      "visibility_m": 10000,
      "taf_visibility_m": 7000,
      "worst_visibility_m": 7000,
      "ceiling_ft": null,
      "hazards": [],
      "severityScore": 0,
      "metarRaw": "METAR OEMA 160400Z 03010KT CAVOK 11/M02 Q1024 NOSIG",
      "tafRaw": "TAF OEMA 152300Z 1600/1706 VRB03KT CAVOK \n  BECMG 1606/1608 08015KT 7000 NSC"
    },
    {
      "icao": "OMAA",
      "iata": "AUH",
      "name": "Zayed International Airport",
      "updatedAt": "160400Z",
      "visibility_m": 10000,
      "taf_visibility_m": 8000,
      "worst_visibility_m": 8000,
      "ceiling_ft": null,
      "hazards": [],
      "severityScore": 0,
      "metarRaw": "METAR OMAA 160400Z 31008KT 9999 FEW035 19/11 Q1019 NOSIG",
      "tafRaw": "TAF OMAA 152300Z 1600/1706 32012KT 8000 FEW030 \n  PROB30 \n  TEMPO 1605/1613 32015G25KT"
    },
    {
      "icao": "UBBB",
      "iata": "GYD",
      "name": "Heydar Aliyev International Airport",
      "updatedAt": "160430Z",
      "visibility_m": 10000,
      "taf_visibility_m": 10000,
      "worst_visibility_m": 10000,
      "ceiling_ft": null,
      "hazards": [],
      "severityScore": 0,
      "metarRaw": "METAR UBBB 160430Z 19006KT CAVOK 02/M01 Q1022 NOSIG",
      "tafRaw": "TAF UBBB 152302Z 1600/1624 17008KT 9999 SCT030 TX07/1610Z TNM00/1602Z \n  TEMPO 1600/1604 20010KT SCT015 \n  TEMPO 1606/1612 20014KT \n  TEMPO 1614/1616 24006KT SCT012 \n  BECMG 1616/1618 31006KT SCT010 SCT020"
    }
  ],
  "stats": {
    "icaoCount": 159,
    "metarReturned": 155,
    "tafReturned": 135,
    "stationsWritten": 159,
    "missingMetar": 4,
    "missingTaf": 24
  },
  "errors": []
}