{
  "generatedAt": "2026-01-21T16:27:08.241Z",
  "stations": [
    {
      "icao": "EDFH",
      "iata": "HHN",
      "name": "Frankfurt-Hahn Airport",
      "lat": 49.946353,
      "lon": 7.261734,
      "updatedAt": "211620Z",
      "visibility_m": 5000,
      "taf_visibility_m": 300,
      "worst_visibility_m": 300,
      "ceiling_ft": 100,
      "hazards": [
        "BR",
        "FZFG",
        "FG"
      ],
      "severityScore": 100,
      "metarRaw": "METAR EDFH 211620Z 13012KT 5000 BR NSC M02/M03 Q1001",
      "tafRaw": "TAF EDFH 211100Z 2112/2212 13013KT 6000 SCT005 \n  TEMPO 2112/2115 0300 FZFG OVC001"
    },
    {
      "icao": "EDSB",
      "iata": "FKB",
      "name": "Karlsruhe Baden-Baden Airport",
      "lat": 48.7794,
      "lon": 8.0805,
      "updatedAt": "211620Z",
      "visibility_m": 2000,
      "taf_visibility_m": 300,
      "worst_visibility_m": 300,
      "ceiling_ft": 300,
      "hazards": [
        "BR",
        "FZFG",
        "FG"
      ],
      "severityScore": 100,
      "metarRaw": "METAR EDSB 211620Z VRB02KT 2000 BR OVC003 M01/M01 Q1003",
      "tafRaw": "TAF EDSB 211100Z 2112/2212 03003KT 0900 FZFG OVC001 \n  TEMPO 2112/2118 4000 BR BKN005 \n  TEMPO 2118/2212 0300 FZFG"
    },
    {
      "icao": "EGNM",
      "iata": "LBA",
      "name": "Leeds Bradford Airport",
      "lat": 53.865898,
      "lon": -1.66057,
      "updatedAt": "211620Z",
      "visibility_m": 4000,
      "taf_visibility_m": 300,
      "worst_visibility_m": 300,
      "ceiling_ft": 400,
      "hazards": [
        "BR",
        "RA",
        "FG",
        "DZ"
      ],
      "severityScore": 100,
      "metarRaw": "METAR EGNM 211620Z 12014KT 4000 -RA BR SCT003 BKN004 08/08 Q0986",
      "tafRaw": "TAF EGNM 211103Z 2112/2212 10009KT 9999 BKN003 \n  BECMG 2112/2115 13016G26KT \n  TEMPO 2112/2212 1600 RA -RADZ BR BKN001 \n  PROB30 \n  TEMPO 2112/2212 0300 FG +RA RADZ \n  BECMG 2122/2201 12010KT"
    },
    {
      "icao": "EPMO",
      "iata": "WMI",
      "name": "Modlin Airport",
      "lat": 52.451099,
      "lon": 20.6518,
      "updatedAt": "211600Z",
      "visibility_m": 5000,
      "taf_visibility_m": 300,
      "worst_visibility_m": 300,
      "ceiling_ft": 100,
      "hazards": [
        "BR",
        "FZFG",
        "FG"
      ],
      "severityScore": 100,
      "metarRaw": "METAR EPMO 211600Z 11003KT 5000 BR NSC M06/M10 Q1011",
      "tafRaw": "TAF EPMO 211130Z 2112/2212 13005KT 5000 BR NSC \n  TEMPO 2121/2208 2000 BR \n  PROB40 2123/2208 0300 FZFG VV001"
    },
    {
      "icao": "LBPD",
      "iata": "PDV",
      "name": "Plovdiv International Airport",
      "lat": 42.067799,
      "lon": 24.8508,
      "updatedAt": "211600Z",
      "visibility_m": 10000,
      "taf_visibility_m": 1200,
      "worst_visibility_m": 1200,
      "ceiling_ft": 300,
      "hazards": [
        "FZRA",
        "SN",
        "RA"
      ],
      "severityScore": 100,
      "metarRaw": "METAR LBPD 211600Z AUTO 09004KT 9999 OVC021/// M01/M03 Q1018 NOSIG",
      "tafRaw": "TAF LBPD 211100Z 2112/2212 VRB04KT 9999 SCT040 BKN070 \n  BECMG 2115/2116 3000 SN BKN007 OVC015 \n  PROB40 \n  TEMPO 2120/2201 1200 +SN BKN003 OVC010 \n  PROB30 \n  TEMPO 2206/2208 3000 FZRA \n  BECMG 2208/2209 6000 NSW BKN015"
    },
    {
      "icao": "LEZG",
      "iata": "ZAZ",
      "name": "Zaragoza Airport",
      "lat": 41.666199,
      "lon": -1.04155,
      "updatedAt": "211600Z",
      "visibility_m": 4000,
      "taf_visibility_m": 300,
      "worst_visibility_m": 300,
      "ceiling_ft": 5000,
      "hazards": [
        "RA",
        "SHRA",
        "BR",
        "FG"
      ],
      "severityScore": 100,
      "metarRaw": "METAR LEZG 211600Z 12010KT 9999 -RA BKN050 OVC065 09/08 Q1001 TEMPO 4000 SHRA FEW040TCU",
      "tafRaw": "TAF LEZG 211100Z 2112/2212 13010KT 9999 FEW040 TX13/2115Z TN05/2206Z \n  TEMPO 2112/2124 4000 RA SHRA FEW020TCU BKN030 \n  BECMG 2119/2123 28008KT \n  PROB40 \n  TEMPO 2123/2210 3000 BR BKN005 \n  PROB30 \n  TEMPO 2123/2208 0300 BCFG VV002"
    },
    {
      "icao": "LIMC",
      "iata": "MXP",
      "name": "Milan Malpensa International Airport",
      "lat": 45.6306,
      "lon": 8.72811,
      "updatedAt": "211620Z",
      "visibility_m": 10000,
      "taf_visibility_m": 800,
      "worst_visibility_m": 800,
      "ceiling_ft": 200,
      "hazards": [
        "FZFG",
        "FG"
      ],
      "severityScore": 100,
      "metarRaw": "METAR LIMC 211620Z 19003KT CAVOK 06/01 Q1006 NOSIG",
      "tafRaw": "TAF LIMC 211100Z 2112/2218 VRB04KT 6000 SCT080 \n  BECMG 2121/2123 3000 BCFG \n  TEMPO 2202/2209 0800 FZFG OVC002 \n  BECMG 2209/2211 6000"
    },
    {
      "icao": "LIMF",
      "iata": "TRN",
      "name": "Turin Airport",
      "lat": 45.200802,
      "lon": 7.64963,
      "updatedAt": "211620Z",
      "visibility_m": 10000,
      "taf_visibility_m": 500,
      "worst_visibility_m": 500,
      "ceiling_ft": 400,
      "hazards": [
        "FZFG",
        "BR",
        "FG"
      ],
      "severityScore": 100,
      "metarRaw": "METAR LIMF 211620Z 07003KT CAVOK 05/00 Q1006",
      "tafRaw": "TAF LIMF 211100Z 2112/2212 VRB04KT 9999 SCT060 \n  BECMG 2120/2122 3000 BR \n  TEMPO 2122/2207 0500 FZFG BKN004 \n  BECMG 2207/2209 6000"
    },
    {
      "icao": "LKPR",
      "iata": "PRG",
      "name": "Václav Havel Airport Prague",
      "lat": 50.100874,
      "lon": 14.259911,
      "updatedAt": "211600Z",
      "visibility_m": 9000,
      "taf_visibility_m": 700,
      "worst_visibility_m": 700,
      "ceiling_ft": 400,
      "hazards": [
        "FZFG",
        "BR",
        "FG"
      ],
      "severityScore": 100,
      "metarRaw": "METAR LKPR 211600Z VRB02KT 9000 NSC M06/M08 Q1008 NOSIG",
      "tafRaw": "TAF LKPR 211400Z 2115/2221 16005KT CAVOK \n  BECMG 2122/2124 3000 BR SCT005 BKN015 \n  TEMPO 2200/2210 1700 BR BKN005 \n  PROB30 \n  TEMPO 2204/2209 VRB02KT 0700 FZFG OVC004 \n  BECMG 2211/2212 VRB02KT 9999 \n  TEMPO 2212/2221 SCT020"
    },
    {
      "icao": "LQTZ",
      "iata": "TZL",
      "name": "Tuzla International Airport",
      "lat": 44.459858,
      "lon": 18.723627,
      "updatedAt": "211600Z",
      "visibility_m": 4500,
      "taf_visibility_m": 500,
      "worst_visibility_m": 500,
      "ceiling_ft": 1200,
      "hazards": [
        "BR",
        "FZFG",
        "FG"
      ],
      "severityScore": 100,
      "metarRaw": "METAR LQTZ 211600Z 00000KT 4500 BR BKN012 M04/M05 Q1012",
      "tafRaw": "TAF LQTZ 211100Z 2112/2212 VRB02KT 3000 BR BKN007 TX01/2212Z TNM06/2120Z \n  PROB40 \n  TEMPO 2112/2117 7000 NSW SCT015 \n  PROB30 \n  TEMPO 2118/2124 0500 FZFG BKN002"
    },
    {
      "icao": "LRBS",
      "iata": "BBU",
      "name": "Bucharest Băneasa Aurel Vlaicu International Airport",
      "lat": 44.503133,
      "lon": 26.102944,
      "updatedAt": "211600Z",
      "visibility_m": 7000,
      "taf_visibility_m": 600,
      "worst_visibility_m": 600,
      "ceiling_ft": 200,
      "hazards": [
        "FZFG",
        "FG",
        "BR",
        "FZRA",
        "SN",
        "DZ",
        "RA"
      ],
      "severityScore": 100,
      "metarRaw": "METAR LRBS 211600Z 03003KT 350V060 7000 NSC M04/M05 Q1018 NOSIG",
      "tafRaw": "TAF LRBS 211100Z 2112/2212 08006KT 5000 BR NSC \n  BECMG 2116/2118 3000 BR BKN005 BKN035 \n  PROB40 \n  TEMPO 2118/2122 0600 FZFG OVC002 \n  TEMPO 2123/2202 1500 -SN BR \n  PROB40 \n  TEMPO 2202/2206 1500 -FZRA BR \n  BECMG 2206/2208 0800 -DZ BR BKN002 OVC020 \n  TEMPO 2209/2212 0600 FG OVC002"
    },
    {
      "icao": "LROP",
      "iata": "OTP",
      "name": "Bucharest Henri Coandă International Airport",
      "lat": 44.571792,
      "lon": 26.103285,
      "updatedAt": "211600Z",
      "visibility_m": 6000,
      "taf_visibility_m": 600,
      "worst_visibility_m": 600,
      "ceiling_ft": 200,
      "hazards": [
        "FZFG",
        "FG",
        "BR",
        "FZRA",
        "SN",
        "DZ",
        "RA"
      ],
      "severityScore": 100,
      "metarRaw": "METAR LROP 211600Z 04005KT 6000 NSC M04/M06 Q1018 NOSIG",
      "tafRaw": "TAF LROP 211100Z 2112/2212 08006KT 5000 BR NSC \n  BECMG 2116/2118 3000 BR BKN005 BKN035 \n  PROB40 \n  TEMPO 2118/2122 0600 FZFG OVC002 \n  TEMPO 2123/2202 1500 -SN BR \n  PROB40 \n  TEMPO 2202/2206 1500 -FZRA BR \n  BECMG 2206/2208 0800 -DZ BR BKN002 OVC020 \n  TEMPO 2209/2212 0600 FG OVC002"
    },
    {
      "icao": "LRSV",
      "iata": "SCV",
      "name": "Suceava Stefan cel Mare Airport",
      "lat": 47.6875,
      "lon": 26.35409927368164,
      "updatedAt": "211600Z",
      "visibility_m": 100,
      "taf_visibility_m": 300,
      "worst_visibility_m": 100,
      "ceiling_ft": 100,
      "hazards": [
        "FZFG",
        "FG",
        "BR"
      ],
      "severityScore": 100,
      "metarRaw": "METAR LRSV 211600Z 11003KT 0100 R34/0250N FZFG VV001 M10/M11 Q1014",
      "tafRaw": "TAF LRSV 211400Z 2115/2124 VRB04KT 0300 FZFG BKN001 \n  PROB30 \n  TEMPO 2117/2121 1000 BR SCT003"
    },
    {
      "icao": "LZIB",
      "iata": "BTS",
      "name": "M. R. Štefánik Airport",
      "lat": 48.1702,
      "lon": 17.2127,
      "updatedAt": "211600Z",
      "visibility_m": 8000,
      "taf_visibility_m": 700,
      "worst_visibility_m": 700,
      "ceiling_ft": 400,
      "hazards": [
        "FZFG",
        "BR",
        "FG"
      ],
      "severityScore": 100,
      "metarRaw": "METAR LZIB 211600Z 05003KT 8000 NSC M05/M07 Q1012 NOSIG",
      "tafRaw": "TAF LZIB 211115Z 2112/2212 12008KT 9999 SCT005 SCT011 \n  BECMG 2112/2114 CAVOK \n  TEMPO 2200/2208 2500 BR BKN009 \n  PROB40 \n  TEMPO 2203/2208 0700 FZFG OVC004"
    },
    {
      "icao": "LZKZ",
      "iata": "KSC",
      "name": "Košice International Airport",
      "lat": 48.663101,
      "lon": 21.2411,
      "updatedAt": "211600Z",
      "visibility_m": 10000,
      "taf_visibility_m": 700,
      "worst_visibility_m": 700,
      "ceiling_ft": 100,
      "hazards": [
        "FZFG",
        "BR",
        "FG"
      ],
      "severityScore": 100,
      "metarRaw": "METAR LZKZ 211600Z VRB02KT CAVOK M06/M09 Q1013 NOSIG",
      "tafRaw": "TAF LZKZ 211115Z 2112/2212 VRB02KT CAVOK \n  TEMPO 2200/2209 2500 BR BCFG FEW001 BKN004 \n  PROB40 \n  TEMPO 2200/2209 0700 FZFG BKN001 OVC004"
    },
    {
      "icao": "UAAA",
      "iata": "ALA",
      "name": "Almaty International Airport",
      "lat": 43.354267,
      "lon": 77.042828,
      "updatedAt": "211600Z",
      "visibility_m": 3300,
      "taf_visibility_m": 200,
      "worst_visibility_m": 200,
      "ceiling_ft": 20000,
      "hazards": [
        "BR",
        "FZFG",
        "FG"
      ],
      "severityScore": 100,
      "metarRaw": "METAR UAAA 211600Z 24003MPS 3300 BR BKN200 M11/M13 Q1014 NOSIG",
      "tafRaw": "TAF UAAA 211102Z 2112/2212 22003MPS 1100 BR FU SCT011 BKN050 TXM04/2208Z TNM12/2202Z \n  TEMPO 2112/2124 0200 FZFG VV002 \n  TEMPO 2200/2206 0200 FZFG VV001 \n  BECMG 2206/2207 32003MPS 3100 BR \n  TEMPO 2209/2212 BKN050CB OVC100"
    },
    {
      "icao": "LEBB",
      "iata": "BIO",
      "name": "Bilbao Airport",
      "lat": 43.301102,
      "lon": -2.91061,
      "updatedAt": "211600Z",
      "visibility_m": 10000,
      "taf_visibility_m": 1500,
      "worst_visibility_m": 1500,
      "ceiling_ft": 500,
      "hazards": [
        "TSRA",
        "RA",
        "TS"
      ],
      "severityScore": 97,
      "metarRaw": "METAR LEBB 211600Z 14011KT 070V200 9999 FEW032 SCT055 15/08 Q0991 WS ALL RWY NOSIG",
      "tafRaw": "TAF LEBB 211100Z 2112/2212 20009KT 9999 FEW010 SCT030 TX15/2115Z TN07/2208Z \n  TEMPO 2112/2116 20019G29KT \n  TEMPO 2112/2116 20026G45KT \n  TEMPO 2117/2121 3000 RA BKN010 \n  PROB30 \n  TEMPO 2117/2120 1500 TSRA BKN005 SCT030CB \n  PROB30 \n  TEMPO 2205/2212 RA"
    },
    {
      "icao": "LUKK",
      "iata": "RMO",
      "name": "Chişinău International Airport",
      "lat": 46.9277,
      "lon": 28.931,
      "updatedAt": "211600Z",
      "visibility_m": 10000,
      "taf_visibility_m": 800,
      "worst_visibility_m": 800,
      "ceiling_ft": 1300,
      "hazards": [
        "FZFG",
        "BR",
        "FG"
      ],
      "severityScore": 97,
      "metarRaw": "METAR LUKK 211600Z 19008KT 9999 BKN013 M03/M05 Q1018 NOSIG",
      "tafRaw": "TAF LUKK 211121Z 2112/2212 19009KT CAVOK \n  BECMG 2114/2116 BKN012 \n  BECMG 2116/2118 5000 BR BKN006 \n  BECMG 2119/2121 3000 BKN004 \n  TEMPO 2121/2207 0800 FZFG VV///"
    },
    {
      "icao": "EDDS",
      "iata": "STR",
      "name": "Stuttgart Airport",
      "lat": 48.689899,
      "lon": 9.22196,
      "updatedAt": "211620Z",
      "visibility_m": 10000,
      "taf_visibility_m": 900,
      "worst_visibility_m": 900,
      "ceiling_ft": 200,
      "hazards": [
        "FZFG",
        "FG"
      ],
      "severityScore": 95,
      "metarRaw": "METAR EDDS 211620Z AUTO VRB02KT CAVOK 02/M02 Q1001 NOSIG",
      "tafRaw": "TAF EDDS 211100Z 2112/2212 07003KT CAVOK \n  PROB30 \n  TEMPO 2204/2208 0900 FZFG OVC002"
    },
    {
      "icao": "LFBD",
      "iata": "BOD",
      "name": "Bordeaux–Mérignac Airport",
      "lat": 44.82865,
      "lon": -0.715356,
      "updatedAt": "211600Z",
      "visibility_m": 3500,
      "taf_visibility_m": 2000,
      "worst_visibility_m": 2000,
      "ceiling_ft": 1000,
      "hazards": [
        "SHRA",
        "RA",
        "TSRA",
        "TS"
      ],
      "severityScore": 88,
      "metarRaw": "METAR LFBD 211600Z AUTO 15012KT CAVOK 12/09 Q0991 TEMPO 3500 SHRA BKN035TCU",
      "tafRaw": "TAF LFBD 211100Z 2112/2218 16010KT CAVOK TX12/2114Z TN08/2206Z \n  TEMPO 2112/2218 3500 SHRA BKN035TCU \n  PROB30 \n  TEMPO 2122/2212 2000 TSRA BKN010 SCT030CB \n  BECMG 2123/2201 24010KT \n  PROB40 \n  TEMPO 2205/2215 24015G25KT"
    },
    {
      "icao": "LJLJ",
      "iata": "LJU",
      "name": "Ljubljana Jože Pučnik Airport",
      "lat": 46.223701,
      "lon": 14.4576,
      "updatedAt": "211600Z",
      "visibility_m": 10000,
      "taf_visibility_m": 600,
      "worst_visibility_m": 600,
      "ceiling_ft": 1500,
      "hazards": [
        "FZFG",
        "FG"
      ],
      "severityScore": 87,
      "metarRaw": "METAR LJLJ 211600Z VRB02KT 9999 OVC015 M05/M09 Q1010 NOSIG",
      "tafRaw": "TAF LJLJ 211100Z 2112/2212 12003KT 9999 OVC015 \n  PROB30 \n  TEMPO 2204/2208 0600 FZFG VV001"
    },
    {
      "icao": "LEXJ",
      "iata": "SDR",
      "name": "Seve Ballesteros-Santander Airport",
      "lat": 43.427101,
      "lon": -3.82001,
      "updatedAt": "211600Z",
      "visibility_m": 4000,
      "taf_visibility_m": 1500,
      "worst_visibility_m": 1500,
      "ceiling_ft": 2000,
      "hazards": [
        "SHRA",
        "RA",
        "TSRA",
        "TS"
      ],
      "severityScore": 86,
      "metarRaw": "METAR LEXJ 211600Z 30006KT 260V350 4000 SHRA BKN010TCU BKN020 OVC025 11/09 Q0992",
      "tafRaw": "TAF LEXJ 211400Z 2115/2215 24009KT 9999 SCT040 TX16/2115Z TN08/2206Z \n  TEMPO 2115/2119 3000 SHRA SCT030TCU \n  TEMPO 2115/2116 20019G29KT \n  PROB30 \n  TEMPO 2116/2119 VRB19G29KT 1500 TSRA SCT030CB \n  TEMPO 2119/2122 26019G29KT \n  PROB40 \n  TEMPO 2200/2207 RA"
    },
    {
      "icao": "EPSY",
      "iata": "SZY",
      "name": "Olsztyn-Mazury Airport",
      "lat": 53.481899,
      "lon": 20.9377,
      "updatedAt": "211600Z",
      "visibility_m": 2600,
      "taf_visibility_m": 800,
      "worst_visibility_m": 800,
      "ceiling_ft": null,
      "hazards": [
        "BR",
        "FG",
        "FZFG"
      ],
      "severityScore": 85,
      "metarRaw": "METAR EPSY 211600Z 14002KT 2600 BR MIFG NSC M09/M10 Q1011",
      "tafRaw": "TAF EPSY 211430Z 2115/2124 14004KT 4000 BR NSC \n  TEMPO 2115/2124 2000 BR \n  PROB40 \n  TEMPO 2117/2124 0800 FZFG"
    },
    {
      "icao": "LWSK",
      "iata": "SKP",
      "name": "Skopje International Airport",
      "lat": 41.958087,
      "lon": 21.622581,
      "updatedAt": "211620Z",
      "visibility_m": 4000,
      "taf_visibility_m": 800,
      "worst_visibility_m": 800,
      "ceiling_ft": 1800,
      "hazards": [
        "BR",
        "FG",
        "SN"
      ],
      "severityScore": 85,
      "metarRaw": "METAR LWSK 211620Z 00000KT 4000 BR SCT004 BKN018 OVC030 00/M01 Q1014 NOSIG",
      "tafRaw": "TAF LWSK 211430Z 2115/2215 VRB02KT 6000 SCT040 OVC070 \n  TEMPO 2115/2121 2000 SN SCT005 BKN020 OVC035 \n  PROB30 \n  TEMPO 2203/2206 0800 FG BKN004 OVC010"
    },
    {
      "icao": "LMML",
      "iata": "MLA",
      "name": "Malta International Airport",
      "lat": 35.857498,
      "lon": 14.4775,
      "updatedAt": "211615Z",
      "visibility_m": 8000,
      "taf_visibility_m": 4000,
      "worst_visibility_m": 4000,
      "ceiling_ft": 4000,
      "hazards": [
        "SHRA",
        "TS",
        "RA",
        "TSRA"
      ],
      "severityScore": 76,
      "metarRaw": "METAR LMML 211615Z 15008KT 8000 -SHRA FEW008 SCT015CB BKN040 11/10 Q1000 RETSRA NOSIG",
      "tafRaw": "TAF LMML 211100Z 2112/2212 20010KT 9999 SCT015 \n  TEMPO 2112/2212 8000 SHRA BKN015 \n  PROB40 \n  TEMPO 2112/2212 VRB20G30KT 4000 TSRA TSRAGS BKN015CB \n  BECMG 2203/2206 30010KT"
    },
    {
      "icao": "LZTT",
      "iata": "TAT",
      "name": "Poprad-Tatry Airport",
      "lat": 49.073601,
      "lon": 20.2411,
      "updatedAt": "211600Z",
      "visibility_m": 10000,
      "taf_visibility_m": 2500,
      "worst_visibility_m": 2500,
      "ceiling_ft": 100,
      "hazards": [
        "BR",
        "FG"
      ],
      "severityScore": 65,
      "metarRaw": "METAR LZTT 211600Z 28004KT 220V310 CAVOK M01/M15 Q1010 NOSIG",
      "tafRaw": "TAF LZTT 211115Z 2112/2212 20005KT CAVOK \n  TEMPO 2200/2209 9999 BKN004 BKN014 \n  PROB40 \n  TEMPO 2200/2209 2500 BR BCFG BKN001 OVC009"
    },
    {
      "icao": "EFTU",
      "iata": "TKU",
      "name": "Turku Airport",
      "lat": 60.514099,
      "lon": 22.2628,
      "updatedAt": "211620Z",
      "visibility_m": 10000,
      "taf_visibility_m": 5000,
      "worst_visibility_m": 5000,
      "ceiling_ft": 700,
      "hazards": [
        "FZDZ",
        "DZ"
      ],
      "severityScore": 63,
      "metarRaw": "METAR EFTU 211620Z AUTO 08008KT 9999 OVC007 M04/M05 Q1024",
      "tafRaw": "TAF EFTU 211434Z 2115/2215 08006KT 9999 OVC005 \n  TEMPO 2115/2121 5000 -FZDZ OVC003 \n  BECMG 2121/2123 SCT012 OVC020 \n  TEMPO 2123/2209 BKN010 \n  BECMG 2209/2211 BKN008"
    },
    {
      "icao": "ESSA",
      "iata": "ARN",
      "name": "Stockholm-Arlanda Airport",
      "lat": 59.64849,
      "lon": 17.928829,
      "updatedAt": "211620Z",
      "visibility_m": 2500,
      "taf_visibility_m": 2500,
      "worst_visibility_m": 2500,
      "ceiling_ft": 400,
      "hazards": [
        "SN",
        "SHSN"
      ],
      "severityScore": 63,
      "metarRaw": "METAR ESSA 211620Z 06011KT 2500 -SN BKN006 M01/M01 Q1020 TEMPO SHSN OVC004",
      "tafRaw": "TAF ESSA 211430Z 2115/2215 04012KT 9999 -SN OVC020 \n  TEMPO 2115/2206 2500 -SHSN BKN008 BKN020TCU"
    },
    {
      "icao": "LGAV",
      "iata": "ATH",
      "name": "Athens Eleftherios Venizelos International Airport",
      "lat": 37.936401,
      "lon": 23.9445,
      "updatedAt": "211620Z",
      "visibility_m": 5000,
      "taf_visibility_m": 2000,
      "worst_visibility_m": 2000,
      "ceiling_ft": 2500,
      "hazards": [
        "TSRA",
        "RA",
        "TS"
      ],
      "severityScore": 62,
      "metarRaw": "METAR LGAV 211620Z 14018G28KT 5000 -RA SCT015TCU BKN025 15/10 Q1007 BECMG 5000 TSRA",
      "tafRaw": "TAF LGAV 211100Z 2112/2212 15018G30KT 7000 FEW012 BKN025 BKN070 \n  PROB40 \n  TEMPO 2112/2206 3000 RA SCT012 FEW018TCU BKN020 BKN070 \n  PROB40 \n  TEMPO 2112/2121 2000 TSRA SCT008 SCT018CB BKN020 OVC050 \n  PROB30 \n  TEMPO 2121/2124 4000 TSRA SCT008 FEW018CB BKN020 \n  BECMG 2118/2120 20010KT \n  BECMG 2122/2124 VRB05KT 9999 BKN030"
    },
    {
      "icao": "LICC",
      "iata": "CTA",
      "name": "Catania-Fontanarossa Airport",
      "lat": 37.466801,
      "lon": 15.0664,
      "updatedAt": "211620Z",
      "visibility_m": 10000,
      "taf_visibility_m": 4000,
      "worst_visibility_m": 4000,
      "ceiling_ft": 8000,
      "hazards": [
        "TSRA",
        "TS",
        "RA"
      ],
      "severityScore": 62,
      "metarRaw": "METAR LICC 211620Z 22002KT 9999 FEW015 BKN080 12/11 Q0999",
      "tafRaw": "TAF LICC 211100Z 2112/2212 VRB06KT 7000 SCT020 \n  TEMPO 2112/2118 4000 TSRA \n  BECMG 2204/2206 26012KT"
    },
    {
      "icao": "LEMD",
      "iata": "MAD",
      "name": "Adolfo Suárez Madrid–Barajas Airport",
      "lat": 40.471926,
      "lon": -3.56264,
      "updatedAt": "211600Z",
      "visibility_m": 7000,
      "taf_visibility_m": 3000,
      "worst_visibility_m": 3000,
      "ceiling_ft": 600,
      "hazards": [
        "DZ",
        "BR",
        "RA"
      ],
      "severityScore": 57,
      "metarRaw": "METAR LEMD 211600Z 17008KT 120V220 7000 -DZ BKN006 OVC013 07/07 Q1001 NOSIG",
      "tafRaw": "TAF LEMD 211100Z 2112/2218 20010KT CAVOK TX07/2118Z TN04/2207Z \n  TEMPO 2112/2122 3000 DZRA BR BKN005 BKN010 \n  PROB40 \n  TEMPO 2112/2115 20015G25KT \n  PROB30 \n  TEMPO 2202/2207 24015G25KT"
    },
    {
      "icao": "LPFR",
      "iata": "FAO",
      "name": "Faro - Gago Coutinho International Airport",
      "lat": 37.015909,
      "lon": -7.970939,
      "updatedAt": "211600Z",
      "visibility_m": 5000,
      "taf_visibility_m": 2000,
      "worst_visibility_m": 2000,
      "ceiling_ft": 800,
      "hazards": [
        "BR",
        "RA",
        "DZ"
      ],
      "severityScore": 57,
      "metarRaw": "METAR LPFR 211600Z COR 25019KT 5000 BR SCT004 BKN008 16/15 Q1007",
      "tafRaw": "TAF LPFR 211100Z 2112/2212 24015KT 9999 SCT012 BKN025 \n  TEMPO 2112/2116 2000 RADZ BR SCT004 BKN008 \n  PROB30 \n  TEMPO 2112/2116 24020G32KT \n  BECMG 2116/2118 29015KT SCT020 \n  BECMG 2201/2203 29008KT \n  BECMG 2205/2207 VRB02KT"
    },
    {
      "icao": "EYKA",
      "iata": "KUN",
      "name": "Kaunas International Airport",
      "lat": 54.963965,
      "lon": 24.08582,
      "updatedAt": "211620Z",
      "visibility_m": 5000,
      "taf_visibility_m": 1500,
      "worst_visibility_m": 1500,
      "ceiling_ft": 200,
      "hazards": [
        "BR"
      ],
      "severityScore": 55,
      "metarRaw": "METAR EYKA 211620Z 08005KT 280V090 5000 BR NSC M10/M13 Q1014",
      "tafRaw": "TAF EYKA 211110Z 2112/2212 VRB04KT 5000 BR NSC \n  TEMPO 2115/2120 1500 BKN002 \n  BECMG 2120/2122 09012KT BKN005"
    },
    {
      "icao": "LIME",
      "iata": "BGY",
      "name": "Milan Bergamo Airport / Antonio Locatelli Air Base",
      "lat": 45.670725,
      "lon": 9.709223,
      "updatedAt": "211620Z",
      "visibility_m": 10000,
      "taf_visibility_m": 1500,
      "worst_visibility_m": 1500,
      "ceiling_ft": 800,
      "hazards": [
        "FG"
      ],
      "severityScore": 55,
      "metarRaw": "METAR LIME 211620Z 15003KT 120V190 CAVOK 04/M00 Q1007 NOSIG",
      "tafRaw": "TAF LIME 211100Z 2112/2212 VRB04KT CAVOK \n  TEMPO 2121/2205 1500 BCFG BKN008"
    },
    {
      "icao": "LRIA",
      "iata": "IAS",
      "name": "Iaşi Airport",
      "lat": 47.180278,
      "lon": 27.620833,
      "updatedAt": "211600Z",
      "visibility_m": 10000,
      "taf_visibility_m": 1500,
      "worst_visibility_m": 1500,
      "ceiling_ft": 200,
      "hazards": [
        "BR"
      ],
      "severityScore": 55,
      "metarRaw": "METAR LRIA 211600Z 12008KT CAVOK M04/M05 Q1016",
      "tafRaw": "TAF LRIA 211400Z 2115/2124 12010KT CAVOK \n  BECMG 2116/2118 5000 BR BKN005 \n  PROB40 \n  TEMPO 2118/2124 1500 BR OVC002"
    },
    {
      "icao": "LRTM",
      "iata": "TGM",
      "name": "Târgu Mureş Transilvania International Airport",
      "lat": 46.467701,
      "lon": 24.4125,
      "updatedAt": "211600Z",
      "visibility_m": 2700,
      "taf_visibility_m": 1500,
      "worst_visibility_m": 1500,
      "ceiling_ft": 200,
      "hazards": [
        "BR"
      ],
      "severityScore": 55,
      "metarRaw": "METAR LRTM 211600Z 24004KT 2700 BR FEW002 SCT004 M12/M14 Q1015",
      "tafRaw": "TAF LRTM 211400Z 2115/2124 VRB04KT 1500 BR BKN002 \n  TEMPO 2115/2117 3000 BKN005"
    },
    {
      "icao": "EDNY",
      "iata": "FDH",
      "name": "Bodensee Airport Friedrichshafen",
      "lat": 47.671299,
      "lon": 9.51149,
      "updatedAt": "211620Z",
      "visibility_m": 2500,
      "taf_visibility_m": null,
      "worst_visibility_m": 2500,
      "ceiling_ft": 200,
      "hazards": [
        "BR"
      ],
      "severityScore": 50,
      "metarRaw": "METAR EDNY 211620Z 00000KT 2500 BR BKN002 M01/M01 Q1003",
      "tafRaw": null
    },
    {
      "icao": "LRSB",
      "iata": "SBZ",
      "name": "Sibiu International Airport",
      "lat": 45.785841,
      "lon": 24.086666,
      "updatedAt": "211600Z",
      "visibility_m": 4000,
      "taf_visibility_m": 1500,
      "worst_visibility_m": 1500,
      "ceiling_ft": 1000,
      "hazards": [
        "BR",
        "SN"
      ],
      "severityScore": 50,
      "metarRaw": "METAR LRSB 211600Z VRB01KT 4000 BR NSC M07/M08 Q1013",
      "tafRaw": "TAF LRSB 211100Z 2112/2212 VRB04KT 3000 BR NSC \n  BECMG 2112/2114 14010KT CAVOK \n  BECMG 2116/2118 VRB04KT \n  BECMG 2207/2209 5000 -SN BR \n  PROB40 \n  TEMPO 2209/2212 1500 -SN BR BKN010 BKN025"
    },
    {
      "icao": "LPPR",
      "iata": "OPO",
      "name": "Francisco de Sá Carneiro Airport",
      "lat": 41.2481002808,
      "lon": -8.68138980865,
      "updatedAt": "211600Z",
      "visibility_m": 10000,
      "taf_visibility_m": 8000,
      "worst_visibility_m": 8000,
      "ceiling_ft": 1200,
      "hazards": [
        "TS",
        "RA"
      ],
      "severityScore": 49,
      "metarRaw": "METAR LPPR 211600Z 28011KT 240V320 9999 VCSH SCT022 FEW025CB SCT030 13/09 Q0999 RETSRA",
      "tafRaw": "TAF LPPR 211100Z 2112/2212 26015KT 9999 SCT020 \n  TEMPO 2112/2206 8000 SHRAGS SCT008 BKN012 FEW020CB \n  TEMPO 2112/2202 27018G32KT \n  BECMG 2202/2204 31012KT \n  BECMG 2207/2209 25010KT"
    },
    {
      "icao": "LPPT",
      "iata": "LIS",
      "name": "Lisbon Humberto Delgado Airport",
      "lat": 38.7813,
      "lon": -9.13592,
      "updatedAt": "211600Z",
      "visibility_m": 9000,
      "taf_visibility_m": 2000,
      "worst_visibility_m": 2000,
      "ceiling_ft": 1500,
      "hazards": [
        "BR",
        "RA",
        "SHRA"
      ],
      "severityScore": 48,
      "metarRaw": "METAR LPPT 211600Z 27009KT 230V300 9000 VCSH FEW010 BKN015 15/13 Q1005 WS R20",
      "tafRaw": "TAF LPPT 211100Z 2112/2218 25013KT 2000 RA BR SCT002 BKN004 \n  BECMG 2112/2114 29015KT 9999 NSW SCT020 \n  TEMPO 2114/2124 29017G27KT 8000 SHRA SCT006 BKN012 FEW020CB \n  BECMG 2200/2202 32008KT \n  BECMG 2204/2206 25008KT \n  BECMG 2210/2212 21013KT BKN020"
    },
    {
      "icao": "EGBB",
      "iata": "BHX",
      "name": "Birmingham Airport",
      "lat": 52.453899,
      "lon": -1.74803,
      "updatedAt": "211620Z",
      "visibility_m": 10000,
      "taf_visibility_m": 3000,
      "worst_visibility_m": 3000,
      "ceiling_ft": 900,
      "hazards": [
        "RA",
        "DZ"
      ],
      "severityScore": 47,
      "metarRaw": "METAR EGBB 211620Z 14018KT 9999 VCSH BKN009 09/07 Q0984",
      "tafRaw": "TAF EGBB 211106Z 2112/2212 14017G29KT 9999 BKN010 \n  TEMPO 2112/2124 6000 RA -RADZ BKN006 \n  PROB30 \n  TEMPO 2112/2124 4000 RADZ BKN003 \n  BECMG 2121/2124 13011KT \n  BECMG 2200/2203 BKN003 \n  TEMPO 2200/2212 6000 RA -RADZ \n  PROB40 \n  TEMPO 2200/2211 3000 RADZ"
    },
    {
      "icao": "EGGW",
      "iata": "LTN",
      "name": "London Luton Airport",
      "lat": 51.874699,
      "lon": -0.368333,
      "updatedAt": "211620Z",
      "visibility_m": 10000,
      "taf_visibility_m": 3000,
      "worst_visibility_m": 3000,
      "ceiling_ft": 900,
      "hazards": [
        "RA",
        "DZ"
      ],
      "severityScore": 47,
      "metarRaw": "METAR EGGW 211620Z AUTO 14014KT 9999 BKN009 OVC013 08/07 Q0988",
      "tafRaw": "TAF EGGW 211106Z 2112/2212 16015G25KT 9999 OVC007 \n  TEMPO 2112/2118 6000 RA OVC004 \n  PROB40 \n  TEMPO 2112/2124 4000 RADZ +RA \n  BECMG 2118/2121 OVC003 \n  TEMPO 2118/2212 6000 RA \n  BECMG 2200/2203 12011KT \n  PROB40 \n  TEMPO 2203/2212 3000 -DZ RADZ OVC001"
    },
    {
      "icao": "LEZL",
      "iata": "SVQ",
      "name": "Sevilla Airport",
      "lat": 37.417999,
      "lon": -5.89311,
      "updatedAt": "211600Z",
      "visibility_m": 3000,
      "taf_visibility_m": 4000,
      "worst_visibility_m": 3000,
      "ceiling_ft": 400,
      "hazards": [
        "RA"
      ],
      "severityScore": 47,
      "metarRaw": "METAR LEZL 211600Z 23017G29KT 190V250 3000 RA OVC004 15/15 Q1006 NOSIG",
      "tafRaw": "TAF LEZL 211400Z 2115/2215 20014KT 9999 SCT030 TX15/2115Z TN09/2207Z \n  TEMPO 2115/2120 4000 RA BKN010 \n  PROB40 2115/2118 20015G25KT \n  BECMG 2117/2119 26009KT"
    },
    {
      "icao": "LIBD",
      "iata": "BRI",
      "name": "Bari Karol Wojtyła International Airport",
      "lat": 41.138901,
      "lon": 16.760599,
      "updatedAt": "211620Z",
      "visibility_m": 6000,
      "taf_visibility_m": 7000,
      "worst_visibility_m": 6000,
      "ceiling_ft": 800,
      "hazards": [
        "DZ",
        "RA"
      ],
      "severityScore": 47,
      "metarRaw": "METAR LIBD 211620Z 09015KT 6000 DZ SCT004 BKN008 10/10 Q1002 RERA",
      "tafRaw": "TAF LIBD 211100Z 2112/2212 11012KT 7000 BKN020 \n  TEMPO 2112/2124 RA BKN010 \n  BECMG 2120/2122 VRB05KT"
    },
    {
      "icao": "EETN",
      "iata": "TLL",
      "name": "Lennart Meri Tallinn Airport",
      "lat": 59.413246,
      "lon": 24.83264,
      "updatedAt": "211620Z",
      "visibility_m": 10000,
      "taf_visibility_m": 3000,
      "worst_visibility_m": 3000,
      "ceiling_ft": 400,
      "hazards": [
        "BR"
      ],
      "severityScore": 45,
      "metarRaw": "METAR EETN 211620Z 10015KT 9999 OVC007 M03/M04 Q1022 TEMPO OVC004",
      "tafRaw": "TAF EETN 211130Z 2112/2212 09010KT 9999 BKN006 OVC015 \n  TEMPO 2112/2123 SCT006 OVC015 \n  PROB40 \n  TEMPO 2123/2206 3000 BR OVC003"
    },
    {
      "icao": "LRBC",
      "iata": "BCM",
      "name": "Bacău George Enescu International  Airport",
      "lat": 46.5219,
      "lon": 26.910299,
      "updatedAt": "211600Z",
      "visibility_m": 7000,
      "taf_visibility_m": 1500,
      "worst_visibility_m": 1500,
      "ceiling_ft": 600,
      "hazards": [
        "BR"
      ],
      "severityScore": 45,
      "metarRaw": "METAR LRBC 211600Z 17011KT 7000 OVC006 M02/M04 Q1016",
      "tafRaw": "TAF LRBC 211400Z 2115/2124 17012KT 5000 BR OVC007 \n  TEMPO 2115/2120 1500 BR OVC002 \n  BECMG 2120/2122 1500 BR OVC002"
    },
    {
      "icao": "LRCV",
      "iata": "CRA",
      "name": "Craiova International Airport",
      "lat": 44.3181,
      "lon": 23.888599,
      "updatedAt": "211600Z",
      "visibility_m": 10000,
      "taf_visibility_m": 1500,
      "worst_visibility_m": 1500,
      "ceiling_ft": 500,
      "hazards": [
        "BR"
      ],
      "severityScore": 45,
      "metarRaw": "METAR LRCV 211600Z 11008KT CAVOK M03/M06 Q1017",
      "tafRaw": "TAF LRCV 211400Z 2115/2124 09006KT 9999 SCT040 \n  BECMG 2117/2119 5000 BR BKN010 \n  PROB40 \n  TEMPO 2121/2124 1500 BR BKN005 BKN025"
    },
    {
      "icao": "BKPR",
      "iata": "PRN",
      "name": "Priština Adem Jashari International Airport",
      "lat": 42.5728,
      "lon": 21.035801,
      "updatedAt": null,
      "visibility_m": null,
      "taf_visibility_m": 3000,
      "worst_visibility_m": 3000,
      "ceiling_ft": 1000,
      "hazards": [
        "BR",
        "SN"
      ],
      "severityScore": 40,
      "metarRaw": null,
      "tafRaw": "TAF BKPR 211130Z 2112/2212 16008KT 9999 SCT030 BKN060 \n  TEMPO 2112/2118 16018KT 4000 -SN BKN015 OVC030 \n  TEMPO 2201/2209 3000 -SN BR BKN010"
    },
    {
      "icao": "UGKO",
      "iata": "KUT",
      "name": "David the Builder Kutaisi International Airport",
      "lat": 42.177448,
      "lon": 42.485353,
      "updatedAt": "211600Z",
      "visibility_m": 10000,
      "taf_visibility_m": 4000,
      "worst_visibility_m": 4000,
      "ceiling_ft": 5000,
      "hazards": [
        "BR",
        "SN",
        "RA"
      ],
      "severityScore": 40,
      "metarRaw": "METAR UGKO 211600Z 09006KT 9999 SCT060 M00/M00 Q1029 NOSIG",
      "tafRaw": "TAF UGKO 211100Z 2112/2212 26007KT 9999 BKN050 TX08/2211Z TNM01/2204Z \n  TEMPO 2112/2114 4000 RASN BR \n  BECMG 2114/2117 08010KT \n  BECMG 2117/2120 CAVOK \n  TEMPO 2205/2212 08020KT"
    },
    {
      "icao": "LFOB",
      "iata": "BVA",
      "name": "Beauvais Tillé airport",
      "lat": 49.454399,
      "lon": 2.11278,
      "updatedAt": "211600Z",
      "visibility_m": 10000,
      "taf_visibility_m": 4000,
      "worst_visibility_m": 4000,
      "ceiling_ft": 1400,
      "hazards": [
        "SHRA",
        "RA"
      ],
      "severityScore": 38,
      "metarRaw": "METAR LFOB 211600Z AUTO 13012KT CAVOK 11/06 Q0993 NOSIG",
      "tafRaw": "TAF LFOB 211100Z 2112/2212 16014KT CAVOK \n  TEMPO 2119/2124 4000 SHRA BKN014 BKN020TCU \n  TEMPO 2200/2212 BKN014 BKN020"
    },
    {
      "icao": "LIBG",
      "iata": "TAR",
      "name": "Taranto-Grottaglie Marcello Arlotta Airport",
      "lat": 40.517502,
      "lon": 17.4032,
      "updatedAt": "211550Z",
      "visibility_m": 2000,
      "taf_visibility_m": 4000,
      "worst_visibility_m": 2000,
      "ceiling_ft": 1200,
      "hazards": [
        "SHRA",
        "RA"
      ],
      "severityScore": 38,
      "metarRaw": "METAR LIBG 211550Z 08010KT 2000 SHRA BKN012 OVC025 11/11 Q1002",
      "tafRaw": "TAF LIBG 211400Z 2115/2124 07012KT 7000 SCT015 BKN030 \n  TEMPO 2115/2124 4000 SHRA"
    },
    {
      "icao": "LGTS",
      "iata": "SKG",
      "name": "Thessaloniki Macedonia International Airport",
      "lat": 40.51928,
      "lon": 22.970009,
      "updatedAt": "211620Z",
      "visibility_m": 10000,
      "taf_visibility_m": 5000,
      "worst_visibility_m": 5000,
      "ceiling_ft": 4000,
      "hazards": [
        "TS",
        "RA"
      ],
      "severityScore": 37,
      "metarRaw": "METAR LGTS 211620Z 23006KT 9999 FEW006 BKN040 06/05 Q1014 NOSIG",
      "tafRaw": "TAF LGTS 211100Z 2112/2212 34013KT 9999 FEW010 BKN025 \n  TEMPO 2112/2122 5000 RA \n  BECMG 2210/2212 VRB03KT SCT025"
    },
    {
      "icao": "EGKK",
      "iata": "LGW",
      "name": "London Gatwick Airport",
      "lat": 51.148771,
      "lon": -0.192089,
      "updatedAt": "211620Z",
      "visibility_m": 10000,
      "taf_visibility_m": 3000,
      "worst_visibility_m": 3000,
      "ceiling_ft": 2800,
      "hazards": [
        "RA",
        "SHRA",
        "DZ"
      ],
      "severityScore": 36,
      "metarRaw": "METAR EGKK 211620Z 13011KT 9999 -RA FEW022 BKN028 09/08 Q0988",
      "tafRaw": "TAF EGKK 211059Z 2112/2218 15015G26KT 9999 SCT016 \n  TEMPO 2112/2201 6000 RA -DZ BKN007 \n  PROB40 \n  TEMPO 2112/2118 3000 +RA RADZ \n  TEMPO 2118/2201 4000 RADZ \n  BECMG 2122/2202 15013KT \n  TEMPO 2201/2210 3000 +RA RADZ BKN006 \n  PROB30 \n  TEMPO 2203/2208 BKN004 \n  TEMPO 2210/2218 6000 SHRA BKN008 \n  PROB40 \n  TEMPO 2210/2216 3000 +SHRA"
    },
    {
      "icao": "EYPA",
      "iata": "PLQ",
      "name": "Palanga International Airport",
      "lat": 55.973202,
      "lon": 21.093901,
      "updatedAt": "211620Z",
      "visibility_m": 7000,
      "taf_visibility_m": 5000,
      "worst_visibility_m": 5000,
      "ceiling_ft": 500,
      "hazards": [
        "BR"
      ],
      "severityScore": 35,
      "metarRaw": "METAR EYPA 211620Z 08007KT 7000 NSC M11/M14 Q1013",
      "tafRaw": "TAF EYPA 211109Z 2112/2212 VRB04KT 5000 BR NSC \n  TEMPO 2112/2118 SCT005 \n  BECMG 2118/2120 09011KT OVC020 \n  TEMPO 2120/2209 BKN005"
    },
    {
      "icao": "LOWW",
      "iata": "VIE",
      "name": "Vienna International Airport",
      "lat": 48.110298,
      "lon": 16.5697,
      "updatedAt": "211620Z",
      "visibility_m": 4000,
      "taf_visibility_m": 2000,
      "worst_visibility_m": 2000,
      "ceiling_ft": 900,
      "hazards": [
        "BR"
      ],
      "severityScore": 35,
      "metarRaw": "METAR LOWW 211620Z 14011KT 7000 FEW008 BKN009 OVC011 M06/M08 Q1011 BECMG 4000 BR",
      "tafRaw": "TAF LOWW 211415Z 2115/2221 14013KT 4000 BR OVC006 TXM03/2214Z TNM07/2205Z \n  TEMPO 2115/2117 8000 BKN010 \n  TEMPO 2118/2208 2000 OVC004 \n  TEMPO 2210/2216 8000 SCT010 \n  BECMG 2216/2218 14006KT 8000 FEW010"
    },
    {
      "icao": "EGGP",
      "iata": "LPL",
      "name": "Liverpool John Lennon Airport",
      "lat": 53.334863,
      "lon": -2.849637,
      "updatedAt": "211620Z",
      "visibility_m": 10000,
      "taf_visibility_m": 3000,
      "worst_visibility_m": 3000,
      "ceiling_ft": 1100,
      "hazards": [
        "RA",
        "DZ"
      ],
      "severityScore": 34,
      "metarRaw": "METAR EGGP 211620Z 13020G30KT 9999 -RA BKN011 OVC015 09/07 Q0982",
      "tafRaw": "TAF EGGP 211103Z 2112/2212 12018G30KT 9999 SCT015 \n  TEMPO 2112/2117 7000 RA -RADZ BKN010 \n  PROB30 \n  TEMPO 2112/2115 3000 +RA RADZ BKN006 \n  PROB40 \n  TEMPO 2117/2206 7000 RA -RADZ BKN014 \n  PROB30 \n  TEMPO 2117/2206 BKN008 \n  BECMG 2200/2203 13012KT \n  TEMPO 2206/2212 7000 RA -RADZ BKN010 \n  PROB30 \n  TEMPO 2206/2212 3000 RADZ +RA BKN004"
    },
    {
      "icao": "EYVI",
      "iata": "VNO",
      "name": "Vilnius International Airport",
      "lat": 54.634102,
      "lon": 25.285801,
      "updatedAt": "211620Z",
      "visibility_m": 3000,
      "taf_visibility_m": 1500,
      "worst_visibility_m": 1500,
      "ceiling_ft": 1500,
      "hazards": [
        "BR"
      ],
      "severityScore": 32,
      "metarRaw": "METAR EYVI 211620Z 09006KT 5000 BR NSC M10/M11 Q1014 TEMPO 3000 BR",
      "tafRaw": "TAF EYVI 211100Z 2112/2212 VRB04KT 5000 BR NSC \n  TEMPO 2115/2117 3000 \n  TEMPO 2117/2206 1500 SCT002 \n  BECMG 2206/2209 09014KT 9000 NSW BKN015"
    },
    {
      "icao": "LBSF",
      "iata": "SOF",
      "name": "Sofia Airport",
      "lat": 42.696357,
      "lon": 23.417671,
      "updatedAt": "211600Z",
      "visibility_m": 5000,
      "taf_visibility_m": 3000,
      "worst_visibility_m": 3000,
      "ceiling_ft": 1000,
      "hazards": [
        "SN"
      ],
      "severityScore": 30,
      "metarRaw": "METAR LBSF 211600Z AUTO 12007KT 9999 FEW017/// M03/M05 Q1015 TEMPO 5000 -SN",
      "tafRaw": "TAF LBSF 211100Z 2112/2212 11012KT 9999 SCT025 BKN050 \n  TEMPO 2112/2122 3000 SN BKN010 OVC030"
    },
    {
      "icao": "LYBE",
      "iata": "BEG",
      "name": "Belgrade Nikola Tesla Airport",
      "lat": 44.818401,
      "lon": 20.309099,
      "updatedAt": "211600Z",
      "visibility_m": 7000,
      "taf_visibility_m": null,
      "worst_visibility_m": 7000,
      "ceiling_ft": 700,
      "hazards": [],
      "severityScore": 30,
      "metarRaw": "METAR LYBE 211600Z 28006KT 7000 BKN007 M04/M05 Q1013 NOSIG",
      "tafRaw": null
    },
    {
      "icao": "ENGM",
      "iata": "OSL",
      "name": "Oslo-Gardermoen International Airport",
      "lat": 60.193901,
      "lon": 11.1004,
      "updatedAt": "211620Z",
      "visibility_m": 10000,
      "taf_visibility_m": 4000,
      "worst_visibility_m": 4000,
      "ceiling_ft": 2200,
      "hazards": [
        "SHSN",
        "SN"
      ],
      "severityScore": 28,
      "metarRaw": "METAR ENGM 211620Z 02009KT 9999 -SHSN BKN022 M03/M05 Q1019 NOSIG",
      "tafRaw": "TAF ENGM 211100Z 2112/2212 02008KT 9999 -SG OVC018 \n  TEMPO 2112/2212 4000 BKN014"
    },
    {
      "icao": "ESKN",
      "iata": "NYO",
      "name": "Stockholm Skavsta Airport",
      "lat": 58.789656,
      "lon": 16.911479,
      "updatedAt": "211620Z",
      "visibility_m": 10000,
      "taf_visibility_m": 2500,
      "worst_visibility_m": 2500,
      "ceiling_ft": 2400,
      "hazards": [
        "BR",
        "SN"
      ],
      "severityScore": 28,
      "metarRaw": "METAR ESKN 211620Z 07011KT 9999 BKN024 M01/M03 Q1017",
      "tafRaw": "TAF ESKN 211430Z 2115/2215 02006KT 9999 OVC014 \n  PROB40 2115/2212 2500 -SN BR BKN009 BKN020TCU"
    },
    {
      "icao": "LTAC",
      "iata": "ESB",
      "name": "Esenboğa International Airport",
      "lat": 40.128101,
      "lon": 32.995098,
      "updatedAt": "211620Z",
      "visibility_m": 10000,
      "taf_visibility_m": 4000,
      "worst_visibility_m": 4000,
      "ceiling_ft": 10000,
      "hazards": [
        "BR",
        "SN"
      ],
      "severityScore": 28,
      "metarRaw": "METAR LTAC 211620Z 06007KT 020V080 9999 FEW040 BKN100 M02/M06 Q1021 NOSIG RMK RWY21C 05009KT RWY03L 04007KT RWY21R 05010KT RWY03R 05009KT RWY21L 07008KT",
      "tafRaw": "TAF LTAC 211040Z 2112/2212 VRB02KT 9999 SCT040 BKN100 \n  PROB30 2203/2206 4000 BR \n  TEMPO 2208/2212 4000 -SN BKN030 BKN080"
    },
    {
      "icao": "LPPS",
      "iata": "PXO",
      "name": "Porto Santo Airport",
      "lat": 33.0733985901,
      "lon": -16.3500003815,
      "updatedAt": "211600Z",
      "visibility_m": 7000,
      "taf_visibility_m": null,
      "worst_visibility_m": 7000,
      "ceiling_ft": 1000,
      "hazards": [
        "DZ"
      ],
      "severityScore": 27,
      "metarRaw": "METAR LPPS 211600Z 30016KT 7000 -DZ SCT006 BKN010 17/15 Q1018",
      "tafRaw": null
    },
    {
      "icao": "LCLK",
      "iata": "LCA",
      "name": "Larnaca International Airport",
      "lat": 34.875099,
      "lon": 33.624901,
      "updatedAt": "211600Z",
      "visibility_m": 10000,
      "taf_visibility_m": 5000,
      "worst_visibility_m": 5000,
      "ceiling_ft": null,
      "hazards": [
        "SHRA",
        "RA"
      ],
      "severityScore": 26,
      "metarRaw": "METAR LCLK 211600Z 07012KT CAVOK 14/05 Q1022 NOSIG",
      "tafRaw": "TAF LCLK 211130Z 2112/2212 05016KT CAVOK \n  PROB30 \n  TEMPO 2115/2121 35009KT \n  PROB30 \n  TEMPO 2201/2212 5000 SHRA \n  PROB30 \n  TEMPO 2202/2212 05017G27KT"
    },
    {
      "icao": "LCPH",
      "iata": "PFO",
      "name": "Paphos International Airport",
      "lat": 34.717999,
      "lon": 32.485699,
      "updatedAt": "211600Z",
      "visibility_m": 10000,
      "taf_visibility_m": 5000,
      "worst_visibility_m": 5000,
      "ceiling_ft": null,
      "hazards": [
        "SHRA",
        "RA"
      ],
      "severityScore": 26,
      "metarRaw": "METAR LCPH 211600Z AUTO 10010KT 090V160 9999 NCD 13/02 Q1021 NOSIG",
      "tafRaw": "TAF LCPH 211130Z 2112/2212 12020KT CAVOK \n  PROB30 \n  TEMPO 2112/2212 12023G33KT \n  PROB30 \n  TEMPO 2121/2202 5000 SHRA"
    },
    {
      "icao": "LEAL",
      "iata": "ALC",
      "name": "Alicante-Elche Miguel Hernández Airport",
      "lat": 38.2822,
      "lon": -0.558156,
      "updatedAt": "211600Z",
      "visibility_m": 10000,
      "taf_visibility_m": 4000,
      "worst_visibility_m": 4000,
      "ceiling_ft": 2500,
      "hazards": [
        "RA",
        "SHRA"
      ],
      "severityScore": 26,
      "metarRaw": "METAR LEAL 211600Z 21003KT 160V250 CAVOK 16/07 Q1006 NOSIG",
      "tafRaw": "TAF LEAL 211100Z 2112/2212 29010KT 9999 BKN040 TX17/2113Z TN10/2206Z \n  PROB40 \n  TEMPO 2114/2117 21009KT \n  BECMG 2118/2120 VRB04KT \n  PROB40 \n  TEMPO 2118/2121 4000 RA SHRA FEW020TCU BKN025 \n  BECMG 2204/2207 29015KT \n  PROB40 \n  TEMPO 2209/2212 30030G45KT"
    },
    {
      "icao": "LEBL",
      "iata": "BCN",
      "name": "Josep Tarradellas Barcelona-El Prat Airport",
      "lat": 41.2971,
      "lon": 2.07846,
      "updatedAt": "211600Z",
      "visibility_m": 10000,
      "taf_visibility_m": 4000,
      "worst_visibility_m": 4000,
      "ceiling_ft": 2000,
      "hazards": [
        "SHRA",
        "RA"
      ],
      "severityScore": 26,
      "metarRaw": "METAR LEBL 211600Z 23011KT 9999 FEW045 13/10 Q1002 NOSIG",
      "tafRaw": "TAF LEBL 211100Z 2112/2212 35007KT 9999 BKN020 TX14/2113Z TN07/2206Z \n  BECMG 2112/2114 23010KT \n  TEMPO 2120/2202 22017G30KT \n  PROB40 \n  TEMPO 2120/2204 4000 SHRA FEW015TCU \n  BECMG 2201/2203 35010KT"
    },
    {
      "icao": "LEVC",
      "iata": "VLC",
      "name": "Valencia Airport",
      "lat": 39.4893,
      "lon": -0.481625,
      "updatedAt": "211600Z",
      "visibility_m": 10000,
      "taf_visibility_m": 4000,
      "worst_visibility_m": 4000,
      "ceiling_ft": 2500,
      "hazards": [
        "RA",
        "SHRA"
      ],
      "severityScore": 26,
      "metarRaw": "METAR LEVC 211600Z 23005KT 200V260 9999 FEW030 12/07 Q1004 NOSIG",
      "tafRaw": "TAF LEVC 211100Z 2112/2212 27012KT 9999 BKN040 TX16/2113Z TN09/2205Z \n  BECMG 2116/2118 27006KT \n  TEMPO 2118/2203 4000 RA SHRA FEW020TCU BKN025 \n  BECMG 2207/2210 27012KT"
    },
    {
      "icao": "LICA",
      "iata": "SUF",
      "name": "Lamezia Terme Sant'Eufemia International Airport",
      "lat": 38.906214,
      "lon": 16.246007,
      "updatedAt": "211620Z",
      "visibility_m": 10000,
      "taf_visibility_m": 4000,
      "worst_visibility_m": 4000,
      "ceiling_ft": 4000,
      "hazards": [
        "SHRA",
        "RA"
      ],
      "severityScore": 26,
      "metarRaw": "METAR LICA 211620Z AUTO 06009KT 9999 FEW076/// 12/10 Q1000",
      "tafRaw": "TAF LICA 211100Z 2112/2212 08018G30KT 9999 BKN040 \n  TEMPO 2112/2118 4000 SHRA \n  BECMG 2119/2121 08010KT \n  BECMG 2207/2209 25012KT"
    },
    {
      "icao": "GCTS",
      "iata": "TFS",
      "name": "Tenerife Sur Airport",
      "lat": 28.0445,
      "lon": -16.5725,
      "updatedAt": "211600Z",
      "visibility_m": 10000,
      "taf_visibility_m": 10000,
      "worst_visibility_m": 10000,
      "ceiling_ft": null,
      "hazards": [
        "TS"
      ],
      "severityScore": 25,
      "metarRaw": "METAR GCTS 211600Z 19005KT 160V230 9999 FEW035 20/11 Q1021 NOSIG",
      "tafRaw": "TAF GCTS 211400Z 2115/2215 20007KT 9999 SCT035 TX22/2214Z TN15/2206Z \n  PROB40 2116/2121 09010KT"
    },
    {
      "icao": "LFLL",
      "iata": "LYS",
      "name": "Lyon Saint-Exupéry Airport",
      "lat": 45.725996,
      "lon": 5.090139,
      "updatedAt": "211600Z",
      "visibility_m": 10000,
      "taf_visibility_m": 4000,
      "worst_visibility_m": 4000,
      "ceiling_ft": 1200,
      "hazards": [
        "RA"
      ],
      "severityScore": 24,
      "metarRaw": "METAR LFLL 211600Z 18014KT CAVOK 10/03 Q1000 TEMPO 18020G30KT",
      "tafRaw": "TAF LFLL 211100Z 2112/2218 17010KT CAVOK \n  TEMPO 2112/2116 18020G30KT \n  TEMPO 2205/2216 4000 RA SCT012 OVC040 \n  PROB40 \n  TEMPO 2212/2216 BKN012"
    },
    {
      "icao": "LFLS",
      "iata": "GNB",
      "name": "Grenoble Alpes Isère Airport",
      "lat": 45.3629,
      "lon": 5.32937,
      "updatedAt": "211600Z",
      "visibility_m": 10000,
      "taf_visibility_m": 4000,
      "worst_visibility_m": 4000,
      "ceiling_ft": 1200,
      "hazards": [
        "RA"
      ],
      "severityScore": 24,
      "metarRaw": "METAR LFLS 211600Z AUTO 21009KT CAVOK 08/02 Q1001 NOSIG",
      "tafRaw": "TAF LFLS 211400Z 2115/2215 23010KT CAVOK \n  BECMG 2118/2120 VRB03KT \n  BECMG 2200/2203 BKN070 \n  TEMPO 2203/2209 -RA BKN018 OVC060 \n  FM220900 09006KT 8000 -RA FEW018 BKN060 \n  TEMPO 2209/2213 4000 RA BKN012 OVC040"
    },
    {
      "icao": "LPMA",
      "iata": "FNC",
      "name": "Cristiano Ronaldo International Airport",
      "lat": 32.697812,
      "lon": -16.774613,
      "updatedAt": "211600Z",
      "visibility_m": 10000,
      "taf_visibility_m": 6000,
      "worst_visibility_m": 6000,
      "ceiling_ft": 1300,
      "hazards": [
        "RA"
      ],
      "severityScore": 24,
      "metarRaw": "METAR LPMA 211600Z 21006KT 130V240 9999 FEW016 20/14 Q1018",
      "tafRaw": "TAF LPMA 211100Z 2112/2212 VRB05KT 9999 SCT015 \n  TEMPO 2112/2212 VRB07G17KT 6000 -RA SCT008 BKN013"
    },
    {
      "icao": "BIKF",
      "iata": "KEF",
      "name": "Keflavik International Airport",
      "lat": 63.985001,
      "lon": -22.6056,
      "updatedAt": "211600Z",
      "visibility_m": 10000,
      "taf_visibility_m": 4500,
      "worst_visibility_m": 4500,
      "ceiling_ft": 8000,
      "hazards": [
        "BR",
        "RA"
      ],
      "severityScore": 22,
      "metarRaw": "METAR BIKF 211600Z 06011KT 9999 SCT032 BKN080 05/02 Q0994",
      "tafRaw": "TAF BIKF 211335Z 2115/2215 05010KT 9999 FEW020 BKN045 TX07/2209Z TN04/2115Z \n  PROB40 \n  TEMPO 2115/2118 RA BKN014 \n  BECMG 2121/2123 07015G25KT \n  BECMG 2210/2212 RA BKN014 OVC022 \n  PROB40 \n  TEMPO 2212/2215 4500 RA BR OVC012"
    },
    {
      "icao": "GMMN",
      "iata": "CMN",
      "name": "Mohammed V International Airport",
      "lat": 33.3675,
      "lon": -7.58997,
      "updatedAt": "211600Z",
      "visibility_m": 10000,
      "taf_visibility_m": 8000,
      "worst_visibility_m": 8000,
      "ceiling_ft": 3000,
      "hazards": [
        "DZ",
        "RA"
      ],
      "severityScore": 22,
      "metarRaw": "METAR GMMN 211600Z 23014KT 9999 DZ BKN030 14/10 Q1016 NOSIG",
      "tafRaw": "TAF GMMN 211100Z 2112/2218 22012KT CAVOK \n  TEMPO 2118/2203 22016KT 8000 RA SCT008 BKN026 \n  BECMG 2204/2206 22008KT 9999 BKN030"
    },
    {
      "icao": "EGPF",
      "iata": "GLA",
      "name": "Glasgow Airport",
      "lat": 55.871899,
      "lon": -4.43306,
      "updatedAt": "211620Z",
      "visibility_m": 6000,
      "taf_visibility_m": 4000,
      "worst_visibility_m": 4000,
      "ceiling_ft": 2100,
      "hazards": [
        "RA",
        "DZ"
      ],
      "severityScore": 22,
      "metarRaw": "METAR EGPF 211620Z AUTO 07016KT 6000 -RA OVC021 06/03 Q0986",
      "tafRaw": "TAF EGPF 211059Z 2112/2212 07008KT 9999 BKN040 \n  BECMG 2114/2117 08018G28KT \n  TEMPO 2115/2212 6000 RA -RADZ BKN012 \n  PROB30 \n  TEMPO 2116/2206 4000 +RA RADZ BKN008 \n  BECMG 2203/2206 10011KT \n  TEMPO 2206/2212 09018G28KT"
    },
    {
      "icao": "EPRA",
      "iata": "RDO",
      "name": "Warsaw Radom Airport",
      "lat": 51.38937,
      "lon": 21.214742,
      "updatedAt": "211600Z",
      "visibility_m": 10000,
      "taf_visibility_m": 4000,
      "worst_visibility_m": 4000,
      "ceiling_ft": null,
      "hazards": [
        "RA",
        "BR"
      ],
      "severityScore": 22,
      "metarRaw": "METAR EPRA 211600Z 13005KT CAVOK M05/M10 Q1011",
      "tafRaw": "TAF EPRA 211430Z 2115/2124 13006KT CAVOK \n  PROB40 2121/2124 4000 BR"
    },
    {
      "icao": "LATI",
      "iata": "TIA",
      "name": "Tirana International Airport Mother Teresa",
      "lat": 41.4147,
      "lon": 19.7206,
      "updatedAt": "211620Z",
      "visibility_m": 10000,
      "taf_visibility_m": 3000,
      "worst_visibility_m": 3000,
      "ceiling_ft": 6400,
      "hazards": [
        "BR",
        "RA"
      ],
      "severityScore": 22,
      "metarRaw": "METAR LATI 211620Z VRB03KT 9999 BKN064 08/04 Q1005 NOSIG",
      "tafRaw": "TAF LATI 211100Z 2112/2212 35008KT 9999 SCT050 BKN070 TX14/2212Z TN05/2204Z \n  TEMPO 2114/2119 15010KT \n  PROB30 \n  TEMPO 2116/2122 4000 RA BKN025 \n  BECMG 2117/2119 VRB04KT \n  PROB30 \n  TEMPO 2201/2205 3000 BR"
    },
    {
      "icao": "LIBR",
      "iata": "BDS",
      "name": "Brindisi Airport",
      "lat": 40.6576,
      "lon": 17.947001,
      "updatedAt": "211620Z",
      "visibility_m": 10000,
      "taf_visibility_m": 8000,
      "worst_visibility_m": 8000,
      "ceiling_ft": 2500,
      "hazards": [
        "BR",
        "RA"
      ],
      "severityScore": 22,
      "metarRaw": "METAR LIBR 211620Z 15008KT 9999 BKN025 12/09 Q1003",
      "tafRaw": "TAF LIBR 211100Z 2112/2212 12012KT 8000 RA BKN030 \n  TEMPO 2112/2114 11015G25KT \n  BECMG 2120/2122 NSW"
    },
    {
      "icao": "LQBK",
      "iata": "BNX",
      "name": "Banja Luka International Airport",
      "lat": 44.941399,
      "lon": 17.297501,
      "updatedAt": "211600Z",
      "visibility_m": 7000,
      "taf_visibility_m": 4000,
      "worst_visibility_m": 4000,
      "ceiling_ft": 1200,
      "hazards": [
        "BR"
      ],
      "severityScore": 22,
      "metarRaw": "METAR LQBK 211600Z 01004KT 7000 BKN012 OVC020 M03/M05 Q1013 NOSIG",
      "tafRaw": "TAF LQBK 211100Z 2112/2212 03003KT 7000 OVC020 TX01/2212Z TNM04/2205Z \n  TEMPO 2112/2118 4000 BR SCT008 BKN012"
    },
    {
      "icao": "LYPG",
      "iata": "TGD",
      "name": "Podgorica Airport / Podgorica Golubovci Airbase",
      "lat": 42.359402,
      "lon": 19.2519,
      "updatedAt": "211600Z",
      "visibility_m": 10000,
      "taf_visibility_m": 3000,
      "worst_visibility_m": 3000,
      "ceiling_ft": 5000,
      "hazards": [
        "RA",
        "BR"
      ],
      "severityScore": 22,
      "metarRaw": "METAR LYPG 211600Z 18002KT 9999 -RA FEW013 BKN050 OVC070 04/03 Q1009 NOSIG",
      "tafRaw": "TAF LYPG 211100Z 2112/2212 16005KT 9999 FEW015 SCT040 OVC070 TX11/2212Z TN05/2205Z \n  TEMPO 2112/2212 5000 RA \n  PROB30 \n  TEMPO 2202/2207 3000 BR"
    },
    {
      "icao": "EPKK",
      "iata": "KRK",
      "name": "Kraków John Paul II International Airport",
      "lat": 50.077702,
      "lon": 19.7848,
      "updatedAt": "211600Z",
      "visibility_m": 5000,
      "taf_visibility_m": 1200,
      "worst_visibility_m": 1200,
      "ceiling_ft": null,
      "hazards": [
        "BR"
      ],
      "severityScore": 20,
      "metarRaw": "METAR EPKK 211600Z VRB02KT 5000 HZ NSC M01/M08 Q1010",
      "tafRaw": "TAF EPKK 211430Z 2115/2215 08002KT 8000 NSC \n  BECMG 2115/2118 3000 BR \n  TEMPO 2118/2207 1200 BR \n  BECMG 2209/2212 6000 \n  TEMPO 2209/2215 4000 HZ"
    },
    {
      "icao": "ENTO",
      "iata": "TRF",
      "name": "Sandefjord Airport, Torp",
      "lat": 59.186699,
      "lon": 10.2586,
      "updatedAt": "211620Z",
      "visibility_m": 10000,
      "taf_visibility_m": 4000,
      "worst_visibility_m": 4000,
      "ceiling_ft": 2500,
      "hazards": [
        "SN"
      ],
      "severityScore": 18,
      "metarRaw": "METAR ENTO 211620Z COR 03008KT 9999 OVC025 M01/M04 Q1019 NOSIG",
      "tafRaw": "TAF ENTO 211100Z 2112/2212 05012KT 9999 OVC015 \n  TEMPO 2112/2212 4000 -SN BKN012"
    },
    {
      "icao": "EGPD",
      "iata": "ABZ",
      "name": "Aberdeen International Airport",
      "lat": 57.2019,
      "lon": -2.19778,
      "updatedAt": "211620Z",
      "visibility_m": 10000,
      "taf_visibility_m": null,
      "worst_visibility_m": 10000,
      "ceiling_ft": 1200,
      "hazards": [],
      "severityScore": 17,
      "metarRaw": "METAR EGPD 211620Z 13018KT 9999 BKN015 08/05 Q0993 TEMPO BKN012",
      "tafRaw": null
    },
    {
      "icao": "ESGG",
      "iata": "GOT",
      "name": "Göteborg Landvetter Airport",
      "lat": 57.6628,
      "lon": 12.2798,
      "updatedAt": "211620Z",
      "visibility_m": 10000,
      "taf_visibility_m": null,
      "worst_visibility_m": 10000,
      "ceiling_ft": 1500,
      "hazards": [],
      "severityScore": 17,
      "metarRaw": "METAR ESGG 211620Z 05013KT 9999 OVC015 M01/M04 Q1014",
      "tafRaw": null
    },
    {
      "icao": "EPGD",
      "iata": "GDN",
      "name": "Gdańsk Lech Wałęsa Airport",
      "lat": 54.377602,
      "lon": 18.4662,
      "updatedAt": "211600Z",
      "visibility_m": 2500,
      "taf_visibility_m": null,
      "worst_visibility_m": 2500,
      "ceiling_ft": null,
      "hazards": [
        "BR"
      ],
      "severityScore": 15,
      "metarRaw": "METAR EPGD 211600Z 15001KT 2500 BR NSC M08/M09 Q1010",
      "tafRaw": null
    },
    {
      "icao": "LFSB",
      "iata": "BSL",
      "name": "EuroAirport Basel–Mulhouse–Freiburg",
      "lat": 47.60068,
      "lon": 7.521117,
      "updatedAt": "211600Z",
      "visibility_m": 5000,
      "taf_visibility_m": null,
      "worst_visibility_m": 5000,
      "ceiling_ft": null,
      "hazards": [
        "BR"
      ],
      "severityScore": 15,
      "metarRaw": "METAR LFSB 211600Z AUTO 34010KT 5000 BR FEW001 00/M00 Q1001 NOSIG",
      "tafRaw": null
    },
    {
      "icao": "GMMX",
      "iata": "RAK",
      "name": "Marrakesh Menara Airport",
      "lat": 31.604807,
      "lon": -8.035788,
      "updatedAt": "211600Z",
      "visibility_m": 10000,
      "taf_visibility_m": 5000,
      "worst_visibility_m": 5000,
      "ceiling_ft": 2000,
      "hazards": [
        "RA"
      ],
      "severityScore": 12,
      "metarRaw": "METAR GMMX 211600Z 26006KT 230V300 9999 FEW026 SCT100 15/07 Q1017 NOSIG",
      "tafRaw": "TAF GMMX 211100Z 2112/2218 22014KT 8000 SCT023 SCT080 \n  TEMPO 2205/2210 5000 RA SCT013 BKN020"
    },
    {
      "icao": "EKBI",
      "iata": "BLL",
      "name": "Billund Airport",
      "lat": 55.740335,
      "lon": 9.157019,
      "updatedAt": "211620Z",
      "visibility_m": 10000,
      "taf_visibility_m": 10000,
      "worst_visibility_m": 10000,
      "ceiling_ft": 1000,
      "hazards": [],
      "severityScore": 12,
      "metarRaw": "METAR EKBI 211620Z AUTO 08014KT 9999 OVC014/// M00/M03 Q1009",
      "tafRaw": "TAF EKBI 211427Z 2115/2215 09015KT 9999 OVC016 \n  TEMPO 2115/2208 09017G27KT BKN010 \n  TEMPO 2208/2215 08018G28KT"
    },
    {
      "icao": "EKCH",
      "iata": "CPH",
      "name": "Copenhagen Kastrup Airport",
      "lat": 55.617900848389,
      "lon": 12.656000137329,
      "updatedAt": "211620Z",
      "visibility_m": 10000,
      "taf_visibility_m": 10000,
      "worst_visibility_m": 10000,
      "ceiling_ft": 1200,
      "hazards": [],
      "severityScore": 12,
      "metarRaw": "METAR EKCH 211620Z AUTO 04010KT 9999 OVC023/// 00/M02 Q1012 NOSIG",
      "tafRaw": "TAF EKCH 211427Z 2115/2215 06010KT 9999 OVC020 \n  TEMPO 2118/2121 BKN012 \n  BECMG 2201/2204 05020KT"
    },
    {
      "icao": "HESX",
      "iata": "SPX",
      "name": "Sphinx International Airport",
      "lat": 30.108179,
      "lon": 30.895728,
      "updatedAt": "211600Z",
      "visibility_m": 10000,
      "taf_visibility_m": 3000,
      "worst_visibility_m": 3000,
      "ceiling_ft": 10000,
      "hazards": [
        "RA"
      ],
      "severityScore": 12,
      "metarRaw": "METAR HESX 211600Z 36009KT CAVOK 16/05 Q1014 NOSIG",
      "tafRaw": "TAF HESX 211100Z 2112/2218 10016G26KT 6000 NSC \n  PROB30 2112/2118 3000 -RA SA FEW030 BKN100 BKN200 \n  BECMG 2122/2124 18006KT \n  TEMPO 2200/2208 3000 HZ"
    },
    {
      "icao": "LBWN",
      "iata": "VAR",
      "name": "Varna Airport",
      "lat": 43.232101,
      "lon": 27.8251,
      "updatedAt": "211600Z",
      "visibility_m": 10000,
      "taf_visibility_m": 5000,
      "worst_visibility_m": 5000,
      "ceiling_ft": 2500,
      "hazards": [
        "RA"
      ],
      "severityScore": 12,
      "metarRaw": "METAR LBWN 211600Z 09006KT 9999 BKN025 03/01 Q1018 NOSIG",
      "tafRaw": "TAF LBWN 211100Z 2112/2212 12010KT 9999 BKN020 \n  BECMG 2121/2123 11010KT \n  TEMPO 2123/2208 5000 RA BKN015 OVC030"
    },
    {
      "icao": "LEMG",
      "iata": "AGP",
      "name": "Málaga-Costa del Sol Airport",
      "lat": 36.6749,
      "lon": -4.49911,
      "updatedAt": "211600Z",
      "visibility_m": 10000,
      "taf_visibility_m": 4000,
      "worst_visibility_m": 4000,
      "ceiling_ft": 3600,
      "hazards": [
        "RA"
      ],
      "severityScore": 12,
      "metarRaw": "METAR LEMG 211600Z 25007G17KT 200V330 9999 -RA FEW015 BKN036 15/09 Q1009 NOSIG",
      "tafRaw": "TAF LEMG 211100Z 2112/2212 VRB03KT 9999 FEW040 TX17/2114Z TN11/2207Z \n  PROB40 \n  TEMPO 2112/2121 4000 RA BKN014 \n  PROB30 \n  TEMPO 2117/2120 24010KT \n  BECMG 2200/2202 30010KT"
    },
    {
      "icao": "LFPO",
      "iata": "ORY",
      "name": "Paris-Orly Airport",
      "lat": 48.72333,
      "lon": 2.37944,
      "updatedAt": "211600Z",
      "visibility_m": 10000,
      "taf_visibility_m": 10000,
      "worst_visibility_m": 10000,
      "ceiling_ft": 1200,
      "hazards": [],
      "severityScore": 12,
      "metarRaw": "METAR LFPO 211600Z AUTO 14010KT 110V170 CAVOK 13/04 Q0994",
      "tafRaw": "TAF LFPO 210500Z 2106/2212 17010KT CAVOK \n  BECMG 2207/2209 BKN012"
    },
    {
      "icao": "LIBP",
      "iata": "PSR",
      "name": "Abruzzo Airport",
      "lat": 42.431079,
      "lon": 14.182981,
      "updatedAt": "211620Z",
      "visibility_m": 6000,
      "taf_visibility_m": 10000,
      "worst_visibility_m": 6000,
      "ceiling_ft": 6000,
      "hazards": [
        "RA"
      ],
      "severityScore": 12,
      "metarRaw": "METAR LIBP 211620Z AUTO 24004KT 6000 -RA FEW010/// OVC027/// 08/07 Q1006",
      "tafRaw": "TAF LIBP 211100Z 2112/2212 VRB05KT 9999 SCT040 BKN060 \n  TEMPO 2112/2120 RA"
    },
    {
      "icao": "LIPY",
      "iata": "AOI",
      "name": "Marche Airport",
      "lat": 43.616299,
      "lon": 13.3623,
      "updatedAt": "211620Z",
      "visibility_m": 10000,
      "taf_visibility_m": 10000,
      "worst_visibility_m": 10000,
      "ceiling_ft": 6000,
      "hazards": [
        "RA"
      ],
      "severityScore": 12,
      "metarRaw": "METAR LIPY 211620Z AUTO 24005KT 220V280 9999 OVC035/// 05/01 Q1007",
      "tafRaw": "TAF LIPY 211100Z 2112/2212 30006KT 9999 SCT020 BKN060 \n  TEMPO 2112/2120 RA"
    },
    {
      "icao": "LLBG",
      "iata": "TLV",
      "name": "Ben Gurion International Airport",
      "lat": 32.011398,
      "lon": 34.8867,
      "updatedAt": "211620Z",
      "visibility_m": 10000,
      "taf_visibility_m": 10000,
      "worst_visibility_m": 10000,
      "ceiling_ft": 8000,
      "hazards": [
        "RA"
      ],
      "severityScore": 12,
      "metarRaw": "METAR LLBG 211620Z 07005KT 030V100 CAVOK 16/M02 Q1018 NOSIG RMK SCT120",
      "tafRaw": "TAF LLBG 211102Z 2112/2212 11010KT CAVOK \n  PROB40 \n  TEMPO 2112/2212 11020G35KT 9999 -RA BKN080 TX18/2112Z TN13/2204Z"
    },
    {
      "icao": "LTFM",
      "iata": "IST",
      "name": "İstanbul Airport",
      "lat": 41.261297,
      "lon": 28.741951,
      "updatedAt": "211620Z",
      "visibility_m": 10000,
      "taf_visibility_m": 4000,
      "worst_visibility_m": 4000,
      "ceiling_ft": 3200,
      "hazards": [
        "RA"
      ],
      "severityScore": 12,
      "metarRaw": "METAR LTFM 211620Z VRB04KT CAVOK 06/M01 Q1018 NOSIG RMK RWY17L VRB02KT RWY34L 24004KT 160V300 RWY16R 24003KT 210V270 RWY36 VRB03KT RWY18 VRB04KT",
      "tafRaw": "TAF LTFM 211040Z 2112/2218 08012KT CAVOK \n  BECMG 2113/2116 14005KT \n  BECMG 2119/2122 SCT035 BKN100 \n  BECMG 2122/2201 -RA BKN032 BKN080 \n  PROB30 \n  TEMPO 2202/2206 4000 RA \n  BECMG 2206/2208 17015KT"
    },
    {
      "icao": "ENBR",
      "iata": "BGO",
      "name": "Bergen Airport, Flesland",
      "lat": 60.2934,
      "lon": 5.21814,
      "updatedAt": "211620Z",
      "visibility_m": 10000,
      "taf_visibility_m": 10000,
      "worst_visibility_m": 10000,
      "ceiling_ft": null,
      "hazards": [
        "BR"
      ],
      "severityScore": 10,
      "metarRaw": "METAR ENBR 211620Z VRB02KT CAVOK 01/M04 Q1008 NOSIG RMK WIND 1200FT 11015KT",
      "tafRaw": "TAF ENBR 211100Z 2112/2212 06005KT CAVOK"
    },
    {
      "icao": "EPKT",
      "iata": "KTW",
      "name": "Katowice Wojciech Korfanty International Airport",
      "lat": 50.476015,
      "lon": 19.080705,
      "updatedAt": "211600Z",
      "visibility_m": 10000,
      "taf_visibility_m": 2500,
      "worst_visibility_m": 2500,
      "ceiling_ft": null,
      "hazards": [
        "BR"
      ],
      "severityScore": 10,
      "metarRaw": "METAR EPKT 211600Z 14004KT CAVOK M02/M09 Q1010",
      "tafRaw": "TAF EPKT 211130Z 2112/2212 22007KT CAVOK \n  TEMPO 2118/2207 2500 BR"
    },
    {
      "icao": "EPLB",
      "iata": "LUZ",
      "name": "Lublin Airport",
      "lat": 51.240157,
      "lon": 22.713461,
      "updatedAt": "211600Z",
      "visibility_m": 5000,
      "taf_visibility_m": 2000,
      "worst_visibility_m": 2000,
      "ceiling_ft": null,
      "hazards": [
        "BR"
      ],
      "severityScore": 10,
      "metarRaw": "METAR EPLB 211600Z VRB01KT 5000 BR NSC M06/M09 Q1012",
      "tafRaw": "TAF EPLB 211130Z 2112/2212 VRB03KT 7000 NSC \n  TEMPO 2120/2208 2000 BR \n  BECMG 2208/2210 09010KT"
    },
    {
      "icao": "EPPO",
      "iata": "POZ",
      "name": "Poznań-Ławica Airport",
      "lat": 52.421598,
      "lon": 16.823359,
      "updatedAt": "211600Z",
      "visibility_m": 10000,
      "taf_visibility_m": 2000,
      "worst_visibility_m": 2000,
      "ceiling_ft": null,
      "hazards": [
        "BR"
      ],
      "severityScore": 10,
      "metarRaw": "METAR EPPO 211600Z 07001KT CAVOK M04/M07 Q1009",
      "tafRaw": "TAF EPPO 211130Z 2112/2212 15005KT CAVOK \n  PROB40 \n  TEMPO 2123/2207 2000 BR"
    },
    {
      "icao": "EPRZ",
      "iata": "RZE",
      "name": "Rzeszów-Jasionka Airport",
      "lat": 50.109791,
      "lon": 22.024155,
      "updatedAt": "211600Z",
      "visibility_m": 10000,
      "taf_visibility_m": 2500,
      "worst_visibility_m": 2500,
      "ceiling_ft": null,
      "hazards": [
        "BR"
      ],
      "severityScore": 10,
      "metarRaw": "METAR EPRZ 211600Z VRB02KT CAVOK 02/M10 Q1012",
      "tafRaw": "TAF EPRZ 211130Z 2112/2212 09004KT 6000 NSC \n  TEMPO 2112/2116 4000 HZ \n  TEMPO 2116/2207 2500 BR"
    },
    {
      "icao": "EPSC",
      "iata": "SZZ",
      "name": "Solidarity Szczecin–Goleniów Airport",
      "lat": 53.584702,
      "lon": 14.9022,
      "updatedAt": "211600Z",
      "visibility_m": 10000,
      "taf_visibility_m": 3000,
      "worst_visibility_m": 3000,
      "ceiling_ft": null,
      "hazards": [
        "BR"
      ],
      "severityScore": 10,
      "metarRaw": "METAR EPSC 211600Z 06002KT CAVOK M04/M06 Q1009",
      "tafRaw": "TAF EPSC 211130Z 2112/2212 14005KT CAVOK \n  PROB40 2200/2208 3000 BR"
    },
    {
      "icao": "EPWA",
      "iata": "WAW",
      "name": "Warsaw Chopin Airport",
      "lat": 52.165699,
      "lon": 20.9671,
      "updatedAt": "211600Z",
      "visibility_m": 10000,
      "taf_visibility_m": 3000,
      "worst_visibility_m": 3000,
      "ceiling_ft": null,
      "hazards": [
        "BR"
      ],
      "severityScore": 10,
      "metarRaw": "METAR EPWA 211600Z 14007KT CAVOK M04/M09 Q1011 NOSIG",
      "tafRaw": "TAF EPWA 211430Z 2115/2215 16005KT 8000 NSC \n  TEMPO 2122/2208 3000 BR"
    },
    {
      "icao": "EPWR",
      "iata": "WRO",
      "name": "Copernicus Wrocław Airport",
      "lat": 51.103719,
      "lon": 16.882096,
      "updatedAt": "211600Z",
      "visibility_m": 10000,
      "taf_visibility_m": 2000,
      "worst_visibility_m": 2000,
      "ceiling_ft": null,
      "hazards": [
        "BR"
      ],
      "severityScore": 10,
      "metarRaw": "METAR EPWR 211600Z 18006KT CAVOK 02/M07 Q1008",
      "tafRaw": "TAF EPWR 211430Z 2115/2215 19012KT CAVOK \n  PROB40 2123/2207 VRB02KT 2000 BR \n  BECMG 2207/2209 12010KT"
    },
    {
      "icao": "LHBP",
      "iata": "BUD",
      "name": "Budapest Liszt Ferenc International Airport",
      "lat": 47.43018,
      "lon": 19.262393,
      "updatedAt": "211600Z",
      "visibility_m": 10000,
      "taf_visibility_m": 4000,
      "worst_visibility_m": 4000,
      "ceiling_ft": 4800,
      "hazards": [
        "BR"
      ],
      "severityScore": 10,
      "metarRaw": "METAR LHBP 211600Z 11003KT 090V150 9999 BKN048 BKN230 M04/M07 Q1013 NOSIG",
      "tafRaw": "TAF LHBP 211115Z 2112/2212 09007KT CAVOK \n  TEMPO 2122/2209 VRB02KT 4000 BR"
    },
    {
      "icao": "LHDC",
      "iata": "DEB",
      "name": "Debrecen International Airport",
      "lat": 47.488899,
      "lon": 21.615299,
      "updatedAt": "211545Z",
      "visibility_m": 4400,
      "taf_visibility_m": 2000,
      "worst_visibility_m": 2000,
      "ceiling_ft": null,
      "hazards": [
        "BR"
      ],
      "severityScore": 10,
      "metarRaw": "METAR LHDC 211545Z AUTO 06005KT 4400 BR NCD M06/M07 Q1013 NOSIG",
      "tafRaw": "TAF LHDC 211415Z 2115/2124 04006KT 4000 BR NSC \n  TEMPO 2115/2118 2800 BR \n  BECMG 2118/2121 VRB03KT 2000 BR"
    },
    {
      "icao": "LIPX",
      "iata": "VRN",
      "name": "Verona Villafranca Valerio Catullo Airport",
      "lat": 45.394955,
      "lon": 10.887303,
      "updatedAt": "211620Z",
      "visibility_m": 10000,
      "taf_visibility_m": 4000,
      "worst_visibility_m": 4000,
      "ceiling_ft": null,
      "hazards": [
        "BR"
      ],
      "severityScore": 10,
      "metarRaw": "METAR LIPX 211620Z 14002KT CAVOK 04/M04 Q1008",
      "tafRaw": "TAF LIPX 211100Z 2112/2212 VRB04KT CAVOK \n  TEMPO 2202/2206 4000 BR"
    },
    {
      "icao": "LIRZ",
      "iata": "PEG",
      "name": "Perugia San Francesco d'Assisi – Umbria International Airport",
      "lat": 43.095901,
      "lon": 12.5132,
      "updatedAt": "211620Z",
      "visibility_m": 10000,
      "taf_visibility_m": 3000,
      "worst_visibility_m": 3000,
      "ceiling_ft": null,
      "hazards": [
        "BR"
      ],
      "severityScore": 10,
      "metarRaw": "METAR LIRZ 211620Z AUTO 02011KT 9999 BKN150/// 07/02 Q1003",
      "tafRaw": "TAF LIRZ 211100Z 2112/2212 02015KT 9999 SCT060 \n  BECMG 2121/2123 VRB05KT \n  TEMPO 2202/2206 3000 BR"
    },
    {
      "icao": "LQSA",
      "iata": "SJJ",
      "name": "Sarajevo International Airport",
      "lat": 43.8246,
      "lon": 18.331499,
      "updatedAt": "211600Z",
      "visibility_m": 4000,
      "taf_visibility_m": 2000,
      "worst_visibility_m": 2000,
      "ceiling_ft": 5500,
      "hazards": [
        "BR"
      ],
      "severityScore": 10,
      "metarRaw": "METAR LQSA 211600Z 00000KT 4000 BR SCT030 BKN055 M03/M06 Q1009 NOSIG",
      "tafRaw": "TAF LQSA 211100Z 2112/2212 VRB02KT 2500 BR BKN008 TX02/2212Z TNM05/2112Z \n  BECMG 2113/2115 6000 NSW SCT012 BKN045 \n  PROB40 2121/2202 4000 BR BKN008 \n  PROB40 2202/2208 2000 BR BKN004"
    },
    {
      "icao": "LRTR",
      "iata": "TSR",
      "name": "Timişoara Traian Vuia Airport",
      "lat": 45.809898,
      "lon": 21.3379,
      "updatedAt": "211600Z",
      "visibility_m": 5000,
      "taf_visibility_m": 5000,
      "worst_visibility_m": 5000,
      "ceiling_ft": null,
      "hazards": [
        "BR"
      ],
      "severityScore": 10,
      "metarRaw": "METAR LRTR 211600Z VRB02KT 8000 FEW047 M02/M06 Q1012 TEMPO 5000 BR",
      "tafRaw": "TAF LRTR 211100Z 2112/2212 10008KT CAVOK \n  TEMPO 2201/2206 5000 BR"
    },
    {
      "icao": "UDSG",
      "iata": "LWN",
      "name": "Shirak International Airport",
      "lat": 40.750401,
      "lon": 43.859299,
      "updatedAt": "211600Z",
      "visibility_m": 10000,
      "taf_visibility_m": 5000,
      "worst_visibility_m": 5000,
      "ceiling_ft": null,
      "hazards": [
        "BR"
      ],
      "severityScore": 10,
      "metarRaw": "METAR UDSG 211600Z 12004KT 9999 NSC M13/M17 Q1024 NOSIG",
      "tafRaw": "TAF UDSG 211100Z 2112/2212 VRB06KT 9999 FEW050 \n  TEMPO 2118/2203 5000 BR"
    },
    {
      "icao": "LECH",
      "iata": "CDT",
      "name": "Castellón-Costa Azahar Airport",
      "lat": 40.213889,
      "lon": 0.073333,
      "updatedAt": "211600Z",
      "visibility_m": 10000,
      "taf_visibility_m": null,
      "worst_visibility_m": 10000,
      "ceiling_ft": null,
      "hazards": [],
      "severityScore": 5,
      "metarRaw": "METAR LECH 211600Z 21005KT 9999 FEW070 11/07 Q1002",
      "tafRaw": null
    },
    {
      "icao": "LICJ",
      "iata": "PMO",
      "name": "Falcone–Borsellino Airport",
      "lat": 38.175999,
      "lon": 13.091,
      "updatedAt": "211620Z",
      "visibility_m": 10000,
      "taf_visibility_m": null,
      "worst_visibility_m": 10000,
      "ceiling_ft": null,
      "hazards": [],
      "severityScore": 5,
      "metarRaw": "METAR LICJ 211620Z 21003KT 9999 FEW020 SCT075 13/10 Q0998",
      "tafRaw": null
    },
    {
      "icao": "GCFV",
      "iata": "FUE",
      "name": "Fuerteventura Airport",
      "lat": 28.4527,
      "lon": -13.8638,
      "updatedAt": "211600Z",
      "visibility_m": 10000,
      "taf_visibility_m": 10000,
      "worst_visibility_m": 10000,
      "ceiling_ft": null,
      "hazards": [],
      "severityScore": 0,
      "metarRaw": "METAR GCFV 211600Z 32013KT 300V360 9999 SCT035 20/10 Q1020",
      "tafRaw": "TAF GCFV 211400Z 2115/2215 32012KT 9999 FEW040 TX21/2214Z TN15/2206Z \n  PROB30 \n  TEMPO 2115/2118 30015G25KT"
    },
    {
      "icao": "GCLP",
      "iata": "LPA",
      "name": "Gran Canaria Airport",
      "lat": 27.9319,
      "lon": -15.3866,
      "updatedAt": "211600Z",
      "visibility_m": 10000,
      "taf_visibility_m": 10000,
      "worst_visibility_m": 10000,
      "ceiling_ft": null,
      "hazards": [],
      "severityScore": 0,
      "metarRaw": "METAR GCLP 211600Z 36016KT 9999 FEW035 20/11 Q1020 NOSIG",
      "tafRaw": "TAF GCLP 211400Z 2115/2215 36015KT 9999 FEW035 TX21/2214Z TN15/2206Z \n  PROB30 \n  TEMPO 2115/2118 36015G25KT \n  BECMG 2120/2123 28005KT \n  PROB40 2211/2215 04010KT"
    },
    {
      "icao": "GMAD",
      "iata": "AGA",
      "name": "Al Massira Airport",
      "lat": 30.322478,
      "lon": -9.412003,
      "updatedAt": "211600Z",
      "visibility_m": 10000,
      "taf_visibility_m": 10000,
      "worst_visibility_m": 10000,
      "ceiling_ft": 3000,
      "hazards": [],
      "severityScore": 0,
      "metarRaw": "METAR GMAD 211600Z 28012KT 9999 SCT033 16/11 Q1017 NOSIG",
      "tafRaw": "TAF GMAD 211100Z 2112/2218 10006KT 9999 FEW030 \n  BECMG 2114/2116 28010KT BKN030"
    },
    {
      "icao": "EBCI",
      "iata": "CRL",
      "name": "Brussels South Charleroi Airport",
      "lat": 50.461963,
      "lon": 4.459562,
      "updatedAt": "211620Z",
      "visibility_m": 10000,
      "taf_visibility_m": 10000,
      "worst_visibility_m": 10000,
      "ceiling_ft": null,
      "hazards": [],
      "severityScore": 0,
      "metarRaw": "METAR EBCI 211620Z 12007KT CAVOK 07/02 Q0997 NOSIG",
      "tafRaw": "TAF EBCI 211120Z 2112/2218 16010KT CAVOK"
    },
    {
      "icao": "EDDB",
      "iata": "BER",
      "name": "Berlin Brandenburg Willy Brandt Airport",
      "lat": 52.361738,
      "lon": 13.502341,
      "updatedAt": "211620Z",
      "visibility_m": 10000,
      "taf_visibility_m": 10000,
      "worst_visibility_m": 10000,
      "ceiling_ft": null,
      "hazards": [],
      "severityScore": 0,
      "metarRaw": "METAR EDDB 211620Z AUTO 10005KT CAVOK M01/M06 Q1007 NOSIG",
      "tafRaw": "TAF EDDB 211100Z 2112/2212 08006KT CAVOK"
    },
    {
      "icao": "EDDH",
      "iata": "HAM",
      "name": "Hamburg Helmut Schmidt Airport",
      "lat": 53.630402,
      "lon": 9.98823,
      "updatedAt": "211620Z",
      "visibility_m": 10000,
      "taf_visibility_m": 10000,
      "worst_visibility_m": 10000,
      "ceiling_ft": null,
      "hazards": [],
      "severityScore": 0,
      "metarRaw": "METAR EDDH 211620Z AUTO 07007KT 040V100 CAVOK M01/M05 Q1006 NOSIG",
      "tafRaw": "TAF EDDH 211100Z 2112/2218 10008KT CAVOK"
    },
    {
      "icao": "EDDK",
      "iata": "CGN",
      "name": "Cologne Bonn Airport",
      "lat": 50.865898,
      "lon": 7.14274,
      "updatedAt": "211620Z",
      "visibility_m": 10000,
      "taf_visibility_m": 10000,
      "worst_visibility_m": 10000,
      "ceiling_ft": null,
      "hazards": [],
      "severityScore": 0,
      "metarRaw": "METAR EDDK 211620Z AUTO 12008KT 090V150 CAVOK 05/M02 Q1002 NOSIG",
      "tafRaw": "TAF EDDK 211100Z 2112/2218 12008KT CAVOK"
    },
    {
      "icao": "EDDN",
      "iata": "NUE",
      "name": "Nuremberg Airport",
      "lat": 49.498699,
      "lon": 11.078056,
      "updatedAt": "211620Z",
      "visibility_m": 10000,
      "taf_visibility_m": 10000,
      "worst_visibility_m": 10000,
      "ceiling_ft": null,
      "hazards": [],
      "severityScore": 0,
      "metarRaw": "METAR EDDN 211620Z AUTO 09007KT CAVOK M01/M08 Q1004 NOSIG",
      "tafRaw": "TAF EDDN 211100Z 2112/2212 11006KT CAVOK"
    },
    {
      "icao": "EDJA",
      "iata": "FMM",
      "name": "Memmingen Allgau Airport",
      "lat": 47.988092,
      "lon": 10.238248,
      "updatedAt": "211620Z",
      "visibility_m": 10000,
      "taf_visibility_m": 10000,
      "worst_visibility_m": 10000,
      "ceiling_ft": null,
      "hazards": [],
      "severityScore": 0,
      "metarRaw": "METAR EDJA 211620Z 03007KT CAVOK 01/M02 Q1002",
      "tafRaw": "TAF EDJA 211400Z 2115/2124 05005KT CAVOK \n  BECMG 2117/2119 VRB03KT"
    },
    {
      "icao": "EDLW",
      "iata": "DTM",
      "name": "Dortmund Airport",
      "lat": 51.518299,
      "lon": 7.61224,
      "updatedAt": "211620Z",
      "visibility_m": 10000,
      "taf_visibility_m": 10000,
      "worst_visibility_m": 10000,
      "ceiling_ft": null,
      "hazards": [],
      "severityScore": 0,
      "metarRaw": "METAR EDLW 211620Z COR 08006KT CAVOK 08/M01 Q1001",
      "tafRaw": "TAF EDLW 211100Z 2112/2212 14008KT CAVOK \n  BECMG 2122/2201 08005KT"
    },
    {
      "icao": "EHBK",
      "iata": "MST",
      "name": "Maastricht Aachen Airport",
      "lat": 50.911701,
      "lon": 5.77014,
      "updatedAt": "211555Z",
      "visibility_m": 10000,
      "taf_visibility_m": 10000,
      "worst_visibility_m": 10000,
      "ceiling_ft": null,
      "hazards": [],
      "severityScore": 0,
      "metarRaw": "METAR EHBK 211555Z AUTO 09005KT 050V130 9999 NSC 07/03 Q0999 NOSIG",
      "tafRaw": "TAF EHBK 211107Z 2112/2218 13007KT CAVOK"
    },
    {
      "icao": "EHEH",
      "iata": "EIN",
      "name": "Eindhoven Airport",
      "lat": 51.4500999451,
      "lon": 5.37452983856,
      "updatedAt": "211555Z",
      "visibility_m": 10000,
      "taf_visibility_m": 10000,
      "worst_visibility_m": 10000,
      "ceiling_ft": 23000,
      "hazards": [],
      "severityScore": 0,
      "metarRaw": "METAR EHEH 211555Z AUTO 12009KT 070V160 9999 OVC230 07/02 Q0999 BLU NOSIG",
      "tafRaw": "TAF EHEH 211104Z 2112/2218 13007KT CAVOK \n  BECMG 2201/2204 10004KT"
    },
    {
      "icao": "ENAL",
      "iata": "AES",
      "name": "Ålesund Airport, Vigra",
      "lat": 62.5625,
      "lon": 6.1197,
      "updatedAt": "211620Z",
      "visibility_m": 10000,
      "taf_visibility_m": 10000,
      "worst_visibility_m": 10000,
      "ceiling_ft": null,
      "hazards": [],
      "severityScore": 0,
      "metarRaw": "METAR ENAL 211620Z 14008KT CAVOK 06/M07 Q1010",
      "tafRaw": "TAF ENAL 211400Z 2115/2124 VRB05KT CAVOK \n  BECMG 2116/2118 12010KT"
    },
    {
      "icao": "ENHD",
      "iata": "HAU",
      "name": "Haugesund Airport, Karmøy",
      "lat": 59.345299,
      "lon": 5.20836,
      "updatedAt": "211620Z",
      "visibility_m": 10000,
      "taf_visibility_m": 10000,
      "worst_visibility_m": 10000,
      "ceiling_ft": null,
      "hazards": [],
      "severityScore": 0,
      "metarRaw": "METAR ENHD 211620Z 10025KT CAVOK 03/M10 Q1008",
      "tafRaw": "TAF ENHD 211400Z 2115/2123 10018KT CAVOK \n  TEMPO 2115/2123 11020G32KT"
    },
    {
      "icao": "ENTC",
      "iata": "TOS",
      "name": "Tromsø Airport, Langnes",
      "lat": 69.683296,
      "lon": 18.9189,
      "updatedAt": "211620Z",
      "visibility_m": 10000,
      "taf_visibility_m": 10000,
      "worst_visibility_m": 10000,
      "ceiling_ft": null,
      "hazards": [],
      "severityScore": 0,
      "metarRaw": "METAR ENTC 211620Z 09002KT CAVOK M08/M09 Q1025 NOSIG RMK WIND 2600FT 08004KT",
      "tafRaw": "TAF ENTC 211100Z 2112/2212 VRB02KT 9999 FEW001"
    },
    {
      "icao": "ENVA",
      "iata": "TRD",
      "name": "Trondheim Airport, Værnes",
      "lat": 63.457802,
      "lon": 10.924,
      "updatedAt": "211620Z",
      "visibility_m": 10000,
      "taf_visibility_m": 10000,
      "worst_visibility_m": 10000,
      "ceiling_ft": null,
      "hazards": [],
      "severityScore": 0,
      "metarRaw": "METAR ENVA 211620Z 11011KT CAVOK 00/M06 Q1019 TEMPO 14015G25KT RMK WIND 670FT 13016KT",
      "tafRaw": "TAF ENVA 211100Z 2112/2212 11008KT CAVOK \n  PROB40 \n  TEMPO 2112/2212 15015G25KT"
    },
    {
      "icao": "ENZV",
      "iata": "SVG",
      "name": "Stavanger Airport, Sola",
      "lat": 58.876701,
      "lon": 5.63778,
      "updatedAt": "211620Z",
      "visibility_m": 10000,
      "taf_visibility_m": 10000,
      "worst_visibility_m": 10000,
      "ceiling_ft": null,
      "hazards": [],
      "severityScore": 0,
      "metarRaw": "METAR ENZV 211620Z 08014KT CAVOK 03/M08 Q1008 TEMPO 12018G28KT",
      "tafRaw": "TAF ENZV 211100Z 2112/2212 09010KT CAVOK \n  PROB30 \n  TEMPO 2112/2212 12015G25KT"
    },
    {
      "icao": "ESMS",
      "iata": "MMX",
      "name": "Malmö Sturup Airport",
      "lat": 55.535564,
      "lon": 13.376327,
      "updatedAt": "211620Z",
      "visibility_m": 8000,
      "taf_visibility_m": 8000,
      "worst_visibility_m": 8000,
      "ceiling_ft": 2000,
      "hazards": [],
      "severityScore": 0,
      "metarRaw": "METAR ESMS 211620Z 02006KT 8000 SCT014 BKN020 M00/M02 Q1011",
      "tafRaw": "TAF ESMS 211427Z 2115/2215 06008KT 8000 BKN018 \n  TEMPO 2117/2202 BKN010 \n  BECMG 2207/2209 08018KT"
    },
    {
      "icao": "HEGN",
      "iata": "HRG",
      "name": "Hurghada International Airport",
      "lat": 27.176776,
      "lon": 33.796692,
      "updatedAt": "211600Z",
      "visibility_m": 10000,
      "taf_visibility_m": 10000,
      "worst_visibility_m": 10000,
      "ceiling_ft": null,
      "hazards": [],
      "severityScore": 0,
      "metarRaw": "METAR HEGN 211600Z 00000KT CAVOK 20/11 Q1017 NOSIG",
      "tafRaw": "TAF HEGN 211100Z 2112/2218 12013KT CAVOK"
    },
    {
      "icao": "HEMA",
      "iata": "RMF",
      "name": "Marsa Alam International Airport",
      "lat": 25.555548,
      "lon": 34.59245,
      "updatedAt": "211600Z",
      "visibility_m": 10000,
      "taf_visibility_m": 10000,
      "worst_visibility_m": 10000,
      "ceiling_ft": null,
      "hazards": [],
      "severityScore": 0,
      "metarRaw": "METAR HEMA 211600Z 34011KT CAVOK 20/14 Q1016 NOSIG",
      "tafRaw": "TAF HEMA 211100Z 2112/2218 01015KT CAVOK"
    },
    {
      "icao": "HESH",
      "iata": "SSH",
      "name": "Sharm El Sheikh International Airport",
      "lat": 27.977272,
      "lon": 34.394717,
      "updatedAt": "211600Z",
      "visibility_m": 10000,
      "taf_visibility_m": 10000,
      "worst_visibility_m": 10000,
      "ceiling_ft": null,
      "hazards": [],
      "severityScore": 0,
      "metarRaw": "METAR HESH 211600Z 35008KT CAVOK 20/10 Q1016 NOSIG",
      "tafRaw": "TAF HESH 211100Z 2112/2218 03012KT CAVOK"
    },
    {
      "icao": "LFMN",
      "iata": "NCE",
      "name": "Nice-Côte d'Azur Airport",
      "lat": 43.658401,
      "lon": 7.21587,
      "updatedAt": "211600Z",
      "visibility_m": 10000,
      "taf_visibility_m": 10000,
      "worst_visibility_m": 10000,
      "ceiling_ft": null,
      "hazards": [],
      "severityScore": 0,
      "metarRaw": "METAR LFMN 211600Z 13003KT 090V180 9999 FEW036 SCT260 12/03 Q1005 NOSIG",
      "tafRaw": "TAF LFMN 211400Z 2115/2221 14006KT CAVOK \n  BECMG 2117/2120 34010KT \n  BECMG 2209/2211 08012KT \n  BECMG 2217/2219 35010KT"
    },
    {
      "icao": "LIMJ",
      "iata": "GOA",
      "name": "Genoa Cristoforo Colombo Airport",
      "lat": 44.412039,
      "lon": 8.840732,
      "updatedAt": "211620Z",
      "visibility_m": 10000,
      "taf_visibility_m": 10000,
      "worst_visibility_m": 10000,
      "ceiling_ft": null,
      "hazards": [],
      "severityScore": 0,
      "metarRaw": "METAR LIMJ 211620Z 03015KT 360V060 CAVOK 08/M00 Q1004",
      "tafRaw": "TAF LIMJ 211100Z 2112/2212 02015KT CAVOK"
    },
    {
      "icao": "LIPE",
      "iata": "BLQ",
      "name": "Bologna Guglielmo Marconi Airport",
      "lat": 44.5354,
      "lon": 11.2887,
      "updatedAt": "211620Z",
      "visibility_m": 8000,
      "taf_visibility_m": 10000,
      "worst_visibility_m": 8000,
      "ceiling_ft": 6000,
      "hazards": [],
      "severityScore": 0,
      "metarRaw": "METAR LIPE 211620Z 12002KT 8000 BKN060 05/M00 Q1008",
      "tafRaw": "TAF LIPE 211100Z 2112/2212 VRB05KT 9999 FEW030"
    },
    {
      "icao": "LIPH",
      "iata": "TSF",
      "name": "Treviso Antonio Canova Airport",
      "lat": 45.648399,
      "lon": 12.1944,
      "updatedAt": "211620Z",
      "visibility_m": 10000,
      "taf_visibility_m": 10000,
      "worst_visibility_m": 10000,
      "ceiling_ft": null,
      "hazards": [],
      "severityScore": 0,
      "metarRaw": "METAR LIPH 211620Z 36003KT CAVOK 05/M08 Q1008",
      "tafRaw": "TAF LIPH 211100Z 2112/2212 VRB05KT CAVOK"
    },
    {
      "icao": "LIPQ",
      "iata": "TRS",
      "name": "Trieste–Friuli Venezia Giulia Airport",
      "lat": 45.827499,
      "lon": 13.4722,
      "updatedAt": "211620Z",
      "visibility_m": 10000,
      "taf_visibility_m": 10000,
      "worst_visibility_m": 10000,
      "ceiling_ft": null,
      "hazards": [],
      "severityScore": 0,
      "metarRaw": "METAR LIPQ 211620Z AUTO 10006KT 9999 NCD 02/M08 Q1008",
      "tafRaw": "TAF LIPQ 211100Z 2112/2212 VRB05KT CAVOK"
    },
    {
      "icao": "LIPR",
      "iata": "RMI",
      "name": "Federico Fellini International Airport",
      "lat": 44.020024,
      "lon": 12.612198,
      "updatedAt": "211620Z",
      "visibility_m": 10000,
      "taf_visibility_m": 10000,
      "worst_visibility_m": 10000,
      "ceiling_ft": 2000,
      "hazards": [],
      "severityScore": 0,
      "metarRaw": "METAR LIPR 211620Z 30007KT 9999 BKN020 04/M00 Q1008",
      "tafRaw": "TAF LIPR 211100Z 2112/2212 30008KT 9999 FEW020 SCT040"
    },
    {
      "icao": "LIPZ",
      "iata": "VCE",
      "name": "Venice Marco Polo Airport",
      "lat": 45.505299,
      "lon": 12.3519,
      "updatedAt": "211620Z",
      "visibility_m": 10000,
      "taf_visibility_m": 10000,
      "worst_visibility_m": 10000,
      "ceiling_ft": null,
      "hazards": [],
      "severityScore": 0,
      "metarRaw": "METAR LIPZ 211620Z 11002KT CAVOK 03/M05 Q1008 NOSIG",
      "tafRaw": "TAF LIPZ 211100Z 2112/2218 02006KT CAVOK"
    },
    {
      "icao": "LIRF",
      "iata": "FCO",
      "name": "Rome–Fiumicino Leonardo da Vinci International Airport",
      "lat": 41.804532,
      "lon": 12.251998,
      "updatedAt": "211620Z",
      "visibility_m": 10000,
      "taf_visibility_m": 10000,
      "worst_visibility_m": 10000,
      "ceiling_ft": null,
      "hazards": [],
      "severityScore": 0,
      "metarRaw": "METAR LIRF 211620Z 04002KT CAVOK 09/04 Q1002 NOSIG",
      "tafRaw": "TAF LIRF 211100Z 2112/2218 34007KT 9999 SCT050 \n  BECMG 2200/2202 05010KT \n  BECMG 2209/2211 VRB05KT"
    },
    {
      "icao": "LIRN",
      "iata": "NAP",
      "name": "Naples International Airport",
      "lat": 40.886002,
      "lon": 14.2908,
      "updatedAt": "211620Z",
      "visibility_m": 10000,
      "taf_visibility_m": 10000,
      "worst_visibility_m": 10000,
      "ceiling_ft": 7000,
      "hazards": [],
      "severityScore": 0,
      "metarRaw": "METAR LIRN 211620Z 02007KT 9999 BKN070 10/05 Q1001 NOSIG",
      "tafRaw": "TAF LIRN 211100Z 2112/2212 05015G28KT 9999 BKN060 \n  BECMG 2116/2118 05012KT \n  BECMG 2120/2122 VRB05KT"
    },
    {
      "icao": "LIRP",
      "iata": "PSA",
      "name": "Pisa International Airport",
      "lat": 43.683899,
      "lon": 10.3927,
      "updatedAt": "211615Z",
      "visibility_m": 10000,
      "taf_visibility_m": 10000,
      "worst_visibility_m": 10000,
      "ceiling_ft": null,
      "hazards": [],
      "severityScore": 0,
      "metarRaw": "METAR LIRP 211615Z 12009KT CAVOK 08/02 Q1004 NOSIG",
      "tafRaw": "TAF LIRP 211100Z 2112/2212 12008KT CAVOK \n  TEMPO 2113/2115 06010KT"
    },
    {
      "icao": "LKMT",
      "iata": "OSR",
      "name": "Leoš Janáček Airport Ostrava",
      "lat": 49.696301,
      "lon": 18.111099,
      "updatedAt": "211600Z",
      "visibility_m": 10000,
      "taf_visibility_m": 10000,
      "worst_visibility_m": 10000,
      "ceiling_ft": null,
      "hazards": [],
      "severityScore": 0,
      "metarRaw": "METAR LKMT 211600Z 25009KT CAVOK M04/M08 Q1010 NOSIG",
      "tafRaw": "TAF LKMT 211100Z 2112/2212 23014KT CAVOK \n  BECMG 2200/2202 VRB02KT \n  BECMG 2207/2209 03004KT"
    },
    {
      "icao": "LRBV",
      "iata": "GHV",
      "name": "Brașov-Ghimbav International Airport",
      "lat": 45.70558,
      "lon": 25.522871,
      "updatedAt": "211600Z",
      "visibility_m": 10000,
      "taf_visibility_m": 10000,
      "worst_visibility_m": 10000,
      "ceiling_ft": null,
      "hazards": [],
      "severityScore": 0,
      "metarRaw": "METAR LRBV 211600Z 00000KT CAVOK M07/M09 Q1014",
      "tafRaw": "TAF LRBV 211400Z 2115/2124 22006KT CAVOK"
    },
    {
      "icao": "LRCL",
      "iata": "CLJ",
      "name": "Cluj Avram Iancu International Airport",
      "lat": 46.787425,
      "lon": 23.684292,
      "updatedAt": "211600Z",
      "visibility_m": 6000,
      "taf_visibility_m": 10000,
      "worst_visibility_m": 6000,
      "ceiling_ft": null,
      "hazards": [],
      "severityScore": 0,
      "metarRaw": "METAR LRCL 211600Z VRB01KT 6000 NSC M08/M09 Q1014",
      "tafRaw": "TAF LRCL 211400Z 2115/2124 VRB04KT CAVOK"
    },
    {
      "icao": "LRSM",
      "iata": "SUJ",
      "name": "Satu Mare International Airport",
      "lat": 47.7033,
      "lon": 22.8857,
      "updatedAt": "211600Z",
      "visibility_m": 10000,
      "taf_visibility_m": 10000,
      "worst_visibility_m": 10000,
      "ceiling_ft": null,
      "hazards": [],
      "severityScore": 0,
      "metarRaw": "METAR LRSM 211600Z VRB02KT CAVOK M04/M07 Q1014",
      "tafRaw": "TAF LRSM 211400Z 2115/2124 VRB04KT CAVOK"
    },
    {
      "icao": "LWOH",
      "iata": "OHD",
      "name": "Ohrid St. Paul the Apostle Airport",
      "lat": 41.18,
      "lon": 20.7423,
      "updatedAt": "211620Z",
      "visibility_m": 10000,
      "taf_visibility_m": 10000,
      "worst_visibility_m": 10000,
      "ceiling_ft": 4000,
      "hazards": [],
      "severityScore": 0,
      "metarRaw": "METAR LWOH 211620Z 03008KT 360V060 9999 FEW020 BKN040 03/M01 Q1010",
      "tafRaw": "TAF LWOH 211430Z 2115/2215 02010KT 9999 FEW020 SCT020 BKN090"
    },
    {
      "icao": "LYNI",
      "iata": "INI",
      "name": "Niš Constantine the Great Airport",
      "lat": 43.336538,
      "lon": 21.856242,
      "updatedAt": "211600Z",
      "visibility_m": 10000,
      "taf_visibility_m": 10000,
      "worst_visibility_m": 10000,
      "ceiling_ft": 8700,
      "hazards": [],
      "severityScore": 0,
      "metarRaw": "METAR LYNI 211600Z 09015KT 9999 FEW050 BKN087 03/M04 Q1013 NOSIG",
      "tafRaw": "TAF LYNI 211100Z 2112/2212 10014KT 9999 BKN050 BKN080 TX05/2113Z TN01/2205Z \n  TEMPO 2112/2118 10015G25KT \n  BECMG 2210/2212 10004KT"
    },
    {
      "icao": "OEJN",
      "iata": "JED",
      "name": "King Abdulaziz International Airport",
      "lat": 21.6796,
      "lon": 39.156502,
      "updatedAt": "211600Z",
      "visibility_m": 10000,
      "taf_visibility_m": 2000,
      "worst_visibility_m": 2000,
      "ceiling_ft": null,
      "hazards": [],
      "severityScore": 0,
      "metarRaw": "METAR OEJN 211600Z 30008KT CAVOK 27/18 Q1013 NOSIG",
      "tafRaw": "TAF OEJN 211100Z 2112/2218 32010KT CAVOK \n  BECMG 2122/2200 09015KT 7000 NSC \n  TEMPO 2122/2204 2000 BLDU \n  BECMG 2208/2210 22010KT"
    },
    {
      "icao": "OEMA",
      "iata": "MED",
      "name": "Prince Mohammad Bin Abdulaziz Airport",
      "lat": 24.5534,
      "lon": 39.705101,
      "updatedAt": "211600Z",
      "visibility_m": 10000,
      "taf_visibility_m": 3000,
      "worst_visibility_m": 3000,
      "ceiling_ft": null,
      "hazards": [],
      "severityScore": 0,
      "metarRaw": "METAR OEMA 211600Z 07013KT CAVOK 21/M03 Q1021 NOSIG",
      "tafRaw": "TAF OEMA 211100Z 2112/2218 09012KT 7000 NSC \n  PROB40 \n  TEMPO 2112/2120 3000 DU"
    },
    {
      "icao": "OJAI",
      "iata": "AMM",
      "name": "Queen Alia International Airport",
      "lat": 31.7226009369,
      "lon": 35.9931983948,
      "updatedAt": "211600Z",
      "visibility_m": 4000,
      "taf_visibility_m": 3000,
      "worst_visibility_m": 3000,
      "ceiling_ft": null,
      "hazards": [],
      "severityScore": 0,
      "metarRaw": "METAR OJAI 211600Z 09016KT 4000 BLDU NSC 08/M04 Q1023 NOSIG",
      "tafRaw": "TAF OJAI 211100Z 2112/2218 10014KT 5000 HZ FEW030 \n  PROB40 \n  TEMPO 2112/2121 12022KT 3000 BLDU"
    },
    {
      "icao": "OMAA",
      "iata": "AUH",
      "name": "Zayed International Airport",
      "lat": 24.440966,
      "lon": 54.649237,
      "updatedAt": "211600Z",
      "visibility_m": 10000,
      "taf_visibility_m": 8000,
      "worst_visibility_m": 8000,
      "ceiling_ft": null,
      "hazards": [],
      "severityScore": 0,
      "metarRaw": "METAR OMAA 211600Z 30016KT 9999 SCT045 19/10 Q1019 NOSIG",
      "tafRaw": "TAF OMAA 211100Z 2112/2218 30013KT 8000 SCT040 \n  PROB30 \n  TEMPO 2112/2114 32015G25KT \n  PROB30 \n  TEMPO 2204/2213 32015G25KT"
    },
    {
      "icao": "OMDB",
      "iata": "DXB",
      "name": "Dubai International Airport",
      "lat": 25.2527999878,
      "lon": 55.3643989563,
      "updatedAt": "211600Z",
      "visibility_m": 10000,
      "taf_visibility_m": 8000,
      "worst_visibility_m": 8000,
      "ceiling_ft": null,
      "hazards": [],
      "severityScore": 0,
      "metarRaw": "METAR OMDB 211600Z 28017KT CAVOK 20/08 Q1017 TEMPO 29020G30KT",
      "tafRaw": "TAF OMDB 211100Z 2112/2218 29014KT 8000 NSC \n  PROB40 \n  TEMPO 2112/2118 29020G30KT \n  BECMG 2204/2206 35014KT \n  PROB30 \n  TEMPO 2207/2213 35017G27KT \n  BECMG 2216/2218 06006KT"
    },
    {
      "icao": "UBBB",
      "iata": "GYD",
      "name": "Heydar Aliyev International Airport",
      "lat": 40.467498779296875,
      "lon": 50.04669952392578,
      "updatedAt": "211600Z",
      "visibility_m": 10000,
      "taf_visibility_m": 10000,
      "worst_visibility_m": 10000,
      "ceiling_ft": 2000,
      "hazards": [],
      "severityScore": 0,
      "metarRaw": "METAR UBBB 211600Z 28006KT CAVOK M01/M02 Q1028 NOSIG",
      "tafRaw": "TAF UBBB 211046Z 2112/2212 31012KT 9999 SCT025 TX04/2112Z TN00/2201Z \n  TEMPO 2112/2115 29008KT BKN020 \n  BECMG 2115/2117 26005KT \n  TEMPO 2117/2119 VRB04KT \n  BECMG 2119/2121 21008KT \n  TEMPO 2200/2212 24014KT"
    },
    {
      "icao": "UDYZ",
      "iata": "EVN",
      "name": "Zvartnots International Airport",
      "lat": 40.148941,
      "lon": 44.397887,
      "updatedAt": "211600Z",
      "visibility_m": 10000,
      "taf_visibility_m": 6000,
      "worst_visibility_m": 6000,
      "ceiling_ft": null,
      "hazards": [],
      "severityScore": 0,
      "metarRaw": "METAR UDYZ 211600Z 09005KT 9999 NSC M03/M08 Q1027 NOSIG",
      "tafRaw": "TAF UDYZ 211100Z 2112/2212 VRB04KT 6000 NSC"
    }
  ],
  "stats": {
    "icaoCount": 159,
    "metarReturned": 158,
    "tafReturned": 150,
    "stationsWritten": 159,
    "missingMetar": 1,
    "missingTaf": 9
  },
  "errors": []
}