{
  "generatedAt": "2026-01-16T10:55:50.672Z",
  "stations": [
    {
      "icao": "BKPR",
      "iata": "PRN",
      "name": "Priština Adem Jashari International Airport",
      "updatedAt": null,
      "visibility_m": null,
      "taf_visibility_m": 150,
      "worst_visibility_m": 150,
      "ceiling_ft": 300,
      "hazards": [
        "FZFG",
        "BR",
        "FG"
      ],
      "severityScore": 100,
      "metarRaw": null,
      "tafRaw": "TAF BKPR 160530Z 1606/1706 VRB03KT 5000 BR SCT030 \n  TEMPO 1606/1608 2000 \n  BECMG 1608/1610 9999 NSW \n  BECMG 1621/1623 3000 BR \n  PROB40 1701/1706 0150 FZFG BKN003"
    },
    {
      "icao": "EDDH",
      "iata": "HAM",
      "name": "Hamburg Helmut Schmidt Airport",
      "updatedAt": "161050Z",
      "visibility_m": 10000,
      "taf_visibility_m": 500,
      "worst_visibility_m": 500,
      "ceiling_ft": 100,
      "hazards": [
        "FG",
        "BR"
      ],
      "severityScore": 100,
      "metarRaw": "METAR EDDH 161050Z AUTO 16008KT CAVOK 09/06 Q1012 NOSIG",
      "tafRaw": "TAF EDDH 160500Z 1606/1712 15010KT CAVOK \n  BECMG 1610/1612 23009KT \n  BECMG 1614/1616 17003KT \n  BECMG 1623/1701 11005KT \n  PROB40 \n  TEMPO 1701/1706 3500 BR BKN005 \n  PROB30 \n  TEMPO 1704/1708 0500 FG OVC001"
    },
    {
      "icao": "EGPD",
      "iata": "ABZ",
      "name": "Aberdeen International Airport",
      "updatedAt": "161050Z",
      "visibility_m": 10000,
      "taf_visibility_m": 300,
      "worst_visibility_m": 300,
      "ceiling_ft": 600,
      "hazards": [
        "FZFG",
        "FG",
        "BR",
        "RA",
        "DZ"
      ],
      "severityScore": 100,
      "metarRaw": "METAR EGPD 161050Z COR AUTO VRB02KT 9999 NCD M01/M03 Q1002 NOSIG",
      "tafRaw": "TAF EGPD 160455Z 1606/1706 VRB03KT 9999 FEW040 \n  PROB30 1606/1610 0300 FG FZFG VV/// \n  PROB30 \n  TEMPO 1615/1617 6000 -RADZ BKN014 \n  TEMPO 1617/1706 3000 BR \n  PROB30 1620/1701 0300 FG VV/// \n  PROB30 \n  TEMPO 1701/1706 BKN006"
    },
    {
      "icao": "EPGD",
      "iata": "GDN",
      "name": "Gdańsk Lech Wałęsa Airport",
      "updatedAt": "161030Z",
      "visibility_m": 600,
      "taf_visibility_m": null,
      "worst_visibility_m": 600,
      "ceiling_ft": 100,
      "hazards": [
        "FZFG",
        "FG"
      ],
      "severityScore": 100,
      "metarRaw": "METAR EPGD 161030Z 16010KT 0600 R29/0750N FZFG OVC001 M02/M03 Q1023",
      "tafRaw": null
    },
    {
      "icao": "EPKK",
      "iata": "KRK",
      "name": "Kraków John Paul II International Airport",
      "updatedAt": "161030Z",
      "visibility_m": 10000,
      "taf_visibility_m": 600,
      "worst_visibility_m": 600,
      "ceiling_ft": 200,
      "hazards": [
        "FZFG",
        "BR",
        "FG"
      ],
      "severityScore": 100,
      "metarRaw": "METAR EPKK 161030Z 07011KT CAVOK 02/M01 Q1023",
      "tafRaw": "TAF EPKK 160830Z 1609/1709 06008KT 7000 BKN045 \n  TEMPO 1609/1616 BKN007 \n  BECMG 1616/1619 4000 BR BKN006 \n  PROB40 \n  TEMPO 1621/1706 0600 FZFG OVC002"
    },
    {
      "icao": "EPKT",
      "iata": "KTW",
      "name": "Katowice Wojciech Korfanty International Airport",
      "updatedAt": "161030Z",
      "visibility_m": 10000,
      "taf_visibility_m": 400,
      "worst_visibility_m": 400,
      "ceiling_ft": 100,
      "hazards": [
        "FZFG",
        "FG",
        "BR"
      ],
      "severityScore": 100,
      "metarRaw": "METAR EPKT 161030Z 12004KT CAVOK 04/01 Q1022",
      "tafRaw": "TAF EPKT 160530Z 1606/1706 12005KT 5000 BR SCT007 OVC040 \n  TEMPO 1606/1615 3000 BR BKN009 \n  PROB30 \n  TEMPO 1606/1608 0600 FG OVC002 \n  BECMG 1615/1618 3000 BR BKN004 \n  TEMPO 1618/1706 0800 FG OVC001 \n  PROB30 \n  TEMPO 1700/1706 0400 FZFG"
    },
    {
      "icao": "EPWR",
      "iata": "WRO",
      "name": "Copernicus Wrocław Airport",
      "updatedAt": "161030Z",
      "visibility_m": 10000,
      "taf_visibility_m": 300,
      "worst_visibility_m": 300,
      "ceiling_ft": 100,
      "hazards": [
        "FG",
        "BR"
      ],
      "severityScore": 100,
      "metarRaw": "METAR EPWR 161030Z 13013KT CAVOK 03/02 Q1021",
      "tafRaw": "TAF EPWR 160830Z 1609/1709 13006KT 4000 BR NSC \n  BECMG 1609/1612 8000 \n  BECMG 1615/1617 2000 BR \n  BECMG 1617/1620 0500 FG OVC003 \n  TEMPO 1620/1709 0300 FG OVC001"
    },
    {
      "icao": "ESMS",
      "iata": "MMX",
      "name": "Malmö Sturup Airport",
      "updatedAt": "161050Z",
      "visibility_m": 1700,
      "taf_visibility_m": 500,
      "worst_visibility_m": 500,
      "ceiling_ft": 300,
      "hazards": [
        "BR",
        "FG"
      ],
      "severityScore": 100,
      "metarRaw": "METAR ESMS 161050Z 15013KT 1700 BR OVC003 03/03 Q1015",
      "tafRaw": "TAF ESMS 160827Z 1609/1709 14015KT 0500 FG OVC002 \n  TEMPO 1609/1610 6000 NSW BKN015 \n  BECMG 1610/1612 16005KT 9000 NSW SCT020 \n  TEMPO 1612/1615 BKN012 \n  BECMG 1701/1703 1200 BR BKN002 \n  TEMPO 1703/1709 6000 NSW BKN012"
    },
    {
      "icao": "LFBD",
      "iata": "BOD",
      "name": "Bordeaux–Mérignac Airport",
      "updatedAt": "161030Z",
      "visibility_m": 10000,
      "taf_visibility_m": 500,
      "worst_visibility_m": 500,
      "ceiling_ft": 1400,
      "hazards": [
        "RA",
        "FG",
        "BR",
        "SHRA"
      ],
      "severityScore": 100,
      "metarRaw": "METAR LFBD 161030Z AUTO 14004KT 9999 -RA BKN035/// BKN043/// OVC050/// ///TCU 09/08 Q1012 TEMPO BKN014",
      "tafRaw": "TAF LFBD 160500Z 1606/1712 21010KT 9999 BKN040 TX11/1615Z TN05/1704Z \n  BECMG 1606/1609 15005KT \n  PROB40 \n  TEMPO 1606/1609 3000 -SHRA BKN010 BKN040TCU \n  PROB30 \n  TEMPO 1609/1615 BKN014 \n  BECMG 1620/1622 VRB03KT \n  TEMPO 1622/1710 4000 BR \n  PROB30 \n  TEMPO 1702/1710 0500 FG VV///"
    },
    {
      "icao": "LIMC",
      "iata": "MXP",
      "name": "Milan Malpensa International Airport",
      "updatedAt": "161050Z",
      "visibility_m": 3000,
      "taf_visibility_m": 800,
      "worst_visibility_m": 800,
      "ceiling_ft": 300,
      "hazards": [
        "BR",
        "FG",
        "RA"
      ],
      "severityScore": 100,
      "metarRaw": "METAR LIMC 161050Z VRB02KT 3000 BR OVC003 07/06 Q1022 NOSIG",
      "tafRaw": "TAF LIMC 160500Z 1606/1712 VRB05KT 2000 -RA BR BKN003 BKN040 \n  TEMPO 1606/1610 0800 FG SCT010 BKN040 \n  BECMG 1616/1618 1200 BCFG BKN003 BKN040"
    },
    {
      "icao": "LIPE",
      "iata": "BLQ",
      "name": "Bologna Guglielmo Marconi Airport",
      "updatedAt": "161050Z",
      "visibility_m": 2500,
      "taf_visibility_m": 300,
      "worst_visibility_m": 300,
      "ceiling_ft": 600,
      "hazards": [
        "BR",
        "FG"
      ],
      "severityScore": 100,
      "metarRaw": "METAR LIPE 161050Z VRB01KT 2500 BR BKN006 08/06 Q1023",
      "tafRaw": "TAF LIPE 160500Z 1606/1706 VRB04KT 2000 BR BKN020 \n  TEMPO 1606/1609 0300 FG BKN001"
    },
    {
      "icao": "LIPR",
      "iata": "RMI",
      "name": "Federico Fellini International Airport",
      "updatedAt": "161050Z",
      "visibility_m": 2500,
      "taf_visibility_m": 300,
      "worst_visibility_m": 300,
      "ceiling_ft": 400,
      "hazards": [
        "BR",
        "FG"
      ],
      "severityScore": 100,
      "metarRaw": "METAR LIPR 161050Z 30006KT 2500 BR BKN004 06/06 Q1023",
      "tafRaw": "TAF LIPR 160500Z 1606/1706 VRB04KT 2000 BR BKN020 \n  TEMPO 1606/1609 0300 FG BKN001"
    },
    {
      "icao": "LIPY",
      "iata": "AOI",
      "name": "Marche Airport",
      "updatedAt": "161020Z",
      "visibility_m": 200,
      "taf_visibility_m": null,
      "worst_visibility_m": 200,
      "ceiling_ft": 200,
      "hazards": [
        "FG"
      ],
      "severityScore": 100,
      "metarRaw": "METAR LIPY 161020Z AUTO VRB01KT 0200 R22/0450N FG VV002 07/07 Q1023",
      "tafRaw": null
    },
    {
      "icao": "LKMT",
      "iata": "OSR",
      "name": "Ostrava Leos Janáček Airport",
      "updatedAt": "161030Z",
      "visibility_m": 4000,
      "taf_visibility_m": 400,
      "worst_visibility_m": 400,
      "ceiling_ft": 1100,
      "hazards": [
        "BR",
        "FZFG",
        "FG"
      ],
      "severityScore": 100,
      "metarRaw": "METAR LKMT 161030Z 15003KT 4000 BR OVC011 03/02 Q1023 NOSIG",
      "tafRaw": "TAF LKMT 160500Z 1606/1706 22008KT 5000 BR SCT008 BKN030 \n  PROB30 \n  TEMPO 1606/1610 1200 BR BKN005 OVC014 \n  TEMPO 1616/1620 VRB02KT 2000 BR BKN004 OVC012 \n  PROB40 \n  TEMPO 1621/1706 0400 FZFG VV002"
    },
    {
      "icao": "LKPR",
      "iata": "PRG",
      "name": "Václav Havel Airport Prague",
      "updatedAt": "161030Z",
      "visibility_m": 3300,
      "taf_visibility_m": 500,
      "worst_visibility_m": 500,
      "ceiling_ft": 600,
      "hazards": [
        "BR",
        "FG",
        "DZ"
      ],
      "severityScore": 100,
      "metarRaw": "METAR LKPR 161030Z 09008KT 3300 BR FEW003 SCT004 OVC006 M00/M00 Q1021 NOSIG",
      "tafRaw": "TAF LKPR 160800Z 1609/1715 12005KT 1200 BR OVC002 \n  BECMG 1609/1611 2500 BR BKN003 \n  TEMPO 1611/1617 3500 BR BKN005 \n  BECMG 1617/1619 1200 BR OVC002 \n  TEMPO 1620/1708 0500 -DZ FG"
    },
    {
      "icao": "LOWW",
      "iata": "VIE",
      "name": "Vienna International Airport",
      "updatedAt": "161050Z",
      "visibility_m": 500,
      "taf_visibility_m": 300,
      "worst_visibility_m": 300,
      "ceiling_ft": 200,
      "hazards": [
        "FZFG",
        "BR",
        "FG",
        "FZDZ",
        "DZ"
      ],
      "severityScore": 100,
      "metarRaw": "METAR LOWW 161050Z 15005KT 0500 R16/0650N R29/0650N FZFG FEW000 OVC002 M00/M01 Q1023 TEMPO FM1200 1000 BR OVC003",
      "tafRaw": "TAF LOWW 160815Z 1609/1715 14008KT 0400 -FZDZ FZFG VV001 TX01/1704Z TNM01/1609Z \n  BECMG 1609/1612 2000 -DZ BR OVC003 \n  TEMPO 1612/1616 4000 BR \n  BECMG 1616/1618 0600 FG VV002 \n  TEMPO 1616/1624 0300 -DZ FG VV001 \n  BECMG 1708/1710 4000 BR BKN005 \n  TEMPO 1710/1715 13015G25KT 8000 SCT005 BKN030"
    },
    {
      "icao": "LQBK",
      "iata": "BNX",
      "name": "Banja Luka International Airport",
      "updatedAt": "161030Z",
      "visibility_m": 8000,
      "taf_visibility_m": 400,
      "worst_visibility_m": 400,
      "ceiling_ft": 200,
      "hazards": [
        "FG",
        "BR"
      ],
      "severityScore": 100,
      "metarRaw": "METAR LQBK 161030Z 18002KT 8000 NSC 06/03 Q1022 NOSIG",
      "tafRaw": "TAF LQBK 160500Z 1606/1706 15005KT 9999 SCT047 TX11/1613Z TN00/1705Z \n  TEMPO 1622/1706 3000 BR BKN005 \n  PROB30 \n  TEMPO 1700/1706 0400 FG BKN002"
    },
    {
      "icao": "LQTZ",
      "iata": "TZL",
      "name": "Tuzla International Airport",
      "updatedAt": "161030Z",
      "visibility_m": 5000,
      "taf_visibility_m": 400,
      "worst_visibility_m": 400,
      "ceiling_ft": 200,
      "hazards": [
        "BR",
        "FZFG",
        "FG"
      ],
      "severityScore": 100,
      "metarRaw": "METAR LQTZ 161030Z 12004KT 5000 BR FEW008 SCT061 05/03 Q1023",
      "tafRaw": "TAF LQTZ 160500Z 1606/1706 VRB02KT 6000 SCT050 TX10/1613Z TNM02/1705Z \n  TEMPO 1606/1609 3000 BR \n  TEMPO 1620/1706 2000 BR BKN005 \n  PROB30 \n  TEMPO 1700/1706 0400 FZFG BKN002"
    },
    {
      "icao": "UAAA",
      "iata": "ALA",
      "name": "Almaty International Airport",
      "updatedAt": "161046Z",
      "visibility_m": 2500,
      "taf_visibility_m": 600,
      "worst_visibility_m": 600,
      "ceiling_ft": 2600,
      "hazards": [
        "BR",
        "SN",
        "FZFG",
        "BLSN",
        "SHSN",
        "FG"
      ],
      "severityScore": 100,
      "metarRaw": "SPECI UAAA 161046Z 27005MPS 2500 -SN BR OVC026 M12/M14 Q1019 NOSIG",
      "tafRaw": "TAF UAAA 160504Z 1606/1706 33003G08MPS 3100 -SHSN BR BKN011CB OVC030 TXM07/1608Z TNM18/1703Z \n  TEMPO 1606/1616 26005G12MPS 1200 SN BR OVC003 \n  TEMPO 1616/1704 33008G13MPS 0600 SHSN BLSN FZFG VV002"
    },
    {
      "icao": "LZIB",
      "iata": "BTS",
      "name": "M. R. Štefánik Airport",
      "updatedAt": "161030Z",
      "visibility_m": 700,
      "taf_visibility_m": null,
      "worst_visibility_m": 700,
      "ceiling_ft": 200,
      "hazards": [
        "FG",
        "BR"
      ],
      "severityScore": 95,
      "metarRaw": "METAR LZIB 161030Z 04005KT 1400 R31/1700N R22/1500N BR SCT002 OVC003 00/00 Q1024 TEMPO 0700 FG FEW001 OVC002",
      "tafRaw": null
    },
    {
      "icao": "LZTT",
      "iata": "TAT",
      "name": "Poprad-Tatry Airport",
      "updatedAt": "161030Z",
      "visibility_m": 500,
      "taf_visibility_m": null,
      "worst_visibility_m": 500,
      "ceiling_ft": 300,
      "hazards": [
        "FG"
      ],
      "severityScore": 95,
      "metarRaw": "METAR LZTT 161030Z VRB02KT 0500 R27/0900N FG OVC003 01/00 Q1022 NOSIG",
      "tafRaw": null
    },
    {
      "icao": "LFPO",
      "iata": "ORY",
      "name": "Paris-Orly Airport",
      "updatedAt": "161030Z",
      "visibility_m": 10000,
      "taf_visibility_m": 800,
      "worst_visibility_m": 800,
      "ceiling_ft": 1300,
      "hazards": [
        "FG",
        "BR",
        "SHRA",
        "RA"
      ],
      "severityScore": 93,
      "metarRaw": "METAR LFPO 161030Z AUTO 20007KT 170V230 9999 BKN013 BKN021 OVC026 09/07 Q1013",
      "tafRaw": "TAF LFPO 160500Z 1606/1712 21010KT 9999 SCT012 BKN020 \n  TEMPO 1606/1612 BKN012 \n  PROB40 \n  TEMPO 1606/1610 BKN007 \n  BECMG 1616/1618 15005KT CAVOK \n  PROB30 1620/1624 -SHRA SCT008 BKN050TCU \n  BECMG 1702/1705 4000 BR BKN006 \n  TEMPO 1705/1710 2500 BR BKN003 \n  PROB40 \n  TEMPO 1706/1709 0800 FG BKN002 \n  BECMG 1710/1712 9999 NSW BKN010"
    },
    {
      "icao": "LIRZ",
      "iata": "PEG",
      "name": "Perugia San Francesco d'Assisi – Umbria International Airport",
      "updatedAt": "161020Z",
      "visibility_m": 10000,
      "taf_visibility_m": 800,
      "worst_visibility_m": 800,
      "ceiling_ft": 200,
      "hazards": [
        "FG",
        "BR"
      ],
      "severityScore": 90,
      "metarRaw": "METAR LIRZ 161020Z AUTO VRB01KT 9999 NCD 09/07 Q1021",
      "tafRaw": "TAF LIRZ 160500Z 1606/1706 VRB04KT 4000 BR FEW040 \n  TEMPO 1606/1609 0800 FG OVC002 \n  BECMG 1609/1611 9000 \n  TEMPO 1703/1706 1500 BCFG"
    },
    {
      "icao": "LEMD",
      "iata": "MAD",
      "name": "Adolfo Suárez Madrid–Barajas Airport",
      "updatedAt": "161030Z",
      "visibility_m": 10000,
      "taf_visibility_m": 800,
      "worst_visibility_m": 800,
      "ceiling_ft": 1200,
      "hazards": [
        "FG",
        "BR",
        "RA",
        "DZ"
      ],
      "severityScore": 89,
      "metarRaw": "METAR LEMD 161030Z 19006KT 150V220 9999 SCT004 BKN012 08/08 Q1012 NOSIG",
      "tafRaw": "TAF LEMD 160500Z 1606/1712 VRB04KT 9999 SCT020 TX11/1615Z TN05/1607Z \n  TEMPO 1606/1610 3000 BR BCFG BKN004 BKN010 \n  PROB30 \n  TEMPO 1606/1608 0800 FG VV002 \n  PROB30 \n  TEMPO 1609/1613 DZRA BKN014 \n  TEMPO 1611/1618 22010KT \n  TEMPO 1623/1709 4000 DZRA BR BKN010"
    },
    {
      "icao": "LFOB",
      "iata": "BVA",
      "name": "Beauvais Tillé airport",
      "updatedAt": "161030Z",
      "visibility_m": 10000,
      "taf_visibility_m": 400,
      "worst_visibility_m": 400,
      "ceiling_ft": 1300,
      "hazards": [
        "FG",
        "BR",
        "RA"
      ],
      "severityScore": 89,
      "metarRaw": "METAR LFOB 161030Z AUTO 19010KT 9999 FEW016 SCT030 10/07 Q1011 BECMG BKN013 OVC018",
      "tafRaw": "TAF LFOB 160500Z 1606/1706 VRB03KT 9999 SCT012 BKN040 \n  BECMG 1606/1608 BKN008 OVC012 \n  TEMPO 1607/1610 4000 BR BKN004 OVC007 \n  BECMG 1612/1614 18010KT BKN013 OVC018 \n  BECMG 1616/1619 12005KT \n  BECMG 1619/1622 4000 -RA BR SCT020 BKN060 \n  PROB30 1622/1624 0800 FG \n  PROB40 1700/1706 0400 FG VV///"
    },
    {
      "icao": "EGGP",
      "iata": "LPL",
      "name": "Liverpool John Lennon Airport",
      "updatedAt": "161050Z",
      "visibility_m": 10000,
      "taf_visibility_m": 3000,
      "worst_visibility_m": 3000,
      "ceiling_ft": 400,
      "hazards": [
        "BR",
        "RA",
        "DZ",
        "FG"
      ],
      "severityScore": 87,
      "metarRaw": "METAR EGGP 161050Z 15007KT 9999 FEW023 06/05 Q1004",
      "tafRaw": "TAF EGGP 160500Z 1606/1706 15009KT 9999 FEW040 \n  TEMPO 1606/1612 3000 -DZ BR MIFG BKN004 \n  PROB30 \n  TEMPO 1606/1608 RADZ \n  PROB30 \n  TEMPO 1619/1622 6000 RA BKN012 \n  TEMPO 1622/1706 6000 RA BKN009 \n  PROB30 \n  TEMPO 1700/1706 4000 +RA"
    },
    {
      "icao": "ENGM",
      "iata": "OSL",
      "name": "Oslo-Gardermoen International Airport",
      "updatedAt": "161050Z",
      "visibility_m": 1200,
      "taf_visibility_m": 1000,
      "worst_visibility_m": 1000,
      "ceiling_ft": 300,
      "hazards": [
        "BR",
        "SN",
        "RA"
      ],
      "severityScore": 85,
      "metarRaw": "METAR ENGM 161050Z 05003KT 030V090 2800 -RASN BR OVC003 00/M00 Q1008 TEMPO 1200 RASN BR BKN005",
      "tafRaw": "TAF ENGM 160500Z 1606/1706 VRB03KT 5000 -SNRA BR BKN010 \n  TEMPO 1606/1613 1000 RASN BR BKN003 \n  BECMG 1612/1614 18010KT RA \n  TEMPO 1613/1624 3000 BR BKN003 \n  PROB40 1700/1706 1200 BR BKN002"
    },
    {
      "icao": "LHBP",
      "iata": "BUD",
      "name": "Budapest Liszt Ferenc International Airport",
      "updatedAt": "161051Z",
      "visibility_m": 700,
      "taf_visibility_m": null,
      "worst_visibility_m": 700,
      "ceiling_ft": 200,
      "hazards": [
        "FG"
      ],
      "severityScore": 85,
      "metarRaw": "SPECI LHBP 161051Z 09006KT 0700 R13R/1200N R13L/0800N FG OVC002 01/01 Q1024 NOSIG",
      "tafRaw": null
    },
    {
      "icao": "EGKK",
      "iata": "LGW",
      "name": "London Gatwick Airport",
      "updatedAt": "161050Z",
      "visibility_m": 10000,
      "taf_visibility_m": 4000,
      "worst_visibility_m": 4000,
      "ceiling_ft": 400,
      "hazards": [
        "BR",
        "SHRA",
        "RA",
        "DZ"
      ],
      "severityScore": 81,
      "metarRaw": "METAR EGKK 161050Z 19006KT 9999 SCT046 08/07 Q1008",
      "tafRaw": "TAF EGKK 160455Z 1606/1712 07003KT 9999 SCT030 \n  BECMG 1606/1609 20010KT \n  TEMPO 1606/1607 4000 BR BKN004 \n  PROB40 \n  TEMPO 1606/1612 6000 SHRA BKN008 \n  PROB30 \n  TEMPO 1612/1623 7000 SHRA \n  PROB30 \n  TEMPO 1612/1616 BKN012 \n  BECMG 1615/1618 14010KT \n  PROB30 \n  TEMPO 1616/1623 BKN008 \n  TEMPO 1623/1712 7000 -RADZ BKN007 \n  PROB30 \n  TEMPO 1706/1711 4000 RADZ BKN004"
    },
    {
      "icao": "LIME",
      "iata": "BGY",
      "name": "Milan Bergamo Airport / Antonio Locatelli Air Base",
      "updatedAt": "161050Z",
      "visibility_m": 4500,
      "taf_visibility_m": 800,
      "worst_visibility_m": 800,
      "ceiling_ft": 500,
      "hazards": [
        "BR",
        "FG"
      ],
      "severityScore": 80,
      "metarRaw": "METAR LIME 161050Z VRB02KT 4500 2000E BR SCT010 08/06 Q1022 NOSIG",
      "tafRaw": "TAF LIME 160500Z 1606/1706 VRB03KT 2000 BR BKN020 \n  TEMPO 1606/1609 0800 FG BKN005 \n  BECMG 1616/1618 1200 BCFG BKN005"
    },
    {
      "icao": "EFTU",
      "iata": "TKU",
      "name": "Turku Airport",
      "updatedAt": "161050Z",
      "visibility_m": 10000,
      "taf_visibility_m": 2500,
      "worst_visibility_m": 2500,
      "ceiling_ft": 1400,
      "hazards": [
        "BR",
        "FZRA",
        "RA",
        "DZ"
      ],
      "severityScore": 79,
      "metarRaw": "METAR EFTU 161050Z AUTO 18012KT 150V220 9999 OVC014 01/M02 Q1025",
      "tafRaw": "TAF EFTU 160832Z 1609/1709 18010KT 9999 BKN012 \n  TEMPO 1609/1616 BKN009 \n  TEMPO 1616/1702 7000 -FZRA OVC008 \n  BECMG 1702/1704 4000 -FZRA BKN006 \n  BECMG 1704/1706 2500 -DZRA BKN003 \n  TEMPO 1706/1709 4000 BR"
    },
    {
      "icao": "LIBR",
      "iata": "BDS",
      "name": "Brindisi Airport",
      "updatedAt": "161050Z",
      "visibility_m": 10000,
      "taf_visibility_m": 1500,
      "worst_visibility_m": 1500,
      "ceiling_ft": 100,
      "hazards": [
        "BR",
        "FG"
      ],
      "severityScore": 75,
      "metarRaw": "METAR LIBR 161050Z VRB02KT CAVOK 15/10 Q1021",
      "tafRaw": "TAF LIBR 160500Z 1606/1706 VRB05KT 9999 FEW025 \n  TEMPO 1606/1608 1500 BCFG BKN001"
    },
    {
      "icao": "ENTO",
      "iata": "TRF",
      "name": "Sandefjord Airport, Torp",
      "updatedAt": "161050Z",
      "visibility_m": 1200,
      "taf_visibility_m": null,
      "worst_visibility_m": 1200,
      "ceiling_ft": 300,
      "hazards": [
        "BR",
        "RA"
      ],
      "severityScore": 72,
      "metarRaw": "METAR ENTO 161050Z 16016KT 3000 RA BR OVC003 04/04 Q1007 TEMPO 17016G26KT 1200 RA BR",
      "tafRaw": null
    },
    {
      "icao": "LRSB",
      "iata": "SBZ",
      "name": "Sibiu International Airport",
      "updatedAt": "161030Z",
      "visibility_m": 7000,
      "taf_visibility_m": 1500,
      "worst_visibility_m": 1500,
      "ceiling_ft": 1200,
      "hazards": [
        "RA",
        "BR",
        "SN",
        "DZ"
      ],
      "severityScore": 72,
      "metarRaw": "METAR LRSB 161030Z 10008KT 7000 -RA FEW005 BKN012 OVC020 02/02 Q1025 NOSIG",
      "tafRaw": "TAF LRSB 160500Z 1606/1706 VRB04KT 1500 -DZ BR OVC002 \n  BECMG 1607/1609 3000 -RA BR BKN005 OVC020 \n  BECMG 1609/1611 5000 -RA BR BKN010 OVC025 \n  BECMG 1614/1616 11010KT 3000 -SN BR \n  BECMG 1616/1618 9999 NSW BKN025 \n  BECMG 1622/1624 VRB04KT"
    },
    {
      "icao": "EKBI",
      "iata": "BLL",
      "name": "Billund Airport",
      "updatedAt": "161050Z",
      "visibility_m": 10000,
      "taf_visibility_m": 3000,
      "worst_visibility_m": 3000,
      "ceiling_ft": 400,
      "hazards": [
        "BR",
        "RA",
        "DZ"
      ],
      "severityScore": 67,
      "metarRaw": "METAR EKBI 161050Z AUTO 20017KT 170V230 9999 OVC008/// 07/06 Q1009",
      "tafRaw": "TAF EKBI 160827Z 1609/1709 17012KT 8000 BKN015 \n  TEMPO 1609/1616 21015G25KT 4000 -RADZ BR BKN008 \n  BECMG 1617/1620 3000 BR \n  TEMPO 1702/1706 BKN010 \n  PROB40 1707/1709 BKN004"
    },
    {
      "icao": "LHDC",
      "iata": "DEB",
      "name": "Debrecen International Airport",
      "updatedAt": "161015Z",
      "visibility_m": 4200,
      "taf_visibility_m": 700,
      "worst_visibility_m": 700,
      "ceiling_ft": 2200,
      "hazards": [
        "BR",
        "FG",
        "DZ"
      ],
      "severityScore": 65,
      "metarRaw": "METAR LHDC 161015Z AUTO 05005KT 4200 BR OVC022 02/01 Q1025 TEMPO 5000 BR",
      "tafRaw": "TAF LHDC 160815Z 1609/1618 06006KT 6000 SCT012 OVC020 \n  TEMPO 1609/1615 2500 -DZ BR OVC004 \n  PROB40 \n  TEMPO 1615/1618 0700 -DZ FG VV002"
    },
    {
      "icao": "OJAI",
      "iata": "AMM",
      "name": "Queen Alia International Airport",
      "updatedAt": "161000Z",
      "visibility_m": 4000,
      "taf_visibility_m": 300,
      "worst_visibility_m": 300,
      "ceiling_ft": null,
      "hazards": [
        "FG"
      ],
      "severityScore": 65,
      "metarRaw": "METAR OJAI 161000Z 17004KT 4000 HZ FEW020 10/05 Q1023 NOSIG",
      "tafRaw": "TAF OJAI 160435Z 1606/1712 VRB02KT 0300 FG NSC \n  BECMG 1607/1609 15010KT 4000 FEW030"
    },
    {
      "icao": "LPFR",
      "iata": "FAO",
      "name": "Faro Airport",
      "updatedAt": "161030Z",
      "visibility_m": 10000,
      "taf_visibility_m": 3000,
      "worst_visibility_m": 3000,
      "ceiling_ft": 1500,
      "hazards": [
        "SHRA",
        "TS",
        "RA"
      ],
      "severityScore": 63,
      "metarRaw": "METAR LPFR 161030Z 28003KT 250V330 9999 FEW020 13/11 Q1017",
      "tafRaw": "TAF LPFR 160500Z 1606/1706 30010KT 9999 FEW015 \n  BECMG 1610/1612 24012KT SCT025 \n  TEMPO 1610/1706 8000 SHRA BKN015 FEW020CB \n  PROB30 \n  TEMPO 1610/1618 VRB10G20KT 3000 TSRAGS SCT018CB \n  BECMG 1618/1620 31005KT"
    },
    {
      "icao": "LPPT",
      "iata": "LIS",
      "name": "Lisbon Humberto Delgado Airport",
      "updatedAt": "161030Z",
      "visibility_m": 10000,
      "taf_visibility_m": 3000,
      "worst_visibility_m": 3000,
      "ceiling_ft": 1200,
      "hazards": [
        "SHRA",
        "RA",
        "TS"
      ],
      "severityScore": 63,
      "metarRaw": "METAR LPPT 161030Z 23008KT 9999 SHRA FEW020 FEW022CB SCT035 12/10 Q1015",
      "tafRaw": "TAF LPPT 160500Z 1606/1712 24007KT 9999 FEW015 SCT035 \n  TEMPO 1606/1712 7000 SHRA BKN012 FEW020CB \n  PROB40 \n  TEMPO 1606/1619 VRB10G20KT 3000 +TSRAGS SCT018CB \n  BECMG 1612/1614 32010KT \n  BECMG 1619/1621 30007KT"
    },
    {
      "icao": "LROP",
      "iata": "OTP",
      "name": "Bucharest Henri Coandă International Airport",
      "updatedAt": "161030Z",
      "visibility_m": 10000,
      "taf_visibility_m": 1500,
      "worst_visibility_m": 1500,
      "ceiling_ft": 500,
      "hazards": [
        "BR",
        "SN"
      ],
      "severityScore": 63,
      "metarRaw": "METAR LROP 161030Z 07012KT 9999 SCT045 M03/M10 Q1031 NOSIG",
      "tafRaw": "TAF LROP 160500Z 1606/1706 07015KT 3000 -SN BR BKN010 OVC035 \n  TEMPO 1606/1610 1500 -SN BR BKN005 OVC025 \n  BECMG 1610/1612 9999 NSW BKN035 \n  BECMG 1618/1620 06005KT"
    },
    {
      "icao": "LUKK",
      "iata": "RMO",
      "name": "Chişinău International Airport",
      "updatedAt": "161030Z",
      "visibility_m": 10000,
      "taf_visibility_m": 3000,
      "worst_visibility_m": 3000,
      "ceiling_ft": 400,
      "hazards": [
        "BR",
        "SN"
      ],
      "severityScore": 63,
      "metarRaw": "METAR LUKK 161030Z 36008KT CAVOK M08/M13 Q1032 NOSIG",
      "tafRaw": "TAF LUKK 160518Z 1606/1706 01012KT 9999 BKN015 \n  TEMPO 1606/1609 3000 -SN BR BKN004 \n  BECMG 1609/1610 CAVOK"
    },
    {
      "icao": "LICC",
      "iata": "CTA",
      "name": "Catania-Fontanarossa Airport",
      "updatedAt": "161050Z",
      "visibility_m": 8000,
      "taf_visibility_m": 4000,
      "worst_visibility_m": 4000,
      "ceiling_ft": null,
      "hazards": [
        "TSRA",
        "TS",
        "RA"
      ],
      "severityScore": 62,
      "metarRaw": "METAR LICC 161050Z 24004KT 210V270 8000 FEW015 SCT030 13/10 Q1020",
      "tafRaw": "TAF LICC 160500Z 1606/1706 VRB05KT 9999 SCT020 \n  BECMG 1610/1612 08010KT \n  TEMPO 1620/1624 4000 TSRA \n  TEMPO 1704/1706 4000 TSRA"
    },
    {
      "icao": "LMML",
      "iata": "MLA",
      "name": "Malta International Airport",
      "updatedAt": "161045Z",
      "visibility_m": 8000,
      "taf_visibility_m": 4000,
      "worst_visibility_m": 4000,
      "ceiling_ft": null,
      "hazards": [
        "RA",
        "TSRA",
        "TS"
      ],
      "severityScore": 62,
      "metarRaw": "METAR LMML 161045Z 14011KT CAVOK 16/14 Q1018 TEMPO 8000 RA NSC",
      "tafRaw": "TAF LMML 160500Z 1606/1706 13012KT 9999 FEW020 \n  TEMPO 1606/1706 7000 RA \n  PROB30 \n  TEMPO 1621/1706 VRB15G25KT 4000 TSRA TSRAGS BKN015CB"
    },
    {
      "icao": "LQSA",
      "iata": "SJJ",
      "name": "Sarajevo International Airport",
      "updatedAt": "161030Z",
      "visibility_m": 600,
      "taf_visibility_m": null,
      "worst_visibility_m": 600,
      "ceiling_ft": null,
      "hazards": [
        "FG",
        "BR"
      ],
      "severityScore": 60,
      "metarRaw": "METAR LQSA 161030Z VRB01KT 0600 R11/0550U FG SCT001 01/01 Q1023 BECMG 2000 BR",
      "tafRaw": null
    },
    {
      "icao": "ESSA",
      "iata": "ARN",
      "name": "Stockholm-Arlanda Airport",
      "updatedAt": "161050Z",
      "visibility_m": 6000,
      "taf_visibility_m": 3000,
      "worst_visibility_m": 3000,
      "ceiling_ft": 600,
      "hazards": [
        "DZ",
        "BR",
        "RA"
      ],
      "severityScore": 57,
      "metarRaw": "METAR ESSA 161050Z 15014KT 6000 -DZ OVC006 02/01 Q1018 NOSIG",
      "tafRaw": "TAF ESSA 160830Z 1609/1709 17015KT 9999 OVC007 \n  PROB40 1609/1610 3000 -RA BR OVC004 \n  BECMG 1610/1612 OVC004 \n  PROB40 1612/1706 OVC005 \n  TEMPO 1611/1618 18015G25KT \n  BECMG 1706/1708 OVC007 \n  PROB40 1708/1709 BKN015"
    },
    {
      "icao": "EKCH",
      "iata": "CPH",
      "name": "Copenhagen Kastrup Airport",
      "updatedAt": "161050Z",
      "visibility_m": 10000,
      "taf_visibility_m": 1200,
      "worst_visibility_m": 1200,
      "ceiling_ft": 200,
      "hazards": [
        "BR"
      ],
      "severityScore": 55,
      "metarRaw": "METAR EKCH 161050Z AUTO 16016KT 9999 SCT078/// 05/03 Q1014 NOSIG",
      "tafRaw": "TAF EKCH 160827Z 1609/1709 15018KT 4000 BR OVC005 \n  BECMG 1609/1610 8000 NSW SCT005 \n  TEMPO 1610/1612 BKN012 \n  BECMG 1617/1620 20005KT \n  BECMG 1705/1707 13015KT 1200 BR BKN002"
    },
    {
      "icao": "ESKN",
      "iata": "NYO",
      "name": "Stockholm Skavsta Airport",
      "updatedAt": "161050Z",
      "visibility_m": 3100,
      "taf_visibility_m": 1200,
      "worst_visibility_m": 1200,
      "ceiling_ft": 300,
      "hazards": [
        "BR"
      ],
      "severityScore": 55,
      "metarRaw": "METAR ESKN 161050Z 15014KT 3100 BR OVC003 03/03 Q1018",
      "tafRaw": "TAF ESKN 160830Z 1609/1709 17015G25KT 9999 OVC003 \n  TEMPO 1609/1623 2500 BR BKN005 \n  BECMG 1618/1620 18008KT \n  PROB40 1623/1709 1200 BR SCT005 BKN015"
    },
    {
      "icao": "LIPQ",
      "iata": "TRS",
      "name": "Trieste–Friuli Venezia Giulia Airport",
      "updatedAt": "161050Z",
      "visibility_m": 2700,
      "taf_visibility_m": 1200,
      "worst_visibility_m": 1200,
      "ceiling_ft": 100,
      "hazards": [
        "BR"
      ],
      "severityScore": 55,
      "metarRaw": "METAR LIPQ 161050Z AUTO VRB01KT 2700 BR OVC012/// 09/08 Q1022",
      "tafRaw": "TAF LIPQ 160500Z 1606/1706 VRB04KT 3000 BR BKN020 \n  TEMPO 1606/1608 1200 BR BKN001 \n  BECMG 1608/1610 8000 \n  BECMG 1616/1618 3000 BR"
    },
    {
      "icao": "LRCL",
      "iata": "CLJ",
      "name": "Cluj Avram Iancu International Airport",
      "updatedAt": "161030Z",
      "visibility_m": 5000,
      "taf_visibility_m": 3000,
      "worst_visibility_m": 3000,
      "ceiling_ft": 500,
      "hazards": [
        "BR",
        "SN"
      ],
      "severityScore": 53,
      "metarRaw": "METAR LRCL 161030Z 07004KT 5000 BR BKN005 OVC030 01/M00 Q1026",
      "tafRaw": "TAF LRCL 160800Z 1609/1618 VRB04KT 5000 BR OVC005 \n  TEMPO 1609/1611 3000 -SN \n  BECMG 1613/1615 12010KT 9999 NSW BKN020"
    },
    {
      "icao": "LRCV",
      "iata": "CRA",
      "name": "Craiova International Airport",
      "updatedAt": "161030Z",
      "visibility_m": 1600,
      "taf_visibility_m": 3000,
      "worst_visibility_m": 1600,
      "ceiling_ft": 800,
      "hazards": [
        "BR",
        "SN"
      ],
      "severityScore": 53,
      "metarRaw": "METAR LRCV 161030Z 07011KT 1600 -SN BR BKN008 OVC012 M02/M03 Q1029",
      "tafRaw": "TAF LRCV 160800Z 1609/1618 09014KT 5000 BR BKN010 OVC035 \n  TEMPO 1609/1614 3000 -SN BKN005 OVC030 \n  BECMG 1614/1616 9999 NSW BKN020"
    },
    {
      "icao": "LPPR",
      "iata": "OPO",
      "name": "Francisco de Sá Carneiro Airport",
      "updatedAt": "161030Z",
      "visibility_m": 10000,
      "taf_visibility_m": 2000,
      "worst_visibility_m": 2000,
      "ceiling_ft": 2000,
      "hazards": [
        "SHRA",
        "RA",
        "TS"
      ],
      "severityScore": 51,
      "metarRaw": "METAR LPPR 161030Z 13006KT 9999 -SHRA FEW012 FEW018CB BKN020 10/08 Q1012",
      "tafRaw": "TAF LPPR 160500Z 1606/1706 20010KT 9999 SCT012 SCT025 \n  TEMPO 1606/1706 5000 SHRA BKN010 FEW018CB \n  PROB40 \n  TEMPO 1606/1620 VRB15G25KT 2000 +TSRAGS BKN008 SCT015CB \n  BECMG 1610/1612 30007KT \n  BECMG 1620/1622 VRB02KT"
    },
    {
      "icao": "EGBB",
      "iata": "BHX",
      "name": "Birmingham Airport",
      "updatedAt": "161050Z",
      "visibility_m": 4000,
      "taf_visibility_m": null,
      "worst_visibility_m": 4000,
      "ceiling_ft": 200,
      "hazards": [
        "BR"
      ],
      "severityScore": 50,
      "metarRaw": "METAR EGBB 161050Z 15009KT 4000 BR OVC002 05/04 Q1006",
      "tafRaw": null
    },
    {
      "icao": "EGGW",
      "iata": "LTN",
      "name": "London Luton Airport",
      "updatedAt": "161050Z",
      "visibility_m": 4300,
      "taf_visibility_m": null,
      "worst_visibility_m": 4300,
      "ceiling_ft": 200,
      "hazards": [
        "BR"
      ],
      "severityScore": 50,
      "metarRaw": "METAR EGGW 161050Z 19005KT 160V230 4300 BR OVC002 05/05 Q1007",
      "tafRaw": null
    },
    {
      "icao": "EPRZ",
      "iata": "RZE",
      "name": "Rzeszów-Jasionka Airport",
      "updatedAt": "161030Z",
      "visibility_m": 3000,
      "taf_visibility_m": null,
      "worst_visibility_m": 3000,
      "ceiling_ft": 300,
      "hazards": [
        "BR"
      ],
      "severityScore": 50,
      "metarRaw": "METAR EPRZ 161030Z 08015KT 3000 BR OVC003 M03/M04 Q1026",
      "tafRaw": null
    },
    {
      "icao": "EPSC",
      "iata": "SZZ",
      "name": "Solidarity Szczecin–Goleniów Airport",
      "updatedAt": "161030Z",
      "visibility_m": 3200,
      "taf_visibility_m": null,
      "worst_visibility_m": 3200,
      "ceiling_ft": 200,
      "hazards": [
        "BR"
      ],
      "severityScore": 50,
      "metarRaw": "METAR EPSC 161030Z 13016KT 3200 BR OVC002 02/02 Q1018",
      "tafRaw": null
    },
    {
      "icao": "UGKO",
      "iata": "KUT",
      "name": "David the Builder Kutaisi International Airport",
      "updatedAt": "161030Z",
      "visibility_m": 8000,
      "taf_visibility_m": 2000,
      "worst_visibility_m": 2000,
      "ceiling_ft": 3600,
      "hazards": [
        "RA",
        "BR",
        "SHSN",
        "SN"
      ],
      "severityScore": 50,
      "metarRaw": "METAR UGKO 161030Z 11006KT 8000 -RA SCT014 OVC036 02/00 Q1021 NOSIG",
      "tafRaw": "TAF UGKO 160500Z 1606/1706 10007KT 8000 BKN020 OVC040 TX03/1612Z TN00/1606Z \n  TEMPO 1606/1611 2000 SHSN SCT007 BKN015CB OVC030 \n  TEMPO 1611/1620 5000 SNRA BR SCT017 OVC035 \n  TEMPO 1620/1706 3000 SHSNRA SCT010 BKN015CB OVC030"
    },
    {
      "icao": "EDDN",
      "iata": "NUE",
      "name": "Nuremberg Airport",
      "updatedAt": "161050Z",
      "visibility_m": 10000,
      "taf_visibility_m": 2000,
      "worst_visibility_m": 2000,
      "ceiling_ft": 300,
      "hazards": [
        "BR"
      ],
      "severityScore": 45,
      "metarRaw": "METAR EDDN 161050Z AUTO 13006KT CAVOK 07/02 Q1018 NOSIG",
      "tafRaw": "TAF EDDN 160500Z 1606/1706 11006KT CAVOK \n  BECMG 1619/1621 2000 BR OVC003"
    },
    {
      "icao": "EDNY",
      "iata": "FDH",
      "name": "Friedrichshafen Airport",
      "updatedAt": "161050Z",
      "visibility_m": 10000,
      "taf_visibility_m": 3000,
      "worst_visibility_m": 3000,
      "ceiling_ft": 300,
      "hazards": [
        "BR"
      ],
      "severityScore": 45,
      "metarRaw": "METAR EDNY 161050Z 21003KT 170V250 9999 2000SW BR FEW001 05/02 Q1018",
      "tafRaw": "TAF EDNY 160800Z 1609/1618 VRB03KT CAVOK \n  PROB30 \n  TEMPO 1609/1611 3000 BR OVC003"
    },
    {
      "icao": "LRTR",
      "iata": "TSR",
      "name": "Timişoara Traian Vuia Airport",
      "updatedAt": "161030Z",
      "visibility_m": 3500,
      "taf_visibility_m": 1500,
      "worst_visibility_m": 1500,
      "ceiling_ft": 1000,
      "hazards": [
        "BR",
        "RA"
      ],
      "severityScore": 44,
      "metarRaw": "METAR LRTR 161030Z 09009KT 3500 BR SCT035 03/03 Q1024",
      "tafRaw": "TAF LRTR 160500Z 1606/1706 11008KT 5000 -RA BR BKN040 \n  TEMPO 1606/1615 1500 -RA BR BKN010 OVC025 \n  BECMG 1615/1617 9999 NSW"
    },
    {
      "icao": "LTFM",
      "iata": "IST",
      "name": "İstanbul Airport",
      "updatedAt": "161050Z",
      "visibility_m": 7000,
      "taf_visibility_m": 10000,
      "worst_visibility_m": 7000,
      "ceiling_ft": 2200,
      "hazards": [
        "SHRA",
        "RA",
        "SN"
      ],
      "severityScore": 44,
      "metarRaw": "METAR LTFM 161050Z 06016KT 7000 -SHRA SCT007 BKN022 07/06 Q1024 NOSIG",
      "tafRaw": "TAF LTFM 160440Z 1606/1712 VRB02KT 9999 FEW008 SCT025 BKN070 \n  BECMG 1607/1610 04017G27KT -SHRA SCT008 BKN022 \n  TEMPO 1618/1622 -SHRASN \n  TEMPO 1623/1703 -SHSNRA"
    },
    {
      "icao": "LBPD",
      "iata": "PDV",
      "name": "Plovdiv International Airport",
      "updatedAt": "161030Z",
      "visibility_m": 10000,
      "taf_visibility_m": 3000,
      "worst_visibility_m": 3000,
      "ceiling_ft": 1000,
      "hazards": [
        "SN",
        "RA"
      ],
      "severityScore": 42,
      "metarRaw": "METAR LBPD 161030Z AUTO 10012KT 9999 FEW006/// OVC086/// 06/06 Q1024 NOSIG",
      "tafRaw": "TAF LBPD 160500Z 1606/1706 VRB03KT 9999 BKN070 \n  BECMG 1607/1609 10010KT \n  TEMPO 1614/1618 5000 RASN BKN015 OVC030 \n  TEMPO 1618/1702 3000 SN BKN010 OVC020"
    },
    {
      "icao": "EPLB",
      "iata": "LUZ",
      "name": "Lublin Airport",
      "updatedAt": "161030Z",
      "visibility_m": 7000,
      "taf_visibility_m": 4000,
      "worst_visibility_m": 4000,
      "ceiling_ft": 1900,
      "hazards": [
        "BR",
        "SN"
      ],
      "severityScore": 40,
      "metarRaw": "METAR EPLB 161030Z 09008KT 7000 BKN019 M06/M08 Q1028",
      "tafRaw": "TAF EPLB 160530Z 1606/1706 11008KT 8000 OVC015 \n  TEMPO 1606/1615 BKN013 \n  PROB40 \n  TEMPO 1606/1607 4000 -SN BR BKN003 OVC007"
    },
    {
      "icao": "LBWN",
      "iata": "VAR",
      "name": "Varna Airport",
      "updatedAt": "161030Z",
      "visibility_m": 9000,
      "taf_visibility_m": 1200,
      "worst_visibility_m": 1200,
      "ceiling_ft": 4400,
      "hazards": [
        "SN",
        "RA"
      ],
      "severityScore": 40,
      "metarRaw": "METAR LBWN 161030Z 03007KT 360V060 9000 -SN FEW015 OVC044 M01/M03 Q1028 NOSIG",
      "tafRaw": "TAF LBWN 160500Z 1606/1706 04010KT 5000 RASN SCT010 OVC020 \n  BECMG 1607/1609 3000 SN BKN005 OVC020 \n  PROB40 \n  TEMPO 1607/1614 1200 SN \n  BECMG 1614/1616 9999 NSW BKN045"
    },
    {
      "icao": "LIPX",
      "iata": "VRN",
      "name": "Verona Villafranca Valerio Catullo Airport",
      "updatedAt": "161050Z",
      "visibility_m": 2500,
      "taf_visibility_m": 1200,
      "worst_visibility_m": 1200,
      "ceiling_ft": 7000,
      "hazards": [
        "BR",
        "FG"
      ],
      "severityScore": 40,
      "metarRaw": "METAR LIPX 161050Z VRB02KT 2500 BR BKN070 07/06 Q1022",
      "tafRaw": "TAF LIPX 160500Z 1606/1706 VRB04KT 4000 BR SCT020 BKN060 \n  TEMPO 1606/1609 1500 BCFG BKN010 BKN060 \n  TEMPO 1620/1624 1200 BCFG BKN010 BKN060"
    },
    {
      "icao": "LPMA",
      "iata": "FNC",
      "name": "Madeira International Airport Cristiano Ronaldo",
      "updatedAt": "161030Z",
      "visibility_m": 10000,
      "taf_visibility_m": 8000,
      "worst_visibility_m": 8000,
      "ceiling_ft": 1300,
      "hazards": [
        "SHRA",
        "RA"
      ],
      "severityScore": 38,
      "metarRaw": "METAR LPMA 161030Z VRB03KT 9999 FEW016 16/09 Q1026",
      "tafRaw": "TAF LPMA 160500Z 1606/1706 36015KT 9999 SCT015 SCT030 \n  PROB40 \n  TEMPO 1606/1706 35022G35KT 8000 SHRA BKN013 FEW018CB"
    },
    {
      "icao": "LPPS",
      "iata": "PXO",
      "name": "Porto Santo Airport",
      "updatedAt": "161030Z",
      "visibility_m": 10000,
      "taf_visibility_m": 7000,
      "worst_visibility_m": 7000,
      "ceiling_ft": 1000,
      "hazards": [
        "SHRA",
        "RA"
      ],
      "severityScore": 38,
      "metarRaw": "METAR LPPS 161030Z 34010KT 9999 SCT011 15/13 Q1026",
      "tafRaw": "TAF LPPS 160500Z 1606/1712 34017KT 9999 SCT015 SCT030 \n  PROB30 \n  TEMPO 1606/1712 7000 SHRA BKN010 FEW018CB \n  BECMG 1700/1702 31022KT \n  PROB40 \n  TEMPO 1702/1712 31025G35KT"
    },
    {
      "icao": "LRBS",
      "iata": "BBU",
      "name": "Bucharest Băneasa Aurel Vlaicu International Airport",
      "updatedAt": "161030Z",
      "visibility_m": 10000,
      "taf_visibility_m": 1500,
      "worst_visibility_m": 1500,
      "ceiling_ft": 4700,
      "hazards": [
        "BR",
        "SN"
      ],
      "severityScore": 38,
      "metarRaw": "METAR LRBS 161030Z 06013KT 020V080 9999 BKN047 M04/M09 Q1031 NOSIG",
      "tafRaw": "TAF LRBS 160500Z 1606/1706 06015KT 3000 -SN BR BKN010 OVC035 \n  TEMPO 1606/1610 1500 -SN BR BKN005 OVC025 \n  BECMG 1610/1612 9999 NSW BKN035 \n  BECMG 1618/1620 06005KT"
    },
    {
      "icao": "EGPF",
      "iata": "GLA",
      "name": "Glasgow Airport",
      "updatedAt": "161050Z",
      "visibility_m": 8000,
      "taf_visibility_m": null,
      "worst_visibility_m": 8000,
      "ceiling_ft": 2600,
      "hazards": [
        "RA",
        "FG"
      ],
      "severityScore": 37,
      "metarRaw": "METAR EGPF 161050Z VRB02KT 8000 -RA VCFG BKN026 02/01 Q1002",
      "tafRaw": null
    },
    {
      "icao": "EPRA",
      "iata": "RDO",
      "name": "Warsaw Radom Airport",
      "updatedAt": "161030Z",
      "visibility_m": 7000,
      "taf_visibility_m": 6000,
      "worst_visibility_m": 6000,
      "ceiling_ft": 700,
      "hazards": [
        "RA"
      ],
      "severityScore": 37,
      "metarRaw": "METAR EPRA 161030Z 11008KT 090V150 7000 OVC007 M03/M05 Q1026",
      "tafRaw": "TAF EPRA 160830Z 1609/1618 13010KT 6000 OVC008 \n  BECMG 1610/1612 9999 BKN014 \n  BECMG 1613/1615 SCT026"
    },
    {
      "icao": "LGTS",
      "iata": "SKG",
      "name": "Thessaloniki Macedonia International Airport",
      "updatedAt": "161050Z",
      "visibility_m": 10000,
      "taf_visibility_m": 5000,
      "worst_visibility_m": 5000,
      "ceiling_ft": 2500,
      "hazards": [
        "TS",
        "RA"
      ],
      "severityScore": 37,
      "metarRaw": "METAR LGTS 161050Z VRB02KT CAVOK 11/04 Q1023 NOSIG",
      "tafRaw": "TAF LGTS 160500Z 1606/1706 VRB03KT 9999 FEW030 \n  BECMG 1620/1622 09013KT FEW010 BKN025 \n  PROB30 1703/1706 5000 RA"
    },
    {
      "icao": "EHBK",
      "iata": "MST",
      "name": "Maastricht Aachen Airport",
      "updatedAt": "161025Z",
      "visibility_m": 6000,
      "taf_visibility_m": 7000,
      "worst_visibility_m": 6000,
      "ceiling_ft": 4500,
      "hazards": [
        "SHRA",
        "DZ",
        "RA"
      ],
      "severityScore": 36,
      "metarRaw": "METAR EHBK 161025Z AUTO 20008KT 6000 +DZ FEW013/// OVC016/// 10/09 Q1012 BECMG 9999 NSW TEMPO -SHRA FEW020TCU",
      "tafRaw": "TAF EHBK 160507Z 1606/1712 20013KT 9999 OVC045 \n  BECMG 1614/1617 14005KT \n  PROB30 \n  TEMPO 1622/1703 7000 -RA"
    },
    {
      "icao": "UBBB",
      "iata": "GYD",
      "name": "Heydar Aliyev International Airport",
      "updatedAt": "161030Z",
      "visibility_m": 10000,
      "taf_visibility_m": 4000,
      "worst_visibility_m": 4000,
      "ceiling_ft": 600,
      "hazards": [
        "BR"
      ],
      "severityScore": 35,
      "metarRaw": "METAR UBBB 161030Z 19010KT CAVOK 08/00 Q1020 NOSIG",
      "tafRaw": "TAF UBBB 160502Z 1606/1706 19012KT 9999 FEW025 TX07/1610Z TN01/1702Z \n  TEMPO 1606/1612 21018KT \n  BECMG 1616/1618 32008KT SCT010 BKN020 \n  TEMPO 1618/1624 4000 BR BKN006"
    },
    {
      "icao": "EBCI",
      "iata": "CRL",
      "name": "Brussels South Charleroi Airport",
      "updatedAt": "161050Z",
      "visibility_m": 10000,
      "taf_visibility_m": 4500,
      "worst_visibility_m": 4500,
      "ceiling_ft": 1200,
      "hazards": [
        "BR",
        "RA"
      ],
      "severityScore": 34,
      "metarRaw": "METAR EBCI 161050Z 22012KT 9999 SCT015 BKN025 09/06 Q1012 TEMPO BKN012",
      "tafRaw": "TAF EBCI 160500Z 1606/1712 22008KT 9999 SCT018 SCT035 \n  PROB30 \n  TEMPO 1606/1608 SCT009 BKN012 \n  BECMG 1622/1624 15010KT \n  PROB30 \n  TEMPO 1623/1702 4500 -RA BR"
    },
    {
      "icao": "ENBR",
      "iata": "BGO",
      "name": "Bergen Airport, Flesland",
      "updatedAt": "161050Z",
      "visibility_m": 10000,
      "taf_visibility_m": 4000,
      "worst_visibility_m": 4000,
      "ceiling_ft": 1200,
      "hazards": [
        "RA",
        "BR"
      ],
      "severityScore": 34,
      "metarRaw": "METAR ENBR 161050Z 01003KT 9999 -RA FEW003 SCT020 BKN037 04/03 Q1001 TEMPO RA BKN012 RMK WIND 1200FT 10010KT",
      "tafRaw": "TAF ENBR 160500Z 1606/1706 08005KT 9999 -RA SCT020 BKN040 \n  BECMG 1609/1611 BKN012 \n  TEMPO 1612/1619 4000 RA BKN005 \n  BECMG 1621/1623 BKN020"
    },
    {
      "icao": "EDFH",
      "iata": "HHN",
      "name": "Frankfurt-Hahn Airport",
      "updatedAt": "161050Z",
      "visibility_m": 10000,
      "taf_visibility_m": 2500,
      "worst_visibility_m": 2500,
      "ceiling_ft": 1000,
      "hazards": [
        "FG"
      ],
      "severityScore": 32,
      "metarRaw": "METAR EDFH 161050Z 21009KT 190V250 9999 SCT038 09/05 Q1014",
      "tafRaw": "TAF EDFH 160500Z 1606/1706 16012KT 9999 BKN025 \n  TEMPO 1606/1611 BKN010 \n  TEMPO 1702/1706 2500 BCFG"
    },
    {
      "icao": "ENHD",
      "iata": "HAU",
      "name": "Haugesund Airport, Karmøy",
      "updatedAt": "161050Z",
      "visibility_m": 10000,
      "taf_visibility_m": 4000,
      "worst_visibility_m": 4000,
      "ceiling_ft": 3500,
      "hazards": [
        "RA",
        "DZ",
        "BR"
      ],
      "severityScore": 32,
      "metarRaw": "METAR ENHD 161050Z 07008KT 9999 -RADZ FEW019 BKN035 05/04 Q0999",
      "tafRaw": "TAF ENHD 160800Z 1609/1618 09012KT 9999 -RA SCT015 BKN025 \n  TEMPO 1609/1612 RA BKN014 \n  PROB40 \n  TEMPO 1609/1614 12015G25KT \n  BECMG 1611/1613 SCT007 BKN012 \n  TEMPO 1612/1617 4000 RADZ BR BKN007 \n  BECMG 1614/1616 32015KT"
    },
    {
      "icao": "LRBV",
      "iata": "GHV",
      "name": "Brașov-Ghimbav International Airport",
      "updatedAt": "161030Z",
      "visibility_m": 10000,
      "taf_visibility_m": 3000,
      "worst_visibility_m": 3000,
      "ceiling_ft": 4500,
      "hazards": [
        "BR",
        "SN"
      ],
      "severityScore": 28,
      "metarRaw": "METAR LRBV 161030Z 10011KT 9999 FEW019 SCT028 BKN045 M00/M04 Q1026",
      "tafRaw": "TAF LRBV 160800Z 1609/1618 08010KT 5000 BR SCT020 OVC025 \n  TEMPO 1609/1611 3000 -SN BR BKN010 OVC020"
    },
    {
      "icao": "LRTM",
      "iata": "TGM",
      "name": "Târgu Mureş Transilvania International Airport",
      "updatedAt": "161030Z",
      "visibility_m": 8000,
      "taf_visibility_m": 3000,
      "worst_visibility_m": 3000,
      "ceiling_ft": 2200,
      "hazards": [
        "BR",
        "SN"
      ],
      "severityScore": 28,
      "metarRaw": "METAR LRTM 161030Z 08005KT 8000 FEW012 BKN022 01/M02 Q1026",
      "tafRaw": "TAF LRTM 160800Z 1609/1618 VRB04KT 5000 BR OVC005 \n  TEMPO 1609/1611 3000 -SN \n  BECMG 1612/1614 9999 NSW BKN020"
    },
    {
      "icao": "EPMO",
      "iata": "WMI",
      "name": "Modlin Airport",
      "updatedAt": "161030Z",
      "visibility_m": 4100,
      "taf_visibility_m": null,
      "worst_visibility_m": 4100,
      "ceiling_ft": 1000,
      "hazards": [
        "BR"
      ],
      "severityScore": 27,
      "metarRaw": "METAR EPMO 161030Z 11009KT 4100 BR BKN010 M04/M04 Q1026",
      "tafRaw": null
    },
    {
      "icao": "ENVA",
      "iata": "TRD",
      "name": "Trondheim Airport, Værnes",
      "updatedAt": "161050Z",
      "visibility_m": 10000,
      "taf_visibility_m": 10000,
      "worst_visibility_m": 10000,
      "ceiling_ft": 2500,
      "hazards": [
        "SHRA",
        "RA"
      ],
      "severityScore": 26,
      "metarRaw": "METAR ENVA 161050Z 15011KT CAVOK 05/M01 Q1007 NOSIG RMK WIND 670FT 17017KT",
      "tafRaw": "TAF ENVA 160500Z 1606/1706 10007KT CAVOK \n  PROB40 \n  TEMPO 1619/1706 21012KT SHRA SCT018CB BKN025"
    },
    {
      "icao": "LCPH",
      "iata": "PFO",
      "name": "Paphos International Airport",
      "updatedAt": "161030Z",
      "visibility_m": 10000,
      "taf_visibility_m": 5000,
      "worst_visibility_m": 5000,
      "ceiling_ft": null,
      "hazards": [
        "SHRA",
        "RA"
      ],
      "severityScore": 26,
      "metarRaw": "METAR LCPH 161030Z 20005KT 150V240 9999 FEW025 18/09 Q1021 NOSIG",
      "tafRaw": "TAF LCPH 160530Z 1606/1706 05008KT 9999 FEW025 SCT035 \n  BECMG 1608/1610 21010KT \n  BECMG 1613/1615 30010KT \n  BECMG 1616/1618 03007KT \n  PROB30 \n  TEMPO 1616/1621 5000 SHRA SCT020TCU"
    },
    {
      "icao": "GCTS",
      "iata": "TFS",
      "name": "Tenerife Sur Airport",
      "updatedAt": "161030Z",
      "visibility_m": 10000,
      "taf_visibility_m": 10000,
      "worst_visibility_m": 10000,
      "ceiling_ft": 3500,
      "hazards": [
        "TS"
      ],
      "severityScore": 25,
      "metarRaw": "METAR GCTS 161030Z 28005KT 230V330 9999 BKN035 18/10 Q1026 NOSIG",
      "tafRaw": "TAF GCTS 160800Z 1609/1709 27010KT 9999 SCT035 TX22/1614Z TN14/1706Z \n  BECMG 1614/1616 20003KT \n  BECMG 1619/1621 04010KT"
    },
    {
      "icao": "LEAL",
      "iata": "ALC",
      "name": "Alicante-Elche Miguel Hernández Airport",
      "updatedAt": "161030Z",
      "visibility_m": 10000,
      "taf_visibility_m": 4000,
      "worst_visibility_m": 4000,
      "ceiling_ft": 1400,
      "hazards": [
        "RA"
      ],
      "severityScore": 24,
      "metarRaw": "METAR LEAL 161030Z 00000KT 9999 FEW014 16/12 Q1016 NOSIG",
      "tafRaw": "TAF LEAL 160500Z 1606/1706 VRB04KT CAVOK TX16/1613Z TN07/1606Z \n  TEMPO 1620/1624 4000 RA BKN014"
    },
    {
      "icao": "GMMX",
      "iata": "RAK",
      "name": "Menara Airport",
      "updatedAt": "161030Z",
      "visibility_m": 8000,
      "taf_visibility_m": 3000,
      "worst_visibility_m": 3000,
      "ceiling_ft": 2600,
      "hazards": [
        "BR",
        "RA"
      ],
      "severityScore": 22,
      "metarRaw": "METAR GMMX 161030Z 27004KT 230V310 8000 NSC 13/09 Q1022 NOSIG",
      "tafRaw": "TAF GMMX 160500Z 1606/1712 06006KT 8000 SCT026 \n  TEMPO 1606/1609 3000 BR SCT004 \n  TEMPO 1616/1624 34016KT 4000 RA FEW010 BKN026 SCT090"
    },
    {
      "icao": "ENZV",
      "iata": "SVG",
      "name": "Stavanger Airport, Sola",
      "updatedAt": "161050Z",
      "visibility_m": 10000,
      "taf_visibility_m": 4000,
      "worst_visibility_m": 4000,
      "ceiling_ft": 3600,
      "hazards": [
        "RA",
        "BR"
      ],
      "severityScore": 22,
      "metarRaw": "METAR ENZV 161050Z 11008KT 9999 -RA OVC036 06/03 Q0999 NOSIG",
      "tafRaw": "TAF ENZV 160500Z 1606/1706 12012KT 9999 -RA FEW020 BKN030 \n  TEMPO 1606/1614 RA \n  BECMG 1611/1613 20015KT SCT004 BKN010 \n  TEMPO 1611/1616 4000 BR BKN004 \n  BECMG 1614/1616 27015KT \n  BECMG 1616/1618 VRB05KT SCT012 BKN018"
    },
    {
      "icao": "LEZG",
      "iata": "ZAZ",
      "name": "Zaragoza Airport",
      "updatedAt": "161030Z",
      "visibility_m": 6000,
      "taf_visibility_m": 2000,
      "worst_visibility_m": 2000,
      "ceiling_ft": 6000,
      "hazards": [
        "BR",
        "RA"
      ],
      "severityScore": 22,
      "metarRaw": "METAR LEZG 161030Z 10006KT 070V130 6000 SCT040 OVC060 08/07 Q1014 NOSIG",
      "tafRaw": "TAF LEZG 160500Z 1606/1706 09005KT 9999 FEW020 TX12/1614Z TN05/1606Z \n  TEMPO 1606/1612 2000 BR \n  TEMPO 1617/1624 3000 RA \n  TEMPO 1618/1706 2000 BR BKN014 \n  BECMG 1620/1622 VRB04KT"
    },
    {
      "icao": "LIPH",
      "iata": "TSF",
      "name": "Treviso Antonio Canova Airport",
      "updatedAt": "161050Z",
      "visibility_m": 10000,
      "taf_visibility_m": 3000,
      "worst_visibility_m": 3000,
      "ceiling_ft": 1000,
      "hazards": [
        "BR"
      ],
      "severityScore": 22,
      "metarRaw": "METAR LIPH 161050Z VRB02KT CAVOK 10/05 Q1022",
      "tafRaw": "TAF LIPH 160500Z 1606/1706 VRB04KT 7000 SCT040 \n  TEMPO 1606/1608 3000 BR BKN010"
    },
    {
      "icao": "LIPZ",
      "iata": "VCE",
      "name": "Venice Marco Polo Airport",
      "updatedAt": "161050Z",
      "visibility_m": 6000,
      "taf_visibility_m": 2000,
      "worst_visibility_m": 2000,
      "ceiling_ft": 1000,
      "hazards": [
        "BR"
      ],
      "severityScore": 22,
      "metarRaw": "METAR LIPZ 161050Z VRB02KT 6000 FEW018 SCT050 07/04 Q1022 NOSIG",
      "tafRaw": "TAF LIPZ 160500Z 1606/1712 VRB04KT 6000 SCT030 \n  TEMPO 1621/1706 2000 BR BKN010"
    },
    {
      "icao": "LJLJ",
      "iata": "LJU",
      "name": "Ljubljana Jože Pučnik Airport",
      "updatedAt": "161030Z",
      "visibility_m": 10000,
      "taf_visibility_m": 2000,
      "worst_visibility_m": 2000,
      "ceiling_ft": 5000,
      "hazards": [
        "BR",
        "RA"
      ],
      "severityScore": 22,
      "metarRaw": "METAR LJLJ 161030Z 30002KT 9999 FEW040 BKN050 04/03 Q1021 NOSIG",
      "tafRaw": "TAF LJLJ 160500Z 1606/1706 30004KT 9999 FEW003 SCT033 BKN050 \n  TEMPO 1620/1706 4000 BR \n  PROB40 \n  TEMPO 1621/1706 2000 -RA BR BKN013 OVC025"
    },
    {
      "icao": "LYBE",
      "iata": "BEG",
      "name": "Belgrade Nikola Tesla Airport",
      "updatedAt": "161030Z",
      "visibility_m": 4500,
      "taf_visibility_m": 4000,
      "worst_visibility_m": 4000,
      "ceiling_ft": null,
      "hazards": [
        "BR",
        "RA"
      ],
      "severityScore": 22,
      "metarRaw": "METAR LYBE 161030Z 09002KT 4500 BR NSC 05/03 Q1024 NOSIG",
      "tafRaw": "TAF LYBE 160500Z 1606/1706 06004KT 9999 SCT045 TX06/1613Z TNM00/1706Z \n  TEMPO 1606/1609 4000 -RA BR \n  BECMG 1613/1615 12010KT \n  TEMPO 1620/1701 13015G25KT"
    },
    {
      "icao": "LYNI",
      "iata": "INI",
      "name": "Niš Constantine the Great Airport",
      "updatedAt": "161030Z",
      "visibility_m": 10000,
      "taf_visibility_m": 4000,
      "worst_visibility_m": 4000,
      "ceiling_ft": 1300,
      "hazards": [
        "BR"
      ],
      "severityScore": 22,
      "metarRaw": "METAR LYNI 161030Z 10003KT 040V160 9999 FEW017 10/04 Q1024 BECMG FM1130 04011KT",
      "tafRaw": "TAF LYNI 160500Z 1606/1706 20004KT 9999 SCT050 BKN080 TX07/1612Z TNM01/1706Z \n  TEMPO 1606/1608 4000 BR \n  BECMG 1611/1613 05011KT \n  BECMG 1615/1617 BKN013 BKN030"
    },
    {
      "icao": "LZKZ",
      "iata": "KSC",
      "name": "Košice International Airport",
      "updatedAt": "161030Z",
      "visibility_m": 10000,
      "taf_visibility_m": 2000,
      "worst_visibility_m": 2000,
      "ceiling_ft": 1800,
      "hazards": [
        "BR"
      ],
      "severityScore": 22,
      "metarRaw": "METAR LZKZ 161030Z 01006KT 9999 OVC018 03/00 Q1025 NOSIG",
      "tafRaw": "TAF LZKZ 160515Z 1606/1706 VRB02KT 8000 BKN017 \n  TEMPO 1606/1610 2000 BR BKN006 \n  TEMPO 1619/1706 2000 BR BKN007"
    },
    {
      "icao": "EDDS",
      "iata": "STR",
      "name": "Stuttgart Airport",
      "updatedAt": "161050Z",
      "visibility_m": 10000,
      "taf_visibility_m": 2500,
      "worst_visibility_m": 2500,
      "ceiling_ft": null,
      "hazards": [
        "FG"
      ],
      "severityScore": 20,
      "metarRaw": "METAR EDDS 161050Z AUTO VRB02KT CAVOK 06/02 Q1016 NOSIG",
      "tafRaw": "TAF EDDS 160500Z 1606/1706 VRB03KT CAVOK \n  PROB40 \n  TEMPO 1702/1706 2500 BCFG"
    },
    {
      "icao": "EDSB",
      "iata": "FKB",
      "name": "Karlsruhe Baden-Baden Airport",
      "updatedAt": "161050Z",
      "visibility_m": 10000,
      "taf_visibility_m": 2000,
      "worst_visibility_m": 2000,
      "ceiling_ft": null,
      "hazards": [
        "FG"
      ],
      "severityScore": 20,
      "metarRaw": "METAR EDSB 161050Z VRB01KT CAVOK 09/04 Q1016",
      "tafRaw": "TAF EDSB 160500Z 1606/1706 VRB03KT CAVOK \n  PROB40 \n  TEMPO 1700/1706 2000 BCFG"
    },
    {
      "icao": "EETN",
      "iata": "TLL",
      "name": "Lennart Meri Tallinn Airport",
      "updatedAt": "161050Z",
      "visibility_m": 10000,
      "taf_visibility_m": 4000,
      "worst_visibility_m": 4000,
      "ceiling_ft": 2800,
      "hazards": [
        "SN"
      ],
      "severityScore": 18,
      "metarRaw": "METAR EETN 161050Z 15008KT 110V190 9999 OVC028 M06/M08 Q1030 NOSIG",
      "tafRaw": "TAF EETN 160530Z 1606/1706 17012KT 9999 OVC025 \n  TEMPO 1606/1614 BKN006 BKN012 \n  TEMPO 1608/1612 4000 SN \n  TEMPO 1614/1702 OVC005 \n  TEMPO 1702/1706 4000 SN OVC004"
    },
    {
      "icao": "ESGG",
      "iata": "GOT",
      "name": "Göteborg Landvetter Airport",
      "updatedAt": "161050Z",
      "visibility_m": 10000,
      "taf_visibility_m": null,
      "worst_visibility_m": 10000,
      "ceiling_ft": 1500,
      "hazards": [],
      "severityScore": 17,
      "metarRaw": "METAR ESGG 161050Z 15012KT 9999 SCT007 BKN015 04/03 Q1010",
      "tafRaw": null
    },
    {
      "icao": "GMMN",
      "iata": "CMN",
      "name": "Mohammed V International Airport",
      "updatedAt": "161030Z",
      "visibility_m": 10000,
      "taf_visibility_m": 4000,
      "worst_visibility_m": 4000,
      "ceiling_ft": 10000,
      "hazards": [
        "RA"
      ],
      "severityScore": 12,
      "metarRaw": "METAR GMMN 161030Z 21016KT 9999 SCT020 BKN100 14/11 Q1020 NOSIG",
      "tafRaw": "TAF GMMN 160500Z 1606/1712 21008KT 9999 SCT016 SCT100 \n  TEMPO 1611/1712 24013KT 4000 RA SCT013 BKN026TCU"
    },
    {
      "icao": "ENAL",
      "iata": "AES",
      "name": "Ålesund Airport, Vigra",
      "updatedAt": "161050Z",
      "visibility_m": 10000,
      "taf_visibility_m": 10000,
      "worst_visibility_m": 10000,
      "ceiling_ft": null,
      "hazards": [
        "RA"
      ],
      "severityScore": 12,
      "metarRaw": "METAR ENAL 161050Z 08007KT 040V130 9999 FEW060 07/M02 Q1003",
      "tafRaw": "TAF ENAL 160800Z 1609/1618 13007KT 9999 SCT060 \n  PROB40 1616/1618 RA"
    },
    {
      "icao": "EYPA",
      "iata": "PLQ",
      "name": "Palanga International Airport",
      "updatedAt": "161050Z",
      "visibility_m": 9000,
      "taf_visibility_m": 6000,
      "worst_visibility_m": 6000,
      "ceiling_ft": 1000,
      "hazards": [],
      "severityScore": 12,
      "metarRaw": "METAR EYPA 161050Z 15014KT 9000 NSC M05/M08 Q1027",
      "tafRaw": "TAF EYPA 160500Z 1606/1706 13012KT 6000 SCT010 BKN020 \n  TEMPO 1606/1608 SCT025 \n  TEMPO 1608/1614 13015G25KT BKN010 \n  TEMPO 1621/1703 BKN010"
    },
    {
      "icao": "LEBB",
      "iata": "BIO",
      "name": "Bilbao Airport",
      "updatedAt": "161030Z",
      "visibility_m": 10000,
      "taf_visibility_m": 3000,
      "worst_visibility_m": 3000,
      "ceiling_ft": null,
      "hazards": [
        "RA"
      ],
      "severityScore": 12,
      "metarRaw": "METAR LEBB 161030Z 15007KT 110V200 CAVOK 13/05 Q1011 NOSIG",
      "tafRaw": "TAF LEBB 160500Z 1606/1706 12006KT 9999 FEW045 TX15/1613Z TN07/1607Z \n  TEMPO 1610/1617 22010KT \n  PROB40 \n  TEMPO 1620/1706 3000 RA"
    },
    {
      "icao": "LEMG",
      "iata": "AGP",
      "name": "Málaga-Costa del Sol Airport",
      "updatedAt": "161030Z",
      "visibility_m": 10000,
      "taf_visibility_m": 3000,
      "worst_visibility_m": 3000,
      "ceiling_ft": 5700,
      "hazards": [
        "RA"
      ],
      "severityScore": 12,
      "metarRaw": "METAR LEMG 161030Z 33004KT 9999 FEW007 BKN057 14/12 Q1016 NOSIG",
      "tafRaw": "TAF LEMG 160500Z 1606/1706 VRB02KT 9999 SCT015 TX18/1614Z TN11/1607Z \n  TEMPO 1606/1611 4000 RA BKN006 \n  TEMPO 1620/1624 3000 RA BKN012"
    },
    {
      "icao": "LEXJ",
      "iata": "SDR",
      "name": "Seve Ballesteros-Santander Airport",
      "updatedAt": "161030Z",
      "visibility_m": 10000,
      "taf_visibility_m": 3000,
      "worst_visibility_m": 3000,
      "ceiling_ft": null,
      "hazards": [
        "RA"
      ],
      "severityScore": 12,
      "metarRaw": "METAR LEXJ 161030Z 00000KT CAVOK 09/07 Q1010",
      "tafRaw": "TAF LEXJ 160800Z 1609/1709 20009KT 9999 FEW045 TX15/1614Z TN06/1704Z \n  PROB40 1615/1618 29010KT \n  PROB40 \n  TEMPO 1618/1624 3000 RA"
    },
    {
      "icao": "LFLL",
      "iata": "LYS",
      "name": "Lyon Saint-Exupéry Airport",
      "updatedAt": "161030Z",
      "visibility_m": 10000,
      "taf_visibility_m": 10000,
      "worst_visibility_m": 10000,
      "ceiling_ft": 4000,
      "hazards": [
        "RA"
      ],
      "severityScore": 12,
      "metarRaw": "METAR LFLL 161030Z 17005KT 120V220 9999 FEW030 SCT260 13/05 Q1015 NOSIG",
      "tafRaw": "TAF LFLL 160500Z 1606/1712 18007KT CAVOK \n  BECMG 1707/1709 RA BKN040"
    },
    {
      "icao": "LFLS",
      "iata": "GNB",
      "name": "Grenoble Alpes Isère Airport",
      "updatedAt": "161030Z",
      "visibility_m": 10000,
      "taf_visibility_m": 10000,
      "worst_visibility_m": 10000,
      "ceiling_ft": 5000,
      "hazards": [
        "RA"
      ],
      "severityScore": 12,
      "metarRaw": "METAR LFLS 161030Z AUTO VRB02KT CAVOK 13/05 Q1015 NOSIG",
      "tafRaw": "TAF LFLS 160800Z 1609/1709 VRB03KT CAVOK \n  BECMG 1616/1618 12006KT \n  PROB30 \n  TEMPO 1621/1623 23006KT -RA BKN060 \n  BECMG 1704/1706 07008KT RA BKN050"
    },
    {
      "icao": "LFMN",
      "iata": "NCE",
      "name": "Nice-Côte d'Azur Airport",
      "updatedAt": "161030Z",
      "visibility_m": 10000,
      "taf_visibility_m": 4000,
      "worst_visibility_m": 4000,
      "ceiling_ft": 10000,
      "hazards": [
        "RA"
      ],
      "severityScore": 12,
      "metarRaw": "METAR LFMN 161030Z 32009KT 9999 FEW030 OVC100 11/03 Q1019 NOSIG",
      "tafRaw": "TAF LFMN 160800Z 1609/1715 33010KT 9999 FEW025 BKN100 \n  BECMG 1612/1615 09015KT \n  PROB30 \n  TEMPO 1617/1621 08025KT \n  BECMG 1621/1624 01012KT \n  PROB40 \n  TEMPO 1700/1709 4000 RA \n  BECMG 1712/1715 09015KT"
    },
    {
      "icao": "LICA",
      "iata": "SUF",
      "name": "Lamezia Terme Sant'Eufemia International Airport",
      "updatedAt": "161020Z",
      "visibility_m": 10000,
      "taf_visibility_m": 4000,
      "worst_visibility_m": 4000,
      "ceiling_ft": null,
      "hazards": [
        "RA"
      ],
      "severityScore": 12,
      "metarRaw": "METAR LICA 161020Z AUTO 07016KT 9999 NCD 15/11 Q1020",
      "tafRaw": "TAF LICA 160500Z 1606/1706 08012KT CAVOK \n  TEMPO 1704/1706 4000 RA"
    },
    {
      "icao": "LICJ",
      "iata": "PMO",
      "name": "Falcone–Borsellino Airport",
      "updatedAt": "161050Z",
      "visibility_m": 10000,
      "taf_visibility_m": 10000,
      "worst_visibility_m": 10000,
      "ceiling_ft": null,
      "hazards": [
        "RA"
      ],
      "severityScore": 12,
      "metarRaw": "METAR LICJ 161050Z 15006KT 130V200 CAVOK 14/10 Q1016",
      "tafRaw": "TAF LICJ 160500Z 1606/1706 VRB06KT CAVOK \n  TEMPO 1621/1701 RA"
    },
    {
      "icao": "LIMF",
      "iata": "TRN",
      "name": "Turin Airport",
      "updatedAt": "161050Z",
      "visibility_m": 8000,
      "taf_visibility_m": 4000,
      "worst_visibility_m": 4000,
      "ceiling_ft": 11000,
      "hazards": [
        "RA"
      ],
      "severityScore": 12,
      "metarRaw": "METAR LIMF 161050Z 25004KT 200V310 8000 FEW060 BKN110 08/03 Q1022",
      "tafRaw": "TAF LIMF 160500Z 1606/1706 VRB03KT 6000 SCT020 BKN060 \n  TEMPO 1614/1706 4000 RA"
    },
    {
      "icao": "LIMJ",
      "iata": "GOA",
      "name": "Genoa Cristoforo Colombo Airport",
      "updatedAt": "161050Z",
      "visibility_m": 10000,
      "taf_visibility_m": 10000,
      "worst_visibility_m": 10000,
      "ceiling_ft": 2700,
      "hazards": [
        "RA"
      ],
      "severityScore": 12,
      "metarRaw": "METAR LIMJ 161050Z 04013KT 9999 SCT018 BKN027 10/07 Q1020",
      "tafRaw": "TAF LIMJ 160500Z 1606/1706 04012KT 9999 SCT020 BKN030 \n  TEMPO 1606/1706 RA"
    },
    {
      "icao": "LIRP",
      "iata": "PSA",
      "name": "Pisa International Airport",
      "updatedAt": "161045Z",
      "visibility_m": 10000,
      "taf_visibility_m": 10000,
      "worst_visibility_m": 10000,
      "ceiling_ft": 3000,
      "hazards": [
        "RA"
      ],
      "severityScore": 12,
      "metarRaw": "METAR LIRP 161045Z 12009KT 9999 BKN030 13/11 Q1020 NOSIG",
      "tafRaw": "TAF LIRP 160500Z 1606/1706 15003KT 9999 SCT020 BKN070 \n  PROB40 \n  TEMPO 1606/1612 RA"
    },
    {
      "icao": "GCLP",
      "iata": "LPA",
      "name": "Gran Canaria Airport",
      "updatedAt": "161030Z",
      "visibility_m": 10000,
      "taf_visibility_m": 10000,
      "worst_visibility_m": 10000,
      "ceiling_ft": 3500,
      "hazards": [
        "DZ"
      ],
      "severityScore": 10,
      "metarRaw": "METAR GCLP 161030Z 36014KT 9999 BKN035 19/11 Q1025 NOSIG",
      "tafRaw": "TAF GCLP 160800Z 1609/1709 01019KT 9999 SCT035 TX22/1614Z TN15/1706Z \n  PROB40 \n  TEMPO 1614/1709 01020G30KT \n  PROB30 \n  TEMPO 1618/1621 DZ"
    },
    {
      "icao": "EDDB",
      "iata": "BER",
      "name": "Berlin Brandenburg Airport",
      "updatedAt": "161050Z",
      "visibility_m": 10000,
      "taf_visibility_m": 2500,
      "worst_visibility_m": 2500,
      "ceiling_ft": null,
      "hazards": [
        "BR"
      ],
      "severityScore": 10,
      "metarRaw": "METAR EDDB 161050Z AUTO 16007KT 130V190 CAVOK 07/04 Q1018 NOSIG",
      "tafRaw": "TAF EDDB 160500Z 1606/1706 15008KT 9000 NSC \n  PROB30 \n  TEMPO 1606/1608 2500 BR \n  TEMPO 1608/1613 16013KT"
    },
    {
      "icao": "EPWA",
      "iata": "WAW",
      "name": "Warsaw Chopin Airport",
      "updatedAt": "161030Z",
      "visibility_m": 7000,
      "taf_visibility_m": 3000,
      "worst_visibility_m": 3000,
      "ceiling_ft": 2400,
      "hazards": [
        "BR"
      ],
      "severityScore": 10,
      "metarRaw": "METAR EPWA 161030Z 12011KT 7000 FEW011 BKN024 M04/M06 Q1026 NOSIG",
      "tafRaw": "TAF EPWA 160830Z 1609/1709 12010KT 4000 BR SCT008 BKN022 \n  BECMG 1609/1611 8000 \n  TEMPO 1611/1709 BKN012 \n  PROB40 1615/1706 3000 BR BKN005"
    },
    {
      "icao": "LRSV",
      "iata": "SCV",
      "name": "Suceava Stefan cel Mare Airport",
      "updatedAt": "161030Z",
      "visibility_m": 6000,
      "taf_visibility_m": 4000,
      "worst_visibility_m": 4000,
      "ceiling_ft": null,
      "hazards": [
        "BR"
      ],
      "severityScore": 10,
      "metarRaw": "METAR LRSV 161030Z 08004KT 6000 NSC M11/M12 Q1030",
      "tafRaw": "TAF LRSV 160800Z 1609/1618 08005KT 4000 BR NSC \n  BECMG 1609/1611 9999 NSW"
    },
    {
      "icao": "LWSK",
      "iata": "SKP",
      "name": "Skopje International Airport",
      "updatedAt": "161050Z",
      "visibility_m": 8000,
      "taf_visibility_m": 5000,
      "worst_visibility_m": 5000,
      "ceiling_ft": 8800,
      "hazards": [
        "BR"
      ],
      "severityScore": 10,
      "metarRaw": "METAR LWSK 161050Z 01004KT 8000 FEW050 BKN088 07/03 Q1024 NOSIG",
      "tafRaw": "TAF LWSK 160835Z 1609/1709 VRB02KT 9999 SCT050 \n  TEMPO 1609/1611 5000 BR"
    },
    {
      "icao": "EGNM",
      "iata": "LBA",
      "name": "Leeds Bradford Airport",
      "updatedAt": "161050Z",
      "visibility_m": 9000,
      "taf_visibility_m": null,
      "worst_visibility_m": 9000,
      "ceiling_ft": null,
      "hazards": [],
      "severityScore": 5,
      "metarRaw": "METAR EGNM 161050Z 15003KT 110V180 9000 SCT015 SCT020 04/04 Q1004",
      "tafRaw": null
    },
    {
      "icao": "EPPO",
      "iata": "POZ",
      "name": "Poznań-Ławica Airport",
      "updatedAt": "161030Z",
      "visibility_m": 7000,
      "taf_visibility_m": null,
      "worst_visibility_m": 7000,
      "ceiling_ft": null,
      "hazards": [],
      "severityScore": 5,
      "metarRaw": "METAR EPPO 161030Z 12010KT 7000 NSC 03/01 Q1021",
      "tafRaw": null
    },
    {
      "icao": "EYKA",
      "iata": "KUN",
      "name": "Kaunas International Airport",
      "updatedAt": "161050Z",
      "visibility_m": 9000,
      "taf_visibility_m": null,
      "worst_visibility_m": 9000,
      "ceiling_ft": null,
      "hazards": [],
      "severityScore": 5,
      "metarRaw": "METAR EYKA 161050Z 18008KT 120V240 9000 NSC M13/M16 Q1032",
      "tafRaw": null
    },
    {
      "icao": "EYVI",
      "iata": "VNO",
      "name": "Vilnius International Airport",
      "updatedAt": "161050Z",
      "visibility_m": 10000,
      "taf_visibility_m": null,
      "worst_visibility_m": 10000,
      "ceiling_ft": null,
      "hazards": [],
      "severityScore": 5,
      "metarRaw": "METAR EYVI 161050Z 16009KT CAVOK M14/M18 Q1033 NOSIG",
      "tafRaw": null
    },
    {
      "icao": "HEGN",
      "iata": "HRG",
      "name": "Hurghada International Airport",
      "updatedAt": "161000Z",
      "visibility_m": 10000,
      "taf_visibility_m": null,
      "worst_visibility_m": 10000,
      "ceiling_ft": null,
      "hazards": [],
      "severityScore": 5,
      "metarRaw": "METAR HEGN 161000Z 33007KT CAVOK 20/07 Q1021 NOSIG",
      "tafRaw": null
    },
    {
      "icao": "HEMA",
      "iata": "RMF",
      "name": "Marsa Alam International Airport",
      "updatedAt": "161000Z",
      "visibility_m": 10000,
      "taf_visibility_m": null,
      "worst_visibility_m": 10000,
      "ceiling_ft": null,
      "hazards": [],
      "severityScore": 5,
      "metarRaw": "METAR HEMA 161000Z 33017KT 9999 SCT020 SCT025 21/12 Q1019 NOSIG",
      "tafRaw": null
    },
    {
      "icao": "HESH",
      "iata": "SSH",
      "name": "Sharm El Sheikh International Airport",
      "updatedAt": "161000Z",
      "visibility_m": 10000,
      "taf_visibility_m": null,
      "worst_visibility_m": 10000,
      "ceiling_ft": null,
      "hazards": [],
      "severityScore": 5,
      "metarRaw": "METAR HESH 161000Z 03010KT CAVOK 20/05 Q1020 NOSIG",
      "tafRaw": null
    },
    {
      "icao": "HESX",
      "iata": "SPX",
      "name": "Sphinx International Airport",
      "updatedAt": "161000Z",
      "visibility_m": 10000,
      "taf_visibility_m": null,
      "worst_visibility_m": 10000,
      "ceiling_ft": null,
      "hazards": [],
      "severityScore": 5,
      "metarRaw": "METAR HESX 161000Z 05006KT CAVOK 17/08 Q1023 NOSIG",
      "tafRaw": null
    },
    {
      "icao": "LBSF",
      "iata": "SOF",
      "name": "Sofia Airport",
      "updatedAt": "161030Z",
      "visibility_m": 10000,
      "taf_visibility_m": null,
      "worst_visibility_m": 10000,
      "ceiling_ft": 8700,
      "hazards": [],
      "severityScore": 5,
      "metarRaw": "METAR LBSF 161030Z 25004KT 170V280 9999 BKN087 07/02 Q1023 NOSIG",
      "tafRaw": null
    },
    {
      "icao": "LEBL",
      "iata": "BCN",
      "name": "Josep Tarradellas Barcelona-El Prat Airport",
      "updatedAt": "161030Z",
      "visibility_m": 10000,
      "taf_visibility_m": null,
      "worst_visibility_m": 10000,
      "ceiling_ft": null,
      "hazards": [],
      "severityScore": 5,
      "metarRaw": "METAR LEBL 161030Z 32009KT 240V350 9999 FEW015 SCT055 10/05 Q1015 NOSIG",
      "tafRaw": null
    },
    {
      "icao": "LECH",
      "iata": "CDT",
      "name": "Castellón-Costa Azahar Airport",
      "updatedAt": "161030Z",
      "visibility_m": 10000,
      "taf_visibility_m": null,
      "worst_visibility_m": 10000,
      "ceiling_ft": null,
      "hazards": [],
      "severityScore": 5,
      "metarRaw": "METAR LECH 161030Z AUTO 07004KT 030V100 CAVOK 11/06 Q1014",
      "tafRaw": null
    },
    {
      "icao": "LEZL",
      "iata": "SVQ",
      "name": "Sevilla Airport",
      "updatedAt": "161030Z",
      "visibility_m": 10000,
      "taf_visibility_m": null,
      "worst_visibility_m": 10000,
      "ceiling_ft": null,
      "hazards": [],
      "severityScore": 5,
      "metarRaw": "METAR LEZL 161030Z 27005KT CAVOK 14/11 Q1016 NOSIG",
      "tafRaw": null
    },
    {
      "icao": "LTAC",
      "iata": "ESB",
      "name": "Esenboğa International Airport",
      "updatedAt": "161050Z",
      "visibility_m": 6000,
      "taf_visibility_m": null,
      "worst_visibility_m": 6000,
      "ceiling_ft": 2500,
      "hazards": [],
      "severityScore": 5,
      "metarRaw": "METAR LTAC 161050Z 24008KT 6000 SCT010 BKN025 BKN080 04/02 Q1019 NOSIG",
      "tafRaw": null
    },
    {
      "icao": "LYPG",
      "iata": "TGD",
      "name": "Podgorica Airport / Podgorica Golubovci Airbase",
      "updatedAt": "161030Z",
      "visibility_m": 10000,
      "taf_visibility_m": null,
      "worst_visibility_m": 10000,
      "ceiling_ft": null,
      "hazards": [],
      "severityScore": 5,
      "metarRaw": "METAR LYPG 161030Z VRB01KT 9999 FEW030 12/08 Q1023 NOSIG",
      "tafRaw": null
    },
    {
      "icao": "OMDB",
      "iata": "DXB",
      "name": "Dubai International Airport",
      "updatedAt": "161030Z",
      "visibility_m": 10000,
      "taf_visibility_m": null,
      "worst_visibility_m": 10000,
      "ceiling_ft": 4000,
      "hazards": [],
      "severityScore": 5,
      "metarRaw": "METAR OMDB 161030Z 28015KT 250V320 9999 BKN040 22/11 Q1017 TEMPO 29020G30KT",
      "tafRaw": null
    },
    {
      "icao": "BIKF",
      "iata": "KEF",
      "name": "Keflavik International Airport",
      "updatedAt": "161030Z",
      "visibility_m": 10000,
      "taf_visibility_m": 10000,
      "worst_visibility_m": 10000,
      "ceiling_ft": 2600,
      "hazards": [],
      "severityScore": 0,
      "metarRaw": "METAR BIKF 161030Z 02014KT 9999 SCT017 BKN026 01/M01 Q1002",
      "tafRaw": "TAF BIKF 161032Z 1612/1712 02015KT 9999 SCT020 BKN030 TX02/1612Z TNM03/1706Z \n  BECMG 1623/1701 08008KT \n  BECMG 1709/1711 12012KT"
    },
    {
      "icao": "GCFV",
      "iata": "FUE",
      "name": "Fuerteventura Airport",
      "updatedAt": "161030Z",
      "visibility_m": 10000,
      "taf_visibility_m": 10000,
      "worst_visibility_m": 10000,
      "ceiling_ft": 3500,
      "hazards": [],
      "severityScore": 0,
      "metarRaw": "METAR GCFV 161030Z 35007KT 310V020 9999 BKN035 18/10 Q1025",
      "tafRaw": "TAF GCFV 160800Z 1609/1709 03007KT 9999 SCT035 TX22/1614Z TN14/1706Z \n  TEMPO 1613/1619 33012KT"
    },
    {
      "icao": "GMAD",
      "iata": "AGA",
      "name": "Al Massira Airport",
      "updatedAt": "161030Z",
      "visibility_m": 10000,
      "taf_visibility_m": 10000,
      "worst_visibility_m": 10000,
      "ceiling_ft": null,
      "hazards": [],
      "severityScore": 0,
      "metarRaw": "METAR GMAD 161030Z 00000KT CAVOK 15/13 Q1023 NOSIG",
      "tafRaw": "TAF GMAD 160500Z 1606/1712 09005KT CAVOK \n  BECMG 1616/1618 27010KT"
    },
    {
      "icao": "EDDK",
      "iata": "CGN",
      "name": "Cologne Bonn Airport",
      "updatedAt": "161050Z",
      "visibility_m": 10000,
      "taf_visibility_m": 10000,
      "worst_visibility_m": 10000,
      "ceiling_ft": null,
      "hazards": [],
      "severityScore": 0,
      "metarRaw": "METAR EDDK 161050Z AUTO 15007KT 9999 FEW025 11/07 Q1014 NOSIG",
      "tafRaw": "TAF EDDK 160500Z 1606/1712 17008KT 9999 SCT035 \n  BECMG 1614/1617 11007KT"
    },
    {
      "icao": "EDJA",
      "iata": "FMM",
      "name": "Memmingen Allgau Airport",
      "updatedAt": "161050Z",
      "visibility_m": 10000,
      "taf_visibility_m": 10000,
      "worst_visibility_m": 10000,
      "ceiling_ft": null,
      "hazards": [],
      "severityScore": 0,
      "metarRaw": "METAR EDJA 161050Z 31002KT CAVOK 07/01 Q1017",
      "tafRaw": "TAF EDJA 160800Z 1609/1618 VRB03KT CAVOK"
    },
    {
      "icao": "EDLW",
      "iata": "DTM",
      "name": "Dortmund Airport",
      "updatedAt": "161050Z",
      "visibility_m": 10000,
      "taf_visibility_m": 10000,
      "worst_visibility_m": 10000,
      "ceiling_ft": 4500,
      "hazards": [],
      "severityScore": 0,
      "metarRaw": "METAR EDLW 161050Z 18010KT 9999 BKN045 11/06 Q1013",
      "tafRaw": "TAF EDLW 160500Z 1606/1706 19011KT 9999 BKN035 \n  BECMG 1615/1618 13005KT"
    },
    {
      "icao": "EHEH",
      "iata": "EIN",
      "name": "Eindhoven Airport",
      "updatedAt": "161025Z",
      "visibility_m": 10000,
      "taf_visibility_m": 10000,
      "worst_visibility_m": 10000,
      "ceiling_ft": 3900,
      "hazards": [],
      "severityScore": 0,
      "metarRaw": "METAR EHEH 161025Z AUTO 17003KT 9999 SCT035 OVC039 10/07 Q1012 BLU NOSIG RMK TREND REMOTE BY EHWX",
      "tafRaw": "TAF EHEH 160538Z 1606/1712 23016KT 9999 BKN030 \n  BECMG 1606/1608 21007KT \n  TEMPO 1608/1614 SCT012 BKN015 \n  BECMG 1615/1617 14005KT"
    },
    {
      "icao": "ENTC",
      "iata": "TOS",
      "name": "Tromsø Airport, Langnes",
      "updatedAt": "161050Z",
      "visibility_m": 10000,
      "taf_visibility_m": 10000,
      "worst_visibility_m": 10000,
      "ceiling_ft": null,
      "hazards": [],
      "severityScore": 0,
      "metarRaw": "METAR ENTC 161050Z 25006KT CAVOK M02/M07 Q1011 NOSIG RMK WIND 2600FT 17006KT",
      "tafRaw": "TAF ENTC 160500Z 1606/1706 20008KT CAVOK \n  TEMPO 1606/1615 21018KT"
    },
    {
      "icao": "EPSY",
      "iata": "SZY",
      "name": "Olsztyn-Mazury Airport",
      "updatedAt": "161030Z",
      "visibility_m": 6000,
      "taf_visibility_m": 7000,
      "worst_visibility_m": 6000,
      "ceiling_ft": null,
      "hazards": [],
      "severityScore": 0,
      "metarRaw": "METAR EPSY 161030Z 14006KT 060V190 6000 NSC M05/M07 Q1027",
      "tafRaw": "TAF EPSY 160830Z 1609/1618 14008KT 7000 SCT025"
    },
    {
      "icao": "LATI",
      "iata": "TIA",
      "name": "Tirana International Airport Mother Teresa",
      "updatedAt": "161050Z",
      "visibility_m": 10000,
      "taf_visibility_m": 10000,
      "worst_visibility_m": 10000,
      "ceiling_ft": 8000,
      "hazards": [],
      "severityScore": 0,
      "metarRaw": "METAR LATI 161050Z 36003KT 330V050 9999 FEW050 BKN080 13/06 Q1022 NOSIG",
      "tafRaw": "TAF LATI 160500Z 1606/1706 VRB05KT 9999 FEW040 BKN070 TX16/1612Z TN05/1705Z"
    },
    {
      "icao": "LCLK",
      "iata": "LCA",
      "name": "Larnaca International Airport",
      "updatedAt": "161030Z",
      "visibility_m": 10000,
      "taf_visibility_m": 10000,
      "worst_visibility_m": 10000,
      "ceiling_ft": null,
      "hazards": [],
      "severityScore": 0,
      "metarRaw": "METAR LCLK 161030Z 11004KT 070V140 9999 FEW030 18/09 Q1021 NOSIG",
      "tafRaw": "TAF LCLK 160530Z 1606/1706 32006KT 9999 FEW025 SCT040 \n  BECMG 1609/1611 20010KT \n  BECMG 1615/1617 32006KT"
    },
    {
      "icao": "LEVC",
      "iata": "VLC",
      "name": "Valencia Airport",
      "updatedAt": "161030Z",
      "visibility_m": 10000,
      "taf_visibility_m": 10000,
      "worst_visibility_m": 10000,
      "ceiling_ft": 4000,
      "hazards": [],
      "severityScore": 0,
      "metarRaw": "METAR LEVC 161030Z 32003KT 280V360 9999 FEW030 BKN040 13/08 Q1015 NOSIG",
      "tafRaw": "TAF LEVC 160500Z 1606/1706 24005KT CAVOK TX16/1612Z TN07/1606Z \n  TEMPO 1612/1618 VRB03KT \n  BECMG 1617/1619 30005KT"
    },
    {
      "icao": "LFSB",
      "iata": "BSL",
      "name": "EuroAirport Basel–Mulhouse–Freiburg",
      "updatedAt": "161030Z",
      "visibility_m": 10000,
      "taf_visibility_m": 10000,
      "worst_visibility_m": 10000,
      "ceiling_ft": null,
      "hazards": [],
      "severityScore": 0,
      "metarRaw": "METAR LFSB 161030Z AUTO 15009KT CAVOK 08/03 Q1016 NOSIG",
      "tafRaw": "TAF LFSB 160500Z 1606/1706 18005KT CAVOK"
    },
    {
      "icao": "LGAV",
      "iata": "ATH",
      "name": "Athens Eleftherios Venizelos International Airport",
      "updatedAt": "161050Z",
      "visibility_m": 10000,
      "taf_visibility_m": 10000,
      "worst_visibility_m": 10000,
      "ceiling_ft": null,
      "hazards": [],
      "severityScore": 0,
      "metarRaw": "METAR LGAV 161050Z 09005KT 020V130 9999 FEW025 15/08 Q1022 NOSIG",
      "tafRaw": "TAF LGAV 160500Z 1606/1706 VRB03KT 9999 FEW030 \n  BECMG 1618/1620 04012KT"
    },
    {
      "icao": "LIBD",
      "iata": "BRI",
      "name": "Bari Karol Wojtyła International Airport",
      "updatedAt": "161050Z",
      "visibility_m": 10000,
      "taf_visibility_m": 10000,
      "worst_visibility_m": 10000,
      "ceiling_ft": null,
      "hazards": [],
      "severityScore": 0,
      "metarRaw": "METAR LIBD 161050Z 33004KT 290V020 CAVOK 12/08 Q1021",
      "tafRaw": "TAF LIBD 160500Z 1606/1706 VRB05KT 9999 FEW030"
    },
    {
      "icao": "LIBG",
      "iata": "TAR",
      "name": "Taranto-Grottaglie Marcello Arlotta Airport",
      "updatedAt": "160950Z",
      "visibility_m": 10000,
      "taf_visibility_m": 8000,
      "worst_visibility_m": 8000,
      "ceiling_ft": null,
      "hazards": [],
      "severityScore": 0,
      "metarRaw": "METAR LIBG 160950Z VRB02KT CAVOK 13/13 Q1021",
      "tafRaw": "TAF LIBG 160800Z 1609/1618 VRB05KT 8000 FEW025"
    },
    {
      "icao": "LIBP",
      "iata": "PSR",
      "name": "Abruzzo Airport",
      "updatedAt": "161020Z",
      "visibility_m": 10000,
      "taf_visibility_m": 10000,
      "worst_visibility_m": 10000,
      "ceiling_ft": null,
      "hazards": [],
      "severityScore": 0,
      "metarRaw": "METAR LIBP 161020Z AUTO 23004KT 9999 NCD 11/04 Q1022",
      "tafRaw": "TAF LIBP 160500Z 1606/1706 VRB05KT CAVOK"
    },
    {
      "icao": "LIRF",
      "iata": "FCO",
      "name": "Rome–Fiumicino Leonardo da Vinci International Airport",
      "updatedAt": "161050Z",
      "visibility_m": 10000,
      "taf_visibility_m": 10000,
      "worst_visibility_m": 10000,
      "ceiling_ft": null,
      "hazards": [],
      "severityScore": 0,
      "metarRaw": "METAR LIRF 161050Z 06007KT CAVOK 12/07 Q1020 NOSIG",
      "tafRaw": "TAF LIRF 160500Z 1606/1712 06007KT CAVOK"
    },
    {
      "icao": "LIRN",
      "iata": "NAP",
      "name": "Naples International Airport",
      "updatedAt": "161050Z",
      "visibility_m": 10000,
      "taf_visibility_m": 10000,
      "worst_visibility_m": 10000,
      "ceiling_ft": null,
      "hazards": [],
      "severityScore": 0,
      "metarRaw": "METAR LIRN 161050Z VRB02KT CAVOK 14/06 Q1019 NOSIG",
      "tafRaw": "TAF LIRN 160500Z 1606/1706 VRB05KT CAVOK"
    },
    {
      "icao": "LLBG",
      "iata": "TLV",
      "name": "Ben Gurion International Airport",
      "updatedAt": "161050Z",
      "visibility_m": 10000,
      "taf_visibility_m": 10000,
      "worst_visibility_m": 10000,
      "ceiling_ft": 4000,
      "hazards": [],
      "severityScore": 0,
      "metarRaw": "METAR LLBG 161050Z 02006KT 9999 FEW043 18/07 Q1021 NOSIG",
      "tafRaw": "TAF LLBG 160503Z 1606/1706 VRB03KT 9999 FEW045 \n  BECMG 1609/1611 29010KT SCT045 \n  PROB40 \n  TEMPO 1611/1614 BKN040 \n  BECMG 1615/1617 VRB03KT \n  PROB40 \n  TEMPO 1701/1706 10005KT BKN040 TX19/1612Z TN08/1704Z"
    },
    {
      "icao": "LRIA",
      "iata": "IAS",
      "name": "Iaşi Airport",
      "updatedAt": "161030Z",
      "visibility_m": 10000,
      "taf_visibility_m": 10000,
      "worst_visibility_m": 10000,
      "ceiling_ft": null,
      "hazards": [],
      "severityScore": 0,
      "metarRaw": "METAR LRIA 161030Z 32004KT CAVOK M10/M14 Q1034",
      "tafRaw": "TAF LRIA 160800Z 1609/1618 29005KT CAVOK"
    },
    {
      "icao": "LRBC",
      "iata": "BCM",
      "name": "Bacău George Enescu International  Airport",
      "updatedAt": "161030Z",
      "visibility_m": 8000,
      "taf_visibility_m": 10000,
      "worst_visibility_m": 8000,
      "ceiling_ft": null,
      "hazards": [],
      "severityScore": 0,
      "metarRaw": "METAR LRBC 161030Z 03008KT 8000 NSC M04/M10 Q1033",
      "tafRaw": "TAF LRBC 160800Z 1609/1618 34007KT 9999 SCT045"
    },
    {
      "icao": "LRSM",
      "iata": "SUJ",
      "name": "Satu Mare International Airport",
      "updatedAt": "161030Z",
      "visibility_m": 10000,
      "taf_visibility_m": 10000,
      "worst_visibility_m": 10000,
      "ceiling_ft": 4000,
      "hazards": [],
      "severityScore": 0,
      "metarRaw": "METAR LRSM 161030Z 10005KT CAVOK 04/M01 Q1026",
      "tafRaw": "TAF LRSM 160800Z 1609/1618 09006KT 9999 BKN040"
    },
    {
      "icao": "LWOH",
      "iata": "OHD",
      "name": "Ohrid St. Paul the Apostle Airport",
      "updatedAt": "161050Z",
      "visibility_m": 10000,
      "taf_visibility_m": 10000,
      "worst_visibility_m": 10000,
      "ceiling_ft": 5000,
      "hazards": [],
      "severityScore": 0,
      "metarRaw": "METAR LWOH 161050Z VRB02KT 9999 BKN050 08/04 Q1023",
      "tafRaw": "TAF LWOH 160835Z 1609/1709 VRB02KT 9999 SCT050"
    },
    {
      "icao": "OEJN",
      "iata": "JED",
      "name": "King Abdulaziz International Airport",
      "updatedAt": "161000Z",
      "visibility_m": 10000,
      "taf_visibility_m": 2000,
      "worst_visibility_m": 2000,
      "ceiling_ft": null,
      "hazards": [],
      "severityScore": 0,
      "metarRaw": "METAR OEJN 161000Z 14003KT CAVOK 31/04 Q1013 NOSIG",
      "tafRaw": "TAF OEJN 160500Z 1606/1712 08014KT 6000 NSC \n  TEMPO 1606/1614 2000 BLDU \n  BECMG 1618/1620 08008KT"
    },
    {
      "icao": "OEMA",
      "iata": "MED",
      "name": "Prince Mohammad Bin Abdulaziz Airport",
      "updatedAt": "161000Z",
      "visibility_m": 10000,
      "taf_visibility_m": 2000,
      "worst_visibility_m": 2000,
      "ceiling_ft": null,
      "hazards": [],
      "severityScore": 0,
      "metarRaw": "METAR OEMA 161000Z 09009KT CAVOK 18/00 Q1022 NOSIG",
      "tafRaw": "TAF OEMA 160500Z 1606/1712 09015KT 6000 NSC \n  TEMPO 1606/1614 2000 BLDU"
    },
    {
      "icao": "OMAA",
      "iata": "AUH",
      "name": "Zayed International Airport",
      "updatedAt": "161000Z",
      "visibility_m": 10000,
      "taf_visibility_m": 8000,
      "worst_visibility_m": 8000,
      "ceiling_ft": null,
      "hazards": [],
      "severityScore": 0,
      "metarRaw": "METAR OMAA 161000Z 30015KT 9999 FEW040 22/11 Q1018 NOSIG",
      "tafRaw": "TAF OMAA 160500Z 1606/1712 32013KT 8000 FEW030 \n  PROB30 \n  TEMPO 1606/1613 32015G25KT \n  PROB30 \n  TEMPO 1704/1712 32015G25KT"
    },
    {
      "icao": "UDSG",
      "iata": "LWN",
      "name": "Shirak International Airport",
      "updatedAt": "161030Z",
      "visibility_m": 10000,
      "taf_visibility_m": 10000,
      "worst_visibility_m": 10000,
      "ceiling_ft": 4900,
      "hazards": [],
      "severityScore": 0,
      "metarRaw": "METAR UDSG 161030Z 24001KT 9999 BKN049 M09/M15 Q1020 NOSIG",
      "tafRaw": "TAF UDSG 160500Z 1606/1706 VRB06KT 9999 SCT040"
    },
    {
      "icao": "UDYZ",
      "iata": "EVN",
      "name": "Zvartnots International Airport",
      "updatedAt": "161030Z",
      "visibility_m": 10000,
      "taf_visibility_m": 10000,
      "worst_visibility_m": 10000,
      "ceiling_ft": null,
      "hazards": [],
      "severityScore": 0,
      "metarRaw": "METAR UDYZ 161030Z VRB01KT 9999 FEW046 01/M12 Q1022 NOSIG",
      "tafRaw": "TAF UDYZ 160500Z 1606/1706 VRB06KT 9999 FEW040"
    }
  ],
  "stats": {
    "icaoCount": 159,
    "metarReturned": 158,
    "tafReturned": 130,
    "stationsWritten": 159,
    "missingMetar": 1,
    "missingTaf": 29
  },
  "errors": []
}