{
  "generatedAt": "2026-01-30T02:25:20.431Z",
  "stations": [
    {
      "icao": "EDDS",
      "iata": "STR",
      "name": "Stuttgart Airport",
      "lat": 48.689899,
      "lon": 9.22196,
      "updatedAt": "300220Z",
      "visibility_m": 250,
      "taf_visibility_m": 300,
      "worst_visibility_m": 250,
      "ceiling_ft": 200,
      "hazards": [
        "FZFG",
        "FG"
      ],
      "severityScore": 100,
      "metarRaw": "METAR EDDS 300220Z AUTO VRB01KT 0300 0250 R07/0300N FZFG VV002 M02/M02 Q0998",
      "tafRaw": "TAF EDDS 292300Z 3000/3024 VRB02KT 0700 FZFG VV003 \n  TEMPO 3000/3008 0300 FZFG BKN001 \n  BECMG 3009/3012 6000 NSW SCT008 \n  PROB30 \n  TEMPO 3020/3024 1200 BCFG"
    },
    {
      "icao": "EDFH",
      "iata": "HHN",
      "name": "Frankfurt-Hahn Airport",
      "lat": 49.946353,
      "lon": 7.261734,
      "updatedAt": "300150Z",
      "visibility_m": 400,
      "taf_visibility_m": 400,
      "worst_visibility_m": 400,
      "ceiling_ft": 100,
      "hazards": [
        "FZFG",
        "FG",
        "BR",
        "SN",
        "RA"
      ],
      "severityScore": 100,
      "metarRaw": "METAR EDFH 300150Z 14009KT 0400 R21/0650N FZFG VV/// M01/M01 Q0997",
      "tafRaw": "TAF EDFH 292300Z 3000/3024 14010KT 8000 SCT003 BKN015 \n  PROB30 \n  TEMPO 3000/3009 0400 FZFG BKN001 \n  BECMG 3009/3012 3000 BR BKN004 \n  TEMPO 3010/3024 0400 -SNRA FZFG BKN001"
    },
    {
      "icao": "EDJA",
      "iata": "FMM",
      "name": "Memmingen Allgau Airport",
      "lat": 47.988092,
      "lon": 10.238248,
      "updatedAt": "300150Z",
      "visibility_m": 600,
      "taf_visibility_m": 350,
      "worst_visibility_m": 350,
      "ceiling_ft": 100,
      "hazards": [
        "FZFG",
        "BR",
        "FG"
      ],
      "severityScore": 100,
      "metarRaw": "METAR EDJA 300150Z AUTO 01002KT 0900 0600 R24/1400D // FEW003/// SCT025/// M05/M05 Q0998",
      "tafRaw": "TAF EDJA 300200Z 3003/3012 VRB02KT 0600 FZFG VV002 \n  TEMPO 3003/3009 0350 FZFG VV001 \n  PROB40 \n  TEMPO 3009/3012 3000 BR"
    },
    {
      "icao": "EDNY",
      "iata": "FDH",
      "name": "Bodensee Airport Friedrichshafen",
      "lat": 47.671299,
      "lon": 9.51149,
      "updatedAt": "300150Z",
      "visibility_m": 1400,
      "taf_visibility_m": 350,
      "worst_visibility_m": 350,
      "ceiling_ft": 100,
      "hazards": [
        "FZFG",
        "BR",
        "FG"
      ],
      "severityScore": 100,
      "metarRaw": "METAR EDNY 300150Z AUTO 04005KT 360V070 1500 1400 R24/1800U // SCT002/// OVC004/// 00/00 Q0999",
      "tafRaw": "TAF EDNY 300200Z 3003/3012 VRB03KT 0800 FZFG VV002 \n  PROB30 \n  TEMPO 3003/3009 0350 FZFG VV001 \n  PROB40 \n  TEMPO 3010/3012 4000 BR"
    },
    {
      "icao": "EDSB",
      "iata": "FKB",
      "name": "Karlsruhe Baden-Baden Airport",
      "lat": 48.7794,
      "lon": 8.0805,
      "updatedAt": "300150Z",
      "visibility_m": 300,
      "taf_visibility_m": 400,
      "worst_visibility_m": 300,
      "ceiling_ft": 100,
      "hazards": [
        "FZFG",
        "BR",
        "FG",
        "RA",
        "DZ"
      ],
      "severityScore": 100,
      "metarRaw": "METAR EDSB 300150Z AUTO 34003KT 0450 0300 R21/0700D // VV/// M00/M00 Q0999",
      "tafRaw": "TAF EDSB 292300Z 3000/3024 VRB03KT 5000 BR FEW002 SCT020 \n  TEMPO 3000/3010 0400 FZFG VV001 \n  TEMPO 3010/3013 4000 BR BKN005 \n  TEMPO 3013/3020 4000 RADZ BKN012"
    },
    {
      "icao": "EHBK",
      "iata": "MST",
      "name": "Maastricht Aachen Airport",
      "lat": 50.911701,
      "lon": 5.77014,
      "updatedAt": "300155Z",
      "visibility_m": 300,
      "taf_visibility_m": 4500,
      "worst_visibility_m": 300,
      "ceiling_ft": 0,
      "hazards": [
        "FZFG",
        "FG",
        "BR",
        "RA",
        "DZ"
      ],
      "severityScore": 100,
      "metarRaw": "METAR EHBK 300155Z AUTO 09006KT 0300 R21/0400N FZFG VV000 M02/M02 Q0998",
      "tafRaw": "TAF EHBK 292317Z 3000/3106 11005KT 4500 BR BKN022 \n  BECMG 3004/3007 9999 NSW \n  PROB40 \n  TEMPO 3023/3105 7000 -RADZ BKN012"
    },
    {
      "icao": "LGTS",
      "iata": "SKG",
      "name": "Thessaloniki Macedonia International Airport",
      "lat": 40.51928,
      "lon": 22.970009,
      "updatedAt": "300220Z",
      "visibility_m": 10000,
      "taf_visibility_m": 500,
      "worst_visibility_m": 500,
      "ceiling_ft": 300,
      "hazards": [
        "TS",
        "FG",
        "RA"
      ],
      "severityScore": 100,
      "metarRaw": "METAR LGTS 300220Z VRB03KT 9999 FEW005 SCT020 10/10 Q0995 NOSIG",
      "tafRaw": "TAF LGTS 292300Z 3000/3024 34010KT 9999 SCT008 BKN025 \n  TEMPO 3000/3003 5000 RA \n  PROB40 3003/3008 0500 FG OVC003 \n  BECMG 3008/3010 FEW025"
    },
    {
      "icao": "LIBP",
      "iata": "PSR",
      "name": "Abruzzo Airport",
      "lat": 42.431079,
      "lon": 14.182981,
      "updatedAt": "300150Z",
      "visibility_m": 10000,
      "taf_visibility_m": 500,
      "worst_visibility_m": 500,
      "ceiling_ft": 200,
      "hazards": [
        "FG",
        "BR"
      ],
      "severityScore": 100,
      "metarRaw": "METAR LIBP 300150Z AUTO 24003KT 9999 FEW058/// 04/04 Q1000",
      "tafRaw": "TAF LIBP 292300Z 3000/3024 VRB05KT 6000 SCT060 \n  BECMG 3000/3001 3000 BR \n  TEMPO 3001/3006 0600 FG BKN002 \n  BECMG 3006/3008 7000 \n  BECMG 3018/3020 3000 BR \n  TEMPO 3021/3024 0500 FG BKN002"
    },
    {
      "icao": "LIMC",
      "iata": "MXP",
      "name": "Milan Malpensa International Airport",
      "lat": 45.6306,
      "lon": 8.72811,
      "updatedAt": "300220Z",
      "visibility_m": 500,
      "taf_visibility_m": 300,
      "worst_visibility_m": 300,
      "ceiling_ft": 200,
      "hazards": [
        "FG",
        "BR"
      ],
      "severityScore": 100,
      "metarRaw": "METAR LIMC 300220Z 35006KT 0500 R35R/P2000N R17L/1400U R35L/1600D FG OVC002 03/03 Q1000 NOSIG",
      "tafRaw": "TAF LIMC 292300Z 3000/3106 VRB05KT 0300 FG OVC002 \n  BECMG 3010/3012 4000 BR SCT010 \n  BECMG 3018/3020 2000 \n  BECMG 3021/3023 0500 FG BKN002"
    },
    {
      "icao": "LIMF",
      "iata": "TRN",
      "name": "Turin Airport",
      "lat": 45.200802,
      "lon": 7.64963,
      "updatedAt": "300220Z",
      "visibility_m": 200,
      "taf_visibility_m": 200,
      "worst_visibility_m": 200,
      "ceiling_ft": 100,
      "hazards": [
        "FG",
        "BR"
      ],
      "severityScore": 100,
      "metarRaw": "METAR LIMF 300220Z VRB01KT 0200 R36/0600N FG OVC001 02/01 Q1000",
      "tafRaw": "TAF LIMF 292300Z 3000/3024 VRB04KT 0200 FG BKN004 \n  BECMG 3007/3009 4000 BR SCT015 \n  BECMG 3009/3011 6000 \n  BECMG 3019/3021 1200 BR \n  BECMG 3022/3024 0600 FG BKN005"
    },
    {
      "icao": "LIPE",
      "iata": "BLQ",
      "name": "Bologna Guglielmo Marconi Airport",
      "lat": 44.5354,
      "lon": 11.2887,
      "updatedAt": "300220Z",
      "visibility_m": 1500,
      "taf_visibility_m": 300,
      "worst_visibility_m": 300,
      "ceiling_ft": 100,
      "hazards": [
        "FG",
        "BR"
      ],
      "severityScore": 100,
      "metarRaw": "METAR LIPE 300220Z 25004KT 1500 BCFG SCT002 01/01 Q1000",
      "tafRaw": "TAF LIPE 292300Z 3000/3024 VRB04KT 0300 FG OVC001 \n  BECMG 3009/3012 6000 SCT010 \n  BECMG 3019/3021 3000 BR"
    },
    {
      "icao": "LIPH",
      "iata": "TSF",
      "name": "Treviso Antonio Canova Airport",
      "lat": 45.648399,
      "lon": 12.1944,
      "updatedAt": "300220Z",
      "visibility_m": 200,
      "taf_visibility_m": 100,
      "worst_visibility_m": 100,
      "ceiling_ft": 200,
      "hazards": [
        "FG",
        "BR"
      ],
      "severityScore": 100,
      "metarRaw": "METAR LIPH 300220Z AUTO VRB01KT 0200 0150E R07/0700N FG VV002 04/04 Q1000",
      "tafRaw": "TAF LIPH 292300Z 3000/3024 VRB04KT 0100 FG OVC001 \n  BECMG 3008/3011 3000 BR BKN010 \n  BECMG 3011/3013 6000 SCT020 \n  BECMG 3018/3020 3000 BR \n  TEMPO 3021/3024 0500 FG BKN002"
    },
    {
      "icao": "LIPR",
      "iata": "RMI",
      "name": "Federico Fellini International Airport",
      "lat": 44.020024,
      "lon": 12.612198,
      "updatedAt": "300220Z",
      "visibility_m": 2800,
      "taf_visibility_m": 500,
      "worst_visibility_m": 500,
      "ceiling_ft": 200,
      "hazards": [
        "BR",
        "FG"
      ],
      "severityScore": 100,
      "metarRaw": "METAR LIPR 300220Z AUTO 21003KT 190V250 2800 BR NCD 01/01 Q1000",
      "tafRaw": "TAF LIPR 292300Z 3000/3024 VRB05KT 3000 BR BKN010 \n  BECMG 3000/3002 0500 FG OVC002 \n  TEMPO 3010/3020 3000 BR BKN006"
    },
    {
      "icao": "LIPX",
      "iata": "VRN",
      "name": "Verona Villafranca Valerio Catullo Airport",
      "lat": 45.394955,
      "lon": 10.887303,
      "updatedAt": "300220Z",
      "visibility_m": 100,
      "taf_visibility_m": 200,
      "worst_visibility_m": 100,
      "ceiling_ft": 100,
      "hazards": [
        "FG",
        "BR"
      ],
      "severityScore": 100,
      "metarRaw": "METAR LIPX 300220Z 19003KT 160V220 0100 R04/0350N FG VV001 02/02 Q1000",
      "tafRaw": "TAF LIPX 292300Z 3000/3024 VRB05KT 0200 FG BKN005 \n  BECMG 3009/3011 6000 SCT020 \n  BECMG 3016/3018 3000 BR \n  BECMG 3020/3022 0700 FG BKN005"
    },
    {
      "icao": "LIPY",
      "iata": "AOI",
      "name": "Marche Airport",
      "lat": 43.616299,
      "lon": 13.3623,
      "updatedAt": "300150Z",
      "visibility_m": 100,
      "taf_visibility_m": 500,
      "worst_visibility_m": 100,
      "ceiling_ft": 200,
      "hazards": [
        "FG",
        "BR"
      ],
      "severityScore": 100,
      "metarRaw": "METAR LIPY 300150Z AUTO 20003KT 170V230 0100 R22/0600N BCFG VV002 03/03 Q1000",
      "tafRaw": "TAF LIPY 292300Z 3000/3024 VRB05KT 6000 BKN010 \n  BECMG 3000/3002 0500 FG OVC002 \n  BECMG 3007/3009 6000 BKN010 \n  BECMG 3018/3020 3000 BR"
    },
    {
      "icao": "LIPZ",
      "iata": "VCE",
      "name": "Venice Marco Polo Airport",
      "lat": 45.505299,
      "lon": 12.3519,
      "updatedAt": "300220Z",
      "visibility_m": 500,
      "taf_visibility_m": 300,
      "worst_visibility_m": 300,
      "ceiling_ft": 200,
      "hazards": [
        "FG",
        "BR"
      ],
      "severityScore": 100,
      "metarRaw": "METAR LIPZ 300220Z 29002KT 0500 R04R/P2000N FG BKN002 04/04 Q1000 NOSIG",
      "tafRaw": "TAF LIPZ 292300Z 3000/3106 VRB04KT 1500 BCFG BKN010 \n  BECMG 3000/3002 0300 FG BKN002 \n  BECMG 3010/3012 3000 BR SCT010 \n  TEMPO 3012/3018 6000 \n  TEMPO 3020/3104 0800 FG BKN003"
    },
    {
      "icao": "LIRZ",
      "iata": "PEG",
      "name": "Perugia San Francesco d'Assisi – Umbria International Airport",
      "lat": 43.095901,
      "lon": 12.5132,
      "updatedAt": "300150Z",
      "visibility_m": 5000,
      "taf_visibility_m": 400,
      "worst_visibility_m": 400,
      "ceiling_ft": 600,
      "hazards": [
        "BR",
        "FG",
        "RA"
      ],
      "severityScore": 100,
      "metarRaw": "METAR LIRZ 300150Z AUTO VRB01KT 5000 BR FEW025/// BKN052/// 06/06 Q1000",
      "tafRaw": "TAF LIRZ 292300Z 3000/3024 VRB03KT 1500 BR BKN020 \n  PROB40 \n  TEMPO 3002/3009 0400 FG BKN006 \n  BECMG 3009/3011 8000 \n  BECMG 3015/3017 4000 -RA"
    },
    {
      "icao": "LKPR",
      "iata": "PRG",
      "name": "Václav Havel Airport Prague",
      "lat": 50.100874,
      "lon": 14.259911,
      "updatedAt": "300200Z",
      "visibility_m": 400,
      "taf_visibility_m": 300,
      "worst_visibility_m": 300,
      "ceiling_ft": 200,
      "hazards": [
        "FZFG",
        "FG",
        "BR"
      ],
      "severityScore": 100,
      "metarRaw": "METAR LKPR 300200Z 03003KT 0400 R24/0550N R30/0500N FZFG VV002 M01/M01 Q1000 NOSIG",
      "tafRaw": "TAF LKPR 300200Z 3003/3109 09003KT 0500 FZFG SCT001 OVC002 \n  TEMPO 3003/3010 VRB02KT 0300 FZFG VV001 \n  BECMG 3010/3012 2500 BR BKN005 \n  TEMPO 3012/3109 5000 BR BKN013"
    },
    {
      "icao": "LRIA",
      "iata": "IAS",
      "name": "Iaşi Airport",
      "lat": 47.180278,
      "lon": 27.620833,
      "updatedAt": "300200Z",
      "visibility_m": 1500,
      "taf_visibility_m": 800,
      "worst_visibility_m": 800,
      "ceiling_ft": 100,
      "hazards": [
        "BR",
        "FG",
        "DZ"
      ],
      "severityScore": 100,
      "metarRaw": "METAR LRIA 300200Z 33007KT 1500 BR OVC001 01/00 Q1001",
      "tafRaw": "TAF LRIA 292300Z 3000/3009 32007KT 1500 -DZ BR BKN005 \n  TEMPO 3000/3005 0800 -DZ FG OVC001 \n  BECMG 3005/3007 5000 BKN010"
    },
    {
      "icao": "LRCL",
      "iata": "CLJ",
      "name": "Cluj Avram Iancu International Airport",
      "lat": 46.787425,
      "lon": 23.684292,
      "updatedAt": "300200Z",
      "visibility_m": 800,
      "taf_visibility_m": 600,
      "worst_visibility_m": 600,
      "ceiling_ft": 2000,
      "hazards": [
        "FG",
        "DZ",
        "FZFG",
        "BR",
        "FZDZ"
      ],
      "severityScore": 100,
      "metarRaw": "METAR LRCL 300200Z 00000KT 0800 R25/0750N -DZ FG FEW002 BKN020 OVC038 02/02 Q0997",
      "tafRaw": "TAF LRCL 292300Z 3000/3009 VRB04KT 1500 BR BKN002 OVC025 \n  TEMPO 3000/3007 0600 -DZ FG OVC002 \n  PROB40 \n  TEMPO 3000/3006 -FZDZ FZFG"
    },
    {
      "icao": "LRCV",
      "iata": "CRA",
      "name": "Craiova International Airport",
      "lat": 44.3181,
      "lon": 23.888599,
      "updatedAt": "300200Z",
      "visibility_m": 6000,
      "taf_visibility_m": 300,
      "worst_visibility_m": 300,
      "ceiling_ft": 200,
      "hazards": [
        "FG",
        "BR"
      ],
      "severityScore": 100,
      "metarRaw": "METAR LRCV 300200Z 15002KT 6000 NSC 03/03 Q0997",
      "tafRaw": "TAF LRCV 292300Z 3000/3009 VRB04KT 3000 BR NSC \n  BECMG 3000/3002 0800 FG BKN002 \n  TEMPO 3002/3009 0300 FG VV002"
    },
    {
      "icao": "LRSV",
      "iata": "SCV",
      "name": "Suceava Stefan cel Mare Airport",
      "lat": 47.6875,
      "lon": 26.35409927368164,
      "updatedAt": "300200Z",
      "visibility_m": 800,
      "taf_visibility_m": 1500,
      "worst_visibility_m": 800,
      "ceiling_ft": 200,
      "hazards": [
        "FZFG",
        "FG",
        "BR",
        "SN"
      ],
      "severityScore": 100,
      "metarRaw": "METAR LRSV 300200Z 35008KT 0800 R34/1900D FZFG OVC002 M01/M01 Q1001",
      "tafRaw": "TAF LRSV 292300Z 3000/3009 35008KT 3000 -SN BR BKN002 BKN025 \n  TEMPO 3000/3004 1500 SN BR OVC001"
    },
    {
      "icao": "LUKK",
      "iata": "RMO",
      "name": "Chişinău International Airport",
      "lat": 46.9277,
      "lon": 28.931,
      "updatedAt": "300200Z",
      "visibility_m": 1500,
      "taf_visibility_m": 1000,
      "worst_visibility_m": 1000,
      "ceiling_ft": 200,
      "hazards": [
        "BR",
        "RA",
        "FZRA",
        "SN"
      ],
      "severityScore": 100,
      "metarRaw": "METAR LUKK 300200Z 01010KT 5000 -RA BR OVC002 01/01 Q0999 TEMPO 1500 RA BR",
      "tafRaw": "TAF LUKK 292323Z 3000/3024 35012KT 4000 -RA BR OVC002 \n  TEMPO 3000/3006 1000 RASN OVC001 \n  TEMPO 3007/3011 2000 FZRA SN OVC001 \n  BECMG 3011/3013 4000 SN BKN005 \n  TEMPO 3013/3016 01015G25KT 1500 OVC002"
    },
    {
      "icao": "LYPG",
      "iata": "TGD",
      "name": "Podgorica Airport / Podgorica Golubovci Airbase",
      "lat": 42.359402,
      "lon": 19.2519,
      "updatedAt": "300200Z",
      "visibility_m": 4000,
      "taf_visibility_m": 800,
      "worst_visibility_m": 800,
      "ceiling_ft": 5000,
      "hazards": [
        "BR",
        "RA",
        "FG",
        "TSRA",
        "TS"
      ],
      "severityScore": 100,
      "metarRaw": "METAR LYPG 300200Z 16003KT 6000 2000N -RA FEW010 BKN050 OVC070 09/08 Q0999 TEMPO 4000 BR",
      "tafRaw": "TAF LYPG 292300Z 3000/3024 36005KT 7000 FEW010 BKN050 OVC070 TX12/3013Z TN06/3005Z \n  TEMPO 3000/3023 2000 RA BR \n  PROB30 \n  TEMPO 3001/3007 0800 FG \n  PROB30 \n  TEMPO 3013/3017 3000 TSRA FEW015 FEW027CB BKN040"
    },
    {
      "icao": "UAAA",
      "iata": "ALA",
      "name": "Almaty International Airport",
      "lat": 43.354267,
      "lon": 77.042828,
      "updatedAt": "300200Z",
      "visibility_m": 2900,
      "taf_visibility_m": 200,
      "worst_visibility_m": 200,
      "ceiling_ft": 700,
      "hazards": [
        "BR",
        "FZFG",
        "FG"
      ],
      "severityScore": 100,
      "metarRaw": "METAR UAAA 300200Z VRB01MPS 2900 BR OVC007 M03/M04 Q1022 NOSIG",
      "tafRaw": "TAF UAAA 292301Z 3000/3024 16002MPS 2000 BR FU BKN011 OVC020 TXM01/3008Z TNM06/3002Z \n  TEMPO 3000/3004 02002MPS 0300 FZFG VV002 \n  BECMG 3006/3007 04003G08MPS 3100 \n  BECMG 3012/3013 22003MPS 1200 \n  TEMPO 3014/3024 0200 FZFG VV002"
    },
    {
      "icao": "UDSG",
      "iata": "LWN",
      "name": "Shirak International Airport",
      "lat": 40.750401,
      "lon": 43.859299,
      "updatedAt": "300200Z",
      "visibility_m": 50,
      "taf_visibility_m": 200,
      "worst_visibility_m": 50,
      "ceiling_ft": 200,
      "hazards": [
        "FZFG",
        "FG",
        "BR"
      ],
      "severityScore": 100,
      "metarRaw": "METAR UDSG 300200Z 35001KT 0050 R02/0275N FZFG VV002 M15/M16 Q1016 NOSIG",
      "tafRaw": "TAF UDSG 292300Z 3000/3024 VRB06KT 0800 FZFG OVC006 \n  TEMPO 3000/3007 0200 FZFG VV002 \n  BECMG 3007/3008 2000 BR BKN030"
    },
    {
      "icao": "UDYZ",
      "iata": "EVN",
      "name": "Zvartnots International Airport",
      "lat": 40.148941,
      "lon": 44.397887,
      "updatedAt": "300200Z",
      "visibility_m": 2900,
      "taf_visibility_m": 200,
      "worst_visibility_m": 200,
      "ceiling_ft": 1000,
      "hazards": [
        "BR",
        "FZFG",
        "FG"
      ],
      "severityScore": 100,
      "metarRaw": "METAR UDYZ 300200Z 02001KT 2900 BR BKN010 M04/M06 Q1019 NOSIG",
      "tafRaw": "TAF UDYZ 292300Z 3000/3024 VRB04KT 2300 BR SCT015 \n  TEMPO 3000/3006 0200 FZFG VV001"
    },
    {
      "icao": "LRTR",
      "iata": "TSR",
      "name": "Timişoara Traian Vuia Airport",
      "lat": 45.809898,
      "lon": 21.3379,
      "updatedAt": "300200Z",
      "visibility_m": 400,
      "taf_visibility_m": null,
      "worst_visibility_m": 400,
      "ceiling_ft": 100,
      "hazards": [
        "FG"
      ],
      "severityScore": 95,
      "metarRaw": "METAR LRTR 300200Z 23008KT 0400 R11/1100U FG VV001 06/06 Q0998",
      "tafRaw": null
    },
    {
      "icao": "LRBC",
      "iata": "BCM",
      "name": "Bacău George Enescu International  Airport",
      "lat": 46.5219,
      "lon": 26.910299,
      "updatedAt": "300200Z",
      "visibility_m": 5000,
      "taf_visibility_m": 1500,
      "worst_visibility_m": 1500,
      "ceiling_ft": 300,
      "hazards": [
        "BR",
        "FG",
        "SN"
      ],
      "severityScore": 93,
      "metarRaw": "METAR LRBC 300200Z 33012KT 5000 BR OVC003 01/01 Q1001",
      "tafRaw": "TAF LRBC 292300Z 3000/3009 35010KT 5000 BR BKN005 OVC015 \n  PROB30 \n  TEMPO 3000/3004 1500 -SN FG BKN002 \n  BECMG 3006/3008 9999 NSW BKN010 BKN025"
    },
    {
      "icao": "EPRA",
      "iata": "RDO",
      "name": "Warsaw Radom Airport",
      "lat": 51.38937,
      "lon": 21.214742,
      "updatedAt": "300200Z",
      "visibility_m": 6000,
      "taf_visibility_m": null,
      "worst_visibility_m": 6000,
      "ceiling_ft": 400,
      "hazards": [
        "FZDZ",
        "RA",
        "DZ"
      ],
      "severityScore": 90,
      "metarRaw": "METAR EPRA 300200Z 05010KT 6000 OVC004 M03/M04 Q1006 REFZDZ",
      "tafRaw": null
    },
    {
      "icao": "LIME",
      "iata": "BGY",
      "name": "Milan Bergamo Airport / Antonio Locatelli Air Base",
      "lat": 45.670725,
      "lon": 9.709223,
      "updatedAt": "300220Z",
      "visibility_m": 8000,
      "taf_visibility_m": 700,
      "worst_visibility_m": 700,
      "ceiling_ft": 400,
      "hazards": [
        "FG",
        "BR"
      ],
      "severityScore": 90,
      "metarRaw": "METAR LIME 300220Z 01001KT 8000 NSC 02/02 Q0999 NOSIG",
      "tafRaw": "TAF LIME 292300Z 3000/3024 VRB04KT 6000 SCT015 \n  BECMG 3000/3002 2000 BR \n  TEMPO 3000/3008 0700 FG BKN005 \n  BECMG 3007/3009 6000 \n  BECMG 3020/3022 2000 BR \n  TEMPO 3021/3024 0800 FG BKN004"
    },
    {
      "icao": "LRSB",
      "iata": "SBZ",
      "name": "Sibiu International Airport",
      "lat": 45.785841,
      "lon": 24.086666,
      "updatedAt": "300200Z",
      "visibility_m": 4200,
      "taf_visibility_m": 600,
      "worst_visibility_m": 600,
      "ceiling_ft": 200,
      "hazards": [
        "BR",
        "FG"
      ],
      "severityScore": 90,
      "metarRaw": "METAR LRSB 300200Z AUTO VRB01KT 4200 BR OVC050/// 02/02 Q0997",
      "tafRaw": "TAF LRSB 292300Z 3000/3024 VRB04KT 3000 BR SCT010 BKN040 \n  TEMPO 3000/3007 1500 BR BKN005 BKN035 \n  PROB30 \n  TEMPO 3001/3006 0600 FG OVC002 \n  BECMG 3007/3009 5000 \n  BECMG 3009/3011 BKN015 BKN050 \n  BECMG 3015/3017 3000 BR BKN010 BKN030 \n  BECMG 3018/3020 1500 BR BKN005 BKN020 \n  PROB40 \n  TEMPO 3021/3024 0600 FG BKN002 OVC005"
    },
    {
      "icao": "LFBD",
      "iata": "BOD",
      "name": "Bordeaux–Mérignac Airport",
      "lat": 44.82865,
      "lon": -0.715356,
      "updatedAt": "300200Z",
      "visibility_m": 4000,
      "taf_visibility_m": 2000,
      "worst_visibility_m": 2000,
      "ceiling_ft": 1000,
      "hazards": [
        "RA",
        "SHRA",
        "TSRA",
        "TS"
      ],
      "severityScore": 88,
      "metarRaw": "METAR LFBD 300200Z AUTO 25010KT 9999 -RA SCT031/// BKN052/// BKN074/// ///CB 09/08 Q0999 TEMPO 27015G25KT 4000 SHRA",
      "tafRaw": "TAF LFBD 292300Z 3000/3106 27010KT 9999 BKN040 TX13/3011Z TN06/3106Z \n  TEMPO 3000/3009 27015G25KT 4000 SHRA BKN015 FEW025CB BKN030TCU \n  BECMG 3009/3011 21010KT \n  TEMPO 3013/3106 21015G25KT 4000 SHRA FEW015CB BKN020TCU \n  PROB30 \n  TEMPO 3018/3106 21018G35KT 2000 TSRA BKN010 BKN015CB"
    },
    {
      "icao": "LEBB",
      "iata": "BIO",
      "name": "Bilbao Airport",
      "lat": 43.301102,
      "lon": -2.91061,
      "updatedAt": "300200Z",
      "visibility_m": 10000,
      "taf_visibility_m": 1500,
      "worst_visibility_m": 1500,
      "ceiling_ft": 4000,
      "hazards": [
        "TSRA",
        "SHRA",
        "TS",
        "RA"
      ],
      "severityScore": 86,
      "metarRaw": "METAR LEBB 300200Z AUTO 21008KT 140V280 CAVOK 10/05 Q1005",
      "tafRaw": "TAF LEBB 292300Z 3000/3024 22009KT 9999 SCT025 BKN040 TX14/3012Z TN06/3100Z \n  TEMPO 3005/3015 22018G28KT \n  TEMPO 3009/3014 22021G37KT \n  PROB30 \n  TEMPO 3011/3015 22025G43KT \n  PROB40 \n  TEMPO 3014/3019 3000 SHRA SCT035TCU \n  PROB30 \n  TEMPO 3014/3019 1500 TSRA SCT035CB"
    },
    {
      "icao": "EBCI",
      "iata": "CRL",
      "name": "Brussels South Charleroi Airport",
      "lat": 50.461963,
      "lon": 4.459562,
      "updatedAt": "300220Z",
      "visibility_m": 10000,
      "taf_visibility_m": 3500,
      "worst_visibility_m": 3500,
      "ceiling_ft": 600,
      "hazards": [
        "BR",
        "FG",
        "RA",
        "DZ"
      ],
      "severityScore": 77,
      "metarRaw": "METAR EBCI 300220Z 12005KT 9999 FEW015 00/M01 Q0996 NOSIG",
      "tafRaw": "TAF EBCI 292308Z 3000/3106 13006KT 9999 SCT016 \n  PROB40 \n  TEMPO 3002/3008 4500 MIFG BR \n  BECMG 3011/3013 SCT008 BKN012 \n  TEMPO 3013/3017 3500 -RADZ BKN006 \n  TEMPO 3017/3024 SCT012 \n  PROB40 \n  TEMPO 3100/3106 4000 -RADZ BKN008"
    },
    {
      "icao": "LPFR",
      "iata": "FAO",
      "name": "Faro - Gago Coutinho International Airport",
      "lat": 37.015909,
      "lon": -7.970939,
      "updatedAt": "300200Z",
      "visibility_m": 10000,
      "taf_visibility_m": 1200,
      "worst_visibility_m": 1200,
      "ceiling_ft": 200,
      "hazards": [
        "BR",
        "RA",
        "DZ"
      ],
      "severityScore": 77,
      "metarRaw": "METAR LPFR 300200Z 29004KT 9999 FEW028 14/13 Q1016",
      "tafRaw": "TAF LPFR 292300Z 3000/3024 26010KT 9999 SCT008 \n  PROB30 \n  TEMPO 3000/3006 1200 BR BKN002 \n  TEMPO 3006/3014 3000 DZRA BR SCT004 BKN008 \n  BECMG 3014/3016 27015KT SCT020 \n  TEMPO 3016/3024 27018G28KT BKN015"
    },
    {
      "icao": "LCPH",
      "iata": "PFO",
      "name": "Paphos International Airport",
      "lat": 34.717999,
      "lon": 32.485699,
      "updatedAt": "300200Z",
      "visibility_m": 10000,
      "taf_visibility_m": 2000,
      "worst_visibility_m": 2000,
      "ceiling_ft": null,
      "hazards": [
        "TSRA",
        "SHRA",
        "TS",
        "RA"
      ],
      "severityScore": 76,
      "metarRaw": "METAR LCPH 300200Z AUTO 16015KT 9999 FEW085 18/13 Q1007 NOSIG",
      "tafRaw": "TAF LCPH 292330Z 3000/3100 18016KT 9999 FEW030 SCT040 \n  PROB40 \n  TEMPO 3000/3015 5000 SHRA \n  PROB30 3000/3006 17022G32KT \n  PROB30 \n  TEMPO 3003/3010 2000 TSRA SCT035CB \n  BECMG 3005/3008 26016KT"
    },
    {
      "icao": "LTAC",
      "iata": "ESB",
      "name": "Esenboğa International Airport",
      "lat": 40.128101,
      "lon": 32.995098,
      "updatedAt": "300220Z",
      "visibility_m": 10000,
      "taf_visibility_m": 4000,
      "worst_visibility_m": 4000,
      "ceiling_ft": 3500,
      "hazards": [
        "SHRA",
        "RA",
        "TSRA",
        "TS"
      ],
      "severityScore": 76,
      "metarRaw": "METAR LTAC 300220Z 20008KT 9999 -SHRA BKN035 BKN080 08/05 Q1002 NOSIG",
      "tafRaw": "TAF LTAC 292240Z 3000/3024 19013KT 9999 -SHRA BKN030 BKN080 \n  TEMPO 3000/3004 20020G30KT 4000 SHRA \n  TEMPO 3004/3008 20020G30KT \n  TEMPO 3010/3014 20020G30KT 4000 SHRA FEW020CB BKN025 \n  TEMPO 3014/3018 24015G25KT 4000 -TSRA FEW025CB BKN030 BKN080"
    },
    {
      "icao": "EETN",
      "iata": "TLL",
      "name": "Lennart Meri Tallinn Airport",
      "lat": 59.413246,
      "lon": 24.83264,
      "updatedAt": "300220Z",
      "visibility_m": 3000,
      "taf_visibility_m": 1200,
      "worst_visibility_m": 1200,
      "ceiling_ft": 200,
      "hazards": [
        "BR",
        "FG"
      ],
      "severityScore": 75,
      "metarRaw": "METAR EETN 300220Z 11007KT 3000 BR OVC002 M13/M14 Q1024",
      "tafRaw": "TAF EETN 292330Z 3000/3024 08005KT CAVOK \n  TEMPO 3000/3006 1200 BR BCFG OVC003 \n  TEMPO 3006/3008 BKN004 \n  PROB40 \n  TEMPO 3006/3008 3000 BR \n  PROB40 \n  TEMPO 3014/3019 BKN004 \n  TEMPO 3019/3024 2000 BR BCFG OVC003"
    },
    {
      "icao": "LBWN",
      "iata": "VAR",
      "name": "Varna Airport",
      "lat": 43.232101,
      "lon": 27.8251,
      "updatedAt": "300200Z",
      "visibility_m": 3000,
      "taf_visibility_m": 1200,
      "worst_visibility_m": 1200,
      "ceiling_ft": 500,
      "hazards": [
        "BR",
        "RA",
        "SHRA"
      ],
      "severityScore": 71,
      "metarRaw": "METAR LBWN 300200Z AUTO 01013KT 9999 -SHRA OVC011/// 07/07 Q0992 TEMPO 3000 RA BR",
      "tafRaw": "TAF LBWN 292300Z 3000/3024 VRB04KT 5000 RA BKN007 OVC020 \n  PROB40 \n  TEMPO 3000/3003 1200 BR BKN005 OVC010 \n  BECMG 3003/3005 34014KT 7000 RA BKN015 OVC035 \n  BECMG 3013/3015 9999 NSW SCT020 BKN040"
    },
    {
      "icao": "LEZL",
      "iata": "SVQ",
      "name": "Sevilla Airport",
      "lat": 37.417999,
      "lon": -5.89311,
      "updatedAt": "300200Z",
      "visibility_m": 9000,
      "taf_visibility_m": 3000,
      "worst_visibility_m": 3000,
      "ceiling_ft": 600,
      "hazards": [
        "BR",
        "RA",
        "FG"
      ],
      "severityScore": 67,
      "metarRaw": "METAR LEZL 300200Z AUTO 25005KT 9000 NCD 13/12 Q1015",
      "tafRaw": "TAF LEZL 292000Z 2921/3021 23014KT 8000 FEW010 BKN016 TX18/3015Z TN10/3007Z \n  PROB30 \n  TEMPO 2921/2922 4000 RA BKN010 \n  BECMG 2922/2924 VRB03KT \n  TEMPO 2922/3009 3000 BR BCFG BKN006 \n  BECMG 3011/3013 23010KT \n  PROB30 \n  TEMPO 3012/3016 4000 RA BKN012"
    },
    {
      "icao": "EDLW",
      "iata": "DTM",
      "name": "Dortmund Airport",
      "lat": 51.518299,
      "lon": 7.61224,
      "updatedAt": "300150Z",
      "visibility_m": 4400,
      "taf_visibility_m": 1800,
      "worst_visibility_m": 1800,
      "ceiling_ft": 100,
      "hazards": [
        "BR",
        "SN"
      ],
      "severityScore": 63,
      "metarRaw": "METAR EDLW 300150Z AUTO 02003KT 340V070 4400 // OVC027/// M01/M01 Q0999",
      "tafRaw": "TAF EDLW 291700Z 2918/3018 07006KT 4000 BR SCT003 BKN007 \n  TEMPO 2918/2924 1800 -SN BR BKN001 \n  TEMPO 3000/3004 6000 BKN010 \n  BECMG 3004/3007 9999 SCT025"
    },
    {
      "icao": "LEXJ",
      "iata": "SDR",
      "name": "Seve Ballesteros-Santander Airport",
      "lat": 43.427101,
      "lon": -3.82001,
      "updatedAt": "300200Z",
      "visibility_m": 7000,
      "taf_visibility_m": 10000,
      "worst_visibility_m": 7000,
      "ceiling_ft": 4000,
      "hazards": [
        "TSRA",
        "RA",
        "TS"
      ],
      "severityScore": 62,
      "metarRaw": "METAR LEXJ 300200Z AUTO 23008KT 200V260 7000 NCD 11/01 Q1004",
      "tafRaw": "TAF LEXJ 292000Z 2921/3021 22009KT 9999 SCT030 BKN040 TX15/3012Z TN08/3002Z \n  TEMPO 2921/2924 24020G30KT \n  TEMPO 2921/2922 27032G50KT TSRA SCT035CB \n  TEMPO 3006/3013 19020G30KT \n  PROB40 \n  TEMPO 3013/3015 28018G28KT \n  PROB30 \n  TEMPO 3012/3021 RA"
    },
    {
      "icao": "LICA",
      "iata": "SUF",
      "name": "Lamezia Terme Sant'Eufemia International Airport",
      "lat": 38.906214,
      "lon": 16.246007,
      "updatedAt": "300150Z",
      "visibility_m": 10000,
      "taf_visibility_m": 2000,
      "worst_visibility_m": 2000,
      "ceiling_ft": null,
      "hazards": [
        "TSRA",
        "RA",
        "TS"
      ],
      "severityScore": 62,
      "metarRaw": "METAR LICA 300150Z AUTO 27009KT 9999 FEW028/// OVC039/// 12/10 Q1002",
      "tafRaw": "TAF LICA 292300Z 3000/3024 28014KT 9999 SCT025 \n  TEMPO 3000/3002 28016G26KT \n  TEMPO 3000/3014 RA \n  TEMPO 3014/3020 2000 TSRA"
    },
    {
      "icao": "EGKK",
      "iata": "LGW",
      "name": "London Gatwick Airport",
      "lat": 51.148771,
      "lon": -0.192089,
      "updatedAt": "300220Z",
      "visibility_m": 5000,
      "taf_visibility_m": 4000,
      "worst_visibility_m": 4000,
      "ceiling_ft": 500,
      "hazards": [
        "RA",
        "SHRA",
        "DZ"
      ],
      "severityScore": 61,
      "metarRaw": "METAR EGKK 300220Z 11009KT 5000 -RA BKN005 05/05 Q0990",
      "tafRaw": "TAF EGKK 292255Z 3000/3106 12007KT 9999 BKN010 \n  TEMPO 3000/3010 8000 -RA \n  PROB40 \n  TEMPO 3000/3009 4000 RADZ BKN004 \n  BECMG 3008/3011 19010KT SCT025 \n  PROB40 \n  TEMPO 3010/3015 4000 +SHRA BKN013 \n  BECMG 3014/3017 13010KT \n  TEMPO 3016/3024 -RA \n  PROB40 3016/3024 6000 RA BKN010 \n  PROB30 \n  TEMPO 3016/3024 15015G25KT \n  PROB30 \n  TEMPO 3100/3106 8000 -RA BKN012"
    },
    {
      "icao": "LEMD",
      "iata": "MAD",
      "name": "Adolfo Suárez Madrid–Barajas Airport",
      "lat": 40.471926,
      "lon": -3.56264,
      "updatedAt": "300200Z",
      "visibility_m": 10000,
      "taf_visibility_m": 3000,
      "worst_visibility_m": 3000,
      "ceiling_ft": 1000,
      "hazards": [
        "BR",
        "RA",
        "SHRA",
        "DZ"
      ],
      "severityScore": 58,
      "metarRaw": "METAR LEMD 300200Z 22009KT 9999 FEW045 07/06 Q1010 NOSIG",
      "tafRaw": "TAF LEMD 292300Z 3000/3106 24010KT 9999 SCT020 TX11/3015Z TN05/3007Z \n  TEMPO 3000/3002 27015G29KT \n  PROB40 \n  TEMPO 3000/3009 4000 BR BKN010 \n  TEMPO 3006/3018 DZRA BKN014 \n  TEMPO 3008/3018 23015G30KT \n  TEMPO 3015/3022 3000 RA SHRA FEW030TCU \n  TEMPO 3022/3106 27020G35KT DZRA"
    },
    {
      "icao": "LFLS",
      "iata": "GNB",
      "name": "Grenoble Alpes Isère Airport",
      "lat": 45.3629,
      "lon": 5.32937,
      "updatedAt": "300200Z",
      "visibility_m": 10000,
      "taf_visibility_m": 4000,
      "worst_visibility_m": 4000,
      "ceiling_ft": 700,
      "hazards": [
        "RA",
        "DZ",
        "BR"
      ],
      "severityScore": 57,
      "metarRaw": "METAR LFLS 300200Z AUTO 06009KT 9999 -RADZ BKN042/// OVC054/// ///TCU 04/02 Q0998",
      "tafRaw": "TAF LFLS 300200Z 3003/3103 09005KT 9999 BKN050 \n  TEMPO 3003/3008 4000 RA BR \n  PROB30 \n  TEMPO 3003/3008 BKN009 \n  BECMG 3011/3014 CAVOK \n  BECMG 3022/3101 BKN050 \n  PROB30 \n  TEMPO 3100/3103 4000 RA BKN007"
    },
    {
      "icao": "LFPO",
      "iata": "ORY",
      "name": "Paris-Orly Airport",
      "lat": 48.72333,
      "lon": 2.37944,
      "updatedAt": "300200Z",
      "visibility_m": 3500,
      "taf_visibility_m": 3500,
      "worst_visibility_m": 3500,
      "ceiling_ft": 300,
      "hazards": [
        "RA",
        "BR"
      ],
      "severityScore": 57,
      "metarRaw": "METAR LFPO 300200Z AUTO 00000KT 9999 BKN021 03/03 Q0994 TEMPO 3500 -RA BKN003",
      "tafRaw": "TAF LFPO 292300Z 3000/3106 15008KT 9999 BKN030 \n  TEMPO 3000/3011 BKN008 \n  PROB40 \n  TEMPO 3000/3006 3500 -RA \n  PROB30 \n  TEMPO 3002/3006 BKN003 \n  PROB30 \n  TEMPO 3006/3008 3500 BR BKN003 \n  BECMG 3008/3011 21010KT BKN012 \n  BECMG 3011/3014 BKN020 \n  TEMPO 3014/3018 18012G25KT 4000 -RA BKN012TCU \n  TEMPO 3018/3021 20012G25KT \n  TEMPO 3101/3106 BKN005"
    },
    {
      "icao": "LPPS",
      "iata": "PXO",
      "name": "Porto Santo Airport",
      "lat": 33.0733985901,
      "lon": -16.3500003815,
      "updatedAt": "300200Z",
      "visibility_m": 10000,
      "taf_visibility_m": 3000,
      "worst_visibility_m": 3000,
      "ceiling_ft": 800,
      "hazards": [
        "BR",
        "DZ",
        "RA"
      ],
      "severityScore": 57,
      "metarRaw": "METAR LPPS 300200Z 28013KT 9999 SCT010 18/15 Q1022",
      "tafRaw": "TAF LPPS 292300Z 3000/3106 27013KT 9999 SCT012 \n  PROB30 \n  TEMPO 3006/3012 5000 DZ BR BKN008 \n  BECMG 3012/3014 BKN012 \n  BECMG 3014/3016 30013KT \n  TEMPO 3014/3106 3000 DZRA BR SCT004 BKN008 \n  BECMG 3021/3024 VRB05KT"
    },
    {
      "icao": "LPPT",
      "iata": "LIS",
      "name": "Lisbon Humberto Delgado Airport",
      "lat": 38.7813,
      "lon": -9.13592,
      "updatedAt": "300200Z",
      "visibility_m": 9000,
      "taf_visibility_m": 2000,
      "worst_visibility_m": 2000,
      "ceiling_ft": 800,
      "hazards": [
        "BR",
        "RA",
        "DZ"
      ],
      "severityScore": 57,
      "metarRaw": "METAR LPPT 300200Z 25005KT 9000 FEW020 12/11 Q1014",
      "tafRaw": "TAF LPPT 292300Z 3000/3106 25005KT 9999 SCT015 \n  TEMPO 3006/3010 BKN008 \n  BECMG 3011/3013 26015KT SCT020 \n  TEMPO 3013/3018 26018G33KT \n  PROB40 \n  TEMPO 3013/3018 2000 -RADZ BR SCT004 BKN008 \n  BECMG 3018/3020 29012KT FEW012 \n  BECMG 3100/3102 27008KT"
    },
    {
      "icao": "EDDH",
      "iata": "HAM",
      "name": "Hamburg Helmut Schmidt Airport",
      "lat": 53.630402,
      "lon": 9.98823,
      "updatedAt": "300220Z",
      "visibility_m": 3500,
      "taf_visibility_m": 2000,
      "worst_visibility_m": 2000,
      "ceiling_ft": 900,
      "hazards": [
        "SN",
        "BR"
      ],
      "severityScore": 53,
      "metarRaw": "METAR EDDH 300220Z AUTO 09011KT 060V120 9999 OVC011 M02/M04 Q1004 TEMPO 3500 -SN OVC009",
      "tafRaw": "TAF EDDH 292300Z 3000/3106 09010KT 4500 BR OVC008 \n  PROB30 \n  TEMPO 3000/3003 7000 OVC012 \n  TEMPO 3000/3016 2000 -SN OVC004 \n  BECMG 3004/3007 7000 \n  PROB40 \n  TEMPO 3101/3106 BKN004"
    },
    {
      "icao": "EPGD",
      "iata": "GDN",
      "name": "Gdańsk Lech Wałęsa Airport",
      "lat": 54.377602,
      "lon": 18.4662,
      "updatedAt": "300200Z",
      "visibility_m": 10000,
      "taf_visibility_m": 3000,
      "worst_visibility_m": 3000,
      "ceiling_ft": 500,
      "hazards": [
        "SN",
        "BR"
      ],
      "severityScore": 53,
      "metarRaw": "METAR EPGD 300200Z 09006KT 9999 -SN OVC005 M08/M10 Q1011",
      "tafRaw": "TAF EPGD 292330Z 3000/3024 08010KT 9999 OVC006 \n  TEMPO 3000/3015 3000 -SN BR BKN003 \n  PROB40 \n  TEMPO 3009/3015 SCT006 BKN014 \n  BECMG 3015/3018 BKN015"
    },
    {
      "icao": "EPKK",
      "iata": "KRK",
      "name": "Kraków John Paul II International Airport",
      "lat": 50.077702,
      "lon": 19.7848,
      "updatedAt": "300200Z",
      "visibility_m": 9000,
      "taf_visibility_m": 2000,
      "worst_visibility_m": 2000,
      "ceiling_ft": 800,
      "hazards": [
        "SN",
        "BR"
      ],
      "severityScore": 53,
      "metarRaw": "METAR EPKK 300200Z 07012KT 9000 -SN BKN008 M00/M02 Q1003",
      "tafRaw": "TAF EPKK 292330Z 3000/3024 06010KT 7000 -SN OVC013 \n  TEMPO 3000/3012 2000 -SN BR OVC006 \n  PROB30 \n  TEMPO 3000/3005 BKN004"
    },
    {
      "icao": "EPKT",
      "iata": "KTW",
      "name": "Katowice Wojciech Korfanty International Airport",
      "lat": 50.476015,
      "lon": 19.080705,
      "updatedAt": "300200Z",
      "visibility_m": 8000,
      "taf_visibility_m": 4000,
      "worst_visibility_m": 4000,
      "ceiling_ft": 700,
      "hazards": [
        "SN",
        "BR"
      ],
      "severityScore": 53,
      "metarRaw": "METAR EPKT 300200Z 07010KT 8000 -SN OVC007 M01/M02 Q1003",
      "tafRaw": "TAF EPKT 292330Z 3000/3024 07010KT 8000 OVC011 \n  TEMPO 3000/3010 4000 -SN BR OVC007 \n  PROB40 \n  TEMPO 3000/3005 BKN004"
    },
    {
      "icao": "EPMO",
      "iata": "WMI",
      "name": "Modlin Airport",
      "lat": 52.451099,
      "lon": 20.6518,
      "updatedAt": "300200Z",
      "visibility_m": 5000,
      "taf_visibility_m": 4000,
      "worst_visibility_m": 4000,
      "ceiling_ft": 700,
      "hazards": [
        "BR",
        "SN"
      ],
      "severityScore": 53,
      "metarRaw": "METAR EPMO 300200Z 05011KT 5000 BR OVC007 M05/M06 Q1008",
      "tafRaw": "TAF EPMO 292330Z 3000/3024 06010KT 7000 OVC010 \n  TEMPO 3000/3009 4000 -SN BR BKN006 \n  BECMG 3009/3011 SCT012 BKN025 \n  PROB30 \n  TEMPO 3011/3024 09015G25KT"
    },
    {
      "icao": "LZTT",
      "iata": "TAT",
      "name": "Poprad-Tatry Airport",
      "lat": 49.073601,
      "lon": 20.2411,
      "updatedAt": "300200Z",
      "visibility_m": 10000,
      "taf_visibility_m": 2800,
      "worst_visibility_m": 2800,
      "ceiling_ft": 500,
      "hazards": [
        "BR",
        "SN"
      ],
      "severityScore": 53,
      "metarRaw": "METAR LZTT 300200Z 04008KT 9999 BKN005 M02/M03 Q0999",
      "tafRaw": "TAF LZTT 292315Z 3000/3100 06009KT 7000 SCT002 OVC006 \n  TEMPO 3000/3017 2800 -SN BR OVC002 \n  BECMG 3017/3019 BKN010"
    },
    {
      "icao": "EGGW",
      "iata": "LTN",
      "name": "London Luton Airport",
      "lat": 51.874699,
      "lon": -0.368333,
      "updatedAt": "300220Z",
      "visibility_m": 6000,
      "taf_visibility_m": null,
      "worst_visibility_m": 6000,
      "ceiling_ft": 300,
      "hazards": [
        "RA"
      ],
      "severityScore": 52,
      "metarRaw": "METAR EGGW 300220Z AUTO 12014KT 6000 -RA OVC003 02/02 Q0990",
      "tafRaw": null
    },
    {
      "icao": "LPPR",
      "iata": "OPO",
      "name": "Francisco de Sá Carneiro Airport",
      "lat": 41.2481002808,
      "lon": -8.68138980865,
      "updatedAt": "300200Z",
      "visibility_m": 8000,
      "taf_visibility_m": 2000,
      "worst_visibility_m": 2000,
      "ceiling_ft": 4500,
      "hazards": [
        "SHRA",
        "TS",
        "RA"
      ],
      "severityScore": 51,
      "metarRaw": "METAR LPPR 300200Z 22008KT 190V260 8000 SCT035 BKN045 13/11 Q1011",
      "tafRaw": "TAF LPPR 292300Z 3000/3024 22010KT 9999 SCT025 \n  TEMPO 3000/3024 4000 SHRA BKN015 FEW020CB \n  BECMG 3004/3006 21017KT \n  TEMPO 3006/3014 21022G35KT \n  PROB30 \n  TEMPO 3008/3018 2000 TSRAGS BKN008 SCT018CB \n  BECMG 3012/3014 27020KT \n  TEMPO 3014/3024 27027G37KT \n  PROB30 \n  TEMPO 3015/3021 27033G45KT"
    },
    {
      "icao": "EPLB",
      "iata": "LUZ",
      "name": "Lublin Airport",
      "lat": 51.240157,
      "lon": 22.713461,
      "updatedAt": "300200Z",
      "visibility_m": 1600,
      "taf_visibility_m": null,
      "worst_visibility_m": 1600,
      "ceiling_ft": 200,
      "hazards": [
        "BR"
      ],
      "severityScore": 50,
      "metarRaw": "METAR EPLB 300200Z 06012KT 1600 BR OVC002 M02/M02 Q1006",
      "tafRaw": null
    },
    {
      "icao": "EGBB",
      "iata": "BHX",
      "name": "Birmingham Airport",
      "lat": 52.453899,
      "lon": -1.74803,
      "updatedAt": "300220Z",
      "visibility_m": 5000,
      "taf_visibility_m": 4000,
      "worst_visibility_m": 4000,
      "ceiling_ft": 600,
      "hazards": [
        "RA",
        "DZ"
      ],
      "severityScore": 47,
      "metarRaw": "METAR EGBB 300220Z 12014KT 5000 -RADZ OVC006 03/02 Q0990",
      "tafRaw": "TAF EGBB 292259Z 3000/3024 11012KT 9999 BKN010 \n  TEMPO 3000/3010 7000 RA BKN007 \n  PROB30 \n  TEMPO 3000/3010 4000 RADZ +RA BKN004 \n  PROB30 \n  TEMPO 3000/3005 13015G25KT \n  PROB30 \n  TEMPO 3010/3013 8000 -RA BKN009 \n  BECMG 3012/3015 SCT015 \n  PROB40 \n  TEMPO 3020/3024 11015G25KT 6000 RA BKN010"
    },
    {
      "icao": "GMAD",
      "iata": "AGA",
      "name": "Al Massira Airport",
      "lat": 30.322478,
      "lon": -9.412003,
      "updatedAt": "300200Z",
      "visibility_m": 8000,
      "taf_visibility_m": 3000,
      "worst_visibility_m": 3000,
      "ceiling_ft": 400,
      "hazards": [
        "BR"
      ],
      "severityScore": 45,
      "metarRaw": "METAR GMAD 300200Z 10003KT 8000 SCT009 16/16 Q1021 NOSIG",
      "tafRaw": "TAF GMAD 292300Z 3000/3106 06003KT 8000 BKN009 \n  PROB40 \n  TEMPO 3005/3009 3000 BR OVC004 \n  BECMG 3010/3012 6000 SCT010"
    },
    {
      "icao": "GMMX",
      "iata": "RAK",
      "name": "Marrakesh Menara Airport",
      "lat": 31.604807,
      "lon": -8.035788,
      "updatedAt": "300200Z",
      "visibility_m": 8000,
      "taf_visibility_m": 3000,
      "worst_visibility_m": 3000,
      "ceiling_ft": 300,
      "hazards": [
        "BR"
      ],
      "severityScore": 45,
      "metarRaw": "METAR GMMX 300200Z VRB02KT 8000 FEW020 12/11 Q1022 NOSIG",
      "tafRaw": "TAF GMMX 292300Z 3000/3106 28006KT 8000 SCT023 SCT080 \n  PROB40 \n  TEMPO 3004/3009 3000 BR BKN003 \n  TEMPO 3015/3021 34016KT"
    },
    {
      "icao": "LYBE",
      "iata": "BEG",
      "name": "Belgrade Nikola Tesla Airport",
      "lat": 44.818401,
      "lon": 20.309099,
      "updatedAt": "300200Z",
      "visibility_m": 10000,
      "taf_visibility_m": 3000,
      "worst_visibility_m": 3000,
      "ceiling_ft": 200,
      "hazards": [
        "BR"
      ],
      "severityScore": 45,
      "metarRaw": "METAR LYBE 300200Z 24007KT 9999 SCT024 05/04 Q0999 NOSIG",
      "tafRaw": "TAF LYBE 292300Z 3000/3024 27008KT 7000 BKN008 BKN027 TX06/3013Z TN04/3006Z \n  PROB40 \n  TEMPO 3000/3008 3000 BR BKN002 BKN023 \n  BECMG 3010/3012 BKN012 BKN030"
    },
    {
      "icao": "LHBP",
      "iata": "BUD",
      "name": "Budapest Liszt Ferenc International Airport",
      "lat": 47.43018,
      "lon": 19.262393,
      "updatedAt": "300200Z",
      "visibility_m": 8000,
      "taf_visibility_m": 2500,
      "worst_visibility_m": 2500,
      "ceiling_ft": 1800,
      "hazards": [
        "RA",
        "BR",
        "DZ"
      ],
      "severityScore": 44,
      "metarRaw": "METAR LHBP 300200Z 33005KT 8000 -RA OVC018 04/03 Q0999 NOSIG",
      "tafRaw": "TAF LHBP 292315Z 3000/3024 34005KT 8000 -RA SCT006 OVC020 \n  TEMPO 3000/3024 VRB03KT 2500 DZRA BR OVC004"
    },
    {
      "icao": "EDDB",
      "iata": "BER",
      "name": "Berlin Brandenburg Willy Brandt Airport",
      "lat": 52.361738,
      "lon": 13.502341,
      "updatedAt": "300220Z",
      "visibility_m": 6000,
      "taf_visibility_m": 3500,
      "worst_visibility_m": 3500,
      "ceiling_ft": 700,
      "hazards": [
        "SN"
      ],
      "severityScore": 43,
      "metarRaw": "METAR EDDB 300220Z AUTO 08011KT 6000 OVC007 M04/M05 Q1004 NOSIG",
      "tafRaw": "TAF EDDB 292300Z 3000/3024 07011KT 9000 OVC007 \n  PROB30 \n  TEMPO 3006/3017 3500 -SN \n  BECMG 3009/3012 OVC010"
    },
    {
      "icao": "EKBI",
      "iata": "BLL",
      "name": "Billund Airport",
      "lat": 55.740335,
      "lon": 9.157019,
      "updatedAt": "300220Z",
      "visibility_m": 10000,
      "taf_visibility_m": null,
      "worst_visibility_m": 10000,
      "ceiling_ft": null,
      "hazards": [
        "FZDZ",
        "DZ"
      ],
      "severityScore": 43,
      "metarRaw": "METAR EKBI 300220Z AUTO 10016G26KT 9999 -FZDZ OVC016/// M01/M05 Q1007",
      "tafRaw": null
    },
    {
      "icao": "EPWA",
      "iata": "WAW",
      "name": "Warsaw Chopin Airport",
      "lat": 52.165699,
      "lon": 20.9671,
      "updatedAt": "300200Z",
      "visibility_m": 9000,
      "taf_visibility_m": 7000,
      "worst_visibility_m": 7000,
      "ceiling_ft": 900,
      "hazards": [
        "SN"
      ],
      "severityScore": 43,
      "metarRaw": "METAR EPWA 300200Z 06010KT 9000 OVC009 M04/M06 Q1008 NOSIG",
      "tafRaw": "TAF EPWA 292330Z 3000/3024 06010KT 7000 OVC010 \n  TEMPO 3000/3010 -SN BKN005 \n  BECMG 3010/3012 SCT012 BKN020"
    },
    {
      "icao": "EPRZ",
      "iata": "RZE",
      "name": "Rzeszów-Jasionka Airport",
      "lat": 50.109791,
      "lon": 22.024155,
      "updatedAt": "300200Z",
      "visibility_m": 10000,
      "taf_visibility_m": 4000,
      "worst_visibility_m": 4000,
      "ceiling_ft": 1500,
      "hazards": [
        "BR",
        "SN"
      ],
      "severityScore": 40,
      "metarRaw": "METAR EPRZ 300200Z 05009KT 9999 BKN015 OVC023 M00/M02 Q1004",
      "tafRaw": "TAF EPRZ 292330Z 3000/3024 06010KT 9999 OVC012 \n  TEMPO 3000/3012 4000 -SN BR BKN004"
    },
    {
      "icao": "EPSC",
      "iata": "SZZ",
      "name": "Solidarity Szczecin–Goleniów Airport",
      "lat": 53.584702,
      "lon": 14.9022,
      "updatedAt": "300200Z",
      "visibility_m": 10000,
      "taf_visibility_m": 4500,
      "worst_visibility_m": 4500,
      "ceiling_ft": 1900,
      "hazards": [
        "BR",
        "SN"
      ],
      "severityScore": 40,
      "metarRaw": "METAR EPSC 300200Z 05008KT 020V080 9999 OVC019 M05/M06 Q1007",
      "tafRaw": "TAF EPSC 292330Z 3000/3024 07010KT 9999 SCT008 OVC018 \n  PROB40 \n  TEMPO 3000/3008 4500 -SN BR BKN005 \n  TEMPO 3010/3017 09015G25KT"
    },
    {
      "icao": "LIPQ",
      "iata": "TRS",
      "name": "Trieste–Friuli Venezia Giulia Airport",
      "lat": 45.827499,
      "lon": 13.4722,
      "updatedAt": "300220Z",
      "visibility_m": 3500,
      "taf_visibility_m": 1500,
      "worst_visibility_m": 1500,
      "ceiling_ft": null,
      "hazards": [
        "BR",
        "FG"
      ],
      "severityScore": 40,
      "metarRaw": "METAR LIPQ 300220Z AUTO 05002KT 3500 BR OVC053/// 06/06 Q1000",
      "tafRaw": "TAF LIPQ 292300Z 3000/3024 VRB04KT 9999 SCT040 \n  TEMPO 3000/3005 1500 BCFG"
    },
    {
      "icao": "LKMT",
      "iata": "OSR",
      "name": "Leoš Janáček Airport Ostrava",
      "lat": 49.696301,
      "lon": 18.111099,
      "updatedAt": "300200Z",
      "visibility_m": 9000,
      "taf_visibility_m": 4500,
      "worst_visibility_m": 4500,
      "ceiling_ft": 1100,
      "hazards": [
        "BR",
        "SN"
      ],
      "severityScore": 40,
      "metarRaw": "METAR LKMT 300200Z 03007KT 9000 OVC011 M01/M02 Q1001 NOSIG",
      "tafRaw": "TAF LKMT 292300Z 3000/3024 02008KT 9999 BKN021 \n  TEMPO 3000/3012 4500 -SN BR BKN008 \n  PROB30 \n  TEMPO 3016/3024 7000 -SN BKN012"
    },
    {
      "icao": "EGPD",
      "iata": "ABZ",
      "name": "Aberdeen International Airport",
      "lat": 57.2019,
      "lon": -2.19778,
      "updatedAt": "300220Z",
      "visibility_m": 4000,
      "taf_visibility_m": 2500,
      "worst_visibility_m": 2500,
      "ceiling_ft": 1300,
      "hazards": [
        "RA",
        "SHRA"
      ],
      "severityScore": 38,
      "metarRaw": "METAR EGPD 300220Z COR AUTO 13016G26KT 9000 -RA SCT013/// BKN017/// BKN026/// //////TCU 03/01 Q0997 TEMPO 4000 SHRA BKN013",
      "tafRaw": "TAF EGPD 292255Z 3000/3024 13015G25KT 9999 SCT018 BKN030 \n  TEMPO 3000/3018 4000 SHRA BKN014 \n  PROB30 \n  TEMPO 3000/3018 2500 +SHRA BKN009 \n  TEMPO 3018/3024 6000 RA BKN012"
    },
    {
      "icao": "EGGP",
      "iata": "LPL",
      "name": "Liverpool John Lennon Airport",
      "lat": 53.334863,
      "lon": -2.849637,
      "updatedAt": "300220Z",
      "visibility_m": 7000,
      "taf_visibility_m": 4000,
      "worst_visibility_m": 4000,
      "ceiling_ft": 700,
      "hazards": [
        "RA"
      ],
      "severityScore": 37,
      "metarRaw": "METAR EGGP 300220Z AUTO 11017KT 7000 -RA OVC015/// 03/00 Q0989",
      "tafRaw": "TAF EGGP 292256Z 3000/3024 10014KT 9999 BKN020 \n  TEMPO 3000/3012 7000 -RA BKN014 \n  TEMPO 3000/3006 11017G27KT \n  PROB30 \n  TEMPO 3000/3012 4000 RA BKN007 \n  TEMPO 3012/3018 BKN012 \n  PROB40 \n  TEMPO 3012/3015 BKN008 \n  TEMPO 3020/3024 7000 -RA \n  PROB30 \n  TEMPO 3021/3024 BKN014"
    },
    {
      "icao": "LFOB",
      "iata": "BVA",
      "name": "Beauvais Tillé airport",
      "lat": 49.454399,
      "lon": 2.11278,
      "updatedAt": "300200Z",
      "visibility_m": 4500,
      "taf_visibility_m": 4500,
      "worst_visibility_m": 4500,
      "ceiling_ft": 600,
      "hazards": [
        "RA"
      ],
      "severityScore": 37,
      "metarRaw": "METAR LFOB 300200Z AUTO 11006KT 9999 FEW046 BKN070 BKN082 02/02 Q0993 TEMPO 4500 RA BKN006 OVC015",
      "tafRaw": "TAF LFOB 292300Z 3000/3024 11010KT 9999 NSW SCT030 \n  TEMPO 3000/3002 OVC006 \n  BECMG 3002/3004 BKN012 \n  TEMPO 3002/3008 4500 RA BKN006 OVC015 \n  BECMG 3008/3012 20010KT BKN020 \n  TEMPO 3016/3018 18010G20KT 4500 RA BKN014 OVC040"
    },
    {
      "icao": "LMML",
      "iata": "MLA",
      "name": "Malta International Airport",
      "lat": 35.857498,
      "lon": 14.4775,
      "updatedAt": "300215Z",
      "visibility_m": 10000,
      "taf_visibility_m": 5000,
      "worst_visibility_m": 5000,
      "ceiling_ft": 500,
      "hazards": [
        "RA"
      ],
      "severityScore": 37,
      "metarRaw": "METAR LMML 300215Z 21003KT CAVOK 13/11 Q1005 NOSIG",
      "tafRaw": "TAF LMML 292300Z 3000/3024 26008KT 9999 FEW015 \n  TEMPO 3002/3008 7000 RA BKN010 \n  PROB30 \n  TEMPO 3002/3008 5000 +RA BKN005 \n  BECMG 3009/3012 29018KT \n  TEMPO 3011/3024 29020G35KT"
    },
    {
      "icao": "EDDK",
      "iata": "CGN",
      "name": "Cologne Bonn Airport",
      "lat": 50.865898,
      "lon": 7.14274,
      "updatedAt": "300220Z",
      "visibility_m": 10000,
      "taf_visibility_m": 4000,
      "worst_visibility_m": 4000,
      "ceiling_ft": 2500,
      "hazards": [
        "BR",
        "SHRA",
        "RA"
      ],
      "severityScore": 36,
      "metarRaw": "METAR EDDK 300220Z AUTO 14006KT 9999 BKN025 01/00 Q0999 NOSIG",
      "tafRaw": "TAF EDDK 292300Z 3000/3106 11005KT 9999 BKN025 \n  PROB30 \n  TEMPO 3000/3002 4000 BR BKN006 \n  BECMG 3004/3008 12010KT BKN006 \n  BECMG 3009/3012 BKN012 \n  BECMG 3012/3015 BKN025 \n  PROB30 \n  TEMPO 3103/3106 SHRA BKN030TCU"
    },
    {
      "icao": "LATI",
      "iata": "TIA",
      "name": "Tirana International Airport Mother Teresa",
      "lat": 41.4147,
      "lon": 19.7206,
      "updatedAt": "300220Z",
      "visibility_m": 3700,
      "taf_visibility_m": 4000,
      "worst_visibility_m": 3700,
      "ceiling_ft": 5100,
      "hazards": [
        "BR",
        "RA",
        "SHRA"
      ],
      "severityScore": 36,
      "metarRaw": "METAR LATI 300220Z 13003KT 3700 BR SCT038 BKN051 09/07 Q0999 NOSIG",
      "tafRaw": "TAF LATI 292300Z 3000/3024 VRB05KT 9999 -RA FEW015 BKN025 OVC060 TX13/3012Z TN08/3004Z \n  TEMPO 3000/3009 4000 RA BR \n  PROB40 \n  TEMPO 3012/3017 14010KT SHRA FEW025TCU OVC050"
    },
    {
      "icao": "EPPO",
      "iata": "POZ",
      "name": "Poznań-Ławica Airport",
      "lat": 52.421598,
      "lon": 16.823359,
      "updatedAt": "300200Z",
      "visibility_m": 7000,
      "taf_visibility_m": 4500,
      "worst_visibility_m": 4500,
      "ceiling_ft": 900,
      "hazards": [
        "BR"
      ],
      "severityScore": 35,
      "metarRaw": "METAR EPPO 300200Z 07010KT 7000 BKN009 OVC024 M05/M07 Q1007",
      "tafRaw": "TAF EPPO 292330Z 3000/3024 05008KT 9999 OVC017 \n  TEMPO 3000/3007 4500 BR OVC007"
    },
    {
      "icao": "EPWR",
      "iata": "WRO",
      "name": "Copernicus Wrocław Airport",
      "lat": 51.103719,
      "lon": 16.882096,
      "updatedAt": "300200Z",
      "visibility_m": 7000,
      "taf_visibility_m": 4000,
      "worst_visibility_m": 4000,
      "ceiling_ft": 900,
      "hazards": [
        "BR"
      ],
      "severityScore": 35,
      "metarRaw": "METAR EPWR 300200Z 07007KT 7000 BKN009 BKN017 M01/M03 Q1004",
      "tafRaw": "TAF EPWR 292330Z 3000/3024 05008KT 9999 OVC016 \n  TEMPO 3000/3009 BKN009 \n  PROB40 \n  TEMPO 3000/3007 4000 BR OVC004"
    },
    {
      "icao": "LOWW",
      "iata": "VIE",
      "name": "Vienna International Airport",
      "lat": 48.110298,
      "lon": 16.5697,
      "updatedAt": "300220Z",
      "visibility_m": 4000,
      "taf_visibility_m": 4000,
      "worst_visibility_m": 4000,
      "ceiling_ft": 700,
      "hazards": [
        "BR"
      ],
      "severityScore": 35,
      "metarRaw": "METAR LOWW 300220Z 35005KT 6000 FEW006 SCT007 M00/M01 Q1001 TEMPO 4000 BR FEW004 BKN007",
      "tafRaw": "TAF LOWW 300215Z 3003/3109 35007KT 9999 SCT012 BKN020 TX03/3013Z TN00/3104Z \n  TEMPO 3003/3011 SCT007 BKN012 \n  PROB30 \n  TEMPO 3003/3010 4000 BR FEW003 BKN004 \n  PROB40 \n  TEMPO 3016/3109 4000 BR FEW007 BKN012"
    },
    {
      "icao": "LRBV",
      "iata": "GHV",
      "name": "Brașov-Ghimbav International Airport",
      "lat": 45.70558,
      "lon": 25.522871,
      "updatedAt": "300200Z",
      "visibility_m": 7000,
      "taf_visibility_m": 3000,
      "worst_visibility_m": 3000,
      "ceiling_ft": 500,
      "hazards": [
        "BR"
      ],
      "severityScore": 35,
      "metarRaw": "METAR LRBV 300200Z AUTO 24003KT 7000 OVC032/// M00/M01 Q0997",
      "tafRaw": "TAF LRBV 292000Z 2921/3006 VRB02KT CAVOK \n  BECMG 2921/2923 5000 BR \n  PROB40 \n  TEMPO 2923/3006 3000 BR BKN005"
    },
    {
      "icao": "BKPR",
      "iata": "PRN",
      "name": "Priština Adem Jashari International Airport",
      "lat": 42.5728,
      "lon": 21.035801,
      "updatedAt": null,
      "visibility_m": null,
      "taf_visibility_m": 4000,
      "worst_visibility_m": 4000,
      "ceiling_ft": 1200,
      "hazards": [
        "BR",
        "RA"
      ],
      "severityScore": 34,
      "metarRaw": null,
      "tafRaw": "TAF BKPR 292330Z 3000/3024 32008KT 9999 SCT020 BKN040 \n  TEMPO 3002/3010 4000 -RA BR BKN012 BKN025"
    },
    {
      "icao": "LBSF",
      "iata": "SOF",
      "name": "Sofia Airport",
      "lat": 42.696357,
      "lon": 23.417671,
      "updatedAt": "300200Z",
      "visibility_m": 10000,
      "taf_visibility_m": 3000,
      "worst_visibility_m": 3000,
      "ceiling_ft": 1500,
      "hazards": [
        "RA",
        "BR"
      ],
      "severityScore": 34,
      "metarRaw": "METAR LBSF 300200Z AUTO 27006KT 9999 -RA SCT023/// BKN027/// OVC044/// 05/04 Q0996 NOSIG",
      "tafRaw": "TAF LBSF 292300Z 3000/3024 28010KT 9999 SCT030 BKN050 \n  TEMPO 3000/3008 3000 RA BR BKN015 OVC030 \n  BECMG 3018/3020 VRB04KT"
    },
    {
      "icao": "LIBR",
      "iata": "BDS",
      "name": "Brindisi Airport",
      "lat": 40.6576,
      "lon": 17.947001,
      "updatedAt": "300220Z",
      "visibility_m": 10000,
      "taf_visibility_m": 4000,
      "worst_visibility_m": 4000,
      "ceiling_ft": 1400,
      "hazards": [
        "BR",
        "RA"
      ],
      "severityScore": 34,
      "metarRaw": "METAR LIBR 300220Z 25006KT CAVOK 05/03 Q0999",
      "tafRaw": "TAF LIBR 292300Z 3000/3024 26010KT 9999 FEW020 \n  BECMG 3012/3014 VRB06KT \n  TEMPO 3021/3024 4000 RA BKN014"
    },
    {
      "icao": "LJLJ",
      "iata": "LJU",
      "name": "Ljubljana Jože Pučnik Airport",
      "lat": 46.223701,
      "lon": 14.4576,
      "updatedAt": "300200Z",
      "visibility_m": 10000,
      "taf_visibility_m": 3000,
      "worst_visibility_m": 3000,
      "ceiling_ft": 1000,
      "hazards": [
        "RA",
        "BR"
      ],
      "severityScore": 34,
      "metarRaw": "METAR LJLJ 300200Z 12002KT 9999 -RA FEW003 BKN010 OVC020 04/03 Q1000 NOSIG",
      "tafRaw": "TAF LJLJ 292300Z 3000/3100 VRB02KT 9999 FEW020 BKN040 \n  PROB30 \n  TEMPO 3000/3003 -RA \n  PROB30 \n  TEMPO 3000/3010 3000 BR BKN010 OVC018"
    },
    {
      "icao": "LFSB",
      "iata": "BSL",
      "name": "EuroAirport Basel–Mulhouse–Freiburg",
      "lat": 47.60068,
      "lon": 7.521117,
      "updatedAt": "300200Z",
      "visibility_m": 1000,
      "taf_visibility_m": 4500,
      "worst_visibility_m": 1000,
      "ceiling_ft": null,
      "hazards": [
        "BR",
        "RA"
      ],
      "severityScore": 32,
      "metarRaw": "METAR LFSB 300200Z AUTO 19007KT 3000 1000 R15/P2000 R33/P2000 BR VV/// M00/M00 Q0999 BECMG CAVOK",
      "tafRaw": "TAF LFSB 292300Z 3000/3024 13005KT CAVOK \n  TEMPO 3007/3012 5000 -RA \n  PROB40 \n  TEMPO 3018/3021 4500 BR"
    },
    {
      "icao": "LQTZ",
      "iata": "TZL",
      "name": "Tuzla International Airport",
      "lat": 44.459858,
      "lon": 18.723627,
      "updatedAt": "300200Z",
      "visibility_m": 10000,
      "taf_visibility_m": 4000,
      "worst_visibility_m": 4000,
      "ceiling_ft": 1300,
      "hazards": [
        "BR",
        "DZ"
      ],
      "severityScore": 32,
      "metarRaw": "METAR LQTZ 300200Z 29006KT 9999 OVC013 05/05 Q1000",
      "tafRaw": "TAF LQTZ 292300Z 3000/3024 27005KT 9999 SCT014 BKN040 TX07/3013Z TN02/3006Z \n  TEMPO 3000/3010 33010KT 4000 -DZ BR BKN007 OVC025"
    },
    {
      "icao": "LRBS",
      "iata": "BBU",
      "name": "Bucharest Băneasa Aurel Vlaicu International Airport",
      "lat": 44.503133,
      "lon": 26.102944,
      "updatedAt": "300200Z",
      "visibility_m": 10000,
      "taf_visibility_m": 1500,
      "worst_visibility_m": 1500,
      "ceiling_ft": 2200,
      "hazards": [
        "BR",
        "RA"
      ],
      "severityScore": 32,
      "metarRaw": "METAR LRBS 300200Z 04006KT 360V080 9999 OVC022 04/01 Q0997 NOSIG",
      "tafRaw": "TAF LRBS 292300Z 3000/3024 06012KT 9999 SCT010 SCT045 \n  TEMPO 3000/3005 5000 BR BKN010 \n  BECMG 3003/3005 VRB04KT \n  TEMPO 3005/3008 3000 -RA BR BKN005 BKN025 \n  BECMG 3006/3008 25010KT \n  BECMG 3008/3010 BKN015 SCT040 \n  BECMG 3015/3017 VRB04KT 5000 -RA BR BKN010 OVC030 \n  BECMG 3019/3021 12010KT 1500 RA BR BKN005 OVC020"
    },
    {
      "icao": "LROP",
      "iata": "OTP",
      "name": "Bucharest Henri Coandă International Airport",
      "lat": 44.571792,
      "lon": 26.103285,
      "updatedAt": "300200Z",
      "visibility_m": 10000,
      "taf_visibility_m": 1500,
      "worst_visibility_m": 1500,
      "ceiling_ft": 3500,
      "hazards": [
        "BR",
        "RA"
      ],
      "severityScore": 32,
      "metarRaw": "METAR LROP 300200Z 05007KT 9999 SCT023 BKN035 04/01 Q0997 NOSIG",
      "tafRaw": "TAF LROP 292300Z 3000/3024 06012KT 9999 SCT010 SCT045 \n  TEMPO 3000/3005 5000 BR BKN010 \n  BECMG 3003/3005 VRB04KT \n  TEMPO 3005/3008 3000 -RA BR BKN005 BKN025 \n  BECMG 3006/3008 25010KT \n  BECMG 3008/3010 BKN015 SCT040 \n  BECMG 3015/3017 VRB04KT 5000 -RA BR BKN010 OVC030 \n  BECMG 3019/3021 12010KT 1500 RA BR BKN005 OVC020"
    },
    {
      "icao": "LTFM",
      "iata": "IST",
      "name": "İstanbul Airport",
      "lat": 41.261297,
      "lon": 28.741951,
      "updatedAt": "300220Z",
      "visibility_m": 4000,
      "taf_visibility_m": null,
      "worst_visibility_m": 4000,
      "ceiling_ft": 2800,
      "hazards": [
        "SHRA",
        "RA"
      ],
      "severityScore": 31,
      "metarRaw": "METAR LTFM 300220Z 21013KT 4000 SHRA FEW018CB BKN028 BKN090 10/09 Q0993 NOSIG",
      "tafRaw": null
    },
    {
      "icao": "EKCH",
      "iata": "CPH",
      "name": "Copenhagen Kastrup Airport",
      "lat": 55.617900848389,
      "lon": 12.656000137329,
      "updatedAt": "300220Z",
      "visibility_m": 10000,
      "taf_visibility_m": 4000,
      "worst_visibility_m": 4000,
      "ceiling_ft": 1800,
      "hazards": [
        "SN"
      ],
      "severityScore": 30,
      "metarRaw": "METAR EKCH 300220Z 10016KT 9999 BKN018 M01/M05 Q1010 NOSIG",
      "tafRaw": "TAF EKCH 292327Z 3000/3024 10016KT 9999 -SN OVC016 \n  TEMPO 3000/3005 10016G28KT BKN014 \n  TEMPO 3005/3012 10016G28KT 4000 SN BKN012 \n  TEMPO 3012/3024 10017G29KT"
    },
    {
      "icao": "ENTO",
      "iata": "TRF",
      "name": "Sandefjord Airport, Torp",
      "lat": 59.186699,
      "lon": 10.2586,
      "updatedAt": "300150Z",
      "visibility_m": 5000,
      "taf_visibility_m": 10000,
      "worst_visibility_m": 5000,
      "ceiling_ft": 1200,
      "hazards": [
        "SN"
      ],
      "severityScore": 30,
      "metarRaw": "METAR ENTO 300150Z AUTO 01010KT 5000 -SN FEW002/// BKN013/// OVC015/// M08/M10 Q1017",
      "tafRaw": "TAF ENTO 292300Z 3000/3024 02010KT 9999 -SN BKN020 \n  TEMPO 3000/3006 BKN012"
    },
    {
      "icao": "ESMS",
      "iata": "MMX",
      "name": "Malmö Sturup Airport",
      "lat": 55.535564,
      "lon": 13.376327,
      "updatedAt": "300220Z",
      "visibility_m": 10000,
      "taf_visibility_m": 4000,
      "worst_visibility_m": 4000,
      "ceiling_ft": 1500,
      "hazards": [
        "SN"
      ],
      "severityScore": 30,
      "metarRaw": "METAR ESMS 300220Z 09016KT 9999 BKN015 M02/M05 Q1010",
      "tafRaw": "TAF ESMS 292327Z 3000/3024 10018KT 9999 -SN OVC016 \n  TEMPO 3000/3001 09018G28KT OVC014 \n  TEMPO 3001/3010 09018G28KT 4000 SN DRSN BKN012 \n  TEMPO 3010/3024 10018G28KT"
    },
    {
      "icao": "OJAI",
      "iata": "AMM",
      "name": "Queen Alia International Airport",
      "lat": 31.7226009369,
      "lon": 35.9931983948,
      "updatedAt": "300200Z",
      "visibility_m": 4000,
      "taf_visibility_m": 900,
      "worst_visibility_m": 900,
      "ceiling_ft": null,
      "hazards": [
        "FG"
      ],
      "severityScore": 30,
      "metarRaw": "METAR OJAI 300200Z 14004KT 4000 HZ NSC 06/02 Q1015 NOSIG",
      "tafRaw": "TAF OJAI 292300Z 3000/3106 23006KT 5000 HZ NSC \n  PROB30 3001/3006 3000 \n  PROB30 \n  TEMPO 3002/3006 0900 FG \n  BECMG 3007/3009 25012KT \n  PROB40 \n  TEMPO 3011/3016 24018KT BLDU \n  BECMG 3019/3021 SCT030"
    },
    {
      "icao": "LCLK",
      "iata": "LCA",
      "name": "Larnaca International Airport",
      "lat": 34.875099,
      "lon": 33.624901,
      "updatedAt": "300200Z",
      "visibility_m": 10000,
      "taf_visibility_m": 5000,
      "worst_visibility_m": 5000,
      "ceiling_ft": null,
      "hazards": [
        "RA",
        "SHRA"
      ],
      "severityScore": 26,
      "metarRaw": "METAR LCLK 300200Z 19014KT 9999 -RA FEW035 SCT050 17/13 Q1009 NOSIG",
      "tafRaw": "TAF LCLK 292330Z 3000/3100 21016KT 9999 FEW030 SCT040 \n  PROB40 3000/3009 22022G32KT \n  PROB40 \n  TEMPO 3000/3011 5000 SHRA"
    },
    {
      "icao": "LEBL",
      "iata": "BCN",
      "name": "Josep Tarradellas Barcelona-El Prat Airport",
      "lat": 41.2971,
      "lon": 2.07846,
      "updatedAt": "300200Z",
      "visibility_m": 10000,
      "taf_visibility_m": 4000,
      "worst_visibility_m": 4000,
      "ceiling_ft": null,
      "hazards": [
        "RA",
        "SHRA"
      ],
      "severityScore": 26,
      "metarRaw": "METAR LEBL 300200Z 32006KT 9999 FEW015 09/07 Q1002 NOSIG",
      "tafRaw": "TAF LEBL 292300Z 3000/3024 VRB04KT 9999 FEW050 TX16/3012Z TN09/3006Z \n  TEMPO 3002/3004 29010KT \n  BECMG 3009/3011 27012KT \n  PROB30 \n  TEMPO 3015/3019 4000 RA SHRA FEW030TCU"
    },
    {
      "icao": "LEZG",
      "iata": "ZAZ",
      "name": "Zaragoza Airport",
      "lat": 41.666199,
      "lon": -1.04155,
      "updatedAt": "300200Z",
      "visibility_m": 10000,
      "taf_visibility_m": 4000,
      "worst_visibility_m": 4000,
      "ceiling_ft": null,
      "hazards": [
        "RA",
        "SHRA"
      ],
      "severityScore": 26,
      "metarRaw": "METAR LEZG 300200Z 23009KT CAVOK 08/05 Q1006 NOSIG",
      "tafRaw": "TAF LEZG 292300Z 3000/3024 25012KT CAVOK TX14/3013Z TN08/3006Z \n  TEMPO 3000/3006 25006KT \n  TEMPO 3007/3012 25020G30KT \n  TEMPO 3012/3024 25015G25KT \n  TEMPO 3015/3024 4000 RA SHRA FEW020TCU"
    },
    {
      "icao": "LICJ",
      "iata": "PMO",
      "name": "Falcone–Borsellino Airport",
      "lat": 38.175999,
      "lon": 13.091,
      "updatedAt": "300220Z",
      "visibility_m": 10000,
      "taf_visibility_m": 4000,
      "worst_visibility_m": 4000,
      "ceiling_ft": null,
      "hazards": [
        "RA",
        "SHRA"
      ],
      "severityScore": 26,
      "metarRaw": "METAR LICJ 300220Z 20012KT 9999 -RA SCT022 13/11 Q1003",
      "tafRaw": "TAF LICJ 292300Z 3000/3024 20013KT 9999 FEW035 \n  TEMPO 3002/3014 RA \n  BECMG 3011/3013 27018G28KT \n  PROB40 \n  TEMPO 3014/3018 4000 SHRA \n  BECMG 3018/3020 27013KT"
    },
    {
      "icao": "LIRN",
      "iata": "NAP",
      "name": "Naples International Airport",
      "lat": 40.886002,
      "lon": 14.2908,
      "updatedAt": "300220Z",
      "visibility_m": 10000,
      "taf_visibility_m": 4000,
      "worst_visibility_m": 4000,
      "ceiling_ft": null,
      "hazards": [
        "RA",
        "SHRA"
      ],
      "severityScore": 26,
      "metarRaw": "METAR LIRN 300220Z 27001KT CAVOK 06/05 Q1001 NOSIG",
      "tafRaw": "TAF LIRN 292300Z 3000/3024 VRB05KT 8000 SCT020 \n  TEMPO 3000/3004 4000 -RA \n  TEMPO 3012/3018 4000 SHRA"
    },
    {
      "icao": "GCTS",
      "iata": "TFS",
      "name": "Tenerife Sur Airport",
      "lat": 28.0445,
      "lon": -16.5725,
      "updatedAt": "300200Z",
      "visibility_m": 10000,
      "taf_visibility_m": 10000,
      "worst_visibility_m": 10000,
      "ceiling_ft": 2500,
      "hazards": [
        "TS"
      ],
      "severityScore": 25,
      "metarRaw": "METAR GCTS 300200Z 35006KT 9999 FEW035 16/10 Q1024 NOSIG",
      "tafRaw": "TAF GCTS 292000Z 2921/3021 04007KT 9999 BKN025 TX24/3014Z TN16/3006Z \n  BECMG 3010/3012 10015KT \n  BECMG 3019/3021 04008KT"
    },
    {
      "icao": "EPSY",
      "iata": "SZY",
      "name": "Olsztyn-Mazury Airport",
      "lat": 53.481899,
      "lon": 20.9377,
      "updatedAt": "300200Z",
      "visibility_m": 7000,
      "taf_visibility_m": 10000,
      "worst_visibility_m": 7000,
      "ceiling_ft": 700,
      "hazards": [],
      "severityScore": 25,
      "metarRaw": "METAR EPSY 300200Z 05006KT 030V090 7000 OVC007 M08/M09 Q1010",
      "tafRaw": "TAF EPSY 292330Z 3000/3009 04008KT 9999 OVC007"
    },
    {
      "icao": "EYVI",
      "iata": "VNO",
      "name": "Vilnius International Airport",
      "lat": 54.634102,
      "lon": 25.285801,
      "updatedAt": "300220Z",
      "visibility_m": 10000,
      "taf_visibility_m": 9000,
      "worst_visibility_m": 9000,
      "ceiling_ft": 500,
      "hazards": [],
      "severityScore": 25,
      "metarRaw": "METAR EYVI 300220Z 05004KT CAVOK M16/M18 Q1014 NOSIG",
      "tafRaw": "TAF EYVI 292300Z 3000/3024 05008KT 9000 NSC \n  TEMPO 3000/3008 SCT005 \n  PROB40 \n  TEMPO 3002/3008 BKN005"
    },
    {
      "icao": "LIBD",
      "iata": "BRI",
      "name": "Bari Karol Wojtyła International Airport",
      "lat": 41.138901,
      "lon": 16.760599,
      "updatedAt": "300220Z",
      "visibility_m": 10000,
      "taf_visibility_m": 4000,
      "worst_visibility_m": 4000,
      "ceiling_ft": 1400,
      "hazards": [
        "RA"
      ],
      "severityScore": 24,
      "metarRaw": "METAR LIBD 300220Z AUTO 25008KT 9999 NCD 06/04 Q0999",
      "tafRaw": "TAF LIBD 292300Z 3000/3024 26008KT 9999 FEW040 \n  BECMG 3012/3014 VRB06KT \n  TEMPO 3018/3024 4000 RA BKN014"
    },
    {
      "icao": "EGPF",
      "iata": "GLA",
      "name": "Glasgow Airport",
      "lat": 55.871899,
      "lon": -4.43306,
      "updatedAt": "300220Z",
      "visibility_m": 10000,
      "taf_visibility_m": 3000,
      "worst_visibility_m": 3000,
      "ceiling_ft": 2600,
      "hazards": [
        "RA",
        "DZ"
      ],
      "severityScore": 22,
      "metarRaw": "METAR EGPF 300220Z AUTO 08015KT 9999 OVC026 03/M00 Q0992",
      "tafRaw": "TAF EGPF 292300Z 3000/3024 09016G26KT 9999 FEW018 SCT030 \n  TEMPO 3006/3018 7000 RA -RADZ BKN014 \n  PROB30 \n  TEMPO 3006/3015 3000 RADZ BKN009 \n  BECMG 3009/3012 11010KT \n  PROB30 \n  TEMPO 3021/3024 BKN014"
    },
    {
      "icao": "LWSK",
      "iata": "SKP",
      "name": "Skopje International Airport",
      "lat": 41.958087,
      "lon": 21.622581,
      "updatedAt": "300220Z",
      "visibility_m": 10000,
      "taf_visibility_m": 3000,
      "worst_visibility_m": 3000,
      "ceiling_ft": 4500,
      "hazards": [
        "RA",
        "BR"
      ],
      "severityScore": 22,
      "metarRaw": "METAR LWSK 300220Z 31004KT 270V350 9999 -RA SCT007 OVC045 07/06 Q0997 NOSIG",
      "tafRaw": "TAF LWSK 292320Z 3000/3024 VRB02KT 7000 -RA SCT010 OVC040 \n  PROB40 \n  TEMPO 3000/3002 3000 RA BR SCT005 OVC030 \n  BECMG 3006/3008 NSW SCT015 BKN050"
    },
    {
      "icao": "LYNI",
      "iata": "INI",
      "name": "Niš Constantine the Great Airport",
      "lat": 43.336538,
      "lon": 21.856242,
      "updatedAt": "300200Z",
      "visibility_m": 10000,
      "taf_visibility_m": 2500,
      "worst_visibility_m": 2500,
      "ceiling_ft": 7300,
      "hazards": [
        "BR",
        "RA"
      ],
      "severityScore": 22,
      "metarRaw": "METAR LYNI 300200Z 34008KT 310V010 9999 FEW017 BKN073 06/03 Q0998 NOSIG",
      "tafRaw": "TAF LYNI 292300Z 3000/3024 01003KT 9999 BKN055 TX07/3013Z TN04/3006Z \n  FM300300 31010KT 5000 BR BKN010 BKN020 \n  TEMPO 3005/3008 2500 BKN005 OVC015 \n  BECMG 3010/3012 8000 NSW BKN017 BKN030 \n  TEMPO 3013/3018 RA"
    },
    {
      "icao": "ENGM",
      "iata": "OSL",
      "name": "Oslo-Gardermoen International Airport",
      "lat": 60.193901,
      "lon": 11.1004,
      "updatedAt": "300150Z",
      "visibility_m": 10000,
      "taf_visibility_m": 10000,
      "worst_visibility_m": 10000,
      "ceiling_ft": 3700,
      "hazards": [
        "SN"
      ],
      "severityScore": 18,
      "metarRaw": "METAR ENGM 300150Z 02006KT 9999 -SN OVC037 M10/M12 Q1018",
      "tafRaw": "TAF ENGM 292300Z 3000/3024 02008KT 9999 -SN BKN030 \n  TEMPO 3000/3006 BKN012"
    },
    {
      "icao": "EDDN",
      "iata": "NUE",
      "name": "Nuremberg Airport",
      "lat": 49.498699,
      "lon": 11.078056,
      "updatedAt": "300220Z",
      "visibility_m": 6000,
      "taf_visibility_m": null,
      "worst_visibility_m": 6000,
      "ceiling_ft": 1300,
      "hazards": [],
      "severityScore": 17,
      "metarRaw": "METAR EDDN 300220Z AUTO 09003KT 6000 OVC013 00/M00 Q1000",
      "tafRaw": null
    },
    {
      "icao": "LRTM",
      "iata": "TGM",
      "name": "Târgu Mureş Transilvania International Airport",
      "lat": 46.467701,
      "lon": 24.4125,
      "updatedAt": "300200Z",
      "visibility_m": 2300,
      "taf_visibility_m": null,
      "worst_visibility_m": 2300,
      "ceiling_ft": null,
      "hazards": [
        "BR"
      ],
      "severityScore": 15,
      "metarRaw": "METAR LRTM 300200Z AUTO 09002KT 2300 BR OVC047/// 01/00 Q0997",
      "tafRaw": null
    },
    {
      "icao": "LBPD",
      "iata": "PDV",
      "name": "Plovdiv International Airport",
      "lat": 42.067799,
      "lon": 24.8508,
      "updatedAt": "300200Z",
      "visibility_m": 10000,
      "taf_visibility_m": 5000,
      "worst_visibility_m": 5000,
      "ceiling_ft": 2000,
      "hazards": [
        "RA"
      ],
      "severityScore": 12,
      "metarRaw": "METAR LBPD 300200Z AUTO 30011KT 9999 -RA OVC038/// 08/08 Q0993",
      "tafRaw": "TAF LBPD 292300Z 3000/3024 27016KT 5000 RA SCT010 OVC020 \n  TEMPO 3000/3007 28018G28KT \n  TEMPO 3007/3012 7000 RA SCT020 OVC050 \n  BECMG 3012/3014 9999 NSW BKN050 \n  BECMG 3018/3020 VRB03KT"
    },
    {
      "icao": "LEMG",
      "iata": "AGP",
      "name": "Málaga-Costa del Sol Airport",
      "lat": 36.6749,
      "lon": -4.49911,
      "updatedAt": "300200Z",
      "visibility_m": 10000,
      "taf_visibility_m": 10000,
      "worst_visibility_m": 10000,
      "ceiling_ft": 5000,
      "hazards": [
        "RA"
      ],
      "severityScore": 12,
      "metarRaw": "METAR LEMG 300200Z 28005KT 250V310 9999 FEW020 SCT030 BKN050 15/13 Q1015 NOSIG",
      "tafRaw": "TAF LEMG 292300Z 3000/3024 VRB04KT 9999 FEW035 TX21/3015Z TN11/3006Z \n  PROB30 \n  TEMPO 3000/3002 RA \n  BECMG 3000/3002 29010KT \n  BECMG 3011/3013 VRB03KT \n  BECMG 3020/3022 29010KT"
    },
    {
      "icao": "LEVC",
      "iata": "VLC",
      "name": "Valencia Airport",
      "lat": 39.4893,
      "lon": -0.481625,
      "updatedAt": "300200Z",
      "visibility_m": 10000,
      "taf_visibility_m": 4000,
      "worst_visibility_m": 4000,
      "ceiling_ft": null,
      "hazards": [
        "RA"
      ],
      "severityScore": 12,
      "metarRaw": "METAR LEVC 300200Z 27013G23KT CAVOK 14/06 Q1007 NOSIG",
      "tafRaw": "TAF LEVC 292300Z 3000/3024 30015KT CAVOK TX18/3014Z TN12/3006Z \n  TEMPO 3000/3003 30025G35KT \n  TEMPO 3003/3005 30015G30KT \n  BECMG 3004/3006 27010KT \n  TEMPO 3010/3017 27020G30KT \n  TEMPO 3017/3021 VRB04KT \n  PROB30 \n  TEMPO 3022/3024 4000 RA FEW020TCU"
    },
    {
      "icao": "LFLL",
      "iata": "LYS",
      "name": "Lyon Saint-Exupéry Airport",
      "lat": 45.725996,
      "lon": 5.090139,
      "updatedAt": "300200Z",
      "visibility_m": 10000,
      "taf_visibility_m": 10000,
      "worst_visibility_m": 10000,
      "ceiling_ft": 4300,
      "hazards": [
        "RA"
      ],
      "severityScore": 12,
      "metarRaw": "METAR LFLL 300200Z 13006KT 9999 OVC043 05/03 Q0998 NOSIG",
      "tafRaw": "TAF LFLL 292300Z 3000/3106 18010KT 9999 BKN040 \n  PROB40 \n  TEMPO 3000/3006 RA BKN025 \n  PROB40 \n  TEMPO 3023/3106 RA BKN020"
    },
    {
      "icao": "LFMN",
      "iata": "NCE",
      "name": "Nice-Côte d'Azur Airport",
      "lat": 43.658401,
      "lon": 7.21587,
      "updatedAt": "300200Z",
      "visibility_m": 10000,
      "taf_visibility_m": 10000,
      "worst_visibility_m": 10000,
      "ceiling_ft": 1500,
      "hazards": [],
      "severityScore": 12,
      "metarRaw": "METAR LFMN 300200Z 33011KT CAVOK 07/02 Q0999 NOSIG",
      "tafRaw": "TAF LFMN 300200Z 3003/3109 34010KT CAVOK \n  PROB30 \n  TEMPO 3003/3006 BKN015 \n  BECMG 3012/3014 12008KT \n  BECMG 3018/3020 33010KT"
    },
    {
      "icao": "LGAV",
      "iata": "ATH",
      "name": "Athens Eleftherios Venizelos International Airport",
      "lat": 37.936401,
      "lon": 23.9445,
      "updatedAt": "300150Z",
      "visibility_m": 10000,
      "taf_visibility_m": 5000,
      "worst_visibility_m": 5000,
      "ceiling_ft": 7000,
      "hazards": [
        "RA"
      ],
      "severityScore": 12,
      "metarRaw": "METAR LGAV 300150Z 28026G43KT 9999 FEW020 SCT060 14/05 Q0996 NOSIG",
      "tafRaw": "TAF LGAV 292300Z 3000/3024 26014KT 9999 SCT020 \n  BECMG 3016/3018 VRB05KT \n  BECMG 3018/3020 SCT020 SCT070 \n  PROB30 \n  TEMPO 3021/3024 5000 RA FEW018TCU SCT025 BKN070 \n  TEMPO 3006/3009 26015G25KT"
    },
    {
      "icao": "LIRP",
      "iata": "PSA",
      "name": "Pisa International Airport",
      "lat": 43.683899,
      "lon": 10.3927,
      "updatedAt": "300115Z",
      "visibility_m": 10000,
      "taf_visibility_m": 7000,
      "worst_visibility_m": 7000,
      "ceiling_ft": 4000,
      "hazards": [
        "RA"
      ],
      "severityScore": 12,
      "metarRaw": "METAR LIRP 300115Z 10005KT 9999 BKN040 07/07 Q0999 NOSIG",
      "tafRaw": "TAF LIRP 292300Z 3000/3024 12005KT 9999 SCT030 SCT060 \n  PROB40 \n  TEMPO 3006/3015 7000 -RA BKN025"
    },
    {
      "icao": "LPMA",
      "iata": "FNC",
      "name": "Cristiano Ronaldo International Airport",
      "lat": 32.697812,
      "lon": -16.774613,
      "updatedAt": "300200Z",
      "visibility_m": 10000,
      "taf_visibility_m": 10000,
      "worst_visibility_m": 10000,
      "ceiling_ft": 1300,
      "hazards": [],
      "severityScore": 12,
      "metarRaw": "METAR LPMA 300200Z VRB02KT 9999 FEW015 17/14 Q1022",
      "tafRaw": "TAF LPMA 292300Z 3000/3024 VRB05KT 9999 SCT015 \n  TEMPO 3014/3024 BKN013"
    },
    {
      "icao": "LQBK",
      "iata": "BNX",
      "name": "Banja Luka International Airport",
      "lat": 44.941399,
      "lon": 17.297501,
      "updatedAt": "300200Z",
      "visibility_m": 10000,
      "taf_visibility_m": 10000,
      "worst_visibility_m": 10000,
      "ceiling_ft": 1400,
      "hazards": [],
      "severityScore": 12,
      "metarRaw": "METAR LQBK 300200Z 27003KT 9999 FEW023 SCT047 04/02 Q1001 NOSIG",
      "tafRaw": "TAF LQBK 292300Z 3000/3024 29005KT 9999 SCT045 TX08/3013Z TN02/3006Z \n  TEMPO 3000/3008 35010KT BKN014 OVC030"
    },
    {
      "icao": "LWOH",
      "iata": "OHD",
      "name": "Ohrid St. Paul the Apostle Airport",
      "lat": 41.18,
      "lon": 20.7423,
      "updatedAt": null,
      "visibility_m": null,
      "taf_visibility_m": 3000,
      "worst_visibility_m": 3000,
      "ceiling_ft": 3000,
      "hazards": [
        "RA"
      ],
      "severityScore": 12,
      "metarRaw": null,
      "tafRaw": "TAF LWOH 292320Z 3000/3024 VRB02KT 9999 -RA SCT015 OVC035 \n  TEMPO 3000/3003 3000 RA SCT010 OVC030"
    },
    {
      "icao": "OMAA",
      "iata": "AUH",
      "name": "Zayed International Airport",
      "lat": 24.440966,
      "lon": 54.649237,
      "updatedAt": "300200Z",
      "visibility_m": 10000,
      "taf_visibility_m": 4000,
      "worst_visibility_m": 4000,
      "ceiling_ft": 1000,
      "hazards": [],
      "severityScore": 12,
      "metarRaw": "METAR OMAA 300200Z 26008KT CAVOK 18/09 Q1017 NOSIG",
      "tafRaw": "TAF OMAA 292300Z 3000/3106 24006KT 8000 NSC \n  PROB30 3001/3005 4000 HZ BKN010 \n  BECMG 3004/3006 30012KT \n  BECMG 3016/3018 24005KT"
    },
    {
      "icao": "GMMN",
      "iata": "CMN",
      "name": "Mohammed V International Airport",
      "lat": 33.3675,
      "lon": -7.58997,
      "updatedAt": "300200Z",
      "visibility_m": 8000,
      "taf_visibility_m": 5000,
      "worst_visibility_m": 5000,
      "ceiling_ft": 2000,
      "hazards": [
        "DZ"
      ],
      "severityScore": 10,
      "metarRaw": "METAR GMMN 300200Z 22010KT 8000 SCT006 BKN020 15/14 Q1022 NOSIG",
      "tafRaw": "TAF GMMN 292300Z 3000/3106 22010KT 9999 SCT006 BKN020 \n  PROB30 3000/3005 5000 DZ BKN006 BKN020 \n  BECMG 3012/3015 28015KT BKN016 SCT200"
    },
    {
      "icao": "ENBR",
      "iata": "BGO",
      "name": "Bergen Airport, Flesland",
      "lat": 60.2934,
      "lon": 5.21814,
      "updatedAt": "300150Z",
      "visibility_m": 10000,
      "taf_visibility_m": 10000,
      "worst_visibility_m": 10000,
      "ceiling_ft": null,
      "hazards": [
        "BR"
      ],
      "severityScore": 10,
      "metarRaw": "METAR ENBR 300150Z 07004KT CAVOK M06/M11 Q1011 RMK WIND 1200FT 10008KT",
      "tafRaw": "TAF ENBR 292300Z 3000/3024 09005KT CAVOK"
    },
    {
      "icao": "HESX",
      "iata": "SPX",
      "name": "Sphinx International Airport",
      "lat": 30.108179,
      "lon": 30.895728,
      "updatedAt": "300200Z",
      "visibility_m": 10000,
      "taf_visibility_m": 1000,
      "worst_visibility_m": 1000,
      "ceiling_ft": null,
      "hazards": [],
      "severityScore": 10,
      "metarRaw": "METAR HESX 300200Z 18012KT CAVOK 13/04 Q1013 NOSIG",
      "tafRaw": "TAF HESX 292300Z 3000/3106 19018KT 8000 NSC \n  TEMPO 3000/3018 4000 SA \n  PROB40 \n  TEMPO 3001/3015 19020G30KT 2000 \n  PROB30 \n  TEMPO 3002/3012 1000"
    },
    {
      "icao": "LICC",
      "iata": "CTA",
      "name": "Catania-Fontanarossa Airport",
      "lat": 37.466801,
      "lon": 15.0664,
      "updatedAt": "300220Z",
      "visibility_m": 10000,
      "taf_visibility_m": 10000,
      "worst_visibility_m": 10000,
      "ceiling_ft": null,
      "hazards": [
        "DZ"
      ],
      "severityScore": 10,
      "metarRaw": "METAR LICC 300220Z 25007KT 9999 SCT050 10/06 Q1003",
      "tafRaw": "TAF LICC 292300Z 3000/3024 26012KT 9999 FEW020 \n  TEMPO 3014/3017 26015G26KT \n  TEMPO 3015/3018 DZ"
    },
    {
      "icao": "LIRF",
      "iata": "FCO",
      "name": "Rome–Fiumicino Leonardo da Vinci International Airport",
      "lat": 41.804532,
      "lon": 12.251998,
      "updatedAt": "300220Z",
      "visibility_m": 10000,
      "taf_visibility_m": 10000,
      "worst_visibility_m": 10000,
      "ceiling_ft": null,
      "hazards": [
        "DZ"
      ],
      "severityScore": 10,
      "metarRaw": "METAR LIRF 300220Z 07003KT 9999 SCT030 05/05 Q1001 NOSIG",
      "tafRaw": "TAF LIRF 292300Z 3000/3106 VRB05KT 9999 FEW040 \n  BECMG 3004/3006 08010KT \n  TEMPO 3011/3017 DZ \n  BECMG 3012/3014 VRB04KT \n  BECMG 3023/3101 08010KT"
    },
    {
      "icao": "LQSA",
      "iata": "SJJ",
      "name": "Sarajevo International Airport",
      "lat": 43.8246,
      "lon": 18.331499,
      "updatedAt": "300200Z",
      "visibility_m": 10000,
      "taf_visibility_m": 3000,
      "worst_visibility_m": 3000,
      "ceiling_ft": 3000,
      "hazards": [
        "DZ"
      ],
      "severityScore": 10,
      "metarRaw": "METAR LQSA 300200Z 00000KT 9999 -DZ SCT020 BKN030 04/04 Q0999",
      "tafRaw": "TAF LQSA 292300Z 3000/3024 VRB02KT 7000 SCT012 BKN030 TX06/3013Z TN01/3024Z \n  PROB40 \n  TEMPO 3000/3009 3000 DZ BKN008 OVC020"
    },
    {
      "icao": "EGNM",
      "iata": "LBA",
      "name": "Leeds Bradford Airport",
      "lat": 53.865898,
      "lon": -1.66057,
      "updatedAt": null,
      "visibility_m": null,
      "taf_visibility_m": null,
      "worst_visibility_m": null,
      "ceiling_ft": null,
      "hazards": [],
      "severityScore": 5,
      "metarRaw": null,
      "tafRaw": null
    },
    {
      "icao": "EHEH",
      "iata": "EIN",
      "name": "Eindhoven Airport",
      "lat": 51.4500999451,
      "lon": 5.37452983856,
      "updatedAt": null,
      "visibility_m": null,
      "taf_visibility_m": null,
      "worst_visibility_m": null,
      "ceiling_ft": null,
      "hazards": [],
      "severityScore": 5,
      "metarRaw": null,
      "tafRaw": null
    },
    {
      "icao": "ENHD",
      "iata": "HAU",
      "name": "Haugesund Airport, Karmøy",
      "lat": 59.345299,
      "lon": 5.20836,
      "updatedAt": "300220Z",
      "visibility_m": 10000,
      "taf_visibility_m": null,
      "worst_visibility_m": 10000,
      "ceiling_ft": null,
      "hazards": [],
      "severityScore": 5,
      "metarRaw": "METAR ENHD 300220Z AUTO 09006KT 9999 NCD M04/M13 Q1011",
      "tafRaw": null
    },
    {
      "icao": "LEAL",
      "iata": "ALC",
      "name": "Alicante-Elche Miguel Hernández Airport",
      "lat": 38.2822,
      "lon": -0.558156,
      "updatedAt": "300200Z",
      "visibility_m": 10000,
      "taf_visibility_m": null,
      "worst_visibility_m": 10000,
      "ceiling_ft": null,
      "hazards": [],
      "severityScore": 5,
      "metarRaw": "METAR LEAL 300200Z VRB07KT CAVOK 17/04 Q1009 NOSIG",
      "tafRaw": null
    },
    {
      "icao": "LECH",
      "iata": "CDT",
      "name": "Castellón-Costa Azahar Airport",
      "lat": 40.213889,
      "lon": 0.073333,
      "updatedAt": "300200Z",
      "visibility_m": 10000,
      "taf_visibility_m": null,
      "worst_visibility_m": 10000,
      "ceiling_ft": null,
      "hazards": [],
      "severityScore": 5,
      "metarRaw": "METAR LECH 300200Z AUTO 26011KT CAVOK 12/02 Q1005",
      "tafRaw": null
    },
    {
      "icao": "LHDC",
      "iata": "DEB",
      "name": "Debrecen International Airport",
      "lat": 47.488899,
      "lon": 21.615299,
      "updatedAt": "300145Z",
      "visibility_m": 10000,
      "taf_visibility_m": null,
      "worst_visibility_m": 10000,
      "ceiling_ft": 2800,
      "hazards": [],
      "severityScore": 5,
      "metarRaw": "METAR LHDC 300145Z AUTO 03012KT 9999 OVC028 03/00 Q0998",
      "tafRaw": null
    },
    {
      "icao": "LRSM",
      "iata": "SUJ",
      "name": "Satu Mare International Airport",
      "lat": 47.7033,
      "lon": 22.8857,
      "updatedAt": "300200Z",
      "visibility_m": 10000,
      "taf_visibility_m": null,
      "worst_visibility_m": 10000,
      "ceiling_ft": null,
      "hazards": [],
      "severityScore": 5,
      "metarRaw": "METAR LRSM 300200Z AUTO 01001KT 9999 BKN034/// OVC050/// 04/03 Q0998",
      "tafRaw": null
    },
    {
      "icao": "LZIB",
      "iata": "BTS",
      "name": "M. R. Štefánik Airport",
      "lat": 48.1702,
      "lon": 17.2127,
      "updatedAt": "300200Z",
      "visibility_m": 10000,
      "taf_visibility_m": null,
      "worst_visibility_m": 10000,
      "ceiling_ft": null,
      "hazards": [],
      "severityScore": 5,
      "metarRaw": "METAR LZIB 300200Z 25004KT 170V300 9999 FEW010 02/M00 Q1000 NOSIG",
      "tafRaw": null
    },
    {
      "icao": "UBBB",
      "iata": "GYD",
      "name": "Heydar Aliyev International Airport",
      "lat": 40.467498779296875,
      "lon": 50.04669952392578,
      "updatedAt": "300200Z",
      "visibility_m": 10000,
      "taf_visibility_m": null,
      "worst_visibility_m": 10000,
      "ceiling_ft": null,
      "hazards": [],
      "severityScore": 5,
      "metarRaw": "METAR UBBB 300200Z 21008KT CAVOK 06/04 Q1011 NOSIG",
      "tafRaw": null
    },
    {
      "icao": "BIKF",
      "iata": "KEF",
      "name": "Keflavik International Airport",
      "lat": 63.985001,
      "lon": -22.6056,
      "updatedAt": "300200Z",
      "visibility_m": 10000,
      "taf_visibility_m": 10000,
      "worst_visibility_m": 10000,
      "ceiling_ft": null,
      "hazards": [],
      "severityScore": 0,
      "metarRaw": "METAR BIKF 300200Z 06006KT CAVOK 01/00 Q0998",
      "tafRaw": "TAF BIKF 300101Z 3003/3103 05007KT 9999 FEW040 TX03/3015Z TNM01/3023Z"
    },
    {
      "icao": "GCFV",
      "iata": "FUE",
      "name": "Fuerteventura Airport",
      "lat": 28.4527,
      "lon": -13.8638,
      "updatedAt": "300200Z",
      "visibility_m": 10000,
      "taf_visibility_m": 10000,
      "worst_visibility_m": 10000,
      "ceiling_ft": 2900,
      "hazards": [],
      "severityScore": 0,
      "metarRaw": "METAR GCFV 300200Z AUTO 35011KT 9999 OVC029 19/14 Q1023",
      "tafRaw": "TAF GCFV 292000Z 2921/3021 35007KT 9999 BKN025 TX23/3014Z TN15/3006Z \n  PROB30 \n  TEMPO 2922/3009 BKN014 \n  TEMPO 3013/3019 36017KT"
    },
    {
      "icao": "GCLP",
      "iata": "LPA",
      "name": "Gran Canaria Airport",
      "lat": 27.9319,
      "lon": -15.3866,
      "updatedAt": "300200Z",
      "visibility_m": 10000,
      "taf_visibility_m": 10000,
      "worst_visibility_m": 10000,
      "ceiling_ft": 3000,
      "hazards": [],
      "severityScore": 0,
      "metarRaw": "METAR GCLP 300200Z 36012KT 9999 BKN030 19/13 Q1024 NOSIG",
      "tafRaw": "TAF GCLP 292000Z 2921/3021 35009KT 9999 BKN030 TX23/3014Z TN16/3006Z \n  BECMG 3010/3012 01020KT \n  TEMPO 3010/3021 01020G30KT"
    },
    {
      "icao": "EFTU",
      "iata": "TKU",
      "name": "Turku Airport",
      "lat": 60.514099,
      "lon": 22.2628,
      "updatedAt": "300220Z",
      "visibility_m": 10000,
      "taf_visibility_m": 10000,
      "worst_visibility_m": 10000,
      "ceiling_ft": null,
      "hazards": [],
      "severityScore": 0,
      "metarRaw": "METAR EFTU 300220Z AUTO 07002KT CAVOK M21/M23 Q1025",
      "tafRaw": "TAF EFTU 292326Z 3000/3024 08002KT CAVOK"
    },
    {
      "icao": "ENAL",
      "iata": "AES",
      "name": "Ålesund Airport, Vigra",
      "lat": 62.5625,
      "lon": 6.1197,
      "updatedAt": "300220Z",
      "visibility_m": 10000,
      "taf_visibility_m": 10000,
      "worst_visibility_m": 10000,
      "ceiling_ft": null,
      "hazards": [],
      "severityScore": 0,
      "metarRaw": "METAR ENAL 300220Z AUTO 14013KT 9999 BKN031/// M02/M08 Q1011",
      "tafRaw": "TAF ENAL 292300Z 3000/3009 14008KT 9999 SCT025"
    },
    {
      "icao": "ENTC",
      "iata": "TOS",
      "name": "Tromsø Airport, Langnes",
      "lat": 69.683296,
      "lon": 18.9189,
      "updatedAt": "300150Z",
      "visibility_m": 10000,
      "taf_visibility_m": 10000,
      "worst_visibility_m": 10000,
      "ceiling_ft": null,
      "hazards": [],
      "severityScore": 0,
      "metarRaw": "METAR ENTC 300150Z AUTO VRB02KT 9999 NCD M10/M12 Q1022 RMK WIND 2600FT 17007KT",
      "tafRaw": "TAF ENTC 292300Z 3000/3024 23008KT 9999 FEW020 SCT030"
    },
    {
      "icao": "ENVA",
      "iata": "TRD",
      "name": "Trondheim Airport, Værnes",
      "lat": 63.457802,
      "lon": 10.924,
      "updatedAt": "300150Z",
      "visibility_m": 10000,
      "taf_visibility_m": 10000,
      "worst_visibility_m": 10000,
      "ceiling_ft": null,
      "hazards": [],
      "severityScore": 0,
      "metarRaw": "METAR ENVA 300150Z 11007KT CAVOK M13/M20 Q1015 RMK WIND 670FT 09012KT",
      "tafRaw": "TAF ENVA 292300Z 3000/3024 12009KT CAVOK \n  TEMPO 3013/3019 17015G25KT"
    },
    {
      "icao": "ENZV",
      "iata": "SVG",
      "name": "Stavanger Airport, Sola",
      "lat": 58.876701,
      "lon": 5.63778,
      "updatedAt": "300150Z",
      "visibility_m": 10000,
      "taf_visibility_m": 10000,
      "worst_visibility_m": 10000,
      "ceiling_ft": 4000,
      "hazards": [],
      "severityScore": 0,
      "metarRaw": "METAR ENZV 300150Z 10008KT 9999 OVC040 M03/M11 Q1011",
      "tafRaw": "TAF ENZV 292300Z 3000/3024 09008KT CAVOK \n  BECMG 3009/3011 12018KT"
    },
    {
      "icao": "ESGG",
      "iata": "GOT",
      "name": "Göteborg Landvetter Airport",
      "lat": 57.6628,
      "lon": 12.2798,
      "updatedAt": "300220Z",
      "visibility_m": 10000,
      "taf_visibility_m": 10000,
      "worst_visibility_m": 10000,
      "ceiling_ft": 2800,
      "hazards": [],
      "severityScore": 0,
      "metarRaw": "METAR ESGG 300220Z 08008KT 9999 OVC028 M05/M10 Q1013",
      "tafRaw": "TAF ESGG 292330Z 3000/3024 09010KT 9999 BKN025"
    },
    {
      "icao": "ESKN",
      "iata": "NYO",
      "name": "Stockholm Skavsta Airport",
      "lat": 58.789656,
      "lon": 16.911479,
      "updatedAt": "300220Z",
      "visibility_m": 10000,
      "taf_visibility_m": 10000,
      "worst_visibility_m": 10000,
      "ceiling_ft": 3000,
      "hazards": [],
      "severityScore": 0,
      "metarRaw": "METAR ESKN 300220Z 11011KT 9999 BKN030 M03/M08 Q1019",
      "tafRaw": "TAF ESKN 292330Z 3000/3024 10010KT 9999 BKN030"
    },
    {
      "icao": "ESSA",
      "iata": "ARN",
      "name": "Stockholm-Arlanda Airport",
      "lat": 59.64849,
      "lon": 17.928829,
      "updatedAt": "300220Z",
      "visibility_m": 10000,
      "taf_visibility_m": 10000,
      "worst_visibility_m": 10000,
      "ceiling_ft": null,
      "hazards": [],
      "severityScore": 0,
      "metarRaw": "METAR ESSA 300220Z 05007KT CAVOK M11/M13 Q1021 NOSIG",
      "tafRaw": "TAF ESSA 292330Z 3000/3024 05007KT CAVOK"
    },
    {
      "icao": "EYKA",
      "iata": "KUN",
      "name": "Kaunas International Airport",
      "lat": 54.963965,
      "lon": 24.08582,
      "updatedAt": "300220Z",
      "visibility_m": 10000,
      "taf_visibility_m": 9000,
      "worst_visibility_m": 9000,
      "ceiling_ft": null,
      "hazards": [],
      "severityScore": 0,
      "metarRaw": "METAR EYKA 300220Z 03006KT CAVOK M16/M18 Q1016",
      "tafRaw": "TAF EYKA 292300Z 3000/3024 05007KT 9000 NSC"
    },
    {
      "icao": "EYPA",
      "iata": "PLQ",
      "name": "Palanga International Airport",
      "lat": 55.973202,
      "lon": 21.093901,
      "updatedAt": "300220Z",
      "visibility_m": 10000,
      "taf_visibility_m": 9000,
      "worst_visibility_m": 9000,
      "ceiling_ft": null,
      "hazards": [],
      "severityScore": 0,
      "metarRaw": "METAR EYPA 300220Z 07006KT CAVOK M14/M18 Q1017",
      "tafRaw": "TAF EYPA 292300Z 3000/3024 08008KT 9000 NSC \n  TEMPO 3010/3018 08015G25KT"
    },
    {
      "icao": "HEGN",
      "iata": "HRG",
      "name": "Hurghada International Airport",
      "lat": 27.176776,
      "lon": 33.796692,
      "updatedAt": "300200Z",
      "visibility_m": 10000,
      "taf_visibility_m": 10000,
      "worst_visibility_m": 10000,
      "ceiling_ft": null,
      "hazards": [],
      "severityScore": 0,
      "metarRaw": "METAR HEGN 300200Z 29002KT CAVOK 12/05 Q1016 NOSIG",
      "tafRaw": "TAF HEGN 292300Z 3000/3106 26008KT CAVOK"
    },
    {
      "icao": "HEMA",
      "iata": "RMF",
      "name": "Marsa Alam International Airport",
      "lat": 25.555548,
      "lon": 34.59245,
      "updatedAt": "300200Z",
      "visibility_m": 10000,
      "taf_visibility_m": 10000,
      "worst_visibility_m": 10000,
      "ceiling_ft": null,
      "hazards": [],
      "severityScore": 0,
      "metarRaw": "METAR HEMA 300200Z 24008KT CAVOK 13/08 Q1016 NOSIG",
      "tafRaw": "TAF HEMA 292300Z 3000/3106 24008KT CAVOK"
    },
    {
      "icao": "HESH",
      "iata": "SSH",
      "name": "Sharm El Sheikh International Airport",
      "lat": 27.977272,
      "lon": 34.394717,
      "updatedAt": "300200Z",
      "visibility_m": 10000,
      "taf_visibility_m": 10000,
      "worst_visibility_m": 10000,
      "ceiling_ft": null,
      "hazards": [],
      "severityScore": 0,
      "metarRaw": "METAR HESH 300200Z 21003KT CAVOK 14/06 Q1016 NOSIG",
      "tafRaw": "TAF HESH 292300Z 3000/3106 25008KT CAVOK"
    },
    {
      "icao": "LIBG",
      "iata": "TAR",
      "name": "Taranto-Grottaglie Marcello Arlotta Airport",
      "lat": 40.517502,
      "lon": 17.4032,
      "updatedAt": null,
      "visibility_m": null,
      "taf_visibility_m": 10000,
      "worst_visibility_m": 10000,
      "ceiling_ft": null,
      "hazards": [],
      "severityScore": 0,
      "metarRaw": null,
      "tafRaw": "TAF LIBG 291700Z 2918/3003 32008KT 9999 SCT030"
    },
    {
      "icao": "LIMJ",
      "iata": "GOA",
      "name": "Genoa Cristoforo Colombo Airport",
      "lat": 44.412039,
      "lon": 8.840732,
      "updatedAt": "300220Z",
      "visibility_m": 10000,
      "taf_visibility_m": 10000,
      "worst_visibility_m": 10000,
      "ceiling_ft": null,
      "hazards": [],
      "severityScore": 0,
      "metarRaw": "METAR LIMJ 300220Z 05006KT 9999 SCT040 09/05 Q0999",
      "tafRaw": "TAF LIMJ 292300Z 3000/3024 04008KT 9999 SCT020"
    },
    {
      "icao": "LLBG",
      "iata": "TLV",
      "name": "Ben Gurion International Airport",
      "lat": 32.011398,
      "lon": 34.8867,
      "updatedAt": "300220Z",
      "visibility_m": 10000,
      "taf_visibility_m": 10000,
      "worst_visibility_m": 10000,
      "ceiling_ft": 15000,
      "hazards": [],
      "severityScore": 0,
      "metarRaw": "METAR LLBG 300220Z VRB01KT CAVOK 16/04 Q1013 NOSIG RMK BKN150",
      "tafRaw": "TAF LLBG 292305Z 3000/3024 16007KT CAVOK \n  BECMG 3007/3009 24014KT \n  BECMG 3012/3014 31010KT \n  BECMG 3016/3018 VRB03KT \n  BECMG 3020/3022 15005KT 9999 FEW020 TX22/3011Z TN13/3002Z"
    },
    {
      "icao": "LZKZ",
      "iata": "KSC",
      "name": "Košice International Airport",
      "lat": 48.663101,
      "lon": 21.2411,
      "updatedAt": "300200Z",
      "visibility_m": 10000,
      "taf_visibility_m": 10000,
      "worst_visibility_m": 10000,
      "ceiling_ft": 4000,
      "hazards": [],
      "severityScore": 0,
      "metarRaw": "METAR LZKZ 300200Z 36016KT 9999 BKN040 02/M02 Q1000 NOSIG",
      "tafRaw": "TAF LZKZ 292315Z 3000/3100 01015KT 9999 BKN040 \n  TEMPO 3000/3013 01017G27KT"
    },
    {
      "icao": "OEJN",
      "iata": "JED",
      "name": "King Abdulaziz International Airport",
      "lat": 21.6796,
      "lon": 39.156502,
      "updatedAt": "300200Z",
      "visibility_m": 10000,
      "taf_visibility_m": 10000,
      "worst_visibility_m": 10000,
      "ceiling_ft": null,
      "hazards": [],
      "severityScore": 0,
      "metarRaw": "METAR OEJN 300200Z 36006KT CAVOK 21/11 Q1013 NOSIG",
      "tafRaw": "TAF OEJN 292300Z 3000/3106 03005KT CAVOK \n  BECMG 3008/3010 32012KT \n  BECMG 3018/3020 03005KT"
    },
    {
      "icao": "OEMA",
      "iata": "MED",
      "name": "Prince Mohammad Bin Abdulaziz Airport",
      "lat": 24.5534,
      "lon": 39.705101,
      "updatedAt": "300200Z",
      "visibility_m": 10000,
      "taf_visibility_m": 10000,
      "worst_visibility_m": 10000,
      "ceiling_ft": null,
      "hazards": [],
      "severityScore": 0,
      "metarRaw": "METAR OEMA 300200Z 36003KT CAVOK 15/M08 Q1019 NOSIG",
      "tafRaw": "TAF OEMA 292300Z 3000/3106 09005KT CAVOK \n  BECMG 3009/3011 26010KT \n  BECMG 3020/3022 VRB03KT"
    },
    {
      "icao": "OMDB",
      "iata": "DXB",
      "name": "Dubai International Airport",
      "lat": 25.2527999878,
      "lon": 55.3643989563,
      "updatedAt": "300200Z",
      "visibility_m": 10000,
      "taf_visibility_m": 8000,
      "worst_visibility_m": 8000,
      "ceiling_ft": null,
      "hazards": [],
      "severityScore": 0,
      "metarRaw": "METAR OMDB 300200Z 19003KT CAVOK 18/09 Q1016 NOSIG",
      "tafRaw": "TAF OMDB 292300Z 3000/3106 18005KT 8000 NSC \n  BECMG 3004/3006 27013KT \n  PROB30 3020/3104 20005KT"
    },
    {
      "icao": "UGKO",
      "iata": "KUT",
      "name": "David the Builder Kutaisi International Airport",
      "lat": 42.177448,
      "lon": 42.485353,
      "updatedAt": "300200Z",
      "visibility_m": 10000,
      "taf_visibility_m": 10000,
      "worst_visibility_m": 10000,
      "ceiling_ft": null,
      "hazards": [],
      "severityScore": 0,
      "metarRaw": "METAR UGKO 300200Z 07009KT CAVOK 04/M01 Q1008 NOSIG",
      "tafRaw": "TAF UGKO 292300Z 3000/3024 09007KT CAVOK TX18/3011Z TN05/3003Z \n  TEMPO 3006/3018 09020KT"
    }
  ],
  "stats": {
    "icaoCount": 159,
    "metarReturned": 154,
    "tafReturned": 142,
    "stationsWritten": 159,
    "missingMetar": 5,
    "missingTaf": 17
  },
  "errors": []
}