{
  "generatedAt": "2026-01-15T03:53:30.650Z",
  "stations": [
    {
      "icao": "BKPR",
      "iata": "PRN",
      "name": "Priština Adem Jashari International Airport",
      "updatedAt": null,
      "visibility_m": null,
      "taf_visibility_m": 150,
      "worst_visibility_m": 150,
      "ceiling_ft": 200,
      "hazards": [
        "FZFG",
        "BR",
        "FG"
      ],
      "severityScore": 100,
      "metarRaw": null,
      "tafRaw": "TAF BKPR 142330Z 1500/1524 VRB03KT 9999 BKN050 \n  PROB40 1501/1510 1500 BR \n  PROB30 1504/1508 0150 FZFG BKN002"
    },
    {
      "icao": "EDDB",
      "iata": "BER",
      "name": "Berlin Brandenburg Airport",
      "updatedAt": "150350Z",
      "visibility_m": 10000,
      "taf_visibility_m": 200,
      "worst_visibility_m": 200,
      "ceiling_ft": 2100,
      "hazards": [
        "FZFG",
        "FG",
        "BR",
        "RA",
        "DZ"
      ],
      "severityScore": 100,
      "metarRaw": "METAR EDDB 150350Z AUTO 12005KT 9999 OVC021 00/00 Q1016 NOSIG",
      "tafRaw": "TAF EDDB 142300Z 1500/1524 14006KT 1000 BCFG FEW001 \n  TEMPO 1500/1507 0200 FZFG OVC001 \n  PROB30 \n  TEMPO 1502/1506 4000 BR BKN012 \n  BECMG 1505/1508 8000 \n  TEMPO 1508/1515 2500 -RADZ BKN006 \n  TEMPO 1515/1524 1200 BCFG \n  PROB30 \n  TEMPO 1517/1524 0400 FG OVC002"
    },
    {
      "icao": "EGGP",
      "iata": "LPL",
      "name": "Liverpool John Lennon Airport",
      "updatedAt": "150320Z",
      "visibility_m": 10000,
      "taf_visibility_m": 300,
      "worst_visibility_m": 300,
      "ceiling_ft": 0,
      "hazards": [
        "FG",
        "BR",
        "RA",
        "DZ"
      ],
      "severityScore": 100,
      "metarRaw": "METAR EGGP 150320Z AUTO 09004KT 050V150 9999 FEW031/// 04/02 Q1000",
      "tafRaw": "TAF EGGP 142303Z 1500/1524 16007KT 9999 SCT025 \n  TEMPO 1500/1502 6000 RA -RADZ \n  PROB30 \n  TEMPO 1500/1502 17015G25KT 4000 RADZ BKN009 \n  BECMG 1513/1516 8000 \n  TEMPO 1516/1520 3000 BR BKN002 \n  PROB30 1520/1524 0300 FG OVC000"
    },
    {
      "icao": "EGGW",
      "iata": "LTN",
      "name": "London Luton Airport",
      "updatedAt": "150320Z",
      "visibility_m": 10000,
      "taf_visibility_m": 300,
      "worst_visibility_m": 300,
      "ceiling_ft": 900,
      "hazards": [
        "FG",
        "RA",
        "SHRA",
        "DZ"
      ],
      "severityScore": 100,
      "metarRaw": "METAR EGGW 150320Z AUTO 22010KT 9999 OVC009 07/06 Q1004",
      "tafRaw": "TAF EGGW 142257Z 1500/1524 21010KT 9999 SCT008 BKN020 \n  TEMPO 1500/1504 6000 RA SHRA BKN008 \n  PROB40 \n  TEMPO 1500/1501 4000 RADZ BKN003 \n  TEMPO 1504/1522 6000 RA BKN003 \n  PROB40 \n  TEMPO 1504/1512 3000 +RA BKN001 \n  BECMG 1512/1515 15012KT \n  PROB30 \n  TEMPO 1512/1518 3000 +RA \n  BECMG 1518/1521 27010KT \n  PROB40 \n  TEMPO 1522/1524 0300 FG BKN001"
    },
    {
      "icao": "EGNM",
      "iata": "LBA",
      "name": "Leeds Bradford Airport",
      "updatedAt": null,
      "visibility_m": null,
      "taf_visibility_m": 300,
      "worst_visibility_m": 300,
      "ceiling_ft": 0,
      "hazards": [
        "FG",
        "BR",
        "RA",
        "DZ"
      ],
      "severityScore": 100,
      "metarRaw": null,
      "tafRaw": "TAF EGNM 142302Z 1500/1524 15005KT 9999 SCT025 \n  BECMG 1500/1503 21010KT \n  TEMPO 1500/1504 5000 RA -RADZ BKN007 \n  PROB30 \n  TEMPO 1500/1504 2500 RADZ BR BKN002 \n  PROB40 \n  TEMPO 1504/1506 8000 -RA BKN008 \n  PROB30 \n  TEMPO 1506/1515 8000 BKN009 \n  BECMG 1511/1514 VRB03KT \n  TEMPO 1515/1524 4000 RA -RADZ BKN005 \n  PROB30 \n  TEMPO 1515/1519 0300 FG BKN000 \n  PROB30 \n  TEMPO 1519/1523 BKN003"
    },
    {
      "icao": "EKCH",
      "iata": "CPH",
      "name": "Copenhagen Kastrup Airport",
      "updatedAt": "150350Z",
      "visibility_m": 200,
      "taf_visibility_m": 200,
      "worst_visibility_m": 200,
      "ceiling_ft": 200,
      "hazards": [
        "FG",
        "BR",
        "RA",
        "DZ"
      ],
      "severityScore": 100,
      "metarRaw": "METAR EKCH 150350Z 18002KT 0200 R22L/0700N R04L/0700N R12/0700N FG VV002 00/00 Q1014 BECMG 9999 NSC",
      "tafRaw": "TAF EKCH 150227Z 1503/1603 23008KT 0200 FG VV002 \n  BECMG 1503/1505 9999 NSW SCT003 \n  BECMG 1505/1507 16014KT \n  BECMG 1510/1513 BKN008 \n  BECMG 1513/1515 3000 -RADZ BR BKN003 \n  TEMPO 1515/1603 1200 BKN005"
    },
    {
      "icao": "ENGM",
      "iata": "OSL",
      "name": "Oslo-Gardermoen International Airport",
      "updatedAt": "150320Z",
      "visibility_m": 700,
      "taf_visibility_m": 300,
      "worst_visibility_m": 300,
      "ceiling_ft": 200,
      "hazards": [
        "FZFG",
        "FG",
        "BR",
        "SN"
      ],
      "severityScore": 100,
      "metarRaw": "METAR ENGM 150320Z 34003KT 300V360 0700 0500SE R19R/1100U R01R/0900U R19L/0800N R01L/0800N FZFG VV002 M08/M09 Q1007",
      "tafRaw": "TAF ENGM 142300Z 1500/1524 VRB03KT 0300 FZFG VV001 \n  PROB40 1500/1509 6000 NSW SCT002 \n  BECMG 1509/1511 8000 NSW BKN005 \n  TEMPO 1511/1524 2000 -SN BR BKN003"
    },
    {
      "icao": "EPGD",
      "iata": "GDN",
      "name": "Gdańsk Lech Wałęsa Airport",
      "updatedAt": "150330Z",
      "visibility_m": 10000,
      "taf_visibility_m": 300,
      "worst_visibility_m": 300,
      "ceiling_ft": 300,
      "hazards": [
        "FG",
        "BR"
      ],
      "severityScore": 100,
      "metarRaw": "METAR EPGD 150330Z 26008KT 9999 BKN003 BKN029 01/01 Q1016",
      "tafRaw": "TAF EPGD 142330Z 1500/1524 25010KT 8000 NSC \n  TEMPO 1500/1508 2000 BR BKN004 \n  PROB40 1500/1508 VRB03KT 1000 BR BKN001 \n  PROB30 1500/1507 0300 FG \n  BECMG 1508/1510 18010KT \n  TEMPO 1518/1524 4000 BR BKN004"
    },
    {
      "icao": "EPKT",
      "iata": "KTW",
      "name": "Katowice Wojciech Korfanty International Airport",
      "updatedAt": "150330Z",
      "visibility_m": 3900,
      "taf_visibility_m": 800,
      "worst_visibility_m": 800,
      "ceiling_ft": 600,
      "hazards": [
        "BR",
        "FG",
        "RA",
        "DZ"
      ],
      "severityScore": 100,
      "metarRaw": "METAR EPKT 150330Z 22006KT 3900 BR BKN006 01/00 Q1018",
      "tafRaw": "TAF EPKT 142330Z 1500/1524 22006KT 4000 BR BKN004 \n  TEMPO 1500/1508 0800 FG OVC001 \n  BECMG 1508/1511 14010KT 7000 BKN012 \n  TEMPO 1515/1524 2000 -RADZ BR BKN004"
    },
    {
      "icao": "EPLB",
      "iata": "LUZ",
      "name": "Lublin Airport",
      "updatedAt": "150330Z",
      "visibility_m": 3300,
      "taf_visibility_m": 1500,
      "worst_visibility_m": 1500,
      "ceiling_ft": 300,
      "hazards": [
        "BR",
        "SN",
        "FZRA",
        "FZDZ",
        "RA",
        "DZ"
      ],
      "severityScore": 100,
      "metarRaw": "METAR EPLB 150330Z 06003KT 3300 -SN BR OVC003 M04/M04 Q1016",
      "tafRaw": "TAF EPLB 142330Z 1500/1524 VRB02KT 3000 -SN BR BKN005 BKN010 \n  TEMPO 1500/1504 1500 SN BR BKN003 \n  PROB40 \n  TEMPO 1501/1507 -FZRA -FZDZ \n  BECMG 1508/1510 5000 BR \n  BECMG 1516/1518 10010KT \n  TEMPO 1516/1524 2500 BR BKN004"
    },
    {
      "icao": "EPMO",
      "iata": "WMI",
      "name": "Modlin Airport",
      "updatedAt": "150330Z",
      "visibility_m": 800,
      "taf_visibility_m": 300,
      "worst_visibility_m": 300,
      "ceiling_ft": 100,
      "hazards": [
        "FZFG",
        "FG",
        "BR",
        "FZDZ",
        "DZ"
      ],
      "severityScore": 100,
      "metarRaw": "METAR EPMO 150330Z 07002KT 0800 R08/1200N FZFG BKN001 M02/M02 Q1017",
      "tafRaw": "TAF EPMO 142330Z 1500/1524 VRB03KT 0800 FZFG BKN003 \n  TEMPO 1500/1508 0300 FZFG -FZDZ BKN001 \n  BECMG 1509/1512 4000 BR BKN006 \n  BECMG 1518/1520 2500 BR BKN003"
    },
    {
      "icao": "EPPO",
      "iata": "POZ",
      "name": "Poznań-Ławica Airport",
      "updatedAt": "150330Z",
      "visibility_m": 150,
      "taf_visibility_m": null,
      "worst_visibility_m": 150,
      "ceiling_ft": 100,
      "hazards": [
        "FZFG",
        "FG"
      ],
      "severityScore": 100,
      "metarRaw": "METAR EPPO 150330Z 19002KT 0150 R28/0550N FZFG VV001 M01/M02 Q1018",
      "tafRaw": null
    },
    {
      "icao": "EPRA",
      "iata": "RDO",
      "name": "Warsaw Radom Airport",
      "updatedAt": "150330Z",
      "visibility_m": 6000,
      "taf_visibility_m": 800,
      "worst_visibility_m": 800,
      "ceiling_ft": 300,
      "hazards": [
        "DZ",
        "RA",
        "FZFG",
        "BR",
        "FG"
      ],
      "severityScore": 100,
      "metarRaw": "METAR EPRA 150330Z 31010KT 6000 -DZ OVC003 02/01 Q1017",
      "tafRaw": "TAF EPRA 150230Z 1503/1512 30008KT 4000 BR OVC004 \n  TEMPO 1503/1507 2000 -DZ BR OVC002 \n  PROB30 1503/1507 0800 FZFG \n  BECMG 1507/1509 6000 BKN011"
    },
    {
      "icao": "EPSC",
      "iata": "SZZ",
      "name": "Solidarity Szczecin–Goleniów Airport",
      "updatedAt": "150330Z",
      "visibility_m": 2000,
      "taf_visibility_m": 300,
      "worst_visibility_m": 300,
      "ceiling_ft": 100,
      "hazards": [
        "BR",
        "FZFG",
        "FG",
        "RA",
        "DZ"
      ],
      "severityScore": 100,
      "metarRaw": "METAR EPSC 150330Z 11004KT 2000 BR NSC M02/M02 Q1016",
      "tafRaw": "TAF EPSC 142330Z 1500/1524 25005KT 4000 BR NSC \n  TEMPO 1500/1509 1500 BR OVC003 \n  PROB40 1500/1508 0300 FZFG OVC001 \n  BECMG 1509/1511 16010KT 6000 BKN005 \n  TEMPO 1512/1518 2000 -RADZ BR OVC002 \n  TEMPO 1518/1524 3000 BR BKN002"
    },
    {
      "icao": "EPSY",
      "iata": "SZY",
      "name": "Olsztyn-Mazury Airport",
      "updatedAt": "150330Z",
      "visibility_m": 4400,
      "taf_visibility_m": 500,
      "worst_visibility_m": 500,
      "ceiling_ft": 200,
      "hazards": [
        "BR",
        "FZFG",
        "FG"
      ],
      "severityScore": 100,
      "metarRaw": "METAR EPSY 150330Z 16003KT 4400 BR OVC002 M06/M07 Q1017",
      "tafRaw": "TAF EPSY 150230Z 1503/1512 VRB02KT 5000 BR BKN006 \n  TEMPO 1503/1507 2000 BR OVC002 \n  PROB40 1503/1507 0500 FZFG OVC001"
    },
    {
      "icao": "EPWA",
      "iata": "WAW",
      "name": "Warsaw Chopin Airport",
      "updatedAt": "150330Z",
      "visibility_m": 1200,
      "taf_visibility_m": 500,
      "worst_visibility_m": 500,
      "ceiling_ft": 200,
      "hazards": [
        "BR",
        "FZFG",
        "FG",
        "FZDZ",
        "DZ"
      ],
      "severityScore": 100,
      "metarRaw": "METAR EPWA 150330Z 31007KT 3400 BR OVC002 01/01 Q1017 TEMPO 1200 BR",
      "tafRaw": "TAF EPWA 150230Z 1503/1603 29005KT 1500 BR OVC005 \n  TEMPO 1503/1509 0800 FG OVC002 \n  PROB40 1503/1508 0500 -FZDZ FZFG BKN001 \n  BECMG 1509/1512 5000 BR \n  BECMG 1513/1516 13010KT"
    },
    {
      "icao": "ESGG",
      "iata": "GOT",
      "name": "Göteborg Landvetter Airport",
      "updatedAt": "150320Z",
      "visibility_m": 2700,
      "taf_visibility_m": 300,
      "worst_visibility_m": 300,
      "ceiling_ft": 300,
      "hazards": [
        "FG",
        "BR",
        "RA",
        "DZ"
      ],
      "severityScore": 100,
      "metarRaw": "METAR ESGG 150320Z 20006KT 2700 OVC003 01/01 Q1010",
      "tafRaw": "TAF ESGG 150230Z 1503/1603 22008KT 6000 BKN005 \n  TEMPO 1503/1509 0300 FG VV002 \n  BECMG 1509/1511 16010KT SCT010 \n  BECMG 1513/1515 BKN006 \n  TEMPO 1515/1603 2000 -RADZ BR BKN003"
    },
    {
      "icao": "ESMS",
      "iata": "MMX",
      "name": "Malmö Sturup Airport",
      "updatedAt": "150320Z",
      "visibility_m": 4000,
      "taf_visibility_m": 400,
      "worst_visibility_m": 400,
      "ceiling_ft": 2500,
      "hazards": [
        "FZFG",
        "BR",
        "FG",
        "RA",
        "DZ"
      ],
      "severityScore": 100,
      "metarRaw": "METAR ESMS 150320Z 18005KT 4000 SCT002 BKN025 M01/M01 Q1014",
      "tafRaw": "TAF ESMS 150227Z 1503/1603 23008KT 0400 FZFG VV002 \n  TEMPO 1503/1504 2000 BCFG FEW002 \n  BECMG 1504/1506 9999 NSW SCT003 \n  BECMG 1511/1513 1000 -RADZ BR BKN006 \n  TEMPO 1514/1603 4000 BKN002"
    },
    {
      "icao": "LBPD",
      "iata": "PDV",
      "name": "Plovdiv International Airport",
      "updatedAt": "150330Z",
      "visibility_m": 6000,
      "taf_visibility_m": 300,
      "worst_visibility_m": 300,
      "ceiling_ft": 200,
      "hazards": [
        "FZFG",
        "BR",
        "FG"
      ],
      "severityScore": 100,
      "metarRaw": "METAR LBPD 150330Z AUTO VRB01KT 6000 OVC077/// 00/00 Q1021",
      "tafRaw": "TAF LBPD 142300Z 1500/1524 VRB04KT 5000 BR BKN015 \n  TEMPO 1500/1507 0600 BCFG BKN004 \n  PROB40 1501/1506 0300 FZFG OVC002 \n  BECMG 1507/1509 30012KT 9999 NSW SCT060 \n  BECMG 1518/1520 VRB04KT"
    },
    {
      "icao": "LBSF",
      "iata": "SOF",
      "name": "Sofia Airport",
      "updatedAt": "150330Z",
      "visibility_m": 5000,
      "taf_visibility_m": 600,
      "worst_visibility_m": 600,
      "ceiling_ft": 200,
      "hazards": [
        "BR",
        "FZFG",
        "FG"
      ],
      "severityScore": 100,
      "metarRaw": "METAR LBSF 150330Z AUTO VRB01KT 9000 FEW040/// SCT075/// M00/M01 Q1022 TEMPO 5000 BR",
      "tafRaw": "TAF LBSF 142300Z 1500/1524 VRB04KT 3000 BR BKN010 \n  TEMPO 1500/1506 0600 FZFG BKN002 \n  BECMG 1506/1508 5000 BR SCT015 \n  BECMG 1508/1510 31010KT 9999 NSW SCT060 \n  BECMG 1518/1520 VRB04KT"
    },
    {
      "icao": "LEZL",
      "iata": "SVQ",
      "name": "Sevilla Airport",
      "updatedAt": "150330Z",
      "visibility_m": 7000,
      "taf_visibility_m": 500,
      "worst_visibility_m": 500,
      "ceiling_ft": 200,
      "hazards": [
        "FG",
        "BR",
        "RA"
      ],
      "severityScore": 100,
      "metarRaw": "METAR LEZL 150330Z AUTO 15001KT 7000 0450W R27/P2000 R09/0700U BCFG VV002 06/06 Q1021",
      "tafRaw": "TAF LEZL 150200Z 1503/1603 VRB02KT 9999 FEW030 TX14/1515Z TN06/1507Z \n  TEMPO 1503/1513 4000 BR BKN010 \n  PROB40 1503/1511 0500 FG VV001 \n  BECMG 1514/1516 22010KT \n  PROB30 \n  TEMPO 1521/1603 4000 RA BR BKN010"
    },
    {
      "icao": "LFBD",
      "iata": "BOD",
      "name": "Bordeaux–Mérignac Airport",
      "updatedAt": "150330Z",
      "visibility_m": 500,
      "taf_visibility_m": 500,
      "worst_visibility_m": 500,
      "ceiling_ft": 200,
      "hazards": [
        "FG",
        "BR",
        "SHRA",
        "RA"
      ],
      "severityScore": 100,
      "metarRaw": "METAR LFBD 150330Z AUTO 17006KT 8000 1000 R23/1700U R05/1300D R29/P2300 SCT040 08/08 Q1016 TEMPO 0500 FG VV///",
      "tafRaw": "TAF LFBD 142300Z 1500/1606 18005KT 6000 NSC TX13/1514Z TN05/1506Z \n  TEMPO 1500/1509 3000 BR BKN002 \n  PROB40 1500/1509 0500 FG VV/// \n  BECMG 1509/1511 19010KT CAVOK \n  TEMPO 1516/1606 20010G20KT 4000 -SHRA BKN040TCU \n  PROB30 \n  TEMPO 1523/1603 BKN007"
    },
    {
      "icao": "LHBP",
      "iata": "BUD",
      "name": "Budapest Liszt Ferenc International Airport",
      "updatedAt": "150330Z",
      "visibility_m": 800,
      "taf_visibility_m": null,
      "worst_visibility_m": 800,
      "ceiling_ft": 100,
      "hazards": [
        "FZFG",
        "BR",
        "FG"
      ],
      "severityScore": 100,
      "metarRaw": "METAR LHBP 150330Z 15003KT 3500 BR SCT003 BKN070 M04/M04 Q1020 TEMPO 0800 FZFG BKN001",
      "tafRaw": null
    },
    {
      "icao": "LHDC",
      "iata": "DEB",
      "name": "Debrecen International Airport",
      "updatedAt": "150315Z",
      "visibility_m": 400,
      "taf_visibility_m": null,
      "worst_visibility_m": 400,
      "ceiling_ft": 200,
      "hazards": [
        "FZFG",
        "FG"
      ],
      "severityScore": 100,
      "metarRaw": "METAR LHDC 150315Z AUTO 00000KT 0400 R04/0450N FZFG VV002 M03/M03 Q1021",
      "tafRaw": null
    },
    {
      "icao": "LKPR",
      "iata": "PRG",
      "name": "Václav Havel Airport Prague",
      "updatedAt": "150330Z",
      "visibility_m": 1400,
      "taf_visibility_m": 300,
      "worst_visibility_m": 300,
      "ceiling_ft": 1500,
      "hazards": [
        "BR",
        "FZFG",
        "RA",
        "DZ",
        "FG"
      ],
      "severityScore": 100,
      "metarRaw": "METAR LKPR 150330Z 10004KT 2500 BR BKN015 OVC020 02/02 Q1017 TEMPO 1400 BR",
      "tafRaw": "TAF LKPR 150200Z 1503/1609 20008KT 9999 SCT012 BKN027 \n  TEMPO 1503/1512 3000 -RA BR SCT004 BKN012 \n  PROB30 \n  TEMPO 1503/1511 1200 DZ BR BKN003 \n  BECMG 1516/1518 12004KT 1500 BR SCT002 OVC005 \n  TEMPO 1518/1606 VRB02KT 0300 FZFG OVC002"
    },
    {
      "icao": "LOWW",
      "iata": "VIE",
      "name": "Vienna International Airport",
      "updatedAt": "150320Z",
      "visibility_m": 300,
      "taf_visibility_m": 300,
      "worst_visibility_m": 300,
      "ceiling_ft": 100,
      "hazards": [
        "FZFG",
        "FG",
        "FZDZ",
        "DZ"
      ],
      "severityScore": 100,
      "metarRaw": "METAR LOWW 150320Z VRB02KT 0450 R29/0550N FZFG VV001 M02/M03 Q1020 TEMPO 0300 FZFG",
      "tafRaw": "TAF LOWW 150215Z 1503/1609 15004KT 0700 FZFG SCT001 OVC002 TXM00/1607Z TNM02/1503Z \n  TEMPO 1503/1609 0300 VV001 \n  PROB30 \n  TEMPO 1600/1608 13008KT -FZDZ FZFG"
    },
    {
      "icao": "LQSA",
      "iata": "SJJ",
      "name": "Sarajevo International Airport",
      "updatedAt": "150330Z",
      "visibility_m": 5000,
      "taf_visibility_m": 300,
      "worst_visibility_m": 300,
      "ceiling_ft": 100,
      "hazards": [
        "BR",
        "FZFG",
        "FG"
      ],
      "severityScore": 100,
      "metarRaw": "METAR LQSA 150330Z VRB02KT 5000 BR NSC 01/01 Q1023",
      "tafRaw": "TAF LQSA 142300Z 1500/1524 VRB02KT 8000 FEW045 TX06/1514Z TNM02/1506Z \n  TEMPO 1500/1510 2000 BR \n  PROB40 1500/1508 0300 FZFG OVC001 \n  PROB40 \n  TEMPO 1519/1524 2000 BR \n  PROB30 1521/1524 0300 FG OVC001"
    },
    {
      "icao": "LRCL",
      "iata": "CLJ",
      "name": "Cluj Avram Iancu International Airport",
      "updatedAt": "150330Z",
      "visibility_m": 800,
      "taf_visibility_m": 500,
      "worst_visibility_m": 500,
      "ceiling_ft": 200,
      "hazards": [
        "BR",
        "SN",
        "FZFG",
        "FG"
      ],
      "severityScore": 100,
      "metarRaw": "METAR LRCL 150330Z 00000KT 0800 R25/0800N -SN BR VV002 M02/M03 Q1020",
      "tafRaw": "TAF LRCL 150200Z 1503/1512 VRB03KT 0500 FZFG OVC002 \n  PROB40 \n  TEMPO 1503/1505 1500 -SN BR BKN005 OVC030 \n  BECMG 1505/1507 3000 BR BKN005 OVC030"
    },
    {
      "icao": "LRCV",
      "iata": "CRA",
      "name": "Craiova International Airport",
      "updatedAt": "150330Z",
      "visibility_m": 250,
      "taf_visibility_m": 200,
      "worst_visibility_m": 200,
      "ceiling_ft": 100,
      "hazards": [
        "FZFG",
        "FG",
        "BR"
      ],
      "severityScore": 100,
      "metarRaw": "METAR LRCV 150330Z 27002KT 0250 R26/0275N FZFG VV001 M03/M03 Q1019",
      "tafRaw": "TAF LRCV 150200Z 1503/1512 26006KT 0200 FZFG VV001 \n  PROB30 \n  TEMPO 1503/1507 0800 OVC002 \n  BECMG 1507/1509 3000 BR SCT010 \n  BECMG 1509/1511 CAVOK"
    },
    {
      "icao": "LRTM",
      "iata": "TGM",
      "name": "Târgu Mureş Transilvania International Airport",
      "updatedAt": "150330Z",
      "visibility_m": 3900,
      "taf_visibility_m": 1500,
      "worst_visibility_m": 1500,
      "ceiling_ft": 200,
      "hazards": [
        "FZRA",
        "RA",
        "BR",
        "SN",
        "FZDZ",
        "DZ"
      ],
      "severityScore": 100,
      "metarRaw": "METAR LRTM 150330Z AUTO 26003KT 3900 -FZRA FEW003/// BKN006/// BKN014/// M01/M02 Q1020",
      "tafRaw": "TAF LRTM 150200Z 1503/1512 VRB03KT 5000 BR BKN010 OVC025 \n  TEMPO 1503/1505 -FZDZ BKN002 OVC015 \n  TEMPO 1505/1509 1500 -SN BR BKN002 OVC015"
    },
    {
      "icao": "LRTR",
      "iata": "TSR",
      "name": "Timişoara Traian Vuia Airport",
      "updatedAt": "150330Z",
      "visibility_m": 800,
      "taf_visibility_m": 600,
      "worst_visibility_m": 600,
      "ceiling_ft": 200,
      "hazards": [
        "FZFG",
        "BR",
        "FG"
      ],
      "severityScore": 100,
      "metarRaw": "METAR LRTR 150330Z 08003KT 1500 BR NSC M00/M00 Q1021 TEMPO 0800 FZFG",
      "tafRaw": "TAF LRTR 142300Z 1500/1524 VRB04KT 3000 BR SCT035 \n  TEMPO 1500/1506 1500 BR BKN005 OVC020 \n  PROB30 \n  TEMPO 1501/1505 0600 FZFG OVC002 \n  BECMG 1507/1509 5000 \n  BECMG 1510/1512 CAVOK"
    },
    {
      "icao": "LWSK",
      "iata": "SKP",
      "name": "Skopje International Airport",
      "updatedAt": "150350Z",
      "visibility_m": 7000,
      "taf_visibility_m": 600,
      "worst_visibility_m": 600,
      "ceiling_ft": 300,
      "hazards": [
        "FZFG",
        "BR",
        "FG"
      ],
      "severityScore": 100,
      "metarRaw": "METAR LWSK 150350Z 11002KT 7000 NSC M05/M06 Q1026 NOSIG",
      "tafRaw": "TAF LWSK 150205Z 1503/1603 VRB02KT CAVOK \n  TEMPO 1503/1509 5000 BR SCT015 \n  PROB30 \n  TEMPO 1505/1508 0600 FZFG BKN003"
    },
    {
      "icao": "LZIB",
      "iata": "BTS",
      "name": "M. R. Štefánik Airport",
      "updatedAt": "150330Z",
      "visibility_m": 2200,
      "taf_visibility_m": 400,
      "worst_visibility_m": 400,
      "ceiling_ft": 200,
      "hazards": [
        "BR",
        "FZFG",
        "FZDZ",
        "FG",
        "DZ"
      ],
      "severityScore": 100,
      "metarRaw": "METAR LZIB 150330Z 03003KT 2200 BR BKN002 OVC048 M03/M03 Q1021 NOSIG",
      "tafRaw": "TAF LZIB 142315Z 1500/1600 06005KT 1800 BR OVC003 \n  TEMPO 1500/1508 VRB02KT 0900 FZFG BCFG BKN002 \n  PROB40 \n  TEMPO 1500/1506 0400 FZDZ VV001 \n  TEMPO 1510/1516 2500 BR OVC006 \n  PROB40 \n  TEMPO 1516/1600 0900 FZFG OVC002"
    },
    {
      "icao": "UAAA",
      "iata": "ALA",
      "name": "Almaty International Airport",
      "updatedAt": "150347Z",
      "visibility_m": 1000,
      "taf_visibility_m": 200,
      "worst_visibility_m": 200,
      "ceiling_ft": 200,
      "hazards": [
        "BR",
        "FZFG",
        "SHSN",
        "SN",
        "FG",
        "RA"
      ],
      "severityScore": 100,
      "metarRaw": "SPECI UAAA 150347Z VRB01MPS 1000 R23L/1000 BR OVC002 M08/M09 Q1022 NOSIG RMK QBB070",
      "tafRaw": "TAF UAAA 142303Z 1500/1524 30003MPS 1100 BR FU BKN005 OVC020 TXM02/1509Z TNM09/1503Z \n  TEMPO 1500/1506 0200 FZFG VV001 \n  BECMG 1506/1507 3100 BKN011 OVC050 \n  BECMG 1510/1511 35003G08MPS BKN011CB OVC050 \n  TEMPO 1510/1518 1200 -SHSNRA BR \n  TEMPO 1518/1524 28006G12MPS 1000 SHSN BR BKN007CB OVC020"
    },
    {
      "icao": "ENTO",
      "iata": "TRF",
      "name": "Sandefjord Airport, Torp",
      "updatedAt": "150320Z",
      "visibility_m": 10000,
      "taf_visibility_m": 1200,
      "worst_visibility_m": 1200,
      "ceiling_ft": 300,
      "hazards": [
        "BR",
        "SN",
        "RA",
        "DZ"
      ],
      "severityScore": 95,
      "metarRaw": "METAR ENTO 150320Z AUTO VRB02KT 9999 NCD M06/M06 Q1007",
      "tafRaw": "TAF ENTO 142300Z 1500/1524 25008KT CAVOK \n  BECMG 1504/1507 BKN008 \n  TEMPO 1507/1516 1200 SNRA BKN003 \n  BECMG 1509/1511 17012KT \n  TEMPO 1516/1524 2000 DZRA BR BKN003"
    },
    {
      "icao": "LEMD",
      "iata": "MAD",
      "name": "Adolfo Suárez Madrid–Barajas Airport",
      "updatedAt": "150330Z",
      "visibility_m": 350,
      "taf_visibility_m": null,
      "worst_visibility_m": 350,
      "ceiling_ft": 100,
      "hazards": [
        "FG"
      ],
      "severityScore": 95,
      "metarRaw": "METAR LEMD 150330Z 01002KT 0600 0150E R32R/0400N FG VV002 00/00 Q1020 BECMG 0350 VV001",
      "tafRaw": null
    },
    {
      "icao": "LIPR",
      "iata": "RMI",
      "name": "Federico Fellini International Airport",
      "updatedAt": "150320Z",
      "visibility_m": 5000,
      "taf_visibility_m": 500,
      "worst_visibility_m": 500,
      "ceiling_ft": 700,
      "hazards": [
        "BR",
        "FG"
      ],
      "severityScore": 90,
      "metarRaw": "METAR LIPR 150320Z AUTO 25003KT 5000 BR OVC060/// 06/04 Q1023",
      "tafRaw": "TAF LIPR 142300Z 1500/1524 VRB05KT 3000 BR BKN050 \n  PROB40 \n  TEMPO 1504/1509 0600 FG BKN008 \n  BECMG 1516/1518 0500 FG BKN007"
    },
    {
      "icao": "EDDH",
      "iata": "HAM",
      "name": "Hamburg Helmut Schmidt Airport",
      "updatedAt": "150350Z",
      "visibility_m": 4000,
      "taf_visibility_m": 1200,
      "worst_visibility_m": 1200,
      "ceiling_ft": 700,
      "hazards": [
        "BR",
        "DZ",
        "FG",
        "RA"
      ],
      "severityScore": 87,
      "metarRaw": "METAR EDDH 150350Z AUTO 15009KT 9999 OVC007 02/01 Q1012 TEMPO 4000 BR",
      "tafRaw": "TAF EDDH 142300Z 1500/1606 16008KT 9999 SCT025 \n  PROB30 \n  TEMPO 1500/1501 2500 BCFG \n  BECMG 1501/1504 3500 BR BKN005 \n  TEMPO 1503/1511 2500 -DZRA BR BKN003 \n  PROB30 \n  TEMPO 1503/1511 1200 -DZ BR \n  BECMG 1510/1513 9999 SCT020 \n  BECMG 1603/1605 15013KT"
    },
    {
      "icao": "LIME",
      "iata": "BGY",
      "name": "Milan Bergamo Airport / Antonio Locatelli Air Base",
      "updatedAt": "150320Z",
      "visibility_m": 1500,
      "taf_visibility_m": 600,
      "worst_visibility_m": 600,
      "ceiling_ft": 1000,
      "hazards": [
        "BR",
        "RA",
        "FG"
      ],
      "severityScore": 79,
      "metarRaw": "METAR LIME 150320Z VRB02KT 1500 -RA BR BKN010 05/05 Q1022 NOSIG",
      "tafRaw": "TAF LIME 142300Z 1500/1524 VRB04KT 4000 BR FEW005 BKN040 \n  PROB40 \n  TEMPO 1500/1506 0800 FG BKN005 \n  TEMPO 1506/1518 2000 -RA \n  TEMPO 1518/1524 0600 FG BKN004"
    },
    {
      "icao": "EETN",
      "iata": "TLL",
      "name": "Lennart Meri Tallinn Airport",
      "updatedAt": "150350Z",
      "visibility_m": 3000,
      "taf_visibility_m": 1500,
      "worst_visibility_m": 1500,
      "ceiling_ft": 1000,
      "hazards": [
        "SN",
        "FZDZ",
        "DZ"
      ],
      "severityScore": 78,
      "metarRaw": "METAR EETN 150350Z 15012KT CAVOK M11/M13 Q1016 TEMPO 3000 SN BKN010",
      "tafRaw": "TAF EETN 142330Z 1500/1524 15012KT 9999 SCT025 \n  PROB40 \n  TEMPO 1501/1504 16015G25KT 3000 SN DRSN BKN010 \n  BECMG 1504/1505 1500 +SN SCT010 BKN020 \n  TEMPO 1505/1507 3000 SN BKN008 \n  BECMG 1507/1508 9000 OVC007 \n  PROB40 \n  TEMPO 1508/1515 3000 SG -FZDZ"
    },
    {
      "icao": "EFTU",
      "iata": "TKU",
      "name": "Turku Airport",
      "updatedAt": "150350Z",
      "visibility_m": 3600,
      "taf_visibility_m": 2500,
      "worst_visibility_m": 2500,
      "ceiling_ft": 1700,
      "hazards": [
        "SN",
        "BR",
        "DZ",
        "FZDZ"
      ],
      "severityScore": 78,
      "metarRaw": "METAR EFTU 150350Z AUTO 13012KT 3600 -SN BKN017 OVC039 M07/M09 Q1012",
      "tafRaw": "TAF EFTU 150237Z 1503/1603 13011KT 2500 -SN OVC015 \n  BECMG 1503/1505 8000 BKN007 \n  TEMPO 1505/1512 4000 -FZDZSN BKN004 \n  BECMG 1512/1514 19004KT BKN015 \n  TEMPO 1514/1519 BKN011 \n  TEMPO 1519/1602 2500 -DZ BR BKN003"
    },
    {
      "icao": "EKBI",
      "iata": "BLL",
      "name": "Billund Airport",
      "updatedAt": "150350Z",
      "visibility_m": 9000,
      "taf_visibility_m": 1000,
      "worst_visibility_m": 1000,
      "ceiling_ft": 300,
      "hazards": [
        "BR",
        "RA",
        "DZ"
      ],
      "severityScore": 77,
      "metarRaw": "METAR EKBI 150350Z AUTO 14006KT 9000 SCT003/// 01/01 Q1010",
      "tafRaw": "TAF EKBI 150227Z 1503/1603 15005KT 9999 BKN003 \n  TEMPO 1503/1506 SCT003 \n  BECMG 1506/1508 1000 -RADZ BR \n  TEMPO 1508/1523 3000 RADZ BKN005 \n  BECMG 1523/1601 SCT015 \n  TEMPO 1601/1603 2000 BR BKN003"
    },
    {
      "icao": "LRBV",
      "iata": "GHV",
      "name": "Brașov-Ghimbav International Airport",
      "updatedAt": "150330Z",
      "visibility_m": 5000,
      "taf_visibility_m": 1500,
      "worst_visibility_m": 1500,
      "ceiling_ft": 500,
      "hazards": [
        "BR",
        "SN",
        "RA"
      ],
      "severityScore": 75,
      "metarRaw": "METAR LRBV 150330Z AUTO VRB02KT 5000 UP OVC009/// 02/01 Q1018",
      "tafRaw": "TAF LRBV 150200Z 1503/1512 VRB04KT 5000 BR BKN015 OVC020 \n  TEMPO 1503/1509 24010KT 1500 -SNRA BR BKN005 OVC010"
    },
    {
      "icao": "LRSM",
      "iata": "SUJ",
      "name": "Satu Mare International Airport",
      "updatedAt": "150330Z",
      "visibility_m": 1300,
      "taf_visibility_m": 1000,
      "worst_visibility_m": 1000,
      "ceiling_ft": 200,
      "hazards": [
        "BR",
        "SN"
      ],
      "severityScore": 73,
      "metarRaw": "METAR LRSM 150330Z AUTO 26005KT 1300 R19/1500D BR VV002 M01/M01 Q1021",
      "tafRaw": "TAF LRSM 150200Z 1503/1512 VRB04KT 3000 -SN BR BKN005 OVC020 \n  TEMPO 1503/1507 1000 SN BR BKN002 OVC015 \n  BECMG 1507/1509 5000 BR BKN010 OVC030 \n  BECMG 1509/1511 BKN015 OVC040"
    },
    {
      "icao": "EGKK",
      "iata": "LGW",
      "name": "London Gatwick Airport",
      "updatedAt": "150320Z",
      "visibility_m": 10000,
      "taf_visibility_m": 3000,
      "worst_visibility_m": 3000,
      "ceiling_ft": 400,
      "hazards": [
        "RA",
        "SHRA",
        "DZ"
      ],
      "severityScore": 71,
      "metarRaw": "METAR EGKK 150320Z 20007KT 9999 SCT010 SCT021 08/07 Q1006",
      "tafRaw": "TAF EGKK 142258Z 1500/1606 21009KT 9999 SCT010 \n  PROB30 \n  TEMPO 1500/1508 6000 -RADZ BKN006 \n  TEMPO 1508/1523 6000 -RADZ RA BKN007 \n  PROB30 \n  TEMPO 1508/1523 3000 RADZ +RA BKN004 \n  BECMG 1511/1514 15010KT \n  PROB30 \n  TEMPO 1512/1518 19015G25KT \n  BECMG 1517/1520 25010KT \n  PROB30 \n  TEMPO 1523/1603 6000 BKN007 \n  BECMG 1600/1603 17006KT \n  PROB40 \n  TEMPO 1603/1606 6000 SHRA BKN008"
    },
    {
      "icao": "LIPX",
      "iata": "VRN",
      "name": "Verona Villafranca Valerio Catullo Airport",
      "updatedAt": "150320Z",
      "visibility_m": 6000,
      "taf_visibility_m": 600,
      "worst_visibility_m": 600,
      "ceiling_ft": 8000,
      "hazards": [
        "FG",
        "BR",
        "RA"
      ],
      "severityScore": 67,
      "metarRaw": "METAR LIPX 150320Z VRB01KT 6000 BKN080 04/03 Q1022",
      "tafRaw": "TAF LIPX 142300Z 1500/1524 VRB04KT 3000 BR FEW010 BKN050 \n  TEMPO 1500/1506 1200 BCFG BKN010 \n  TEMPO 1506/1516 1200 -RA \n  BECMG 1516/1518 0600 FG BKN004"
    },
    {
      "icao": "LPFR",
      "iata": "FAO",
      "name": "Faro Airport",
      "updatedAt": "150330Z",
      "visibility_m": 10000,
      "taf_visibility_m": 3000,
      "worst_visibility_m": 3000,
      "ceiling_ft": 300,
      "hazards": [
        "BR",
        "RA",
        "DZ"
      ],
      "severityScore": 67,
      "metarRaw": "METAR LPFR 150330Z 30003KT CAVOK 09/08 Q1021",
      "tafRaw": "TAF LPFR 142300Z 1500/1524 01005KT 9999 FEW012 \n  PROB30 \n  TEMPO 1500/1508 3000 BR BKN003 \n  BECMG 1511/1513 21007KT BKN040 \n  BECMG 1517/1519 23018KT SCT015 BKN030 \n  TEMPO 1519/1524 4000 RADZ BR SCT008 BKN012"
    },
    {
      "icao": "LIBR",
      "iata": "BDS",
      "name": "Brindisi Airport",
      "updatedAt": "150320Z",
      "visibility_m": 7000,
      "taf_visibility_m": 400,
      "worst_visibility_m": 400,
      "ceiling_ft": null,
      "hazards": [
        "BR",
        "FG"
      ],
      "severityScore": 65,
      "metarRaw": "METAR LIBR 150320Z 19002KT 7000 NSC 06/05 Q1023",
      "tafRaw": "TAF LIBR 142300Z 1500/1524 VRB06KT 9999 FEW025 \n  BECMG 1502/1504 3000 BR \n  TEMPO 1504/1509 0400 FG \n  BECMG 1510/1512 9000 \n  BECMG 1520/1522 3000 BR"
    },
    {
      "icao": "LQTZ",
      "iata": "TZL",
      "name": "Tuzla International Airport",
      "updatedAt": "150330Z",
      "visibility_m": 10000,
      "taf_visibility_m": 400,
      "worst_visibility_m": 400,
      "ceiling_ft": 6800,
      "hazards": [
        "FG",
        "BR"
      ],
      "severityScore": 65,
      "metarRaw": "METAR LQTZ 150330Z 32002KT 9999 BKN068 01/01 Q1022",
      "tafRaw": "TAF LQTZ 142300Z 1500/1524 VRB02KT 9999 SCT040 TX08/1513Z TN00/1505Z \n  PROB40 1500/1509 2000 BR \n  PROB30 1502/1508 0400 FG BKN002 \n  TEMPO 1520/1524 2000 BR"
    },
    {
      "icao": "LYBE",
      "iata": "BEG",
      "name": "Belgrade Nikola Tesla Airport",
      "updatedAt": "150330Z",
      "visibility_m": 10000,
      "taf_visibility_m": 400,
      "worst_visibility_m": 400,
      "ceiling_ft": null,
      "hazards": [
        "FG",
        "BR"
      ],
      "severityScore": 65,
      "metarRaw": "METAR LYBE 150330Z 19004KT CAVOK 02/01 Q1022 NOSIG",
      "tafRaw": "TAF LYBE 142300Z 1500/1524 20004KT 8000 NSC TX08/1513Z TN01/1506Z \n  TEMPO 1503/1509 2000 BR \n  PROB30 \n  TEMPO 1504/1507 0400 FG"
    },
    {
      "icao": "LYNI",
      "iata": "INI",
      "name": "Niš Constantine the Great Airport",
      "updatedAt": "150330Z",
      "visibility_m": 4500,
      "taf_visibility_m": 500,
      "worst_visibility_m": 500,
      "ceiling_ft": 5000,
      "hazards": [
        "BR",
        "FG"
      ],
      "severityScore": 65,
      "metarRaw": "METAR LYNI 150330Z 09003KT 4500 BR BKN050 04/03 Q1023 NOSIG",
      "tafRaw": "TAF LYNI 142300Z 1500/1524 08004KT 4000 BR BKN050 TX07/1513Z TN01/1506Z \n  TEMPO 1503/1508 1000 \n  BECMG 1518/1520 2000 \n  TEMPO 1520/1524 0500 FG"
    },
    {
      "icao": "OJAI",
      "iata": "AMM",
      "name": "Queen Alia International Airport",
      "updatedAt": "150300Z",
      "visibility_m": 4000,
      "taf_visibility_m": 500,
      "worst_visibility_m": 500,
      "ceiling_ft": 3000,
      "hazards": [
        "BR",
        "FG"
      ],
      "severityScore": 65,
      "metarRaw": "METAR OJAI 150300Z 26005KT 4000 BR NSC 04/02 Q1024 NOSIG",
      "tafRaw": "TAF OJAI 142300Z 1500/1606 27012KT 4000 BR FEW025TCU BKN030 \n  PROB40 \n  TEMPO 1500/1508 2000 \n  PROB40 1500/1507 0500 FG \n  BECMG 1508/1510 5000 HZ SCT030"
    },
    {
      "icao": "LRIA",
      "iata": "IAS",
      "name": "Iaşi Airport",
      "updatedAt": "150330Z",
      "visibility_m": 4000,
      "taf_visibility_m": 1500,
      "worst_visibility_m": 1500,
      "ceiling_ft": 400,
      "hazards": [
        "SN"
      ],
      "severityScore": 63,
      "metarRaw": "METAR LRIA 150330Z 01005KT 4000 -SN BKN004 BKN019 M05/M05 Q1019",
      "tafRaw": "TAF LRIA 150200Z 1503/1512 VRB04KT 3000 -SN SCT010 OVC025 \n  TEMPO 1503/1507 1500 SN BKN005 OVC020 \n  BECMG 1507/1509 9999 NSW BKN015 OVC030"
    },
    {
      "icao": "LRSV",
      "iata": "SCV",
      "name": "Suceava Stefan cel Mare Airport",
      "updatedAt": "150330Z",
      "visibility_m": 6000,
      "taf_visibility_m": 1500,
      "worst_visibility_m": 1500,
      "ceiling_ft": 800,
      "hazards": [
        "SN",
        "BR"
      ],
      "severityScore": 63,
      "metarRaw": "METAR LRSV 150330Z 03004KT 6000 -SN BKN008 OVC028 M07/M08 Q1016",
      "tafRaw": "TAF LRSV 150200Z 1503/1512 VRB04KT 5000 -SN BR SCT015 OVC040 \n  TEMPO 1503/1508 1500 SN BR BKN010 OVC035 \n  BECMG 1509/1511 9999 NSW SCT010 OVC030"
    },
    {
      "icao": "EGBB",
      "iata": "BHX",
      "name": "Birmingham Airport",
      "updatedAt": "150320Z",
      "visibility_m": 10000,
      "taf_visibility_m": 1200,
      "worst_visibility_m": 1200,
      "ceiling_ft": 800,
      "hazards": [
        "BR",
        "RA"
      ],
      "severityScore": 57,
      "metarRaw": "METAR EGBB 150320Z 21007KT 160V240 9999 OVC008 07/05 Q1002",
      "tafRaw": "TAF EGBB 142255Z 1500/1524 18009KT 9999 SCT010 \n  TEMPO 1500/1511 6000 BKN008 \n  PROB40 \n  TEMPO 1500/1511 1200 BR BKN002 \n  PROB40 \n  TEMPO 1511/1518 5000 RA BKN009 \n  BECMG 1514/1517 35010KT \n  BECMG 1520/1523 20006KT"
    },
    {
      "icao": "EPWR",
      "iata": "WRO",
      "name": "Copernicus Wrocław Airport",
      "updatedAt": "150330Z",
      "visibility_m": 1300,
      "taf_visibility_m": null,
      "worst_visibility_m": 1300,
      "ceiling_ft": 1400,
      "hazards": [
        "BR",
        "FG"
      ],
      "severityScore": 57,
      "metarRaw": "METAR EPWR 150330Z 12003KT 1300 R29/P2000N MIFG BR BKN014 01/01 Q1018",
      "tafRaw": null
    },
    {
      "icao": "LPPR",
      "iata": "OPO",
      "name": "Francisco de Sá Carneiro Airport",
      "updatedAt": "150330Z",
      "visibility_m": 10000,
      "taf_visibility_m": 1500,
      "worst_visibility_m": 1500,
      "ceiling_ft": 3200,
      "hazards": [
        "BR",
        "RA",
        "SHRA",
        "DZ"
      ],
      "severityScore": 56,
      "metarRaw": "METAR LPPR 150330Z 17011KT 9999 BKN032 11/08 Q1018",
      "tafRaw": "TAF LPPR 142300Z 1500/1524 13007KT 9999 SCT018 BKN030 \n  BECMG 1506/1508 17020KT 8000 -RA SCT008 BKN016 \n  TEMPO 1508/1514 17025G35KT 3000 RADZ BR SCT003 BKN006 \n  PROB40 \n  TEMPO 1511/1514 17030G40KT 1500 +RA BKN003 FEW018CB \n  BECMG 1514/1516 31013KT 9999 NSW SCT018 \n  BECMG 1519/1521 VRB02KT \n  PROB40 \n  TEMPO 1521/1524 3000 SHRA SCT012 FEW018CB BKN030"
    },
    {
      "icao": "LFLS",
      "iata": "GNB",
      "name": "Grenoble Alpes Isère Airport",
      "updatedAt": "150330Z",
      "visibility_m": 800,
      "taf_visibility_m": 800,
      "worst_visibility_m": 800,
      "ceiling_ft": 6200,
      "hazards": [
        "FG",
        "BR"
      ],
      "severityScore": 55,
      "metarRaw": "METAR LFLS 150330Z AUTO 09005KT 9999 OVC062 05/03 Q1019 TEMPO 0800 BCFG",
      "tafRaw": "TAF LFLS 150200Z 1503/1603 09005KT CAVOK \n  PROB30 \n  TEMPO 1503/1505 3000 BR \n  PROB30 \n  TEMPO 1505/1508 0800 BCFG \n  BECMG 1510/1512 22010KT \n  PROB30 \n  TEMPO 1514/1518 22015G25KT \n  BECMG 1521/1524 09005KT"
    },
    {
      "icao": "LIPE",
      "iata": "BLQ",
      "name": "Bologna Guglielmo Marconi Airport",
      "updatedAt": "150320Z",
      "visibility_m": 3000,
      "taf_visibility_m": 800,
      "worst_visibility_m": 800,
      "ceiling_ft": 6000,
      "hazards": [
        "BR",
        "FG"
      ],
      "severityScore": 55,
      "metarRaw": "METAR LIPE 150320Z 12002KT 3000 BR OVC060 04/04 Q1022",
      "tafRaw": "TAF LIPE 142300Z 1500/1524 VRB04KT 4000 BR SCT020 BKN060 \n  TEMPO 1503/1509 0800 FG \n  BECMG 1512/1514 6000 \n  BECMG 1517/1519 2000 BR"
    },
    {
      "icao": "LYPG",
      "iata": "TGD",
      "name": "Podgorica Airport / Podgorica Golubovci Airbase",
      "updatedAt": "150330Z",
      "visibility_m": 4000,
      "taf_visibility_m": 600,
      "worst_visibility_m": 600,
      "ceiling_ft": null,
      "hazards": [
        "BR",
        "FG"
      ],
      "severityScore": 55,
      "metarRaw": "METAR LYPG 150330Z 00000KT 4000 BR SCT030 SCT070 04/04 Q1026 NOSIG",
      "tafRaw": "TAF LYPG 142300Z 1500/1524 VRB02KT 7000 SCT030 TX12/1513Z TN02/1505Z \n  TEMPO 1500/1507 1000 BR \n  PROB30 \n  TEMPO 1502/1507 0600 FG"
    },
    {
      "icao": "LFOB",
      "iata": "BVA",
      "name": "Beauvais Tillé airport",
      "updatedAt": "150330Z",
      "visibility_m": 4000,
      "taf_visibility_m": null,
      "worst_visibility_m": 4000,
      "ceiling_ft": 800,
      "hazards": [
        "RA",
        "DZ"
      ],
      "severityScore": 52,
      "metarRaw": "METAR LFOB 150330Z AUTO 20010KT 9999 BKN008 OVC013 10/09 Q1010 TEMPO 4000 -RADZ",
      "tafRaw": null
    },
    {
      "icao": "EPRZ",
      "iata": "RZE",
      "name": "Rzeszów-Jasionka Airport",
      "updatedAt": "150330Z",
      "visibility_m": 2000,
      "taf_visibility_m": null,
      "worst_visibility_m": 2000,
      "ceiling_ft": 200,
      "hazards": [
        "BR"
      ],
      "severityScore": 50,
      "metarRaw": "METAR EPRZ 150330Z 26011KT 2000 BR OVC002 01/01 Q1018",
      "tafRaw": null
    },
    {
      "icao": "LUKK",
      "iata": "RMO",
      "name": "Chişinău International Airport",
      "updatedAt": "150330Z",
      "visibility_m": 1000,
      "taf_visibility_m": 1000,
      "worst_visibility_m": 1000,
      "ceiling_ft": 1000,
      "hazards": [
        "BR",
        "SN"
      ],
      "severityScore": 50,
      "metarRaw": "METAR LUKK 150330Z 06004KT 7000 -SN FEW014 OVC024 M07/M08 Q1019 TEMPO 1000 SN BR BKN010",
      "tafRaw": "TAF LUKK 142311Z 1500/1524 08006KT 4000 SN BR BKN012 \n  TEMPO 1500/1508 1000 BKN003 \n  TEMPO 1508/1515 2000 BKN006 \n  BECMG 1517/1519 02006KT CAVOK"
    },
    {
      "icao": "EGPF",
      "iata": "GLA",
      "name": "Glasgow Airport",
      "updatedAt": "150320Z",
      "visibility_m": 10000,
      "taf_visibility_m": 5000,
      "worst_visibility_m": 5000,
      "ceiling_ft": 1200,
      "hazards": [
        "BR",
        "SHRA",
        "RA"
      ],
      "severityScore": 48,
      "metarRaw": "METAR EGPF 150320Z AUTO 22009KT 9999 FEW018/// //////CB 06/05 Q0993",
      "tafRaw": "TAF EGPF 142255Z 1500/1524 19009KT 9999 SCT018 BKN028 \n  PROB30 \n  TEMPO 1500/1506 6000 SHRA BKN012 \n  PROB30 \n  TEMPO 1506/1518 BKN012 \n  PROB30 \n  TEMPO 1521/1524 5000 BR"
    },
    {
      "icao": "ENBR",
      "iata": "BGO",
      "name": "Bergen Airport, Flesland",
      "updatedAt": "150320Z",
      "visibility_m": 10000,
      "taf_visibility_m": 4000,
      "worst_visibility_m": 4000,
      "ceiling_ft": 1700,
      "hazards": [
        "SHRA",
        "BR",
        "RA"
      ],
      "severityScore": 48,
      "metarRaw": "METAR ENBR 150320Z 13013KT 9999 -SHRA FEW006 SCT013 BKN017 04/03 Q1001 RMK WIND 1200FT 14021KT",
      "tafRaw": "TAF ENBR 142300Z 1500/1524 14012KT 9999 -SHRA FEW015TCU BKN030 \n  TEMPO 1500/1503 SHRA BKN014CB \n  BECMG 1513/1515 15018G28KT \n  TEMPO 1514/1524 4000 RA BKN009 SCT018CB"
    },
    {
      "icao": "EDFH",
      "iata": "HHN",
      "name": "Frankfurt-Hahn Airport",
      "updatedAt": "150320Z",
      "visibility_m": 10000,
      "taf_visibility_m": 4000,
      "worst_visibility_m": 4000,
      "ceiling_ft": 700,
      "hazards": [
        "RA",
        "DZ"
      ],
      "severityScore": 47,
      "metarRaw": "METAR EDFH 150320Z 22009KT 200V260 9999 -RA BKN007 OVC010 08/07 Q1013",
      "tafRaw": "TAF EDFH 142300Z 1500/1524 20009KT 9999 BKN020 \n  BECMG 1500/1503 BKN012 \n  PROB30 \n  TEMPO 1500/1503 RA \n  TEMPO 1503/1507 4000 -RADZ BKN008 \n  TEMPO 1507/1511 BKN008 \n  BECMG 1512/1514 SCT020"
    },
    {
      "icao": "LPPT",
      "iata": "LIS",
      "name": "Lisbon Humberto Delgado Airport",
      "updatedAt": "150330Z",
      "visibility_m": 10000,
      "taf_visibility_m": 3000,
      "worst_visibility_m": 3000,
      "ceiling_ft": 4000,
      "hazards": [
        "BR",
        "RA",
        "SHRA",
        "DZ"
      ],
      "severityScore": 46,
      "metarRaw": "METAR LPPT 150330Z 22004KT 9999 BKN040 10/09 Q1021",
      "tafRaw": "TAF LPPT 142300Z 1500/1606 VRB02KT 9999 BKN035 \n  BECMG 1511/1514 21015KT 8000 -RA SCT012 BKN018 \n  TEMPO 1514/1517 21018G28KT 3000 RADZ BR SCT002 BKN005 FEW020TCU \n  BECMG 1517/1519 31012KT 9999 NSW SCT015 \n  BECMG 1522/1524 28010KT \n  TEMPO 1603/1606 28015G25KT 5000 SHRA BKN015 FEW018CB"
    },
    {
      "icao": "LRBC",
      "iata": "BCM",
      "name": "Bacău George Enescu International  Airport",
      "updatedAt": "150330Z",
      "visibility_m": 7000,
      "taf_visibility_m": 1500,
      "worst_visibility_m": 1500,
      "ceiling_ft": 500,
      "hazards": [
        "BR"
      ],
      "severityScore": 45,
      "metarRaw": "METAR LRBC 150330Z 03003KT 360V060 7000 OVC005 M03/M04 Q1018",
      "tafRaw": "TAF LRBC 150200Z 1503/1512 VRB04KT 5000 BR BKN010 BKN055 \n  TEMPO 1503/1505 1500 BR OVC005 \n  BECMG 1507/1509 9999 NSW SCT010 OVC045"
    },
    {
      "icao": "LRBS",
      "iata": "BBU",
      "name": "Bucharest Băneasa Aurel Vlaicu International Airport",
      "updatedAt": "150330Z",
      "visibility_m": 6000,
      "taf_visibility_m": 1500,
      "worst_visibility_m": 1500,
      "ceiling_ft": 500,
      "hazards": [
        "BR"
      ],
      "severityScore": 45,
      "metarRaw": "METAR LRBS 150330Z 26011KT 6000 NSC M04/M05 Q1018 NOSIG",
      "tafRaw": "TAF LRBS 142300Z 1500/1524 24010KT 5000 BR NSC \n  PROB30 \n  TEMPO 1501/1506 1500 BR BKN005 \n  BECMG 1507/1509 VRB04KT 8000 NSW \n  BECMG 1509/1511 07010KT \n  BECMG 1518/1520 5000 BR"
    },
    {
      "icao": "LROP",
      "iata": "OTP",
      "name": "Bucharest Henri Coandă International Airport",
      "updatedAt": "150330Z",
      "visibility_m": 6000,
      "taf_visibility_m": 1500,
      "worst_visibility_m": 1500,
      "ceiling_ft": 500,
      "hazards": [
        "BR"
      ],
      "severityScore": 45,
      "metarRaw": "METAR LROP 150330Z 27007KT 6000 NSC M04/M06 Q1018 NOSIG",
      "tafRaw": "TAF LROP 142300Z 1500/1524 24010KT 5000 BR NSC \n  PROB30 \n  TEMPO 1501/1506 1500 BR BKN005 \n  BECMG 1507/1509 VRB04KT 8000 NSW \n  BECMG 1509/1511 07010KT \n  BECMG 1518/1520 5000 BR"
    },
    {
      "icao": "EGPD",
      "iata": "ABZ",
      "name": "Aberdeen International Airport",
      "updatedAt": "150320Z",
      "visibility_m": 4000,
      "taf_visibility_m": 4000,
      "worst_visibility_m": 4000,
      "ceiling_ft": 1200,
      "hazards": [
        "RA",
        "DZ",
        "BR"
      ],
      "severityScore": 44,
      "metarRaw": "METAR EGPD 150320Z AUTO 18008KT 9999 -RA SCT013/// BKN046/// //////TCU 04/02 Q0993 TEMPO 4000 RADZ BKN012",
      "tafRaw": "TAF EGPD 142257Z 1500/1524 18015KT 9999 BKN020 \n  TEMPO 1500/1508 8000 -RA BKN008 \n  PROB40 \n  TEMPO 1500/1503 19018G28KT \n  PROB30 \n  TEMPO 1502/1507 4000 RADZ BKN006 \n  BECMG 1521/1524 28002KT \n  PROB40 \n  TEMPO 1521/1524 5000 BR"
    },
    {
      "icao": "EHBK",
      "iata": "MST",
      "name": "Maastricht Aachen Airport",
      "updatedAt": "150325Z",
      "visibility_m": 10000,
      "taf_visibility_m": 4000,
      "worst_visibility_m": 4000,
      "ceiling_ft": 1200,
      "hazards": [
        "BR",
        "RA",
        "DZ"
      ],
      "severityScore": 44,
      "metarRaw": "METAR EHBK 150325Z AUTO 20014KT 9999 NSC 09/07 Q1011",
      "tafRaw": "TAF EHBK 142317Z 1500/1606 18010KT CAVOK \n  PROB30 \n  TEMPO 1500/1510 4000 BR DZRA BKN012 \n  BECMG 1514/1517 16008KT \n  BECMG 1600/1603 21014KT"
    },
    {
      "icao": "LIMF",
      "iata": "TRN",
      "name": "Turin Airport",
      "updatedAt": "150320Z",
      "visibility_m": 10000,
      "taf_visibility_m": 1200,
      "worst_visibility_m": 1200,
      "ceiling_ft": 1000,
      "hazards": [
        "FG"
      ],
      "severityScore": 42,
      "metarRaw": "METAR LIMF 150320Z VRB01KT CAVOK 04/00 Q1021",
      "tafRaw": "TAF LIMF 142300Z 1500/1524 VRB03KT 8000 SCT050 \n  TEMPO 1518/1524 1200 BCFG BKN010"
    },
    {
      "icao": "LIPY",
      "iata": "AOI",
      "name": "Marche Airport",
      "updatedAt": "150320Z",
      "visibility_m": 3200,
      "taf_visibility_m": 1200,
      "worst_visibility_m": 1200,
      "ceiling_ft": 6000,
      "hazards": [
        "BR",
        "FG"
      ],
      "severityScore": 40,
      "metarRaw": "METAR LIPY 150320Z AUTO VRB02KT 3200 BR OVC059/// 08/07 Q1022",
      "tafRaw": "TAF LIPY 142300Z 1500/1524 VRB05KT 3000 BR BKN060 \n  PROB40 \n  TEMPO 1500/1506 1200 BCFG \n  BECMG 1508/1510 8000 \n  BECMG 1520/1522 3000 BR"
    },
    {
      "icao": "LIPZ",
      "iata": "VCE",
      "name": "Venice Marco Polo Airport",
      "updatedAt": "150320Z",
      "visibility_m": 9000,
      "taf_visibility_m": 1200,
      "worst_visibility_m": 1200,
      "ceiling_ft": 7000,
      "hazards": [
        "BR",
        "FG"
      ],
      "severityScore": 40,
      "metarRaw": "METAR LIPZ 150320Z 32002KT 9000 BKN070 04/02 Q1023 NOSIG",
      "tafRaw": "TAF LIPZ 142300Z 1500/1606 VRB04KT 4000 BR SCT040 \n  BECMG 1509/1511 7000 \n  BECMG 1519/1521 3000 BR \n  TEMPO 1603/1606 1200 BCFG"
    },
    {
      "icao": "LRSB",
      "iata": "SBZ",
      "name": "Sibiu International Airport",
      "updatedAt": "150330Z",
      "visibility_m": 6000,
      "taf_visibility_m": 5000,
      "worst_visibility_m": 5000,
      "ceiling_ft": 4000,
      "hazards": [
        "BR",
        "SN",
        "RA"
      ],
      "severityScore": 40,
      "metarRaw": "METAR LRSB 150330Z 10005KT 060V130 6000 OVC040 01/01 Q1018",
      "tafRaw": "TAF LRSB 142300Z 1500/1524 VRB04KT 5000 BR SCT010 OVC035 \n  PROB40 \n  TEMPO 1500/1507 32012KT 8000 NSW \n  BECMG 1507/1509 9999 NSW BKN015 BKN025 \n  PROB40 \n  TEMPO 1509/1514 5000 -RASN BR"
    },
    {
      "icao": "UGKO",
      "iata": "KUT",
      "name": "David the Builder Kutaisi International Airport",
      "updatedAt": "150330Z",
      "visibility_m": 9000,
      "taf_visibility_m": 2000,
      "worst_visibility_m": 2000,
      "ceiling_ft": 1700,
      "hazards": [
        "SHSN",
        "SN"
      ],
      "severityScore": 40,
      "metarRaw": "METAR UGKO 150330Z 11002KT 9000 SCT006 BKN017 00/M01 Q1025 NOSIG",
      "tafRaw": "TAF UGKO 142300Z 1500/1524 08007KT 9999 BKN050 TX07/1511Z TNM03/1501Z \n  TEMPO 1500/1506 2000 SHSN SCT010 BKN023CB \n  BECMG 1509/1511 CAVOK"
    },
    {
      "icao": "ENZV",
      "iata": "SVG",
      "name": "Stavanger Airport, Sola",
      "updatedAt": "150250Z",
      "visibility_m": 10000,
      "taf_visibility_m": 4000,
      "worst_visibility_m": 4000,
      "ceiling_ft": 900,
      "hazards": [
        "RA"
      ],
      "severityScore": 37,
      "metarRaw": "METAR ENZV 150250Z AUTO 16010KT 9999 SCT046/// 05/03 Q1003",
      "tafRaw": "TAF ENZV 142300Z 1500/1524 16012KT 9999 BKN025 \n  BECMG 1509/1511 14020G35KT \n  TEMPO 1509/1517 4000 RA BKN009 SCT018CB \n  BECMG 1514/1516 15015KT"
    },
    {
      "icao": "LFPO",
      "iata": "ORY",
      "name": "Paris-Orly Airport",
      "updatedAt": "150330Z",
      "visibility_m": 10000,
      "taf_visibility_m": 4000,
      "worst_visibility_m": 4000,
      "ceiling_ft": 900,
      "hazards": [
        "RA"
      ],
      "severityScore": 37,
      "metarRaw": "METAR LFPO 150330Z AUTO 21010KT 9999 BKN015 BKN022 OVC028 10/08 Q1012 TEMPO BKN009",
      "tafRaw": "TAF LFPO 142300Z 1500/1606 19012KT 9999 BKN025 \n  TEMPO 1500/1507 BKN012 \n  PROB30 \n  TEMPO 1502/1505 -RA BKN009 \n  PROB30 1509/1512 BKN009 BKN012 \n  PROB40 1520/1601 20015G30KT 4000 -RA BKN012"
    },
    {
      "icao": "ENHD",
      "iata": "HAU",
      "name": "Haugesund Airport, Karmøy",
      "updatedAt": "150320Z",
      "visibility_m": 10000,
      "taf_visibility_m": 10000,
      "worst_visibility_m": 10000,
      "ceiling_ft": 4000,
      "hazards": [
        "RA",
        "DZ",
        "SHRA"
      ],
      "severityScore": 36,
      "metarRaw": "METAR ENHD 150320Z AUTO 14014KT 9999 FEW008/// SCT017/// BKN044/// 05/04 Q1002 RERA REDZ REDZRA",
      "tafRaw": "TAF ENHD 150200Z 1503/1512 14012KT 9999 -SHRA FEW020TCU BKN040 \n  TEMPO 1506/1512 14018G28KT"
    },
    {
      "icao": "GMAD",
      "iata": "AGA",
      "name": "Al Massira Airport",
      "updatedAt": "150330Z",
      "visibility_m": 10000,
      "taf_visibility_m": 2000,
      "worst_visibility_m": 2000,
      "ceiling_ft": 500,
      "hazards": [
        "BR"
      ],
      "severityScore": 35,
      "metarRaw": "METAR GMAD 150330Z 08005KT 9999 SCT026 10/10 Q1020 NOSIG",
      "tafRaw": "TAF GMAD 142300Z 1500/1606 06006KT 8000 SCT020 \n  TEMPO 1502/1508 2000 BR OVC005"
    },
    {
      "icao": "LEZG",
      "iata": "ZAZ",
      "name": "Zaragoza Airport",
      "updatedAt": "150330Z",
      "visibility_m": 1200,
      "taf_visibility_m": null,
      "worst_visibility_m": 1200,
      "ceiling_ft": null,
      "hazards": [
        "FG"
      ],
      "severityScore": 35,
      "metarRaw": "METAR LEZG 150330Z 11003KT 080V150 1200 0200SW R30R/1800N R12R/1800D R30L/0650U R12L/0800N BCFG SCT001 02/02 Q1019 NOSIG",
      "tafRaw": null
    },
    {
      "icao": "LGTS",
      "iata": "SKG",
      "name": "Thessaloniki Macedonia International Airport",
      "updatedAt": "150320Z",
      "visibility_m": 10000,
      "taf_visibility_m": 4000,
      "worst_visibility_m": 4000,
      "ceiling_ft": null,
      "hazards": [
        "TS",
        "BR"
      ],
      "severityScore": 35,
      "metarRaw": "METAR LGTS 150320Z 10004KT CAVOK 00/00 Q1024 NOSIG",
      "tafRaw": "TAF LGTS 142300Z 1500/1524 VRB03KT 9999 FEW030 \n  PROB30 1503/1507 4000 BR SCT008"
    },
    {
      "icao": "EBCI",
      "iata": "CRL",
      "name": "Brussels South Charleroi Airport",
      "updatedAt": "150320Z",
      "visibility_m": 10000,
      "taf_visibility_m": 2500,
      "worst_visibility_m": 2500,
      "ceiling_ft": 1200,
      "hazards": [
        "RA",
        "DZ"
      ],
      "severityScore": 34,
      "metarRaw": "METAR EBCI 150320Z 20012KT 9999 BKN023 09/07 Q1010 TEMPO BKN012",
      "tafRaw": "TAF EBCI 142326Z 1500/1606 20010KT 9999 FEW012 SCT020 \n  TEMPO 1504/1510 2500 -RADZ BKN004 \n  PROB40 \n  TEMPO 1520/1604 19015G25KT \n  TEMPO 1600/1604 4000 RA -RADZ BKN006"
    },
    {
      "icao": "LEBB",
      "iata": "BIO",
      "name": "Bilbao Airport",
      "updatedAt": "150330Z",
      "visibility_m": 10000,
      "taf_visibility_m": 3000,
      "worst_visibility_m": 3000,
      "ceiling_ft": 1000,
      "hazards": [
        "BR",
        "RA"
      ],
      "severityScore": 34,
      "metarRaw": "METAR LEBB 150330Z AUTO 06006KT 040V120 CAVOK 09/05 Q1015",
      "tafRaw": "TAF LEBB 142300Z 1500/1524 20009KT 9999 FEW025 TX13/1512Z TN06/1502Z \n  PROB30 \n  TEMPO 1500/1503 12010KT 3000 BR BKN010 \n  TEMPO 1506/1517 20018G29KT \n  TEMPO 1509/1515 20024G44KT \n  TEMPO 1513/1520 3000 RA"
    },
    {
      "icao": "EYPA",
      "iata": "PLQ",
      "name": "Palanga International Airport",
      "updatedAt": "150350Z",
      "visibility_m": 8000,
      "taf_visibility_m": null,
      "worst_visibility_m": 8000,
      "ceiling_ft": null,
      "hazards": [
        "SHSN",
        "SN"
      ],
      "severityScore": 33,
      "metarRaw": "METAR EYPA 150350Z 16009KT 8000 -SHSN BKN007CB M07/M08 Q1016",
      "tafRaw": null
    },
    {
      "icao": "EPKK",
      "iata": "KRK",
      "name": "Kraków John Paul II International Airport",
      "updatedAt": "150330Z",
      "visibility_m": 5000,
      "taf_visibility_m": 2000,
      "worst_visibility_m": 2000,
      "ceiling_ft": 3600,
      "hazards": [
        "BR",
        "RA",
        "DZ"
      ],
      "severityScore": 32,
      "metarRaw": "METAR EPKK 150330Z VRB02KT 5000 BR FEW015 BKN036 01/M00 Q1019",
      "tafRaw": "TAF EPKK 150230Z 1503/1603 VRB02KT 7000 BKN013 \n  TEMPO 1503/1508 2000 BR BKN004 \n  BECMG 1508/1511 07010KT 6000 \n  TEMPO 1515/1603 2000 -RADZ BR BKN004"
    },
    {
      "icao": "LIMC",
      "iata": "MXP",
      "name": "Milan Malpensa International Airport",
      "updatedAt": "150320Z",
      "visibility_m": 6000,
      "taf_visibility_m": 1200,
      "worst_visibility_m": 1200,
      "ceiling_ft": 4500,
      "hazards": [
        "RA",
        "BR"
      ],
      "severityScore": 32,
      "metarRaw": "METAR LIMC 150320Z VRB02KT 6000 -RA BKN045 04/04 Q1022 NOSIG",
      "tafRaw": "TAF LIMC 142300Z 1500/1606 VRB05KT 8000 BKN040 \n  TEMPO 1500/1524 4000 -RA BKN010 \n  TEMPO 1600/1606 1200 -RA BR BKN008"
    },
    {
      "icao": "LJLJ",
      "iata": "LJU",
      "name": "Ljubljana Jože Pučnik Airport",
      "updatedAt": "150330Z",
      "visibility_m": 10000,
      "taf_visibility_m": 10000,
      "worst_visibility_m": 10000,
      "ceiling_ft": null,
      "hazards": [
        "FG",
        "RA"
      ],
      "severityScore": 32,
      "metarRaw": "METAR LJLJ 150330Z VRB01KT 9999 MIFG FEW027 M03/M04 Q1021 NOSIG",
      "tafRaw": "TAF LJLJ 142300Z 1500/1600 30003KT 9999 FEW020 \n  PROB30 \n  TEMPO 1512/1521 -RA"
    },
    {
      "icao": "LPPS",
      "iata": "PXO",
      "name": "Porto Santo Airport",
      "updatedAt": "150330Z",
      "visibility_m": 10000,
      "taf_visibility_m": 5000,
      "worst_visibility_m": 5000,
      "ceiling_ft": 3000,
      "hazards": [
        "BR",
        "RA",
        "DZ"
      ],
      "severityScore": 32,
      "metarRaw": "METAR LPPS 150330Z 33006KT 280V010 9999 SCT015 BKN030 15/08 Q1025",
      "tafRaw": "TAF LPPS 142300Z 1500/1606 34007KT 9999 SCT015 \n  TEMPO 1500/1521 FEW015 BKN030 \n  BECMG 1506/1508 28012KT \n  BECMG 1521/1523 5000 RADZ BR SCT006 BKN012 \n  BECMG 1601/1603 34015KT 9999 NSW SCT015"
    },
    {
      "icao": "BIKF",
      "iata": "KEF",
      "name": "Keflavik International Airport",
      "updatedAt": "150330Z",
      "visibility_m": 10000,
      "taf_visibility_m": 10000,
      "worst_visibility_m": 10000,
      "ceiling_ft": 4700,
      "hazards": [
        "SN",
        "RA"
      ],
      "severityScore": 30,
      "metarRaw": "METAR BIKF 150330Z 02010KT 9999 -SN FEW020 OVC047 01/M01 Q0986",
      "tafRaw": "TAF BIKF 150108Z 1503/1603 07010KT 9999 -RA BKN017 OVC032 TX01/1503Z TNM01/1510Z \n  BECMG 1503/1505 02010KT NSW SCT030 \n  BECMG 1508/1510 02020KT"
    },
    {
      "icao": "LIBP",
      "iata": "PSR",
      "name": "Abruzzo Airport",
      "updatedAt": "150320Z",
      "visibility_m": 10000,
      "taf_visibility_m": 2000,
      "worst_visibility_m": 2000,
      "ceiling_ft": null,
      "hazards": [
        "BR",
        "FG"
      ],
      "severityScore": 30,
      "metarRaw": "METAR LIBP 150320Z AUTO 20005KT 9999 NCD 01/01 Q1023",
      "tafRaw": "TAF LIBP 142300Z 1500/1524 VRB05KT 7000 NSC \n  TEMPO 1500/1507 2000 BCFG \n  BECMG 1520/1522 4000 BR"
    },
    {
      "icao": "LQBK",
      "iata": "BNX",
      "name": "Banja Luka International Airport",
      "updatedAt": "150330Z",
      "visibility_m": 10000,
      "taf_visibility_m": 1200,
      "worst_visibility_m": 1200,
      "ceiling_ft": null,
      "hazards": [
        "FG"
      ],
      "severityScore": 30,
      "metarRaw": "METAR LQBK 150330Z 15006KT CAVOK 03/03 Q1021 NOSIG",
      "tafRaw": "TAF LQBK 142300Z 1500/1524 21007KT CAVOK TX10/1513Z TN02/1505Z \n  PROB30 \n  TEMPO 1503/1507 1200 BCFG"
    },
    {
      "icao": "LTAC",
      "iata": "ESB",
      "name": "Esenboğa International Airport",
      "updatedAt": "150320Z",
      "visibility_m": 10000,
      "taf_visibility_m": 2500,
      "worst_visibility_m": 2500,
      "ceiling_ft": 2900,
      "hazards": [
        "BR",
        "SN"
      ],
      "severityScore": 28,
      "metarRaw": "METAR LTAC 150320Z 21009KT 9999 SCT008 BKN029 M02/M03 Q1022 NOSIG RMK RWY21C 20007KT RWY03L 21010KT RWY21R 20008KT RWY03R 20007KT 160V220 RWY21L 19009KT",
      "tafRaw": "TAF LTAC 142240Z 1500/1524 22008KT 9999 FEW010 SCT040 BKN100 \n  PROB30 \n  TEMPO 1503/1507 2500 -SN BR FEW008 BKN030 BKN080"
    },
    {
      "icao": "EDDK",
      "iata": "CGN",
      "name": "Cologne Bonn Airport",
      "updatedAt": "150350Z",
      "visibility_m": 10000,
      "taf_visibility_m": 10000,
      "worst_visibility_m": 10000,
      "ceiling_ft": null,
      "hazards": [
        "SHRA",
        "RA"
      ],
      "severityScore": 26,
      "metarRaw": "METAR EDDK 150350Z AUTO 13007KT 9999 SHRA SCT022 SCT041 FEW///TCU 08/08 Q1012 NOSIG",
      "tafRaw": "TAF EDDK 142300Z 1500/1606 14006KT CAVOK \n  PROB40 \n  TEMPO 1500/1504 RA \n  BECMG 1509/1512 15011KT"
    },
    {
      "icao": "LTFM",
      "iata": "IST",
      "name": "İstanbul Airport",
      "updatedAt": "150320Z",
      "visibility_m": 10000,
      "taf_visibility_m": 10000,
      "worst_visibility_m": 10000,
      "ceiling_ft": 4000,
      "hazards": [
        "SHRA",
        "RA"
      ],
      "severityScore": 26,
      "metarRaw": "METAR LTFM 150320Z 21012KT 9999 BKN040 08/05 Q1022 NOSIG RMK RWY17L 20014KT RWY34L 20010KT RWY16R 21010KT RWY36 21013KT RWY18 21016KT",
      "tafRaw": "TAF LTFM 142240Z 1500/1606 21014KT 9999 BKN040 \n  TEMPO 1500/1504 -SHRA BKN025 \n  BECMG 1504/1506 SCT040 \n  TEMPO 1507/1511 23017G27KT \n  BECMG 1518/1521 03007KT BKN008 BKN025"
    },
    {
      "icao": "GCTS",
      "iata": "TFS",
      "name": "Tenerife Sur Airport",
      "updatedAt": "150330Z",
      "visibility_m": 10000,
      "taf_visibility_m": 10000,
      "worst_visibility_m": 10000,
      "ceiling_ft": null,
      "hazards": [
        "TS"
      ],
      "severityScore": 25,
      "metarRaw": "METAR GCTS 150330Z 05010KT 9999 FEW040 16/09 Q1023 NOSIG",
      "tafRaw": "TAF GCTS 150200Z 1503/1603 03007KT 9999 FEW040 TX22/1514Z TN14/1506Z \n  PROB40 1509/1518 09016KT"
    },
    {
      "icao": "LEXJ",
      "iata": "SDR",
      "name": "Seve Ballesteros-Santander Airport",
      "updatedAt": "150330Z",
      "visibility_m": 6000,
      "taf_visibility_m": 10000,
      "worst_visibility_m": 6000,
      "ceiling_ft": 1000,
      "hazards": [
        "RA"
      ],
      "severityScore": 24,
      "metarRaw": "METAR LEXJ 150330Z AUTO 27002KT 6000 NSC 06/06 Q1014",
      "tafRaw": "TAF LEXJ 150200Z 1503/1603 21009KT 9999 FEW040 TX14/1511Z TN09/1503Z \n  TEMPO 1505/1518 20018G33KT \n  TEMPO 1509/1517 20025G43KT \n  PROB40 \n  TEMPO 1511/1521 RA BKN010"
    },
    {
      "icao": "GMMX",
      "iata": "RAK",
      "name": "Menara Airport",
      "updatedAt": "150330Z",
      "visibility_m": 10000,
      "taf_visibility_m": 3000,
      "worst_visibility_m": 3000,
      "ceiling_ft": 1000,
      "hazards": [
        "BR"
      ],
      "severityScore": 22,
      "metarRaw": "METAR GMMX 150330Z VRB02KT 9999 SCT026 08/07 Q1021 NOSIG",
      "tafRaw": "TAF GMMX 142300Z 1500/1606 12006KT 8000 SCT026 SCT080 \n  TEMPO 1503/1509 3000 BR BKN010"
    },
    {
      "icao": "EDDN",
      "iata": "NUE",
      "name": "Nuremberg Airport",
      "updatedAt": "150350Z",
      "visibility_m": 10000,
      "taf_visibility_m": 10000,
      "worst_visibility_m": 10000,
      "ceiling_ft": 4400,
      "hazards": [
        "RA",
        "DZ"
      ],
      "severityScore": 22,
      "metarRaw": "METAR EDDN 150350Z AUTO 12005KT 9999 -RADZ FEW033 BKN044 04/03 Q1016",
      "tafRaw": "TAF EDDN 142300Z 1500/1524 13006KT 9999 OVC030 \n  PROB30 \n  TEMPO 1505/1508 RA"
    },
    {
      "icao": "EHEH",
      "iata": "EIN",
      "name": "Eindhoven Airport",
      "updatedAt": "150325Z",
      "visibility_m": 10000,
      "taf_visibility_m": 4000,
      "worst_visibility_m": 4000,
      "ceiling_ft": 7700,
      "hazards": [
        "BR",
        "RA"
      ],
      "severityScore": 22,
      "metarRaw": "METAR EHEH 150325Z AUTO 19009KT 9999 FEW071 OVC077 09/07 Q1010 BLU",
      "tafRaw": "TAF EHEH 142338Z 1500/1606 17007KT CAVOK \n  BECMG 1503/1506 SCT008 BKN012 \n  TEMPO 1505/1511 4000 BR -RA SCT004 BKN007 \n  BECMG 1510/1512 SCT030 \n  BECMG 1522/1524 19012G25KT \n  PROB40 \n  TEMPO 1600/1606 SCT015 BKN018"
    },
    {
      "icao": "ESKN",
      "iata": "NYO",
      "name": "Stockholm Skavsta Airport",
      "updatedAt": "150320Z",
      "visibility_m": 10000,
      "taf_visibility_m": 4000,
      "worst_visibility_m": 4000,
      "ceiling_ft": 1900,
      "hazards": [
        "BR"
      ],
      "severityScore": 22,
      "metarRaw": "METAR ESKN 150320Z 24007KT 9999 OVC019 02/01 Q1009",
      "tafRaw": "TAF ESKN 150230Z 1503/1603 22006KT 9999 OVC020 \n  PROB40 1503/1509 BKN013 \n  TEMPO 1509/1514 BKN007 \n  BECMG 1514/1516 4000 BR BKN003 \n  TEMPO 1517/1603 8000 SCT005 BKN012"
    },
    {
      "icao": "ESSA",
      "iata": "ARN",
      "name": "Stockholm-Arlanda Airport",
      "updatedAt": "150320Z",
      "visibility_m": 10000,
      "taf_visibility_m": 2000,
      "worst_visibility_m": 2000,
      "ceiling_ft": 1100,
      "hazards": [
        "BR"
      ],
      "severityScore": 22,
      "metarRaw": "METAR ESSA 150320Z 25010KT 9999 BKN011 00/M01 Q1008 TEMPO BKN015",
      "tafRaw": "TAF ESSA 150230Z 1503/1603 21009KT 9999 SCT012 BKN016 \n  TEMPO 1503/1512 BKN012 \n  TEMPO 1512/1518 BKN006 \n  PROB40 1518/1524 2000 BR BKN003 \n  PROB40 1600/1603 BKN012"
    },
    {
      "icao": "EYVI",
      "iata": "VNO",
      "name": "Vilnius International Airport",
      "updatedAt": "150350Z",
      "visibility_m": 9000,
      "taf_visibility_m": 5000,
      "worst_visibility_m": 5000,
      "ceiling_ft": 1500,
      "hazards": [
        "BR"
      ],
      "severityScore": 22,
      "metarRaw": "METAR EYVI 150350Z 15007KT 9000 NSC M15/M17 Q1020 NOSIG",
      "tafRaw": "TAF EYVI 142300Z 1500/1524 15010KT 8000 SCT015 \n  TEMPO 1500/1506 5000 BR \n  TEMPO 1506/1508 BKN015 \n  BECMG 1508/1510 BKN015"
    },
    {
      "icao": "LBWN",
      "iata": "VAR",
      "name": "Varna Airport",
      "updatedAt": "150330Z",
      "visibility_m": 10000,
      "taf_visibility_m": 3000,
      "worst_visibility_m": 3000,
      "ceiling_ft": 1000,
      "hazards": [
        "BR"
      ],
      "severityScore": 22,
      "metarRaw": "METAR LBWN 150330Z AUTO 29003KT 250V310 9999 FEW050/// 04/03 Q1019 NOSIG",
      "tafRaw": "TAF LBWN 142300Z 1500/1524 VRB03KT 6000 BKN030 \n  TEMPO 1500/1506 3000 BR BKN010 \n  BECMG 1506/1508 27012KT \n  BECMG 1514/1516 VRB03KT"
    },
    {
      "icao": "LEBL",
      "iata": "BCN",
      "name": "Josep Tarradellas Barcelona-El Prat Airport",
      "updatedAt": "150348Z",
      "visibility_m": 2500,
      "taf_visibility_m": 4000,
      "worst_visibility_m": 2500,
      "ceiling_ft": 1500,
      "hazards": [
        "BR"
      ],
      "severityScore": 22,
      "metarRaw": "SPECI LEBL 150348Z 31008KT 280V340 2500 BR FEW002 08/07 Q1018 NOSIG",
      "tafRaw": "TAF LEBL 142300Z 1500/1524 34006KT 9999 FEW015 TX15/1512Z TN05/1506Z \n  PROB30 \n  TEMPO 1500/1506 4000 BR BKN015 \n  BECMG 1510/1512 21010KT \n  BECMG 1520/1522 34006KT"
    },
    {
      "icao": "HESX",
      "iata": "SPX",
      "name": "Sphinx International Airport",
      "updatedAt": "150300Z",
      "visibility_m": 10000,
      "taf_visibility_m": 1500,
      "worst_visibility_m": 1500,
      "ceiling_ft": null,
      "hazards": [
        "BR"
      ],
      "severityScore": 20,
      "metarRaw": "METAR HESX 150300Z 21004KT CAVOK 07/05 Q1024 NOSIG",
      "tafRaw": "TAF HESX 142300Z 1500/1606 01008KT CAVOK \n  PROB30 \n  TEMPO 1500/1506 VRB03KT 3000 BR NSC \n  PROB30 \n  TEMPO 1502/1506 1500"
    },
    {
      "icao": "LZKZ",
      "iata": "KSC",
      "name": "Košice International Airport",
      "updatedAt": "150330Z",
      "visibility_m": 4000,
      "taf_visibility_m": null,
      "worst_visibility_m": 4000,
      "ceiling_ft": 3500,
      "hazards": [
        "BR"
      ],
      "severityScore": 15,
      "metarRaw": "METAR LZKZ 150330Z VRB01KT 4000 BR OVC035 M03/M04 Q1020 NOSIG",
      "tafRaw": null
    },
    {
      "icao": "EDDS",
      "iata": "STR",
      "name": "Stuttgart Airport",
      "updatedAt": "150350Z",
      "visibility_m": 10000,
      "taf_visibility_m": 10000,
      "worst_visibility_m": 10000,
      "ceiling_ft": 4900,
      "hazards": [
        "RA"
      ],
      "severityScore": 12,
      "metarRaw": "METAR EDDS 150350Z AUTO 05003KT 9999 -RA BKN049 04/03 Q1015",
      "tafRaw": "TAF EDDS 142300Z 1500/1524 VRB03KT CAVOK"
    },
    {
      "icao": "EDSB",
      "iata": "FKB",
      "name": "Karlsruhe Baden-Baden Airport",
      "updatedAt": "150320Z",
      "visibility_m": 10000,
      "taf_visibility_m": 10000,
      "worst_visibility_m": 10000,
      "ceiling_ft": null,
      "hazards": [
        "RA"
      ],
      "severityScore": 12,
      "metarRaw": "METAR EDSB 150320Z AUTO 22003KT 9999 OVC050/// 07/06 Q1016",
      "tafRaw": "TAF EDSB 142300Z 1500/1524 21004KT CAVOK \n  TEMPO 1500/1507 RA"
    },
    {
      "icao": "LEMG",
      "iata": "AGP",
      "name": "Málaga-Costa del Sol Airport",
      "updatedAt": "150330Z",
      "visibility_m": 10000,
      "taf_visibility_m": 10000,
      "worst_visibility_m": 10000,
      "ceiling_ft": null,
      "hazards": [
        "RA"
      ],
      "severityScore": 12,
      "metarRaw": "METAR LEMG 150330Z 27004KT CAVOK 08/07 Q1020 NOSIG",
      "tafRaw": "TAF LEMG 142300Z 1500/1524 29006KT 9999 FEW030 TX18/1514Z TN07/1507Z \n  PROB30 \n  TEMPO 1513/1519 RA"
    },
    {
      "icao": "LFLL",
      "iata": "LYS",
      "name": "Lyon Saint-Exupéry Airport",
      "updatedAt": "150330Z",
      "visibility_m": 10000,
      "taf_visibility_m": 10000,
      "worst_visibility_m": 10000,
      "ceiling_ft": 5000,
      "hazards": [
        "RA"
      ],
      "severityScore": 12,
      "metarRaw": "METAR LFLL 150330Z 20011KT 9999 BKN050 11/06 Q1018 NOSIG",
      "tafRaw": "TAF LFLL 142300Z 1500/1606 19010KT CAVOK \n  PROB40 \n  TEMPO 1500/1506 RA BKN050 \n  BECMG 1510/1512 18015G28KT"
    },
    {
      "icao": "LFSB",
      "iata": "BSL",
      "name": "EuroAirport Basel–Mulhouse–Freiburg",
      "updatedAt": "150330Z",
      "visibility_m": 10000,
      "taf_visibility_m": 10000,
      "worst_visibility_m": 10000,
      "ceiling_ft": 3900,
      "hazards": [
        "RA"
      ],
      "severityScore": 12,
      "metarRaw": "METAR LFSB 150330Z AUTO 17004KT 9999 OVC039 05/03 Q1017 NOSIG",
      "tafRaw": "TAF LFSB 142300Z 1500/1524 18004KT 9999 OVC045 \n  PROB40 \n  TEMPO 1504/1507 -RA \n  PROB30 \n  TEMPO 1511/1518 12010KT"
    },
    {
      "icao": "LIMJ",
      "iata": "GOA",
      "name": "Genoa Cristoforo Colombo Airport",
      "updatedAt": "150320Z",
      "visibility_m": 10000,
      "taf_visibility_m": 4000,
      "worst_visibility_m": 4000,
      "ceiling_ft": 2000,
      "hazards": [
        "RA"
      ],
      "severityScore": 12,
      "metarRaw": "METAR LIMJ 150320Z 06010KT 9999 SCT040 11/07 Q1020",
      "tafRaw": "TAF LIMJ 142300Z 1500/1524 VRB06KT 9999 BKN020 \n  TEMPO 1503/1518 4000 RA \n  BECMG 1504/1506 03010KT"
    },
    {
      "icao": "LPMA",
      "iata": "FNC",
      "name": "Madeira International Airport Cristiano Ronaldo",
      "updatedAt": "150330Z",
      "visibility_m": 10000,
      "taf_visibility_m": 10000,
      "worst_visibility_m": 10000,
      "ceiling_ft": 1500,
      "hazards": [],
      "severityScore": 12,
      "metarRaw": "METAR LPMA 150330Z 33008KT 290V010 9999 BKN015 15/07 Q1025",
      "tafRaw": "TAF LPMA 142300Z 1500/1524 32007KT 9999 SCT015 \n  PROB40 \n  TEMPO 1500/1509 VRB05KT BKN013 \n  BECMG 1509/1511 VRB05KT \n  BECMG 1521/1524 BKN015"
    },
    {
      "icao": "GMMN",
      "iata": "CMN",
      "name": "Mohammed V International Airport",
      "updatedAt": "150330Z",
      "visibility_m": 10000,
      "taf_visibility_m": 4000,
      "worst_visibility_m": 4000,
      "ceiling_ft": null,
      "hazards": [
        "BR"
      ],
      "severityScore": 10,
      "metarRaw": "METAR GMMN 150330Z 22005KT 9999 SCT020 06/06 Q1022 NOSIG",
      "tafRaw": "TAF GMMN 142300Z 1500/1606 20004KT 8000 SCT020 SCT080 \n  PROB30 \n  TEMPO 1500/1508 4000 BR SCT006 \n  BECMG 1510/1514 28010KT SCT030"
    },
    {
      "icao": "EDNY",
      "iata": "FDH",
      "name": "Friedrichshafen Airport",
      "updatedAt": "150320Z",
      "visibility_m": 7000,
      "taf_visibility_m": 2000,
      "worst_visibility_m": 2000,
      "ceiling_ft": null,
      "hazards": [
        "BR"
      ],
      "severityScore": 10,
      "metarRaw": "METAR EDNY 150320Z AUTO 07002KT 7000 OVC140/// M01/M01 Q1018",
      "tafRaw": "TAF EDNY 150200Z 1503/1512 VRB02KT 5000 BR FEW001 \n  TEMPO 1503/1509 3500 BR \n  PROB30 \n  TEMPO 1503/1507 2000 BR"
    },
    {
      "icao": "LEAL",
      "iata": "ALC",
      "name": "Alicante-Elche Miguel Hernández Airport",
      "updatedAt": "150330Z",
      "visibility_m": 10000,
      "taf_visibility_m": 3000,
      "worst_visibility_m": 3000,
      "ceiling_ft": null,
      "hazards": [
        "BR"
      ],
      "severityScore": 10,
      "metarRaw": "METAR LEAL 150330Z 27006KT CAVOK 09/06 Q1019 NOSIG",
      "tafRaw": "TAF LEAL 142300Z 1500/1524 VRB04KT CAVOK TX17/1513Z TN07/1506Z \n  PROB30 \n  TEMPO 1500/1502 3000 BR \n  PROB40 \n  TEMPO 1518/1524 3000 BR"
    },
    {
      "icao": "LEVC",
      "iata": "VLC",
      "name": "Valencia Airport",
      "updatedAt": "150330Z",
      "visibility_m": 10000,
      "taf_visibility_m": 3000,
      "worst_visibility_m": 3000,
      "ceiling_ft": null,
      "hazards": [
        "BR"
      ],
      "severityScore": 10,
      "metarRaw": "METAR LEVC 150330Z 28005KT CAVOK 05/04 Q1019 NOSIG",
      "tafRaw": "TAF LEVC 142300Z 1500/1524 VRB04KT CAVOK TX18/1512Z TN05/1506Z \n  TEMPO 1500/1506 3000 BR \n  TEMPO 1512/1520 20010KT"
    },
    {
      "icao": "LIBD",
      "iata": "BRI",
      "name": "Bari Karol Wojtyła International Airport",
      "updatedAt": "150320Z",
      "visibility_m": 10000,
      "taf_visibility_m": 4000,
      "worst_visibility_m": 4000,
      "ceiling_ft": null,
      "hazards": [
        "BR"
      ],
      "severityScore": 10,
      "metarRaw": "METAR LIBD 150320Z 21004KT CAVOK 03/03 Q1023",
      "tafRaw": "TAF LIBD 142300Z 1500/1524 VRB06KT 9999 FEW040 \n  PROB30 \n  TEMPO 1503/1507 4000 BR"
    },
    {
      "icao": "LIPH",
      "iata": "TSF",
      "name": "Treviso Antonio Canova Airport",
      "updatedAt": "150320Z",
      "visibility_m": 7000,
      "taf_visibility_m": 2000,
      "worst_visibility_m": 2000,
      "ceiling_ft": null,
      "hazards": [
        "BR"
      ],
      "severityScore": 10,
      "metarRaw": "METAR LIPH 150320Z AUTO 02002KT 7000 FEW017/// SCT071/// 02/01 Q1022",
      "tafRaw": "TAF LIPH 142300Z 1500/1524 VRB04KT 3000 BR SCT040 \n  BECMG 1508/1510 8000 \n  BECMG 1519/1521 2000 BR"
    },
    {
      "icao": "LIPQ",
      "iata": "TRS",
      "name": "Trieste–Friuli Venezia Giulia Airport",
      "updatedAt": "150320Z",
      "visibility_m": 3300,
      "taf_visibility_m": 2000,
      "worst_visibility_m": 2000,
      "ceiling_ft": 3000,
      "hazards": [
        "BR"
      ],
      "severityScore": 10,
      "metarRaw": "METAR LIPQ 150320Z AUTO VRB01KT 3300 BR OVC018/// 06/05 Q1022",
      "tafRaw": "TAF LIPQ 142300Z 1500/1524 VRB04KT 2000 BR BKN030 \n  BECMG 1509/1511 7000 \n  BECMG 1516/1518 3000 BR"
    },
    {
      "icao": "LIRZ",
      "iata": "PEG",
      "name": "Perugia San Francesco d'Assisi – Umbria International Airport",
      "updatedAt": "150320Z",
      "visibility_m": 10000,
      "taf_visibility_m": 4000,
      "worst_visibility_m": 4000,
      "ceiling_ft": 4000,
      "hazards": [
        "BR"
      ],
      "severityScore": 10,
      "metarRaw": "METAR LIRZ 150320Z AUTO VRB02KT 9999 OVC050/// 08/07 Q1022",
      "tafRaw": "TAF LIRZ 142300Z 1500/1524 VRB05KT 9999 BKN040 \n  TEMPO 1500/1506 4000 BR"
    },
    {
      "icao": "LKMT",
      "iata": "OSR",
      "name": "Ostrava Leos Janáček Airport",
      "updatedAt": "150330Z",
      "visibility_m": 6000,
      "taf_visibility_m": 4500,
      "worst_visibility_m": 4500,
      "ceiling_ft": 2100,
      "hazards": [
        "BR"
      ],
      "severityScore": 10,
      "metarRaw": "METAR LKMT 150330Z 23009KT 6000 FEW017 OVC021 M01/M02 Q1019 NOSIG",
      "tafRaw": "TAF LKMT 142300Z 1500/1524 23014KT 8000 BKN025 \n  PROB40 \n  TEMPO 1502/1524 4500 BR OVC006"
    },
    {
      "icao": "LWOH",
      "iata": "OHD",
      "name": "Ohrid St. Paul the Apostle Airport",
      "updatedAt": null,
      "visibility_m": null,
      "taf_visibility_m": 5000,
      "worst_visibility_m": 5000,
      "ceiling_ft": 2000,
      "hazards": [
        "BR"
      ],
      "severityScore": 10,
      "metarRaw": null,
      "tafRaw": "TAF LWOH 150205Z 1503/1603 VRB02KT 9999 SCT040 \n  PROB40 \n  TEMPO 1503/1507 5000 BR BKN020"
    },
    {
      "icao": "UDSG",
      "iata": "LWN",
      "name": "Shirak International Airport",
      "updatedAt": "150330Z",
      "visibility_m": 10000,
      "taf_visibility_m": 5000,
      "worst_visibility_m": 5000,
      "ceiling_ft": null,
      "hazards": [
        "BR"
      ],
      "severityScore": 10,
      "metarRaw": "METAR UDSG 150330Z 26001KT 9999 SCT049 M13/M16 Q1018 NOSIG",
      "tafRaw": "TAF UDSG 142258Z 1500/1524 VRB06KT 9999 FEW040 \n  TEMPO 1500/1506 5000 BR"
    },
    {
      "icao": "UDYZ",
      "iata": "EVN",
      "name": "Zvartnots International Airport",
      "updatedAt": "150330Z",
      "visibility_m": 10000,
      "taf_visibility_m": 3500,
      "worst_visibility_m": 3500,
      "ceiling_ft": null,
      "hazards": [
        "BR"
      ],
      "severityScore": 10,
      "metarRaw": "METAR UDYZ 150330Z VRB01KT 9999 SCT036 M02/M07 Q1019 NOSIG",
      "tafRaw": "TAF UDYZ 142300Z 1500/1524 VRB04KT 9999 FEW040 \n  TEMPO 1500/1506 3500 BR"
    },
    {
      "icao": "EDLW",
      "iata": "DTM",
      "name": "Dortmund Airport",
      "updatedAt": "150320Z",
      "visibility_m": 10000,
      "taf_visibility_m": null,
      "worst_visibility_m": 10000,
      "ceiling_ft": null,
      "hazards": [],
      "severityScore": 5,
      "metarRaw": "METAR EDLW 150320Z AUTO 15008KT 9999 // BKN056/// OVC066/// 09/07 Q1011",
      "tafRaw": null
    },
    {
      "icao": "ENTC",
      "iata": "TOS",
      "name": "Tromsø Airport, Langnes",
      "updatedAt": "150320Z",
      "visibility_m": 10000,
      "taf_visibility_m": null,
      "worst_visibility_m": 10000,
      "ceiling_ft": null,
      "hazards": [],
      "severityScore": 5,
      "metarRaw": "METAR ENTC 150320Z AUTO 25005KT 9999 NCD M06/M11 Q1007 RMK WIND 2600FT 17014KT",
      "tafRaw": null
    },
    {
      "icao": "EYKA",
      "iata": "KUN",
      "name": "Kaunas International Airport",
      "updatedAt": "150350Z",
      "visibility_m": 9000,
      "taf_visibility_m": null,
      "worst_visibility_m": 9000,
      "ceiling_ft": null,
      "hazards": [],
      "severityScore": 5,
      "metarRaw": "METAR EYKA 150350Z 15009KT 120V180 9000 FEW041 M11/M13 Q1019",
      "tafRaw": null
    },
    {
      "icao": "LATI",
      "iata": "TIA",
      "name": "Tirana International Airport Mother Teresa",
      "updatedAt": "150350Z",
      "visibility_m": 6000,
      "taf_visibility_m": null,
      "worst_visibility_m": 6000,
      "ceiling_ft": null,
      "hazards": [],
      "severityScore": 5,
      "metarRaw": "METAR LATI 150350Z 15002KT 6000 NSC 03/01 Q1026 NOSIG",
      "tafRaw": null
    },
    {
      "icao": "LECH",
      "iata": "CDT",
      "name": "Castellón-Costa Azahar Airport",
      "updatedAt": "150330Z",
      "visibility_m": 10000,
      "taf_visibility_m": null,
      "worst_visibility_m": 10000,
      "ceiling_ft": null,
      "hazards": [],
      "severityScore": 5,
      "metarRaw": "METAR LECH 150330Z AUTO 18002KT CAVOK 05/03 Q1019",
      "tafRaw": null
    },
    {
      "icao": "LZTT",
      "iata": "TAT",
      "name": "Poprad-Tatry Airport",
      "updatedAt": "150330Z",
      "visibility_m": 10000,
      "taf_visibility_m": null,
      "worst_visibility_m": 10000,
      "ceiling_ft": 2000,
      "hazards": [],
      "severityScore": 5,
      "metarRaw": "METAR LZTT 150330Z VRB02KT 9999 FEW008 OVC020 M03/M04 Q1017",
      "tafRaw": null
    },
    {
      "icao": "GCFV",
      "iata": "FUE",
      "name": "Fuerteventura Airport",
      "updatedAt": "150330Z",
      "visibility_m": 10000,
      "taf_visibility_m": 10000,
      "worst_visibility_m": 10000,
      "ceiling_ft": null,
      "hazards": [],
      "severityScore": 0,
      "metarRaw": "METAR GCFV 150330Z AUTO 34009KT CAVOK 15/10 Q1023",
      "tafRaw": "TAF GCFV 150200Z 1503/1603 34008KT 9999 SCT030 TX20/1514Z TN14/1506Z \n  BECMG 1509/1511 04012KT"
    },
    {
      "icao": "GCLP",
      "iata": "LPA",
      "name": "Gran Canaria Airport",
      "updatedAt": "150330Z",
      "visibility_m": 10000,
      "taf_visibility_m": 10000,
      "worst_visibility_m": 10000,
      "ceiling_ft": 3000,
      "hazards": [],
      "severityScore": 0,
      "metarRaw": "METAR GCLP 150330Z 36010KT 9999 BKN030 17/11 Q1023 NOSIG",
      "tafRaw": "TAF GCLP 150200Z 1503/1603 36015KT 9999 BKN030 TX20/1514Z TN15/1506Z"
    },
    {
      "icao": "EDJA",
      "iata": "FMM",
      "name": "Memmingen Allgau Airport",
      "updatedAt": "150320Z",
      "visibility_m": 10000,
      "taf_visibility_m": 10000,
      "worst_visibility_m": 10000,
      "ceiling_ft": null,
      "hazards": [],
      "severityScore": 0,
      "metarRaw": "METAR EDJA 150320Z AUTO 20007KT 9999 // BKN130/// BKN150/// 03/M01 Q1017",
      "tafRaw": "TAF EDJA 150200Z 1503/1512 21005KT CAVOK"
    },
    {
      "icao": "ENAL",
      "iata": "AES",
      "name": "Ålesund Airport, Vigra",
      "updatedAt": "150320Z",
      "visibility_m": 10000,
      "taf_visibility_m": 10000,
      "worst_visibility_m": 10000,
      "ceiling_ft": null,
      "hazards": [],
      "severityScore": 0,
      "metarRaw": "METAR ENAL 150320Z AUTO 18006KT 9999 SCT043/// BKN055/// 06/M01 Q0999",
      "tafRaw": "TAF ENAL 150200Z 1503/1512 15008KT 9999 SCT045"
    },
    {
      "icao": "ENVA",
      "iata": "TRD",
      "name": "Trondheim Airport, Værnes",
      "updatedAt": "150320Z",
      "visibility_m": 10000,
      "taf_visibility_m": 10000,
      "worst_visibility_m": 10000,
      "ceiling_ft": null,
      "hazards": [],
      "severityScore": 0,
      "metarRaw": "METAR ENVA 150320Z AUTO 10006KT 9999 NCD M03/M07 Q1003 RMK WIND 670FT 12010KT",
      "tafRaw": "TAF ENVA 142300Z 1500/1524 10007KT CAVOK \n  TEMPO 1516/1524 16015G25KT"
    },
    {
      "icao": "HEGN",
      "iata": "HRG",
      "name": "Hurghada International Airport",
      "updatedAt": "150300Z",
      "visibility_m": 10000,
      "taf_visibility_m": 10000,
      "worst_visibility_m": 10000,
      "ceiling_ft": null,
      "hazards": [],
      "severityScore": 0,
      "metarRaw": "METAR HEGN 150300Z 29015KT CAVOK 13/05 Q1023 NOSIG",
      "tafRaw": "TAF HEGN 142300Z 1500/1606 30010G20KT CAVOK"
    },
    {
      "icao": "HEMA",
      "iata": "RMF",
      "name": "Marsa Alam International Airport",
      "updatedAt": "150300Z",
      "visibility_m": 10000,
      "taf_visibility_m": 10000,
      "worst_visibility_m": 10000,
      "ceiling_ft": null,
      "hazards": [],
      "severityScore": 0,
      "metarRaw": "METAR HEMA 150300Z 31018KT CAVOK 16/07 Q1020 NOSIG",
      "tafRaw": "TAF HEMA 142300Z 1500/1606 32010G20KT CAVOK"
    },
    {
      "icao": "HESH",
      "iata": "SSH",
      "name": "Sharm El Sheikh International Airport",
      "updatedAt": "150300Z",
      "visibility_m": 10000,
      "taf_visibility_m": 10000,
      "worst_visibility_m": 10000,
      "ceiling_ft": null,
      "hazards": [],
      "severityScore": 0,
      "metarRaw": "METAR HESH 150300Z 36016KT CAVOK 15/03 Q1023 NOSIG",
      "tafRaw": "TAF HESH 142300Z 1500/1606 33010KT CAVOK"
    },
    {
      "icao": "LCLK",
      "iata": "LCA",
      "name": "Larnaca International Airport",
      "updatedAt": "150330Z",
      "visibility_m": 10000,
      "taf_visibility_m": 10000,
      "worst_visibility_m": 10000,
      "ceiling_ft": null,
      "hazards": [],
      "severityScore": 0,
      "metarRaw": "METAR LCLK 150330Z 28004KT CAVOK 05/03 Q1023 NOSIG",
      "tafRaw": "TAF LCLK 142330Z 1500/1600 32006KT 9999 FEW025 \n  BECMG 1507/1510 12010KT \n  BECMG 1516/1518 30006KT"
    },
    {
      "icao": "LCPH",
      "iata": "PFO",
      "name": "Paphos International Airport",
      "updatedAt": "150330Z",
      "visibility_m": 10000,
      "taf_visibility_m": 10000,
      "worst_visibility_m": 10000,
      "ceiling_ft": 4200,
      "hazards": [],
      "severityScore": 0,
      "metarRaw": "METAR LCPH 150330Z AUTO 02009KT 010V080 9999 BKN042 BKN049 08/03 Q1023 NOSIG",
      "tafRaw": "TAF LCPH 142330Z 1500/1600 01007KT 9999 FEW020 \n  BECMG 1509/1511 29010KT \n  BECMG 1518/1520 02006KT"
    },
    {
      "icao": "LFMN",
      "iata": "NCE",
      "name": "Nice-Côte d'Azur Airport",
      "updatedAt": "150330Z",
      "visibility_m": 10000,
      "taf_visibility_m": 10000,
      "worst_visibility_m": 10000,
      "ceiling_ft": null,
      "hazards": [],
      "severityScore": 0,
      "metarRaw": "METAR LFMN 150330Z 33008KT CAVOK 09/05 Q1020 NOSIG",
      "tafRaw": "TAF LFMN 150200Z 1503/1609 34010KT CAVOK \n  BECMG 1512/1514 13005KT \n  BECMG 1517/1519 33010KT"
    },
    {
      "icao": "LGAV",
      "iata": "ATH",
      "name": "Athens Eleftherios Venizelos International Airport",
      "updatedAt": "150320Z",
      "visibility_m": 10000,
      "taf_visibility_m": 10000,
      "worst_visibility_m": 10000,
      "ceiling_ft": null,
      "hazards": [],
      "severityScore": 0,
      "metarRaw": "METAR LGAV 150320Z 00000KT 9999 FEW035 05/03 Q1024 NOSIG",
      "tafRaw": "TAF LGAV 142300Z 1500/1524 VRB05KT 9999 FEW016 SCT025"
    },
    {
      "icao": "LIBG",
      "iata": "TAR",
      "name": "Taranto-Grottaglie Marcello Arlotta Airport",
      "updatedAt": null,
      "visibility_m": null,
      "taf_visibility_m": 10000,
      "worst_visibility_m": 10000,
      "ceiling_ft": null,
      "hazards": [],
      "severityScore": 0,
      "metarRaw": null,
      "tafRaw": "TAF LIBG 141700Z 1418/1503 16007KT 9999 FEW030"
    },
    {
      "icao": "LICA",
      "iata": "SUF",
      "name": "Lamezia Terme Sant'Eufemia International Airport",
      "updatedAt": "150320Z",
      "visibility_m": 10000,
      "taf_visibility_m": 10000,
      "worst_visibility_m": 10000,
      "ceiling_ft": null,
      "hazards": [],
      "severityScore": 0,
      "metarRaw": "METAR LICA 150320Z AUTO 07005KT 9999 NCD 02/02 Q1024",
      "tafRaw": "TAF LICA 142300Z 1500/1524 VRB05KT CAVOK"
    },
    {
      "icao": "LICC",
      "iata": "CTA",
      "name": "Catania-Fontanarossa Airport",
      "updatedAt": "150320Z",
      "visibility_m": 10000,
      "taf_visibility_m": 10000,
      "worst_visibility_m": 10000,
      "ceiling_ft": null,
      "hazards": [],
      "severityScore": 0,
      "metarRaw": "METAR LICC 150320Z 23007KT CAVOK 06/03 Q1024",
      "tafRaw": "TAF LICC 142300Z 1500/1524 25010KT 9999 FEW040 \n  BECMG 1512/1514 VRB05KT"
    },
    {
      "icao": "LICJ",
      "iata": "PMO",
      "name": "Falcone–Borsellino Airport",
      "updatedAt": "150320Z",
      "visibility_m": 10000,
      "taf_visibility_m": 10000,
      "worst_visibility_m": 10000,
      "ceiling_ft": null,
      "hazards": [],
      "severityScore": 0,
      "metarRaw": "METAR LICJ 150320Z 09007KT CAVOK 09/07 Q1022",
      "tafRaw": "TAF LICJ 142300Z 1500/1524 VRB06KT CAVOK"
    },
    {
      "icao": "LIRF",
      "iata": "FCO",
      "name": "Rome–Fiumicino Leonardo da Vinci International Airport",
      "updatedAt": "150320Z",
      "visibility_m": 10000,
      "taf_visibility_m": 10000,
      "worst_visibility_m": 10000,
      "ceiling_ft": null,
      "hazards": [],
      "severityScore": 0,
      "metarRaw": "METAR LIRF 150320Z 07005KT 9999 FEW035 SCT050 12/08 Q1022 NOSIG",
      "tafRaw": "TAF LIRF 142300Z 1500/1606 09007KT 9999 SCT040 \n  BECMG 1510/1512 15012KT \n  BECMG 1519/1521 08007KT"
    },
    {
      "icao": "LIRN",
      "iata": "NAP",
      "name": "Naples International Airport",
      "updatedAt": "150250Z",
      "visibility_m": 10000,
      "taf_visibility_m": 10000,
      "worst_visibility_m": 10000,
      "ceiling_ft": null,
      "hazards": [],
      "severityScore": 0,
      "metarRaw": "METAR LIRN 150250Z VRB01KT CAVOK 09/06 Q1023 NOSIG",
      "tafRaw": "TAF LIRN 142300Z 1500/1524 VRB05KT 9999 SCT040"
    },
    {
      "icao": "LIRP",
      "iata": "PSA",
      "name": "Pisa International Airport",
      "updatedAt": "150315Z",
      "visibility_m": 10000,
      "taf_visibility_m": 10000,
      "worst_visibility_m": 10000,
      "ceiling_ft": 6000,
      "hazards": [],
      "severityScore": 0,
      "metarRaw": "METAR LIRP 150315Z 10007KT 9999 SCT030 SCT040 BKN060 11/10 Q1021 NOSIG",
      "tafRaw": "TAF LIRP 142300Z 1500/1524 12005KT 9999 SCT030 BKN060"
    },
    {
      "icao": "LLBG",
      "iata": "TLV",
      "name": "Ben Gurion International Airport",
      "updatedAt": "150350Z",
      "visibility_m": 10000,
      "taf_visibility_m": 10000,
      "worst_visibility_m": 10000,
      "ceiling_ft": 3500,
      "hazards": [],
      "severityScore": 0,
      "metarRaw": "METAR LLBG 150350Z 14004KT 9999 FEW045 10/07 Q1024 NOSIG",
      "tafRaw": "TAF LLBG 142317Z 1500/1524 VRB04KT 9999 SCT045 \n  TEMPO 1500/1509 12005KT BKN040 \n  BECMG 1509/1511 32010KT \n  BECMG 1515/1517 VRB03KT SCT040 \n  TEMPO 1517/1524 15005KT BKN035 TX18/1512Z TN09/1504Z"
    },
    {
      "icao": "LMML",
      "iata": "MLA",
      "name": "Malta International Airport",
      "updatedAt": "150345Z",
      "visibility_m": 10000,
      "taf_visibility_m": 10000,
      "worst_visibility_m": 10000,
      "ceiling_ft": null,
      "hazards": [],
      "severityScore": 0,
      "metarRaw": "METAR LMML 150345Z 14007KT 9999 FEW023 15/11 Q1022 NOSIG",
      "tafRaw": "TAF LMML 142300Z 1500/1524 16010KT 9999 SCT020"
    },
    {
      "icao": "OEJN",
      "iata": "JED",
      "name": "King Abdulaziz International Airport",
      "updatedAt": "150300Z",
      "visibility_m": 10000,
      "taf_visibility_m": 7000,
      "worst_visibility_m": 7000,
      "ceiling_ft": null,
      "hazards": [],
      "severityScore": 0,
      "metarRaw": "METAR OEJN 150300Z 03006KT CAVOK 20/08 Q1016 NOSIG",
      "tafRaw": "TAF OEJN 142300Z 1500/1606 02006KT 7000 FEW040 \n  BECMG 1506/1508 33010KT CAVOK \n  BECMG 1518/1520 VRB03KT \n  BECMG 1602/1604 08006KT"
    },
    {
      "icao": "OEMA",
      "iata": "MED",
      "name": "Prince Mohammad Bin Abdulaziz Airport",
      "updatedAt": "150300Z",
      "visibility_m": 10000,
      "taf_visibility_m": 3000,
      "worst_visibility_m": 3000,
      "ceiling_ft": null,
      "hazards": [],
      "severityScore": 0,
      "metarRaw": "METAR OEMA 150300Z VRB03KT CAVOK 13/M04 Q1022 NOSIG",
      "tafRaw": "TAF OEMA 142300Z 1500/1606 VRB03KT CAVOK \n  BECMG 1506/1508 08015KT 7000 NSC \n  PROB40 \n  TEMPO 1506/1512 3000 BLDU"
    },
    {
      "icao": "OMAA",
      "iata": "AUH",
      "name": "Zayed International Airport",
      "updatedAt": "150300Z",
      "visibility_m": 10000,
      "taf_visibility_m": 8000,
      "worst_visibility_m": 8000,
      "ceiling_ft": null,
      "hazards": [],
      "severityScore": 0,
      "metarRaw": "METAR OMAA 150300Z 13003KT CAVOK 16/06 Q1016 NOSIG",
      "tafRaw": "TAF OMAA 142300Z 1500/1606 13006KT 8000 NSC \n  BECMG 1507/1509 31012KT"
    },
    {
      "icao": "OMDB",
      "iata": "DXB",
      "name": "Dubai International Airport",
      "updatedAt": "150330Z",
      "visibility_m": 10000,
      "taf_visibility_m": 8000,
      "worst_visibility_m": 8000,
      "ceiling_ft": null,
      "hazards": [],
      "severityScore": 0,
      "metarRaw": "METAR OMDB 150330Z 13003KT CAVOK 18/06 Q1017 NOSIG",
      "tafRaw": "TAF OMDB 142300Z 1500/1606 16005KT 8000 NSC \n  BECMG 1507/1509 28013KT"
    },
    {
      "icao": "UBBB",
      "iata": "GYD",
      "name": "Heydar Aliyev International Airport",
      "updatedAt": "150330Z",
      "visibility_m": 10000,
      "taf_visibility_m": 10000,
      "worst_visibility_m": 10000,
      "ceiling_ft": 2100,
      "hazards": [],
      "severityScore": 0,
      "metarRaw": "METAR UBBB 150330Z 32010KT 9999 OVC021 03/M01 Q1023 NOSIG",
      "tafRaw": "TAF UBBB 142302Z 1500/1524 34014KT 9999 BKN030 TX06/1510Z TN03/1501Z \n  TEMPO 1500/1508 36018KT SCT013 \n  BECMG 1513/1515 03005KT \n  TEMPO 1515/1524 VRB04KT"
    }
  ],
  "stats": {
    "icaoCount": 159,
    "metarReturned": 155,
    "tafReturned": 143,
    "stationsWritten": 159,
    "missingMetar": 4,
    "missingTaf": 16
  },
  "errors": []
}