{
  "generatedAt": "2026-01-15T16:52:47.056Z",
  "stations": [
    {
      "icao": "BKPR",
      "iata": "PRN",
      "name": "Priština Adem Jashari International Airport",
      "updatedAt": "151630Z",
      "visibility_m": 10000,
      "taf_visibility_m": 150,
      "worst_visibility_m": 150,
      "ceiling_ft": 200,
      "hazards": [
        "FZFG",
        "BR",
        "FG"
      ],
      "severityScore": 100,
      "metarRaw": "METAR BKPR 151630Z 31003KT 250V350 CAVOK 07/03 Q1023 NOSIG",
      "tafRaw": "TAF BKPR 151130Z 1512/1612 30006KT 9999 BKN060 \n  BECMG 1520/1524 3000 BR \n  PROB30 1600/1608 0150 FZFG BKN002 \n  BECMG 1609/1611 9999 NSW"
    },
    {
      "icao": "EFTU",
      "iata": "TKU",
      "name": "Turku Airport",
      "updatedAt": "151650Z",
      "visibility_m": 7000,
      "taf_visibility_m": 2500,
      "worst_visibility_m": 2500,
      "ceiling_ft": 200,
      "hazards": [
        "SHRA",
        "RA",
        "BR",
        "SN",
        "DZ",
        "FZRA"
      ],
      "severityScore": 100,
      "metarRaw": "METAR EFTU 151650Z AUTO 17005KT 7000 -SHRA OVC002 00/00 Q1017",
      "tafRaw": "TAF EFTU 151437Z 1515/1615 16006KT 9000 SCT006 BKN015 \n  TEMPO 1515/1518 3000 -SN BKN004 \n  PROB30 1515/1517 -FZRASN \n  TEMPO 1518/1524 2500 -DZ BR BKN003 \n  BECMG 1600/1602 BKN007 \n  TEMPO 1602/1606 6000 -SHRASN SCT005 BKN011 \n  BECMG 1606/1608 BKN011 \n  BECMG 1613/1615 OVC009"
    },
    {
      "icao": "EGGW",
      "iata": "LTN",
      "name": "London Luton Airport",
      "updatedAt": "151620Z",
      "visibility_m": 9000,
      "taf_visibility_m": 300,
      "worst_visibility_m": 300,
      "ceiling_ft": 900,
      "hazards": [
        "RA",
        "FG",
        "SHRA"
      ],
      "severityScore": 100,
      "metarRaw": "METAR EGGW 151620Z 15011KT 9000 -RA BKN006TCU OVC009 08/07 Q0996",
      "tafRaw": "TAF EGGW 151102Z 1512/1612 16010KT 9999 SCT004 BKN020 \n  TEMPO 1512/1522 6000 RA BKN003 \n  PROB30 \n  TEMPO 1512/1520 3000 +RA \n  TEMPO 1515/1520 17018G30KT \n  BECMG 1519/1522 26010KT \n  PROB40 \n  TEMPO 1522/1606 0300 FG BKN001 \n  BECMG 1602/1605 17008KT \n  PROB30 \n  TEMPO 1606/1610 0800 FG BKN001 \n  PROB30 \n  TEMPO 1610/1612 6000 SHRA BKN005"
    },
    {
      "icao": "EPMO",
      "iata": "WMI",
      "name": "Modlin Airport",
      "updatedAt": "151630Z",
      "visibility_m": 450,
      "taf_visibility_m": null,
      "worst_visibility_m": 450,
      "ceiling_ft": 0,
      "hazards": [
        "FZFG",
        "FG"
      ],
      "severityScore": 100,
      "metarRaw": "METAR EPMO 151630Z 09007KT 0450 R08/0375N FZFG BKN000 M01/M01 Q1022",
      "tafRaw": null
    },
    {
      "icao": "EPSC",
      "iata": "SZZ",
      "name": "Solidarity Szczecin–Goleniów Airport",
      "updatedAt": "151630Z",
      "visibility_m": 7000,
      "taf_visibility_m": 500,
      "worst_visibility_m": 500,
      "ceiling_ft": 600,
      "hazards": [
        "FG",
        "BR",
        "RA",
        "DZ"
      ],
      "severityScore": 100,
      "metarRaw": "METAR EPSC 151630Z 13013KT 7000 OVC006 02/01 Q1016",
      "tafRaw": "TAF EPSC 151130Z 1512/1612 14010KT 8000 OVC012 \n  BECMG 1512/1515 OVC005 \n  TEMPO 1515/1518 2500 -RADZ BR BKN002 \n  TEMPO 1518/1612 2000 BR BKN002 \n  PROB40 1523/1609 0500 FG"
    },
    {
      "icao": "ESMS",
      "iata": "MMX",
      "name": "Malmö Sturup Airport",
      "updatedAt": "151620Z",
      "visibility_m": 2700,
      "taf_visibility_m": 600,
      "worst_visibility_m": 600,
      "ceiling_ft": 200,
      "hazards": [
        "BR",
        "FG",
        "RA",
        "DZ"
      ],
      "severityScore": 100,
      "metarRaw": "METAR ESMS 151620Z 13010KT 2700 BR OVC002 03/03 Q1013",
      "tafRaw": "TAF ESMS 151427Z 1515/1615 16010KT 2000 -RADZ BR BKN002 \n  TEMPO 1515/1517 1000 BKN005 \n  TEMPO 1517/1607 0600 FG BKN001 \n  BECMG 1607/1609 9999 NSW FEW020"
    },
    {
      "icao": "EYPA",
      "iata": "PLQ",
      "name": "Palanga International Airport",
      "updatedAt": "151650Z",
      "visibility_m": 7000,
      "taf_visibility_m": 1500,
      "worst_visibility_m": 1500,
      "ceiling_ft": 700,
      "hazards": [
        "BR",
        "SN",
        "FZDZ",
        "DZ"
      ],
      "severityScore": 100,
      "metarRaw": "METAR EYPA 151650Z 15008KT 7000 BKN007 OVC033 M04/M05 Q1022",
      "tafRaw": "TAF EYPA 151109Z 1512/1612 15009KT 5000 BR SCT005 BKN015 \n  BECMG 1512/1514 BKN005 OVC010 \n  TEMPO 1514/1518 3000 SN -FZDZ BKN002 \n  PROB40 \n  TEMPO 1514/1518 1500 \n  BECMG 1518/1521 8000 NSW BKN020 \n  BECMG 1600/1603 SCT015 \n  TEMPO 1603/1609 FEW005"
    },
    {
      "icao": "LBSF",
      "iata": "SOF",
      "name": "Sofia Airport",
      "updatedAt": "151630Z",
      "visibility_m": 10000,
      "taf_visibility_m": 600,
      "worst_visibility_m": 600,
      "ceiling_ft": 200,
      "hazards": [
        "FZFG",
        "BR",
        "FG"
      ],
      "severityScore": 100,
      "metarRaw": "METAR LBSF 151630Z AUTO 28006KT 9999 NCD 07/02 Q1022 NOSIG",
      "tafRaw": "TAF LBSF 151100Z 1512/1612 31010KT 9999 SCT060 \n  BECMG 1517/1519 VRB03KT \n  TEMPO 1600/1606 4000 BR SCT010 \n  PROB30 \n  TEMPO 1602/1607 0600 FZFG VV002"
    },
    {
      "icao": "LHBP",
      "iata": "BUD",
      "name": "Budapest Liszt Ferenc International Airport",
      "updatedAt": "151630Z",
      "visibility_m": 5000,
      "taf_visibility_m": 300,
      "worst_visibility_m": 300,
      "ceiling_ft": 700,
      "hazards": [
        "BR",
        "FZFG",
        "FZRA",
        "FG",
        "RA",
        "DZ"
      ],
      "severityScore": 100,
      "metarRaw": "METAR LHBP 151630Z 08006KT 5000 BR BKN007 BKN022 M02/M03 Q1023 NOSIG",
      "tafRaw": "TAF LHBP 151115Z 1512/1612 09005KT 2500 BR OVC005 \n  TEMPO 1512/1516 5000 SCT008 BKN060 \n  TEMPO 1516/1612 0800 -FZRADZ FZFG OVC002 \n  PROB40 \n  TEMPO 1522/1609 0300 FZFG VV001"
    },
    {
      "icao": "LHDC",
      "iata": "DEB",
      "name": "Debrecen International Airport",
      "updatedAt": "151615Z",
      "visibility_m": 4600,
      "taf_visibility_m": 500,
      "worst_visibility_m": 500,
      "ceiling_ft": 800,
      "hazards": [
        "BR",
        "FZFG",
        "FZRA",
        "FG",
        "RA",
        "DZ"
      ],
      "severityScore": 100,
      "metarRaw": "METAR LHDC 151615Z AUTO 07004KT 4600 BR BKN008 BKN018 OVC050 01/M00 Q1023 NOSIG",
      "tafRaw": "TAF LHDC 151415Z 1515/1524 VRB03KT 5000 BR SCT004 OVC040 \n  TEMPO 1515/1524 1400 BCFG BR BKN004 OVC030 \n  PROB40 \n  TEMPO 1517/1524 0500 FZFG BKN002 OVC015 \n  TEMPO 1520/1524 -FZRADZ"
    },
    {
      "icao": "LIMC",
      "iata": "MXP",
      "name": "Milan Malpensa International Airport",
      "updatedAt": "151620Z",
      "visibility_m": 2000,
      "taf_visibility_m": 800,
      "worst_visibility_m": 800,
      "ceiling_ft": 500,
      "hazards": [
        "BR",
        "DZ",
        "FG",
        "RA"
      ],
      "severityScore": 100,
      "metarRaw": "METAR LIMC 151620Z 24003KT 2000 -DZ BR OVC005 07/06 Q1021 NOSIG",
      "tafRaw": "TAF LIMC 151100Z 1512/1618 VRB05KT 0800 -RA FG BKN003 \n  TEMPO 1512/1520 4000 BR BKN050 \n  BECMG 1608/1610 3000 BR BKN050"
    },
    {
      "icao": "LIPR",
      "iata": "RMI",
      "name": "Federico Fellini International Airport",
      "updatedAt": "151620Z",
      "visibility_m": 4000,
      "taf_visibility_m": 300,
      "worst_visibility_m": 300,
      "ceiling_ft": 800,
      "hazards": [
        "BR",
        "FG"
      ],
      "severityScore": 100,
      "metarRaw": "METAR LIPR 151620Z 35005KT 4000 BR BKN008 08/06 Q1022",
      "tafRaw": "TAF LIPR 151100Z 1512/1612 VRB04KT 3000 BR SCT020 \n  TEMPO 1516/1609 0300 FG BKN001"
    },
    {
      "icao": "LKPR",
      "iata": "PRG",
      "name": "Václav Havel Airport Prague",
      "updatedAt": "151630Z",
      "visibility_m": 200,
      "taf_visibility_m": 300,
      "worst_visibility_m": 200,
      "ceiling_ft": 100,
      "hazards": [
        "FG",
        "FZFG",
        "BR"
      ],
      "severityScore": 100,
      "metarRaw": "METAR LKPR 151630Z VRB02KT 0200 R24/0225N R30/0250N FG VV001 02/02 Q1017 NOSIG",
      "tafRaw": "TAF LKPR 151400Z 1515/1621 12004KT 2500 BR BKN020 \n  BECMG 1516/1518 1400 BR SCT002 BKN012 \n  TEMPO 1518/1609 VRB02KT 0300 FZFG OVC002 \n  BECMG 1610/1612 4000 BR OVC005 \n  TEMPO 1612/1618 1800 BR OVC002"
    },
    {
      "icao": "LOWW",
      "iata": "VIE",
      "name": "Vienna International Airport",
      "updatedAt": "151620Z",
      "visibility_m": 2800,
      "taf_visibility_m": 300,
      "worst_visibility_m": 300,
      "ceiling_ft": 200,
      "hazards": [
        "BR",
        "FZFG",
        "FZDZ",
        "DZ",
        "FG"
      ],
      "severityScore": 100,
      "metarRaw": "METAR LOWW 151620Z 13006KT 2800 BR FEW002 BKN003 M01/M02 Q1021 TEMPO BKN002",
      "tafRaw": "TAF LOWW 151415Z 1515/1621 15005KT 3000 BR BKN005 TX01/1621Z TNM02/1520Z \n  BECMG 1516/1518 0800 BCFG FEW001 BKN002 \n  TEMPO 1518/1611 0500 FZFG VV001 \n  PROB40 \n  TEMPO 1523/1610 13008KT 0300 -FZDZ FZFG \n  BECMG 1609/1611 13011KT \n  TEMPO 1611/1621 2000 -DZ BR"
    },
    {
      "icao": "LRCV",
      "iata": "CRA",
      "name": "Craiova International Airport",
      "updatedAt": "151630Z",
      "visibility_m": 10000,
      "taf_visibility_m": 800,
      "worst_visibility_m": 800,
      "ceiling_ft": 200,
      "hazards": [
        "FZFG",
        "BR",
        "FG"
      ],
      "severityScore": 100,
      "metarRaw": "METAR LRCV 151630Z 30008KT CAVOK 07/03 Q1021",
      "tafRaw": "TAF LRCV 151400Z 1515/1524 29012KT CAVOK \n  BECMG 1517/1519 08010KT 3000 BR BKN010 \n  PROB30 \n  TEMPO 1521/1524 0800 FZFG OVC002"
    },
    {
      "icao": "LRSB",
      "iata": "SBZ",
      "name": "Sibiu International Airport",
      "updatedAt": "151630Z",
      "visibility_m": 1800,
      "taf_visibility_m": 1500,
      "worst_visibility_m": 1500,
      "ceiling_ft": 800,
      "hazards": [
        "BR",
        "DZ",
        "FZRA",
        "RA"
      ],
      "severityScore": 100,
      "metarRaw": "METAR LRSB 151630Z VRB02KT 1800 -DZ BR FEW005 OVC008 02/02 Q1022",
      "tafRaw": "TAF LRSB 151100Z 1512/1612 VRB04KT 5000 BR BKN010 OVC020 \n  TEMPO 1512/1518 3000 -RADZ BR BKN005 OVC015 \n  BECMG 1518/1520 3000 BR \n  TEMPO 1600/1606 1500 -FZRADZ BKN005 OVC010"
    },
    {
      "icao": "LRSV",
      "iata": "SCV",
      "name": "Suceava Stefan cel Mare Airport",
      "updatedAt": "151630Z",
      "visibility_m": 2000,
      "taf_visibility_m": 600,
      "worst_visibility_m": 600,
      "ceiling_ft": 300,
      "hazards": [
        "BR",
        "FZFG",
        "SN",
        "FG"
      ],
      "severityScore": 100,
      "metarRaw": "METAR LRSV 151630Z 07006KT 2000 BR OVC003 M06/M07 Q1022",
      "tafRaw": "TAF LRSV 151400Z 1515/1524 VRB04KT 1500 BR OVC005 \n  BECMG 1515/1516 0800 FZFG \n  TEMPO 1516/1524 0600 -SN FZFG BKN002 OVC005"
    },
    {
      "icao": "LRTR",
      "iata": "TSR",
      "name": "Timişoara Traian Vuia Airport",
      "updatedAt": "151630Z",
      "visibility_m": 4500,
      "taf_visibility_m": 800,
      "worst_visibility_m": 800,
      "ceiling_ft": 100,
      "hazards": [
        "BR",
        "FG",
        "RA",
        "DZ"
      ],
      "severityScore": 100,
      "metarRaw": "METAR LRTR 151630Z 09006KT 4500 BR NSC 02/02 Q1022",
      "tafRaw": "TAF LRTR 151100Z 1512/1612 VRB04KT 5000 BR BKN020 \n  BECMG 1519/1521 3000 -RA BR BKN010 OVC030 \n  TEMPO 1600/1606 1500 RA BR BKN002 OVC010 \n  PROB40 \n  TEMPO 1607/1612 0800 -DZRA FG OVC001"
    },
    {
      "icao": "LZTT",
      "iata": "TAT",
      "name": "Poprad-Tatry Airport",
      "updatedAt": "151630Z",
      "visibility_m": 10000,
      "taf_visibility_m": 500,
      "worst_visibility_m": 500,
      "ceiling_ft": 2500,
      "hazards": [
        "FZFG",
        "BR",
        "FZRA",
        "FG",
        "RA"
      ],
      "severityScore": 100,
      "metarRaw": "METAR LZTT 151630Z VRB01KT 9999 SCT010 OVC025 00/M01 Q1019 NOSIG",
      "tafRaw": "TAF LZTT 151115Z 1512/1612 VRB02KT 9999 FEW009 SCT014 BKN025 \n  TEMPO 1512/1518 2800 BR BKN008 \n  PROB40 \n  TEMPO 1518/1600 1500 -FZRA BR OVC008 \n  TEMPO 1600/1608 0500 FZFG OVC002"
    },
    {
      "icao": "UAAA",
      "iata": "ALA",
      "name": "Almaty International Airport",
      "updatedAt": "151630Z",
      "visibility_m": 2600,
      "taf_visibility_m": 300,
      "worst_visibility_m": 300,
      "ceiling_ft": 300,
      "hazards": [
        "BR",
        "FZFG",
        "SN",
        "BLSN",
        "SHSN",
        "FG"
      ],
      "severityScore": 100,
      "metarRaw": "METAR UAAA 151630Z 30002MPS 2600 BR OVC003 M07/M08 Q1021 NOSIG RMK QBB100",
      "tafRaw": "TAF UAAA 151110Z 1512/1612 34003G08MPS 1600 BR FU BKN011CB OVC020 TXM07/1608Z TNM10/1603Z \n  TEMPO 1512/1524 0500 -SN FZFG VV002 \n  TEMPO 1600/1605 0300 -SN FZFG VV001 \n  BECMG 1606/1607 3100 \n  BECMG 1609/1611 1500 -SHSN BR \n  TEMPO 1609/1612 28006G12MPS 0500 SHSN FZFG BLSN BKN004 OVC011CB"
    },
    {
      "icao": "EGNM",
      "iata": "LBA",
      "name": "Leeds Bradford Airport",
      "updatedAt": "151620Z",
      "visibility_m": 10000,
      "taf_visibility_m": 1200,
      "worst_visibility_m": 1200,
      "ceiling_ft": 100,
      "hazards": [
        "BR",
        "FG",
        "RA",
        "DZ"
      ],
      "severityScore": 97,
      "metarRaw": "METAR EGNM 151620Z VRB02KT 9999 FEW008 04/03 Q0997",
      "tafRaw": "TAF EGNM 151056Z 1512/1612 17010KT 9999 FEW012 \n  BECMG 1512/1515 VRB04KT \n  TEMPO 1512/1610 7000 BKN008 \n  PROB30 \n  TEMPO 1512/1515 4000 BR \n  TEMPO 1515/1521 3000 RADZ BR BKN004 \n  PROB30 \n  TEMPO 1515/1521 1200 MIFG BKN001 \n  PROB30 \n  TEMPO 1521/1609 4000 BR BKN004 \n  BECMG 1610/1612 16010KT \n  PROB30 \n  TEMPO 1610/1612 8000 BKN006"
    },
    {
      "icao": "EPWR",
      "iata": "WRO",
      "name": "Copernicus Wrocław Airport",
      "updatedAt": "151630Z",
      "visibility_m": 3500,
      "taf_visibility_m": 300,
      "worst_visibility_m": 300,
      "ceiling_ft": 4600,
      "hazards": [
        "BR",
        "FG",
        "RA",
        "DZ"
      ],
      "severityScore": 97,
      "metarRaw": "METAR EPWR 151630Z 12004KT 3500 BR BKN046 03/02 Q1018",
      "tafRaw": "TAF EPWR 151430Z 1515/1615 12010KT 5000 BR OVC035 \n  TEMPO 1515/1518 4000 -RA BR \n  PROB40 \n  TEMPO 1515/1518 2500 -DZRA BR BKN012 \n  BECMG 1518/1521 4000 BR \n  TEMPO 1518/1521 1200 BR BKN005 \n  BECMG 1521/1524 0800 FG BKN002 \n  TEMPO 1521/1609 0300 FG BKN001 \n  BECMG 1609/1612 8000 SCT012"
    },
    {
      "icao": "EETN",
      "iata": "TLL",
      "name": "Lennart Meri Tallinn Airport",
      "updatedAt": "151650Z",
      "visibility_m": 10000,
      "taf_visibility_m": 3000,
      "worst_visibility_m": 3000,
      "ceiling_ft": 800,
      "hazards": [
        "SN",
        "BR",
        "FZDZ",
        "DZ"
      ],
      "severityScore": 91,
      "metarRaw": "METAR EETN 151650Z 18013KT 9999 DRSN OVC037 M08/M10 Q1021 TEMPO BKN008",
      "tafRaw": "TAF EETN 151130Z 1512/1612 17012KT 9999 BKN007 BKN035 \n  PROB30 \n  TEMPO 1512/1517 3000 SG \n  TEMPO 1517/1604 3000 -FZDZ BR BKN004 OVC025 \n  BECMG 1604/1606 OVC020 \n  TEMPO 1606/1612 BKN005 BKN015"
    },
    {
      "icao": "LRCL",
      "iata": "CLJ",
      "name": "Cluj Avram Iancu International Airport",
      "updatedAt": "151630Z",
      "visibility_m": 2000,
      "taf_visibility_m": 1500,
      "worst_visibility_m": 1500,
      "ceiling_ft": 1500,
      "hazards": [
        "BR",
        "FZRA",
        "RA"
      ],
      "severityScore": 79,
      "metarRaw": "METAR LRCL 151630Z 03001KT 2000 BR OVC015 01/M00 Q1023",
      "tafRaw": "TAF LRCL 151400Z 1515/1524 VRB04KT 3000 BR OVC015 \n  TEMPO 1521/1524 1500 -FZRA BR BKN005 OVC010"
    },
    {
      "icao": "EPKK",
      "iata": "KRK",
      "name": "Kraków John Paul II International Airport",
      "updatedAt": "151630Z",
      "visibility_m": 9000,
      "taf_visibility_m": 700,
      "worst_visibility_m": 700,
      "ceiling_ft": 2200,
      "hazards": [
        "FG",
        "BR",
        "RA",
        "DZ"
      ],
      "severityScore": 77,
      "metarRaw": "METAR EPKK 151630Z 05004KT 9000 OVC022 02/M00 Q1020",
      "tafRaw": "TAF EPKK 151430Z 1515/1615 07005KT 9000 SCT042 \n  BECMG 1515/1518 4500 BR BKN012 \n  TEMPO 1516/1606 2000 -RADZ BR BKN004 \n  TEMPO 1606/1609 0700 FG BKN002 \n  TEMPO 1609/1612 1500 BR BKN004 \n  TEMPO 1612/1615 BKN007"
    },
    {
      "icao": "EPKT",
      "iata": "KTW",
      "name": "Katowice Wojciech Korfanty International Airport",
      "updatedAt": "151630Z",
      "visibility_m": 5000,
      "taf_visibility_m": 700,
      "worst_visibility_m": 700,
      "ceiling_ft": 1000,
      "hazards": [
        "BR",
        "FG",
        "DZ"
      ],
      "severityScore": 77,
      "metarRaw": "METAR EPKT 151630Z 12005KT 5000 BR OVC010 02/01 Q1019",
      "tafRaw": "TAF EPKT 151130Z 1512/1612 15004KT 7000 NSC \n  BECMG 1515/1518 4000 BR BKN008 \n  TEMPO 1515/1606 2000 -DZ BR BKN004 \n  TEMPO 1606/1609 0700 FG BKN002 \n  TEMPO 1609/1612 1500 BR BKN004"
    },
    {
      "icao": "LIBR",
      "iata": "BDS",
      "name": "Brindisi Airport",
      "updatedAt": "151620Z",
      "visibility_m": 10000,
      "taf_visibility_m": 1500,
      "worst_visibility_m": 1500,
      "ceiling_ft": 100,
      "hazards": [
        "BR",
        "FG"
      ],
      "severityScore": 75,
      "metarRaw": "METAR LIBR 151620Z 22005KT 9999 FEW025 13/09 Q1022",
      "tafRaw": "TAF LIBR 151100Z 1512/1612 VRB06KT 9999 FEW025 \n  TEMPO 1521/1607 1500 BCFG BKN001"
    },
    {
      "icao": "LIPE",
      "iata": "BLQ",
      "name": "Bologna Guglielmo Marconi Airport",
      "updatedAt": "151620Z",
      "visibility_m": 2500,
      "taf_visibility_m": 300,
      "worst_visibility_m": 300,
      "ceiling_ft": 5000,
      "hazards": [
        "BR",
        "FG"
      ],
      "severityScore": 75,
      "metarRaw": "METAR LIPE 151620Z 08002KT 2500 BR BKN050 06/06 Q1022",
      "tafRaw": "TAF LIPE 151100Z 1512/1612 VRB04KT 3000 BR BKN040 \n  TEMPO 1516/1609 0300 FG BKN001"
    },
    {
      "icao": "LIPQ",
      "iata": "TRS",
      "name": "Trieste–Friuli Venezia Giulia Airport",
      "updatedAt": "151620Z",
      "visibility_m": 5000,
      "taf_visibility_m": 1200,
      "worst_visibility_m": 1200,
      "ceiling_ft": 200,
      "hazards": [
        "BR",
        "FG"
      ],
      "severityScore": 75,
      "metarRaw": "METAR LIPQ 151620Z AUTO 25002KT 5000 BR FEW021/// OVC040/// 09/07 Q1022",
      "tafRaw": "TAF LIPQ 151100Z 1512/1612 VRB04KT 7000 BKN035 \n  BECMG 1516/1518 3000 BR \n  TEMPO 1602/1606 1200 BCFG BKN002 \n  BECMG 1608/1610 8000"
    },
    {
      "icao": "LPPT",
      "iata": "LIS",
      "name": "Lisbon Humberto Delgado Airport",
      "updatedAt": "151630Z",
      "visibility_m": 2000,
      "taf_visibility_m": null,
      "worst_visibility_m": 2000,
      "ceiling_ft": 400,
      "hazards": [
        "BR",
        "RA",
        "DZ"
      ],
      "severityScore": 72,
      "metarRaw": "METAR LPPT 151630Z 21015KT 2000 -RADZ BR FEW003 BKN004 FEW020TCU 13/13 Q1014 RERA REDZ",
      "tafRaw": null
    },
    {
      "icao": "ENGM",
      "iata": "OSL",
      "name": "Oslo-Gardermoen International Airport",
      "updatedAt": "151620Z",
      "visibility_m": 3000,
      "taf_visibility_m": null,
      "worst_visibility_m": 3000,
      "ceiling_ft": 400,
      "hazards": [
        "BR",
        "SN"
      ],
      "severityScore": 68,
      "metarRaw": "METAR ENGM 151620Z VRB02KT 5000 1700E -SN BR BKN004 M05/M06 Q1007 RESN TEMPO 3000 -SN BR BKN008",
      "tafRaw": null
    },
    {
      "icao": "EKCH",
      "iata": "CPH",
      "name": "Copenhagen Kastrup Airport",
      "updatedAt": "151620Z",
      "visibility_m": 2000,
      "taf_visibility_m": null,
      "worst_visibility_m": 2000,
      "ceiling_ft": 200,
      "hazards": [
        "BR",
        "RA"
      ],
      "severityScore": 62,
      "metarRaw": "METAR EKCH 151620Z 16011KT 6000 -RA OVC005 04/03 Q1013 TEMPO 2000 BR OVC002",
      "tafRaw": null
    },
    {
      "icao": "EGPF",
      "iata": "GLA",
      "name": "Glasgow Airport",
      "updatedAt": "151620Z",
      "visibility_m": 10000,
      "taf_visibility_m": 4000,
      "worst_visibility_m": 4000,
      "ceiling_ft": 600,
      "hazards": [
        "BR",
        "SHRA",
        "RA"
      ],
      "severityScore": 61,
      "metarRaw": "METAR EGPF 151620Z AUTO 17005KT 9999 NCD 05/03 Q0996",
      "tafRaw": "TAF EGPF 151054Z 1512/1612 21014KT 9999 FEW045 \n  BECMG 1519/1522 VRB03KT \n  PROB30 \n  TEMPO 1522/1604 4000 BR \n  PROB30 \n  TEMPO 1604/1609 4000 BR BKN006 \n  TEMPO 1609/1612 6000 SHRA BKN012"
    },
    {
      "icao": "EDDB",
      "iata": "BER",
      "name": "Berlin Brandenburg Airport",
      "updatedAt": "151620Z",
      "visibility_m": 450,
      "taf_visibility_m": null,
      "worst_visibility_m": 450,
      "ceiling_ft": 2000,
      "hazards": [
        "FG"
      ],
      "severityScore": 60,
      "metarRaw": "METAR EDDB 151620Z AUTO 14006KT 2600 0450 R24R/P2000N R24L/1900N BCFG FEW002 BKN020 05/05 Q1015 NOSIG",
      "tafRaw": null
    },
    {
      "icao": "EKBI",
      "iata": "BLL",
      "name": "Billund Airport",
      "updatedAt": "151620Z",
      "visibility_m": 500,
      "taf_visibility_m": null,
      "worst_visibility_m": 500,
      "ceiling_ft": null,
      "hazards": [
        "FG"
      ],
      "severityScore": 60,
      "metarRaw": "METAR EKBI 151620Z AUTO 13005KT 0500 R09/P1500D R27/1200N FG OVC002/// 04/04 Q1008",
      "tafRaw": null
    },
    {
      "icao": "EGKK",
      "iata": "LGW",
      "name": "London Gatwick Airport",
      "updatedAt": "151620Z",
      "visibility_m": 8000,
      "taf_visibility_m": 3000,
      "worst_visibility_m": 3000,
      "ceiling_ft": 1000,
      "hazards": [
        "RA",
        "BR",
        "SHRA",
        "DZ"
      ],
      "severityScore": 58,
      "metarRaw": "METAR EGKK 151620Z 17014G25KT 130V200 8000 -RA BKN010 BKN018 09/08 Q0997",
      "tafRaw": "TAF EGKK 151056Z 1512/1618 17012KT 9999 BKN015 \n  TEMPO 1512/1522 6000 -RADZ RA BKN010 \n  PROB40 \n  TEMPO 1512/1522 3000 RADZ +RA BKN006 \n  PROB40 \n  TEMPO 1513/1519 19020G32KT \n  BECMG 1517/1520 25010KT \n  PROB40 \n  TEMPO 1522/1604 5000 BR BKN005 \n  BECMG 1600/1603 19006KT \n  PROB40 \n  TEMPO 1604/1615 6000 SHRA BKN008 \n  BECMG 1614/1617 13010KT"
    },
    {
      "icao": "LPFR",
      "iata": "FAO",
      "name": "Faro Airport",
      "updatedAt": "151630Z",
      "visibility_m": 10000,
      "taf_visibility_m": 5000,
      "worst_visibility_m": 5000,
      "ceiling_ft": 1200,
      "hazards": [
        "BR",
        "SHRA",
        "RA",
        "DZ"
      ],
      "severityScore": 58,
      "metarRaw": "METAR LPFR 151630Z 25010KT 9999 FEW016 SCT030 15/10 Q1018",
      "tafRaw": "TAF LPFR 151100Z 1512/1612 27005KT 9999 FEW015 \n  BECMG 1512/1514 21007KT BKN040 \n  BECMG 1517/1519 23017KT SCT015 BKN030 \n  TEMPO 1519/1602 5000 RADZ BR SCT008 BKN012 \n  BECMG 1602/1604 31012KT SCT012 \n  TEMPO 1609/1612 5000 SHRA BKN015 FEW020CB"
    },
    {
      "icao": "LZKZ",
      "iata": "KSC",
      "name": "Košice International Airport",
      "updatedAt": "151630Z",
      "visibility_m": 6000,
      "taf_visibility_m": 1000,
      "worst_visibility_m": 1000,
      "ceiling_ft": 2800,
      "hazards": [
        "BR",
        "FZDZ",
        "DZ"
      ],
      "severityScore": 58,
      "metarRaw": "METAR LZKZ 151630Z 00000KT 6000 BKN028 M01/M02 Q1022 NOSIG",
      "tafRaw": "TAF LZKZ 151115Z 1512/1612 VRB02KT 9999 SCT010 BKN025 \n  TEMPO 1512/1518 2800 BR BKN010 \n  TEMPO 1518/1606 1000 -FZDZ BR BKN005 \n  BECMG 1606/1607 03006KT 6000 FEW007 BKN018 \n  TEMPO 1606/1612 4000 BR BKN014"
    },
    {
      "icao": "ESSA",
      "iata": "ARN",
      "name": "Stockholm-Arlanda Airport",
      "updatedAt": "151620Z",
      "visibility_m": 10000,
      "taf_visibility_m": 2000,
      "worst_visibility_m": 2000,
      "ceiling_ft": 400,
      "hazards": [
        "BR",
        "RA"
      ],
      "severityScore": 57,
      "metarRaw": "METAR ESSA 151620Z 18007KT 9999 BKN004 01/00 Q1014 TEMPO BKN006",
      "tafRaw": "TAF ESSA 151430Z 1515/1615 19008KT 9999 SCT006 BKN015 \n  TEMPO 1515/1524 2000 BR BKN003 \n  TEMPO 1600/1612 3000 -RA BR BKN009"
    },
    {
      "icao": "EPWA",
      "iata": "WAW",
      "name": "Warsaw Chopin Airport",
      "updatedAt": "151630Z",
      "visibility_m": 3500,
      "taf_visibility_m": 1300,
      "worst_visibility_m": 1300,
      "ceiling_ft": 200,
      "hazards": [
        "BR"
      ],
      "severityScore": 55,
      "metarRaw": "METAR EPWA 151630Z 11005KT 3500 BR BKN002 00/00 Q1022 NOSIG",
      "tafRaw": "TAF EPWA 151430Z 1515/1615 13007KT 2000 BR SCT003 BKN020 \n  PROB40 \n  TEMPO 1515/1520 1300 BR BKN003 \n  BECMG 1519/1521 6000 \n  PROB40 1520/1607 BKN005 \n  BECMG 1607/1610 BKN010 \n  BECMG 1613/1615 SCT015"
    },
    {
      "icao": "LBWN",
      "iata": "VAR",
      "name": "Varna Airport",
      "updatedAt": "151630Z",
      "visibility_m": 10000,
      "taf_visibility_m": 3000,
      "worst_visibility_m": 3000,
      "ceiling_ft": 500,
      "hazards": [
        "SN",
        "RA"
      ],
      "severityScore": 55,
      "metarRaw": "METAR LBWN 151630Z AUTO 31005KT 270V010 9999 OVC031/// 07/02 Q1022 NOSIG",
      "tafRaw": "TAF LBWN 151100Z 1512/1612 28012KT 9999 SCT040 \n  BECMG 1516/1518 VRB03KT \n  BECMG 1602/1604 04010KT BKN015 OVC030 \n  TEMPO 1602/1605 5000 RASN \n  TEMPO 1605/1611 3000 SN BKN005 OVC020"
    },
    {
      "icao": "LQSA",
      "iata": "SJJ",
      "name": "Sarajevo International Airport",
      "updatedAt": "151630Z",
      "visibility_m": 8000,
      "taf_visibility_m": 700,
      "worst_visibility_m": 700,
      "ceiling_ft": 5000,
      "hazards": [
        "FG",
        "BR"
      ],
      "severityScore": 55,
      "metarRaw": "METAR LQSA 151630Z VRB01KT 8000 BKN050 03/02 Q1022 NOSIG",
      "tafRaw": "TAF LQSA 151100Z 1512/1612 VRB02KT 8000 FEW012 SCT050 TX08/1514Z TN00/1605Z \n  TEMPO 1521/1609 2500 BR BKN008 \n  PROB30 1604/1608 0700 FG BKN004"
    },
    {
      "icao": "LQTZ",
      "iata": "TZL",
      "name": "Tuzla International Airport",
      "updatedAt": "151630Z",
      "visibility_m": 8000,
      "taf_visibility_m": 700,
      "worst_visibility_m": 700,
      "ceiling_ft": 7000,
      "hazards": [
        "FG",
        "BR"
      ],
      "severityScore": 55,
      "metarRaw": "METAR LQTZ 151630Z VRB01KT 8000 BKN070 04/02 Q1021",
      "tafRaw": "TAF LQTZ 151100Z 1512/1612 VRB02KT 7000 BKN045 TX07/1513Z TN00/1605Z \n  TEMPO 1521/1608 3000 BR \n  PROB30 1603/1607 0700 FG BKN004"
    },
    {
      "icao": "LRSM",
      "iata": "SUJ",
      "name": "Satu Mare International Airport",
      "updatedAt": "151630Z",
      "visibility_m": 5000,
      "taf_visibility_m": 1500,
      "worst_visibility_m": 1500,
      "ceiling_ft": 200,
      "hazards": [
        "BR"
      ],
      "severityScore": 55,
      "metarRaw": "METAR LRSM 151630Z 11004KT 5000 BR SCT005 00/M01 Q1023",
      "tafRaw": "TAF LRSM 151400Z 1515/1524 VRB04KT 5000 BR BKN005 \n  BECMG 1516/1518 1500 BR OVC002"
    },
    {
      "icao": "LYNI",
      "iata": "INI",
      "name": "Niš Constantine the Great Airport",
      "updatedAt": "151630Z",
      "visibility_m": 10000,
      "taf_visibility_m": 800,
      "worst_visibility_m": 800,
      "ceiling_ft": 7000,
      "hazards": [
        "FG",
        "BR"
      ],
      "severityScore": 55,
      "metarRaw": "METAR LYNI 151630Z 03003KT 9999 FEW050 BKN070 07/04 Q1023 NOSIG",
      "tafRaw": "TAF LYNI 151100Z 1512/1612 11004KT 9999 SCT060 TX10/1513Z TN00/1606Z \n  BECMG 1516/1518 3000 BR \n  TEMPO 1600/1607 0800 FG \n  BECMG 1609/1611 05010KT 9999 NSW"
    },
    {
      "icao": "OJAI",
      "iata": "AMM",
      "name": "Queen Alia International Airport",
      "updatedAt": "151600Z",
      "visibility_m": 5000,
      "taf_visibility_m": 800,
      "worst_visibility_m": 800,
      "ceiling_ft": null,
      "hazards": [
        "FG",
        "BR"
      ],
      "severityScore": 55,
      "metarRaw": "METAR OJAI 151600Z 27006KT 5000 HZ NSC 08/04 Q1025 NOSIG",
      "tafRaw": "TAF OJAI 151100Z 1512/1618 29008KT 5000 HZ FEW030 \n  PROB30 \n  TEMPO 1512/1518 27016KT 4000 BLDU SCT030 \n  PROB30 1600/1607 VRB02KT 1500 BR \n  PROB40 1602/1607 0800 FG"
    },
    {
      "icao": "ENTO",
      "iata": "TRF",
      "name": "Sandefjord Airport, Torp",
      "updatedAt": "151620Z",
      "visibility_m": 2300,
      "taf_visibility_m": null,
      "worst_visibility_m": 2300,
      "ceiling_ft": 200,
      "hazards": [
        "RA"
      ],
      "severityScore": 52,
      "metarRaw": "METAR ENTO 151620Z 13008KT 2300 +RA VV002 01/01 Q1006 TEMPO 3000 -RA BKN006",
      "tafRaw": null
    },
    {
      "icao": "EPPO",
      "iata": "POZ",
      "name": "Poznań-Ławica Airport",
      "updatedAt": "151630Z",
      "visibility_m": 2700,
      "taf_visibility_m": null,
      "worst_visibility_m": 2700,
      "ceiling_ft": 300,
      "hazards": [
        "BR"
      ],
      "severityScore": 50,
      "metarRaw": "METAR EPPO 151630Z 11009KT 2700 BR BKN003 OVC045 01/01 Q1018",
      "tafRaw": null
    },
    {
      "icao": "ESGG",
      "iata": "GOT",
      "name": "Göteborg Landvetter Airport",
      "updatedAt": "151620Z",
      "visibility_m": 3800,
      "taf_visibility_m": null,
      "worst_visibility_m": 3800,
      "ceiling_ft": 300,
      "hazards": [
        "DZ"
      ],
      "severityScore": 50,
      "metarRaw": "METAR ESGG 151620Z 16009KT 3800 DZ OVC003 02/01 Q1009",
      "tafRaw": null
    },
    {
      "icao": "LRTM",
      "iata": "TGM",
      "name": "Târgu Mureş Transilvania International Airport",
      "updatedAt": "151630Z",
      "visibility_m": 2500,
      "taf_visibility_m": 1500,
      "worst_visibility_m": 1500,
      "ceiling_ft": 1400,
      "hazards": [
        "BR",
        "SN"
      ],
      "severityScore": 50,
      "metarRaw": "METAR LRTM 151630Z 24002KT 2500 BR SCT006 OVC014 00/M00 Q1023",
      "tafRaw": "TAF LRTM 151400Z 1515/1524 VRB04KT 3000 BR SCT010 BKN030 \n  TEMPO 1522/1524 1500 -SN BR BKN010 OVC025"
    },
    {
      "icao": "ENHD",
      "iata": "HAU",
      "name": "Haugesund Airport, Karmøy",
      "updatedAt": "151620Z",
      "visibility_m": 10000,
      "taf_visibility_m": 4000,
      "worst_visibility_m": 4000,
      "ceiling_ft": 1600,
      "hazards": [
        "RA",
        "DZ",
        "SHRA"
      ],
      "severityScore": 48,
      "metarRaw": "METAR ENHD 151620Z 14016KT 9999 SCT013 BKN016 BKN022 05/04 Q0999 RERA REDZ REDZRA",
      "tafRaw": "TAF ENHD 151400Z 1515/1523 13018KT 9999 -RA FEW015 BKN030 \n  TEMPO 1515/1518 14022G35KT \n  TEMPO 1515/1520 4000 SHRA BKN008 SCT018CB"
    },
    {
      "icao": "LKMT",
      "iata": "OSR",
      "name": "Ostrava Leos Janáček Airport",
      "updatedAt": "151630Z",
      "visibility_m": 4500,
      "taf_visibility_m": 2500,
      "worst_visibility_m": 2500,
      "ceiling_ft": 4400,
      "hazards": [
        "BR",
        "FZDZ",
        "DZ"
      ],
      "severityScore": 48,
      "metarRaw": "METAR LKMT 151630Z 23009KT 4500 BR BKN044 02/00 Q1019 NOSIG",
      "tafRaw": "TAF LKMT 151100Z 1512/1612 22008KT 6000 BKN025 \n  TEMPO 1512/1518 4500 BR BKN018 \n  PROB30 \n  TEMPO 1512/1518 2500 -FZDZ BR BKN006 OVC014"
    },
    {
      "icao": "EBCI",
      "iata": "CRL",
      "name": "Brussels South Charleroi Airport",
      "updatedAt": "151620Z",
      "visibility_m": 10000,
      "taf_visibility_m": 4000,
      "worst_visibility_m": 4000,
      "ceiling_ft": 800,
      "hazards": [
        "RA",
        "DZ"
      ],
      "severityScore": 47,
      "metarRaw": "METAR EBCI 151620Z 16009KT CAVOK 10/06 Q1007 NOSIG",
      "tafRaw": "TAF EBCI 151110Z 1512/1618 19012KT 9999 SCT020 \n  TEMPO 1523/1603 19017G28KT 4000 RA RADZ BKN008"
    },
    {
      "icao": "LPMA",
      "iata": "FNC",
      "name": "Madeira International Airport Cristiano Ronaldo",
      "updatedAt": "151630Z",
      "visibility_m": 10000,
      "taf_visibility_m": 5000,
      "worst_visibility_m": 5000,
      "ceiling_ft": 2500,
      "hazards": [
        "BR",
        "SHRA",
        "RA",
        "DZ"
      ],
      "severityScore": 46,
      "metarRaw": "METAR LPMA 151630Z 16004KT 110V200 9999 FEW015 BKN025 17/11 Q1024",
      "tafRaw": "TAF LPMA 151100Z 1512/1612 VRB05KT 9999 SCT015 \n  TEMPO 1512/1522 BKN015 \n  TEMPO 1522/1603 5000 RADZ BR SCT008 BKN013 \n  BECMG 1601/1603 35013KT \n  PROB30 \n  TEMPO 1603/1612 35017G27KT 8000 SHRA BKN013 FEW020TCU"
    },
    {
      "icao": "LPPS",
      "iata": "PXO",
      "name": "Porto Santo Airport",
      "updatedAt": "151630Z",
      "visibility_m": 10000,
      "taf_visibility_m": 5000,
      "worst_visibility_m": 5000,
      "ceiling_ft": 3000,
      "hazards": [
        "BR",
        "SHRA",
        "RA",
        "DZ"
      ],
      "severityScore": 46,
      "metarRaw": "METAR LPPS 151630Z 27013KT 9999 FEW015 BKN030 17/12 Q1023",
      "tafRaw": "TAF LPPS 151100Z 1512/1618 30010KT 9999 SCT015 BKN030 \n  TEMPO 1519/1601 5000 RADZ BR SCT006 BKN012 \n  BECMG 1601/1603 34013KT SCT015 \n  PROB30 \n  TEMPO 1603/1618 8000 SHRA BKN012 FEW018CB"
    },
    {
      "icao": "EPGD",
      "iata": "GDN",
      "name": "Gdańsk Lech Wałęsa Airport",
      "updatedAt": "151630Z",
      "visibility_m": 10000,
      "taf_visibility_m": 2500,
      "worst_visibility_m": 2500,
      "ceiling_ft": 300,
      "hazards": [
        "BR"
      ],
      "severityScore": 45,
      "metarRaw": "METAR EPGD 151630Z 14006KT CAVOK M01/M01 Q1019",
      "tafRaw": "TAF EPGD 151130Z 1512/1612 16010KT 8000 NSC \n  TEMPO 1512/1517 BKN008 \n  BECMG 1517/1519 BKN005 \n  TEMPO 1519/1612 2500 BR BKN003"
    },
    {
      "icao": "ESKN",
      "iata": "NYO",
      "name": "Stockholm Skavsta Airport",
      "updatedAt": "151620Z",
      "visibility_m": 10000,
      "taf_visibility_m": 2500,
      "worst_visibility_m": 2500,
      "ceiling_ft": 400,
      "hazards": [
        "BR"
      ],
      "severityScore": 45,
      "metarRaw": "METAR ESKN 151620Z 15004KT 130V190 9999 BKN004 01/01 Q1015",
      "tafRaw": "TAF ESKN 151430Z 1515/1615 19006KT 9999 OVC012 \n  TEMPO 1515/1520 2500 BR BKN003 \n  TEMPO 1520/1609 BKN006"
    },
    {
      "icao": "EPLB",
      "iata": "LUZ",
      "name": "Lublin Airport",
      "updatedAt": "151630Z",
      "visibility_m": 2900,
      "taf_visibility_m": null,
      "worst_visibility_m": 2900,
      "ceiling_ft": 500,
      "hazards": [
        "BR"
      ],
      "severityScore": 40,
      "metarRaw": "METAR EPLB 151630Z 08005KT 2900 BR OVC005 M03/M03 Q1022",
      "tafRaw": null
    },
    {
      "icao": "LIPX",
      "iata": "VRN",
      "name": "Verona Villafranca Valerio Catullo Airport",
      "updatedAt": "151620Z",
      "visibility_m": 5000,
      "taf_visibility_m": 1200,
      "worst_visibility_m": 1200,
      "ceiling_ft": 7000,
      "hazards": [
        "BR",
        "FG"
      ],
      "severityScore": 40,
      "metarRaw": "METAR LIPX 151620Z 20003KT 5000 BR SCT030 BKN070 07/05 Q1022",
      "tafRaw": "TAF LIPX 151100Z 1512/1612 VRB04KT 6000 BKN050 \n  TEMPO 1522/1608 1200 BCFG BKN010"
    },
    {
      "icao": "LRBC",
      "iata": "BCM",
      "name": "Bacău George Enescu International  Airport",
      "updatedAt": "151630Z",
      "visibility_m": 8000,
      "taf_visibility_m": 3000,
      "worst_visibility_m": 3000,
      "ceiling_ft": 1400,
      "hazards": [
        "BR",
        "SN"
      ],
      "severityScore": 40,
      "metarRaw": "METAR LRBC 151630Z 03003KT 350V060 8000 OVC014 M02/M06 Q1024",
      "tafRaw": "TAF LRBC 151400Z 1515/1524 36006KT 8000 OVC015 \n  PROB40 \n  TEMPO 1516/1521 5000 BR OVC010 \n  TEMPO 1521/1524 3000 -SN BR BKN010 OVC020"
    },
    {
      "icao": "EHBK",
      "iata": "MST",
      "name": "Maastricht Aachen Airport",
      "updatedAt": "151625Z",
      "visibility_m": 10000,
      "taf_visibility_m": 7000,
      "worst_visibility_m": 7000,
      "ceiling_ft": 1400,
      "hazards": [
        "RA",
        "SHRA"
      ],
      "severityScore": 38,
      "metarRaw": "METAR EHBK 151625Z AUTO 17012KT 9999 NSC 10/06 Q1008 NOSIG",
      "tafRaw": "TAF EHBK 151054Z 1512/1618 20012KT 9999 BKN020 \n  BECMG 1514/1517 16010KT \n  BECMG 1600/1603 21014KT \n  PROB30 \n  TEMPO 1602/1611 7000 -SHRA -RA BKN014 FEW020TCU \n  BECMG 1609/1612 18008KT"
    },
    {
      "icao": "EGBB",
      "iata": "BHX",
      "name": "Birmingham Airport",
      "updatedAt": "151620Z",
      "visibility_m": 5000,
      "taf_visibility_m": null,
      "worst_visibility_m": 5000,
      "ceiling_ft": 3600,
      "hazards": [
        "BR",
        "RA",
        "DZ"
      ],
      "severityScore": 37,
      "metarRaw": "METAR EGBB 151620Z 02006KT 5000 RADZ BR SCT006 BKN036 06/05 Q0997 REDZ",
      "tafRaw": null
    },
    {
      "icao": "LFPO",
      "iata": "ORY",
      "name": "Paris-Orly Airport",
      "updatedAt": "151630Z",
      "visibility_m": 10000,
      "taf_visibility_m": 4000,
      "worst_visibility_m": 4000,
      "ceiling_ft": 800,
      "hazards": [
        "RA"
      ],
      "severityScore": 37,
      "metarRaw": "METAR LFPO 151630Z 17007KT CAVOK 12/06 Q1006 NOSIG",
      "tafRaw": "TAF LFPO 151100Z 1512/1618 18010KT 9999 BKN012 \n  BECMG 1512/1515 BKN030 \n  TEMPO 1520/1602 21015G25KT 4000 -RA BKN012 \n  PROB40 \n  TEMPO 1521/1523 21015G30KT \n  BECMG 1602/1604 BKN008 \n  BECMG 1610/1612 BKN020 \n  PROB40 \n  TEMPO 1612/1614 BKN012 \n  BECMG 1616/1618 15004KT"
    },
    {
      "icao": "ENBR",
      "iata": "BGO",
      "name": "Bergen Airport, Flesland",
      "updatedAt": "151620Z",
      "visibility_m": 4000,
      "taf_visibility_m": 4000,
      "worst_visibility_m": 4000,
      "ceiling_ft": 2000,
      "hazards": [
        "SHRA",
        "BR",
        "RA"
      ],
      "severityScore": 36,
      "metarRaw": "METAR ENBR 151620Z 14015KT 9999 -SHRA FEW009 BKN020 05/02 Q0998 TEMPO 15018G28KT 4000 SHRA BKN012CB RMK WIND 1200FT 14028KT",
      "tafRaw": "TAF ENBR 151100Z 1512/1612 14012KT 9999 -SHRA FEW020 BKN040 \n  TEMPO 1512/1522 15018G28KT 4000 SHRA BKN012 SCT020CB \n  BECMG 1601/1603 08005KT"
    },
    {
      "icao": "LTFM",
      "iata": "IST",
      "name": "İstanbul Airport",
      "updatedAt": "151620Z",
      "visibility_m": 10000,
      "taf_visibility_m": 2500,
      "worst_visibility_m": 2500,
      "ceiling_ft": 7000,
      "hazards": [
        "BR",
        "SHRA",
        "RA"
      ],
      "severityScore": 36,
      "metarRaw": "METAR LTFM 151620Z 22013KT 9999 FEW025 BKN070 10/07 Q1022 NOSIG RMK RWY17L 21014KT RWY34L 21012KT RWY16R 21011KT RWY36 22011KT RWY18 22013KT",
      "tafRaw": "TAF LTFM 151040Z 1512/1618 23017G27KT 9999 FEW025 BKN070 \n  BECMG 1513/1516 24012KT \n  BECMG 1518/1520 VRB02KT \n  PROB30 1522/1602 2500 BR \n  BECMG 1606/1609 03017G27KT -SHRA SCT012 BKN022"
    },
    {
      "icao": "EPSY",
      "iata": "SZY",
      "name": "Olsztyn-Mazury Airport",
      "updatedAt": "151630Z",
      "visibility_m": 3200,
      "taf_visibility_m": 4000,
      "worst_visibility_m": 3200,
      "ceiling_ft": 500,
      "hazards": [
        "BR"
      ],
      "severityScore": 35,
      "metarRaw": "METAR EPSY 151630Z VRB02KT 3200 BR SCT032 M07/M07 Q1022",
      "tafRaw": "TAF EPSY 151430Z 1515/1524 14006KT 6000 BKN035 \n  PROB40 1515/1524 4000 BR BKN005"
    },
    {
      "icao": "LGTS",
      "iata": "SKG",
      "name": "Thessaloniki Macedonia International Airport",
      "updatedAt": "151620Z",
      "visibility_m": 10000,
      "taf_visibility_m": 4000,
      "worst_visibility_m": 4000,
      "ceiling_ft": null,
      "hazards": [
        "TS",
        "BR"
      ],
      "severityScore": 35,
      "metarRaw": "METAR LGTS 151620Z VRB02KT CAVOK 09/05 Q1023 NOSIG",
      "tafRaw": "TAF LGTS 151100Z 1512/1612 VRB03KT 9999 FEW030 \n  PROB30 1603/1607 4000 BR SCT008"
    },
    {
      "icao": "LIME",
      "iata": "BGY",
      "name": "Milan Bergamo Airport / Antonio Locatelli Air Base",
      "updatedAt": "151620Z",
      "visibility_m": 2500,
      "taf_visibility_m": 1200,
      "worst_visibility_m": 1200,
      "ceiling_ft": 1000,
      "hazards": [
        "BR"
      ],
      "severityScore": 32,
      "metarRaw": "METAR LIME 151620Z VRB01KT 2500 BR BKN010 06/05 Q1021 NOSIG",
      "tafRaw": "TAF LIME 151100Z 1512/1612 VRB04KT 3000 BR SCT010 BKN040 \n  TEMPO 1512/1518 6000 \n  TEMPO 1518/1606 1200 BKN005"
    },
    {
      "icao": "EDDN",
      "iata": "NUE",
      "name": "Nuremberg Airport",
      "updatedAt": "151620Z",
      "visibility_m": 10000,
      "taf_visibility_m": 1200,
      "worst_visibility_m": 1200,
      "ceiling_ft": 4000,
      "hazards": [
        "FG"
      ],
      "severityScore": 30,
      "metarRaw": "METAR EDDN 151620Z AUTO 10009KT CAVOK 06/04 Q1015 NOSIG",
      "tafRaw": "TAF EDDN 151100Z 1512/1612 12007KT 9999 FEW030 BKN040 \n  TEMPO 1518/1524 1200 BCFG"
    },
    {
      "icao": "EDNY",
      "iata": "FDH",
      "name": "Friedrichshafen Airport",
      "updatedAt": "151620Z",
      "visibility_m": 10000,
      "taf_visibility_m": 1200,
      "worst_visibility_m": 1200,
      "ceiling_ft": null,
      "hazards": [
        "FG"
      ],
      "severityScore": 30,
      "metarRaw": "METAR EDNY 151620Z 06002KT CAVOK 05/03 Q1014",
      "tafRaw": "TAF EDNY 151400Z 1515/1524 VRB02KT CAVOK \n  PROB30 \n  TEMPO 1518/1524 1200 BCFG"
    },
    {
      "icao": "EDSB",
      "iata": "FKB",
      "name": "Karlsruhe Baden-Baden Airport",
      "updatedAt": "151620Z",
      "visibility_m": 10000,
      "taf_visibility_m": 1200,
      "worst_visibility_m": 1200,
      "ceiling_ft": null,
      "hazards": [
        "FG"
      ],
      "severityScore": 30,
      "metarRaw": "METAR EDSB 151620Z VRB02KT CAVOK 10/06 Q1012",
      "tafRaw": "TAF EDSB 151100Z 1512/1612 19010KT CAVOK \n  BECMG 1515/1518 VRB02KT \n  PROB40 \n  TEMPO 1523/1608 1200 BCFG"
    },
    {
      "icao": "EYVI",
      "iata": "VNO",
      "name": "Vilnius International Airport",
      "updatedAt": "151650Z",
      "visibility_m": 9000,
      "taf_visibility_m": null,
      "worst_visibility_m": 9000,
      "ceiling_ft": 600,
      "hazards": [],
      "severityScore": 30,
      "metarRaw": "METAR EYVI 151650Z 16010KT 9000 OVC006 M13/M15 Q1025 NOSIG",
      "tafRaw": null
    },
    {
      "icao": "LIRZ",
      "iata": "PEG",
      "name": "Perugia San Francesco d'Assisi – Umbria International Airport",
      "updatedAt": "151620Z",
      "visibility_m": 10000,
      "taf_visibility_m": 1500,
      "worst_visibility_m": 1500,
      "ceiling_ft": null,
      "hazards": [
        "FG"
      ],
      "severityScore": 30,
      "metarRaw": "METAR LIRZ 151620Z AUTO VRB01KT 9999 BKN038/// OVC046/// 13/07 Q1021",
      "tafRaw": "TAF LIRZ 151100Z 1512/1612 VRB05KT 9999 SCT040 \n  TEMPO 1604/1609 1500 BCFG"
    },
    {
      "icao": "UGKO",
      "iata": "KUT",
      "name": "David the Builder Kutaisi International Airport",
      "updatedAt": "151630Z",
      "visibility_m": 10000,
      "taf_visibility_m": 3000,
      "worst_visibility_m": 3000,
      "ceiling_ft": 3000,
      "hazards": [
        "SN",
        "RA"
      ],
      "severityScore": 30,
      "metarRaw": "METAR UGKO 151630Z 08007KT CAVOK M01/M02 Q1023 NOSIG",
      "tafRaw": "TAF UGKO 151100Z 1512/1612 VRB02KT 9999 SCT020 BKN050 TX05/1512Z TNM01/1601Z \n  TEMPO 1512/1520 08012KT CAVOK \n  TEMPO 1601/1612 08012KT 3000 SHSNRA SCT008 BKN017CB OVC030"
    },
    {
      "icao": "EYKA",
      "iata": "KUN",
      "name": "Kaunas International Airport",
      "updatedAt": "151650Z",
      "visibility_m": 8000,
      "taf_visibility_m": 3000,
      "worst_visibility_m": 3000,
      "ceiling_ft": 3200,
      "hazards": [
        "BR",
        "SN"
      ],
      "severityScore": 28,
      "metarRaw": "METAR EYKA 151650Z 14008KT 120V240 8000 OVC032 M09/M12 Q1025",
      "tafRaw": "TAF EYKA 151100Z 1512/1612 VRB04KT 8000 SCT015 BKN020 \n  TEMPO 1512/1520 15010KT 5000 BR BKN010 OVC015 \n  PROB40 \n  TEMPO 1512/1520 3000 SN \n  BECMG 1520/1522 14010KT BKN010 BKN030 \n  TEMPO 1522/1609 BKN005 \n  BECMG 1609/1612 NSC"
    },
    {
      "icao": "LRIA",
      "iata": "IAS",
      "name": "Iaşi Airport",
      "updatedAt": "151630Z",
      "visibility_m": 6000,
      "taf_visibility_m": 3000,
      "worst_visibility_m": 3000,
      "ceiling_ft": 3700,
      "hazards": [
        "SN",
        "BR"
      ],
      "severityScore": 28,
      "metarRaw": "METAR LRIA 151630Z 35005KT 6000 -SN OVC037 M05/M07 Q1025",
      "tafRaw": "TAF LRIA 151400Z 1515/1524 VRB04KT 7000 BKN010 \n  BECMG 1515/1516 5000 BR \n  TEMPO 1516/1523 3000 -SN BR BKN005 OVC020"
    },
    {
      "icao": "LTAC",
      "iata": "ESB",
      "name": "Esenboğa International Airport",
      "updatedAt": "151620Z",
      "visibility_m": 10000,
      "taf_visibility_m": 2000,
      "worst_visibility_m": 2000,
      "ceiling_ft": 9000,
      "hazards": [
        "BR",
        "SN"
      ],
      "severityScore": 28,
      "metarRaw": "METAR LTAC 151620Z 30006KT 9999 SCT030 BKN090 02/M01 Q1022 NOSIG RMK RWY21C 25011KT RWY03L 27006KT 230V300 RWY21R 24011KT RWY03R 24008KT 190V270 RWY21L 25009KT",
      "tafRaw": "TAF LTAC 151040Z 1512/1612 22008KT 9999 SCT010 SCT040 BKN100 \n  TEMPO 1602/1606 2000 -SN BR SCT008 BKN030 BKN080"
    },
    {
      "icao": "LUKK",
      "iata": "RMO",
      "name": "Chişinău International Airport",
      "updatedAt": "151630Z",
      "visibility_m": 10000,
      "taf_visibility_m": 4000,
      "worst_visibility_m": 4000,
      "ceiling_ft": 4400,
      "hazards": [
        "BR",
        "SN"
      ],
      "severityScore": 28,
      "metarRaw": "METAR LUKK 151630Z 04008KT 9999 FEW018 SCT022 OVC044 M07/M10 Q1025 NOSIG",
      "tafRaw": "TAF LUKK 151105Z 1512/1612 03008KT 9999 BKN012 \n  TEMPO 1512/1515 4000 SN BR OVC008 \n  BECMG 1515/1517 CAVOK"
    },
    {
      "icao": "LZIB",
      "iata": "BTS",
      "name": "M. R. Štefánik Airport",
      "updatedAt": "151630Z",
      "visibility_m": 4500,
      "taf_visibility_m": null,
      "worst_visibility_m": 4500,
      "ceiling_ft": 1000,
      "hazards": [
        "BR"
      ],
      "severityScore": 27,
      "metarRaw": "METAR LZIB 151630Z 04006KT 4500 BR BKN010 M01/M01 Q1021 NOSIG",
      "tafRaw": null
    },
    {
      "icao": "ENZV",
      "iata": "SVG",
      "name": "Stavanger Airport, Sola",
      "updatedAt": "151620Z",
      "visibility_m": 10000,
      "taf_visibility_m": 4000,
      "worst_visibility_m": 4000,
      "ceiling_ft": 4500,
      "hazards": [
        "RA",
        "SHRA"
      ],
      "severityScore": 26,
      "metarRaw": "METAR ENZV 151620Z 15013KT 9999 FEW034 BKN045 05/03 Q1000 TEMPO 15020G35KT",
      "tafRaw": "TAF ENZV 151100Z 1512/1612 13015KT 9999 -SHRA FEW015 BKN030 \n  TEMPO 1512/1516 15020G35KT 4000 SHRA BKN009 SCT018CB \n  TEMPO 1600/1612 RA BKN012"
    },
    {
      "icao": "GCTS",
      "iata": "TFS",
      "name": "Tenerife Sur Airport",
      "updatedAt": "151630Z",
      "visibility_m": 10000,
      "taf_visibility_m": 10000,
      "worst_visibility_m": 10000,
      "ceiling_ft": 3000,
      "hazards": [
        "TS"
      ],
      "severityScore": 25,
      "metarRaw": "METAR GCTS 151630Z 09017KT 060V120 9999 SCT040 19/09 Q1023 NOSIG",
      "tafRaw": "TAF GCTS 151400Z 1515/1615 08016KT 9999 BKN030 TX22/1614Z TN13/1606Z \n  BECMG 1520/1522 03006KT"
    },
    {
      "icao": "UBBB",
      "iata": "GYD",
      "name": "Heydar Aliyev International Airport",
      "updatedAt": "151630Z",
      "visibility_m": 10000,
      "taf_visibility_m": 10000,
      "worst_visibility_m": 10000,
      "ceiling_ft": 600,
      "hazards": [],
      "severityScore": 25,
      "metarRaw": "METAR UBBB 151630Z 23002KT CAVOK 01/M02 Q1024 NOSIG",
      "tafRaw": "TAF UBBB 151051Z 1512/1612 01010KT 9999 SCT030 TX05/1512Z TN01/1601Z \n  BECMG 1513/1515 VRB04KT \n  TEMPO 1515/1518 04005KT \n  TEMPO 1518/1602 23005KT BKN006 \n  BECMG 1602/1604 19008KT \n  TEMPO 1606/1612 22014KT"
    },
    {
      "icao": "LEMG",
      "iata": "AGP",
      "name": "Málaga-Costa del Sol Airport",
      "updatedAt": "151630Z",
      "visibility_m": 10000,
      "taf_visibility_m": 4000,
      "worst_visibility_m": 4000,
      "ceiling_ft": 1200,
      "hazards": [
        "RA"
      ],
      "severityScore": 24,
      "metarRaw": "METAR LEMG 151630Z VRB02KT 9999 SCT070 15/08 Q1018 NOSIG",
      "tafRaw": "TAF LEMG 151100Z 1512/1612 29006KT 9999 SCT040 TX18/1514Z TN11/1607Z \n  TEMPO 1604/1612 4000 RA BKN012"
    },
    {
      "icao": "EPRA",
      "iata": "RDO",
      "name": "Warsaw Radom Airport",
      "updatedAt": "151630Z",
      "visibility_m": 10000,
      "taf_visibility_m": 4000,
      "worst_visibility_m": 4000,
      "ceiling_ft": 2600,
      "hazards": [
        "RA",
        "BR"
      ],
      "severityScore": 22,
      "metarRaw": "METAR EPRA 151630Z 11005KT 9999 BKN026 01/M01 Q1021",
      "tafRaw": "TAF EPRA 151430Z 1515/1524 11005KT 9999 BKN025 \n  PROB40 1516/1520 4000 BR BKN012"
    },
    {
      "icao": "LEBB",
      "iata": "BIO",
      "name": "Bilbao Airport",
      "updatedAt": "151630Z",
      "visibility_m": 3000,
      "taf_visibility_m": 3000,
      "worst_visibility_m": 3000,
      "ceiling_ft": 6600,
      "hazards": [
        "RA",
        "BR"
      ],
      "severityScore": 22,
      "metarRaw": "METAR LEBB 151630Z 20016G32KT 140V280 9999 -RA BKN066 14/05 Q1010 TEMPO 3000 RA",
      "tafRaw": "TAF LEBB 151100Z 1512/1612 20009KT 9999 FEW025 SCT060 TX16/1512Z TN05/1607Z \n  TEMPO 1512/1517 20018G29KT \n  TEMPO 1512/1515 20024G44KT \n  PROB40 \n  TEMPO 1515/1520 3000 RA \n  PROB30 \n  TEMPO 1603/1607 3000 BR \n  PROB40 \n  TEMPO 1600/1612 12010KT"
    },
    {
      "icao": "LEBL",
      "iata": "BCN",
      "name": "Josep Tarradellas Barcelona-El Prat Airport",
      "updatedAt": "151630Z",
      "visibility_m": 10000,
      "taf_visibility_m": 3000,
      "worst_visibility_m": 3000,
      "ceiling_ft": 1000,
      "hazards": [
        "BR"
      ],
      "severityScore": 22,
      "metarRaw": "METAR LEBL 151630Z 22008KT CAVOK 13/09 Q1015 NOSIG",
      "tafRaw": "TAF LEBL 151100Z 1512/1612 21010KT 9999 FEW015 TX15/1512Z TN06/1606Z \n  BECMG 1520/1522 34007KT \n  PROB30 \n  TEMPO 1600/1606 3000 BR BKN010"
    },
    {
      "icao": "LIPH",
      "iata": "TSF",
      "name": "Treviso Antonio Canova Airport",
      "updatedAt": "151620Z",
      "visibility_m": 8000,
      "taf_visibility_m": 2000,
      "worst_visibility_m": 2000,
      "ceiling_ft": 1000,
      "hazards": [
        "BR"
      ],
      "severityScore": 22,
      "metarRaw": "METAR LIPH 151620Z 18001KT 8000 SCT090 07/05 Q1022",
      "tafRaw": "TAF LIPH 151100Z 1512/1612 VRB04KT 6000 SCT040 \n  TEMPO 1519/1607 2000 BR BKN010"
    },
    {
      "icao": "LIPY",
      "iata": "AOI",
      "name": "Marche Airport",
      "updatedAt": "151620Z",
      "visibility_m": 2700,
      "taf_visibility_m": 2000,
      "worst_visibility_m": 2000,
      "ceiling_ft": 1000,
      "hazards": [
        "BR"
      ],
      "severityScore": 22,
      "metarRaw": "METAR LIPY 151620Z AUTO VRB02KT 2700 BR OVC081/// 09/08 Q1021",
      "tafRaw": "TAF LIPY 151100Z 1512/1612 VRB05KT 7000 SCT060 \n  TEMPO 1519/1607 2000 BR BKN010"
    },
    {
      "icao": "LIPZ",
      "iata": "VCE",
      "name": "Venice Marco Polo Airport",
      "updatedAt": "151620Z",
      "visibility_m": 7000,
      "taf_visibility_m": 2000,
      "worst_visibility_m": 2000,
      "ceiling_ft": 1000,
      "hazards": [
        "BR"
      ],
      "severityScore": 22,
      "metarRaw": "METAR LIPZ 151620Z 21004KT 7000 SCT030 07/04 Q1022 NOSIG",
      "tafRaw": "TAF LIPZ 151100Z 1512/1618 VRB04KT 6000 SCT040 \n  TEMPO 1521/1607 2000 BR BKN010"
    },
    {
      "icao": "LYBE",
      "iata": "BEG",
      "name": "Belgrade Nikola Tesla Airport",
      "updatedAt": "151630Z",
      "visibility_m": 8000,
      "taf_visibility_m": 4000,
      "worst_visibility_m": 4000,
      "ceiling_ft": null,
      "hazards": [
        "BR",
        "RA"
      ],
      "severityScore": 22,
      "metarRaw": "METAR LYBE 151630Z 01003KT 8000 NSC 05/02 Q1022 NOSIG",
      "tafRaw": "TAF LYBE 151100Z 1512/1612 18005KT 9999 SCT045 TX08/1513Z TN02/1606Z \n  PROB40 \n  TEMPO 1603/1607 4000 -RA BR"
    },
    {
      "icao": "EDDS",
      "iata": "STR",
      "name": "Stuttgart Airport",
      "updatedAt": "151620Z",
      "visibility_m": 10000,
      "taf_visibility_m": 1800,
      "worst_visibility_m": 1800,
      "ceiling_ft": null,
      "hazards": [
        "FG"
      ],
      "severityScore": 20,
      "metarRaw": "METAR EDDS 151620Z AUTO 14003KT CAVOK 09/04 Q1012 NOSIG",
      "tafRaw": "TAF EDDS 151100Z 1512/1612 VRB03KT CAVOK \n  PROB30 \n  TEMPO 1602/1609 1800 BCFG"
    },
    {
      "icao": "LEMD",
      "iata": "MAD",
      "name": "Adolfo Suárez Madrid–Barajas Airport",
      "updatedAt": "151630Z",
      "visibility_m": 10000,
      "taf_visibility_m": null,
      "worst_visibility_m": 10000,
      "ceiling_ft": 2800,
      "hazards": [
        "RA"
      ],
      "severityScore": 17,
      "metarRaw": "METAR LEMD 151630Z COR 21009G19KT 150V240 9999 -RA BKN028 BKN040 08/04 Q1016 NOSIG",
      "tafRaw": null
    },
    {
      "icao": "LFBD",
      "iata": "BOD",
      "name": "Bordeaux–Mérignac Airport",
      "updatedAt": "151630Z",
      "visibility_m": 4000,
      "taf_visibility_m": null,
      "worst_visibility_m": 4000,
      "ceiling_ft": 4000,
      "hazards": [
        "RA"
      ],
      "severityScore": 17,
      "metarRaw": "METAR LFBD 151630Z AUTO 22012KT 9999 -RA ///TCU 13/06 Q1009 TEMPO 4000 -RA BKN040",
      "tafRaw": null
    },
    {
      "icao": "LRBV",
      "iata": "GHV",
      "name": "Brașov-Ghimbav International Airport",
      "updatedAt": "151630Z",
      "visibility_m": 6000,
      "taf_visibility_m": null,
      "worst_visibility_m": 6000,
      "ceiling_ft": 2000,
      "hazards": [
        "RA"
      ],
      "severityScore": 17,
      "metarRaw": "METAR LRBV 151630Z 31006KT 6000 -RA FEW005 BKN020 OVC028 01/01 Q1021",
      "tafRaw": null
    },
    {
      "icao": "EPRZ",
      "iata": "RZE",
      "name": "Rzeszów-Jasionka Airport",
      "updatedAt": "151630Z",
      "visibility_m": 5000,
      "taf_visibility_m": null,
      "worst_visibility_m": 5000,
      "ceiling_ft": 2200,
      "hazards": [
        "BR"
      ],
      "severityScore": 15,
      "metarRaw": "METAR EPRZ 151630Z 14005KT 5000 BR BKN022 01/00 Q1021",
      "tafRaw": null
    },
    {
      "icao": "LRBS",
      "iata": "BBU",
      "name": "Bucharest Băneasa Aurel Vlaicu International Airport",
      "updatedAt": "151630Z",
      "visibility_m": 5000,
      "taf_visibility_m": null,
      "worst_visibility_m": 5000,
      "ceiling_ft": null,
      "hazards": [
        "BR"
      ],
      "severityScore": 15,
      "metarRaw": "METAR LRBS 151630Z 05006KT 5000 BR NSC M00/M02 Q1023 NOSIG",
      "tafRaw": null
    },
    {
      "icao": "LROP",
      "iata": "OTP",
      "name": "Bucharest Henri Coandă International Airport",
      "updatedAt": "151630Z",
      "visibility_m": 5000,
      "taf_visibility_m": null,
      "worst_visibility_m": 5000,
      "ceiling_ft": null,
      "hazards": [
        "BR"
      ],
      "severityScore": 15,
      "metarRaw": "METAR LROP 151630Z 06009KT 5000 BR NSC M00/M02 Q1023 NOSIG",
      "tafRaw": null
    },
    {
      "icao": "GMMN",
      "iata": "CMN",
      "name": "Mohammed V International Airport",
      "updatedAt": "151630Z",
      "visibility_m": 10000,
      "taf_visibility_m": 5000,
      "worst_visibility_m": 5000,
      "ceiling_ft": 2000,
      "hazards": [
        "RA"
      ],
      "severityScore": 12,
      "metarRaw": "METAR GMMN 151630Z 31008KT 280V340 9999 BKN020 SCT200 15/10 Q1022 NOSIG",
      "tafRaw": "TAF GMMN 151100Z 1512/1618 26006KT 9999 FEW020 \n  BECMG 1600/1602 20008KT 9999 BKN026 \n  TEMPO 1612/1618 22015KT 5000 RA SCT006 BKN020"
    },
    {
      "icao": "GMMX",
      "iata": "RAK",
      "name": "Menara Airport",
      "updatedAt": "151630Z",
      "visibility_m": 10000,
      "taf_visibility_m": 4000,
      "worst_visibility_m": 4000,
      "ceiling_ft": 2600,
      "hazards": [
        "RA"
      ],
      "severityScore": 12,
      "metarRaw": "METAR GMMX 151630Z 30004KT 280V340 9999 FEW030 15/08 Q1021 NOSIG",
      "tafRaw": "TAF GMMX 151100Z 1512/1618 06006KT 8000 SCT026 \n  TEMPO 1515/1521 34016KT \n  TEMPO 1616/1618 34016KT 4000 RA FEW010 BKN026 SCT090"
    },
    {
      "icao": "EDFH",
      "iata": "HHN",
      "name": "Frankfurt-Hahn Airport",
      "updatedAt": "151620Z",
      "visibility_m": 10000,
      "taf_visibility_m": 10000,
      "worst_visibility_m": 10000,
      "ceiling_ft": 1000,
      "hazards": [],
      "severityScore": 12,
      "metarRaw": "METAR EDFH 151620Z 13007KT 9999 FEW016 06/04 Q1011",
      "tafRaw": "TAF EDFH 151100Z 1512/1612 19012KT 9999 BKN030 \n  PROB30 \n  TEMPO 1512/1515 20015G25KT BKN012 \n  PROB30 \n  TEMPO 1521/1605 14015G25KT \n  TEMPO 1606/1612 BKN010"
    },
    {
      "icao": "LEXJ",
      "iata": "SDR",
      "name": "Seve Ballesteros-Santander Airport",
      "updatedAt": "151630Z",
      "visibility_m": 10000,
      "taf_visibility_m": 10000,
      "worst_visibility_m": 10000,
      "ceiling_ft": 6800,
      "hazards": [
        "RA"
      ],
      "severityScore": 12,
      "metarRaw": "METAR LEXJ 151630Z 21014G27KT 160V250 9999 FEW050 BKN068 14/04 Q1009",
      "tafRaw": "TAF LEXJ 151400Z 1515/1615 21009KT 9999 SCT040 BKN070 TX16/1615Z TN07/1608Z \n  TEMPO 1515/1518 20018G33KT \n  TEMPO 1515/1517 20025G43KT \n  PROB30 \n  TEMPO 1515/1517 RA \n  PROB40 \n  TEMPO 1517/1521 RA"
    },
    {
      "icao": "LIMJ",
      "iata": "GOA",
      "name": "Genoa Cristoforo Colombo Airport",
      "updatedAt": "151620Z",
      "visibility_m": 10000,
      "taf_visibility_m": 10000,
      "worst_visibility_m": 10000,
      "ceiling_ft": null,
      "hazards": [
        "RA"
      ],
      "severityScore": 12,
      "metarRaw": "METAR LIMJ 151620Z 06011KT 9999 SCT018 SCT032 12/07 Q1020",
      "tafRaw": "TAF LIMJ 151100Z 1512/1612 04008KT 9999 SCT020 SCT050 \n  TEMPO 1512/1612 RA"
    },
    {
      "icao": "LIRP",
      "iata": "PSA",
      "name": "Pisa International Airport",
      "updatedAt": "151615Z",
      "visibility_m": 10000,
      "taf_visibility_m": 10000,
      "worst_visibility_m": 10000,
      "ceiling_ft": 3000,
      "hazards": [
        "RA"
      ],
      "severityScore": 12,
      "metarRaw": "METAR LIRP 151615Z 15003KT 9999 FEW020 BKN030 12/10 Q1020 NOSIG",
      "tafRaw": "TAF LIRP 151100Z 1512/1612 12005KT 9999 SCT020 SCT040 \n  TEMPO 1512/1520 RA BKN015"
    },
    {
      "icao": "LJLJ",
      "iata": "LJU",
      "name": "Ljubljana Jože Pučnik Airport",
      "updatedAt": "151630Z",
      "visibility_m": 10000,
      "taf_visibility_m": 10000,
      "worst_visibility_m": 10000,
      "ceiling_ft": 4500,
      "hazards": [
        "RA"
      ],
      "severityScore": 12,
      "metarRaw": "METAR LJLJ 151630Z VRB01KT 9999 FEW030 BKN045 02/02 Q1020 NOSIG",
      "tafRaw": "TAF LJLJ 151100Z 1512/1612 30003KT 9999 FEW040 BKN060 \n  PROB30 \n  TEMPO 1516/1612 -RA"
    },
    {
      "icao": "EDDH",
      "iata": "HAM",
      "name": "Hamburg Helmut Schmidt Airport",
      "updatedAt": "151620Z",
      "visibility_m": 10000,
      "taf_visibility_m": 4500,
      "worst_visibility_m": 4500,
      "ceiling_ft": 3100,
      "hazards": [
        "BR"
      ],
      "severityScore": 10,
      "metarRaw": "METAR EDDH 151620Z AUTO 15009KT 9999 SCT022 BKN031 BKN046 07/06 Q1010 NOSIG",
      "tafRaw": "TAF EDDH 151100Z 1512/1618 15008KT 9999 SCT020 \n  PROB30 \n  TEMPO 1512/1514 4500 BR BKN004"
    },
    {
      "icao": "EGPD",
      "iata": "ABZ",
      "name": "Aberdeen International Airport",
      "updatedAt": "151620Z",
      "visibility_m": 10000,
      "taf_visibility_m": 5000,
      "worst_visibility_m": 5000,
      "ceiling_ft": null,
      "hazards": [
        "BR"
      ],
      "severityScore": 10,
      "metarRaw": "METAR EGPD 151620Z COR AUTO 17008KT 9999 NCD 03/01 Q0995 NOSIG",
      "tafRaw": "TAF EGPD 151102Z 1512/1612 20008KT 9999 FEW015 \n  PROB30 \n  TEMPO 1521/1610 5000 BR"
    },
    {
      "icao": "HESX",
      "iata": "SPX",
      "name": "Sphinx International Airport",
      "updatedAt": "151600Z",
      "visibility_m": 10000,
      "taf_visibility_m": 4000,
      "worst_visibility_m": 4000,
      "ceiling_ft": 3000,
      "hazards": [
        "BR"
      ],
      "severityScore": 10,
      "metarRaw": "METAR HESX 151600Z 01006KT 9999 SCT020 BKN030 16/08 Q1024 NOSIG",
      "tafRaw": "TAF HESX 151101Z 1512/1618 35010KT 9999 FEW020 BKN070 \n  TEMPO 1600/1606 VRB03KT 4000 BR NSC"
    },
    {
      "icao": "LBPD",
      "iata": "PDV",
      "name": "Plovdiv International Airport",
      "updatedAt": "151630Z",
      "visibility_m": 10000,
      "taf_visibility_m": 3000,
      "worst_visibility_m": 3000,
      "ceiling_ft": 7000,
      "hazards": [
        "BR"
      ],
      "severityScore": 10,
      "metarRaw": "METAR LBPD 151630Z AUTO 25005KT 9999 NCD 09/02 Q1022 NOSIG",
      "tafRaw": "TAF LBPD 151100Z 1512/1612 28010KT 9999 BKN070 \n  BECMG 1518/1520 VRB03KT \n  PROB40 \n  TEMPO 1600/1606 3000 BR SCT015 \n  BECMG 1606/1607 10010KT"
    },
    {
      "icao": "LEAL",
      "iata": "ALC",
      "name": "Alicante-Elche Miguel Hernández Airport",
      "updatedAt": "151630Z",
      "visibility_m": 10000,
      "taf_visibility_m": 3000,
      "worst_visibility_m": 3000,
      "ceiling_ft": null,
      "hazards": [
        "BR"
      ],
      "severityScore": 10,
      "metarRaw": "METAR LEAL 151630Z 19007KT 160V230 CAVOK 16/10 Q1017 NOSIG",
      "tafRaw": "TAF LEAL 151100Z 1512/1612 VRB04KT CAVOK TX17/1513Z TN07/1606Z \n  PROB40 \n  TEMPO 1518/1524 3000 BR"
    },
    {
      "icao": "LGAV",
      "iata": "ATH",
      "name": "Athens Eleftherios Venizelos International Airport",
      "updatedAt": "151620Z",
      "visibility_m": 10000,
      "taf_visibility_m": 4000,
      "worst_visibility_m": 4000,
      "ceiling_ft": null,
      "hazards": [
        "BR"
      ],
      "severityScore": 10,
      "metarRaw": "METAR LGAV 151620Z VRB01KT 9999 FEW030 09/04 Q1024 NOSIG",
      "tafRaw": "TAF LGAV 151100Z 1512/1612 VRB05KT 9999 FEW016 SCT025 \n  PROB40 \n  TEMPO 1603/1606 4000 BR SCT008"
    },
    {
      "icao": "LIBP",
      "iata": "PSR",
      "name": "Abruzzo Airport",
      "updatedAt": "151620Z",
      "visibility_m": 10000,
      "taf_visibility_m": 4000,
      "worst_visibility_m": 4000,
      "ceiling_ft": null,
      "hazards": [
        "BR"
      ],
      "severityScore": 10,
      "metarRaw": "METAR LIBP 151620Z AUTO VRB02KT 9999 NCD 11/06 Q1021",
      "tafRaw": "TAF LIBP 151100Z 1512/1612 VRB05KT CAVOK \n  TEMPO 1521/1607 4000 BR"
    },
    {
      "icao": "LWSK",
      "iata": "SKP",
      "name": "Skopje International Airport",
      "updatedAt": "151650Z",
      "visibility_m": 10000,
      "taf_visibility_m": 3000,
      "worst_visibility_m": 3000,
      "ceiling_ft": null,
      "hazards": [
        "BR"
      ],
      "severityScore": 10,
      "metarRaw": "METAR LWSK 151650Z VRB02KT CAVOK 02/M00 Q1024 NOSIG",
      "tafRaw": "TAF LWSK 151420Z 1515/1615 VRB02KT CAVOK \n  PROB30 \n  TEMPO 1603/1609 3000 BR NSC"
    },
    {
      "icao": "UDSG",
      "iata": "LWN",
      "name": "Shirak International Airport",
      "updatedAt": "151630Z",
      "visibility_m": 10000,
      "taf_visibility_m": 5000,
      "worst_visibility_m": 5000,
      "ceiling_ft": null,
      "hazards": [
        "BR"
      ],
      "severityScore": 10,
      "metarRaw": "METAR UDSG 151630Z 04006KT 9999 NSC M18/M21 Q1020 NOSIG",
      "tafRaw": "TAF UDSG 151058Z 1512/1612 VRB06KT 9999 FEW040 \n  TEMPO 1514/1524 5000 BR"
    },
    {
      "icao": "UDYZ",
      "iata": "EVN",
      "name": "Zvartnots International Airport",
      "updatedAt": "151630Z",
      "visibility_m": 10000,
      "taf_visibility_m": 2300,
      "worst_visibility_m": 2300,
      "ceiling_ft": null,
      "hazards": [
        "BR"
      ],
      "severityScore": 10,
      "metarRaw": "METAR UDYZ 151630Z VRB02KT 9999 NSC M04/M08 Q1021 NOSIG",
      "tafRaw": "TAF UDYZ 151100Z 1512/1612 VRB06KT 6000 FEW040 \n  TEMPO 1520/1606 2300 BR"
    },
    {
      "icao": "EGGP",
      "iata": "LPL",
      "name": "Liverpool John Lennon Airport",
      "updatedAt": "151620Z",
      "visibility_m": 10000,
      "taf_visibility_m": null,
      "worst_visibility_m": 10000,
      "ceiling_ft": null,
      "hazards": [],
      "severityScore": 5,
      "metarRaw": "METAR EGGP 151620Z 08003KT CAVOK 04/03 Q0998",
      "tafRaw": null
    },
    {
      "icao": "LECH",
      "iata": "CDT",
      "name": "Castellón-Costa Azahar Airport",
      "updatedAt": "151630Z",
      "visibility_m": 10000,
      "taf_visibility_m": null,
      "worst_visibility_m": 10000,
      "ceiling_ft": null,
      "hazards": [],
      "severityScore": 5,
      "metarRaw": "METAR LECH 151630Z AUTO 12004KT CAVOK 11/08 Q1015",
      "tafRaw": null
    },
    {
      "icao": "LEZG",
      "iata": "ZAZ",
      "name": "Zaragoza Airport",
      "updatedAt": "151630Z",
      "visibility_m": 10000,
      "taf_visibility_m": null,
      "worst_visibility_m": 10000,
      "ceiling_ft": null,
      "hazards": [],
      "severityScore": 5,
      "metarRaw": "METAR LEZG 151630Z VRB02KT CAVOK 12/05 Q1015 NOSIG",
      "tafRaw": null
    },
    {
      "icao": "LEZL",
      "iata": "SVQ",
      "name": "Sevilla Airport",
      "updatedAt": "151630Z",
      "visibility_m": 9000,
      "taf_visibility_m": null,
      "worst_visibility_m": 9000,
      "ceiling_ft": null,
      "hazards": [],
      "severityScore": 5,
      "metarRaw": "METAR LEZL 151630Z VRB02KT 9000 NSC 13/10 Q1019 NOSIG",
      "tafRaw": null
    },
    {
      "icao": "LFOB",
      "iata": "BVA",
      "name": "Beauvais Tillé airport",
      "updatedAt": "151630Z",
      "visibility_m": 10000,
      "taf_visibility_m": null,
      "worst_visibility_m": 10000,
      "ceiling_ft": 4000,
      "hazards": [],
      "severityScore": 5,
      "metarRaw": "METAR LFOB 151630Z AUTO 17013KT 9999 BKN040 BKN046 OVC160 12/06 Q1004 NOSIG",
      "tafRaw": null
    },
    {
      "icao": "LPPR",
      "iata": "OPO",
      "name": "Francisco de Sá Carneiro Airport",
      "updatedAt": "151630Z",
      "visibility_m": 10000,
      "taf_visibility_m": null,
      "worst_visibility_m": 10000,
      "ceiling_ft": null,
      "hazards": [],
      "severityScore": 5,
      "metarRaw": "METAR LPPR 151630Z 33006KT 290V350 9999 VCSH SCT012 SCT022 13/11 Q1013",
      "tafRaw": null
    },
    {
      "icao": "OMDB",
      "iata": "DXB",
      "name": "Dubai International Airport",
      "updatedAt": "151630Z",
      "visibility_m": 10000,
      "taf_visibility_m": null,
      "worst_visibility_m": 10000,
      "ceiling_ft": 3000,
      "hazards": [],
      "severityScore": 5,
      "metarRaw": "METAR OMDB 151630Z 28012KT 9999 BKN030 24/17 Q1017 NOSIG",
      "tafRaw": null
    },
    {
      "icao": "BIKF",
      "iata": "KEF",
      "name": "Keflavik International Airport",
      "updatedAt": "151630Z",
      "visibility_m": 10000,
      "taf_visibility_m": 10000,
      "worst_visibility_m": 10000,
      "ceiling_ft": null,
      "hazards": [],
      "severityScore": 0,
      "metarRaw": "METAR BIKF 151630Z 03017KT CAVOK 00/M03 Q0989",
      "tafRaw": "TAF BIKF 151640Z 1518/1618 02020KT 9999 FEW025 SCT045 TX02/1614Z TN00/1521Z \n  BECMG 1616/1618 02010KT"
    },
    {
      "icao": "GCFV",
      "iata": "FUE",
      "name": "Fuerteventura Airport",
      "updatedAt": "151630Z",
      "visibility_m": 10000,
      "taf_visibility_m": 10000,
      "worst_visibility_m": 10000,
      "ceiling_ft": null,
      "hazards": [],
      "severityScore": 0,
      "metarRaw": "METAR GCFV 151630Z 04013KT 9999 SCT035 19/11 Q1023",
      "tafRaw": "TAF GCFV 151400Z 1515/1615 04010KT 9999 SCT030 TX22/1614Z TN14/1606Z \n  TEMPO 1521/1609 34006KT \n  BECMG 1614/1615 34010KT"
    },
    {
      "icao": "GCLP",
      "iata": "LPA",
      "name": "Gran Canaria Airport",
      "updatedAt": "151630Z",
      "visibility_m": 10000,
      "taf_visibility_m": 10000,
      "worst_visibility_m": 10000,
      "ceiling_ft": 3800,
      "hazards": [],
      "severityScore": 0,
      "metarRaw": "METAR GCLP 151630Z 02018KT 350V050 9999 BKN038 19/10 Q1023 NOSIG",
      "tafRaw": "TAF GCLP 151400Z 1515/1615 02016KT 9999 SCT030 TX22/1614Z TN15/1606Z"
    },
    {
      "icao": "GMAD",
      "iata": "AGA",
      "name": "Al Massira Airport",
      "updatedAt": "151630Z",
      "visibility_m": 10000,
      "taf_visibility_m": 8000,
      "worst_visibility_m": 8000,
      "ceiling_ft": null,
      "hazards": [],
      "severityScore": 0,
      "metarRaw": "METAR GMAD 151630Z 27010KT 9999 FEW030 17/13 Q1020 NOSIG",
      "tafRaw": "TAF GMAD 151100Z 1512/1618 27010KT 8000 FEW030"
    },
    {
      "icao": "EDDK",
      "iata": "CGN",
      "name": "Cologne Bonn Airport",
      "updatedAt": "151620Z",
      "visibility_m": 10000,
      "taf_visibility_m": 10000,
      "worst_visibility_m": 10000,
      "ceiling_ft": 3000,
      "hazards": [],
      "severityScore": 0,
      "metarRaw": "METAR EDDK 151620Z AUTO 15008KT CAVOK 09/06 Q1011 NOSIG",
      "tafRaw": "TAF EDDK 151100Z 1512/1618 15009KT 9999 BKN030"
    },
    {
      "icao": "EDJA",
      "iata": "FMM",
      "name": "Memmingen Allgau Airport",
      "updatedAt": "151620Z",
      "visibility_m": 10000,
      "taf_visibility_m": 10000,
      "worst_visibility_m": 10000,
      "ceiling_ft": null,
      "hazards": [],
      "severityScore": 0,
      "metarRaw": "METAR EDJA 151620Z 06004KT CAVOK 04/01 Q1014",
      "tafRaw": "TAF EDJA 151400Z 1515/1524 22005KT CAVOK \n  BECMG 1515/1517 12004KT"
    },
    {
      "icao": "EDLW",
      "iata": "DTM",
      "name": "Dortmund Airport",
      "updatedAt": "151620Z",
      "visibility_m": 10000,
      "taf_visibility_m": 10000,
      "worst_visibility_m": 10000,
      "ceiling_ft": null,
      "hazards": [],
      "severityScore": 0,
      "metarRaw": "METAR EDLW 151620Z 16009KT CAVOK 10/06 Q1009",
      "tafRaw": "TAF EDLW 151100Z 1512/1612 18013KT 9999 SCT035 \n  PROB40 \n  TEMPO 1520/1606 17015G25KT \n  BECMG 1609/1612 18008KT"
    },
    {
      "icao": "EHEH",
      "iata": "EIN",
      "name": "Eindhoven Airport",
      "updatedAt": "151625Z",
      "visibility_m": 10000,
      "taf_visibility_m": 10000,
      "worst_visibility_m": 10000,
      "ceiling_ft": 6000,
      "hazards": [],
      "severityScore": 0,
      "metarRaw": "METAR EHEH 151625Z AUTO 16008KT 140V220 9999 FEW054 BKN060 OVC120 10/07 Q1007 BLU NOSIG",
      "tafRaw": "TAF EHEH 151106Z 1512/1618 19010KT 9999 BKN020 \n  TEMPO 1512/1513 SCT010 BKN012 \n  BECMG 1515/1517 16010KT \n  TEMPO 1600/1606 21012G25KT SCT012 BKN015 \n  BECMG 1601/1603 19007KT"
    },
    {
      "icao": "ENAL",
      "iata": "AES",
      "name": "Ålesund Airport, Vigra",
      "updatedAt": "151620Z",
      "visibility_m": 10000,
      "taf_visibility_m": 10000,
      "worst_visibility_m": 10000,
      "ceiling_ft": null,
      "hazards": [],
      "severityScore": 0,
      "metarRaw": "METAR ENAL 151620Z 14012KT 9999 FEW045 07/M04 Q0996",
      "tafRaw": "TAF ENAL 151400Z 1515/1524 12008KT 9999 SCT060 \n  PROB40 \n  TEMPO 1519/1524 SCT035CB \n  BECMG 1520/1522 17018KT"
    },
    {
      "icao": "ENTC",
      "iata": "TOS",
      "name": "Tromsø Airport, Langnes",
      "updatedAt": "151620Z",
      "visibility_m": 10000,
      "taf_visibility_m": 10000,
      "worst_visibility_m": 10000,
      "ceiling_ft": null,
      "hazards": [],
      "severityScore": 0,
      "metarRaw": "METAR ENTC 151620Z 19017KT CAVOK M01/M08 Q1007 NOSIG RMK WIND 2600FT 15012KT",
      "tafRaw": "TAF ENTC 151100Z 1512/1612 20008KT CAVOK \n  TEMPO 1514/1521 20018KT"
    },
    {
      "icao": "ENVA",
      "iata": "TRD",
      "name": "Trondheim Airport, Værnes",
      "updatedAt": "151620Z",
      "visibility_m": 10000,
      "taf_visibility_m": 10000,
      "worst_visibility_m": 10000,
      "ceiling_ft": null,
      "hazards": [],
      "severityScore": 0,
      "metarRaw": "METAR ENVA 151620Z 09007KT 030V120 CAVOK 03/M04 Q1002 TEMPO 16020G30KT RMK WIND 670FT 08007KT",
      "tafRaw": "TAF ENVA 151100Z 1512/1612 09008KT CAVOK \n  TEMPO 1516/1524 16020G30KT"
    },
    {
      "icao": "HEGN",
      "iata": "HRG",
      "name": "Hurghada International Airport",
      "updatedAt": "151600Z",
      "visibility_m": 10000,
      "taf_visibility_m": 10000,
      "worst_visibility_m": 10000,
      "ceiling_ft": null,
      "hazards": [],
      "severityScore": 0,
      "metarRaw": "METAR HEGN 151600Z 35009KT CAVOK 18/09 Q1022 NOSIG",
      "tafRaw": "TAF HEGN 151100Z 1512/1618 35010G20KT CAVOK"
    },
    {
      "icao": "HEMA",
      "iata": "RMF",
      "name": "Marsa Alam International Airport",
      "updatedAt": "151600Z",
      "visibility_m": 10000,
      "taf_visibility_m": 6000,
      "worst_visibility_m": 6000,
      "ceiling_ft": null,
      "hazards": [],
      "severityScore": 0,
      "metarRaw": "METAR HEMA 151600Z 34016KT 9999 SCT020 SCT025 19/10 Q1020 NOSIG",
      "tafRaw": "TAF HEMA 151100Z 1512/1618 36015G25KT 6000 SCT025"
    },
    {
      "icao": "HESH",
      "iata": "SSH",
      "name": "Sharm El Sheikh International Airport",
      "updatedAt": "151600Z",
      "visibility_m": 10000,
      "taf_visibility_m": 10000,
      "worst_visibility_m": 10000,
      "ceiling_ft": null,
      "hazards": [],
      "severityScore": 0,
      "metarRaw": "METAR HESH 151600Z 35010KT CAVOK 20/08 Q1021 NOSIG",
      "tafRaw": "TAF HESH 151100Z 1512/1618 02010G20KT CAVOK"
    },
    {
      "icao": "LATI",
      "iata": "TIA",
      "name": "Tirana International Airport Mother Teresa",
      "updatedAt": "151650Z",
      "visibility_m": 10000,
      "taf_visibility_m": 10000,
      "worst_visibility_m": 10000,
      "ceiling_ft": 7000,
      "hazards": [],
      "severityScore": 0,
      "metarRaw": "METAR LATI 151650Z VRB02KT 9999 SCT049 BKN070 13/05 Q1024 NOSIG",
      "tafRaw": "TAF LATI 151100Z 1512/1612 VRB05KT CAVOK TX16/1512Z TN03/1605Z"
    },
    {
      "icao": "LCLK",
      "iata": "LCA",
      "name": "Larnaca International Airport",
      "updatedAt": "151630Z",
      "visibility_m": 10000,
      "taf_visibility_m": 10000,
      "worst_visibility_m": 10000,
      "ceiling_ft": 5000,
      "hazards": [],
      "severityScore": 0,
      "metarRaw": "METAR LCLK 151630Z VRB03KT 9999 FEW040 BKN050 11/08 Q1024 NOSIG",
      "tafRaw": "TAF LCLK 151130Z 1512/1612 11010KT 9999 FEW040 \n  BECMG 1512/1516 31006KT \n  BECMG 1608/1611 18010KT"
    },
    {
      "icao": "LCPH",
      "iata": "PFO",
      "name": "Paphos International Airport",
      "updatedAt": "151630Z",
      "visibility_m": 10000,
      "taf_visibility_m": 10000,
      "worst_visibility_m": 10000,
      "ceiling_ft": null,
      "hazards": [],
      "severityScore": 0,
      "metarRaw": "METAR LCPH 151630Z 01005KT 010V080 9999 FEW022 12/07 Q1024 NOSIG",
      "tafRaw": "TAF LCPH 151130Z 1512/1612 23010KT 9999 FEW035 SCT045 \n  BECMG 1513/1516 02007KT \n  BECMG 1608/1612 24010KT"
    },
    {
      "icao": "LEVC",
      "iata": "VLC",
      "name": "Valencia Airport",
      "updatedAt": "151630Z",
      "visibility_m": 10000,
      "taf_visibility_m": 10000,
      "worst_visibility_m": 10000,
      "ceiling_ft": null,
      "hazards": [],
      "severityScore": 0,
      "metarRaw": "METAR LEVC 151630Z 25007KT 9999 FEW040 16/06 Q1016 NOSIG",
      "tafRaw": "TAF LEVC 151100Z 1512/1612 26005KT CAVOK TX18/1512Z TN06/1606Z \n  TEMPO 1512/1520 20010KT"
    },
    {
      "icao": "LFLL",
      "iata": "LYS",
      "name": "Lyon Saint-Exupéry Airport",
      "updatedAt": "151630Z",
      "visibility_m": 10000,
      "taf_visibility_m": 10000,
      "worst_visibility_m": 10000,
      "ceiling_ft": 26000,
      "hazards": [],
      "severityScore": 0,
      "metarRaw": "METAR LFLL 151630Z 19014KT 9999 FEW036 BKN260 13/04 Q1012 NOSIG",
      "tafRaw": "TAF LFLL 151100Z 1512/1618 18015G25KT CAVOK \n  TEMPO 1518/1523 18020G35KT FEW030 \n  BECMG 1602/1604 16008KT"
    },
    {
      "icao": "LFLS",
      "iata": "GNB",
      "name": "Grenoble Alpes Isère Airport",
      "updatedAt": "151630Z",
      "visibility_m": 10000,
      "taf_visibility_m": 10000,
      "worst_visibility_m": 10000,
      "ceiling_ft": null,
      "hazards": [],
      "severityScore": 0,
      "metarRaw": "METAR LFLS 151630Z AUTO 23010KT CAVOK 10/05 Q1013 NOSIG",
      "tafRaw": "TAF LFLS 151400Z 1515/1615 20010KT CAVOK \n  TEMPO 1517/1522 27010KT \n  FM152200 08005KT CAVOK \n  PROB40 \n  TEMPO 1522/1524 27010KT"
    },
    {
      "icao": "LFMN",
      "iata": "NCE",
      "name": "Nice-Côte d'Azur Airport",
      "updatedAt": "151630Z",
      "visibility_m": 10000,
      "taf_visibility_m": 10000,
      "worst_visibility_m": 10000,
      "ceiling_ft": null,
      "hazards": [],
      "severityScore": 0,
      "metarRaw": "METAR LFMN 151630Z 10009KT 9999 FEW020 SCT033 14/10 Q1019 BECMG 33010KT",
      "tafRaw": "TAF LFMN 151400Z 1515/1621 11009KT 9999 SCT024 \n  BECMG 1518/1520 33010KT \n  BECMG 1611/1613 09015KT"
    },
    {
      "icao": "LFSB",
      "iata": "BSL",
      "name": "EuroAirport Basel–Mulhouse–Freiburg",
      "updatedAt": "151630Z",
      "visibility_m": 10000,
      "taf_visibility_m": 10000,
      "worst_visibility_m": 10000,
      "ceiling_ft": null,
      "hazards": [],
      "severityScore": 0,
      "metarRaw": "METAR LFSB 151630Z AUTO 13006KT CAVOK 08/04 Q1012 NOSIG",
      "tafRaw": "TAF LFSB 151100Z 1512/1612 15008KT CAVOK"
    },
    {
      "icao": "LIBD",
      "iata": "BRI",
      "name": "Bari Karol Wojtyła International Airport",
      "updatedAt": "151620Z",
      "visibility_m": 10000,
      "taf_visibility_m": 10000,
      "worst_visibility_m": 10000,
      "ceiling_ft": null,
      "hazards": [],
      "severityScore": 0,
      "metarRaw": "METAR LIBD 151620Z 00000KT CAVOK 09/08 Q1022",
      "tafRaw": "TAF LIBD 151100Z 1512/1612 VRB06KT 9999 FEW030"
    },
    {
      "icao": "LIBG",
      "iata": "TAR",
      "name": "Taranto-Grottaglie Marcello Arlotta Airport",
      "updatedAt": "151550Z",
      "visibility_m": 10000,
      "taf_visibility_m": 8000,
      "worst_visibility_m": 8000,
      "ceiling_ft": null,
      "hazards": [],
      "severityScore": 0,
      "metarRaw": "METAR LIBG 151550Z 18002KT 9999 FEW020 12/12 Q1022",
      "tafRaw": "TAF LIBG 151400Z 1515/1524 VRB05KT 8000 FEW025"
    },
    {
      "icao": "LICA",
      "iata": "SUF",
      "name": "Lamezia Terme Sant'Eufemia International Airport",
      "updatedAt": "151620Z",
      "visibility_m": 10000,
      "taf_visibility_m": 10000,
      "worst_visibility_m": 10000,
      "ceiling_ft": null,
      "hazards": [],
      "severityScore": 0,
      "metarRaw": "METAR LICA 151620Z AUTO 16003KT 9999 NCD 12/09 Q1022",
      "tafRaw": "TAF LICA 151100Z 1512/1612 08010KT CAVOK"
    },
    {
      "icao": "LICC",
      "iata": "CTA",
      "name": "Catania-Fontanarossa Airport",
      "updatedAt": "151620Z",
      "visibility_m": 10000,
      "taf_visibility_m": 10000,
      "worst_visibility_m": 10000,
      "ceiling_ft": null,
      "hazards": [],
      "severityScore": 0,
      "metarRaw": "METAR LICC 151620Z VRB01KT 9999 SCT040 16/11 Q1022",
      "tafRaw": "TAF LICC 151100Z 1512/1612 VRB05KT 9999 SCT040 \n  BECMG 1610/1612 08010KT"
    },
    {
      "icao": "LICJ",
      "iata": "PMO",
      "name": "Falcone–Borsellino Airport",
      "updatedAt": "151620Z",
      "visibility_m": 10000,
      "taf_visibility_m": 10000,
      "worst_visibility_m": 10000,
      "ceiling_ft": null,
      "hazards": [],
      "severityScore": 0,
      "metarRaw": "METAR LICJ 151620Z 06008KT CAVOK 15/11 Q1020",
      "tafRaw": "TAF LICJ 151100Z 1512/1612 05010KT CAVOK \n  BECMG 1516/1518 VRB05KT"
    },
    {
      "icao": "LIMF",
      "iata": "TRN",
      "name": "Turin Airport",
      "updatedAt": "151620Z",
      "visibility_m": 6000,
      "taf_visibility_m": 8000,
      "worst_visibility_m": 6000,
      "ceiling_ft": 5500,
      "hazards": [],
      "severityScore": 0,
      "metarRaw": "METAR LIMF 151620Z 11001KT 6000 OVC055 06/01 Q1021",
      "tafRaw": "TAF LIMF 151100Z 1512/1612 VRB03KT 8000 SCT050"
    },
    {
      "icao": "LIRF",
      "iata": "FCO",
      "name": "Rome–Fiumicino Leonardo da Vinci International Airport",
      "updatedAt": "151620Z",
      "visibility_m": 10000,
      "taf_visibility_m": 10000,
      "worst_visibility_m": 10000,
      "ceiling_ft": null,
      "hazards": [],
      "severityScore": 0,
      "metarRaw": "METAR LIRF 151620Z 12006KT 9999 FEW020 14/11 Q1021 NOSIG",
      "tafRaw": "TAF LIRF 151100Z 1512/1618 15012KT 9999 SCT030 \n  BECMG 1519/1521 08007KT"
    },
    {
      "icao": "LIRN",
      "iata": "NAP",
      "name": "Naples International Airport",
      "updatedAt": "151620Z",
      "visibility_m": 10000,
      "taf_visibility_m": 10000,
      "worst_visibility_m": 10000,
      "ceiling_ft": null,
      "hazards": [],
      "severityScore": 0,
      "metarRaw": "METAR LIRN 151620Z 20002KT CAVOK 13/08 Q1022 NOSIG",
      "tafRaw": "TAF LIRN 151100Z 1512/1612 VRB05KT CAVOK"
    },
    {
      "icao": "LLBG",
      "iata": "TLV",
      "name": "Ben Gurion International Airport",
      "updatedAt": "151620Z",
      "visibility_m": 10000,
      "taf_visibility_m": 10000,
      "worst_visibility_m": 10000,
      "ceiling_ft": 3500,
      "hazards": [],
      "severityScore": 0,
      "metarRaw": "METAR LLBG 151620Z VRB03KT 9999 FEW050 14/08 Q1024 NOSIG",
      "tafRaw": "TAF LLBG 151112Z 1512/1612 32010KT 9999 FEW040 \n  BECMG 1515/1517 VRB04KT \n  PROB40 \n  TEMPO 1522/1607 16007KT BKN035 \n  BECMG 1607/1610 28008KT TX18/1512Z TN11/1604Z"
    },
    {
      "icao": "LMML",
      "iata": "MLA",
      "name": "Malta International Airport",
      "updatedAt": "151645Z",
      "visibility_m": 10000,
      "taf_visibility_m": 10000,
      "worst_visibility_m": 10000,
      "ceiling_ft": null,
      "hazards": [],
      "severityScore": 0,
      "metarRaw": "METAR LMML 151645Z 13009KT CAVOK 14/12 Q1021 NOSIG",
      "tafRaw": "TAF LMML 151100Z 1512/1612 15012KT 9999 FEW018"
    },
    {
      "icao": "LQBK",
      "iata": "BNX",
      "name": "Banja Luka International Airport",
      "updatedAt": "151630Z",
      "visibility_m": 10000,
      "taf_visibility_m": 10000,
      "worst_visibility_m": 10000,
      "ceiling_ft": null,
      "hazards": [],
      "severityScore": 0,
      "metarRaw": "METAR LQBK 151630Z 36004KT 330V030 CAVOK 04/02 Q1021 NOSIG",
      "tafRaw": "TAF LQBK 151100Z 1512/1612 22005KT CAVOK TX08/1513Z TN02/1605Z"
    },
    {
      "icao": "LWOH",
      "iata": "OHD",
      "name": "Ohrid St. Paul the Apostle Airport",
      "updatedAt": "151650Z",
      "visibility_m": 10000,
      "taf_visibility_m": 10000,
      "worst_visibility_m": 10000,
      "ceiling_ft": null,
      "hazards": [],
      "severityScore": 0,
      "metarRaw": "METAR LWOH 151650Z 03003KT 350V050 9999 FEW040 03/01 Q1024",
      "tafRaw": "TAF LWOH 151420Z 1515/1615 VRB02KT 9999 FEW040"
    },
    {
      "icao": "LYPG",
      "iata": "TGD",
      "name": "Podgorica Airport / Podgorica Golubovci Airbase",
      "updatedAt": "151630Z",
      "visibility_m": 10000,
      "taf_visibility_m": 10000,
      "worst_visibility_m": 10000,
      "ceiling_ft": 8000,
      "hazards": [],
      "severityScore": 0,
      "metarRaw": "METAR LYPG 151630Z 00000KT 9999 FEW070 08/05 Q1024 NOSIG",
      "tafRaw": "TAF LYPG 151100Z 1512/1612 17005KT 9999 FEW040 BKN080 TX13/1513Z TN05/1605Z"
    },
    {
      "icao": "OEJN",
      "iata": "JED",
      "name": "King Abdulaziz International Airport",
      "updatedAt": "151600Z",
      "visibility_m": 10000,
      "taf_visibility_m": 2000,
      "worst_visibility_m": 2000,
      "ceiling_ft": null,
      "hazards": [],
      "severityScore": 0,
      "metarRaw": "METAR OEJN 151600Z 34012KT 9999 FEW040 25/09 Q1014 NOSIG",
      "tafRaw": "TAF OEJN 151100Z 1512/1618 33014KT 9999 FEW040 \n  BECMG 1522/1600 09012KT 7000 \n  TEMPO 1522/1608 2000 DU \n  BECMG 1610/1612 28010KT"
    },
    {
      "icao": "OEMA",
      "iata": "MED",
      "name": "Prince Mohammad Bin Abdulaziz Airport",
      "updatedAt": "151600Z",
      "visibility_m": 10000,
      "taf_visibility_m": 2000,
      "worst_visibility_m": 2000,
      "ceiling_ft": null,
      "hazards": [],
      "severityScore": 0,
      "metarRaw": "METAR OEMA 151600Z 08007KT CAVOK 21/M06 Q1021 NOSIG",
      "tafRaw": "TAF OEMA 151100Z 1512/1618 08012KT 7000 NSC \n  TEMPO 1518/1608 2000 DU"
    },
    {
      "icao": "OMAA",
      "iata": "AUH",
      "name": "Zayed International Airport",
      "updatedAt": "151600Z",
      "visibility_m": 10000,
      "taf_visibility_m": 8000,
      "worst_visibility_m": 8000,
      "ceiling_ft": null,
      "hazards": [],
      "severityScore": 0,
      "metarRaw": "METAR OMAA 151600Z 29009KT 9999 SCT030 22/17 Q1018 NOSIG",
      "tafRaw": "TAF OMAA 151100Z 1512/1618 32015KT 8000 FEW045"
    }
  ],
  "stats": {
    "icaoCount": 159,
    "metarReturned": 159,
    "tafReturned": 133,
    "stationsWritten": 159,
    "missingMetar": 0,
    "missingTaf": 26
  },
  "errors": []
}