{
  "generatedAt": "2026-01-14T23:57:43.742Z",
  "stations": [
    {
      "icao": "BKPR",
      "iata": "PRN",
      "name": "Priština Adem Jashari International Airport",
      "updatedAt": null,
      "visibility_m": null,
      "taf_visibility_m": 150,
      "worst_visibility_m": 150,
      "ceiling_ft": 200,
      "hazards": [
        "FZFG",
        "BR",
        "FG"
      ],
      "severityScore": 100,
      "metarRaw": null,
      "tafRaw": "TAF BKPR 142330Z 1500/1524 VRB03KT 9999 BKN050 \n  PROB40 1501/1510 1500 BR \n  PROB30 1504/1508 0150 FZFG BKN002"
    },
    {
      "icao": "EDDB",
      "iata": "BER",
      "name": "Berlin Brandenburg Airport",
      "updatedAt": "142350Z",
      "visibility_m": 400,
      "taf_visibility_m": 200,
      "worst_visibility_m": 200,
      "ceiling_ft": 100,
      "hazards": [
        "FZFG",
        "FG",
        "BR",
        "RA",
        "DZ"
      ],
      "severityScore": 100,
      "metarRaw": "METAR EDDB 142350Z AUTO VRB01KT 0700 0550 R24R/0550D R24L/1000N FZFG NSC M01/M01 Q1017 TEMPO 0400 FZFG OVC001",
      "tafRaw": "TAF EDDB 142300Z 1500/1524 14006KT 1000 BCFG FEW001 \n  TEMPO 1500/1507 0200 FZFG OVC001 \n  PROB30 \n  TEMPO 1502/1506 4000 BR BKN012 \n  BECMG 1505/1508 8000 \n  TEMPO 1508/1515 2500 -RADZ BKN006 \n  TEMPO 1515/1524 1200 BCFG \n  PROB30 \n  TEMPO 1517/1524 0400 FG OVC002"
    },
    {
      "icao": "EFTU",
      "iata": "TKU",
      "name": "Turku Airport",
      "updatedAt": "142350Z",
      "visibility_m": 6000,
      "taf_visibility_m": 1200,
      "worst_visibility_m": 1200,
      "ceiling_ft": 800,
      "hazards": [
        "SN",
        "BR",
        "DZ",
        "FZDZ"
      ],
      "severityScore": 100,
      "metarRaw": "METAR EFTU 142350Z AUTO 14013KT 100V170 6000 -SN OVC008 M06/M08 Q1013",
      "tafRaw": "TAF EFTU 142337Z 1500/1524 15014KT 9999 -SN OVC009 \n  BECMG 1500/1502 1200 SN VV010 \n  BECMG 1502/1504 8000 -SN BKN006 \n  TEMPO 1504/1512 2500 -FZDZSN BKN004 \n  BECMG 1512/1514 18004KT BKN015 \n  PROB30 1514/1519 4000 BR BKN006 \n  TEMPO 1519/1524 2500 -DZ BR BKN002"
    },
    {
      "icao": "EGGP",
      "iata": "LPL",
      "name": "Liverpool John Lennon Airport",
      "updatedAt": "142350Z",
      "visibility_m": 10000,
      "taf_visibility_m": 300,
      "worst_visibility_m": 300,
      "ceiling_ft": 0,
      "hazards": [
        "FG",
        "BR",
        "RA",
        "DZ"
      ],
      "severityScore": 100,
      "metarRaw": "METAR EGGP 142350Z AUTO 16009KT 9999 SCT027/// BKN035/// 04/02 Q1000",
      "tafRaw": "TAF EGGP 142303Z 1500/1524 16007KT 9999 SCT025 \n  TEMPO 1500/1502 6000 RA -RADZ \n  PROB30 \n  TEMPO 1500/1502 17015G25KT 4000 RADZ BKN009 \n  BECMG 1513/1516 8000 \n  TEMPO 1516/1520 3000 BR BKN002 \n  PROB30 1520/1524 0300 FG OVC000"
    },
    {
      "icao": "EGGW",
      "iata": "LTN",
      "name": "London Luton Airport",
      "updatedAt": "142350Z",
      "visibility_m": 10000,
      "taf_visibility_m": 300,
      "worst_visibility_m": 300,
      "ceiling_ft": 300,
      "hazards": [
        "RA",
        "DZ",
        "FG",
        "SHRA"
      ],
      "severityScore": 100,
      "metarRaw": "METAR EGGW 142350Z AUTO 21012KT 9999 -RADZ BKN003 OVC008 08/08 Q1004",
      "tafRaw": "TAF EGGW 142257Z 1500/1524 21010KT 9999 SCT008 BKN020 \n  TEMPO 1500/1504 6000 RA SHRA BKN008 \n  PROB40 \n  TEMPO 1500/1501 4000 RADZ BKN003 \n  TEMPO 1504/1522 6000 RA BKN003 \n  PROB40 \n  TEMPO 1504/1512 3000 +RA BKN001 \n  BECMG 1512/1515 15012KT \n  PROB30 \n  TEMPO 1512/1518 3000 +RA \n  BECMG 1518/1521 27010KT \n  PROB40 \n  TEMPO 1522/1524 0300 FG BKN001"
    },
    {
      "icao": "EGNM",
      "iata": "LBA",
      "name": "Leeds Bradford Airport",
      "updatedAt": null,
      "visibility_m": null,
      "taf_visibility_m": 300,
      "worst_visibility_m": 300,
      "ceiling_ft": 0,
      "hazards": [
        "FG",
        "BR",
        "RA",
        "DZ"
      ],
      "severityScore": 100,
      "metarRaw": null,
      "tafRaw": "TAF EGNM 142302Z 1500/1524 15005KT 9999 SCT025 \n  BECMG 1500/1503 21010KT \n  TEMPO 1500/1504 5000 RA -RADZ BKN007 \n  PROB30 \n  TEMPO 1500/1504 2500 RADZ BR BKN002 \n  PROB40 \n  TEMPO 1504/1506 8000 -RA BKN008 \n  PROB30 \n  TEMPO 1506/1515 8000 BKN009 \n  BECMG 1511/1514 VRB03KT \n  TEMPO 1515/1524 4000 RA -RADZ BKN005 \n  PROB30 \n  TEMPO 1515/1519 0300 FG BKN000 \n  PROB30 \n  TEMPO 1519/1523 BKN003"
    },
    {
      "icao": "EKBI",
      "iata": "BLL",
      "name": "Billund Airport",
      "updatedAt": "142350Z",
      "visibility_m": 10000,
      "taf_visibility_m": 200,
      "worst_visibility_m": 200,
      "ceiling_ft": 100,
      "hazards": [
        "FZFG",
        "FG",
        "BR",
        "RA",
        "DZ"
      ],
      "severityScore": 100,
      "metarRaw": "METAR EKBI 142350Z AUTO 17004KT 9999 SCT023/// BKN140/// 02/02 Q1012",
      "tafRaw": "TAF EKBI 142327Z 1500/1524 16005KT 9999 SCT020 \n  PROB40 1500/1506 0200 FZFG FG VV001 \n  BECMG 1506/1508 1200 -RADZ BR BKN002 \n  TEMPO 1508/1514 3000 RADZ BKN005 \n  TEMPO 1514/1521 4000 BKN005 \n  TEMPO 1521/1524 3000 RADZ BKN005"
    },
    {
      "icao": "ENGM",
      "iata": "OSL",
      "name": "Oslo-Gardermoen International Airport",
      "updatedAt": "142350Z",
      "visibility_m": 450,
      "taf_visibility_m": 300,
      "worst_visibility_m": 300,
      "ceiling_ft": 100,
      "hazards": [
        "FZFG",
        "FG",
        "BR",
        "SN"
      ],
      "severityScore": 100,
      "metarRaw": "METAR ENGM 142350Z VRB01KT 0450 0350E R19R/P2000N R01R/0450N R19L/1700U R01L/0500N FZFG VV001 M09/M10 Q1005",
      "tafRaw": "TAF ENGM 142300Z 1500/1524 VRB03KT 0300 FZFG VV001 \n  PROB40 1500/1509 6000 NSW SCT002 \n  BECMG 1509/1511 8000 NSW BKN005 \n  TEMPO 1511/1524 2000 -SN BR BKN003"
    },
    {
      "icao": "EPKT",
      "iata": "KTW",
      "name": "Katowice Wojciech Korfanty International Airport",
      "updatedAt": "142330Z",
      "visibility_m": 4200,
      "taf_visibility_m": 800,
      "worst_visibility_m": 800,
      "ceiling_ft": 500,
      "hazards": [
        "BR",
        "FG",
        "RA",
        "DZ"
      ],
      "severityScore": 100,
      "metarRaw": "METAR EPKT 142330Z 24007KT 4200 BR OVC005 01/01 Q1017",
      "tafRaw": "TAF EPKT 142330Z 1500/1524 22006KT 4000 BR BKN004 \n  TEMPO 1500/1508 0800 FG OVC001 \n  BECMG 1508/1511 14010KT 7000 BKN012 \n  TEMPO 1515/1524 2000 -RADZ BR BKN004"
    },
    {
      "icao": "EPLB",
      "iata": "LUZ",
      "name": "Lublin Airport",
      "updatedAt": "142330Z",
      "visibility_m": 4100,
      "taf_visibility_m": 1500,
      "worst_visibility_m": 1500,
      "ceiling_ft": 600,
      "hazards": [
        "BR",
        "SN",
        "FZRA",
        "FZDZ",
        "RA",
        "DZ"
      ],
      "severityScore": 100,
      "metarRaw": "METAR EPLB 142330Z 11005KT 4100 -SN BR OVC006 M04/M04 Q1015",
      "tafRaw": "TAF EPLB 142330Z 1500/1524 VRB02KT 3000 -SN BR BKN005 BKN010 \n  TEMPO 1500/1504 1500 SN BR BKN003 \n  PROB40 \n  TEMPO 1501/1507 -FZRA -FZDZ \n  BECMG 1508/1510 5000 BR \n  BECMG 1516/1518 10010KT \n  TEMPO 1516/1524 2500 BR BKN004"
    },
    {
      "icao": "EPMO",
      "iata": "WMI",
      "name": "Modlin Airport",
      "updatedAt": "142330Z",
      "visibility_m": 300,
      "taf_visibility_m": 300,
      "worst_visibility_m": 300,
      "ceiling_ft": 100,
      "hazards": [
        "FZFG",
        "FZDZ",
        "FG",
        "DZ",
        "BR"
      ],
      "severityScore": 100,
      "metarRaw": "METAR EPMO 142330Z 07004KT 0300 R08/0275N -FZDZ FZFG OVC001 M02/M02 Q1015",
      "tafRaw": "TAF EPMO 142330Z 1500/1524 VRB03KT 0800 FZFG BKN003 \n  TEMPO 1500/1508 0300 FZFG -FZDZ BKN001 \n  BECMG 1509/1512 4000 BR BKN006 \n  BECMG 1518/1520 2500 BR BKN003"
    },
    {
      "icao": "EPPO",
      "iata": "POZ",
      "name": "Poznań-Ławica Airport",
      "updatedAt": "142330Z",
      "visibility_m": 10000,
      "taf_visibility_m": 100,
      "worst_visibility_m": 100,
      "ceiling_ft": 3200,
      "hazards": [
        "FZFG",
        "FG",
        "BR",
        "RA",
        "DZ"
      ],
      "severityScore": 100,
      "metarRaw": "METAR EPPO 142330Z 25003KT 9999 BKN032 01/M00 Q1017",
      "tafRaw": "TAF EPPO 142330Z 1500/1524 24004KT 6000 SCT030 \n  BECMG 1500/1501 1400 BR \n  BECMG 1501/1503 0600 FG BKN002 \n  TEMPO 1501/1509 0100 FG BKN000 \n  PROB40 1501/1507 FZFG \n  BECMG 1509/1512 14010KT 7000 BKN006 \n  TEMPO 1511/1524 3000 -DZRA BR \n  PROB30 1520/1524 1000 BR BKN003"
    },
    {
      "icao": "EPRZ",
      "iata": "RZE",
      "name": "Rzeszów-Jasionka Airport",
      "updatedAt": "142330Z",
      "visibility_m": 6000,
      "taf_visibility_m": 100,
      "worst_visibility_m": 100,
      "ceiling_ft": 300,
      "hazards": [
        "FZRA",
        "RA",
        "FG",
        "BR"
      ],
      "severityScore": 100,
      "metarRaw": "METAR EPRZ 142330Z 22007KT 6000 -FZRA BKN003 00/M00 Q1016",
      "tafRaw": "TAF EPRZ 142330Z 1500/1524 19010KT 7000 OVC003 \n  BECMG 1500/1503 0600 FG \n  TEMPO 1500/1508 0100 FG OVC001 \n  BECMG 1508/1511 09010KT 5000 BR BKN012 \n  BECMG 1511/1514 BKN020"
    },
    {
      "icao": "EPSC",
      "iata": "SZZ",
      "name": "Solidarity Szczecin–Goleniów Airport",
      "updatedAt": "142330Z",
      "visibility_m": 4000,
      "taf_visibility_m": 300,
      "worst_visibility_m": 300,
      "ceiling_ft": 100,
      "hazards": [
        "BR",
        "FZFG",
        "FG",
        "RA",
        "DZ"
      ],
      "severityScore": 100,
      "metarRaw": "METAR EPSC 142330Z 14003KT 4000 BR NSC M01/M01 Q1016",
      "tafRaw": "TAF EPSC 142330Z 1500/1524 25005KT 4000 BR NSC \n  TEMPO 1500/1509 1500 BR OVC003 \n  PROB40 1500/1508 0300 FZFG OVC001 \n  BECMG 1509/1511 16010KT 6000 BKN005 \n  TEMPO 1512/1518 2000 -RADZ BR OVC002 \n  TEMPO 1518/1524 3000 BR BKN002"
    },
    {
      "icao": "EPWA",
      "iata": "WAW",
      "name": "Warsaw Chopin Airport",
      "updatedAt": "142330Z",
      "visibility_m": 800,
      "taf_visibility_m": 600,
      "worst_visibility_m": 600,
      "ceiling_ft": 200,
      "hazards": [
        "FG",
        "BR",
        "FZRA",
        "FZDZ",
        "RA",
        "DZ"
      ],
      "severityScore": 100,
      "metarRaw": "METAR EPWA 142330Z 28005KT 0800 R33/0900U -FZRA FG OVC002 01/01 Q1015 REFZDZ TEMPO 1500 BR",
      "tafRaw": "TAF EPWA 142330Z 1500/1524 VRB02KT 1500 BR BKN005 \n  TEMPO 1500/1507 1000 -DZ BR BKN003 \n  PROB40 1500/1507 0600 FG -FZDZ OVC001 \n  BECMG 1509/1512 6000 SCT005 BKN010 \n  BECMG 1518/1520 15010KT BKN005 \n  TEMPO 1521/1524 4000 BR BKN003"
    },
    {
      "icao": "ESGG",
      "iata": "GOT",
      "name": "Göteborg Landvetter Airport",
      "updatedAt": "142350Z",
      "visibility_m": 2500,
      "taf_visibility_m": 500,
      "worst_visibility_m": 500,
      "ceiling_ft": 200,
      "hazards": [
        "BR",
        "FG",
        "RA",
        "DZ"
      ],
      "severityScore": 100,
      "metarRaw": "METAR ESGG 142350Z 21009KT 2500 BR BKN002 OVC004 01/01 Q1009",
      "tafRaw": "TAF ESGG 142330Z 1500/1524 22008KT 6000 BKN005 \n  PROB40 1500/1509 0500 FG VV002 \n  BECMG 1509/1511 16010KT SCT010 \n  BECMG 1513/1515 BKN006 \n  TEMPO 1515/1524 2000 -RADZ BR BKN003"
    },
    {
      "icao": "LBPD",
      "iata": "PDV",
      "name": "Plovdiv International Airport",
      "updatedAt": "142330Z",
      "visibility_m": 10000,
      "taf_visibility_m": 300,
      "worst_visibility_m": 300,
      "ceiling_ft": 200,
      "hazards": [
        "FZFG",
        "BR",
        "FG"
      ],
      "severityScore": 100,
      "metarRaw": "METAR LBPD 142330Z AUTO 00000KT 9999 OVC064/// 02/02 Q1022",
      "tafRaw": "TAF LBPD 142300Z 1500/1524 VRB04KT 5000 BR BKN015 \n  TEMPO 1500/1507 0600 BCFG BKN004 \n  PROB40 1501/1506 0300 FZFG OVC002 \n  BECMG 1507/1509 30012KT 9999 NSW SCT060 \n  BECMG 1518/1520 VRB04KT"
    },
    {
      "icao": "LBSF",
      "iata": "SOF",
      "name": "Sofia Airport",
      "updatedAt": "142330Z",
      "visibility_m": 10000,
      "taf_visibility_m": 600,
      "worst_visibility_m": 600,
      "ceiling_ft": 200,
      "hazards": [
        "FZFG",
        "BR",
        "FG"
      ],
      "severityScore": 100,
      "metarRaw": "METAR LBSF 142330Z AUTO 03004KT 9999 OVC067/// 01/M00 Q1023 NOSIG",
      "tafRaw": "TAF LBSF 142300Z 1500/1524 VRB04KT 3000 BR BKN010 \n  TEMPO 1500/1506 0600 FZFG BKN002 \n  BECMG 1506/1508 5000 BR SCT015 \n  BECMG 1508/1510 31010KT 9999 NSW SCT060 \n  BECMG 1518/1520 VRB04KT"
    },
    {
      "icao": "LEMD",
      "iata": "MAD",
      "name": "Adolfo Suárez Madrid–Barajas Airport",
      "updatedAt": "142330Z",
      "visibility_m": 3000,
      "taf_visibility_m": 600,
      "worst_visibility_m": 600,
      "ceiling_ft": 200,
      "hazards": [
        "BR",
        "FG",
        "RA",
        "DZ"
      ],
      "severityScore": 100,
      "metarRaw": "METAR LEMD 142330Z 34002KT 8000 NSC 02/02 Q1021 TEMPO 3000 BR",
      "tafRaw": "TAF LEMD 142300Z 1500/1606 VRB03KT 9999 SCT030 TX08/1515Z TN00/1506Z \n  TEMPO 1500/1511 3000 BR BCFG BKN005 BKN014 \n  PROB40 \n  TEMPO 1503/1510 0600 FG VV002 \n  BECMG 1512/1514 22010KT \n  TEMPO 1516/1524 3000 DZRA BKN014 \n  PROB30 \n  TEMPO 1600/1606 3000 BR BKN010"
    },
    {
      "icao": "LEZL",
      "iata": "SVQ",
      "name": "Sevilla Airport",
      "updatedAt": "142330Z",
      "visibility_m": 8000,
      "taf_visibility_m": 500,
      "worst_visibility_m": 500,
      "ceiling_ft": 100,
      "hazards": [
        "FG",
        "BR"
      ],
      "severityScore": 100,
      "metarRaw": "METAR LEZL 142330Z 02003KT 8000 FEW010 09/09 Q1021 NOSIG",
      "tafRaw": "TAF LEZL 142000Z 1421/1521 VRB02KT 9999 FEW030 TX14/1515Z TN06/1507Z \n  TEMPO 1421/1513 4000 BR BKN010 \n  PROB40 1503/1511 0500 FG VV001 \n  BECMG 1514/1516 22010KT"
    },
    {
      "icao": "LFBD",
      "iata": "BOD",
      "name": "Bordeaux–Mérignac Airport",
      "updatedAt": "142330Z",
      "visibility_m": 300,
      "taf_visibility_m": 500,
      "worst_visibility_m": 300,
      "ceiling_ft": 24000,
      "hazards": [
        "FG",
        "BR",
        "SHRA",
        "RA"
      ],
      "severityScore": 100,
      "metarRaw": "METAR LFBD 142330Z AUTO 19007KT 6000 0900 R23/P2300 R05/1100N R29/P2300 BCFG FEW004 SCT078 BKN240 08/08 Q1018 TEMPO 0300 FG VV///",
      "tafRaw": "TAF LFBD 142300Z 1500/1606 18005KT 6000 NSC TX13/1514Z TN05/1506Z \n  TEMPO 1500/1509 3000 BR BKN002 \n  PROB40 1500/1509 0500 FG VV/// \n  BECMG 1509/1511 19010KT CAVOK \n  TEMPO 1516/1606 20010G20KT 4000 -SHRA BKN040TCU \n  PROB30 \n  TEMPO 1523/1603 BKN007"
    },
    {
      "icao": "LHBP",
      "iata": "BUD",
      "name": "Budapest Liszt Ferenc International Airport",
      "updatedAt": "142330Z",
      "visibility_m": 300,
      "taf_visibility_m": 100,
      "worst_visibility_m": 100,
      "ceiling_ft": 100,
      "hazards": [
        "FZFG",
        "BR",
        "FG",
        "FZRA",
        "FZDZ",
        "RA",
        "DZ"
      ],
      "severityScore": 100,
      "metarRaw": "METAR LHBP 142330Z 25004KT 1000 R31L/P2000N R31R/P2000N BCFG BR OVC002 M03/M04 Q1021 TEMPO 0300 FZFG VV001",
      "tafRaw": "TAF LHBP 142315Z 1500/1524 VRB03KT 3000 BR OVC005 \n  TEMPO 1500/1515 0500 -FZDZ FZFG VV001 \n  PROB40 1500/1512 0100 FZDZ \n  PROB30 \n  TEMPO 1500/1509 SG \n  BECMG 1509/1512 08005KT \n  TEMPO 1515/1524 0800 -FZRA FZFG OVC002 \n  PROB40 \n  TEMPO 1518/1524 FZRA"
    },
    {
      "icao": "LHDC",
      "iata": "DEB",
      "name": "Debrecen International Airport",
      "updatedAt": "142315Z",
      "visibility_m": 750,
      "taf_visibility_m": null,
      "worst_visibility_m": 750,
      "ceiling_ft": 200,
      "hazards": [
        "FZFG",
        "FG"
      ],
      "severityScore": 100,
      "metarRaw": "METAR LHDC 142315Z AUTO 28003KT 0750 R04/0900U FZFG VV002 M02/M03 Q1021",
      "tafRaw": null
    },
    {
      "icao": "LKPR",
      "iata": "PRG",
      "name": "Václav Havel Airport Prague",
      "updatedAt": "142330Z",
      "visibility_m": 10000,
      "taf_visibility_m": 300,
      "worst_visibility_m": 300,
      "ceiling_ft": 3500,
      "hazards": [
        "FZFG",
        "BR",
        "RA",
        "DZ",
        "FG"
      ],
      "severityScore": 100,
      "metarRaw": "METAR LKPR 142330Z VRB02KT 9999 OVC035 03/03 Q1017 NOSIG",
      "tafRaw": "TAF LKPR 142300Z 1500/1606 20008KT 9999 SCT012 BKN027 \n  TEMPO 1500/1512 3000 -RA BR SCT004 BKN012 \n  PROB30 \n  TEMPO 1503/1511 1200 DZ BR BKN003 \n  BECMG 1516/1518 12004KT 1500 BR SCT002 OVC005 \n  TEMPO 1518/1606 VRB02KT 0300 FZFG OVC002"
    },
    {
      "icao": "LOWW",
      "iata": "VIE",
      "name": "Vienna International Airport",
      "updatedAt": "142350Z",
      "visibility_m": 350,
      "taf_visibility_m": 300,
      "worst_visibility_m": 300,
      "ceiling_ft": 100,
      "hazards": [
        "FZFG",
        "FG",
        "FZDZ",
        "DZ"
      ],
      "severityScore": 100,
      "metarRaw": "METAR LOWW 142350Z 12004KT 0350 R29/0400N FZFG SCT000 BKN001 M02/M03 Q1020 NOSIG",
      "tafRaw": "TAF LOWW 142315Z 1500/1606 15004KT 0800 FZFG SCT001 OVC002 TXM00/1605Z TNM02/1500Z \n  TEMPO 1500/1606 0500 VV001 \n  PROB30 \n  TEMPO 1506/1510 0300 \n  PROB30 \n  TEMPO 1600/1606 13008KT 0300 -FZDZ FZFG"
    },
    {
      "icao": "LQSA",
      "iata": "SJJ",
      "name": "Sarajevo International Airport",
      "updatedAt": "142330Z",
      "visibility_m": 3500,
      "taf_visibility_m": 300,
      "worst_visibility_m": 300,
      "ceiling_ft": 100,
      "hazards": [
        "BR",
        "FZFG",
        "FG"
      ],
      "severityScore": 100,
      "metarRaw": "METAR LQSA 142330Z VRB01KT 3500 BR NSC 01/01 Q1023",
      "tafRaw": "TAF LQSA 142300Z 1500/1524 VRB02KT 8000 FEW045 TX06/1514Z TNM02/1506Z \n  TEMPO 1500/1510 2000 BR \n  PROB40 1500/1508 0300 FZFG OVC001 \n  PROB40 \n  TEMPO 1519/1524 2000 BR \n  PROB30 1521/1524 0300 FG OVC001"
    },
    {
      "icao": "LRBV",
      "iata": "GHV",
      "name": "Brașov-Ghimbav International Airport",
      "updatedAt": "142330Z",
      "visibility_m": 3400,
      "taf_visibility_m": 1500,
      "worst_visibility_m": 1500,
      "ceiling_ft": 500,
      "hazards": [
        "BR",
        "FZRA",
        "RA",
        "DZ"
      ],
      "severityScore": 100,
      "metarRaw": "METAR LRBV 142330Z AUTO VRB02KT 3400 BR FEW003/// BKN019/// OVC031/// M01/M01 Q1018",
      "tafRaw": "TAF LRBV 142000Z 1421/1506 VRB04KT 3000 BR BKN015 OVC020 \n  TEMPO 1421/1503 22010KT 1500 -FZRADZ BKN005 OVC010"
    },
    {
      "icao": "LRCV",
      "iata": "CRA",
      "name": "Craiova International Airport",
      "updatedAt": "142330Z",
      "visibility_m": 500,
      "taf_visibility_m": 200,
      "worst_visibility_m": 200,
      "ceiling_ft": 400,
      "hazards": [
        "FZFG",
        "FG",
        "BR"
      ],
      "severityScore": 100,
      "metarRaw": "METAR LRCV 142330Z 22003KT 0500 R26/1200D FZFG OVC004 M03/M03 Q1020",
      "tafRaw": "TAF LRCV 142300Z 1500/1509 27005KT 0600 FZFG SCT002 OVC005 \n  PROB40 \n  TEMPO 1500/1504 0200 FZFG OVC001 \n  BECMG 1504/1506 3000 BR SCT010 \n  BECMG 1507/1509 9999 NSW"
    },
    {
      "icao": "LRTR",
      "iata": "TSR",
      "name": "Timişoara Traian Vuia Airport",
      "updatedAt": "142330Z",
      "visibility_m": 3000,
      "taf_visibility_m": 600,
      "worst_visibility_m": 600,
      "ceiling_ft": 200,
      "hazards": [
        "BR",
        "FZFG",
        "FG"
      ],
      "severityScore": 100,
      "metarRaw": "METAR LRTR 142330Z 08003KT 3000 BR NSC 00/00 Q1021 NOSIG",
      "tafRaw": "TAF LRTR 142300Z 1500/1524 VRB04KT 3000 BR SCT035 \n  TEMPO 1500/1506 1500 BR BKN005 OVC020 \n  PROB30 \n  TEMPO 1501/1505 0600 FZFG OVC002 \n  BECMG 1507/1509 5000 \n  BECMG 1510/1512 CAVOK"
    },
    {
      "icao": "LWSK",
      "iata": "SKP",
      "name": "Skopje International Airport",
      "updatedAt": "142350Z",
      "visibility_m": 6000,
      "taf_visibility_m": 600,
      "worst_visibility_m": 600,
      "ceiling_ft": 300,
      "hazards": [
        "FZFG",
        "BR",
        "FG"
      ],
      "severityScore": 100,
      "metarRaw": "METAR LWSK 142350Z 03003KT 6000 NSC M03/M04 Q1025 NOSIG",
      "tafRaw": "TAF LWSK 142320Z 1500/1524 VRB02KT CAVOK \n  BECMG 1501/1503 3000 BR SCT015 \n  PROB30 \n  TEMPO 1505/1508 0600 FZFG BKN003 \n  BECMG 1509/1511 CAVOK"
    },
    {
      "icao": "LZIB",
      "iata": "BTS",
      "name": "M. R. Štefánik Airport",
      "updatedAt": "142330Z",
      "visibility_m": 1400,
      "taf_visibility_m": 400,
      "worst_visibility_m": 400,
      "ceiling_ft": 200,
      "hazards": [
        "BR",
        "FZFG",
        "FZDZ",
        "FG",
        "DZ"
      ],
      "severityScore": 100,
      "metarRaw": "METAR LZIB 142330Z 02007KT 2200 BR FEW001 OVC002 M03/M03 Q1021 TEMPO 1400 BR",
      "tafRaw": "TAF LZIB 142315Z 1500/1600 06005KT 1800 BR OVC003 \n  TEMPO 1500/1508 VRB02KT 0900 FZFG BCFG BKN002 \n  PROB40 \n  TEMPO 1500/1506 0400 FZDZ VV001 \n  TEMPO 1510/1516 2500 BR OVC006 \n  PROB40 \n  TEMPO 1516/1600 0900 FZFG OVC002"
    },
    {
      "icao": "LZKZ",
      "iata": "KSC",
      "name": "Košice International Airport",
      "updatedAt": "142330Z",
      "visibility_m": 500,
      "taf_visibility_m": 400,
      "worst_visibility_m": 400,
      "ceiling_ft": 200,
      "hazards": [
        "FZFG",
        "FG",
        "BR",
        "FZRA",
        "FZDZ",
        "RA",
        "DZ"
      ],
      "severityScore": 100,
      "metarRaw": "METAR LZKZ 142330Z VRB01KT 0900 R01/1900N FZFG OVC002 M04/M05 Q1020 TEMPO 0500 FZFG",
      "tafRaw": "TAF LZKZ 142315Z 1500/1600 VRB02KT 2500 BR OVC006 \n  TEMPO 1500/1508 0700 FZFG OVC003 \n  PROB40 \n  TEMPO 1500/1506 0400 -FZDZ OVC001 \n  TEMPO 1510/1516 6000 SCT005 BKN012 \n  TEMPO 1518/1600 1200 -FZRA BR OVC004"
    },
    {
      "icao": "UAAA",
      "iata": "ALA",
      "name": "Almaty International Airport",
      "updatedAt": "142336Z",
      "visibility_m": 700,
      "taf_visibility_m": 200,
      "worst_visibility_m": 200,
      "ceiling_ft": 200,
      "hazards": [
        "FZFG",
        "FG",
        "BR",
        "SHSN",
        "SN",
        "RA"
      ],
      "severityScore": 100,
      "metarRaw": "SPECI UAAA 142336Z VRB01MPS 0700 R23L/1900N FZFG VV002 M08/M09 Q1020 NOSIG RMK QBB060",
      "tafRaw": "TAF UAAA 142303Z 1500/1524 30003MPS 1100 BR FU BKN005 OVC020 TXM02/1509Z TNM09/1503Z \n  TEMPO 1500/1506 0200 FZFG VV001 \n  BECMG 1506/1507 3100 BKN011 OVC050 \n  BECMG 1510/1511 35003G08MPS BKN011CB OVC050 \n  TEMPO 1510/1518 1200 -SHSNRA BR \n  TEMPO 1518/1524 28006G12MPS 1000 SHSN BR BKN007CB OVC020"
    },
    {
      "icao": "EDDH",
      "iata": "HAM",
      "name": "Hamburg Helmut Schmidt Airport",
      "updatedAt": "142350Z",
      "visibility_m": 4000,
      "taf_visibility_m": 1200,
      "worst_visibility_m": 1200,
      "ceiling_ft": 300,
      "hazards": [
        "BR",
        "DZ",
        "FG",
        "RA"
      ],
      "severityScore": 97,
      "metarRaw": "METAR EDDH 142350Z AUTO 14006KT CAVOK M00/M00 Q1014 TEMPO 4000 BR",
      "tafRaw": "TAF EDDH 142300Z 1500/1606 16008KT 9999 SCT025 \n  PROB30 \n  TEMPO 1500/1501 2500 BCFG \n  BECMG 1501/1504 3500 BR BKN005 \n  TEMPO 1503/1511 2500 -DZRA BR BKN003 \n  PROB30 \n  TEMPO 1503/1511 1200 -DZ BR \n  BECMG 1510/1513 9999 SCT020 \n  BECMG 1603/1605 15013KT"
    },
    {
      "icao": "EPWR",
      "iata": "WRO",
      "name": "Copernicus Wrocław Airport",
      "updatedAt": "142330Z",
      "visibility_m": 7000,
      "taf_visibility_m": 100,
      "worst_visibility_m": 100,
      "ceiling_ft": 2500,
      "hazards": [
        "FG",
        "BR",
        "RA"
      ],
      "severityScore": 97,
      "metarRaw": "METAR EPWR 142330Z 27006KT 7000 BKN025 BKN031 03/02 Q1018",
      "tafRaw": "TAF EPWR 142330Z 1500/1524 VRB02KT 4000 BR BKN015 \n  BECMG 1500/1502 0600 FG BKN002 \n  TEMPO 1500/1508 0100 FG BKN001 \n  BECMG 1508/1511 14010KT 8000 SCT012 \n  TEMPO 1511/1516 -RA BKN014 \n  TEMPO 1518/1524 2500 BR"
    },
    {
      "icao": "ENTO",
      "iata": "TRF",
      "name": "Sandefjord Airport, Torp",
      "updatedAt": "142350Z",
      "visibility_m": 10000,
      "taf_visibility_m": 1200,
      "worst_visibility_m": 1200,
      "ceiling_ft": 300,
      "hazards": [
        "BR",
        "SN",
        "RA",
        "DZ"
      ],
      "severityScore": 95,
      "metarRaw": "METAR ENTO 142350Z AUTO VRB02KT 9999 NCD M04/M04 Q1007",
      "tafRaw": "TAF ENTO 142300Z 1500/1524 25008KT CAVOK \n  BECMG 1504/1507 BKN008 \n  TEMPO 1507/1516 1200 SNRA BKN003 \n  BECMG 1509/1511 17012KT \n  TEMPO 1516/1524 2000 DZRA BR BKN003"
    },
    {
      "icao": "EETN",
      "iata": "TLL",
      "name": "Lennart Meri Tallinn Airport",
      "updatedAt": "142350Z",
      "visibility_m": 10000,
      "taf_visibility_m": 1500,
      "worst_visibility_m": 1500,
      "ceiling_ft": 700,
      "hazards": [
        "SN",
        "FZDZ",
        "DZ"
      ],
      "severityScore": 91,
      "metarRaw": "METAR EETN 142350Z 15010KT CAVOK M11/M13 Q1017",
      "tafRaw": "TAF EETN 142330Z 1500/1524 15012KT 9999 SCT025 \n  PROB40 \n  TEMPO 1501/1504 16015G25KT 3000 SN DRSN BKN010 \n  BECMG 1504/1505 1500 +SN SCT010 BKN020 \n  TEMPO 1505/1507 3000 SN BKN008 \n  BECMG 1507/1508 9000 OVC007 \n  PROB40 \n  TEMPO 1508/1515 3000 SG -FZDZ"
    },
    {
      "icao": "LIPR",
      "iata": "RMI",
      "name": "Federico Fellini International Airport",
      "updatedAt": "142320Z",
      "visibility_m": 5000,
      "taf_visibility_m": 500,
      "worst_visibility_m": 500,
      "ceiling_ft": 700,
      "hazards": [
        "BR",
        "FG"
      ],
      "severityScore": 90,
      "metarRaw": "METAR LIPR 142320Z AUTO 14002KT 5000 BR OVC056/// 06/04 Q1023",
      "tafRaw": "TAF LIPR 142300Z 1500/1524 VRB05KT 3000 BR BKN050 \n  PROB40 \n  TEMPO 1504/1509 0600 FG BKN008 \n  BECMG 1516/1518 0500 FG BKN007"
    },
    {
      "icao": "EHEH",
      "iata": "EIN",
      "name": "Eindhoven Airport",
      "updatedAt": "142325Z",
      "visibility_m": 10000,
      "taf_visibility_m": 800,
      "worst_visibility_m": 800,
      "ceiling_ft": 6900,
      "hazards": [
        "FG",
        "BR",
        "RA",
        "DZ"
      ],
      "severityScore": 77,
      "metarRaw": "METAR EHEH 142325Z AUTO 17006KT 9999 SCT063 BKN069 OVC100 08/07 Q1011 BLU",
      "tafRaw": "TAF EHEH 141753Z 1418/1524 15005KT 3000 BR SCT003 OVC004 \n  TEMPO 1418/1423 1500 BR -DZ BKN002 OVC003 \n  PROB30 \n  TEMPO 1419/1423 0800 FG BKN001 OVC002 \n  BECMG 1423/1501 6000 NSW SCT006 BKN010 \n  TEMPO 1501/1511 4000 BR -RA SCT004 BKN007 \n  BECMG 1510/1512 SCT010 BKN015 \n  BECMG 1512/1514 BKN030"
    },
    {
      "icao": "EKCH",
      "iata": "CPH",
      "name": "Copenhagen Kastrup Airport",
      "updatedAt": "142350Z",
      "visibility_m": 10000,
      "taf_visibility_m": 1200,
      "worst_visibility_m": 1200,
      "ceiling_ft": 300,
      "hazards": [
        "BR",
        "RA",
        "DZ"
      ],
      "severityScore": 77,
      "metarRaw": "METAR EKCH 142350Z AUTO 24010KT 9999 NCD 01/01 Q1014 NOSIG",
      "tafRaw": "TAF EKCH 142327Z 1500/1524 23008KT 9999 BKN025 \n  PROB40 1500/1508 2500 BR \n  BECMG 1504/1507 16014KT \n  BECMG 1510/1512 BKN008 \n  TEMPO 1512/1514 BKN010 \n  BECMG 1514/1516 3000 -RADZ BR BKN003 \n  TEMPO 1516/1524 1200 BKN005"
    },
    {
      "icao": "EPRA",
      "iata": "RDO",
      "name": "Warsaw Radom Airport",
      "updatedAt": "142330Z",
      "visibility_m": 2500,
      "taf_visibility_m": 1200,
      "worst_visibility_m": 1200,
      "ceiling_ft": 300,
      "hazards": [
        "BR",
        "DZ",
        "RA"
      ],
      "severityScore": 77,
      "metarRaw": "METAR EPRA 142330Z 24008KT 2500 -DZ BR OVC003 02/02 Q1015",
      "tafRaw": "TAF EPRA 142330Z 1500/1509 28008KT 2500 -DZ BR OVC004 \n  TEMPO 1500/1506 1200 DZ BR OVC002 \n  BECMG 1506/1508 6000 OVC012"
    },
    {
      "icao": "ESMS",
      "iata": "MMX",
      "name": "Malmö Sturup Airport",
      "updatedAt": "142350Z",
      "visibility_m": 10000,
      "taf_visibility_m": 1200,
      "worst_visibility_m": 1200,
      "ceiling_ft": 200,
      "hazards": [
        "BR",
        "RA",
        "DZ"
      ],
      "severityScore": 77,
      "metarRaw": "METAR ESMS 142350Z 24007KT 9999 FEW003 01/01 Q1013",
      "tafRaw": "TAF ESMS 142327Z 1500/1524 23008KT 9999 SCT025 \n  PROB40 1500/1509 2500 BR \n  BECMG 1503/1505 16010KT \n  BECMG 1511/1513 1200 -RADZ BR BKN006 \n  TEMPO 1514/1524 4000 BKN002"
    },
    {
      "icao": "EPGD",
      "iata": "GDN",
      "name": "Gdańsk Lech Wałęsa Airport",
      "updatedAt": "142330Z",
      "visibility_m": 10000,
      "taf_visibility_m": 300,
      "worst_visibility_m": 300,
      "ceiling_ft": 2600,
      "hazards": [
        "FG",
        "BR"
      ],
      "severityScore": 75,
      "metarRaw": "METAR EPGD 142330Z 29007KT 9999 FEW007 BKN026 02/01 Q1014",
      "tafRaw": "TAF EPGD 142330Z 1500/1524 25010KT 8000 NSC \n  TEMPO 1500/1508 2000 BR BKN004 \n  PROB40 1500/1508 VRB03KT 1000 BR BKN001 \n  PROB30 1500/1507 0300 FG \n  BECMG 1508/1510 18010KT \n  TEMPO 1518/1524 4000 BR BKN004"
    },
    {
      "icao": "LRBC",
      "iata": "BCM",
      "name": "Bacău George Enescu International  Airport",
      "updatedAt": "142330Z",
      "visibility_m": 7000,
      "taf_visibility_m": 3000,
      "worst_visibility_m": 3000,
      "ceiling_ft": 1200,
      "hazards": [
        "BR",
        "FZRA",
        "RA"
      ],
      "severityScore": 69,
      "metarRaw": "METAR LRBC 142330Z 17004KT 7000 OVC012 M03/M05 Q1018",
      "tafRaw": "TAF LRBC 142300Z 1500/1509 VRB04KT 5000 BR BKN010 BKN055 \n  PROB40 \n  TEMPO 1500/1503 3000 -FZRA BR BKN005 BKN050 \n  BECMG 1507/1509 9999 NSW SCT010 OVC045"
    },
    {
      "icao": "EYPA",
      "iata": "PLQ",
      "name": "Palanga International Airport",
      "updatedAt": "142350Z",
      "visibility_m": 4900,
      "taf_visibility_m": 3000,
      "worst_visibility_m": 3000,
      "ceiling_ft": 1000,
      "hazards": [
        "SN",
        "FZDZ",
        "DZ"
      ],
      "severityScore": 68,
      "metarRaw": "METAR EYPA 142350Z AUTO 15011KT 4900 -SN BKN015/// OVC021/// M07/M09 Q1014",
      "tafRaw": "TAF EYPA 142300Z 1500/1524 15010KT 8000 BKN020 \n  PROB40 \n  TEMPO 1500/1503 -FZDZ \n  TEMPO 1503/1509 VRB04KT BKN010 \n  BECMG 1509/1511 VRB04KT SCT010 BKN015 \n  PROB40 \n  TEMPO 1509/1518 3000 SN BKN010 \n  BECMG 1518/1520 SCT015"
    },
    {
      "icao": "EPKK",
      "iata": "KRK",
      "name": "Kraków John Paul II International Airport",
      "updatedAt": "142330Z",
      "visibility_m": 10000,
      "taf_visibility_m": 1200,
      "worst_visibility_m": 1200,
      "ceiling_ft": 900,
      "hazards": [
        "BR",
        "RA",
        "DZ"
      ],
      "severityScore": 67,
      "metarRaw": "METAR EPKK 142330Z 27011KT 9999 FEW007 OVC009 02/00 Q1017",
      "tafRaw": "TAF EPKK 142330Z 1500/1524 26010KT 6000 OVC011 \n  TEMPO 1500/1506 2000 BR BKN004 \n  BECMG 1506/1508 VRB02KT 1200 BR \n  BECMG 1508/1511 07010KT 6000 \n  TEMPO 1515/1524 2000 -RADZ BR BKN004"
    },
    {
      "icao": "LIME",
      "iata": "BGY",
      "name": "Milan Bergamo Airport / Antonio Locatelli Air Base",
      "updatedAt": "142320Z",
      "visibility_m": 2500,
      "taf_visibility_m": 600,
      "worst_visibility_m": 600,
      "ceiling_ft": 3500,
      "hazards": [
        "BR",
        "RA",
        "FG"
      ],
      "severityScore": 67,
      "metarRaw": "METAR LIME 142320Z 02002KT 2500 -RA BR FEW004 BKN035 05/05 Q1023 NOSIG",
      "tafRaw": "TAF LIME 142300Z 1500/1524 VRB04KT 4000 BR FEW005 BKN040 \n  PROB40 \n  TEMPO 1500/1506 0800 FG BKN005 \n  TEMPO 1506/1518 2000 -RA \n  TEMPO 1518/1524 0600 FG BKN004"
    },
    {
      "icao": "LIPX",
      "iata": "VRN",
      "name": "Verona Villafranca Valerio Catullo Airport",
      "updatedAt": "142320Z",
      "visibility_m": 3000,
      "taf_visibility_m": 600,
      "worst_visibility_m": 600,
      "ceiling_ft": 6000,
      "hazards": [
        "BR",
        "FG",
        "RA"
      ],
      "severityScore": 67,
      "metarRaw": "METAR LIPX 142320Z 33003KT 3000 BR BKN060 05/04 Q1023",
      "tafRaw": "TAF LIPX 142300Z 1500/1524 VRB04KT 3000 BR FEW010 BKN050 \n  TEMPO 1500/1506 1200 BCFG BKN010 \n  TEMPO 1506/1516 1200 -RA \n  BECMG 1516/1518 0600 FG BKN004"
    },
    {
      "icao": "LPFR",
      "iata": "FAO",
      "name": "Faro Airport",
      "updatedAt": "142330Z",
      "visibility_m": 10000,
      "taf_visibility_m": 3000,
      "worst_visibility_m": 3000,
      "ceiling_ft": 300,
      "hazards": [
        "BR",
        "RA",
        "DZ"
      ],
      "severityScore": 67,
      "metarRaw": "METAR LPFR 142330Z 02005KT CAVOK 10/09 Q1022",
      "tafRaw": "TAF LPFR 142300Z 1500/1524 01005KT 9999 FEW012 \n  PROB30 \n  TEMPO 1500/1508 3000 BR BKN003 \n  BECMG 1511/1513 21007KT BKN040 \n  BECMG 1517/1519 23018KT SCT015 BKN030 \n  TEMPO 1519/1524 4000 RADZ BR SCT008 BKN012"
    },
    {
      "icao": "LIBR",
      "iata": "BDS",
      "name": "Brindisi Airport",
      "updatedAt": "142320Z",
      "visibility_m": 9000,
      "taf_visibility_m": 400,
      "worst_visibility_m": 400,
      "ceiling_ft": null,
      "hazards": [
        "BR",
        "FG"
      ],
      "severityScore": 65,
      "metarRaw": "METAR LIBR 142320Z VRB02KT 9000 FEW030 08/06 Q1024",
      "tafRaw": "TAF LIBR 142300Z 1500/1524 VRB06KT 9999 FEW025 \n  BECMG 1502/1504 3000 BR \n  TEMPO 1504/1509 0400 FG \n  BECMG 1510/1512 9000 \n  BECMG 1520/1522 3000 BR"
    },
    {
      "icao": "LQTZ",
      "iata": "TZL",
      "name": "Tuzla International Airport",
      "updatedAt": "142330Z",
      "visibility_m": 10000,
      "taf_visibility_m": 400,
      "worst_visibility_m": 400,
      "ceiling_ft": 6400,
      "hazards": [
        "FG",
        "BR"
      ],
      "severityScore": 65,
      "metarRaw": "METAR LQTZ 142330Z VRB01KT 9999 BKN064 02/02 Q1022",
      "tafRaw": "TAF LQTZ 142300Z 1500/1524 VRB02KT 9999 SCT040 TX08/1513Z TN00/1505Z \n  PROB40 1500/1509 2000 BR \n  PROB30 1502/1508 0400 FG BKN002 \n  TEMPO 1520/1524 2000 BR"
    },
    {
      "icao": "LYBE",
      "iata": "BEG",
      "name": "Belgrade Nikola Tesla Airport",
      "updatedAt": "142330Z",
      "visibility_m": 10000,
      "taf_visibility_m": 400,
      "worst_visibility_m": 400,
      "ceiling_ft": null,
      "hazards": [
        "FG",
        "BR"
      ],
      "severityScore": 65,
      "metarRaw": "METAR LYBE 142330Z 00000KT CAVOK 03/01 Q1022 NOSIG",
      "tafRaw": "TAF LYBE 142300Z 1500/1524 20004KT 8000 NSC TX08/1513Z TN01/1506Z \n  TEMPO 1503/1509 2000 BR \n  PROB30 \n  TEMPO 1504/1507 0400 FG"
    },
    {
      "icao": "LYNI",
      "iata": "INI",
      "name": "Niš Constantine the Great Airport",
      "updatedAt": "142330Z",
      "visibility_m": 4500,
      "taf_visibility_m": 500,
      "worst_visibility_m": 500,
      "ceiling_ft": 6000,
      "hazards": [
        "BR",
        "FG"
      ],
      "severityScore": 65,
      "metarRaw": "METAR LYNI 142330Z 09003KT 4500 BR BKN060 04/03 Q1023 NOSIG",
      "tafRaw": "TAF LYNI 142300Z 1500/1524 08004KT 4000 BR BKN050 TX07/1513Z TN01/1506Z \n  TEMPO 1503/1508 1000 \n  BECMG 1518/1520 2000 \n  TEMPO 1520/1524 0500 FG"
    },
    {
      "icao": "OJAI",
      "iata": "AMM",
      "name": "Queen Alia International Airport",
      "updatedAt": "142300Z",
      "visibility_m": 4000,
      "taf_visibility_m": 500,
      "worst_visibility_m": 500,
      "ceiling_ft": 3000,
      "hazards": [
        "BR",
        "FG"
      ],
      "severityScore": 65,
      "metarRaw": "METAR OJAI 142300Z 26006KT 4000 BR FEW030 06/04 Q1023 NOSIG",
      "tafRaw": "TAF OJAI 142300Z 1500/1606 27012KT 4000 BR FEW025TCU BKN030 \n  PROB40 \n  TEMPO 1500/1508 2000 \n  PROB40 1500/1507 0500 FG \n  BECMG 1508/1510 5000 HZ SCT030"
    },
    {
      "icao": "EGKK",
      "iata": "LGW",
      "name": "London Gatwick Airport",
      "updatedAt": "142350Z",
      "visibility_m": 10000,
      "taf_visibility_m": 3000,
      "worst_visibility_m": 3000,
      "ceiling_ft": 700,
      "hazards": [
        "RA",
        "SHRA",
        "DZ"
      ],
      "severityScore": 61,
      "metarRaw": "METAR EGKK 142350Z 21011KT 9999 BKN007 10/10 Q1006",
      "tafRaw": "TAF EGKK 142258Z 1500/1606 21009KT 9999 SCT010 \n  PROB30 \n  TEMPO 1500/1508 6000 -RADZ BKN006 \n  TEMPO 1508/1523 6000 -RADZ RA BKN007 \n  PROB30 \n  TEMPO 1508/1523 3000 RADZ +RA BKN004 \n  BECMG 1511/1514 15010KT \n  PROB30 \n  TEMPO 1512/1518 19015G25KT \n  BECMG 1517/1520 25010KT \n  PROB30 \n  TEMPO 1523/1603 6000 BKN007 \n  BECMG 1600/1603 17006KT \n  PROB40 \n  TEMPO 1603/1606 6000 SHRA BKN008"
    },
    {
      "icao": "ENBR",
      "iata": "BGO",
      "name": "Bergen Airport, Flesland",
      "updatedAt": "142350Z",
      "visibility_m": 10000,
      "taf_visibility_m": 4000,
      "worst_visibility_m": 4000,
      "ceiling_ft": 900,
      "hazards": [
        "RA",
        "BR",
        "SHRA"
      ],
      "severityScore": 61,
      "metarRaw": "METAR ENBR 142350Z AUTO 13010KT 9999 -RA FEW008/// SCT014/// BKN017/// 04/03 Q1003 RMK WIND 1200FT 15017KT",
      "tafRaw": "TAF ENBR 142300Z 1500/1524 14012KT 9999 -SHRA FEW015TCU BKN030 \n  TEMPO 1500/1503 SHRA BKN014CB \n  BECMG 1513/1515 15018G28KT \n  TEMPO 1514/1524 4000 RA BKN009 SCT018CB"
    },
    {
      "icao": "LPPR",
      "iata": "OPO",
      "name": "Francisco de Sá Carneiro Airport",
      "updatedAt": "142330Z",
      "visibility_m": 10000,
      "taf_visibility_m": 1500,
      "worst_visibility_m": 1500,
      "ceiling_ft": 4000,
      "hazards": [
        "BR",
        "RA",
        "SHRA",
        "DZ"
      ],
      "severityScore": 56,
      "metarRaw": "METAR LPPR 142330Z 14004KT 060V150 9999 FEW022 BKN040 10/09 Q1021",
      "tafRaw": "TAF LPPR 142300Z 1500/1524 13007KT 9999 SCT018 BKN030 \n  BECMG 1506/1508 17020KT 8000 -RA SCT008 BKN016 \n  TEMPO 1508/1514 17025G35KT 3000 RADZ BR SCT003 BKN006 \n  PROB40 \n  TEMPO 1511/1514 17030G40KT 1500 +RA BKN003 FEW018CB \n  BECMG 1514/1516 31013KT 9999 NSW SCT018 \n  BECMG 1519/1521 VRB02KT \n  PROB40 \n  TEMPO 1521/1524 3000 SHRA SCT012 FEW018CB BKN030"
    },
    {
      "icao": "LIPE",
      "iata": "BLQ",
      "name": "Bologna Guglielmo Marconi Airport",
      "updatedAt": "142320Z",
      "visibility_m": 3000,
      "taf_visibility_m": 800,
      "worst_visibility_m": 800,
      "ceiling_ft": 6000,
      "hazards": [
        "FG",
        "BR"
      ],
      "severityScore": 55,
      "metarRaw": "METAR LIPE 142320Z VRB01KT 3000 MIFG NSC 02/02 Q1024",
      "tafRaw": "TAF LIPE 142300Z 1500/1524 VRB04KT 4000 BR SCT020 BKN060 \n  TEMPO 1503/1509 0800 FG \n  BECMG 1512/1514 6000 \n  BECMG 1517/1519 2000 BR"
    },
    {
      "icao": "LYPG",
      "iata": "TGD",
      "name": "Podgorica Airport / Podgorica Golubovci Airbase",
      "updatedAt": "142330Z",
      "visibility_m": 10000,
      "taf_visibility_m": 600,
      "worst_visibility_m": 600,
      "ceiling_ft": null,
      "hazards": [
        "FG",
        "BR"
      ],
      "severityScore": 55,
      "metarRaw": "METAR LYPG 142330Z VRB01KT 9999 SCT030 SCT070 05/04 Q1026 NOSIG",
      "tafRaw": "TAF LYPG 142300Z 1500/1524 VRB02KT 7000 SCT030 TX12/1513Z TN02/1505Z \n  TEMPO 1500/1507 1000 BR \n  PROB30 \n  TEMPO 1502/1507 0600 FG"
    },
    {
      "icao": "LRSB",
      "iata": "SBZ",
      "name": "Sibiu International Airport",
      "updatedAt": "142330Z",
      "visibility_m": 4700,
      "taf_visibility_m": 5000,
      "worst_visibility_m": 4700,
      "ceiling_ft": 1500,
      "hazards": [
        "BR",
        "SN",
        "RA"
      ],
      "severityScore": 52,
      "metarRaw": "METAR LRSB 142330Z AUTO 11004KT 4700 BR SCT031/// BKN038/// BKN160/// M01/M01 Q1018",
      "tafRaw": "TAF LRSB 142300Z 1500/1524 VRB04KT 5000 BR SCT010 OVC035 \n  PROB40 \n  TEMPO 1500/1507 32012KT 8000 NSW \n  BECMG 1507/1509 9999 NSW BKN015 BKN025 \n  PROB40 \n  TEMPO 1509/1514 5000 -RASN BR"
    },
    {
      "icao": "LRCL",
      "iata": "CLJ",
      "name": "Cluj Avram Iancu International Airport",
      "updatedAt": "142330Z",
      "visibility_m": 2000,
      "taf_visibility_m": null,
      "worst_visibility_m": 2000,
      "ceiling_ft": 300,
      "hazards": [
        "BR"
      ],
      "severityScore": 50,
      "metarRaw": "METAR LRCL 142330Z 00000KT 2000 BR OVC003 M02/M03 Q1020",
      "tafRaw": null
    },
    {
      "icao": "LUKK",
      "iata": "RMO",
      "name": "Chişinău International Airport",
      "updatedAt": "142330Z",
      "visibility_m": 1000,
      "taf_visibility_m": 1000,
      "worst_visibility_m": 1000,
      "ceiling_ft": 1000,
      "hazards": [
        "BR",
        "SN"
      ],
      "severityScore": 50,
      "metarRaw": "METAR LUKK 142330Z 09005KT 4400 -SN BR SCT025 OVC037 M08/M09 Q1020 TEMPO 1000 SN BR BKN010",
      "tafRaw": "TAF LUKK 142311Z 1500/1524 08006KT 4000 SN BR BKN012 \n  TEMPO 1500/1508 1000 BKN003 \n  TEMPO 1508/1515 2000 BKN006 \n  BECMG 1517/1519 02006KT CAVOK"
    },
    {
      "icao": "EGPF",
      "iata": "GLA",
      "name": "Glasgow Airport",
      "updatedAt": "142350Z",
      "visibility_m": 10000,
      "taf_visibility_m": 5000,
      "worst_visibility_m": 5000,
      "ceiling_ft": 1200,
      "hazards": [
        "RA",
        "BR",
        "SHRA"
      ],
      "severityScore": 48,
      "metarRaw": "METAR EGPF 142350Z AUTO 16012KT 9999 -RA BKN018/// BKN022/// BKN026/// //////TCU 06/04 Q0994",
      "tafRaw": "TAF EGPF 142255Z 1500/1524 19009KT 9999 SCT018 BKN028 \n  PROB30 \n  TEMPO 1500/1506 6000 SHRA BKN012 \n  PROB30 \n  TEMPO 1506/1518 BKN012 \n  PROB30 \n  TEMPO 1521/1524 5000 BR"
    },
    {
      "icao": "EDFH",
      "iata": "HHN",
      "name": "Frankfurt-Hahn Airport",
      "updatedAt": "142350Z",
      "visibility_m": 10000,
      "taf_visibility_m": 4000,
      "worst_visibility_m": 4000,
      "ceiling_ft": 800,
      "hazards": [
        "DZ",
        "RA"
      ],
      "severityScore": 47,
      "metarRaw": "METAR EDFH 142350Z 17006KT 9999 -DZ FEW040 07/06 Q1014",
      "tafRaw": "TAF EDFH 142300Z 1500/1524 20009KT 9999 BKN020 \n  BECMG 1500/1503 BKN012 \n  PROB30 \n  TEMPO 1500/1503 RA \n  TEMPO 1503/1507 4000 -RADZ BKN008 \n  TEMPO 1507/1511 BKN008 \n  BECMG 1512/1514 SCT020"
    },
    {
      "icao": "LPPT",
      "iata": "LIS",
      "name": "Lisbon Humberto Delgado Airport",
      "updatedAt": "142330Z",
      "visibility_m": 10000,
      "taf_visibility_m": 3000,
      "worst_visibility_m": 3000,
      "ceiling_ft": 4400,
      "hazards": [
        "BR",
        "RA",
        "SHRA",
        "DZ"
      ],
      "severityScore": 46,
      "metarRaw": "METAR LPPT 142330Z 27003KT 240V300 9999 BKN044 11/10 Q1022",
      "tafRaw": "TAF LPPT 142300Z 1500/1606 VRB02KT 9999 BKN035 \n  BECMG 1511/1514 21015KT 8000 -RA SCT012 BKN018 \n  TEMPO 1514/1517 21018G28KT 3000 RADZ BR SCT002 BKN005 FEW020TCU \n  BECMG 1517/1519 31012KT 9999 NSW SCT015 \n  BECMG 1522/1524 28010KT \n  TEMPO 1603/1606 28015G25KT 5000 SHRA BKN015 FEW018CB"
    },
    {
      "icao": "ESSA",
      "iata": "ARN",
      "name": "Stockholm-Arlanda Airport",
      "updatedAt": "142350Z",
      "visibility_m": 10000,
      "taf_visibility_m": 2000,
      "worst_visibility_m": 2000,
      "ceiling_ft": 400,
      "hazards": [
        "BR"
      ],
      "severityScore": 45,
      "metarRaw": "METAR ESSA 142350Z 21007KT 9999 BKN004 OVC007 00/M00 Q1006 BECMG SCT006 BKN015",
      "tafRaw": "TAF ESSA 142330Z 1500/1524 21007KT 9999 BKN004 \n  BECMG 1500/1502 BKN015 \n  TEMPO 1502/1512 BKN012 \n  TEMPO 1512/1518 BKN006 \n  PROB40 1518/1524 2000 BR BKN003"
    },
    {
      "icao": "LRBS",
      "iata": "BBU",
      "name": "Bucharest Băneasa Aurel Vlaicu International Airport",
      "updatedAt": "142330Z",
      "visibility_m": 5000,
      "taf_visibility_m": 1500,
      "worst_visibility_m": 1500,
      "ceiling_ft": 500,
      "hazards": [
        "BR"
      ],
      "severityScore": 45,
      "metarRaw": "METAR LRBS 142330Z 27006KT 240V310 5000 BR NSC M04/M06 Q1020 NOSIG",
      "tafRaw": "TAF LRBS 142300Z 1500/1524 24010KT 5000 BR NSC \n  PROB30 \n  TEMPO 1501/1506 1500 BR BKN005 \n  BECMG 1507/1509 VRB04KT 8000 NSW \n  BECMG 1509/1511 07010KT \n  BECMG 1518/1520 5000 BR"
    },
    {
      "icao": "LROP",
      "iata": "OTP",
      "name": "Bucharest Henri Coandă International Airport",
      "updatedAt": "142330Z",
      "visibility_m": 6000,
      "taf_visibility_m": 1500,
      "worst_visibility_m": 1500,
      "ceiling_ft": 500,
      "hazards": [
        "BR"
      ],
      "severityScore": 45,
      "metarRaw": "METAR LROP 142330Z 23008KT 6000 NSC M05/M07 Q1020 NOSIG",
      "tafRaw": "TAF LROP 142300Z 1500/1524 24010KT 5000 BR NSC \n  PROB30 \n  TEMPO 1501/1506 1500 BR BKN005 \n  BECMG 1507/1509 VRB04KT 8000 NSW \n  BECMG 1509/1511 07010KT \n  BECMG 1518/1520 5000 BR"
    },
    {
      "icao": "EGPD",
      "iata": "ABZ",
      "name": "Aberdeen International Airport",
      "updatedAt": "142350Z",
      "visibility_m": 10000,
      "taf_visibility_m": 4000,
      "worst_visibility_m": 4000,
      "ceiling_ft": 1300,
      "hazards": [
        "RA",
        "BR",
        "DZ"
      ],
      "severityScore": 44,
      "metarRaw": "METAR EGPD 142350Z AUTO 18018KT 9999 BKN013 05/03 Q0995 TEMPO RA",
      "tafRaw": "TAF EGPD 142257Z 1500/1524 18015KT 9999 BKN020 \n  TEMPO 1500/1508 8000 -RA BKN008 \n  PROB40 \n  TEMPO 1500/1503 19018G28KT \n  PROB30 \n  TEMPO 1502/1507 4000 RADZ BKN006 \n  BECMG 1521/1524 28002KT \n  PROB40 \n  TEMPO 1521/1524 5000 BR"
    },
    {
      "icao": "EHBK",
      "iata": "MST",
      "name": "Maastricht Aachen Airport",
      "updatedAt": "142355Z",
      "visibility_m": 10000,
      "taf_visibility_m": 4000,
      "worst_visibility_m": 4000,
      "ceiling_ft": 1200,
      "hazards": [
        "BR",
        "RA",
        "DZ"
      ],
      "severityScore": 44,
      "metarRaw": "METAR EHBK 142355Z AUTO 20012KT 9999 NSC 09/08 Q1012",
      "tafRaw": "TAF EHBK 142317Z 1500/1606 18010KT CAVOK \n  PROB30 \n  TEMPO 1500/1510 4000 BR DZRA BKN012 \n  BECMG 1514/1517 16008KT \n  BECMG 1600/1603 21014KT"
    },
    {
      "icao": "LRIA",
      "iata": "IAS",
      "name": "Iaşi Airport",
      "updatedAt": "142330Z",
      "visibility_m": 2000,
      "taf_visibility_m": 800,
      "worst_visibility_m": 800,
      "ceiling_ft": 2900,
      "hazards": [
        "SN"
      ],
      "severityScore": 43,
      "metarRaw": "METAR LRIA 142330Z 09007KT 2000 -SN OVC029 M05/M05 Q1019",
      "tafRaw": "TAF LRIA 142300Z 1500/1509 VRB04KT 3000 -SN SCT010 OVC030 \n  BECMG 1500/1502 1500 SN BKN010 OVC025 \n  PROB40 \n  TEMPO 1503/1506 0800 +SN BKN005 OVC020 \n  BECMG 1507/1509 9999 NSW BKN015 OVC030"
    },
    {
      "icao": "LIMF",
      "iata": "TRN",
      "name": "Turin Airport",
      "updatedAt": "142320Z",
      "visibility_m": 10000,
      "taf_visibility_m": 1200,
      "worst_visibility_m": 1200,
      "ceiling_ft": 1000,
      "hazards": [
        "FG"
      ],
      "severityScore": 42,
      "metarRaw": "METAR LIMF 142320Z VRB02KT 9999 SCT050 04/M01 Q1023",
      "tafRaw": "TAF LIMF 142300Z 1500/1524 VRB03KT 8000 SCT050 \n  TEMPO 1518/1524 1200 BCFG BKN010"
    },
    {
      "icao": "EPSY",
      "iata": "SZY",
      "name": "Olsztyn-Mazury Airport",
      "updatedAt": "142330Z",
      "visibility_m": 5000,
      "taf_visibility_m": 2000,
      "worst_visibility_m": 2000,
      "ceiling_ft": 1000,
      "hazards": [
        "BR",
        "SN"
      ],
      "severityScore": 40,
      "metarRaw": "METAR EPSY 142330Z 14003KT 090V180 5000 BR OVC010 M06/M07 Q1015",
      "tafRaw": "TAF EPSY 142330Z 1500/1509 15004KT 5000 BR BKN012 \n  PROB40 \n  TEMPO 1500/1503 2000 -SN BR OVC005"
    },
    {
      "icao": "LIPY",
      "iata": "AOI",
      "name": "Marche Airport",
      "updatedAt": "142320Z",
      "visibility_m": 4500,
      "taf_visibility_m": 1200,
      "worst_visibility_m": 1200,
      "ceiling_ft": 6000,
      "hazards": [
        "BR",
        "FG"
      ],
      "severityScore": 40,
      "metarRaw": "METAR LIPY 142320Z AUTO 15002KT 4500 BR OVC056/// 08/06 Q1023",
      "tafRaw": "TAF LIPY 142300Z 1500/1524 VRB05KT 3000 BR BKN060 \n  PROB40 \n  TEMPO 1500/1506 1200 BCFG \n  BECMG 1508/1510 8000 \n  BECMG 1520/1522 3000 BR"
    },
    {
      "icao": "LIPZ",
      "iata": "VCE",
      "name": "Venice Marco Polo Airport",
      "updatedAt": "142320Z",
      "visibility_m": 10000,
      "taf_visibility_m": 1200,
      "worst_visibility_m": 1200,
      "ceiling_ft": 6000,
      "hazards": [
        "BR",
        "FG"
      ],
      "severityScore": 40,
      "metarRaw": "METAR LIPZ 142320Z VRB01KT 9999 BKN060 05/03 Q1024 NOSIG",
      "tafRaw": "TAF LIPZ 142300Z 1500/1606 VRB04KT 4000 BR SCT040 \n  BECMG 1509/1511 7000 \n  BECMG 1519/1521 3000 BR \n  TEMPO 1603/1606 1200 BCFG"
    },
    {
      "icao": "LRSV",
      "iata": "SCV",
      "name": "Suceava Stefan cel Mare Airport",
      "updatedAt": "142330Z",
      "visibility_m": 5000,
      "taf_visibility_m": 1500,
      "worst_visibility_m": 1500,
      "ceiling_ft": 4000,
      "hazards": [
        "SN",
        "BR"
      ],
      "severityScore": 38,
      "metarRaw": "METAR LRSV 142330Z COR 06003KT 5000 SN BKN040 M07/M08 Q1016",
      "tafRaw": "TAF LRSV 142300Z 1500/1509 06005KT 3000 -SN SCT015 OVC040 \n  TEMPO 1501/1506 1500 SN BR BKN010 OVC035 \n  BECMG 1507/1509 5000"
    },
    {
      "icao": "ENZV",
      "iata": "SVG",
      "name": "Stavanger Airport, Sola",
      "updatedAt": "142350Z",
      "visibility_m": 10000,
      "taf_visibility_m": 4000,
      "worst_visibility_m": 4000,
      "ceiling_ft": 900,
      "hazards": [
        "RA"
      ],
      "severityScore": 37,
      "metarRaw": "METAR ENZV 142350Z AUTO 15010KT 9999 FEW022/// OVC042/// 04/03 Q1005 RERA",
      "tafRaw": "TAF ENZV 142300Z 1500/1524 16012KT 9999 BKN025 \n  BECMG 1509/1511 14020G35KT \n  TEMPO 1509/1517 4000 RA BKN009 SCT018CB \n  BECMG 1514/1516 15015KT"
    },
    {
      "icao": "LFOB",
      "iata": "BVA",
      "name": "Beauvais Tillé airport",
      "updatedAt": "142330Z",
      "visibility_m": 10000,
      "taf_visibility_m": 4000,
      "worst_visibility_m": 4000,
      "ceiling_ft": 800,
      "hazards": [
        "RA"
      ],
      "severityScore": 37,
      "metarRaw": "METAR LFOB 142330Z AUTO 19011KT 9999 FEW012 OVC029 10/09 Q1011 TEMPO OVC008",
      "tafRaw": "TAF LFOB 142300Z 1500/1524 20009KT 9999 BKN020 \n  TEMPO 1500/1512 OVC012 \n  PROB40 \n  TEMPO 1500/1506 OVC008 \n  BECMG 1509/1511 19015G25KT \n  TEMPO 1512/1524 4000 -RA BKN011"
    },
    {
      "icao": "GMAD",
      "iata": "AGA",
      "name": "Al Massira Airport",
      "updatedAt": "142330Z",
      "visibility_m": 10000,
      "taf_visibility_m": 2000,
      "worst_visibility_m": 2000,
      "ceiling_ft": 500,
      "hazards": [
        "BR"
      ],
      "severityScore": 35,
      "metarRaw": "METAR GMAD 142330Z 05003KT 020V160 9999 FEW026 12/12 Q1021 NOSIG",
      "tafRaw": "TAF GMAD 142300Z 1500/1606 06006KT 8000 SCT020 \n  TEMPO 1502/1508 2000 BR OVC005"
    },
    {
      "icao": "LGTS",
      "iata": "SKG",
      "name": "Thessaloniki Macedonia International Airport",
      "updatedAt": "142350Z",
      "visibility_m": 10000,
      "taf_visibility_m": 4000,
      "worst_visibility_m": 4000,
      "ceiling_ft": null,
      "hazards": [
        "TS",
        "BR"
      ],
      "severityScore": 35,
      "metarRaw": "METAR LGTS 142350Z VRB02KT CAVOK 02/02 Q1024 NOSIG",
      "tafRaw": "TAF LGTS 142300Z 1500/1524 VRB03KT 9999 FEW030 \n  PROB30 1503/1507 4000 BR SCT008"
    },
    {
      "icao": "LRTM",
      "iata": "TGM",
      "name": "Târgu Mureş Transilvania International Airport",
      "updatedAt": "142330Z",
      "visibility_m": 8000,
      "taf_visibility_m": 3000,
      "worst_visibility_m": 3000,
      "ceiling_ft": 500,
      "hazards": [
        "BR"
      ],
      "severityScore": 35,
      "metarRaw": "METAR LRTM 142330Z AUTO 05004KT 8000 BKN007/// M01/M03 Q1019",
      "tafRaw": "TAF LRTM 141400Z 1415/1424 VRB03KT 9999 BKN015 BKN025 \n  TEMPO 1415/1418 BKN010 BKN025 \n  BECMG 1418/1420 3000 BR BKN005"
    },
    {
      "icao": "LEBB",
      "iata": "BIO",
      "name": "Bilbao Airport",
      "updatedAt": "142330Z",
      "visibility_m": 10000,
      "taf_visibility_m": 3000,
      "worst_visibility_m": 3000,
      "ceiling_ft": 1000,
      "hazards": [
        "BR",
        "RA"
      ],
      "severityScore": 34,
      "metarRaw": "METAR LEBB 142330Z AUTO 09006KT CAVOK 07/06 Q1018",
      "tafRaw": "TAF LEBB 142300Z 1500/1524 20009KT 9999 FEW025 TX13/1512Z TN06/1502Z \n  PROB30 \n  TEMPO 1500/1503 12010KT 3000 BR BKN010 \n  TEMPO 1506/1517 20018G29KT \n  TEMPO 1509/1515 20024G44KT \n  TEMPO 1513/1520 3000 RA"
    },
    {
      "icao": "EGBB",
      "iata": "BHX",
      "name": "Birmingham Airport",
      "updatedAt": "142350Z",
      "visibility_m": 7000,
      "taf_visibility_m": 1200,
      "worst_visibility_m": 1200,
      "ceiling_ft": 2500,
      "hazards": [
        "BR",
        "RA"
      ],
      "severityScore": 32,
      "metarRaw": "METAR EGBB 142350Z 18006KT 150V220 7000 SCT006 BKN025 06/05 Q1003",
      "tafRaw": "TAF EGBB 142255Z 1500/1524 18009KT 9999 SCT010 \n  TEMPO 1500/1511 6000 BKN008 \n  PROB40 \n  TEMPO 1500/1511 1200 BR BKN002 \n  PROB40 \n  TEMPO 1511/1518 5000 RA BKN009 \n  BECMG 1514/1517 35010KT \n  BECMG 1520/1523 20006KT"
    },
    {
      "icao": "LIMC",
      "iata": "MXP",
      "name": "Milan Malpensa International Airport",
      "updatedAt": "142320Z",
      "visibility_m": 10000,
      "taf_visibility_m": 1200,
      "worst_visibility_m": 1200,
      "ceiling_ft": 4500,
      "hazards": [
        "BR",
        "RA"
      ],
      "severityScore": 32,
      "metarRaw": "METAR LIMC 142320Z VRB01KT 9999 BKN045 06/03 Q1023 NOSIG",
      "tafRaw": "TAF LIMC 142300Z 1500/1606 VRB05KT 8000 BKN040 \n  TEMPO 1500/1524 4000 -RA BKN010 \n  TEMPO 1600/1606 1200 -RA BR BKN008"
    },
    {
      "icao": "LJLJ",
      "iata": "LJU",
      "name": "Ljubljana Jože Pučnik Airport",
      "updatedAt": "142330Z",
      "visibility_m": 10000,
      "taf_visibility_m": 10000,
      "worst_visibility_m": 10000,
      "ceiling_ft": null,
      "hazards": [
        "FG",
        "RA"
      ],
      "severityScore": 32,
      "metarRaw": "METAR LJLJ 142330Z 32002KT 9999 MIFG FEW002 M02/M03 Q1022 NOSIG",
      "tafRaw": "TAF LJLJ 142300Z 1500/1600 30003KT 9999 FEW020 \n  PROB30 \n  TEMPO 1512/1521 -RA"
    },
    {
      "icao": "LPPS",
      "iata": "PXO",
      "name": "Porto Santo Airport",
      "updatedAt": "142330Z",
      "visibility_m": 10000,
      "taf_visibility_m": 5000,
      "worst_visibility_m": 5000,
      "ceiling_ft": 3000,
      "hazards": [
        "BR",
        "RA",
        "DZ"
      ],
      "severityScore": 32,
      "metarRaw": "METAR LPPS 142330Z 02004KT 350V050 9999 SCT015 BKN030 15/08 Q1027",
      "tafRaw": "TAF LPPS 142300Z 1500/1606 34007KT 9999 SCT015 \n  TEMPO 1500/1521 FEW015 BKN030 \n  BECMG 1506/1508 28012KT \n  BECMG 1521/1523 5000 RADZ BR SCT006 BKN012 \n  BECMG 1601/1603 34015KT 9999 NSW SCT015"
    },
    {
      "icao": "EYKA",
      "iata": "KUN",
      "name": "Kaunas International Airport",
      "updatedAt": "142350Z",
      "visibility_m": 9000,
      "taf_visibility_m": 3000,
      "worst_visibility_m": 3000,
      "ceiling_ft": 1000,
      "hazards": [
        "SN"
      ],
      "severityScore": 30,
      "metarRaw": "METAR EYKA 142350Z 15008KT 9000 NSC M11/M13 Q1019",
      "tafRaw": "TAF EYKA 142300Z 1500/1524 15010KT 9000 SCT020 \n  BECMG 1501/1503 5000 SN BKN020 \n  TEMPO 1503/1506 3000 \n  TEMPO 1506/1509 3000 BKN010 \n  BECMG 1509/1511 9000 NSW SCT010 BKN015"
    },
    {
      "icao": "LIBP",
      "iata": "PSR",
      "name": "Abruzzo Airport",
      "updatedAt": "142320Z",
      "visibility_m": 7000,
      "taf_visibility_m": 2000,
      "worst_visibility_m": 2000,
      "ceiling_ft": null,
      "hazards": [
        "BR",
        "FG"
      ],
      "severityScore": 30,
      "metarRaw": "METAR LIBP 142320Z AUTO 22004KT 7000 NCD 03/03 Q1025",
      "tafRaw": "TAF LIBP 142300Z 1500/1524 VRB05KT 7000 NSC \n  TEMPO 1500/1507 2000 BCFG \n  BECMG 1520/1522 4000 BR"
    },
    {
      "icao": "LQBK",
      "iata": "BNX",
      "name": "Banja Luka International Airport",
      "updatedAt": "142330Z",
      "visibility_m": 10000,
      "taf_visibility_m": 1200,
      "worst_visibility_m": 1200,
      "ceiling_ft": null,
      "hazards": [
        "FG"
      ],
      "severityScore": 30,
      "metarRaw": "METAR LQBK 142330Z 13005KT 100V160 CAVOK 01/00 Q1022 NOSIG",
      "tafRaw": "TAF LQBK 142300Z 1500/1524 21007KT CAVOK TX10/1513Z TN02/1505Z \n  PROB30 \n  TEMPO 1503/1507 1200 BCFG"
    },
    {
      "icao": "LZTT",
      "iata": "TAT",
      "name": "Poprad-Tatry Airport",
      "updatedAt": "142330Z",
      "visibility_m": 7000,
      "taf_visibility_m": null,
      "worst_visibility_m": 7000,
      "ceiling_ft": 800,
      "hazards": [],
      "severityScore": 30,
      "metarRaw": "METAR LZTT 142330Z 07003KT 7000 OVC008 M04/M06 Q1016",
      "tafRaw": null
    },
    {
      "icao": "LTAC",
      "iata": "ESB",
      "name": "Esenboğa International Airport",
      "updatedAt": "142350Z",
      "visibility_m": 10000,
      "taf_visibility_m": 2500,
      "worst_visibility_m": 2500,
      "ceiling_ft": 3500,
      "hazards": [
        "BR",
        "SN"
      ],
      "severityScore": 28,
      "metarRaw": "METAR LTAC 142350Z 28003KT 240V320 9999 SCT013 BKN035 M03/M05 Q1023 NOSIG",
      "tafRaw": "TAF LTAC 142240Z 1500/1524 22008KT 9999 FEW010 SCT040 BKN100 \n  PROB30 \n  TEMPO 1503/1507 2500 -SN BR FEW008 BKN030 BKN080"
    },
    {
      "icao": "UGKO",
      "iata": "KUT",
      "name": "David the Builder Kutaisi International Airport",
      "updatedAt": "142330Z",
      "visibility_m": 10000,
      "taf_visibility_m": 2000,
      "worst_visibility_m": 2000,
      "ceiling_ft": 5000,
      "hazards": [
        "SHSN",
        "SN"
      ],
      "severityScore": 28,
      "metarRaw": "METAR UGKO 142330Z 02002KT CAVOK M02/M02 Q1024 NOSIG",
      "tafRaw": "TAF UGKO 142300Z 1500/1524 08007KT 9999 BKN050 TX07/1511Z TNM03/1501Z \n  TEMPO 1500/1506 2000 SHSN SCT010 BKN023CB \n  BECMG 1509/1511 CAVOK"
    },
    {
      "icao": "ENHD",
      "iata": "HAU",
      "name": "Haugesund Airport, Karmøy",
      "updatedAt": "142350Z",
      "visibility_m": 10000,
      "taf_visibility_m": 10000,
      "worst_visibility_m": 10000,
      "ceiling_ft": 3000,
      "hazards": [
        "SHRA",
        "RA"
      ],
      "severityScore": 26,
      "metarRaw": "METAR ENHD 142350Z AUTO 13012KT 9999 FEW022/// 04/03 Q1004",
      "tafRaw": "TAF ENHD 141400Z 1415/1423 24012KT 9999 -SHRA FEW020TCU BKN030 \n  TEMPO 1415/1421 SHRA BKN014CB \n  BECMG 1418/1420 15008KT"
    },
    {
      "icao": "LTFM",
      "iata": "IST",
      "name": "İstanbul Airport",
      "updatedAt": "142350Z",
      "visibility_m": 10000,
      "taf_visibility_m": 10000,
      "worst_visibility_m": 10000,
      "ceiling_ft": 4000,
      "hazards": [
        "SHRA",
        "RA"
      ],
      "severityScore": 26,
      "metarRaw": "METAR LTFM 142350Z 21011KT 160V230 9999 BKN040 08/05 Q1023 NOSIG",
      "tafRaw": "TAF LTFM 142240Z 1500/1606 21014KT 9999 BKN040 \n  TEMPO 1500/1504 -SHRA BKN025 \n  BECMG 1504/1506 SCT040 \n  TEMPO 1507/1511 23017G27KT \n  BECMG 1518/1521 03007KT BKN008 BKN025"
    },
    {
      "icao": "GCTS",
      "iata": "TFS",
      "name": "Tenerife Sur Airport",
      "updatedAt": "142330Z",
      "visibility_m": 10000,
      "taf_visibility_m": 10000,
      "worst_visibility_m": 10000,
      "ceiling_ft": null,
      "hazards": [
        "TS"
      ],
      "severityScore": 25,
      "metarRaw": "METAR GCTS 142330Z 05013KT 9999 FEW040 17/09 Q1024 NOSIG",
      "tafRaw": "TAF GCTS 142000Z 1421/1521 03007KT 9999 FEW040 TX22/1514Z TN14/1506Z \n  BECMG 1509/1512 09016KT \n  PROB30 \n  TEMPO 1512/1518 09015G25KT"
    },
    {
      "icao": "LATI",
      "iata": "TIA",
      "name": "Tirana International Airport Mother Teresa",
      "updatedAt": "142350Z",
      "visibility_m": 7000,
      "taf_visibility_m": null,
      "worst_visibility_m": 7000,
      "ceiling_ft": null,
      "hazards": [
        "FG"
      ],
      "severityScore": 25,
      "metarRaw": "METAR LATI 142350Z 17004KT 7000 2400S BCFG NSC 04/03 Q1026 NOSIG",
      "tafRaw": null
    },
    {
      "icao": "BIKF",
      "iata": "KEF",
      "name": "Keflavik International Airport",
      "updatedAt": "142330Z",
      "visibility_m": 10000,
      "taf_visibility_m": 10000,
      "worst_visibility_m": 10000,
      "ceiling_ft": 1700,
      "hazards": [
        "RA"
      ],
      "severityScore": 24,
      "metarRaw": "METAR BIKF 142330Z 07009KT 9999 -RA BKN017 OVC037 01/M02 Q0985",
      "tafRaw": "TAF BIKF 142253Z 1500/1600 06015KT 9999 SCT035 TX02/1502Z TNM01/1510Z \n  BECMG 1508/1510 02018KT"
    },
    {
      "icao": "GMMX",
      "iata": "RAK",
      "name": "Menara Airport",
      "updatedAt": "142330Z",
      "visibility_m": 10000,
      "taf_visibility_m": 3000,
      "worst_visibility_m": 3000,
      "ceiling_ft": 1000,
      "hazards": [
        "BR"
      ],
      "severityScore": 22,
      "metarRaw": "METAR GMMX 142330Z VRB01KT 9999 SCT026 SCT090 10/08 Q1022 NOSIG",
      "tafRaw": "TAF GMMX 142300Z 1500/1606 12006KT 8000 SCT026 SCT080 \n  TEMPO 1503/1509 3000 BR BKN010"
    },
    {
      "icao": "EBCI",
      "iata": "CRL",
      "name": "Brussels South Charleroi Airport",
      "updatedAt": "142350Z",
      "visibility_m": 10000,
      "taf_visibility_m": 2500,
      "worst_visibility_m": 2500,
      "ceiling_ft": 2300,
      "hazards": [
        "RA",
        "DZ"
      ],
      "severityScore": 22,
      "metarRaw": "METAR EBCI 142350Z 19008KT 9999 BKN023 09/07 Q1012 NOSIG",
      "tafRaw": "TAF EBCI 142326Z 1500/1606 20010KT 9999 FEW012 SCT020 \n  TEMPO 1504/1510 2500 -RADZ BKN004 \n  PROB40 \n  TEMPO 1520/1604 19015G25KT \n  TEMPO 1600/1604 4000 RA -RADZ BKN006"
    },
    {
      "icao": "ESKN",
      "iata": "NYO",
      "name": "Stockholm Skavsta Airport",
      "updatedAt": "142350Z",
      "visibility_m": 10000,
      "taf_visibility_m": 4000,
      "worst_visibility_m": 4000,
      "ceiling_ft": 1900,
      "hazards": [
        "BR"
      ],
      "severityScore": 22,
      "metarRaw": "METAR ESKN 142350Z 24007KT 9999 OVC019 02/01 Q1007",
      "tafRaw": "TAF ESKN 142330Z 1500/1524 22006KT 9999 BKN020 \n  PROB40 1500/1509 BKN013 \n  TEMPO 1509/1514 BKN007 \n  BECMG 1514/1516 4000 BR BKN003 \n  TEMPO 1517/1524 8000 SCT005 BKN012"
    },
    {
      "icao": "EYVI",
      "iata": "VNO",
      "name": "Vilnius International Airport",
      "updatedAt": "142350Z",
      "visibility_m": 8000,
      "taf_visibility_m": 5000,
      "worst_visibility_m": 5000,
      "ceiling_ft": 1500,
      "hazards": [
        "BR"
      ],
      "severityScore": 22,
      "metarRaw": "METAR EYVI 142350Z 14008KT 8000 NSC M15/M16 Q1019 NOSIG",
      "tafRaw": "TAF EYVI 142300Z 1500/1524 15010KT 8000 SCT015 \n  TEMPO 1500/1506 5000 BR \n  TEMPO 1506/1508 BKN015 \n  BECMG 1508/1510 BKN015"
    },
    {
      "icao": "LBWN",
      "iata": "VAR",
      "name": "Varna Airport",
      "updatedAt": "142330Z",
      "visibility_m": 8000,
      "taf_visibility_m": 3000,
      "worst_visibility_m": 3000,
      "ceiling_ft": 1000,
      "hazards": [
        "BR"
      ],
      "severityScore": 22,
      "metarRaw": "METAR LBWN 142330Z AUTO 28004KT 8000 BKN045/// 03/03 Q1020 NOSIG",
      "tafRaw": "TAF LBWN 142300Z 1500/1524 VRB03KT 6000 BKN030 \n  TEMPO 1500/1506 3000 BR BKN010 \n  BECMG 1506/1508 27012KT \n  BECMG 1514/1516 VRB03KT"
    },
    {
      "icao": "LEBL",
      "iata": "BCN",
      "name": "Josep Tarradellas Barcelona-El Prat Airport",
      "updatedAt": "142330Z",
      "visibility_m": 9000,
      "taf_visibility_m": 4000,
      "worst_visibility_m": 4000,
      "ceiling_ft": 1500,
      "hazards": [
        "BR"
      ],
      "severityScore": 22,
      "metarRaw": "METAR LEBL 142330Z 31003KT 290V350 9000 FEW015 08/07 Q1019 NOSIG",
      "tafRaw": "TAF LEBL 142300Z 1500/1524 34006KT 9999 FEW015 TX15/1512Z TN05/1506Z \n  PROB30 \n  TEMPO 1500/1506 4000 BR BKN015 \n  BECMG 1510/1512 21010KT \n  BECMG 1520/1522 34006KT"
    },
    {
      "icao": "HESX",
      "iata": "SPX",
      "name": "Sphinx International Airport",
      "updatedAt": "142300Z",
      "visibility_m": 10000,
      "taf_visibility_m": 1500,
      "worst_visibility_m": 1500,
      "ceiling_ft": null,
      "hazards": [
        "BR"
      ],
      "severityScore": 20,
      "metarRaw": "METAR HESX 142300Z 30002KT CAVOK 09/06 Q1026 NOSIG",
      "tafRaw": "TAF HESX 142300Z 1500/1606 01008KT CAVOK \n  PROB30 \n  TEMPO 1500/1506 VRB03KT 3000 BR NSC \n  PROB30 \n  TEMPO 1502/1506 1500"
    },
    {
      "icao": "LRSM",
      "iata": "SUJ",
      "name": "Satu Mare International Airport",
      "updatedAt": "142330Z",
      "visibility_m": 1900,
      "taf_visibility_m": null,
      "worst_visibility_m": 1900,
      "ceiling_ft": null,
      "hazards": [
        "BR"
      ],
      "severityScore": 15,
      "metarRaw": "METAR LRSM 142330Z AUTO 21004KT 1900 BR SCT001/// BKN003/// OVC005/// M00/M01 Q1020",
      "tafRaw": null
    },
    {
      "icao": "EDDK",
      "iata": "CGN",
      "name": "Cologne Bonn Airport",
      "updatedAt": "142350Z",
      "visibility_m": 10000,
      "taf_visibility_m": 10000,
      "worst_visibility_m": 10000,
      "ceiling_ft": null,
      "hazards": [
        "RA"
      ],
      "severityScore": 12,
      "metarRaw": "METAR EDDK 142350Z AUTO 11005KT CAVOK 08/07 Q1013 NOSIG",
      "tafRaw": "TAF EDDK 142300Z 1500/1606 14006KT CAVOK \n  PROB40 \n  TEMPO 1500/1504 RA \n  BECMG 1509/1512 15011KT"
    },
    {
      "icao": "EDDN",
      "iata": "NUE",
      "name": "Nuremberg Airport",
      "updatedAt": "142350Z",
      "visibility_m": 10000,
      "taf_visibility_m": 10000,
      "worst_visibility_m": 10000,
      "ceiling_ft": 3700,
      "hazards": [
        "RA"
      ],
      "severityScore": 12,
      "metarRaw": "METAR EDDN 142350Z AUTO 11006KT 9999 FEW028 BKN037 05/03 Q1017",
      "tafRaw": "TAF EDDN 142300Z 1500/1524 13006KT 9999 OVC030 \n  PROB30 \n  TEMPO 1505/1508 RA"
    },
    {
      "icao": "EDSB",
      "iata": "FKB",
      "name": "Karlsruhe Baden-Baden Airport",
      "updatedAt": "142350Z",
      "visibility_m": 10000,
      "taf_visibility_m": 10000,
      "worst_visibility_m": 10000,
      "ceiling_ft": null,
      "hazards": [
        "RA"
      ],
      "severityScore": 12,
      "metarRaw": "METAR EDSB 142350Z AUTO 21007KT 9999 BKN069/// BKN079/// OVC093/// 08/06 Q1017",
      "tafRaw": "TAF EDSB 142300Z 1500/1524 21004KT CAVOK \n  TEMPO 1500/1507 RA"
    },
    {
      "icao": "LEMG",
      "iata": "AGP",
      "name": "Málaga-Costa del Sol Airport",
      "updatedAt": "142330Z",
      "visibility_m": 10000,
      "taf_visibility_m": 10000,
      "worst_visibility_m": 10000,
      "ceiling_ft": null,
      "hazards": [
        "RA"
      ],
      "severityScore": 12,
      "metarRaw": "METAR LEMG 142330Z 28005KT CAVOK 09/08 Q1021 NOSIG",
      "tafRaw": "TAF LEMG 142300Z 1500/1524 29006KT 9999 FEW030 TX18/1514Z TN07/1507Z \n  PROB30 \n  TEMPO 1513/1519 RA"
    },
    {
      "icao": "LEZG",
      "iata": "ZAZ",
      "name": "Zaragoza Airport",
      "updatedAt": "142330Z",
      "visibility_m": 8000,
      "taf_visibility_m": 4000,
      "worst_visibility_m": 4000,
      "ceiling_ft": null,
      "hazards": [
        "RA"
      ],
      "severityScore": 12,
      "metarRaw": "METAR LEZG 142330Z 00000KT 8000 NSC 06/06 Q1019 NOSIG",
      "tafRaw": "TAF LEZG 142300Z 1500/1524 VRB03KT CAVOK TX13/1515Z TN03/1506Z \n  TEMPO 1500/1506 22012KT \n  TEMPO 1512/1518 24013KT \n  PROB40 \n  TEMPO 1518/1524 4000 RA"
    },
    {
      "icao": "LFLL",
      "iata": "LYS",
      "name": "Lyon Saint-Exupéry Airport",
      "updatedAt": "142330Z",
      "visibility_m": 10000,
      "taf_visibility_m": 10000,
      "worst_visibility_m": 10000,
      "ceiling_ft": 5000,
      "hazards": [
        "RA"
      ],
      "severityScore": 12,
      "metarRaw": "METAR LFLL 142330Z 18014KT CAVOK 12/06 Q1018 NOSIG",
      "tafRaw": "TAF LFLL 142300Z 1500/1606 19010KT CAVOK \n  PROB40 \n  TEMPO 1500/1506 RA BKN050 \n  BECMG 1510/1512 18015G28KT"
    },
    {
      "icao": "LFPO",
      "iata": "ORY",
      "name": "Paris-Orly Airport",
      "updatedAt": "142330Z",
      "visibility_m": 10000,
      "taf_visibility_m": 4000,
      "worst_visibility_m": 4000,
      "ceiling_ft": 2400,
      "hazards": [
        "RA"
      ],
      "severityScore": 12,
      "metarRaw": "METAR LFPO 142330Z 18006KT 9999 BKN024 10/08 Q1013 NOSIG",
      "tafRaw": "TAF LFPO 142300Z 1500/1606 19012KT 9999 BKN025 \n  TEMPO 1500/1507 BKN012 \n  PROB30 \n  TEMPO 1502/1505 -RA BKN009 \n  PROB30 1509/1512 BKN009 BKN012 \n  PROB40 1520/1601 20015G30KT 4000 -RA BKN012"
    },
    {
      "icao": "LFSB",
      "iata": "BSL",
      "name": "EuroAirport Basel–Mulhouse–Freiburg",
      "updatedAt": "142330Z",
      "visibility_m": 10000,
      "taf_visibility_m": 10000,
      "worst_visibility_m": 10000,
      "ceiling_ft": 4600,
      "hazards": [
        "RA"
      ],
      "severityScore": 12,
      "metarRaw": "METAR LFSB 142330Z AUTO 17005KT 9999 BKN046 BKN096 OVC130 05/03 Q1018 NOSIG",
      "tafRaw": "TAF LFSB 142300Z 1500/1524 18004KT 9999 OVC045 \n  PROB40 \n  TEMPO 1504/1507 -RA \n  PROB30 \n  TEMPO 1511/1518 12010KT"
    },
    {
      "icao": "LIMJ",
      "iata": "GOA",
      "name": "Genoa Cristoforo Colombo Airport",
      "updatedAt": "142320Z",
      "visibility_m": 10000,
      "taf_visibility_m": 4000,
      "worst_visibility_m": 4000,
      "ceiling_ft": 2000,
      "hazards": [
        "RA"
      ],
      "severityScore": 12,
      "metarRaw": "METAR LIMJ 142320Z 04003KT 9999 SCT025 12/09 Q1022",
      "tafRaw": "TAF LIMJ 142300Z 1500/1524 VRB06KT 9999 BKN020 \n  TEMPO 1503/1518 4000 RA \n  BECMG 1504/1506 03010KT"
    },
    {
      "icao": "LPMA",
      "iata": "FNC",
      "name": "Madeira International Airport Cristiano Ronaldo",
      "updatedAt": "142330Z",
      "visibility_m": 10000,
      "taf_visibility_m": 10000,
      "worst_visibility_m": 10000,
      "ceiling_ft": 1300,
      "hazards": [],
      "severityScore": 12,
      "metarRaw": "METAR LPMA 142330Z 34010KT 9999 SCT015 15/07 Q1027",
      "tafRaw": "TAF LPMA 142300Z 1500/1524 32007KT 9999 SCT015 \n  PROB40 \n  TEMPO 1500/1509 VRB05KT BKN013 \n  BECMG 1509/1511 VRB05KT \n  BECMG 1521/1524 BKN015"
    },
    {
      "icao": "GMMN",
      "iata": "CMN",
      "name": "Mohammed V International Airport",
      "updatedAt": "142330Z",
      "visibility_m": 8000,
      "taf_visibility_m": 4000,
      "worst_visibility_m": 4000,
      "ceiling_ft": null,
      "hazards": [
        "BR"
      ],
      "severityScore": 10,
      "metarRaw": "METAR GMMN 142330Z 22004KT 8000 SCT020 SCT080 08/07 Q1022 NOSIG",
      "tafRaw": "TAF GMMN 142300Z 1500/1606 20004KT 8000 SCT020 SCT080 \n  PROB30 \n  TEMPO 1500/1508 4000 BR SCT006 \n  BECMG 1510/1514 28010KT SCT030"
    },
    {
      "icao": "LEAL",
      "iata": "ALC",
      "name": "Alicante-Elche Miguel Hernández Airport",
      "updatedAt": "142330Z",
      "visibility_m": 10000,
      "taf_visibility_m": 3000,
      "worst_visibility_m": 3000,
      "ceiling_ft": null,
      "hazards": [
        "BR"
      ],
      "severityScore": 10,
      "metarRaw": "METAR LEAL 142330Z 27008KT CAVOK 11/07 Q1020 NOSIG",
      "tafRaw": "TAF LEAL 142300Z 1500/1524 VRB04KT CAVOK TX17/1513Z TN07/1506Z \n  PROB30 \n  TEMPO 1500/1502 3000 BR \n  PROB40 \n  TEMPO 1518/1524 3000 BR"
    },
    {
      "icao": "LEVC",
      "iata": "VLC",
      "name": "Valencia Airport",
      "updatedAt": "142330Z",
      "visibility_m": 3800,
      "taf_visibility_m": 3000,
      "worst_visibility_m": 3000,
      "ceiling_ft": null,
      "hazards": [
        "BR"
      ],
      "severityScore": 10,
      "metarRaw": "METAR LEVC 142330Z 30005KT 3800 BR NSC 07/06 Q1020 NOSIG",
      "tafRaw": "TAF LEVC 142300Z 1500/1524 VRB04KT CAVOK TX18/1512Z TN05/1506Z \n  TEMPO 1500/1506 3000 BR \n  TEMPO 1512/1520 20010KT"
    },
    {
      "icao": "LIBD",
      "iata": "BRI",
      "name": "Bari Karol Wojtyła International Airport",
      "updatedAt": "142320Z",
      "visibility_m": 10000,
      "taf_visibility_m": 4000,
      "worst_visibility_m": 4000,
      "ceiling_ft": null,
      "hazards": [
        "BR"
      ],
      "severityScore": 10,
      "metarRaw": "METAR LIBD 142320Z 22007KT CAVOK 07/06 Q1024",
      "tafRaw": "TAF LIBD 142300Z 1500/1524 VRB06KT 9999 FEW040 \n  PROB30 \n  TEMPO 1503/1507 4000 BR"
    },
    {
      "icao": "LIPH",
      "iata": "TSF",
      "name": "Treviso Antonio Canova Airport",
      "updatedAt": "142320Z",
      "visibility_m": 6000,
      "taf_visibility_m": 2000,
      "worst_visibility_m": 2000,
      "ceiling_ft": null,
      "hazards": [
        "BR"
      ],
      "severityScore": 10,
      "metarRaw": "METAR LIPH 142320Z AUTO VRB01KT 6000 OVC063/// 03/01 Q1024",
      "tafRaw": "TAF LIPH 142300Z 1500/1524 VRB04KT 3000 BR SCT040 \n  BECMG 1508/1510 8000 \n  BECMG 1519/1521 2000 BR"
    },
    {
      "icao": "LIPQ",
      "iata": "TRS",
      "name": "Trieste–Friuli Venezia Giulia Airport",
      "updatedAt": "142320Z",
      "visibility_m": 2700,
      "taf_visibility_m": 2000,
      "worst_visibility_m": 2000,
      "ceiling_ft": 3000,
      "hazards": [
        "BR"
      ],
      "severityScore": 10,
      "metarRaw": "METAR LIPQ 142320Z AUTO 36001KT 2700 BR FEW017/// BKN025/// BKN048/// 06/05 Q1023",
      "tafRaw": "TAF LIPQ 142300Z 1500/1524 VRB04KT 2000 BR BKN030 \n  BECMG 1509/1511 7000 \n  BECMG 1516/1518 3000 BR"
    },
    {
      "icao": "LIRZ",
      "iata": "PEG",
      "name": "Perugia San Francesco d'Assisi – Umbria International Airport",
      "updatedAt": "142320Z",
      "visibility_m": 10000,
      "taf_visibility_m": 4000,
      "worst_visibility_m": 4000,
      "ceiling_ft": 4000,
      "hazards": [
        "BR"
      ],
      "severityScore": 10,
      "metarRaw": "METAR LIRZ 142320Z AUTO 03004KT 9999 OVC046/// 09/07 Q1023",
      "tafRaw": "TAF LIRZ 142300Z 1500/1524 VRB05KT 9999 BKN040 \n  TEMPO 1500/1506 4000 BR"
    },
    {
      "icao": "LKMT",
      "iata": "OSR",
      "name": "Ostrava Leos Janáček Airport",
      "updatedAt": "142330Z",
      "visibility_m": 7000,
      "taf_visibility_m": 4500,
      "worst_visibility_m": 4500,
      "ceiling_ft": 2300,
      "hazards": [
        "BR"
      ],
      "severityScore": 10,
      "metarRaw": "METAR LKMT 142330Z 23013KT 7000 OVC023 M01/M02 Q1019 NOSIG",
      "tafRaw": "TAF LKMT 142300Z 1500/1524 23014KT 8000 BKN025 \n  PROB40 \n  TEMPO 1502/1524 4500 BR OVC006"
    },
    {
      "icao": "LWOH",
      "iata": "OHD",
      "name": "Ohrid St. Paul the Apostle Airport",
      "updatedAt": null,
      "visibility_m": null,
      "taf_visibility_m": 5000,
      "worst_visibility_m": 5000,
      "ceiling_ft": 2000,
      "hazards": [
        "BR"
      ],
      "severityScore": 10,
      "metarRaw": null,
      "tafRaw": "TAF LWOH 142320Z 1500/1524 VRB02KT 9999 SCT040 \n  PROB40 \n  TEMPO 1502/1507 5000 BR BKN020"
    },
    {
      "icao": "UDSG",
      "iata": "LWN",
      "name": "Shirak International Airport",
      "updatedAt": "142330Z",
      "visibility_m": 10000,
      "taf_visibility_m": 5000,
      "worst_visibility_m": 5000,
      "ceiling_ft": null,
      "hazards": [
        "BR"
      ],
      "severityScore": 10,
      "metarRaw": "METAR UDSG 142330Z 26004KT 9999 SCT049 M11/M15 Q1017 NOSIG",
      "tafRaw": "TAF UDSG 142258Z 1500/1524 VRB06KT 9999 FEW040 \n  TEMPO 1500/1506 5000 BR"
    },
    {
      "icao": "UDYZ",
      "iata": "EVN",
      "name": "Zvartnots International Airport",
      "updatedAt": "142330Z",
      "visibility_m": 10000,
      "taf_visibility_m": 3500,
      "worst_visibility_m": 3500,
      "ceiling_ft": null,
      "hazards": [
        "BR"
      ],
      "severityScore": 10,
      "metarRaw": "METAR UDYZ 142330Z 09003KT 9999 FEW046 M02/M07 Q1018 NOSIG",
      "tafRaw": "TAF UDYZ 142300Z 1500/1524 VRB04KT 9999 FEW040 \n  TEMPO 1500/1506 3500 BR"
    },
    {
      "icao": "EDLW",
      "iata": "DTM",
      "name": "Dortmund Airport",
      "updatedAt": "142350Z",
      "visibility_m": 10000,
      "taf_visibility_m": null,
      "worst_visibility_m": 10000,
      "ceiling_ft": null,
      "hazards": [],
      "severityScore": 5,
      "metarRaw": "METAR EDLW 142350Z AUTO 15008KT 9999 // SCT077/// 08/06 Q1012",
      "tafRaw": null
    },
    {
      "icao": "EDNY",
      "iata": "FDH",
      "name": "Friedrichshafen Airport",
      "updatedAt": "142350Z",
      "visibility_m": 6000,
      "taf_visibility_m": null,
      "worst_visibility_m": 6000,
      "ceiling_ft": null,
      "hazards": [],
      "severityScore": 5,
      "metarRaw": "METAR EDNY 142350Z AUTO VRB01KT 6000 SCT001/// OVC160/// M01/M01 Q1019",
      "tafRaw": null
    },
    {
      "icao": "LECH",
      "iata": "CDT",
      "name": "Castellón-Costa Azahar Airport",
      "updatedAt": "142330Z",
      "visibility_m": 9000,
      "taf_visibility_m": null,
      "worst_visibility_m": 9000,
      "ceiling_ft": null,
      "hazards": [],
      "severityScore": 5,
      "metarRaw": "METAR LECH 142330Z AUTO 00000KT 9000 NCD 06/05 Q1019",
      "tafRaw": null
    },
    {
      "icao": "LEXJ",
      "iata": "SDR",
      "name": "Seve Ballesteros-Santander Airport",
      "updatedAt": "142330Z",
      "visibility_m": 6000,
      "taf_visibility_m": null,
      "worst_visibility_m": 6000,
      "ceiling_ft": null,
      "hazards": [],
      "severityScore": 5,
      "metarRaw": "METAR LEXJ 142330Z AUTO 13002KT 6000 NCD 08/06 Q1018",
      "tafRaw": null
    },
    {
      "icao": "LFLS",
      "iata": "GNB",
      "name": "Grenoble Alpes Isère Airport",
      "updatedAt": "142330Z",
      "visibility_m": 10000,
      "taf_visibility_m": null,
      "worst_visibility_m": 10000,
      "ceiling_ft": 13000,
      "hazards": [],
      "severityScore": 5,
      "metarRaw": "METAR LFLS 142330Z AUTO 06004KT 040V100 9999 FEW056 BKN130 OVC150 05/04 Q1020",
      "tafRaw": null
    },
    {
      "icao": "GCFV",
      "iata": "FUE",
      "name": "Fuerteventura Airport",
      "updatedAt": "142330Z",
      "visibility_m": 10000,
      "taf_visibility_m": 10000,
      "worst_visibility_m": 10000,
      "ceiling_ft": null,
      "hazards": [],
      "severityScore": 0,
      "metarRaw": "METAR GCFV 142330Z AUTO 33009KT 9999 FEW030 16/10 Q1024",
      "tafRaw": "TAF GCFV 142000Z 1421/1521 34008KT 9999 SCT035 TX20/1514Z TN14/1506Z \n  BECMG 1509/1511 04012KT"
    },
    {
      "icao": "GCLP",
      "iata": "LPA",
      "name": "Gran Canaria Airport",
      "updatedAt": "142330Z",
      "visibility_m": 10000,
      "taf_visibility_m": 10000,
      "worst_visibility_m": 10000,
      "ceiling_ft": 3000,
      "hazards": [],
      "severityScore": 0,
      "metarRaw": "METAR GCLP 142330Z 35012KT 9999 BKN030 16/11 Q1024 NOSIG",
      "tafRaw": "TAF GCLP 142000Z 1421/1521 36015KT 9999 SCT035 TX20/1514Z TN15/1506Z \n  PROB30 \n  TEMPO 1421/1507 36015G25KT \n  PROB30 \n  TEMPO 1512/1518 01015G25KT"
    },
    {
      "icao": "EDDS",
      "iata": "STR",
      "name": "Stuttgart Airport",
      "updatedAt": "142350Z",
      "visibility_m": 10000,
      "taf_visibility_m": 10000,
      "worst_visibility_m": 10000,
      "ceiling_ft": null,
      "hazards": [],
      "severityScore": 0,
      "metarRaw": "METAR EDDS 142350Z AUTO VRB02KT CAVOK 04/02 Q1016",
      "tafRaw": "TAF EDDS 142300Z 1500/1524 VRB03KT CAVOK"
    },
    {
      "icao": "EDJA",
      "iata": "FMM",
      "name": "Memmingen Allgau Airport",
      "updatedAt": "142350Z",
      "visibility_m": 10000,
      "taf_visibility_m": 10000,
      "worst_visibility_m": 10000,
      "ceiling_ft": null,
      "hazards": [],
      "severityScore": 0,
      "metarRaw": "METAR EDJA 142350Z AUTO 18002KT 9999 // BKN160/// 02/M01 Q1017",
      "tafRaw": "TAF EDJA 141700Z 1418/1503 20004KT CAVOK"
    },
    {
      "icao": "ENAL",
      "iata": "AES",
      "name": "Ålesund Airport, Vigra",
      "updatedAt": "142350Z",
      "visibility_m": 10000,
      "taf_visibility_m": 10000,
      "worst_visibility_m": 10000,
      "ceiling_ft": null,
      "hazards": [],
      "severityScore": 0,
      "metarRaw": "METAR ENAL 142350Z AUTO 19008KT 9999 FEW050/// 05/M00 Q1000",
      "tafRaw": "TAF ENAL 142300Z 1500/1509 19010KT 9999 SCT040 \n  BECMG 1501/1503 13008KT"
    },
    {
      "icao": "ENTC",
      "iata": "TOS",
      "name": "Tromsø Airport, Langnes",
      "updatedAt": "142350Z",
      "visibility_m": 10000,
      "taf_visibility_m": 10000,
      "worst_visibility_m": 10000,
      "ceiling_ft": null,
      "hazards": [],
      "severityScore": 0,
      "metarRaw": "METAR ENTC 142350Z 20016KT CAVOK M03/M09 Q1007 RMK WIND 2600FT 17010KT",
      "tafRaw": "TAF ENTC 142300Z 1500/1524 20018KT CAVOK"
    },
    {
      "icao": "ENVA",
      "iata": "TRD",
      "name": "Trondheim Airport, Værnes",
      "updatedAt": "142350Z",
      "visibility_m": 10000,
      "taf_visibility_m": 10000,
      "worst_visibility_m": 10000,
      "ceiling_ft": null,
      "hazards": [],
      "severityScore": 0,
      "metarRaw": "METAR ENVA 142350Z 09003KT CAVOK M01/M05 Q1002 RMK WIND 670FT 14011KT",
      "tafRaw": "TAF ENVA 142300Z 1500/1524 10007KT CAVOK \n  TEMPO 1516/1524 16015G25KT"
    },
    {
      "icao": "HEGN",
      "iata": "HRG",
      "name": "Hurghada International Airport",
      "updatedAt": "142300Z",
      "visibility_m": 10000,
      "taf_visibility_m": 10000,
      "worst_visibility_m": 10000,
      "ceiling_ft": null,
      "hazards": [],
      "severityScore": 0,
      "metarRaw": "METAR HEGN 142300Z 29013KT CAVOK 14/05 Q1023 NOSIG",
      "tafRaw": "TAF HEGN 142300Z 1500/1606 30010G20KT CAVOK"
    },
    {
      "icao": "HEMA",
      "iata": "RMF",
      "name": "Marsa Alam International Airport",
      "updatedAt": "142300Z",
      "visibility_m": 10000,
      "taf_visibility_m": 10000,
      "worst_visibility_m": 10000,
      "ceiling_ft": null,
      "hazards": [],
      "severityScore": 0,
      "metarRaw": "METAR HEMA 142300Z 31013KT CAVOK 14/05 Q1021 NOSIG",
      "tafRaw": "TAF HEMA 142300Z 1500/1606 32010G20KT CAVOK"
    },
    {
      "icao": "HESH",
      "iata": "SSH",
      "name": "Sharm El Sheikh International Airport",
      "updatedAt": "142300Z",
      "visibility_m": 10000,
      "taf_visibility_m": 10000,
      "worst_visibility_m": 10000,
      "ceiling_ft": null,
      "hazards": [],
      "severityScore": 0,
      "metarRaw": "METAR HESH 142300Z 35010KT CAVOK 16/04 Q1023 NOSIG",
      "tafRaw": "TAF HESH 142300Z 1500/1606 33010KT CAVOK"
    },
    {
      "icao": "LCLK",
      "iata": "LCA",
      "name": "Larnaca International Airport",
      "updatedAt": "142330Z",
      "visibility_m": 10000,
      "taf_visibility_m": 10000,
      "worst_visibility_m": 10000,
      "ceiling_ft": null,
      "hazards": [],
      "severityScore": 0,
      "metarRaw": "METAR LCLK 142330Z 33006KT CAVOK 07/03 Q1023 NOSIG",
      "tafRaw": "TAF LCLK 142330Z 1500/1600 32006KT 9999 FEW025 \n  BECMG 1507/1510 12010KT \n  BECMG 1516/1518 30006KT"
    },
    {
      "icao": "LCPH",
      "iata": "PFO",
      "name": "Paphos International Airport",
      "updatedAt": "142330Z",
      "visibility_m": 10000,
      "taf_visibility_m": 10000,
      "worst_visibility_m": 10000,
      "ceiling_ft": 5000,
      "hazards": [],
      "severityScore": 0,
      "metarRaw": "METAR LCPH 142330Z 01009KT 9999 SCT043 BKN050 08/02 Q1023 NOSIG",
      "tafRaw": "TAF LCPH 142330Z 1500/1600 01007KT 9999 FEW020 \n  BECMG 1509/1511 29010KT \n  BECMG 1518/1520 02006KT"
    },
    {
      "icao": "LFMN",
      "iata": "NCE",
      "name": "Nice-Côte d'Azur Airport",
      "updatedAt": "142330Z",
      "visibility_m": 10000,
      "taf_visibility_m": 10000,
      "worst_visibility_m": 10000,
      "ceiling_ft": null,
      "hazards": [],
      "severityScore": 0,
      "metarRaw": "METAR LFMN 142330Z 34008KT CAVOK 09/06 Q1021 NOSIG",
      "tafRaw": "TAF LFMN 142000Z 1421/1603 34010KT CAVOK \n  TEMPO 1513/1516 13005KT"
    },
    {
      "icao": "LGAV",
      "iata": "ATH",
      "name": "Athens Eleftherios Venizelos International Airport",
      "updatedAt": "142350Z",
      "visibility_m": 10000,
      "taf_visibility_m": 10000,
      "worst_visibility_m": 10000,
      "ceiling_ft": null,
      "hazards": [],
      "severityScore": 0,
      "metarRaw": "METAR LGAV 142350Z 30002KT 9999 FEW030 06/02 Q1025 NOSIG",
      "tafRaw": "TAF LGAV 142300Z 1500/1524 VRB05KT 9999 FEW016 SCT025"
    },
    {
      "icao": "LIBG",
      "iata": "TAR",
      "name": "Taranto-Grottaglie Marcello Arlotta Airport",
      "updatedAt": null,
      "visibility_m": null,
      "taf_visibility_m": 10000,
      "worst_visibility_m": 10000,
      "ceiling_ft": null,
      "hazards": [],
      "severityScore": 0,
      "metarRaw": null,
      "tafRaw": "TAF LIBG 141700Z 1418/1503 16007KT 9999 FEW030"
    },
    {
      "icao": "LICA",
      "iata": "SUF",
      "name": "Lamezia Terme Sant'Eufemia International Airport",
      "updatedAt": "142320Z",
      "visibility_m": 10000,
      "taf_visibility_m": 10000,
      "worst_visibility_m": 10000,
      "ceiling_ft": null,
      "hazards": [],
      "severityScore": 0,
      "metarRaw": "METAR LICA 142320Z AUTO 07006KT 9999 NCD 03/03 Q1024",
      "tafRaw": "TAF LICA 142300Z 1500/1524 VRB05KT CAVOK"
    },
    {
      "icao": "LICC",
      "iata": "CTA",
      "name": "Catania-Fontanarossa Airport",
      "updatedAt": "142320Z",
      "visibility_m": 10000,
      "taf_visibility_m": 10000,
      "worst_visibility_m": 10000,
      "ceiling_ft": null,
      "hazards": [],
      "severityScore": 0,
      "metarRaw": "METAR LICC 142320Z 23006KT CAVOK 07/03 Q1025",
      "tafRaw": "TAF LICC 142300Z 1500/1524 25010KT 9999 FEW040 \n  BECMG 1512/1514 VRB05KT"
    },
    {
      "icao": "LICJ",
      "iata": "PMO",
      "name": "Falcone–Borsellino Airport",
      "updatedAt": "142320Z",
      "visibility_m": 10000,
      "taf_visibility_m": 10000,
      "worst_visibility_m": 10000,
      "ceiling_ft": null,
      "hazards": [],
      "severityScore": 0,
      "metarRaw": "METAR LICJ 142320Z 18003KT CAVOK 10/06 Q1023",
      "tafRaw": "TAF LICJ 142300Z 1500/1524 VRB06KT CAVOK"
    },
    {
      "icao": "LIRF",
      "iata": "FCO",
      "name": "Rome–Fiumicino Leonardo da Vinci International Airport",
      "updatedAt": "142320Z",
      "visibility_m": 10000,
      "taf_visibility_m": 10000,
      "worst_visibility_m": 10000,
      "ceiling_ft": null,
      "hazards": [],
      "severityScore": 0,
      "metarRaw": "METAR LIRF 142320Z 11003KT 9999 SCT050 13/10 Q1023 NOSIG",
      "tafRaw": "TAF LIRF 142300Z 1500/1606 09007KT 9999 SCT040 \n  BECMG 1510/1512 15012KT \n  BECMG 1519/1521 08007KT"
    },
    {
      "icao": "LIRN",
      "iata": "NAP",
      "name": "Naples International Airport",
      "updatedAt": "142320Z",
      "visibility_m": 10000,
      "taf_visibility_m": 10000,
      "worst_visibility_m": 10000,
      "ceiling_ft": null,
      "hazards": [],
      "severityScore": 0,
      "metarRaw": "METAR LIRN 142320Z 33002KT CAVOK 04/03 Q1024 NOSIG",
      "tafRaw": "TAF LIRN 142300Z 1500/1524 VRB05KT 9999 SCT040"
    },
    {
      "icao": "LIRP",
      "iata": "PSA",
      "name": "Pisa International Airport",
      "updatedAt": "142315Z",
      "visibility_m": 10000,
      "taf_visibility_m": 10000,
      "worst_visibility_m": 10000,
      "ceiling_ft": 5000,
      "hazards": [],
      "severityScore": 0,
      "metarRaw": "METAR LIRP 142315Z 11006KT 9999 FEW030 BKN050 11/11 Q1022 NOSIG",
      "tafRaw": "TAF LIRP 142300Z 1500/1524 12005KT 9999 SCT030 BKN060"
    },
    {
      "icao": "LLBG",
      "iata": "TLV",
      "name": "Ben Gurion International Airport",
      "updatedAt": "142350Z",
      "visibility_m": 10000,
      "taf_visibility_m": 10000,
      "worst_visibility_m": 10000,
      "ceiling_ft": 3500,
      "hazards": [],
      "severityScore": 0,
      "metarRaw": "METAR LLBG 142350Z VRB01KT 9999 SCT045 10/07 Q1023 NOSIG RMK SCT060",
      "tafRaw": "TAF LLBG 142317Z 1500/1524 VRB04KT 9999 SCT045 \n  TEMPO 1500/1509 12005KT BKN040 \n  BECMG 1509/1511 32010KT \n  BECMG 1515/1517 VRB03KT SCT040 \n  TEMPO 1517/1524 15005KT BKN035 TX18/1512Z TN09/1504Z"
    },
    {
      "icao": "LMML",
      "iata": "MLA",
      "name": "Malta International Airport",
      "updatedAt": "142345Z",
      "visibility_m": 10000,
      "taf_visibility_m": 10000,
      "worst_visibility_m": 10000,
      "ceiling_ft": 2000,
      "hazards": [],
      "severityScore": 0,
      "metarRaw": "METAR LMML 142345Z 14010KT 9999 BKN020 15/11 Q1024 NOSIG",
      "tafRaw": "TAF LMML 142300Z 1500/1524 16010KT 9999 SCT020"
    },
    {
      "icao": "OEJN",
      "iata": "JED",
      "name": "King Abdulaziz International Airport",
      "updatedAt": "142300Z",
      "visibility_m": 10000,
      "taf_visibility_m": 7000,
      "worst_visibility_m": 7000,
      "ceiling_ft": null,
      "hazards": [],
      "severityScore": 0,
      "metarRaw": "METAR OEJN 142300Z 36008KT CAVOK 21/08 Q1016 NOSIG",
      "tafRaw": "TAF OEJN 142300Z 1500/1606 02006KT 7000 FEW040 \n  BECMG 1506/1508 33010KT CAVOK \n  BECMG 1518/1520 VRB03KT \n  BECMG 1602/1604 08006KT"
    },
    {
      "icao": "OEMA",
      "iata": "MED",
      "name": "Prince Mohammad Bin Abdulaziz Airport",
      "updatedAt": "142300Z",
      "visibility_m": 10000,
      "taf_visibility_m": 3000,
      "worst_visibility_m": 3000,
      "ceiling_ft": null,
      "hazards": [],
      "severityScore": 0,
      "metarRaw": "METAR OEMA 142300Z 01005KT CAVOK 15/M04 Q1021 NOSIG",
      "tafRaw": "TAF OEMA 142300Z 1500/1606 VRB03KT CAVOK \n  BECMG 1506/1508 08015KT 7000 NSC \n  PROB40 \n  TEMPO 1506/1512 3000 BLDU"
    },
    {
      "icao": "OMAA",
      "iata": "AUH",
      "name": "Zayed International Airport",
      "updatedAt": "142300Z",
      "visibility_m": 10000,
      "taf_visibility_m": 8000,
      "worst_visibility_m": 8000,
      "ceiling_ft": null,
      "hazards": [],
      "severityScore": 0,
      "metarRaw": "METAR OMAA 142300Z 11006KT CAVOK 18/07 Q1016 NOSIG",
      "tafRaw": "TAF OMAA 142300Z 1500/1606 13006KT 8000 NSC \n  BECMG 1507/1509 31012KT"
    },
    {
      "icao": "OMDB",
      "iata": "DXB",
      "name": "Dubai International Airport",
      "updatedAt": "142300Z",
      "visibility_m": 10000,
      "taf_visibility_m": 8000,
      "worst_visibility_m": 8000,
      "ceiling_ft": null,
      "hazards": [],
      "severityScore": 0,
      "metarRaw": "METAR OMDB 142300Z 16003KT 080V180 CAVOK 19/09 Q1016 NOSIG",
      "tafRaw": "TAF OMDB 142300Z 1500/1606 16005KT 8000 NSC \n  BECMG 1507/1509 28013KT"
    },
    {
      "icao": "UBBB",
      "iata": "GYD",
      "name": "Heydar Aliyev International Airport",
      "updatedAt": "142330Z",
      "visibility_m": 10000,
      "taf_visibility_m": 10000,
      "worst_visibility_m": 10000,
      "ceiling_ft": 3200,
      "hazards": [],
      "severityScore": 0,
      "metarRaw": "METAR UBBB 142330Z 34012KT 9999 BKN032 04/M02 Q1022 NOSIG",
      "tafRaw": "TAF UBBB 142302Z 1500/1524 34014KT 9999 BKN030 TX06/1510Z TN03/1501Z \n  TEMPO 1500/1508 36018KT SCT013 \n  BECMG 1513/1515 03005KT \n  TEMPO 1515/1524 VRB04KT"
    }
  ],
  "stats": {
    "icaoCount": 159,
    "metarReturned": 155,
    "tafReturned": 149,
    "stationsWritten": 159,
    "missingMetar": 4,
    "missingTaf": 10
  },
  "errors": []
}