{
  "generatedAt": "2026-01-18T15:13:33.420Z",
  "metarFetchedAt": "2026-01-18T15:13:34.098Z",
  "tafFetchedAt": "2026-01-18T15:13:34.522Z",
  "stations": [
    {
      "icao": "EDJA",
      "iata": "FMM",
      "name": "Memmingen Allgau Airport",
      "updatedAt": "181450Z",
      "visibility_m": 3900,
      "taf_visibility_m": 600,
      "worst_visibility_m": 600,
      "ceiling_ft": 200,
      "hazards": [
        "BR",
        "FZFG",
        "FG"
      ],
      "severityScore": 100,
      "metarRaw": "METAR EDJA 181450Z 08006KT 040V110 3900 BR OVC002 M02/M02 Q1018",
      "tafRaw": "TAF EDJA 181400Z 1815/1824 06005KT 3000 BR OVC002 \n  BECMG 1815/1818 1200 BCFG OVC001 \n  TEMPO 1818/1824 0600 FZFG"
    },
    {
      "icao": "EETN",
      "iata": "TLL",
      "name": "Lennart Meri Tallinn Airport",
      "updatedAt": "181450Z",
      "visibility_m": 1500,
      "taf_visibility_m": 800,
      "worst_visibility_m": 800,
      "ceiling_ft": 200,
      "hazards": [
        "BR",
        "FZFG",
        "FZDZ",
        "FG",
        "DZ"
      ],
      "severityScore": 100,
      "metarRaw": "METAR EETN 181450Z 19004KT 3800 BR OVC003 M05/M05 Q1037 TEMPO 1500 BKN002",
      "tafRaw": "TAF EETN 181130Z 1812/1912 19007KT 6000 BKN004 OVC010 \n  TEMPO 1812/1817 2000 SG BR \n  PROB40 \n  TEMPO 1812/1817 -FZDZ BKN002 \n  BECMG 1821/1823 BKN003 OVC005 \n  PROB40 \n  TEMPO 1823/1909 0800 -FZDZ FZFG"
    },
    {
      "icao": "EFTU",
      "iata": "TKU",
      "name": "Turku Airport",
      "updatedAt": "181450Z",
      "visibility_m": 3100,
      "taf_visibility_m": 700,
      "worst_visibility_m": 700,
      "ceiling_ft": 100,
      "hazards": [
        "SHRA",
        "RA",
        "FG",
        "BR"
      ],
      "severityScore": 100,
      "metarRaw": "METAR EFTU 181450Z AUTO 21003KT 150V240 3100 -SHRA OVC001 01/01 Q1035",
      "tafRaw": "TAF EFTU 181436Z 1815/1915 18005KT 3000 BR BKN002 \n  TEMPO 1815/1901 1200 BKN001 \n  PROB30 1820/1901 0700 FG \n  BECMG 1902/1904 9999 NSW BKN010 \n  TEMPO 1905/1915 BKN015"
    },
    {
      "icao": "EGGW",
      "iata": "LTN",
      "name": "London Luton Airport",
      "updatedAt": "181450Z",
      "visibility_m": 6000,
      "taf_visibility_m": 300,
      "worst_visibility_m": 300,
      "ceiling_ft": 100,
      "hazards": [
        "FG",
        "BR",
        "RA",
        "DZ"
      ],
      "severityScore": 100,
      "metarRaw": "METAR EGGW 181450Z AUTO 15003KT 6000 SCT021 08/08 Q1016",
      "tafRaw": "TAF EGGW 181104Z 1812/1912 14007KT 3000 -RADZ BR BKN003 \n  BECMG 1812/1815 6000 NSW FEW004 SCT045 \n  TEMPO 1818/1907 3000 BR BKN004 \n  PROB30 \n  TEMPO 1822/1910 0300 FG BKN001 \n  BECMG 1907/1910 3000 -RADZ BR BKN004"
    },
    {
      "icao": "EGNM",
      "iata": "LBA",
      "name": "Leeds Bradford Airport",
      "updatedAt": "181450Z",
      "visibility_m": 150,
      "taf_visibility_m": 300,
      "worst_visibility_m": 150,
      "ceiling_ft": 200,
      "hazards": [
        "FG",
        "BR",
        "RA",
        "DZ"
      ],
      "severityScore": 100,
      "metarRaw": "METAR EGNM 181450Z 11004KT 080V150 0150 R32/0200N FG VV/// 05/05 Q1015",
      "tafRaw": "TAF EGNM 181100Z 1812/1912 06003KT 0300 FG VV/// \n  TEMPO 1812/1912 RA -RADZ \n  PROB30 \n  TEMPO 1812/1912 2000 BR SCT001 BKN002"
    },
    {
      "icao": "EGPD",
      "iata": "ABZ",
      "name": "Aberdeen International Airport",
      "updatedAt": "181450Z",
      "visibility_m": 4000,
      "taf_visibility_m": 300,
      "worst_visibility_m": 300,
      "ceiling_ft": 400,
      "hazards": [
        "RA",
        "DZ",
        "FG",
        "BR"
      ],
      "severityScore": 100,
      "metarRaw": "METAR EGPD 181450Z AUTO 14007KT 9000 OVC006 07/06 Q1016 TEMPO 4000 RADZ BKN004",
      "tafRaw": "TAF EGPD 181055Z 1812/1912 16004KT 9999 SCT010 BKN015 \n  TEMPO 1812/1814 6000 BKN010 \n  PROB30 \n  TEMPO 1812/1814 3000 BR BKN006 \n  BECMG 1814/1817 BKN010 \n  TEMPO 1814/1902 6000 -RADZ BKN006 \n  PROB30 \n  TEMPO 1814/1902 1400 RADZ BR BKN002 \n  BECMG 1902/1905 FEW006 \n  TEMPO 1902/1912 5000 BR \n  PROB30 \n  TEMPO 1902/1910 0300 FG VV///"
    },
    {
      "icao": "ESKN",
      "iata": "NYO",
      "name": "Stockholm Skavsta Airport",
      "updatedAt": "181450Z",
      "visibility_m": 1200,
      "taf_visibility_m": 500,
      "worst_visibility_m": 500,
      "ceiling_ft": 200,
      "hazards": [
        "BR",
        "FG"
      ],
      "severityScore": 100,
      "metarRaw": "METAR ESKN 181450Z 15006KT 1200 R08/0900N R26/P2000N BR VV002 02/02 Q1033",
      "tafRaw": "TAF ESKN 181430Z 1815/1915 16008KT 0500 FG VV002 \n  PROB40 1815/1817 6000 BKN010 \n  BECMG 1817/1819 9999 NSW SCT015 \n  PROB40 1819/1823 BKN012 \n  BECMG 1907/1909 BKN005"
    },
    {
      "icao": "ESSA",
      "iata": "ARN",
      "name": "Stockholm-Arlanda Airport",
      "updatedAt": "181450Z",
      "visibility_m": 500,
      "taf_visibility_m": 300,
      "worst_visibility_m": 300,
      "ceiling_ft": 200,
      "hazards": [
        "FG",
        "BR",
        "DZ"
      ],
      "severityScore": 100,
      "metarRaw": "METAR ESSA 181450Z 14005KT 1000 R01L/P2000N R19R/P2000N R01R/P2000N R19L/P2000N BR -DZ OVC002 01/01 Q1033 TEMPO 0500 FG",
      "tafRaw": "TAF ESSA 181430Z 1815/1915 15005KT 4000 BR OVC002 \n  PROB40 1815/1822 0300 FG \n  BECMG 1822/1824 5000 NSW BKN015 \n  PROB40 1900/1912 4000 BR BKN008"
    },
    {
      "icao": "LFSB",
      "iata": "BSL",
      "name": "EuroAirport Basel–Mulhouse–Freiburg",
      "updatedAt": "181500Z",
      "visibility_m": 10000,
      "taf_visibility_m": 300,
      "worst_visibility_m": 300,
      "ceiling_ft": 1300,
      "hazards": [
        "FZFG",
        "BR",
        "FG"
      ],
      "severityScore": 100,
      "metarRaw": "METAR LFSB 181500Z AUTO 08006KT 050V110 9999 OVC013 02/M01 Q1018 TEMPO BKN017",
      "tafRaw": "TAF LFSB 181100Z 1812/1912 08005KT 9999 OVC010 \n  TEMPO 1812/1818 BKN017 \n  PROB30 \n  TEMPO 1814/1817 FEW020 \n  BECMG 1818/1820 3000 BR OVC003 \n  PROB30 \n  TEMPO 1820/1903 0300 FZFG VV/// \n  BECMG 1903/1906 7000 NSW NSC"
    },
    {
      "icao": "LHBP",
      "iata": "BUD",
      "name": "Budapest Liszt Ferenc International Airport",
      "updatedAt": "181500Z",
      "visibility_m": 9000,
      "taf_visibility_m": 500,
      "worst_visibility_m": 500,
      "ceiling_ft": 200,
      "hazards": [
        "FZFG",
        "BR",
        "SN",
        "FG"
      ],
      "severityScore": 100,
      "metarRaw": "METAR LHBP 181500Z 18005KT 9000 NSC M02/M04 Q1034 NOSIG",
      "tafRaw": "TAF LHBP 181115Z 1812/1912 VRB03KT CAVOK \n  BECMG 1815/1818 5000 BR SCT004 \n  TEMPO 1817/1911 2000 BKN004 \n  PROB40 \n  TEMPO 1900/1910 0500 -SN FZFG OVC002"
    },
    {
      "icao": "LHDC",
      "iata": "DEB",
      "name": "Debrecen International Airport",
      "updatedAt": "181445Z",
      "visibility_m": 650,
      "taf_visibility_m": 650,
      "worst_visibility_m": 650,
      "ceiling_ft": 200,
      "hazards": [
        "FZFG",
        "BR",
        "FZDZ",
        "FG",
        "DZ"
      ],
      "severityScore": 100,
      "metarRaw": "METAR LHDC 181445Z AUTO 00000KT 7000 OVC004 M02/M03 Q1035 TEMPO TL1500 CAVOK BECMG FM1500 2500 BR TEMPO FM1545 0650 -SG -FZDZ FZFG VV002",
      "tafRaw": "TAF LHDC 181415Z 1815/1824 VRB03KT 2500 BR OVC003 \n  PROB30 1815/1820 CAVOK \n  PROB40 1815/1824 0650 -SG -FZDZ FZFG VV002"
    },
    {
      "icao": "LKMT",
      "iata": "OSR",
      "name": "Ostrava Leos Janáček Airport",
      "updatedAt": "181500Z",
      "visibility_m": 150,
      "taf_visibility_m": null,
      "worst_visibility_m": 150,
      "ceiling_ft": 100,
      "hazards": [
        "FZFG",
        "FG"
      ],
      "severityScore": 100,
      "metarRaw": "METAR LKMT 181500Z VRB02KT 0150 R22/0250N R04/0225N FZFG VV001 M04/M04 Q1032 NOSIG",
      "tafRaw": null
    },
    {
      "icao": "LQSA",
      "iata": "SJJ",
      "name": "Sarajevo International Airport",
      "updatedAt": "181500Z",
      "visibility_m": 7000,
      "taf_visibility_m": 500,
      "worst_visibility_m": 500,
      "ceiling_ft": 200,
      "hazards": [
        "FZFG",
        "BR",
        "FG"
      ],
      "severityScore": 100,
      "metarRaw": "METAR LQSA 181500Z VRB02KT 7000 SCT030 01/00 Q1027 NOSIG",
      "tafRaw": "TAF LQSA 181100Z 1812/1912 VRB02KT 2000 BR BKN006 TX03/1813Z TNM06/1906Z \n  TEMPO 1812/1818 5000 SCT008 OVC020 \n  PROB40 \n  TEMPO 1819/1909 0500 FZFG OVC002 \n  BECMG 1909/1911 6000 NSW SCT012"
    },
    {
      "icao": "LRTR",
      "iata": "TSR",
      "name": "Timişoara Traian Vuia Airport",
      "updatedAt": "181500Z",
      "visibility_m": 10000,
      "taf_visibility_m": 600,
      "worst_visibility_m": 600,
      "ceiling_ft": 100,
      "hazards": [
        "FZFG",
        "BR",
        "FG"
      ],
      "severityScore": 100,
      "metarRaw": "METAR LRTR 181500Z 32002KT CAVOK M02/M06 Q1035",
      "tafRaw": "TAF LRTR 181100Z 1812/1912 VRB04KT CAVOK \n  BECMG 1820/1822 5000 BR \n  BECMG 1900/1902 1500 BR BKN005 \n  TEMPO 1902/1907 0600 FZFG OVC001 \n  BECMG 1907/1909 7000 NSW SCT020"
    },
    {
      "icao": "OJAI",
      "iata": "AMM",
      "name": "Queen Alia International Airport",
      "updatedAt": "181500Z",
      "visibility_m": 4000,
      "taf_visibility_m": 500,
      "worst_visibility_m": 500,
      "ceiling_ft": 2500,
      "hazards": [
        "BR",
        "FG",
        "TSRA",
        "RA",
        "TS"
      ],
      "severityScore": 100,
      "metarRaw": "METAR OJAI 181500Z 22007KT 4000 BR FEW025 FEW030 09/08 Q1015 NOSIG",
      "tafRaw": "TAF OJAI 181042Z 1812/1918 27012KT 3000 RA BR SCT020 BKN025 \n  PROB40 \n  PROB30 \n  TEMPO 1812/1818 29020KT 2000 TSRA FEW020CB SCT020 BKN025 \n  PROB30 1900/1906 0500 FG"
    },
    {
      "icao": "OMAA",
      "iata": "AUH",
      "name": "Zayed International Airport",
      "updatedAt": "181500Z",
      "visibility_m": 10000,
      "taf_visibility_m": 100,
      "worst_visibility_m": 100,
      "ceiling_ft": 700,
      "hazards": [
        "FG",
        "BR"
      ],
      "severityScore": 100,
      "metarRaw": "METAR OMAA 181500Z 30006KT CAVOK 20/13 Q1015 NOSIG",
      "tafRaw": "TAF OMAA 181100Z 1812/1918 33010KT 9999 FEW040 \n  BECMG 1814/1816 23005KT \n  PROB40 1822/1905 3000 BR BKN007 \n  PROB30 \n  TEMPO 1900/1905 0100 FG VV/// \n  BECMG 1901/1903 15005KT \n  BECMG 1910/1912 34010KT"
    },
    {
      "icao": "UAAA",
      "iata": "ALA",
      "name": "Almaty International Airport",
      "updatedAt": "181500Z",
      "visibility_m": 1600,
      "taf_visibility_m": 300,
      "worst_visibility_m": 300,
      "ceiling_ft": 200,
      "hazards": [
        "BR",
        "FZFG",
        "FG"
      ],
      "severityScore": 100,
      "metarRaw": "METAR UAAA 181500Z 00000MPS 1600 R23L/P2000U BR FEW100 SCT200 M16/M18 Q1030 NOSIG",
      "tafRaw": "TAF UAAA 181106Z 1812/1912 34003MPS 3100 BR FU SCT050 BKN100 TXM09/1908Z TNM17/1903Z \n  TEMPO 1812/1818 04003MPS 1100 BR BKN011 OVC050 \n  TEMPO 1818/1905 23003MPS 0300 FZFG VV002 \n  BECMG 1905/1906 6000 NSW \n  TEMPO 1905/1912 24003G08MPS 3100 BR FU"
    },
    {
      "icao": "LTFM",
      "iata": "IST",
      "name": "İstanbul Airport",
      "updatedAt": "181450Z",
      "visibility_m": 8000,
      "taf_visibility_m": 1600,
      "worst_visibility_m": 1600,
      "ceiling_ft": 1000,
      "hazards": [
        "SHSN",
        "SN",
        "BLSN",
        "TS",
        "RA"
      ],
      "severityScore": 99,
      "metarRaw": "METAR LTFM 181450Z 35024KT 8000 -SHSN BKN010 BKN022 01/M01 Q1030 NOSIG RMK RWY17L 35022KT RWY34L 34024KT RWY16R 35021G31KT RWY36 36025KT RWY18 36023KT",
      "tafRaw": "TAF LTFM 181040Z 1812/1918 36024G36KT 8000 -SHSN SCT012 BKN025 \n  TEMPO 1812/1815 2200 SHSN BKN008 FEW018TCU BKN022 \n  PROB30 \n  TEMPO 1815/1819 1600 TSSN BKN006 FEW016CB BKN023 \n  PROB40 \n  TEMPO 1821/1824 2200 SHSN BLSN BKN008 BKN022 \n  TEMPO 1901/1905 1600 SHSN BLSN BKN008 BKN022 \n  BECMG 1907/1909 35019KT \n  BECMG 1909/1912 -SHSNRA \n  PROB30 \n  TEMPO 1913/1916 4000 -SHSN"
    },
    {
      "icao": "ENGM",
      "iata": "OSL",
      "name": "Oslo-Gardermoen International Airport",
      "updatedAt": "181450Z",
      "visibility_m": 800,
      "taf_visibility_m": null,
      "worst_visibility_m": 800,
      "ceiling_ft": 300,
      "hazards": [
        "FG",
        "BR"
      ],
      "severityScore": 95,
      "metarRaw": "METAR ENGM 181450Z 06003KT 340V110 1400 0900SE R19R/P2000N R01R/1100U R19L/1800D R01L/2000D BR VV003 00/M00 Q1030 TEMPO 0800 FG",
      "tafRaw": null
    },
    {
      "icao": "LYPG",
      "iata": "TGD",
      "name": "Podgorica Airport / Podgorica Golubovci Airbase",
      "updatedAt": "181500Z",
      "visibility_m": 10000,
      "taf_visibility_m": 500,
      "worst_visibility_m": 500,
      "ceiling_ft": null,
      "hazards": [
        "FZFG",
        "FG",
        "BR"
      ],
      "severityScore": 95,
      "metarRaw": "METAR LYPG 181500Z 17002KT CAVOK 10/M01 Q1025 NOSIG",
      "tafRaw": "TAF LYPG 181100Z 1812/1912 16005KT CAVOK TX11/1812Z TNM02/1906Z \n  BECMG 1818/1820 3000 BR \n  BECMG 1820/1822 0800 FG \n  BECMG 1823/1901 0500 FZFG \n  BECMG 1907/1909 9999 NSW"
    },
    {
      "icao": "EDFH",
      "iata": "HHN",
      "name": "Frankfurt-Hahn Airport",
      "updatedAt": "181450Z",
      "visibility_m": 350,
      "taf_visibility_m": null,
      "worst_visibility_m": 350,
      "ceiling_ft": null,
      "hazards": [
        "FZFG",
        "FG"
      ],
      "severityScore": 90,
      "metarRaw": "METAR EDFH 181450Z 12010KT 0350 R21/0550D FZFG VV/// M00/M00 Q1018",
      "tafRaw": null
    },
    {
      "icao": "EDSB",
      "iata": "FKB",
      "name": "Karlsruhe Baden-Baden Airport",
      "updatedAt": "181450Z",
      "visibility_m": 10000,
      "taf_visibility_m": 800,
      "worst_visibility_m": 800,
      "ceiling_ft": 1300,
      "hazards": [
        "FZFG",
        "FG"
      ],
      "severityScore": 87,
      "metarRaw": "METAR EDSB 181450Z 19004KT 9999 OVC013 02/M00 Q1020",
      "tafRaw": "TAF EDSB 181100Z 1812/1912 02003KT 8000 SCT007 BKN010 \n  TEMPO 1813/1818 BKN015 \n  BECMG 1823/1902 OVC007 \n  PROB40 \n  TEMPO 1902/1909 0800 FZFG OVC002"
    },
    {
      "icao": "EGPF",
      "iata": "GLA",
      "name": "Glasgow Airport",
      "updatedAt": "181450Z",
      "visibility_m": 10000,
      "taf_visibility_m": 500,
      "worst_visibility_m": 500,
      "ceiling_ft": 2100,
      "hazards": [
        "FG",
        "BR",
        "DZ",
        "RA"
      ],
      "severityScore": 87,
      "metarRaw": "METAR EGPF 181450Z AUTO 06008KT 050V120 9999 OVC021 06/04 Q1015",
      "tafRaw": "TAF EGPF 181104Z 1812/1912 06003KT 9999 FEW020 SCT040 \n  TEMPO 1812/1824 BKN014 \n  TEMPO 1812/1817 8000 \n  BECMG 1817/1820 7000 \n  PROB30 \n  TEMPO 1817/1824 3000 RADZ BR BKN008 \n  TEMPO 1900/1909 3000 BR -DZ BKN004 \n  PROB30 \n  TEMPO 1902/1909 0500 FG VV/// \n  BECMG 1909/1912 9999 FEW012 SCT025"
    },
    {
      "icao": "EPKK",
      "iata": "KRK",
      "name": "Kraków John Paul II International Airport",
      "updatedAt": "181500Z",
      "visibility_m": 10000,
      "taf_visibility_m": 800,
      "worst_visibility_m": 800,
      "ceiling_ft": null,
      "hazards": [
        "FZFG",
        "BR",
        "FG"
      ],
      "severityScore": 85,
      "metarRaw": "METAR EPKK 181500Z 07009KT CAVOK M08/M12 Q1033",
      "tafRaw": "TAF EPKK 181430Z 1815/1915 07010KT CAVOK \n  PROB40 1818/1822 4000 BR \n  TEMPO 1822/1908 4000 BR \n  PROB30 1822/1908 0800 FZFG"
    },
    {
      "icao": "EGBB",
      "iata": "BHX",
      "name": "Birmingham Airport",
      "updatedAt": "181450Z",
      "visibility_m": 1200,
      "taf_visibility_m": null,
      "worst_visibility_m": 1200,
      "ceiling_ft": 200,
      "hazards": [
        "BR",
        "RA",
        "DZ"
      ],
      "severityScore": 82,
      "metarRaw": "METAR EGBB 181450Z 15004KT 1200 BR OVC002 06/06 Q1015 RERA REDZ",
      "tafRaw": null
    },
    {
      "icao": "LCPH",
      "iata": "PFO",
      "name": "Paphos International Airport",
      "updatedAt": "181500Z",
      "visibility_m": 10000,
      "taf_visibility_m": 2000,
      "worst_visibility_m": 2000,
      "ceiling_ft": null,
      "hazards": [
        "TSRA",
        "SHRA",
        "TS",
        "RA"
      ],
      "severityScore": 76,
      "metarRaw": "METAR LCPH 181500Z 07004KT 9999 FEW022 FEW025TCU SCT060 12/09 Q1015 NOSIG",
      "tafRaw": "TAF LCPH 181130Z 1812/1912 13010KT 9999 SCT025 \n  PROB30 \n  TEMPO 1812/1817 5000 SHRA SCT020TCU \n  PROB30 \n  TEMPO 1812/1817 VRB15G25KT 2000 TSRA SCT020CB \n  BECMG 1813/1815 04009KT \n  BECMG 1908/1911 14010KT"
    },
    {
      "icao": "LEBL",
      "iata": "BCN",
      "name": "Josep Tarradellas Barcelona-El Prat Airport",
      "updatedAt": "181500Z",
      "visibility_m": 10000,
      "taf_visibility_m": 2000,
      "worst_visibility_m": 2000,
      "ceiling_ft": 2400,
      "hazards": [
        "TSRA",
        "SHRA",
        "TS",
        "RA"
      ],
      "severityScore": 76,
      "metarRaw": "METAR LEBL 181500Z 04011KT 9999 FEW018 BKN024 13/11 Q1011 NOSIG",
      "tafRaw": "TAF LEBL 181100Z 1812/1912 07009KT 9999 FEW020 TX14/1812Z TN10/1906Z \n  TEMPO 1812/1906 4000 SHRA BKN010 FEW020TCU \n  PROB40 \n  TEMPO 1812/1821 2000 TSRA FEW020CB \n  BECMG 1903/1905 36007KT \n  BECMG 1908/1910 05015KT"
    },
    {
      "icao": "ENBR",
      "iata": "BGO",
      "name": "Bergen Airport, Flesland",
      "updatedAt": "181450Z",
      "visibility_m": 1300,
      "taf_visibility_m": null,
      "worst_visibility_m": 1300,
      "ceiling_ft": 200,
      "hazards": [
        "BR",
        "DZ"
      ],
      "severityScore": 70,
      "metarRaw": "METAR ENBR 181450Z 05002KT 1300 R17/1700U R35/P2000N BR -DZ OVC002 05/04 Q1024 TEMPO 1500 BR RMK WIND 1200FT 25003KT",
      "tafRaw": null
    },
    {
      "icao": "ENTO",
      "iata": "TRF",
      "name": "Sandefjord Airport, Torp",
      "updatedAt": "181450Z",
      "visibility_m": 1100,
      "taf_visibility_m": null,
      "worst_visibility_m": 1100,
      "ceiling_ft": 300,
      "hazards": [
        "BR",
        "DZ"
      ],
      "severityScore": 70,
      "metarRaw": "METAR ENTO 181450Z 10003KT 060V120 1100 R18/P2000N R36/P2000N -DZ BR SCT001 BKN003 01/01 Q1030 NOSIG",
      "tafRaw": null
    },
    {
      "icao": "EHEH",
      "iata": "EIN",
      "name": "Eindhoven Airport",
      "updatedAt": "181455Z",
      "visibility_m": 10000,
      "taf_visibility_m": 400,
      "worst_visibility_m": 400,
      "ceiling_ft": null,
      "hazards": [
        "FG",
        "BR"
      ],
      "severityScore": 65,
      "metarRaw": "METAR EHEH 181455Z AUTO 08006KT 020V140 9999 NCD 07/02 Q1019 BLU NOSIG RMK TREND REMOTE BY EHWX",
      "tafRaw": "TAF EHEH 181003Z 1812/1918 10005KT CAVOK \n  BECMG 1821/1823 3000 BR \n  BECMG 1902/1904 1000 \n  PROB40 1904/1908 0400 FG \n  BECMG 1909/1911 6000 NSW"
    },
    {
      "icao": "LZIB",
      "iata": "BTS",
      "name": "M. R. Štefánik Airport",
      "updatedAt": "181500Z",
      "visibility_m": 10000,
      "taf_visibility_m": 2000,
      "worst_visibility_m": 2000,
      "ceiling_ft": 200,
      "hazards": [
        "BR",
        "FG"
      ],
      "severityScore": 65,
      "metarRaw": "METAR LZIB 181500Z 12008KT 9999 FEW016 01/M02 Q1033 NOSIG",
      "tafRaw": "TAF LZIB 181115Z 1812/1912 09005KT 9999 FEW020 \n  PROB30 \n  TEMPO 1900/1907 2000 BCFG BR BKN002"
    },
    {
      "icao": "LEAL",
      "iata": "ALC",
      "name": "Alicante-Elche Miguel Hernández Airport",
      "updatedAt": "181500Z",
      "visibility_m": 10000,
      "taf_visibility_m": 3000,
      "worst_visibility_m": 3000,
      "ceiling_ft": null,
      "hazards": [
        "TSRA",
        "RA",
        "TS"
      ],
      "severityScore": 62,
      "metarRaw": "METAR LEAL 181500Z 10005KT 070V140 9999 SCT050 15/05 Q1009 NOSIG",
      "tafRaw": "TAF LEAL 181100Z 1812/1912 09004KT 9999 FEW030 TX15/1813Z TN06/1904Z \n  PROB40 \n  TEMPO 1812/1816 RA FEW030TCU \n  TEMPO 1907/1912 4000 RA FEW040TCU \n  PROB30 \n  TEMPO 1909/1912 3000 TSRA FEW040CB"
    },
    {
      "icao": "LLBG",
      "iata": "TLV",
      "name": "Ben Gurion International Airport",
      "updatedAt": "181450Z",
      "visibility_m": 10000,
      "taf_visibility_m": 5000,
      "worst_visibility_m": 5000,
      "ceiling_ft": 2500,
      "hazards": [
        "TSRA",
        "RA",
        "TS"
      ],
      "severityScore": 62,
      "metarRaw": "METAR LLBG 181450Z 16007KT 9999 FEW028 13/11 Q1015 NOSIG RMK SCT098",
      "tafRaw": "TAF LLBG 181102Z 1812/1912 23012KT 9999 SCT030 \n  TEMPO 1812/1815 25018G28KT 5000 TSRA SCT015 FEW020CB BKN025 \n  BECMG 1815/1817 VRB04KT \n  PROB40 \n  TEMPO 1817/1824 19012KT 7000 RA FEW025TCU BKN030 \n  PROB40 \n  TEMPO 1900/1907 -RA BKN025 \n  BECMG 1907/1909 02008KT FEW035 TX16/1812Z TN09/1904Z"
    },
    {
      "icao": "EGGP",
      "iata": "LPL",
      "name": "Liverpool John Lennon Airport",
      "updatedAt": "181450Z",
      "visibility_m": 4000,
      "taf_visibility_m": null,
      "worst_visibility_m": 4000,
      "ceiling_ft": 400,
      "hazards": [
        "BR",
        "DZ"
      ],
      "severityScore": 60,
      "metarRaw": "METAR EGGP 181450Z 14006KT 4000 -DZ BR BKN004 OVC011 05/05 Q1015",
      "tafRaw": null
    },
    {
      "icao": "LFLL",
      "iata": "LYS",
      "name": "Lyon Saint-Exupéry Airport",
      "updatedAt": "181500Z",
      "visibility_m": 350,
      "taf_visibility_m": null,
      "worst_visibility_m": 350,
      "ceiling_ft": null,
      "hazards": [
        "FG"
      ],
      "severityScore": 60,
      "metarRaw": "METAR LFLL 181500Z VRB03KT 0350 R35L/0400N R17R/0450D R35R/0550U R17L/0500D FG VV/// 06/06 Q1017 NOSIG",
      "tafRaw": null
    },
    {
      "icao": "BIKF",
      "iata": "KEF",
      "name": "Keflavik International Airport",
      "updatedAt": "181500Z",
      "visibility_m": 10000,
      "taf_visibility_m": 2000,
      "worst_visibility_m": 2000,
      "ceiling_ft": 1500,
      "hazards": [
        "RA",
        "BR",
        "SHRA",
        "DZ"
      ],
      "severityScore": 58,
      "metarRaw": "METAR BIKF 181500Z 13027G37KT 9999 -RA BKN015 OVC030 07/05 Q0992 RERA",
      "tafRaw": "TAF BIKF 181351Z 1815/1915 13030G40KT 9999 RA BKN014 OVC025 TX07/1815Z TN01/1907Z \n  BECMG 1816/1817 19008G18KT \n  BECMG 1817/1819 12008KT \n  TEMPO 1819/1901 2000 DZRA BKN004 \n  BECMG 1900/1902 17008KT 9999 -SHRA BKN025 \n  BECMG 1905/1907 10010KT \n  BECMG 1909/1911 10015G25KT \n  BECMG 1913/1915 3000 RADZ BR BKN005 OVC020"
    },
    {
      "icao": "LIPE",
      "iata": "BLQ",
      "name": "Bologna Guglielmo Marconi Airport",
      "updatedAt": "181450Z",
      "visibility_m": 3500,
      "taf_visibility_m": 3000,
      "worst_visibility_m": 3000,
      "ceiling_ft": 600,
      "hazards": [
        "BR",
        "DZ",
        "RA"
      ],
      "severityScore": 57,
      "metarRaw": "METAR LIPE 181450Z 06003KT 020V090 3500 DZ BR BKN006 BKN010 08/07 Q1024",
      "tafRaw": "TAF LIPE 181100Z 1812/1912 02005KT 7000 BKN035 \n  TEMPO 1812/1909 3000 -RA BKN007"
    },
    {
      "icao": "EGKK",
      "iata": "LGW",
      "name": "London Gatwick Airport",
      "updatedAt": "181450Z",
      "visibility_m": 10000,
      "taf_visibility_m": 3000,
      "worst_visibility_m": 3000,
      "ceiling_ft": 300,
      "hazards": [
        "BR",
        "DZ"
      ],
      "severityScore": 55,
      "metarRaw": "METAR EGKK 181450Z 13004KT CAVOK 12/09 Q1015",
      "tafRaw": "TAF EGKK 181059Z 1812/1918 14006KT 5000 BR BKN008 \n  BECMG 1812/1815 9999 NSW FEW008 \n  PROB30 \n  TEMPO 1815/1817 9000 \n  PROB30 \n  TEMPO 1821/1902 BKN007 \n  TEMPO 1823/1909 6000 \n  PROB40 \n  TEMPO 1902/1909 3000 BR BKN003 \n  TEMPO 1909/1918 BKN010 \n  PROB30 \n  TEMPO 1909/1918 6000 -DZ BKN008"
    },
    {
      "icao": "LIBD",
      "iata": "BRI",
      "name": "Bari Karol Wojtyła International Airport",
      "updatedAt": "181450Z",
      "visibility_m": 7000,
      "taf_visibility_m": 2000,
      "worst_visibility_m": 2000,
      "ceiling_ft": 300,
      "hazards": [
        "BR",
        "DZ"
      ],
      "severityScore": 55,
      "metarRaw": "METAR LIBD 181450Z VRB02KT 7000 FEW020 12/10 Q1022",
      "tafRaw": "TAF LIBD 181100Z 1812/1912 VRB05KT 2000 BR BKN003 \n  BECMG 1812/1814 08010KT 7000 SCT020 \n  BECMG 1817/1819 14007KT \n  BECMG 1904/1906 DZ"
    },
    {
      "icao": "EKBI",
      "iata": "BLL",
      "name": "Billund Airport",
      "updatedAt": "181450Z",
      "visibility_m": 9000,
      "taf_visibility_m": 3000,
      "worst_visibility_m": 3000,
      "ceiling_ft": 400,
      "hazards": [
        "BR"
      ],
      "severityScore": 45,
      "metarRaw": "METAR EKBI 181450Z AUTO 11007KT 9000 OVC008/// 02/01 Q1024",
      "tafRaw": "TAF EKBI 181446Z 1815/1915 11010KT 3000 BR BKN004 \n  TEMPO 1815/1903 5000 BKN006 \n  BECMG 1903/1905 6000 NSW SCT006"
    },
    {
      "icao": "ESGG",
      "iata": "GOT",
      "name": "Göteborg Landvetter Airport",
      "updatedAt": "181450Z",
      "visibility_m": 8000,
      "taf_visibility_m": 4000,
      "worst_visibility_m": 4000,
      "ceiling_ft": 400,
      "hazards": [
        "BR"
      ],
      "severityScore": 45,
      "metarRaw": "METAR ESGG 181450Z 11010KT 8000 OVC004 01/01 Q1028",
      "tafRaw": "TAF ESGG 181430Z 1815/1915 13006KT 9999 OVC003 \n  PROB40 1815/1821 4000 BR SCT003 \n  BECMG 1821/1823 NSC"
    },
    {
      "icao": "ENTC",
      "iata": "TOS",
      "name": "Tromsø Airport, Langnes",
      "updatedAt": "181450Z",
      "visibility_m": 10000,
      "taf_visibility_m": 10000,
      "worst_visibility_m": 10000,
      "ceiling_ft": 1200,
      "hazards": [
        "RA",
        "SHRA"
      ],
      "severityScore": 38,
      "metarRaw": "METAR ENTC 181450Z 19008KT 9999 -RA FEW006 BKN012 03/02 Q1028 TEMPO BKN018 RMK WIND 2600FT 26010KT",
      "tafRaw": "TAF ENTC 181100Z 1812/1912 21009KT 9999 -SHRA FEW010 BKN018 \n  TEMPO 1812/1824 SHRA BKN014 SCT020CB"
    },
    {
      "icao": "LPMA",
      "iata": "FNC",
      "name": "Madeira International Airport Cristiano Ronaldo",
      "updatedAt": "181500Z",
      "visibility_m": 10000,
      "taf_visibility_m": 8000,
      "worst_visibility_m": 8000,
      "ceiling_ft": 1300,
      "hazards": [
        "SHRA",
        "RA"
      ],
      "severityScore": 38,
      "metarRaw": "METAR LPMA 181500Z 02016G27KT 330V060 9999 SCT015 17/09 Q1019",
      "tafRaw": "TAF LPMA 181100Z 1812/1912 02017KT 9999 SCT015 \n  TEMPO 1812/1822 02023G35KT 8000 SHRA BKN013 \n  BECMG 1822/1824 35010KT"
    },
    {
      "icao": "LPPS",
      "iata": "PXO",
      "name": "Porto Santo Airport",
      "updatedAt": "181500Z",
      "visibility_m": 10000,
      "taf_visibility_m": 8000,
      "worst_visibility_m": 8000,
      "ceiling_ft": 1200,
      "hazards": [
        "SHRA",
        "RA"
      ],
      "severityScore": 38,
      "metarRaw": "METAR LPPS 181500Z 01018KT 9999 SCT015 16/09 Q1019",
      "tafRaw": "TAF LPPS 181100Z 1812/1918 01018KT 9999 SCT015 \n  TEMPO 1812/1824 36020G33KT 8000 SHRA BKN012 \n  BECMG 1911/1913 35012KT"
    },
    {
      "icao": "LTAC",
      "iata": "ESB",
      "name": "Esenboğa International Airport",
      "updatedAt": "181450Z",
      "visibility_m": 10000,
      "taf_visibility_m": 4000,
      "worst_visibility_m": 4000,
      "ceiling_ft": 3000,
      "hazards": [
        "BR",
        "SHSN",
        "SN"
      ],
      "severityScore": 38,
      "metarRaw": "METAR LTAC 181450Z 34007KT 300V360 9999 SCT040 SCT100 M02/M10 Q1020 NOSIG RMK RWY21C 31008KT RWY03L 33007KT 280V350 RWY21R 30007KT RWY03R 33006KT 300V360 RWY21L 32008KT",
      "tafRaw": "TAF LTAC 181040Z 1812/1912 VRB02KT 9999 SCT040 SCT100 \n  TEMPO 1812/1816 34012KT 4000 -SHSN FEW010 BKN030 BKN080 \n  TEMPO 1903/1907 4000 BR"
    },
    {
      "icao": "UDSG",
      "iata": "LWN",
      "name": "Shirak International Airport",
      "updatedAt": "181500Z",
      "visibility_m": 3600,
      "taf_visibility_m": 1000,
      "worst_visibility_m": 1000,
      "ceiling_ft": 3300,
      "hazards": [
        "BR",
        "SN"
      ],
      "severityScore": 38,
      "metarRaw": "METAR UDSG 181500Z 14004KT 3600 BR BKN033 M09/M09 Q1017 NOSIG",
      "tafRaw": "TAF UDSG 181058Z 1812/1912 VRB06KT 5000 BR BKN030 \n  TEMPO 1815/1820 1000 SN BR OVC020"
    },
    {
      "icao": "UDYZ",
      "iata": "EVN",
      "name": "Zvartnots International Airport",
      "updatedAt": "181500Z",
      "visibility_m": 5000,
      "taf_visibility_m": 2300,
      "worst_visibility_m": 2300,
      "ceiling_ft": 3000,
      "hazards": [
        "BR",
        "SHSN",
        "SN"
      ],
      "severityScore": 38,
      "metarRaw": "METAR UDYZ 181500Z 24002KT 5000 BR SCT046 M00/M03 Q1018 NOSIG",
      "tafRaw": "TAF UDYZ 181100Z 1812/1912 24006KT 6000 BKN030 \n  TEMPO 1812/1818 VRB16KT 2300 -SHSN BR SCT007 BKN020CB"
    },
    {
      "icao": "GMAD",
      "iata": "AGA",
      "name": "Al Massira Airport",
      "updatedAt": "181500Z",
      "visibility_m": 8000,
      "taf_visibility_m": 4000,
      "worst_visibility_m": 4000,
      "ceiling_ft": 600,
      "hazards": [
        "RA"
      ],
      "severityScore": 37,
      "metarRaw": "METAR GMAD 181500Z 30018KT 8000 SCT026 16/08 Q1007 NOSIG",
      "tafRaw": "TAF GMAD 181100Z 1812/1918 24008KT 8000 SCT010 BKN016 \n  TEMPO 1812/1818 4000 RA BKN006 \n  BECMG 1912/1914 26014KT 9999 SCT023"
    },
    {
      "icao": "LIPY",
      "iata": "AOI",
      "name": "Marche Airport",
      "updatedAt": "181450Z",
      "visibility_m": 6000,
      "taf_visibility_m": 3000,
      "worst_visibility_m": 3000,
      "ceiling_ft": 500,
      "hazards": [
        "RA"
      ],
      "severityScore": 37,
      "metarRaw": "METAR LIPY 181450Z AUTO 34004KT 6000 FEW023/// BKN110/// 11/10 Q1022",
      "tafRaw": "TAF LIPY 181100Z 1812/1912 09007KT 8000 SCT030 \n  TEMPO 1812/1816 3000 RA BKN005 \n  TEMPO 1821/1903 RA"
    },
    {
      "icao": "GMMX",
      "iata": "RAK",
      "name": "Menara Airport",
      "updatedAt": "181500Z",
      "visibility_m": 1500,
      "taf_visibility_m": 3000,
      "worst_visibility_m": 1500,
      "ceiling_ft": 2000,
      "hazards": [
        "SHRA",
        "RA"
      ],
      "severityScore": 36,
      "metarRaw": "METAR GMMX 181500Z 36005KT 320V050 8000 SCT010 BKN020 FEW026CB 10/06 Q1008 RERA TEMPO 1500 SHRA",
      "tafRaw": "TAF GMMX 181100Z 1812/1918 30008KT 8000 BKN023 SCT080 \n  TEMPO 1812/1819 3000 SHRA SCT010 BKN020 FEW030CB \n  TEMPO 1819/1907 4000 RA SCT010 BKN015"
    },
    {
      "icao": "ESMS",
      "iata": "MMX",
      "name": "Malmö Sturup Airport",
      "updatedAt": "181450Z",
      "visibility_m": 6000,
      "taf_visibility_m": 3000,
      "worst_visibility_m": 3000,
      "ceiling_ft": 600,
      "hazards": [
        "BR"
      ],
      "severityScore": 35,
      "metarRaw": "METAR ESMS 181450Z 10012KT 6000 BR SCT007 02/02 Q1028",
      "tafRaw": "TAF ESMS 181427Z 1815/1915 12010KT 9999 BKN006 \n  BECMG 1815/1817 FEW007 \n  TEMPO 1815/1818 3000 BR"
    },
    {
      "icao": "OMDB",
      "iata": "DXB",
      "name": "Dubai International Airport",
      "updatedAt": "181500Z",
      "visibility_m": 10000,
      "taf_visibility_m": 3000,
      "worst_visibility_m": 3000,
      "ceiling_ft": 800,
      "hazards": [
        "BR"
      ],
      "severityScore": 35,
      "metarRaw": "METAR OMDB 181500Z 29008KT 9999 FEW040 21/12 Q1015 NOSIG",
      "tafRaw": "TAF OMDB 181100Z 1812/1918 28010KT 8000 SCT040 \n  BECMG 1816/1818 18005KT \n  PROB30 1900/1906 3000 BR BKN008 \n  BECMG 1908/1910 30010KT \n  BECMG 1915/1917 06005KT"
    },
    {
      "icao": "LEBB",
      "iata": "BIO",
      "name": "Bilbao Airport",
      "updatedAt": "181500Z",
      "visibility_m": 6000,
      "taf_visibility_m": 3000,
      "worst_visibility_m": 3000,
      "ceiling_ft": 1400,
      "hazards": [
        "RA",
        "BR"
      ],
      "severityScore": 34,
      "metarRaw": "METAR LEBB 181500Z VRB01KT 6000 -RA BKN014 10/10 Q1014 NOSIG",
      "tafRaw": "TAF LEBB 181100Z 1812/1912 29008KT 9999 FEW010 BKN020 TX11/1814Z TN07/1906Z \n  TEMPO 1812/1815 3000 RA BKN010 \n  PROB30 \n  TEMPO 1815/1903 RA \n  PROB30 \n  TEMPO 1903/1909 3000 BR"
    },
    {
      "icao": "EDDN",
      "iata": "NUE",
      "name": "Nuremberg Airport",
      "updatedAt": "181450Z",
      "visibility_m": 10000,
      "taf_visibility_m": 1200,
      "worst_visibility_m": 1200,
      "ceiling_ft": null,
      "hazards": [
        "FG"
      ],
      "severityScore": 30,
      "metarRaw": "METAR EDDN 181450Z AUTO 09010KT CAVOK 04/M01 Q1020 NOSIG",
      "tafRaw": "TAF EDDN 181100Z 1812/1912 10007KT CAVOK \n  PROB30 \n  TEMPO 1903/1907 1200 BCFG"
    },
    {
      "icao": "LFOB",
      "iata": "BVA",
      "name": "Beauvais Tillé airport",
      "updatedAt": "181500Z",
      "visibility_m": 10000,
      "taf_visibility_m": 2000,
      "worst_visibility_m": 2000,
      "ceiling_ft": 8000,
      "hazards": [
        "BR",
        "FG"
      ],
      "severityScore": 30,
      "metarRaw": "METAR LFOB 181500Z AUTO 10007KT CAVOK 09/05 Q1016 NOSIG",
      "tafRaw": "TAF LFOB 181100Z 1812/1912 10005KT 9999 FEW045 BKN080 \n  TEMPO 1821/1909 4000 BR \n  PROB40 1823/1908 2000 BR BCFG"
    },
    {
      "icao": "LFPO",
      "iata": "ORY",
      "name": "Paris-Orly Airport",
      "updatedAt": "181500Z",
      "visibility_m": 10000,
      "taf_visibility_m": 2500,
      "worst_visibility_m": 2500,
      "ceiling_ft": null,
      "hazards": [
        "BR",
        "FG"
      ],
      "severityScore": 30,
      "metarRaw": "METAR LFPO 181500Z 08004KT 050V110 CAVOK 09/05 Q1016 NOSIG",
      "tafRaw": "TAF LFPO 181100Z 1812/1918 09005KT CAVOK \n  BECMG 1815/1817 VRB03KT \n  PROB40 \n  TEMPO 1900/1910 4000 BR \n  PROB30 \n  TEMPO 1903/1908 2500 MIFG \n  BECMG 1910/1912 15005KT"
    },
    {
      "icao": "GCTS",
      "iata": "TFS",
      "name": "Tenerife Sur Airport",
      "updatedAt": "181500Z",
      "visibility_m": 10000,
      "taf_visibility_m": 10000,
      "worst_visibility_m": 10000,
      "ceiling_ft": null,
      "hazards": [
        "TS"
      ],
      "severityScore": 25,
      "metarRaw": "METAR GCTS 181500Z 16007KT 120V200 9999 SCT050 21/14 Q1016 NOSIG",
      "tafRaw": "TAF GCTS 181400Z 1815/1915 06014KT 9999 SCT035 TX23/1914Z TN14/1906Z \n  TEMPO 1815/1816 14010KT \n  TEMPO 1822/1910 36006KT \n  TEMPO 1912/1915 08017G27KT"
    },
    {
      "icao": "LEVC",
      "iata": "VLC",
      "name": "Valencia Airport",
      "updatedAt": "181500Z",
      "visibility_m": 10000,
      "taf_visibility_m": 10000,
      "worst_visibility_m": 10000,
      "ceiling_ft": 2000,
      "hazards": [
        "TS"
      ],
      "severityScore": 25,
      "metarRaw": "METAR LEVC 181500Z 09008KT 070V130 9999 FEW024 13/08 Q1010 NOSIG",
      "tafRaw": "TAF LEVC 181100Z 1812/1912 06006KT 9999 FEW020 TX14/1813Z TN06/1906Z \n  BECMG 1817/1819 30006KT \n  PROB40 \n  TEMPO 1813/1816 TS FEW030CB \n  TEMPO 1813/1816 FEW030TCU \n  TEMPO 1818/1822 BKN020 FEW030TCU"
    },
    {
      "icao": "LGTS",
      "iata": "SKG",
      "name": "Thessaloniki Macedonia International Airport",
      "updatedAt": "181450Z",
      "visibility_m": 10000,
      "taf_visibility_m": 10000,
      "worst_visibility_m": 10000,
      "ceiling_ft": 4000,
      "hazards": [
        "TS"
      ],
      "severityScore": 25,
      "metarRaw": "METAR LGTS 181450Z 15003KT 9999 FEW025 BKN040 07/M01 Q1030 NOSIG",
      "tafRaw": "TAF LGTS 181100Z 1812/1912 09007KT 9999 FEW015 BKN035"
    },
    {
      "icao": "GMMN",
      "iata": "CMN",
      "name": "Mohammed V International Airport",
      "updatedAt": "181500Z",
      "visibility_m": 3000,
      "taf_visibility_m": 2000,
      "worst_visibility_m": 2000,
      "ceiling_ft": 1700,
      "hazards": [
        "RA"
      ],
      "severityScore": 24,
      "metarRaw": "METAR GMMN 181500Z 34011KT 9999 BKN017 SCT023TCU 11/08 Q1007 TEMPO 3000 RA",
      "tafRaw": "TAF GMMN 181100Z 1812/1918 30008KT 9999 SCT008 BKN017 FEW030TCU \n  TEMPO 1812/1824 36014KT 2000 RA BKN010 BKN026TCU"
    },
    {
      "icao": "LEXJ",
      "iata": "SDR",
      "name": "Seve Ballesteros-Santander Airport",
      "updatedAt": "181500Z",
      "visibility_m": 10000,
      "taf_visibility_m": 10000,
      "worst_visibility_m": 10000,
      "ceiling_ft": 1400,
      "hazards": [
        "RA"
      ],
      "severityScore": 24,
      "metarRaw": "METAR LEXJ 181500Z 28003KT 9999 -RA FEW008 BKN014 10/09 Q1014",
      "tafRaw": "TAF LEXJ 181400Z 1815/1915 25009KT 9999 BKN020 TX12/1913Z TN07/1907Z \n  PROB40 \n  TEMPO 1815/1816 RA BKN010 \n  PROB30 \n  TEMPO 1820/1907 RA BKN010"
    },
    {
      "icao": "EDNY",
      "iata": "FDH",
      "name": "Friedrichshafen Airport",
      "updatedAt": "181450Z",
      "visibility_m": 8000,
      "taf_visibility_m": 4000,
      "worst_visibility_m": 4000,
      "ceiling_ft": 1000,
      "hazards": [
        "BR"
      ],
      "severityScore": 22,
      "metarRaw": "METAR EDNY 181450Z 34005KT 320V030 8000 BKN010 01/M01 Q1019",
      "tafRaw": "TAF EDNY 181400Z 1815/1824 03005KT 9999 OVC008 \n  TEMPO 1815/1824 SCT009 \n  PROB30 \n  TEMPO 1819/1824 VRB03KT 4000 BR"
    },
    {
      "icao": "LICA",
      "iata": "SUF",
      "name": "Lamezia Terme Sant'Eufemia International Airport",
      "updatedAt": "181450Z",
      "visibility_m": 10000,
      "taf_visibility_m": 4000,
      "worst_visibility_m": 4000,
      "ceiling_ft": 2000,
      "hazards": [
        "RA",
        "DZ"
      ],
      "severityScore": 22,
      "metarRaw": "METAR LICA 181450Z AUTO 07013KT 9999 -DZRA BKN023/// BKN065/// 12/10 Q1019",
      "tafRaw": "TAF LICA 181100Z 1812/1912 08016KT 9999 BKN020 \n  TEMPO 1812/1912 4000 RA \n  BECMG 1816/1818 08018G28KT \n  BECMG 1909/1911 08024G38KT"
    },
    {
      "icao": "LIPR",
      "iata": "RMI",
      "name": "Federico Fellini International Airport",
      "updatedAt": "181450Z",
      "visibility_m": 2500,
      "taf_visibility_m": 3000,
      "worst_visibility_m": 2500,
      "ceiling_ft": 5000,
      "hazards": [
        "BR",
        "RA"
      ],
      "severityScore": 22,
      "metarRaw": "METAR LIPR 181450Z 31004KT 2500 BR SCT020 BKN050 09/09 Q1023",
      "tafRaw": "TAF LIPR 181100Z 1812/1912 VRB06KT 7000 SCT025 \n  BECMG 1812/1814 08010KT \n  TEMPO 1812/1906 3000 -RA BKN006 \n  BECMG 1815/1817 09012KT"
    },
    {
      "icao": "LJLJ",
      "iata": "LJU",
      "name": "Ljubljana Jože Pučnik Airport",
      "updatedAt": "181500Z",
      "visibility_m": 10000,
      "taf_visibility_m": 4500,
      "worst_visibility_m": 4500,
      "ceiling_ft": 1300,
      "hazards": [
        "BR"
      ],
      "severityScore": 22,
      "metarRaw": "METAR LJLJ 181500Z 30002KT 9999 FEW023 03/M02 Q1029 NOSIG",
      "tafRaw": "TAF LJLJ 181100Z 1812/1912 12005KT 9999 SCT015 BKN025 \n  PROB40 \n  TEMPO 1818/1910 4500 BR BKN013"
    },
    {
      "icao": "EHBK",
      "iata": "MST",
      "name": "Maastricht Aachen Airport",
      "updatedAt": "181455Z",
      "visibility_m": 10000,
      "taf_visibility_m": 7000,
      "worst_visibility_m": 7000,
      "ceiling_ft": null,
      "hazards": [
        "FG"
      ],
      "severityScore": 20,
      "metarRaw": "METAR EHBK 181455Z AUTO 07009KT 040V100 9999 NSC 05/02 Q1018 NOSIG",
      "tafRaw": "TAF EHBK 181104Z 1812/1918 08005KT CAVOK \n  PROB30 1818/1908 7000 MIFG"
    },
    {
      "icao": "ENHD",
      "iata": "HAU",
      "name": "Haugesund Airport, Karmøy",
      "updatedAt": "181450Z",
      "visibility_m": 10000,
      "taf_visibility_m": 2000,
      "worst_visibility_m": 2000,
      "ceiling_ft": 3800,
      "hazards": [
        "FG"
      ],
      "severityScore": 20,
      "metarRaw": "METAR ENHD 181450Z 19006KT 150V210 9999 SCT017 BKN038 05/03 Q1024",
      "tafRaw": "TAF ENHD 181400Z 1815/1823 15005KT 9999 BKN008 \n  TEMPO 1815/1823 SCT008 BKN020 \n  PROB30 \n  TEMPO 1815/1823 2000 BCFG"
    },
    {
      "icao": "ENZV",
      "iata": "SVG",
      "name": "Stavanger Airport, Sola",
      "updatedAt": "181450Z",
      "visibility_m": 10000,
      "taf_visibility_m": 2000,
      "worst_visibility_m": 2000,
      "ceiling_ft": 3300,
      "hazards": [
        "FG"
      ],
      "severityScore": 20,
      "metarRaw": "METAR ENZV 181450Z 00000KT 9999 OVC033 04/03 Q1024 NOSIG",
      "tafRaw": "TAF ENZV 181100Z 1812/1912 16005KT 9999 FEW020 BKN040 \n  PROB30 \n  TEMPO 1812/1815 2000 BCFG OVC006"
    },
    {
      "icao": "EPKT",
      "iata": "KTW",
      "name": "Katowice Wojciech Korfanty International Airport",
      "updatedAt": "181500Z",
      "visibility_m": 10000,
      "taf_visibility_m": 1200,
      "worst_visibility_m": 1200,
      "ceiling_ft": null,
      "hazards": [
        "BR"
      ],
      "severityScore": 20,
      "metarRaw": "METAR EPKT 181500Z 12005KT CAVOK M01/M08 Q1031",
      "tafRaw": "TAF EPKT 181130Z 1812/1912 15006KT CAVOK \n  TEMPO 1818/1908 2500 BR \n  PROB30 1820/1908 1200 BR"
    },
    {
      "icao": "LIBR",
      "iata": "BDS",
      "name": "Brindisi Airport",
      "updatedAt": "181450Z",
      "visibility_m": 10000,
      "taf_visibility_m": 10000,
      "worst_visibility_m": 10000,
      "ceiling_ft": null,
      "hazards": [
        "BR",
        "DZ"
      ],
      "severityScore": 20,
      "metarRaw": "METAR LIBR 181450Z 11005KT 9999 SCT040 13/09 Q1022",
      "tafRaw": "TAF LIBR 181100Z 1812/1912 17006KT 9999 FEW030 \n  BECMG 1903/1905 DZ \n  BECMG 1909/1911 NSW"
    },
    {
      "icao": "LRBS",
      "iata": "BBU",
      "name": "Bucharest Băneasa Aurel Vlaicu International Airport",
      "updatedAt": "181500Z",
      "visibility_m": 7000,
      "taf_visibility_m": 5000,
      "worst_visibility_m": 5000,
      "ceiling_ft": 2400,
      "hazards": [
        "SN"
      ],
      "severityScore": 18,
      "metarRaw": "METAR LRBS 181500Z 26004KT 7000 BKN024 BKN039 M05/M09 Q1038 NOSIG",
      "tafRaw": "TAF LRBS 181100Z 1812/1912 VRB04KT 9999 BKN025 \n  TEMPO 1812/1814 5000 -SN BKN015 BKN025 \n  PROB40 \n  TEMPO 1819/1824 5000 -SN BKN010 BKN025 \n  TEMPO 1906/1909 BKN015"
    },
    {
      "icao": "LROP",
      "iata": "OTP",
      "name": "Bucharest Henri Coandă International Airport",
      "updatedAt": "181500Z",
      "visibility_m": 7000,
      "taf_visibility_m": 5000,
      "worst_visibility_m": 5000,
      "ceiling_ft": 2400,
      "hazards": [
        "SN"
      ],
      "severityScore": 18,
      "metarRaw": "METAR LROP 181500Z 28006KT 7000 OVC024 M05/M10 Q1038 NOSIG",
      "tafRaw": "TAF LROP 181100Z 1812/1912 VRB04KT 9999 BKN030 \n  TEMPO 1812/1814 5000 -SN BKN015 BKN025 \n  PROB40 \n  TEMPO 1819/1824 5000 -SN BKN010 BKN025 \n  TEMPO 1906/1909 BKN015"
    },
    {
      "icao": "EDDS",
      "iata": "STR",
      "name": "Stuttgart Airport",
      "updatedAt": "181450Z",
      "visibility_m": 10000,
      "taf_visibility_m": null,
      "worst_visibility_m": 10000,
      "ceiling_ft": 1200,
      "hazards": [],
      "severityScore": 17,
      "metarRaw": "METAR EDDS 181450Z AUTO 09006KT 9999 OVC012 02/M00 Q1018 BECMG BKN015",
      "tafRaw": null
    },
    {
      "icao": "LUKK",
      "iata": "RMO",
      "name": "Chişinău International Airport",
      "updatedAt": "181500Z",
      "visibility_m": 10000,
      "taf_visibility_m": null,
      "worst_visibility_m": 10000,
      "ceiling_ft": 1600,
      "hazards": [],
      "severityScore": 17,
      "metarRaw": "METAR LUKK 181500Z 01013KT 9999 OVC016 M08/M11 Q1038 NOSIG",
      "tafRaw": null
    },
    {
      "icao": "GCLP",
      "iata": "LPA",
      "name": "Gran Canaria Airport",
      "updatedAt": "181500Z",
      "visibility_m": 10000,
      "taf_visibility_m": 10000,
      "worst_visibility_m": 10000,
      "ceiling_ft": 3000,
      "hazards": [
        "RA"
      ],
      "severityScore": 12,
      "metarRaw": "METAR GCLP 181500Z 01020KT 330V030 9999 -RA FEW015 BKN030 18/15 Q1016 NOSIG",
      "tafRaw": "TAF GCLP 181400Z 1815/1915 36025KT 9999 FEW025 SCT035 TX20/1914Z TN16/1906Z \n  TEMPO 1815/1903 36025G35KT \n  PROB40 \n  TEMPO 1903/1909 01020G30KT"
    },
    {
      "icao": "EDDH",
      "iata": "HAM",
      "name": "Hamburg Helmut Schmidt Airport",
      "updatedAt": "181450Z",
      "visibility_m": 10000,
      "taf_visibility_m": 10000,
      "worst_visibility_m": 10000,
      "ceiling_ft": 1300,
      "hazards": [],
      "severityScore": 12,
      "metarRaw": "METAR EDDH 181450Z AUTO 11009KT CAVOK 04/01 Q1023 NOSIG",
      "tafRaw": "TAF EDDH 181100Z 1812/1918 12010KT 9999 BKN013 \n  BECMG 1812/1813 FEW015"
    },
    {
      "icao": "EDDK",
      "iata": "CGN",
      "name": "Cologne Bonn Airport",
      "updatedAt": "181450Z",
      "visibility_m": 10000,
      "taf_visibility_m": 10000,
      "worst_visibility_m": 10000,
      "ceiling_ft": 1100,
      "hazards": [],
      "severityScore": 12,
      "metarRaw": "METAR EDDK 181450Z AUTO 12008KT 090V150 9999 OVC011 03/M00 Q1020 NOSIG",
      "tafRaw": "TAF EDDK 181100Z 1812/1918 12007KT 9999 BKN009 \n  BECMG 1812/1815 FEW015 \n  PROB30 \n  TEMPO 1815/1821 BKN014 \n  PROB30 \n  TEMPO 1906/1909 BKN008"
    },
    {
      "icao": "EKCH",
      "iata": "CPH",
      "name": "Copenhagen Kastrup Airport",
      "updatedAt": "181450Z",
      "visibility_m": 9000,
      "taf_visibility_m": 10000,
      "worst_visibility_m": 9000,
      "ceiling_ft": 1200,
      "hazards": [],
      "severityScore": 12,
      "metarRaw": "METAR EKCH 181450Z AUTO 11011KT 9000 NCD 03/01 Q1028 NOSIG",
      "tafRaw": "TAF EKCH 181446Z 1815/1915 12012KT 9999 FEW008 \n  TEMPO 1815/1818 BKN012"
    },
    {
      "icao": "EPRA",
      "iata": "RDO",
      "name": "Warsaw Radom Airport",
      "updatedAt": "181500Z",
      "visibility_m": 10000,
      "taf_visibility_m": 10000,
      "worst_visibility_m": 10000,
      "ceiling_ft": null,
      "hazards": [
        "RA"
      ],
      "severityScore": 12,
      "metarRaw": "METAR EPRA 181500Z 10007KT CAVOK M06/M11 Q1035",
      "tafRaw": "TAF EPRA 181430Z 1815/1824 12010KT CAVOK"
    },
    {
      "icao": "LFMN",
      "iata": "NCE",
      "name": "Nice-Côte d'Azur Airport",
      "updatedAt": "181500Z",
      "visibility_m": 10000,
      "taf_visibility_m": 10000,
      "worst_visibility_m": 10000,
      "ceiling_ft": 6600,
      "hazards": [
        "RA"
      ],
      "severityScore": 12,
      "metarRaw": "METAR LFMN 181500Z 10026KT 9999 -RA OVC066 15/08 Q1017 TEMPO RA",
      "tafRaw": "TAF LFMN 181400Z 1815/1921 09025KT 9999 OVC060 \n  PROB30 \n  TEMPO 1815/1816 06015KT RA \n  BECMG 1816/1819 06015KT \n  BECMG 1906/1909 07017G27KT \n  PROB40 1909/1916 08025KT"
    },
    {
      "icao": "LGAV",
      "iata": "ATH",
      "name": "Athens Eleftherios Venizelos International Airport",
      "updatedAt": "181450Z",
      "visibility_m": 10000,
      "taf_visibility_m": 5000,
      "worst_visibility_m": 5000,
      "ceiling_ft": 2000,
      "hazards": [
        "RA"
      ],
      "severityScore": 12,
      "metarRaw": "METAR LGAV 181450Z 36017KT 9999 SCT040 06/M01 Q1027 NOSIG",
      "tafRaw": "TAF LGAV 181100Z 1812/1912 03015G25KT 9999 FEW020 SCT030 \n  TEMPO 1812/1906 03020G30KT SCT018 BKN030 \n  PROB30 \n  TEMPO 1818/1906 5000 RA FEW018 BKN020 BKN070"
    },
    {
      "icao": "LIBP",
      "iata": "PSR",
      "name": "Abruzzo Airport",
      "updatedAt": "181450Z",
      "visibility_m": 10000,
      "taf_visibility_m": 4000,
      "worst_visibility_m": 4000,
      "ceiling_ft": 4000,
      "hazards": [
        "RA"
      ],
      "severityScore": 12,
      "metarRaw": "METAR LIBP 181450Z AUTO 04004KT 010V070 9999 BKN010/// BKN068/// BKN110/// 12/10 Q1022",
      "tafRaw": "TAF LIBP 181100Z 1812/1912 VRB06KT 9000 SCT018 BKN040 \n  TEMPO 1905/1909 4000 RA"
    },
    {
      "icao": "LICC",
      "iata": "CTA",
      "name": "Catania-Fontanarossa Airport",
      "updatedAt": "181450Z",
      "visibility_m": 10000,
      "taf_visibility_m": 4000,
      "worst_visibility_m": 4000,
      "ceiling_ft": 4000,
      "hazards": [
        "RA"
      ],
      "severityScore": 12,
      "metarRaw": "METAR LICC 181450Z 08007KT 9999 FEW015 SCT020 16/14 Q1017",
      "tafRaw": "TAF LICC 181100Z 1812/1912 08015KT 9999 SCT015 BKN040 \n  TEMPO 1812/1912 4000 RA \n  BECMG 1902/1904 10025KT"
    },
    {
      "icao": "LIMF",
      "iata": "TRN",
      "name": "Turin Airport",
      "updatedAt": "181450Z",
      "visibility_m": 7000,
      "taf_visibility_m": 4000,
      "worst_visibility_m": 4000,
      "ceiling_ft": 6000,
      "hazards": [
        "RA"
      ],
      "severityScore": 12,
      "metarRaw": "METAR LIMF 181450Z 02003KT 7000 OVC060 08/05 Q1023",
      "tafRaw": "TAF LIMF 181100Z 1812/1912 30007KT 4000 -RA SCT020 BKN050"
    },
    {
      "icao": "LIRF",
      "iata": "FCO",
      "name": "Rome–Fiumicino Leonardo da Vinci International Airport",
      "updatedAt": "181450Z",
      "visibility_m": 10000,
      "taf_visibility_m": 10000,
      "worst_visibility_m": 10000,
      "ceiling_ft": null,
      "hazards": [
        "RA"
      ],
      "severityScore": 12,
      "metarRaw": "METAR LIRF 181450Z 07005KT CAVOK 14/06 Q1018 NOSIG",
      "tafRaw": "TAF LIRF 181100Z 1812/1918 06010KT 9999 SCT040 \n  TEMPO 1912/1918 RA"
    },
    {
      "icao": "LIRN",
      "iata": "NAP",
      "name": "Naples International Airport",
      "updatedAt": "181450Z",
      "visibility_m": 10000,
      "taf_visibility_m": 10000,
      "worst_visibility_m": 10000,
      "ceiling_ft": null,
      "hazards": [
        "RA"
      ],
      "severityScore": 12,
      "metarRaw": "METAR LIRN 181450Z 05008KT CAVOK 15/07 Q1018 NOSIG",
      "tafRaw": "TAF LIRN 181100Z 1812/1912 05010KT 9999 SCT040 \n  TEMPO 1906/1912 RA"
    },
    {
      "icao": "LMML",
      "iata": "MLA",
      "name": "Malta International Airport",
      "updatedAt": "181445Z",
      "visibility_m": 10000,
      "taf_visibility_m": 10000,
      "worst_visibility_m": 10000,
      "ceiling_ft": 1500,
      "hazards": [],
      "severityScore": 12,
      "metarRaw": "METAR LMML 181445Z 11013KT 9999 SCT011 16/13 Q1015 NOSIG",
      "tafRaw": "TAF LMML 181100Z 1812/1912 12012KT 9999 SCT018 \n  PROB30 \n  TEMPO 1812/1912 BKN015 \n  BECMG 1900/1903 13025G35KT \n  BECMG 1909/1912 12030G40KT"
    },
    {
      "icao": "LOWW",
      "iata": "VIE",
      "name": "Vienna International Airport",
      "updatedAt": "181450Z",
      "visibility_m": 10000,
      "taf_visibility_m": 10000,
      "worst_visibility_m": 10000,
      "ceiling_ft": 1400,
      "hazards": [],
      "severityScore": 12,
      "metarRaw": "METAR LOWW 181450Z 13015KT 9999 FEW015 00/M03 Q1031 NOSIG",
      "tafRaw": "TAF LOWW 181415Z 1815/1921 14013KT 9999 FEW020 SCT030 TX00/1815Z TNM05/1906Z \n  PROB30 \n  TEMPO 1822/1909 BKN014 \n  PROB40 \n  TEMPO 1909/1917 14020G30KT"
    },
    {
      "icao": "LRCV",
      "iata": "CRA",
      "name": "Craiova International Airport",
      "updatedAt": "181500Z",
      "visibility_m": 10000,
      "taf_visibility_m": 10000,
      "worst_visibility_m": 10000,
      "ceiling_ft": 1500,
      "hazards": [],
      "severityScore": 12,
      "metarRaw": "METAR LRCV 181500Z 14002KT 9999 FEW029 M07/M10 Q1037",
      "tafRaw": "TAF LRCV 181400Z 1815/1824 VRB04KT 9999 BKN015"
    },
    {
      "icao": "UBBB",
      "iata": "GYD",
      "name": "Heydar Aliyev International Airport",
      "updatedAt": "181500Z",
      "visibility_m": 10000,
      "taf_visibility_m": 10000,
      "worst_visibility_m": 10000,
      "ceiling_ft": 1700,
      "hazards": [],
      "severityScore": 12,
      "metarRaw": "METAR UBBB 181500Z 04010KT 9999 FEW025 05/01 Q1029 NOSIG",
      "tafRaw": "TAF UBBB 181057Z 1812/1912 03010KT 9999 SCT012 OVC025 TX06/1812Z TN01/1901Z \n  TEMPO 1812/1818 06012KT OVC020 \n  TEMPO 1818/1905 SCT008 OVC020 \n  TEMPO 1905/1912 05014KT SCT008 OVC017"
    },
    {
      "icao": "EPLB",
      "iata": "LUZ",
      "name": "Lublin Airport",
      "updatedAt": "181500Z",
      "visibility_m": 10000,
      "taf_visibility_m": 4000,
      "worst_visibility_m": 4000,
      "ceiling_ft": null,
      "hazards": [
        "BR"
      ],
      "severityScore": 10,
      "metarRaw": "METAR EPLB 181500Z 09009KT CAVOK M11/M14 Q1037",
      "tafRaw": "TAF EPLB 181130Z 1812/1912 11009KT CAVOK \n  PROB40 1901/1907 4000 BR"
    },
    {
      "icao": "EPMO",
      "iata": "WMI",
      "name": "Modlin Airport",
      "updatedAt": "181500Z",
      "visibility_m": 10000,
      "taf_visibility_m": 4000,
      "worst_visibility_m": 4000,
      "ceiling_ft": null,
      "hazards": [
        "BR"
      ],
      "severityScore": 10,
      "metarRaw": "METAR EPMO 181500Z 09007KT CAVOK M07/M11 Q1036",
      "tafRaw": "TAF EPMO 181130Z 1812/1912 09009KT 8000 NSC \n  PROB40 1821/1908 4000 BR"
    },
    {
      "icao": "EPRZ",
      "iata": "RZE",
      "name": "Rzeszów-Jasionka Airport",
      "updatedAt": "181500Z",
      "visibility_m": 10000,
      "taf_visibility_m": 2000,
      "worst_visibility_m": 2000,
      "ceiling_ft": null,
      "hazards": [
        "BR"
      ],
      "severityScore": 10,
      "metarRaw": "METAR EPRZ 181500Z 09011KT CAVOK M07/M11 Q1035",
      "tafRaw": "TAF EPRZ 181130Z 1812/1912 09014KT CAVOK \n  PROB30 \n  TEMPO 1812/1818 10015G25KT \n  PROB40 1822/1908 2000 BR"
    },
    {
      "icao": "EPWR",
      "iata": "WRO",
      "name": "Copernicus Wrocław Airport",
      "updatedAt": "181500Z",
      "visibility_m": 9000,
      "taf_visibility_m": 4000,
      "worst_visibility_m": 4000,
      "ceiling_ft": null,
      "hazards": [
        "BR"
      ],
      "severityScore": 10,
      "metarRaw": "METAR EPWR 181500Z 13009KT 9000 NSC 02/M01 Q1030",
      "tafRaw": "TAF EPWR 181430Z 1815/1915 12010KT 8000 NSC \n  BECMG 1816/1819 4000 BR \n  BECMG 1906/1909 CAVOK"
    },
    {
      "icao": "HESX",
      "iata": "SPX",
      "name": "Sphinx International Airport",
      "updatedAt": "181400Z",
      "visibility_m": 10000,
      "taf_visibility_m": 2000,
      "worst_visibility_m": 2000,
      "ceiling_ft": null,
      "hazards": [
        "BR"
      ],
      "severityScore": 10,
      "metarRaw": "METAR HESX 181400Z 28010KT CAVOK 18/07 Q1015 NOSIG",
      "tafRaw": "TAF HESX 181100Z 1812/1918 30010KT CAVOK \n  TEMPO 1900/1906 VRB03KT 2000 BR NSC"
    },
    {
      "icao": "LEMD",
      "iata": "MAD",
      "name": "Adolfo Suárez Madrid–Barajas Airport",
      "updatedAt": "181500Z",
      "visibility_m": 10000,
      "taf_visibility_m": 4000,
      "worst_visibility_m": 4000,
      "ceiling_ft": null,
      "hazards": [
        "BR"
      ],
      "severityScore": 10,
      "metarRaw": "METAR LEMD 181500Z 36006KT 330V090 9999 SCT040 10/02 Q1011 NOSIG",
      "tafRaw": "TAF LEMD 181100Z 1812/1918 02006KT 9999 SCT035 TX09/1814Z TNM01/1906Z \n  PROB30 \n  TEMPO 1905/1908 4000 BR"
    },
    {
      "icao": "LFLS",
      "iata": "GNB",
      "name": "Grenoble Alpes Isère Airport",
      "updatedAt": "181500Z",
      "visibility_m": 10000,
      "taf_visibility_m": 4000,
      "worst_visibility_m": 4000,
      "ceiling_ft": null,
      "hazards": [
        "BR"
      ],
      "severityScore": 10,
      "metarRaw": "METAR LFLS 181500Z AUTO 05004KT CAVOK 06/05 Q1016 NOSIG",
      "tafRaw": "TAF LFLS 181400Z 1815/1915 08005KT CAVOK \n  PROB40 \n  TEMPO 1903/1911 4000 BR"
    },
    {
      "icao": "LIMC",
      "iata": "MXP",
      "name": "Milan Malpensa International Airport",
      "updatedAt": "181450Z",
      "visibility_m": 10000,
      "taf_visibility_m": 4000,
      "worst_visibility_m": 4000,
      "ceiling_ft": 8700,
      "hazards": [
        "DZ"
      ],
      "severityScore": 10,
      "metarRaw": "METAR LIMC 181450Z 11004KT 9999 BKN087 10/03 Q1024 NOSIG",
      "tafRaw": "TAF LIMC 181100Z 1812/1918 VRB04KT 9999 BKN050 \n  TEMPO 1818/1906 4000 DZ"
    },
    {
      "icao": "LIPH",
      "iata": "TSF",
      "name": "Treviso Antonio Canova Airport",
      "updatedAt": "181450Z",
      "visibility_m": 10000,
      "taf_visibility_m": 10000,
      "worst_visibility_m": 10000,
      "ceiling_ft": null,
      "hazards": [
        "DZ"
      ],
      "severityScore": 10,
      "metarRaw": "METAR LIPH 181450Z 08011KT CAVOK 09/00 Q1025",
      "tafRaw": "TAF LIPH 181100Z 1812/1912 04007KT 9999 SCT060 \n  TEMPO 1812/1818 DZ"
    },
    {
      "icao": "LIPZ",
      "iata": "VCE",
      "name": "Venice Marco Polo Airport",
      "updatedAt": "181450Z",
      "visibility_m": 10000,
      "taf_visibility_m": 10000,
      "worst_visibility_m": 10000,
      "ceiling_ft": null,
      "hazards": [
        "DZ"
      ],
      "severityScore": 10,
      "metarRaw": "METAR LIPZ 181450Z 07008KT 9999 SCT070 07/03 Q1025 NOSIG",
      "tafRaw": "TAF LIPZ 181100Z 1812/1918 05010KT 9999 SCT050 \n  TEMPO 1812/1818 DZ"
    },
    {
      "icao": "LQTZ",
      "iata": "TZL",
      "name": "Tuzla International Airport",
      "updatedAt": "181500Z",
      "visibility_m": 10000,
      "taf_visibility_m": 3000,
      "worst_visibility_m": 3000,
      "ceiling_ft": 2500,
      "hazards": [
        "BR"
      ],
      "severityScore": 10,
      "metarRaw": "METAR LQTZ 181500Z VRB03KT 9999 OVC025 01/M01 Q1031",
      "tafRaw": "TAF LQTZ 181100Z 1812/1912 10008KT 9999 BKN025 TX02/1814Z TNM05/1905Z \n  TEMPO 1812/1824 OVC014 \n  PROB40 \n  TEMPO 1900/1907 3000 BR BKN004"
    },
    {
      "icao": "LRSB",
      "iata": "SBZ",
      "name": "Sibiu International Airport",
      "updatedAt": "181500Z",
      "visibility_m": 10000,
      "taf_visibility_m": 5000,
      "worst_visibility_m": 5000,
      "ceiling_ft": null,
      "hazards": [
        "BR"
      ],
      "severityScore": 10,
      "metarRaw": "METAR LRSB 181500Z 12004KT CAVOK M03/M09 Q1033",
      "tafRaw": "TAF LRSB 181100Z 1812/1912 11010KT CAVOK \n  BECMG 1816/1818 VRB04KT \n  TEMPO 1903/1906 5000 BR"
    },
    {
      "icao": "LRTM",
      "iata": "TGM",
      "name": "Târgu Mureş Transilvania International Airport",
      "updatedAt": "181500Z",
      "visibility_m": 10000,
      "taf_visibility_m": 3000,
      "worst_visibility_m": 3000,
      "ceiling_ft": null,
      "hazards": [
        "BR"
      ],
      "severityScore": 10,
      "metarRaw": "METAR LRTM 181500Z AUTO 25003KT 9999 NCD M08/M11 Q1035",
      "tafRaw": "TAF LRTM 181400Z 1815/1824 VRB04KT 7000 NSC \n  BECMG 1816/1818 3000 BR"
    },
    {
      "icao": "EYKA",
      "iata": "KUN",
      "name": "Kaunas International Airport",
      "updatedAt": "181450Z",
      "visibility_m": 10000,
      "taf_visibility_m": null,
      "worst_visibility_m": 10000,
      "ceiling_ft": null,
      "hazards": [],
      "severityScore": 5,
      "metarRaw": "METAR EYKA 181450Z 15004KT 100V260 CAVOK M11/M14 Q1040",
      "tafRaw": null
    },
    {
      "icao": "EYVI",
      "iata": "VNO",
      "name": "Vilnius International Airport",
      "updatedAt": "181450Z",
      "visibility_m": 10000,
      "taf_visibility_m": null,
      "worst_visibility_m": 10000,
      "ceiling_ft": null,
      "hazards": [],
      "severityScore": 5,
      "metarRaw": "METAR EYVI 181450Z 14006KT CAVOK M12/M14 Q1040 NOSIG",
      "tafRaw": null
    },
    {
      "icao": "LECH",
      "iata": "CDT",
      "name": "Castellón-Costa Azahar Airport",
      "updatedAt": "181500Z",
      "visibility_m": 9000,
      "taf_visibility_m": null,
      "worst_visibility_m": 9000,
      "ceiling_ft": null,
      "hazards": [],
      "severityScore": 5,
      "metarRaw": "METAR LECH 181500Z AUTO 07010KT 9000 FEW028 SCT044 12/06 Q1010",
      "tafRaw": null
    },
    {
      "icao": "LEMG",
      "iata": "AGP",
      "name": "Málaga-Costa del Sol Airport",
      "updatedAt": "181500Z",
      "visibility_m": 10000,
      "taf_visibility_m": null,
      "worst_visibility_m": 10000,
      "ceiling_ft": null,
      "hazards": [],
      "severityScore": 5,
      "metarRaw": "METAR LEMG 181500Z VRB01KT 9999 FEW030 SCT070 12/04 Q1009 NOSIG",
      "tafRaw": null
    },
    {
      "icao": "LEZG",
      "iata": "ZAZ",
      "name": "Zaragoza Airport",
      "updatedAt": "181500Z",
      "visibility_m": 10000,
      "taf_visibility_m": null,
      "worst_visibility_m": 10000,
      "ceiling_ft": 3000,
      "hazards": [],
      "severityScore": 5,
      "metarRaw": "METAR LEZG 181500Z 28007KT 9999 SCT008 BKN030 09/08 Q1012 NOSIG",
      "tafRaw": null
    },
    {
      "icao": "LFBD",
      "iata": "BOD",
      "name": "Bordeaux–Mérignac Airport",
      "updatedAt": "181500Z",
      "visibility_m": 10000,
      "taf_visibility_m": null,
      "worst_visibility_m": 10000,
      "ceiling_ft": 2900,
      "hazards": [],
      "severityScore": 5,
      "metarRaw": "METAR LFBD 181500Z AUTO 14008KT 9999 FEW010 OVC029 11/09 Q1013 NOSIG",
      "tafRaw": null
    },
    {
      "icao": "BKPR",
      "iata": "PRN",
      "name": "Priština Adem Jashari International Airport",
      "updatedAt": "181500Z",
      "visibility_m": 10000,
      "taf_visibility_m": 10000,
      "worst_visibility_m": 10000,
      "ceiling_ft": null,
      "hazards": [],
      "severityScore": 0,
      "metarRaw": "METAR BKPR 181500Z 02014KT CAVOK 01/M05 Q1028 NOSIG",
      "tafRaw": "TAF BKPR 181130Z 1812/1912 02012KT 9999 FEW040"
    },
    {
      "icao": "GCFV",
      "iata": "FUE",
      "name": "Fuerteventura Airport",
      "updatedAt": "181500Z",
      "visibility_m": 10000,
      "taf_visibility_m": 10000,
      "worst_visibility_m": 10000,
      "ceiling_ft": null,
      "hazards": [],
      "severityScore": 0,
      "metarRaw": "METAR GCFV 181500Z 35022KT 9999 SCT030 19/11 Q1014",
      "tafRaw": "TAF GCFV 181400Z 1815/1915 36018KT 9999 FEW025 SCT035 TX20/1914Z TN15/1906Z \n  TEMPO 1815/1822 35020G30KT \n  PROB30 \n  TEMPO 1910/1915 02018G28KT"
    },
    {
      "icao": "EBCI",
      "iata": "CRL",
      "name": "Brussels South Charleroi Airport",
      "updatedAt": "181450Z",
      "visibility_m": 10000,
      "taf_visibility_m": 10000,
      "worst_visibility_m": 10000,
      "ceiling_ft": null,
      "hazards": [],
      "severityScore": 0,
      "metarRaw": "METAR EBCI 181450Z 09005KT CAVOK 12/02 Q1017 NOSIG",
      "tafRaw": "TAF EBCI 181104Z 1812/1918 17004KT CAVOK"
    },
    {
      "icao": "EDDB",
      "iata": "BER",
      "name": "Berlin Brandenburg Airport",
      "updatedAt": "181450Z",
      "visibility_m": 10000,
      "taf_visibility_m": 10000,
      "worst_visibility_m": 10000,
      "ceiling_ft": null,
      "hazards": [],
      "severityScore": 0,
      "metarRaw": "METAR EDDB 181450Z AUTO 10008KT 070V130 CAVOK 03/M01 Q1026 NOSIG",
      "tafRaw": "TAF EDDB 181100Z 1812/1912 11010KT CAVOK"
    },
    {
      "icao": "EDLW",
      "iata": "DTM",
      "name": "Dortmund Airport",
      "updatedAt": "181450Z",
      "visibility_m": 10000,
      "taf_visibility_m": 10000,
      "worst_visibility_m": 10000,
      "ceiling_ft": null,
      "hazards": [],
      "severityScore": 0,
      "metarRaw": "METAR EDLW 181450Z 03005KT CAVOK 04/01 Q1019",
      "tafRaw": "TAF EDLW 181100Z 1812/1912 11004KT CAVOK"
    },
    {
      "icao": "ENAL",
      "iata": "AES",
      "name": "Ålesund Airport, Vigra",
      "updatedAt": "181450Z",
      "visibility_m": 10000,
      "taf_visibility_m": 10000,
      "worst_visibility_m": 10000,
      "ceiling_ft": 5000,
      "hazards": [],
      "severityScore": 0,
      "metarRaw": "METAR ENAL 181450Z 12005KT 9999 SCT044 04/M00 Q1025",
      "tafRaw": "TAF ENAL 181400Z 1815/1824 08006KT 9999 BKN050"
    },
    {
      "icao": "ENVA",
      "iata": "TRD",
      "name": "Trondheim Airport, Værnes",
      "updatedAt": "181450Z",
      "visibility_m": 10000,
      "taf_visibility_m": 10000,
      "worst_visibility_m": 10000,
      "ceiling_ft": null,
      "hazards": [],
      "severityScore": 0,
      "metarRaw": "METAR ENVA 181450Z 07003KT CAVOK M06/M06 Q1028 NOSIG RMK WIND 670FT 08009KT",
      "tafRaw": "TAF ENVA 181100Z 1812/1912 10008KT CAVOK"
    },
    {
      "icao": "EPGD",
      "iata": "GDN",
      "name": "Gdańsk Lech Wałęsa Airport",
      "updatedAt": "181500Z",
      "visibility_m": 8000,
      "taf_visibility_m": 10000,
      "worst_visibility_m": 8000,
      "ceiling_ft": null,
      "hazards": [],
      "severityScore": 0,
      "metarRaw": "METAR EPGD 181500Z 15005KT 8000 NSC M09/M10 Q1033",
      "tafRaw": "TAF EPGD 181130Z 1812/1912 16010KT CAVOK"
    },
    {
      "icao": "EPPO",
      "iata": "POZ",
      "name": "Poznań-Ławica Airport",
      "updatedAt": "181500Z",
      "visibility_m": 10000,
      "taf_visibility_m": 10000,
      "worst_visibility_m": 10000,
      "ceiling_ft": null,
      "hazards": [],
      "severityScore": 0,
      "metarRaw": "METAR EPPO 181500Z 10008KT CAVOK M01/M04 Q1031",
      "tafRaw": "TAF EPPO 181130Z 1812/1912 11010KT CAVOK"
    },
    {
      "icao": "EPSC",
      "iata": "SZZ",
      "name": "Solidarity Szczecin–Goleniów Airport",
      "updatedAt": "181500Z",
      "visibility_m": 10000,
      "taf_visibility_m": 10000,
      "worst_visibility_m": 10000,
      "ceiling_ft": null,
      "hazards": [],
      "severityScore": 0,
      "metarRaw": "METAR EPSC 181500Z 12010KT CAVOK 02/M03 Q1029",
      "tafRaw": "TAF EPSC 181130Z 1812/1912 13012KT CAVOK"
    },
    {
      "icao": "EPSY",
      "iata": "SZY",
      "name": "Olsztyn-Mazury Airport",
      "updatedAt": "181500Z",
      "visibility_m": 10000,
      "taf_visibility_m": 10000,
      "worst_visibility_m": 10000,
      "ceiling_ft": null,
      "hazards": [],
      "severityScore": 0,
      "metarRaw": "METAR EPSY 181500Z 11003KT 070V160 CAVOK M09/M13 Q1037",
      "tafRaw": "TAF EPSY 181430Z 1815/1824 13008KT CAVOK"
    },
    {
      "icao": "EPWA",
      "iata": "WAW",
      "name": "Warsaw Chopin Airport",
      "updatedAt": "181500Z",
      "visibility_m": 10000,
      "taf_visibility_m": 10000,
      "worst_visibility_m": 10000,
      "ceiling_ft": null,
      "hazards": [],
      "severityScore": 0,
      "metarRaw": "METAR EPWA 181500Z 11009G21KT 080V190 CAVOK M06/M11 Q1036 NOSIG",
      "tafRaw": "TAF EPWA 181430Z 1815/1915 12010KT CAVOK"
    },
    {
      "icao": "EYPA",
      "iata": "PLQ",
      "name": "Palanga International Airport",
      "updatedAt": "181450Z",
      "visibility_m": 10000,
      "taf_visibility_m": 9000,
      "worst_visibility_m": 9000,
      "ceiling_ft": null,
      "hazards": [],
      "severityScore": 0,
      "metarRaw": "METAR EYPA 181450Z 14009KT 110V170 CAVOK M07/M11 Q1037",
      "tafRaw": "TAF EYPA 181100Z 1812/1912 15010KT 9000 NSC"
    },
    {
      "icao": "HEGN",
      "iata": "HRG",
      "name": "Hurghada International Airport",
      "updatedAt": "181400Z",
      "visibility_m": 10000,
      "taf_visibility_m": 4000,
      "worst_visibility_m": 4000,
      "ceiling_ft": null,
      "hazards": [],
      "severityScore": 0,
      "metarRaw": "METAR HEGN 181400Z 35021KT CAVOK 21/07 Q1014 NOSIG",
      "tafRaw": "TAF HEGN 181100Z 1812/1918 35010G20KT 6000 NSC \n  PROB30 \n  TEMPO 1812/1818 4000 SA"
    },
    {
      "icao": "HEMA",
      "iata": "RMF",
      "name": "Marsa Alam International Airport",
      "updatedAt": "181400Z",
      "visibility_m": 10000,
      "taf_visibility_m": 4000,
      "worst_visibility_m": 4000,
      "ceiling_ft": null,
      "hazards": [],
      "severityScore": 0,
      "metarRaw": "METAR HEMA 181400Z 35008KT CAVOK 20/08 Q1014 NOSIG",
      "tafRaw": "TAF HEMA 181100Z 1812/1918 36010G20KT 6000 NSC \n  PROB30 \n  TEMPO 1812/1818 4000 SA"
    },
    {
      "icao": "HESH",
      "iata": "SSH",
      "name": "Sharm El Sheikh International Airport",
      "updatedAt": "181400Z",
      "visibility_m": 10000,
      "taf_visibility_m": 10000,
      "worst_visibility_m": 10000,
      "ceiling_ft": null,
      "hazards": [],
      "severityScore": 0,
      "metarRaw": "METAR HESH 181400Z 01008KT CAVOK 21/08 Q1014 NOSIG",
      "tafRaw": "TAF HESH 181100Z 1812/1918 02012KT CAVOK"
    },
    {
      "icao": "LATI",
      "iata": "TIA",
      "name": "Tirana International Airport Mother Teresa",
      "updatedAt": "181450Z",
      "visibility_m": 10000,
      "taf_visibility_m": 10000,
      "worst_visibility_m": 10000,
      "ceiling_ft": null,
      "hazards": [],
      "severityScore": 0,
      "metarRaw": "METAR LATI 181450Z 16007KT CAVOK 13/M03 Q1023 NOSIG",
      "tafRaw": "TAF LATI 181100Z 1812/1912 VRB05KT CAVOK TX16/1812Z TNM01/1905Z"
    },
    {
      "icao": "LBPD",
      "iata": "PDV",
      "name": "Plovdiv International Airport",
      "updatedAt": "181500Z",
      "visibility_m": 10000,
      "taf_visibility_m": 10000,
      "worst_visibility_m": 10000,
      "ceiling_ft": 3000,
      "hazards": [],
      "severityScore": 0,
      "metarRaw": "METAR LBPD 181500Z AUTO VRB03KT 9999 NCD M01/M05 Q1033 NOSIG",
      "tafRaw": "TAF LBPD 181100Z 1812/1912 11010KT 9999 BKN030 \n  BECMG 1823/1901 VRB04KT"
    },
    {
      "icao": "LBSF",
      "iata": "SOF",
      "name": "Sofia Airport",
      "updatedAt": "181500Z",
      "visibility_m": 10000,
      "taf_visibility_m": 10000,
      "worst_visibility_m": 10000,
      "ceiling_ft": null,
      "hazards": [],
      "severityScore": 0,
      "metarRaw": "METAR LBSF 181500Z 03008KT 350V060 9999 FEW031 M05/M10 Q1031 NOSIG",
      "tafRaw": "TAF LBSF 181100Z 1812/1912 03010KT 9999 SCT020 \n  BECMG 1818/1820 VRB04KT"
    },
    {
      "icao": "LBWN",
      "iata": "VAR",
      "name": "Varna Airport",
      "updatedAt": "181500Z",
      "visibility_m": 10000,
      "taf_visibility_m": 10000,
      "worst_visibility_m": 10000,
      "ceiling_ft": 4500,
      "hazards": [],
      "severityScore": 0,
      "metarRaw": "METAR LBWN 181500Z AUTO 30011KT 280V340 9999 NSC M07/M11 Q1035 NOSIG",
      "tafRaw": "TAF LBWN 181100Z 1812/1912 32014KT 9999 SCT030 BKN045 \n  TEMPO 1812/1818 35016G26KT \n  TEMPO 1822/1904 35016G26KT"
    },
    {
      "icao": "LCLK",
      "iata": "LCA",
      "name": "Larnaca International Airport",
      "updatedAt": "181500Z",
      "visibility_m": 10000,
      "taf_visibility_m": 10000,
      "worst_visibility_m": 10000,
      "ceiling_ft": null,
      "hazards": [],
      "severityScore": 0,
      "metarRaw": "METAR LCLK 181500Z 36010KT 9999 FEW020 SCT050 12/03 Q1016 NOSIG",
      "tafRaw": "TAF LCLK 181130Z 1812/1912 03014KT 9999 FEW025 \n  BECMG 1817/1819 33009KT \n  BECMG 1904/1906 03013KT"
    },
    {
      "icao": "LEZL",
      "iata": "SVQ",
      "name": "Sevilla Airport",
      "updatedAt": "181500Z",
      "visibility_m": 10000,
      "taf_visibility_m": 10000,
      "worst_visibility_m": 10000,
      "ceiling_ft": null,
      "hazards": [],
      "severityScore": 0,
      "metarRaw": "METAR LEZL 181500Z 04007KT 010V080 9999 FEW020 14/04 Q1009 NOSIG",
      "tafRaw": "TAF LEZL 181400Z 1815/1915 05010KT CAVOK TX14/1815Z TN03/1907Z \n  BECMG 1816/1818 VRB03KT"
    },
    {
      "icao": "LIBG",
      "iata": "TAR",
      "name": "Taranto-Grottaglie Marcello Arlotta Airport",
      "updatedAt": "181450Z",
      "visibility_m": 10000,
      "taf_visibility_m": 10000,
      "worst_visibility_m": 10000,
      "ceiling_ft": null,
      "hazards": [],
      "severityScore": 0,
      "metarRaw": "METAR LIBG 181450Z 15005KT 9999 SCT040 13/13 Q1022",
      "tafRaw": "TAF LIBG 181400Z 1815/1824 VRB06KT 9999 FEW020"
    },
    {
      "icao": "LICJ",
      "iata": "PMO",
      "name": "Falcone–Borsellino Airport",
      "updatedAt": "181450Z",
      "visibility_m": 10000,
      "taf_visibility_m": 10000,
      "worst_visibility_m": 10000,
      "ceiling_ft": null,
      "hazards": [],
      "severityScore": 0,
      "metarRaw": "METAR LICJ 181450Z 04008KT 9999 FEW040 17/11 Q1015",
      "tafRaw": "TAF LICJ 181100Z 1812/1912 06012KT 9999 SCT040 \n  BECMG 1908/1910 09018G30KT"
    },
    {
      "icao": "LIME",
      "iata": "BGY",
      "name": "Milan Bergamo Airport / Antonio Locatelli Air Base",
      "updatedAt": "181450Z",
      "visibility_m": 8000,
      "taf_visibility_m": 7000,
      "worst_visibility_m": 7000,
      "ceiling_ft": 8500,
      "hazards": [],
      "severityScore": 0,
      "metarRaw": "METAR LIME 181450Z 15004KT 110V190 8000 FEW045 BKN085 09/05 Q1023 NOSIG",
      "tafRaw": "TAF LIME 181100Z 1812/1912 VRB03KT 7000 BKN070"
    },
    {
      "icao": "LIMJ",
      "iata": "GOA",
      "name": "Genoa Cristoforo Colombo Airport",
      "updatedAt": "181450Z",
      "visibility_m": 10000,
      "taf_visibility_m": 10000,
      "worst_visibility_m": 10000,
      "ceiling_ft": null,
      "hazards": [],
      "severityScore": 0,
      "metarRaw": "METAR LIMJ 181450Z 04014KT 9999 FEW035 12/06 Q1020",
      "tafRaw": "TAF LIMJ 181100Z 1812/1912 02014KT 9999 FEW040 \n  TEMPO 1909/1912 03016G26KT"
    },
    {
      "icao": "LIPQ",
      "iata": "TRS",
      "name": "Trieste–Friuli Venezia Giulia Airport",
      "updatedAt": "181450Z",
      "visibility_m": 10000,
      "taf_visibility_m": 10000,
      "worst_visibility_m": 10000,
      "ceiling_ft": null,
      "hazards": [],
      "severityScore": 0,
      "metarRaw": "METAR LIPQ 181450Z AUTO 09007KT 9999 OVC079/// 08/M02 Q1026",
      "tafRaw": "TAF LIPQ 181100Z 1812/1912 08009KT 9999 SCT060"
    },
    {
      "icao": "LIPX",
      "iata": "VRN",
      "name": "Verona Villafranca Valerio Catullo Airport",
      "updatedAt": "181450Z",
      "visibility_m": 10000,
      "taf_visibility_m": 10000,
      "worst_visibility_m": 10000,
      "ceiling_ft": 8000,
      "hazards": [],
      "severityScore": 0,
      "metarRaw": "METAR LIPX 181450Z 10008KT 070V130 9999 OVC080 10/01 Q1024",
      "tafRaw": "TAF LIPX 181100Z 1812/1912 10008KT 9999 BKN070"
    },
    {
      "icao": "LIRP",
      "iata": "PSA",
      "name": "Pisa International Airport",
      "updatedAt": "181445Z",
      "visibility_m": 10000,
      "taf_visibility_m": 10000,
      "worst_visibility_m": 10000,
      "ceiling_ft": 8000,
      "hazards": [],
      "severityScore": 0,
      "metarRaw": "METAR LIRP 181445Z 08011KT 9999 FEW070 14/05 Q1019 NOSIG",
      "tafRaw": "TAF LIRP 181100Z 1812/1912 10013KT 9999 BKN080"
    },
    {
      "icao": "LIRZ",
      "iata": "PEG",
      "name": "Perugia San Francesco d'Assisi – Umbria International Airport",
      "updatedAt": "181450Z",
      "visibility_m": 10000,
      "taf_visibility_m": 10000,
      "worst_visibility_m": 10000,
      "ceiling_ft": null,
      "hazards": [],
      "severityScore": 0,
      "metarRaw": "METAR LIRZ 181450Z AUTO 03011KT 9999 NCD 14/05 Q1019",
      "tafRaw": "TAF LIRZ 181100Z 1812/1912 03014KT CAVOK"
    },
    {
      "icao": "LKPR",
      "iata": "PRG",
      "name": "Václav Havel Airport Prague",
      "updatedAt": "181500Z",
      "visibility_m": 10000,
      "taf_visibility_m": 10000,
      "worst_visibility_m": 10000,
      "ceiling_ft": null,
      "hazards": [],
      "severityScore": 0,
      "metarRaw": "METAR LKPR 181500Z 10009KT CAVOK 02/M03 Q1025 NOSIG",
      "tafRaw": "TAF LKPR 181400Z 1815/1921 13012KT CAVOK"
    },
    {
      "icao": "LPFR",
      "iata": "FAO",
      "name": "Faro Airport",
      "updatedAt": "181500Z",
      "visibility_m": 10000,
      "taf_visibility_m": 10000,
      "worst_visibility_m": 10000,
      "ceiling_ft": null,
      "hazards": [],
      "severityScore": 0,
      "metarRaw": "METAR LPFR 181500Z VRB09G20KT 9999 FEW015 SCT045 13/04 Q1010",
      "tafRaw": "TAF LPFR 181100Z 1812/1912 02012KT 9999 FEW035 \n  BECMG 1815/1817 35007KT CAVOK \n  BECMG 1902/1904 29007KT"
    },
    {
      "icao": "LPPR",
      "iata": "OPO",
      "name": "Francisco de Sá Carneiro Airport",
      "updatedAt": "181500Z",
      "visibility_m": 10000,
      "taf_visibility_m": 10000,
      "worst_visibility_m": 10000,
      "ceiling_ft": null,
      "hazards": [],
      "severityScore": 0,
      "metarRaw": "METAR LPPR 181500Z 29007KT 260V330 9999 FEW025 12/06 Q1014",
      "tafRaw": "TAF LPPR 181100Z 1812/1912 34007KT CAVOK \n  BECMG 1818/1820 VRB02KT \n  BECMG 1906/1909 09007KT"
    },
    {
      "icao": "LPPT",
      "iata": "LIS",
      "name": "Lisbon Humberto Delgado Airport",
      "updatedAt": "181500Z",
      "visibility_m": 10000,
      "taf_visibility_m": 10000,
      "worst_visibility_m": 10000,
      "ceiling_ft": null,
      "hazards": [],
      "severityScore": 0,
      "metarRaw": "METAR LPPT 181500Z 05008KT 020V080 9999 FEW024 SCT032 11/06 Q1013",
      "tafRaw": "TAF LPPT 181100Z 1812/1918 02005KT 9999 FEW030 \n  BECMG 1817/1819 32007KT"
    },
    {
      "icao": "LQBK",
      "iata": "BNX",
      "name": "Banja Luka International Airport",
      "updatedAt": "181500Z",
      "visibility_m": 10000,
      "taf_visibility_m": 10000,
      "worst_visibility_m": 10000,
      "ceiling_ft": 3000,
      "hazards": [],
      "severityScore": 0,
      "metarRaw": "METAR LQBK 181500Z 33004KT 9999 SCT017 OVC030 00/M02 Q1032 NOSIG",
      "tafRaw": "TAF LQBK 181100Z 1812/1912 34006KT 9999 BKN025 TX01/1813Z TNM06/1906Z \n  TEMPO 1812/1818 BKN013 OVC020"
    },
    {
      "icao": "LRIA",
      "iata": "IAS",
      "name": "Iaşi Airport",
      "updatedAt": "181500Z",
      "visibility_m": 10000,
      "taf_visibility_m": 10000,
      "worst_visibility_m": 10000,
      "ceiling_ft": null,
      "hazards": [],
      "severityScore": 0,
      "metarRaw": "METAR LRIA 181500Z 30007KT CAVOK M10/M14 Q1040",
      "tafRaw": "TAF LRIA 181400Z 1815/1824 30006KT CAVOK"
    },
    {
      "icao": "LRBC",
      "iata": "BCM",
      "name": "Bacău George Enescu International  Airport",
      "updatedAt": "181500Z",
      "visibility_m": 10000,
      "taf_visibility_m": 10000,
      "worst_visibility_m": 10000,
      "ceiling_ft": null,
      "hazards": [],
      "severityScore": 0,
      "metarRaw": "METAR LRBC 181500Z 36007KT CAVOK M07/M13 Q1038",
      "tafRaw": "TAF LRBC 181400Z 1815/1824 35010KT CAVOK"
    },
    {
      "icao": "LRBV",
      "iata": "GHV",
      "name": "Brașov-Ghimbav International Airport",
      "updatedAt": "181500Z",
      "visibility_m": 10000,
      "taf_visibility_m": 10000,
      "worst_visibility_m": 10000,
      "ceiling_ft": null,
      "hazards": [],
      "severityScore": 0,
      "metarRaw": "METAR LRBV 181500Z 08006KT 9999 FEW060 M05/M09 Q1033",
      "tafRaw": "TAF LRBV 181400Z 1815/1824 08008KT CAVOK"
    },
    {
      "icao": "LRCL",
      "iata": "CLJ",
      "name": "Cluj Avram Iancu International Airport",
      "updatedAt": "181500Z",
      "visibility_m": 10000,
      "taf_visibility_m": 10000,
      "worst_visibility_m": 10000,
      "ceiling_ft": null,
      "hazards": [],
      "severityScore": 0,
      "metarRaw": "METAR LRCL 181500Z 08008KT CAVOK M04/M09 Q1034",
      "tafRaw": "TAF LRCL 181400Z 1815/1824 06005KT CAVOK"
    },
    {
      "icao": "LRSM",
      "iata": "SUJ",
      "name": "Satu Mare International Airport",
      "updatedAt": "181500Z",
      "visibility_m": 10000,
      "taf_visibility_m": 10000,
      "worst_visibility_m": 10000,
      "ceiling_ft": null,
      "hazards": [],
      "severityScore": 0,
      "metarRaw": "METAR LRSM 181500Z 09005KT CAVOK M02/M08 Q1035",
      "tafRaw": "TAF LRSM 181400Z 1815/1824 11005KT CAVOK"
    },
    {
      "icao": "LRSV",
      "iata": "SCV",
      "name": "Suceava Stefan cel Mare Airport",
      "updatedAt": "181500Z",
      "visibility_m": 10000,
      "taf_visibility_m": 10000,
      "worst_visibility_m": 10000,
      "ceiling_ft": null,
      "hazards": [],
      "severityScore": 0,
      "metarRaw": "METAR LRSV 181500Z 05006KT CAVOK M12/M15 Q1037",
      "tafRaw": "TAF LRSV 181400Z 1815/1824 VRB04KT CAVOK"
    },
    {
      "icao": "LWOH",
      "iata": "OHD",
      "name": "Ohrid St. Paul the Apostle Airport",
      "updatedAt": "181450Z",
      "visibility_m": 10000,
      "taf_visibility_m": 10000,
      "worst_visibility_m": 10000,
      "ceiling_ft": 4000,
      "hazards": [],
      "severityScore": 0,
      "metarRaw": "METAR LWOH 181450Z 10005KT 9999 BKN040 05/M02 Q1025",
      "tafRaw": "TAF LWOH 181415Z 1815/1915 35005KT 9999 SCT040"
    },
    {
      "icao": "LWSK",
      "iata": "SKP",
      "name": "Skopje International Airport",
      "updatedAt": "181450Z",
      "visibility_m": 10000,
      "taf_visibility_m": 10000,
      "worst_visibility_m": 10000,
      "ceiling_ft": null,
      "hazards": [],
      "severityScore": 0,
      "metarRaw": "METAR LWSK 181450Z 36004KT 9999 FEW040 06/M04 Q1028 NOSIG",
      "tafRaw": "TAF LWSK 181415Z 1815/1915 02005KT 9999 SCT040"
    },
    {
      "icao": "LYBE",
      "iata": "BEG",
      "name": "Belgrade Nikola Tesla Airport",
      "updatedAt": "181500Z",
      "visibility_m": 10000,
      "taf_visibility_m": 10000,
      "worst_visibility_m": 10000,
      "ceiling_ft": null,
      "hazards": [],
      "severityScore": 0,
      "metarRaw": "METAR LYBE 181500Z 10010KT CAVOK M00/M06 Q1033 NOSIG",
      "tafRaw": "TAF LYBE 181100Z 1812/1912 11012KT CAVOK TX01/1813Z TNM05/1906Z"
    },
    {
      "icao": "LYNI",
      "iata": "INI",
      "name": "Niš Constantine the Great Airport",
      "updatedAt": "181500Z",
      "visibility_m": 10000,
      "taf_visibility_m": 10000,
      "worst_visibility_m": 10000,
      "ceiling_ft": null,
      "hazards": [],
      "severityScore": 0,
      "metarRaw": "METAR LYNI 181500Z 06006KT CAVOK M01/M07 Q1032 NOSIG",
      "tafRaw": "TAF LYNI 181100Z 1812/1912 05007KT CAVOK TX01/1813Z TNM07/1906Z \n  TEMPO 1812/1815 05017KT \n  TEMPO 1909/1912 05017KT"
    },
    {
      "icao": "LZKZ",
      "iata": "KSC",
      "name": "Košice International Airport",
      "updatedAt": "181500Z",
      "visibility_m": 10000,
      "taf_visibility_m": 10000,
      "worst_visibility_m": 10000,
      "ceiling_ft": null,
      "hazards": [],
      "severityScore": 0,
      "metarRaw": "METAR LZKZ 181500Z 28002KT CAVOK M00/M08 Q1034 NOSIG",
      "tafRaw": "TAF LZKZ 181115Z 1812/1912 VRB02KT CAVOK"
    },
    {
      "icao": "LZTT",
      "iata": "TAT",
      "name": "Poprad-Tatry Airport",
      "updatedAt": "181500Z",
      "visibility_m": 10000,
      "taf_visibility_m": 10000,
      "worst_visibility_m": 10000,
      "ceiling_ft": null,
      "hazards": [],
      "severityScore": 0,
      "metarRaw": "METAR LZTT 181500Z 05002KT CAVOK M03/M08 Q1031 NOSIG",
      "tafRaw": "TAF LZTT 181115Z 1812/1912 VRB02KT CAVOK"
    },
    {
      "icao": "OEJN",
      "iata": "JED",
      "name": "King Abdulaziz International Airport",
      "updatedAt": "181500Z",
      "visibility_m": 10000,
      "taf_visibility_m": 7000,
      "worst_visibility_m": 7000,
      "ceiling_ft": null,
      "hazards": [],
      "severityScore": 0,
      "metarRaw": "METAR OEJN 181500Z 32010KT 9999 FEW040 26/14 Q1012 NOSIG",
      "tafRaw": "TAF OEJN 181100Z 1812/1918 30010KT 9999 SCT040 \n  BECMG 1820/1822 03006KT 7000 \n  BECMG 1908/1910 33010KT"
    },
    {
      "icao": "OEMA",
      "iata": "MED",
      "name": "Prince Mohammad Bin Abdulaziz Airport",
      "updatedAt": "181500Z",
      "visibility_m": 10000,
      "taf_visibility_m": 7000,
      "worst_visibility_m": 7000,
      "ceiling_ft": null,
      "hazards": [],
      "severityScore": 0,
      "metarRaw": "METAR OEMA 181500Z 23007KT 9999 FEW040 24/07 Q1014 NOSIG",
      "tafRaw": "TAF OEMA 181100Z 1812/1918 28010KT 7000 NSC \n  BECMG 1818/1820 VRB03KT \n  BECMG 1910/1912 29008KT"
    },
    {
      "icao": "UGKO",
      "iata": "KUT",
      "name": "David the Builder Kutaisi International Airport",
      "updatedAt": "181500Z",
      "visibility_m": 10000,
      "taf_visibility_m": 10000,
      "worst_visibility_m": 10000,
      "ceiling_ft": 2900,
      "hazards": [],
      "severityScore": 0,
      "metarRaw": "METAR UGKO 181500Z VRB01KT 9999 BKN029 03/01 Q1021 NOSIG",
      "tafRaw": "TAF UGKO 181100Z 1812/1912 25010KT 9999 BKN050 TX05/1812Z TN00/1823Z \n  TEMPO 1822/1902 26017G27KT"
    }
  ],
  "stats": {
    "icaoCount": 159,
    "metarReturned": 159,
    "tafReturned": 143,
    "stationsWritten": 159,
    "missingMetar": 0,
    "missingTaf": 16
  },
  "errors": []
}