{
  "generatedAt": "2026-01-25T09:49:10.608Z",
  "stations": [
    {
      "icao": "EDJA",
      "iata": "FMM",
      "name": "Memmingen Allgau Airport",
      "lat": 47.988092,
      "lon": 10.238248,
      "updatedAt": "250920Z",
      "visibility_m": 800,
      "taf_visibility_m": 1000,
      "worst_visibility_m": 800,
      "ceiling_ft": 500,
      "hazards": [
        "FZFG",
        "FG",
        "BR",
        "SN"
      ],
      "severityScore": 100,
      "metarRaw": "METAR EDJA 250920Z VRB02KT 0800 R24/1500U FZFG SCT002 OVC005 M02/M02 Q0997",
      "tafRaw": "TAF EDJA 250800Z 2509/2518 VRB03KT 4000 BR OVC003 \n  TEMPO 2509/2511 1200 BR BKN001 \n  BECMG 2511/2513 24006KT 2500 -SN \n  TEMPO 2511/2514 SCT003 OVC006 \n  TEMPO 2513/2518 1000 SN \n  PROB40 \n  TEMPO 2515/2517 OVC001"
    },
    {
      "icao": "EDLW",
      "iata": "DTM",
      "name": "Dortmund Airport",
      "lat": 51.518299,
      "lon": 7.61224,
      "updatedAt": "250920Z",
      "visibility_m": 5000,
      "taf_visibility_m": 600,
      "worst_visibility_m": 600,
      "ceiling_ft": 100,
      "hazards": [
        "FZFG",
        "BR",
        "SN",
        "FG"
      ],
      "severityScore": 100,
      "metarRaw": "METAR EDLW 250920Z 03005KT 5000 NSC M03/M04 Q0998",
      "tafRaw": "TAF EDLW 250500Z 2506/2606 08005KT CAVOK \n  PROB40 \n  TEMPO 2506/2509 4000 BR \n  BECMG 2518/2521 VRB03KT \n  PROB40 \n  TEMPO 2520/2523 4000 BR BKN005 \n  BECMG 2523/2602 4000 BR OVC005 \n  TEMPO 2602/2606 1200 -SN OVC004 \n  PROB40 \n  TEMPO 2604/2606 0600 FZFG OVC001"
    },
    {
      "icao": "EPKK",
      "iata": "KRK",
      "name": "Kraków John Paul II International Airport",
      "lat": 50.077702,
      "lon": 19.7848,
      "updatedAt": "250930Z",
      "visibility_m": 400,
      "taf_visibility_m": null,
      "worst_visibility_m": 400,
      "ceiling_ft": 200,
      "hazards": [
        "FZFG",
        "FG"
      ],
      "severityScore": 100,
      "metarRaw": "METAR EPKK 250930Z 06009KT 0400 R25/0550N FZFG OVC002 M00/M01 Q1007",
      "tafRaw": null
    },
    {
      "icao": "EPMO",
      "iata": "WMI",
      "name": "Modlin Airport",
      "lat": 52.451099,
      "lon": 20.6518,
      "updatedAt": "250930Z",
      "visibility_m": 6000,
      "taf_visibility_m": 2000,
      "worst_visibility_m": 2000,
      "ceiling_ft": 900,
      "hazards": [
        "BR",
        "FZRA",
        "SN",
        "FZDZ",
        "RA",
        "DZ"
      ],
      "severityScore": 100,
      "metarRaw": "METAR EPMO 250930Z 08014KT 6000 OVC009 M05/M07 Q1010",
      "tafRaw": "TAF EPMO 250530Z 2506/2606 08012KT 8000 OVC010 \n  TEMPO 2506/2511 3000 -SN BR BKN004 OVC007 \n  TEMPO 2511/2524 2500 -FZDZ -FZRA BR BKN004 OVC007 \n  TEMPO 2600/2606 2000 -RADZ BR BKN003 \n  PROB40 2600/2604 -FZRA"
    },
    {
      "icao": "EPWA",
      "iata": "WAW",
      "name": "Warsaw Chopin Airport",
      "lat": 52.165699,
      "lon": 20.9671,
      "updatedAt": "250930Z",
      "visibility_m": 8000,
      "taf_visibility_m": 2500,
      "worst_visibility_m": 2500,
      "ceiling_ft": 900,
      "hazards": [
        "SN",
        "FZDZ",
        "DZ",
        "BR",
        "FZRA",
        "RA"
      ],
      "severityScore": 100,
      "metarRaw": "METAR EPWA 250930Z 10013KT 8000 -SN BKN009 M05/M06 Q1010 TEMPO -FZDZ",
      "tafRaw": "TAF EPWA 250830Z 2509/2609 10012KT 6000 OVC007 \n  TEMPO 2509/2510 2500 SN BR BKN004 \n  PROB40 \n  TEMPO 2509/2510 -FZRA \n  TEMPO 2510/2515 4500 -FZRA -FZDZ BR BKN004 \n  PROB40 \n  TEMPO 2515/2522 4000 -FZDZ BKN004 \n  TEMPO 2522/2609 2500 -FZRA -FZDZ BR BKN004"
    },
    {
      "icao": "LBSF",
      "iata": "SOF",
      "name": "Sofia Airport",
      "lat": 42.696357,
      "lon": 23.417671,
      "updatedAt": "250930Z",
      "visibility_m": 3300,
      "taf_visibility_m": 400,
      "worst_visibility_m": 400,
      "ceiling_ft": 200,
      "hazards": [
        "BR",
        "FZFG",
        "FG"
      ],
      "severityScore": 100,
      "metarRaw": "METAR LBSF 250930Z VRB02KT 3300 BR BKN002 M00/M00 Q1014 BECMG 5000 BR BKN004",
      "tafRaw": "TAF LBSF 250500Z 2506/2606 VRB04KT 0400 FZFG OVC002 \n  BECMG 2507/2509 3000 BR BKN005 \n  BECMG 2509/2511 10010KT 9999 NSW SCT030 \n  BECMG 2520/2522 VRB04KT 3000 BR BKN010"
    },
    {
      "icao": "LFOB",
      "iata": "BVA",
      "name": "Beauvais Tillé airport",
      "lat": 49.454399,
      "lon": 2.11278,
      "updatedAt": "250930Z",
      "visibility_m": 4000,
      "taf_visibility_m": 500,
      "worst_visibility_m": 500,
      "ceiling_ft": 400,
      "hazards": [
        "BR",
        "DZ",
        "FG",
        "RA"
      ],
      "severityScore": 100,
      "metarRaw": "METAR LFOB 250930Z AUTO 14008KT 9999 OVC004 05/05 Q0994 TEMPO 4000 -DZ BR",
      "tafRaw": "TAF LFOB 250500Z 2506/2606 13007KT 6000 OVC012 \n  TEMPO 2506/2521 OVC006 \n  PROB40 \n  TEMPO 2506/2512 4000 -DZ BR OVC004 \n  PROB40 \n  TEMPO 2514/2521 4000 -RA \n  BECMG 2521/2601 2000 BR OVC002 \n  PROB40 \n  TEMPO 2601/2606 0500 FG VV///"
    },
    {
      "icao": "LHBP",
      "iata": "BUD",
      "name": "Budapest Liszt Ferenc International Airport",
      "lat": 47.43018,
      "lon": 19.262393,
      "updatedAt": "250930Z",
      "visibility_m": 7000,
      "taf_visibility_m": 700,
      "worst_visibility_m": 700,
      "ceiling_ft": 11000,
      "hazards": [
        "FZFG",
        "FG",
        "BR",
        "RA",
        "SHRA",
        "FZDZ",
        "DZ"
      ],
      "severityScore": 100,
      "metarRaw": "METAR LHBP 250930Z 08007KT 7000 FEW006 BKN110 03/01 Q1007 NOSIG",
      "tafRaw": "TAF LHBP 250515Z 2506/2606 06006KT 6000 SCT015 BKN150 \n  TEMPO 2506/2510 VRB03KT 1500 -DZ BCFG BKN004 OVC015 \n  PROB30 \n  TEMPO 2506/2509 0700 -FZDZ FZFG FG OVC002 \n  BECMG 2510/2512 07012KT -RA SCT020 BKN050 \n  TEMPO 2512/2515 NSW \n  TEMPO 2515/2522 10016G26KT 4000 RA SHRA BKN012 OVC030 \n  TEMPO 2602/2606 04006KT 2000 RA BR BKN006 OVC020"
    },
    {
      "icao": "LIBP",
      "iata": "PSR",
      "name": "Abruzzo Airport",
      "lat": 42.431079,
      "lon": 14.182981,
      "updatedAt": "250920Z",
      "visibility_m": 5000,
      "taf_visibility_m": 400,
      "worst_visibility_m": 400,
      "ceiling_ft": 100,
      "hazards": [
        "BR",
        "FG",
        "RA"
      ],
      "severityScore": 100,
      "metarRaw": "METAR LIBP 250920Z AUTO 22004KT 5000 BR BKN056/// 09/09 Q0999",
      "tafRaw": "TAF LIBP 250500Z 2506/2606 VRB05KT 2000 -RA BR BKN004 \n  TEMPO 2506/2508 0400 FG OVC001 \n  BECMG 2508/2510 7000 SCT040 \n  TEMPO 2518/2524 3000 RA"
    },
    {
      "icao": "LJLJ",
      "iata": "LJU",
      "name": "Ljubljana Jože Pučnik Airport",
      "lat": 46.223701,
      "lon": 14.4576,
      "updatedAt": "250930Z",
      "visibility_m": 1500,
      "taf_visibility_m": 400,
      "worst_visibility_m": 400,
      "ceiling_ft": 300,
      "hazards": [
        "BR",
        "RA",
        "FG",
        "SN"
      ],
      "severityScore": 100,
      "metarRaw": "METAR LJLJ 250930Z 26003KT 1500 RA BR BKN003 OVC010 02/02 Q1000 NOSIG",
      "tafRaw": "TAF LJLJ 250500Z 2506/2606 VRB02KT 2000 BR FEW001 SCT007 OVC030 \n  BECMG 2506/2508 3500 RA \n  PROB30 \n  TEMPO 2511/2515 12010KT \n  BECMG 2515/2517 6000 NSW \n  BECMG 2517/2519 0400 FG VV002 \n  PROB30 \n  TEMPO 2521/2606 -RASN"
    },
    {
      "icao": "LKMT",
      "iata": "OSR",
      "name": "Leoš Janáček Airport Ostrava",
      "lat": 49.696301,
      "lon": 18.111099,
      "updatedAt": "250930Z",
      "visibility_m": 900,
      "taf_visibility_m": 800,
      "worst_visibility_m": 800,
      "ceiling_ft": 200,
      "hazards": [
        "FZFG",
        "FG",
        "BR",
        "RA",
        "FZDZ",
        "DZ"
      ],
      "severityScore": 100,
      "metarRaw": "METAR LKMT 250930Z 05004KT 030V090 0900 R22/1300N R04/1100D FZFG BKN002 OVC005 M01/M01 Q1005 NOSIG",
      "tafRaw": "TAF LKMT 250500Z 2506/2606 02006KT 1600 BR OVC006 \n  PROB30 \n  TEMPO 2506/2508 0800 -FZDZ FZFG OVC003 \n  BECMG 2510/2512 3500 BR SCT006 BKN022 \n  TEMPO 2518/2603 2500 -RA BR BKN014 \n  BECMG 2600/2602 21012KT"
    },
    {
      "icao": "LKPR",
      "iata": "PRG",
      "name": "Václav Havel Airport Prague",
      "lat": 50.100874,
      "lon": 14.259911,
      "updatedAt": "250930Z",
      "visibility_m": 250,
      "taf_visibility_m": 400,
      "worst_visibility_m": 250,
      "ceiling_ft": 200,
      "hazards": [
        "FZFG",
        "FZDZ",
        "FG",
        "DZ",
        "BR",
        "RA",
        "SN"
      ],
      "severityScore": 100,
      "metarRaw": "METAR LKPR 250930Z 04004KT 0250 R24/0400D R30/0450N FZFG VV002 M01/M01 Q1001 REFZDZ NOSIG",
      "tafRaw": "TAF LKPR 250800Z 2509/2615 06004KT 0800 FZFG OVC002 \n  TEMPO 2509/2510 0400 FZFG \n  BECMG 2510/2512 08008KT 4000 BR OVC012 \n  BECMG 2515/2517 5000 -RA BR OVC008 \n  TEMPO 2517/2604 2000 -RASN BR BKN003 \n  BECMG 2604/2606 19012KT 9999 BKN015 \n  TEMPO 2613/2615 6000 -SHRASN BKN008"
    },
    {
      "icao": "LMML",
      "iata": "MLA",
      "name": "Malta International Airport",
      "lat": 35.857498,
      "lon": 14.4775,
      "updatedAt": "250945Z",
      "visibility_m": 10000,
      "taf_visibility_m": 4000,
      "worst_visibility_m": 4000,
      "ceiling_ft": 800,
      "hazards": [
        "TSRA",
        "TSGS",
        "SHRA",
        "TS",
        "RA"
      ],
      "severityScore": 100,
      "metarRaw": "METAR LMML 250945Z 28013KT 9999 FEW014 14/11 Q1006 NOSIG",
      "tafRaw": "TAF LMML 250500Z 2506/2606 30015KT 9999 FEW017 \n  TEMPO 2506/2518 7000 SHRA BKN015TCU \n  PROB40 \n  TEMPO 2506/2515 4000 TSRA TSGS BKN008 BKN012CB \n  BECMG 2509/2512 30020G30KT \n  TEMPO 2600/2606 7000 SHRA BKN015TCU \n  BECMG 2603/2606 24020G30KT"
    },
    {
      "icao": "LOWW",
      "iata": "VIE",
      "name": "Vienna International Airport",
      "lat": 48.110298,
      "lon": 16.5697,
      "updatedAt": "250920Z",
      "visibility_m": 1200,
      "taf_visibility_m": 400,
      "worst_visibility_m": 400,
      "ceiling_ft": 200,
      "hazards": [
        "BR",
        "FG",
        "RA"
      ],
      "severityScore": 100,
      "metarRaw": "METAR LOWW 250920Z 13010KT 100V160 1200 R11/P1500N R16/P1500U BR BCFG SCT001 BKN002 01/01 Q1003 BECMG 1500 BR OVC003",
      "tafRaw": "TAF LOWW 250815Z 2509/2615 14012KT 0500 FG VV001 TX03/2614Z TN00/2607Z \n  BECMG 2509/2511 1500 BR FEW002 BKN003 \n  TEMPO 2512/2522 4000 -RA OVC005 \n  PROB40 \n  TEMPO 2516/2520 RA \n  FM260000 VRB02KT 0700 FG VV002 \n  TEMPO 2603/2609 0400 VV001 \n  BECMG 2610/2612 27007KT 9999 NSW FEW012"
    },
    {
      "icao": "LRIA",
      "iata": "IAS",
      "name": "Iaşi Airport",
      "lat": 47.180278,
      "lon": 27.620833,
      "updatedAt": "250930Z",
      "visibility_m": 300,
      "taf_visibility_m": 300,
      "worst_visibility_m": 300,
      "ceiling_ft": 100,
      "hazards": [
        "FG",
        "BR"
      ],
      "severityScore": 100,
      "metarRaw": "METAR LRIA 250930Z 11010KT 0300 R14/0600N FG VV001 00/M00 Q1015",
      "tafRaw": "TAF LRIA 250800Z 2509/2518 11010KT 0300 FG OVC001 \n  BECMG 2510/2512 0800 OVC002 \n  TEMPO 2512/2515 3000 BR OVC005"
    },
    {
      "icao": "LRBC",
      "iata": "BCM",
      "name": "Bacău George Enescu International  Airport",
      "lat": 46.5219,
      "lon": 26.910299,
      "updatedAt": "250930Z",
      "visibility_m": 2000,
      "taf_visibility_m": 300,
      "worst_visibility_m": 300,
      "ceiling_ft": 200,
      "hazards": [
        "BR",
        "FG"
      ],
      "severityScore": 100,
      "metarRaw": "METAR LRBC 250930Z 16006KT 2000 BR OVC002 00/00 Q1014",
      "tafRaw": "TAF LRBC 250800Z 2509/2518 17008KT 1500 BR OVC002 \n  TEMPO 2509/2511 0600 FG OVC001 \n  BECMG 2514/2516 0300 FG OVC001"
    },
    {
      "icao": "LRCV",
      "iata": "CRA",
      "name": "Craiova International Airport",
      "lat": 44.3181,
      "lon": 23.888599,
      "updatedAt": "250930Z",
      "visibility_m": 800,
      "taf_visibility_m": 300,
      "worst_visibility_m": 300,
      "ceiling_ft": 200,
      "hazards": [
        "FZFG",
        "FG",
        "BR"
      ],
      "severityScore": 100,
      "metarRaw": "METAR LRCV 250930Z 17001KT 0800 R26/0600N FZFG OVC002 M01/M01 Q1015",
      "tafRaw": "TAF LRCV 250800Z 2509/2518 VRB04KT 0600 FZFG OVC002 \n  BECMG 2509/2511 1500 BR OVC005 \n  PROB40 \n  TEMPO 2512/2515 5000 BKN010 \n  BECMG 2515/2517 07010KT 0300 FG OVC002"
    },
    {
      "icao": "LRSV",
      "iata": "SCV",
      "name": "Suceava Stefan cel Mare Airport",
      "lat": 47.6875,
      "lon": 26.35409927368164,
      "updatedAt": "250930Z",
      "visibility_m": 100,
      "taf_visibility_m": 300,
      "worst_visibility_m": 100,
      "ceiling_ft": 100,
      "hazards": [
        "FZFG",
        "FG"
      ],
      "severityScore": 100,
      "metarRaw": "METAR LRSV 250930Z 15006KT 0100 R34/0325N FZFG VV001 M01/M01 Q1012",
      "tafRaw": "TAF LRSV 250800Z 2509/2518 16008KT 0300 FZFG VV001 \n  TEMPO 2510/2514 0800 VV002"
    },
    {
      "icao": "LUKK",
      "iata": "RMO",
      "name": "Chişinău International Airport",
      "lat": 46.9277,
      "lon": 28.931,
      "updatedAt": "250930Z",
      "visibility_m": 800,
      "taf_visibility_m": null,
      "worst_visibility_m": 800,
      "ceiling_ft": 200,
      "hazards": [
        "FZFG",
        "BR",
        "FZDZ",
        "FG",
        "DZ"
      ],
      "severityScore": 100,
      "metarRaw": "METAR LUKK 250930Z 10008KT 2700 FZDZ BR OVC002 M02/M03 Q1017 TEMPO 0800 -FZDZ FZFG",
      "tafRaw": null
    },
    {
      "icao": "UDSG",
      "iata": "LWN",
      "name": "Shirak International Airport",
      "lat": 40.750401,
      "lon": 43.859299,
      "updatedAt": "250930Z",
      "visibility_m": 250,
      "taf_visibility_m": 200,
      "worst_visibility_m": 200,
      "ceiling_ft": 200,
      "hazards": [
        "FZFG",
        "FG",
        "BR"
      ],
      "severityScore": 100,
      "metarRaw": "METAR UDSG 250930Z 13001KT 0250 R02/0300N FZFG VV002 M07/M07 Q1021 NOSIG",
      "tafRaw": "TAF UDSG 250500Z 2506/2606 VRB06KT 0800 FZFG OVC006 \n  TEMPO 2506/2509 0200 FZFG VV002 \n  BECMG 2509/2510 1500 BR BKN010"
    },
    {
      "icao": "UDYZ",
      "iata": "EVN",
      "name": "Zvartnots International Airport",
      "lat": 40.148941,
      "lon": 44.397887,
      "updatedAt": "250930Z",
      "visibility_m": 1900,
      "taf_visibility_m": 600,
      "worst_visibility_m": 600,
      "ceiling_ft": 700,
      "hazards": [
        "BR",
        "FZFG",
        "FG"
      ],
      "severityScore": 100,
      "metarRaw": "METAR UDYZ 250930Z 25001KT 1900 R08/1800N BR BKN007 M03/M05 Q1024 NOSIG",
      "tafRaw": "TAF UDYZ 250500Z 2506/2606 24006KT 2000 BR SCT020 \n  TEMPO 2506/2509 0600 FZFG VV003"
    },
    {
      "icao": "EPGD",
      "iata": "GDN",
      "name": "Gdańsk Lech Wałęsa Airport",
      "lat": 54.377602,
      "lon": 18.4662,
      "updatedAt": "250930Z",
      "visibility_m": 10000,
      "taf_visibility_m": 2000,
      "worst_visibility_m": 2000,
      "ceiling_ft": 3100,
      "hazards": [
        "BR",
        "FZRA",
        "FZDZ",
        "RA",
        "DZ"
      ],
      "severityScore": 95,
      "metarRaw": "METAR EPGD 250930Z 11008KT 9999 FEW011 OVC031 M07/M09 Q1012",
      "tafRaw": "TAF EPGD 250530Z 2506/2606 11010KT 9999 OVC035 \n  TEMPO 2506/2515 BKN008 BKN013 \n  BECMG 2515/2518 OVC004 \n  PROB30 \n  TEMPO 2516/2605 3000 -FZDZ BR \n  TEMPO 2605/2606 2000 FZRA"
    },
    {
      "icao": "LPPT",
      "iata": "LIS",
      "name": "Lisbon Humberto Delgado Airport",
      "lat": 38.7813,
      "lon": -9.13592,
      "updatedAt": "250930Z",
      "visibility_m": 4000,
      "taf_visibility_m": 1200,
      "worst_visibility_m": 1200,
      "ceiling_ft": 200,
      "hazards": [
        "SHRA",
        "RA",
        "BR",
        "DZ"
      ],
      "severityScore": 91,
      "metarRaw": "METAR LPPT 250930Z 25010KT 220V290 4000 SHRA FEW010 SCT014 FEW020CB 14/12 Q1016",
      "tafRaw": "TAF LPPT 250500Z 2506/2612 26012KT 9999 SCT012 BKN025 \n  TEMPO 2506/2508 26017G27KT \n  TEMPO 2506/2518 2000 RADZ BR SCT004 BKN008 \n  BECMG 2518/2520 22008KT SCT008 BKN012 \n  TEMPO 2520/2612 2000 DZRA BR BKN004 \n  PROB40 \n  TEMPO 2520/2524 1200 DZ BR BKN002 \n  BECMG 2604/2606 23013KT"
    },
    {
      "icao": "LBPD",
      "iata": "PDV",
      "name": "Plovdiv International Airport",
      "lat": 42.067799,
      "lon": 24.8508,
      "updatedAt": "250930Z",
      "visibility_m": 10000,
      "taf_visibility_m": 600,
      "worst_visibility_m": 600,
      "ceiling_ft": 200,
      "hazards": [
        "FG",
        "BR"
      ],
      "severityScore": 90,
      "metarRaw": "METAR LBPD 250930Z AUTO 00000KT 9999 OVC008/// 04/04 Q1016 NOSIG",
      "tafRaw": "TAF LBPD 250500Z 2506/2606 VRB04KT 9999 OVC010 \n  TEMPO 2506/2508 3000 BR OVC005 \n  BECMG 2518/2520 3000 BR OVC005 \n  TEMPO 2522/2606 0600 FG OVC002"
    },
    {
      "icao": "LBWN",
      "iata": "VAR",
      "name": "Varna Airport",
      "lat": 43.232101,
      "lon": 27.8251,
      "updatedAt": "250930Z",
      "visibility_m": 10000,
      "taf_visibility_m": 800,
      "worst_visibility_m": 800,
      "ceiling_ft": 200,
      "hazards": [
        "FG",
        "BR"
      ],
      "severityScore": 90,
      "metarRaw": "METAR LBWN 250930Z VRB02KT 9999 FEW010 SCT030 09/06 Q1015 NOSIG",
      "tafRaw": "TAF LBWN 250500Z 2506/2606 VRB03KT 5000 BR BKN015 \n  PROB30 \n  TEMPO 2506/2507 0800 FG BKN002 OVC004 \n  BECMG 2507/2509 9999 NSW BKN020 \n  BECMG 2512/2514 11010KT"
    },
    {
      "icao": "LEMD",
      "iata": "MAD",
      "name": "Adolfo Suárez Madrid–Barajas Airport",
      "lat": 40.471926,
      "lon": -3.56264,
      "updatedAt": "250930Z",
      "visibility_m": 10000,
      "taf_visibility_m": 400,
      "worst_visibility_m": 400,
      "ceiling_ft": 5500,
      "hazards": [
        "FG",
        "BR",
        "RA",
        "DZ"
      ],
      "severityScore": 87,
      "metarRaw": "METAR LEMD 250930Z 20010KT 150V220 9999 SCT010 BKN055 06/05 Q1009 NOSIG",
      "tafRaw": "TAF LEMD 250500Z 2506/2612 23010KT 9999 FEW030 TX10/2516Z TN03/2606Z \n  TEMPO 2506/2511 4000 BR BKN010 \n  PROB40 \n  TEMPO 2506/2509 DZRA BKN004 \n  PROB30 \n  TEMPO 2506/2509 0400 FG VV002 \n  TEMPO 2508/2517 24016G30KT"
    },
    {
      "icao": "LEBB",
      "iata": "BIO",
      "name": "Bilbao Airport",
      "lat": 43.301102,
      "lon": -2.91061,
      "updatedAt": "250930Z",
      "visibility_m": 10000,
      "taf_visibility_m": 1500,
      "worst_visibility_m": 1500,
      "ceiling_ft": null,
      "hazards": [
        "TSRA",
        "SHRA",
        "TS",
        "RA"
      ],
      "severityScore": 86,
      "metarRaw": "METAR LEBB 250930Z 23011KT 170V260 CAVOK 13/04 Q1000 NOSIG",
      "tafRaw": "TAF LEBB 250500Z 2506/2606 21009KT 9999 FEW040 TX12/2512Z TN07/2605Z \n  TEMPO 2506/2511 21015G27KT \n  PROB40 \n  TEMPO 2512/2520 1500 TSRA SCT020CB \n  BECMG 2513/2515 28012KT \n  TEMPO 2514/2524 28019G32KT 3000 SHRA SCT020TCU \n  TEMPO 2514/2516 29029G50KT"
    },
    {
      "icao": "LEXJ",
      "iata": "SDR",
      "name": "Seve Ballesteros-Santander Airport",
      "lat": 43.427101,
      "lon": -3.82001,
      "updatedAt": "250930Z",
      "visibility_m": 10000,
      "taf_visibility_m": 1500,
      "worst_visibility_m": 1500,
      "ceiling_ft": 8500,
      "hazards": [
        "TSRA",
        "SHRA",
        "TS",
        "RA"
      ],
      "severityScore": 86,
      "metarRaw": "METAR LEXJ 250930Z 23006G18KT 190V310 9999 SCT030 BKN085 11/04 Q1000",
      "tafRaw": "TAF LEXJ 250800Z 2509/2609 22009KT 9999 SCT060 TX13/2513Z TN07/2604Z \n  BECMG 2510/2512 28014KT \n  PROB40 \n  TEMPO 2513/2518 1500 TSRA SCT020CB \n  TEMPO 2514/2524 28019G32KT 3000 SHRA SCT030TCU \n  TEMPO 2514/2519 28029G45KT \n  BECMG 2600/2602 20009KT"
    },
    {
      "icao": "LFBD",
      "iata": "BOD",
      "name": "Bordeaux–Mérignac Airport",
      "lat": 44.82865,
      "lon": -0.715356,
      "updatedAt": "250930Z",
      "visibility_m": 2000,
      "taf_visibility_m": 1500,
      "worst_visibility_m": 1500,
      "ceiling_ft": 4000,
      "hazards": [
        "TSRA",
        "RA",
        "TS",
        "SHRA"
      ],
      "severityScore": 86,
      "metarRaw": "METAR LFBD 250930Z AUTO 27014KT 9999 -RA FEW012/// BKN022/// BKN038/// ///CB 09/07 Q0996 TEMPO 24020G30KT 2000 TSRA BECMG BKN040",
      "tafRaw": "TAF LFBD 250500Z 2506/2612 20010KT 9999 BKN040 TX12/2612Z TN05/2520Z \n  TEMPO 2506/2511 23015G25KT 4000 SHRA BKN020TCU SCT025CB \n  PROB30 2506/2511 24020G30KT 2000 TSRA BKN010 BKN025CB \n  BECMG 2511/2512 28008KT \n  TEMPO 2512/2610 3500 SHRA BKN020TCU SCT030CB \n  PROB30 \n  TEMPO 2515/2601 28015G25KT 1500 -TSRA BKN020CB"
    },
    {
      "icao": "EHBK",
      "iata": "MST",
      "name": "Maastricht Aachen Airport",
      "lat": 50.911701,
      "lon": 5.77014,
      "updatedAt": "250925Z",
      "visibility_m": 10000,
      "taf_visibility_m": 2000,
      "worst_visibility_m": 2000,
      "ceiling_ft": 400,
      "hazards": [
        "BR",
        "FZDZ",
        "DZ"
      ],
      "severityScore": 83,
      "metarRaw": "METAR EHBK 250925Z AUTO VRB01KT 9999 NSC M01/M03 Q0997 NOSIG",
      "tafRaw": "TAF EHBK 250512Z 2506/2612 10007KT 9999 NSC \n  BECMG 2602/2605 33005KT 4000 BR BKN004 \n  PROB40 \n  TEMPO 2609/2612 2000 -FZDZ -SG BKN006"
    },
    {
      "icao": "EDDH",
      "iata": "HAM",
      "name": "Hamburg Helmut Schmidt Airport",
      "lat": 53.630402,
      "lon": 9.98823,
      "updatedAt": "250920Z",
      "visibility_m": 6000,
      "taf_visibility_m": 500,
      "worst_visibility_m": 500,
      "ceiling_ft": 900,
      "hazards": [
        "SN"
      ],
      "severityScore": 78,
      "metarRaw": "METAR EDDH 250920Z AUTO 08010KT 050V110 6000 BKN009 OVC016 M02/M04 Q1005 TEMPO BKN011",
      "tafRaw": "TAF EDDH 250500Z 2506/2612 09009KT 6000 OVC009 \n  TEMPO 2506/2510 OVC010 \n  BECMG 2510/2512 OVC010 \n  TEMPO 2512/2524 OVC008 \n  BECMG 2600/2603 03010KT 2000 -SN OVC005 \n  TEMPO 2601/2612 1200 SN OVC003 \n  PROB30 \n  TEMPO 2602/2609 0500 +SN OVC001"
    },
    {
      "icao": "EPPO",
      "iata": "POZ",
      "name": "Poznań-Ławica Airport",
      "lat": 52.421598,
      "lon": 16.823359,
      "updatedAt": "250930Z",
      "visibility_m": 5000,
      "taf_visibility_m": null,
      "worst_visibility_m": 5000,
      "ceiling_ft": 600,
      "hazards": [
        "BR",
        "FZDZ",
        "DZ"
      ],
      "severityScore": 78,
      "metarRaw": "METAR EPPO 250930Z 08010KT 5000 BR OVC006 M04/M05 Q1008 REFZDZ",
      "tafRaw": null
    },
    {
      "icao": "EPWR",
      "iata": "WRO",
      "name": "Copernicus Wrocław Airport",
      "lat": 51.103719,
      "lon": 16.882096,
      "updatedAt": "250930Z",
      "visibility_m": 4900,
      "taf_visibility_m": null,
      "worst_visibility_m": 4900,
      "ceiling_ft": 700,
      "hazards": [
        "BR",
        "FZDZ",
        "DZ"
      ],
      "severityScore": 78,
      "metarRaw": "METAR EPWR 250930Z 09005KT 4900 BR OVC007 M01/M02 Q1006 REFZDZ",
      "tafRaw": null
    },
    {
      "icao": "EYKA",
      "iata": "KUN",
      "name": "Kaunas International Airport",
      "lat": 54.963965,
      "lon": 24.08582,
      "updatedAt": "250920Z",
      "visibility_m": 10000,
      "taf_visibility_m": 3000,
      "worst_visibility_m": 3000,
      "ceiling_ft": 1000,
      "hazards": [
        "BR",
        "SN",
        "FZDZ",
        "DZ"
      ],
      "severityScore": 78,
      "metarRaw": "METAR EYKA 250920Z 12010KT 090V150 CAVOK M08/M12 Q1018",
      "tafRaw": "TAF EYKA 250510Z 2506/2606 12010KT 9000 BKN040 \n  BECMG 2517/2520 5000 SN BKN015 \n  BECMG 2522/2524 OVC010 \n  PROB30 \n  TEMPO 2600/2606 3000 -FZDZ BR"
    },
    {
      "icao": "EYPA",
      "iata": "PLQ",
      "name": "Palanga International Airport",
      "lat": 55.973202,
      "lon": 21.093901,
      "updatedAt": "250920Z",
      "visibility_m": 10000,
      "taf_visibility_m": 3000,
      "worst_visibility_m": 3000,
      "ceiling_ft": 1000,
      "hazards": [
        "BR",
        "SN",
        "FZDZ",
        "DZ"
      ],
      "severityScore": 78,
      "metarRaw": "METAR EYPA 250920Z 11008KT CAVOK M07/M11 Q1016",
      "tafRaw": "TAF EYPA 250509Z 2506/2606 12009KT 7000 BKN025 \n  TEMPO 2509/2602 BKN015 \n  PROB40 \n  TEMPO 2509/2515 BKN010 \n  BECMG 2602/2604 OVC015 \n  TEMPO 2604/2606 3000 SN OVC010 \n  PROB30 \n  TEMPO 2604/2606 -FZDZ BR"
    },
    {
      "icao": "EGNM",
      "iata": "LBA",
      "name": "Leeds Bradford Airport",
      "lat": 53.865898,
      "lon": -1.66057,
      "updatedAt": "250920Z",
      "visibility_m": 2000,
      "taf_visibility_m": 1000,
      "worst_visibility_m": 1000,
      "ceiling_ft": 300,
      "hazards": [
        "BR",
        "RA",
        "DZ"
      ],
      "severityScore": 77,
      "metarRaw": "METAR EGNM 250920Z 10013KT 2000 -RA BR OVC003 04/04 Q0994",
      "tafRaw": "TAF EGNM 250556Z 2506/2606 12010KT 4000 BR BKN003 \n  PROB40 \n  TEMPO 2506/2514 1000 +RA RADZ BKN001 \n  BECMG 2514/2517 6000 NSW BKN014 \n  PROB30 \n  TEMPO 2517/2606 4000 -RADZ BR BKN009 \n  BECMG 2521/2524 06006KT \n  BECMG 2603/2606 BKN030"
    },
    {
      "icao": "EPLB",
      "iata": "LUZ",
      "name": "Lublin Airport",
      "lat": 51.240157,
      "lon": 22.713461,
      "updatedAt": "250930Z",
      "visibility_m": 7000,
      "taf_visibility_m": null,
      "worst_visibility_m": 7000,
      "ceiling_ft": 800,
      "hazards": [
        "FZRA",
        "RA"
      ],
      "severityScore": 77,
      "metarRaw": "METAR EPLB 250930Z 12014KT 7000 -FZRA OVC008 M06/M07 Q1012",
      "tafRaw": null
    },
    {
      "icao": "LIPX",
      "iata": "VRN",
      "name": "Verona Villafranca Valerio Catullo Airport",
      "lat": 45.394955,
      "lon": 10.887303,
      "updatedAt": "250920Z",
      "visibility_m": 7000,
      "taf_visibility_m": 600,
      "worst_visibility_m": 600,
      "ceiling_ft": 8000,
      "hazards": [
        "DZ",
        "BR",
        "RA",
        "FG"
      ],
      "severityScore": 77,
      "metarRaw": "METAR LIPX 250920Z 24010KT 7000 -DZ FEW005 SCT030 BKN080 06/06 Q0999",
      "tafRaw": "TAF LIPX 250500Z 2506/2606 09007KT 4000 RA BR BKN040 \n  TEMPO 2506/2509 1400 BKN010 \n  BECMG 2508/2511 26010KT NSW \n  BECMG 2516/2518 VRB05KT \n  BECMG 2520/2522 1200 BR BKN004 \n  TEMPO 2603/2606 0600 BCFG"
    },
    {
      "icao": "LZKZ",
      "iata": "KSC",
      "name": "Košice International Airport",
      "lat": 48.663101,
      "lon": 21.2411,
      "updatedAt": "250930Z",
      "visibility_m": 10000,
      "taf_visibility_m": 500,
      "worst_visibility_m": 500,
      "ceiling_ft": 2400,
      "hazards": [
        "FG",
        "BR",
        "RA"
      ],
      "severityScore": 77,
      "metarRaw": "METAR LZKZ 250930Z VRB02KT 9999 BKN024 OVC040 04/03 Q1009 NOSIG",
      "tafRaw": "TAF LZKZ 250515Z 2506/2606 23005KT 5000 BR SCT003 BKN030 \n  TEMPO 2506/2508 0500 FG OVC002 \n  BECMG 2509/2511 05008KT 9999 NSW \n  TEMPO 2515/2520 3000 -RA BR OVC010 \n  BECMG 2523/2601 1400 -RA BR SCT002 OVC007 \n  BECMG 2604/2606 20005KT"
    },
    {
      "icao": "LICJ",
      "iata": "PMO",
      "name": "Falcone–Borsellino Airport",
      "lat": 38.175999,
      "lon": 13.091,
      "updatedAt": "250920Z",
      "visibility_m": 10000,
      "taf_visibility_m": 4000,
      "worst_visibility_m": 4000,
      "ceiling_ft": 6000,
      "hazards": [
        "TSRA",
        "SHRA",
        "TS",
        "RA"
      ],
      "severityScore": 76,
      "metarRaw": "METAR LICJ 250920Z 21008KT 9999 SCT040 BKN060 13/08 Q1005",
      "tafRaw": "TAF LICJ 250500Z 2506/2606 28014KT 9999 SCT030 \n  BECMG 2506/2508 22016KT \n  TEMPO 2508/2512 4000 SHRA \n  TEMPO 2517/2520 4000 SHRA \n  TEMPO 2600/2603 4000 TSRA"
    },
    {
      "icao": "LIRF",
      "iata": "FCO",
      "name": "Rome–Fiumicino Leonardo da Vinci International Airport",
      "lat": 41.804532,
      "lon": 12.251998,
      "updatedAt": "250920Z",
      "visibility_m": 10000,
      "taf_visibility_m": 4000,
      "worst_visibility_m": 4000,
      "ceiling_ft": null,
      "hazards": [
        "TSRA",
        "RA",
        "SHRA",
        "TS"
      ],
      "severityScore": 76,
      "metarRaw": "METAR LIRF 250920Z 09008KT CAVOK 09/07 Q1001 NOSIG",
      "tafRaw": "TAF LIRF 250500Z 2506/2612 09010KT 9999 SCT030 \n  TEMPO 2506/2508 4000 SHRA \n  BECMG 2510/2512 15011KT \n  TEMPO 2512/2520 4000 TSRA \n  BECMG 2516/2518 24018KT \n  BECMG 2520/2522 30010KT \n  TEMPO 2600/2606 4000 SHRA \n  BECMG 2601/2603 07012KT \n  TEMPO 2606/2609 4000 TSRA \n  TEMPO 2609/2612 4000 RA"
    },
    {
      "icao": "EPRA",
      "iata": "RDO",
      "name": "Warsaw Radom Airport",
      "lat": 51.38937,
      "lon": 21.214742,
      "updatedAt": "250930Z",
      "visibility_m": 9000,
      "taf_visibility_m": 5000,
      "worst_visibility_m": 5000,
      "ceiling_ft": 700,
      "hazards": [
        "RA",
        "FZDZ",
        "DZ"
      ],
      "severityScore": 75,
      "metarRaw": "METAR EPRA 250930Z 10010KT 9000 OVC007 M04/M06 Q1010",
      "tafRaw": "TAF EPRA 250830Z 2509/2518 10010KT 8000 OVC007 \n  PROB40 \n  TEMPO 2509/2511 5000 -FZDZ OVC005 \n  BECMG 2511/2513 9999 BKN010"
    },
    {
      "icao": "LIBG",
      "iata": "TAR",
      "name": "Taranto-Grottaglie Marcello Arlotta Airport",
      "lat": 40.517502,
      "lon": 17.4032,
      "updatedAt": "250850Z",
      "visibility_m": 6000,
      "taf_visibility_m": 3000,
      "worst_visibility_m": 3000,
      "ceiling_ft": 1500,
      "hazards": [
        "TSRA",
        "RA",
        "TS"
      ],
      "severityScore": 74,
      "metarRaw": "METAR LIBG 250850Z 15016KT 6000 BKN015 15/13 Q1004",
      "tafRaw": "TAF LIBG 250800Z 2509/2518 16017G29KT 8000 BKN012 \n  TEMPO 2512/2515 3000 TSRA \n  BECMG 2513/2515 27008KT SCT035 \n  TEMPO 2515/2518 RA"
    },
    {
      "icao": "LGTS",
      "iata": "SKG",
      "name": "Thessaloniki Macedonia International Airport",
      "lat": 40.51928,
      "lon": 22.970009,
      "updatedAt": "250920Z",
      "visibility_m": 9000,
      "taf_visibility_m": 3000,
      "worst_visibility_m": 3000,
      "ceiling_ft": 2000,
      "hazards": [
        "TS",
        "BR",
        "TSRA",
        "RA"
      ],
      "severityScore": 72,
      "metarRaw": "METAR LGTS 250920Z 25004KT 9000 FEW015 SCT020 12/07 Q1015 NOSIG",
      "tafRaw": "TAF LGTS 250500Z 2506/2606 VRB03KT 9999 FEW010 BKN025 \n  PROB40 2506/2509 3000 BR SCT008 BKN025 \n  PROB40 \n  TEMPO 2515/2606 5000 RA \n  BECMG 2521/2523 14015KT \n  PROB30 \n  TEMPO 2600/2606 3000 TSRA FEW008 FEW018CB BKN020"
    },
    {
      "icao": "LIBR",
      "iata": "BDS",
      "name": "Brindisi Airport",
      "lat": 40.6576,
      "lon": 17.947001,
      "updatedAt": "250920Z",
      "visibility_m": 9000,
      "taf_visibility_m": 4000,
      "worst_visibility_m": 4000,
      "ceiling_ft": 2300,
      "hazards": [
        "BR",
        "TSRA",
        "TS",
        "RA"
      ],
      "severityScore": 72,
      "metarRaw": "METAR LIBR 250920Z 18021G31KT 9000 BKN023 16/12 Q1004",
      "tafRaw": "TAF LIBR 250500Z 2506/2606 15016G26KT 9999 SCT020 \n  BECMG 2506/2508 15023G36KT \n  TEMPO 2513/2520 4000 TSRA \n  BECMG 2518/2520 22007KT"
    },
    {
      "icao": "LYPG",
      "iata": "TGD",
      "name": "Podgorica Airport / Podgorica Golubovci Airbase",
      "lat": 42.359402,
      "lon": 19.2519,
      "updatedAt": "250930Z",
      "visibility_m": 10000,
      "taf_visibility_m": 2000,
      "worst_visibility_m": 2000,
      "ceiling_ft": 8000,
      "hazards": [
        "BR",
        "TSRA",
        "RA",
        "TS"
      ],
      "severityScore": 72,
      "metarRaw": "METAR LYPG 250930Z VRB01KT 9999 FEW030 SCT050 OVC080 11/10 Q1008 NOSIG",
      "tafRaw": "TAF LYPG 250500Z 2506/2606 16005KT 9999 FEW013 SCT040 OVC070 TX13/2513Z TN08/2605Z \n  TEMPO 2506/2509 3000 RA BR \n  BECMG 2509/2511 16015KT RA \n  TEMPO 2515/2601 16015G30KT 2000 TSRA FEW007 SCT025CB BKN033 \n  BECMG 2601/2603 36005KT"
    },
    {
      "icao": "LIMC",
      "iata": "MXP",
      "name": "Milan Malpensa International Airport",
      "lat": 45.6306,
      "lon": 8.72811,
      "updatedAt": "250920Z",
      "visibility_m": 1200,
      "taf_visibility_m": null,
      "worst_visibility_m": 1200,
      "ceiling_ft": 200,
      "hazards": [
        "BR",
        "DZ"
      ],
      "severityScore": 70,
      "metarRaw": "METAR LIMC 250920Z VRB01KT 1200 R35R/P2000N R17L/P2000N R35L/P2000N DZ BR OVC002 05/05 Q0999 NOSIG",
      "tafRaw": null
    },
    {
      "icao": "EGGW",
      "iata": "LTN",
      "name": "London Luton Airport",
      "lat": 51.874699,
      "lon": -0.368333,
      "updatedAt": "250920Z",
      "visibility_m": 5000,
      "taf_visibility_m": 2000,
      "worst_visibility_m": 2000,
      "ceiling_ft": 100,
      "hazards": [
        "BR",
        "RA",
        "DZ"
      ],
      "severityScore": 67,
      "metarRaw": "METAR EGGW 250920Z AUTO 11008KT 5000 BR OVC002/// //////CB 05/05 Q0992",
      "tafRaw": "TAF EGGW 250458Z 2506/2606 13010KT 9999 BKN005 \n  TEMPO 2506/2512 4000 RADZ RA BKN003 \n  PROB40 \n  TEMPO 2512/2516 BKN004 \n  PROB30 \n  TEMPO 2512/2601 4000 DZ \n  TEMPO 2516/2601 BKN003 \n  BECMG 2519/2522 06006KT \n  BECMG 2523/2602 6000 BKN018 \n  PROB30 2601/2606 2000 BR BKN001"
    },
    {
      "icao": "LQBK",
      "iata": "BNX",
      "name": "Banja Luka International Airport",
      "lat": 44.941399,
      "lon": 17.297501,
      "updatedAt": "250930Z",
      "visibility_m": 3500,
      "taf_visibility_m": 1500,
      "worst_visibility_m": 1500,
      "ceiling_ft": 4000,
      "hazards": [
        "BR",
        "RA",
        "SHRA",
        "FG"
      ],
      "severityScore": 66,
      "metarRaw": "METAR LQBK 250930Z 30004KT 260V330 3500 BR FEW010 SCT043 05/04 Q1002 BECMG 6000 NSW",
      "tafRaw": "TAF LQBK 250500Z 2506/2606 VRB02KT 2000 BR BKN040 TX09/2513Z TN00/2506Z \n  BECMG 2508/2510 7000 NSW \n  TEMPO 2513/2519 16010KT 4000 RA \n  PROB40 \n  TEMPO 2514/2517 VRB15G25KT 3000 SHRA SCT010 FEW030TCU BKN045 \n  PROB30 \n  TEMPO 2600/2606 1500 BCFG"
    },
    {
      "icao": "EDNY",
      "iata": "FDH",
      "name": "Bodensee Airport Friedrichshafen",
      "lat": 47.671299,
      "lon": 9.51149,
      "updatedAt": "250920Z",
      "visibility_m": 4700,
      "taf_visibility_m": 2500,
      "worst_visibility_m": 2500,
      "ceiling_ft": 900,
      "hazards": [
        "BR",
        "SN",
        "RA"
      ],
      "severityScore": 65,
      "metarRaw": "METAR EDNY 250920Z COR VRB01KT 4700 BR OVC009 01/00 Q0998",
      "tafRaw": "TAF EDNY 250800Z 2509/2518 VRB03KT 3500 BR BKN006 \n  PROB30 \n  TEMPO 2509/2510 2500 BR BKN004 \n  PROB30 \n  TEMPO 2516/2518 RASN"
    },
    {
      "icao": "EKBI",
      "iata": "BLL",
      "name": "Billund Airport",
      "lat": 55.740335,
      "lon": 9.157019,
      "updatedAt": "250920Z",
      "visibility_m": 3000,
      "taf_visibility_m": 4000,
      "worst_visibility_m": 3000,
      "ceiling_ft": 400,
      "hazards": [
        "SN",
        "BR"
      ],
      "severityScore": 63,
      "metarRaw": "METAR EKBI 250920Z AUTO 10011KT 3000 -SN OVC004/// M00/M01 Q1007",
      "tafRaw": "TAF EKBI 250827Z 2509/2609 08012KT 7000 BKN010 \n  TEMPO 2509/2524 4000 BR BKN004"
    },
    {
      "icao": "LIBD",
      "iata": "BRI",
      "name": "Bari Karol Wojtyła International Airport",
      "lat": 41.138901,
      "lon": 16.760599,
      "updatedAt": "250920Z",
      "visibility_m": 10000,
      "taf_visibility_m": 4000,
      "worst_visibility_m": 4000,
      "ceiling_ft": 2500,
      "hazards": [
        "TSRA",
        "TS",
        "RA"
      ],
      "severityScore": 62,
      "metarRaw": "METAR LIBD 250920Z 14027G38KT 9999 BKN025 17/12 Q1000",
      "tafRaw": "TAF LIBD 250500Z 2506/2606 15015G25KT 9999 SCT020 \n  TEMPO 2510/2515 4000 TSRA \n  BECMG 2512/2514 23012KT"
    },
    {
      "icao": "LICC",
      "iata": "CTA",
      "name": "Catania-Fontanarossa Airport",
      "lat": 37.466801,
      "lon": 15.0664,
      "updatedAt": "250920Z",
      "visibility_m": 6000,
      "taf_visibility_m": 4000,
      "worst_visibility_m": 4000,
      "ceiling_ft": null,
      "hazards": [
        "TSRA",
        "RA",
        "TS"
      ],
      "severityScore": 62,
      "metarRaw": "METAR LICC 250920Z 25009KT 6000 FEW025 SCT100 14/12 Q1003",
      "tafRaw": "TAF LICC 250500Z 2506/2606 VRB06KT 9999 SCT030 \n  BECMG 2506/2508 25012KT \n  TEMPO 2510/2514 4000 RA \n  TEMPO 2604/2606 4000 TSRA"
    },
    {
      "icao": "LIPQ",
      "iata": "TRS",
      "name": "Trieste–Friuli Venezia Giulia Airport",
      "lat": 45.827499,
      "lon": 13.4722,
      "updatedAt": "250920Z",
      "visibility_m": 10000,
      "taf_visibility_m": 3000,
      "worst_visibility_m": 3000,
      "ceiling_ft": 2000,
      "hazards": [
        "RA",
        "TSRA",
        "TS"
      ],
      "severityScore": 62,
      "metarRaw": "METAR LIPQ 250920Z AUTO 03004KT 010V070 9999 RA OVC048/// 09/08 Q0997",
      "tafRaw": "TAF LIPQ 250500Z 2506/2606 08007KT 6000 RA BKN020 \n  TEMPO 2506/2510 3000 TSRA \n  BECMG 2510/2512 21010KT NSW \n  BECMG 2515/2517 VRB05KT \n  TEMPO 2521/2606 RA"
    },
    {
      "icao": "LIRN",
      "iata": "NAP",
      "name": "Naples International Airport",
      "lat": 40.886002,
      "lon": 14.2908,
      "updatedAt": "250920Z",
      "visibility_m": 10000,
      "taf_visibility_m": 4000,
      "worst_visibility_m": 4000,
      "ceiling_ft": null,
      "hazards": [
        "TSRA",
        "RA",
        "TS"
      ],
      "severityScore": 62,
      "metarRaw": "METAR LIRN 250920Z 27009KT 9999 FEW010 SCT070 11/07 Q1002 NOSIG",
      "tafRaw": "TAF LIRN 250500Z 2506/2606 25012KT 9999 SCT030 \n  TEMPO 2506/2508 4000 TSRA \n  TEMPO 2508/2512 RA \n  BECMG 2509/2511 19010KT \n  TEMPO 2516/2522 TSRA \n  BECMG 2518/2520 25012KT \n  TEMPO 2601/2606 RA"
    },
    {
      "icao": "LIRP",
      "iata": "PSA",
      "name": "Pisa International Airport",
      "lat": 43.683899,
      "lon": 10.3927,
      "updatedAt": "250915Z",
      "visibility_m": 10000,
      "taf_visibility_m": 5000,
      "worst_visibility_m": 5000,
      "ceiling_ft": 3000,
      "hazards": [
        "TSRA",
        "RA",
        "TS"
      ],
      "severityScore": 62,
      "metarRaw": "METAR LIRP 250915Z 12010KT 9999 FEW040 SCT070 09/09 Q0999 NOSIG",
      "tafRaw": "TAF LIRP 250500Z 2506/2606 10008KT 9999 SCT020 BKN050 \n  BECMG 2511/2513 RA \n  TEMPO 2512/2515 5000 TSRA SCT018CB BKN030"
    },
    {
      "icao": "LIRZ",
      "iata": "PEG",
      "name": "Perugia San Francesco d'Assisi – Umbria International Airport",
      "lat": 43.095901,
      "lon": 12.5132,
      "updatedAt": "250920Z",
      "visibility_m": 10000,
      "taf_visibility_m": 4000,
      "worst_visibility_m": 4000,
      "ceiling_ft": 700,
      "hazards": [
        "DZ",
        "SHRA",
        "RA"
      ],
      "severityScore": 61,
      "metarRaw": "METAR LIRZ 250920Z AUTO 13011KT 9999 -DZ FEW006/// BKN049/// 07/06 Q1000",
      "tafRaw": "TAF LIRZ 250500Z 2506/2606 VRB05KT 9999 BKN030 \n  TEMPO 2506/2510 4000 SHRA BKN007 BKN030 \n  BECMG 2509/2511 17013KT \n  TEMPO 2516/2522 4000 SHRA \n  BECMG 2517/2519 VRB05KT"
    },
    {
      "icao": "EGBB",
      "iata": "BHX",
      "name": "Birmingham Airport",
      "lat": 52.453899,
      "lon": -1.74803,
      "updatedAt": "250920Z",
      "visibility_m": 10000,
      "taf_visibility_m": 5000,
      "worst_visibility_m": 5000,
      "ceiling_ft": 900,
      "hazards": [
        "BR",
        "RA",
        "DZ"
      ],
      "severityScore": 57,
      "metarRaw": "METAR EGBB 250920Z 11008KT 9999 VCSH BKN009 07/05 Q0992",
      "tafRaw": "TAF EGBB 250459Z 2506/2606 13010KT 9999 SCT008 BKN030 \n  TEMPO 2506/2519 6000 RA -RADZ BKN008 \n  BECMG 2514/2517 07008KT \n  TEMPO 2519/2606 BKN006 \n  PROB30 \n  TEMPO 2519/2606 BKN004 \n  PROB40 2520/2606 5000 BR"
    },
    {
      "icao": "EPKT",
      "iata": "KTW",
      "name": "Katowice Wojciech Korfanty International Airport",
      "lat": 50.476015,
      "lon": 19.080705,
      "updatedAt": "250930Z",
      "visibility_m": 6000,
      "taf_visibility_m": 2000,
      "worst_visibility_m": 2000,
      "ceiling_ft": 400,
      "hazards": [
        "BR",
        "RA"
      ],
      "severityScore": 57,
      "metarRaw": "METAR EPKT 250930Z 09007KT 6000 FEW036 02/01 Q1005",
      "tafRaw": "TAF EPKT 250530Z 2506/2606 09006KT 4000 BR BKN006 \n  BECMG 2506/2509 6000 BKN020 \n  TEMPO 2516/2602 2500 RA BR \n  BECMG 2602/2604 2000 BR BKN004"
    },
    {
      "icao": "LIPY",
      "iata": "AOI",
      "name": "Marche Airport",
      "lat": 43.616299,
      "lon": 13.3623,
      "updatedAt": "250920Z",
      "visibility_m": 10000,
      "taf_visibility_m": 2000,
      "worst_visibility_m": 2000,
      "ceiling_ft": 400,
      "hazards": [
        "RA",
        "BR"
      ],
      "severityScore": 57,
      "metarRaw": "METAR LIPY 250920Z AUTO 25006KT 9999 -RA OVC058/// 09/08 Q0999",
      "tafRaw": "TAF LIPY 242300Z 2500/2524 VRB05KT 2000 BR BKN010 \n  BECMG 2501/2503 RA BKN004 \n  BECMG 2507/2509 25010KT 7000 NSW SCT030 \n  BECMG 2512/2514 VRB05KT \n  TEMPO 2517/2524 4000 RA"
    },
    {
      "icao": "EDDK",
      "iata": "CGN",
      "name": "Cologne Bonn Airport",
      "lat": 50.865898,
      "lon": 7.14274,
      "updatedAt": "250920Z",
      "visibility_m": 10000,
      "taf_visibility_m": 2000,
      "worst_visibility_m": 2000,
      "ceiling_ft": 400,
      "hazards": [
        "SN"
      ],
      "severityScore": 53,
      "metarRaw": "METAR EDDK 250920Z AUTO 13007KT 110V170 CAVOK M01/M05 Q0999 NOSIG",
      "tafRaw": "TAF EDDK 250500Z 2506/2612 11006KT CAVOK \n  BECMG 2517/2519 VRB03KT \n  PROB30 \n  TEMPO 2523/2603 BKN007 \n  BECMG 2603/2606 30006KT OVC007 \n  PROB30 \n  TEMPO 2604/2612 2000 -SN BKN004"
    },
    {
      "icao": "EDDN",
      "iata": "NUE",
      "name": "Nuremberg Airport",
      "lat": 49.498699,
      "lon": 11.078056,
      "updatedAt": "250920Z",
      "visibility_m": 8000,
      "taf_visibility_m": 1500,
      "worst_visibility_m": 1500,
      "ceiling_ft": 900,
      "hazards": [
        "SN"
      ],
      "severityScore": 53,
      "metarRaw": "METAR EDDN 250920Z AUTO VRB02KT 8000 OVC009 M01/M04 Q0999 NOSIG",
      "tafRaw": "TAF EDDN 250500Z 2506/2606 VRB03KT 7000 BKN008 \n  BECMG 2510/2512 SCT007 BKN012 \n  BECMG 2517/2519 3000 -SN SCT003 BKN006 \n  TEMPO 2519/2606 1500 SN BKN003"
    },
    {
      "icao": "LZIB",
      "iata": "BTS",
      "name": "M. R. Štefánik Airport",
      "lat": 48.1702,
      "lon": 17.2127,
      "updatedAt": "250930Z",
      "visibility_m": 5000,
      "taf_visibility_m": null,
      "worst_visibility_m": 5000,
      "ceiling_ft": 700,
      "hazards": [
        "BR",
        "RA"
      ],
      "severityScore": 52,
      "metarRaw": "METAR LZIB 250930Z 04009KT 5000 -RA BR FEW006 BKN007 BKN016 03/02 Q1004 NOSIG",
      "tafRaw": null
    },
    {
      "icao": "LZTT",
      "iata": "TAT",
      "name": "Poprad-Tatry Airport",
      "lat": 49.073601,
      "lon": 20.2411,
      "updatedAt": "250930Z",
      "visibility_m": 10000,
      "taf_visibility_m": 1100,
      "worst_visibility_m": 1100,
      "ceiling_ft": 4300,
      "hazards": [
        "FG",
        "BR",
        "RA"
      ],
      "severityScore": 52,
      "metarRaw": "METAR LZTT 250930Z VRB02KT 9999 3000W PRFG FEW002 SCT023 BKN043 02/01 Q1007 NOSIG",
      "tafRaw": "TAF LZTT 250515Z 2506/2606 15006KT 5000 BR SCT005 BKN030 \n  TEMPO 2506/2509 1100 BCFG OVC002 \n  BECMG 2516/2518 1600 -RA BR BKN004 OVC010 \n  TEMPO 2521/2606 25005KT"
    },
    {
      "icao": "EBCI",
      "iata": "CRL",
      "name": "Brussels South Charleroi Airport",
      "lat": 50.461963,
      "lon": 4.459562,
      "updatedAt": "250920Z",
      "visibility_m": 3000,
      "taf_visibility_m": null,
      "worst_visibility_m": 3000,
      "ceiling_ft": 300,
      "hazards": [
        "BR"
      ],
      "severityScore": 50,
      "metarRaw": "METAR EBCI 250920Z 16010KT 3000 BR BKN003 01/00 Q0997 BECMG 6000 NSW BKN005",
      "tafRaw": null
    },
    {
      "icao": "EETN",
      "iata": "TLL",
      "name": "Lennart Meri Tallinn Airport",
      "lat": 59.413246,
      "lon": 24.83264,
      "updatedAt": "250920Z",
      "visibility_m": 10000,
      "taf_visibility_m": 1500,
      "worst_visibility_m": 1500,
      "ceiling_ft": 1200,
      "hazards": [
        "BR",
        "SN"
      ],
      "severityScore": 50,
      "metarRaw": "METAR EETN 250920Z 14005KT 110V170 CAVOK M15/M17 Q1021 NOSIG",
      "tafRaw": "TAF EETN 250530Z 2506/2606 13007KT 9999 FEW030 \n  PROB30 \n  TEMPO 2506/2508 1500 BR SCT002 \n  PROB40 \n  TEMPO 2600/2606 4000 SN BR BKN012"
    },
    {
      "icao": "ENTC",
      "iata": "TOS",
      "name": "Tromsø Airport, Langnes",
      "lat": 69.683296,
      "lon": 18.9189,
      "updatedAt": "250920Z",
      "visibility_m": 4000,
      "taf_visibility_m": 1000,
      "worst_visibility_m": 1000,
      "ceiling_ft": 1200,
      "hazards": [
        "SHSN",
        "SN"
      ],
      "severityScore": 50,
      "metarRaw": "METAR ENTC 250920Z 05005KT 5000 -SHSN VV015 M00/M01 Q1009 TEMPO 4000 -SHSN VV012 RMK WIND 2600FT 01020KT",
      "tafRaw": "TAF ENTC 250500Z 2506/2606 19012KT 7000 -SN SCT010 BKN020 \n  TEMPO 2506/2510 1200 SHSN BKN006 SCT015CB \n  BECMG 2506/2509 36009KT \n  TEMPO 2512/2606 1000 SHSN BKN009 FEW015CB"
    },
    {
      "icao": "LFLS",
      "iata": "GNB",
      "name": "Grenoble Alpes Isère Airport",
      "lat": 45.3629,
      "lon": 5.32937,
      "updatedAt": "250930Z",
      "visibility_m": 3800,
      "taf_visibility_m": null,
      "worst_visibility_m": 3800,
      "ceiling_ft": 300,
      "hazards": [
        "BR"
      ],
      "severityScore": 50,
      "metarRaw": "METAR LFLS 250930Z AUTO 08010KT 3800 BR BKN003 OVC082 03/03 Q0998 BECMG 9999 NSW SCT040",
      "tafRaw": null
    },
    {
      "icao": "LIME",
      "iata": "BGY",
      "name": "Milan Bergamo Airport / Antonio Locatelli Air Base",
      "lat": 45.670725,
      "lon": 9.709223,
      "updatedAt": "250920Z",
      "visibility_m": 3000,
      "taf_visibility_m": null,
      "worst_visibility_m": 3000,
      "ceiling_ft": 400,
      "hazards": [
        "BR"
      ],
      "severityScore": 50,
      "metarRaw": "METAR LIME 250920Z 28004KT 3000 BR BKN004 05/05 Q0999 NOSIG",
      "tafRaw": null
    },
    {
      "icao": "LRBS",
      "iata": "BBU",
      "name": "Bucharest Băneasa Aurel Vlaicu International Airport",
      "lat": 44.503133,
      "lon": 26.102944,
      "updatedAt": "250930Z",
      "visibility_m": 3000,
      "taf_visibility_m": null,
      "worst_visibility_m": 3000,
      "ceiling_ft": 200,
      "hazards": [
        "BR"
      ],
      "severityScore": 50,
      "metarRaw": "METAR LRBS 250930Z 22006KT 3000 BR BKN002 OVC004 00/M00 Q1016 NOSIG",
      "tafRaw": null
    },
    {
      "icao": "LROP",
      "iata": "OTP",
      "name": "Bucharest Henri Coandă International Airport",
      "lat": 44.571792,
      "lon": 26.103285,
      "updatedAt": "250930Z",
      "visibility_m": 3000,
      "taf_visibility_m": null,
      "worst_visibility_m": 3000,
      "ceiling_ft": 300,
      "hazards": [
        "BR"
      ],
      "severityScore": 50,
      "metarRaw": "METAR LROP 250930Z 23007KT 3000 BR OVC003 00/00 Q1016 NOSIG",
      "tafRaw": null
    },
    {
      "icao": "LIPZ",
      "iata": "VCE",
      "name": "Venice Marco Polo Airport",
      "lat": 45.505299,
      "lon": 12.3519,
      "updatedAt": "250920Z",
      "visibility_m": 8000,
      "taf_visibility_m": 4000,
      "worst_visibility_m": 4000,
      "ceiling_ft": 500,
      "hazards": [
        "RA",
        "BR"
      ],
      "severityScore": 47,
      "metarRaw": "METAR LIPZ 250920Z 28005KT 240V340 8000 -RA BKN005 08/07 Q0998 NOSIG",
      "tafRaw": "TAF LIPZ 250500Z 2506/2612 04008KT 4000 RA BKN004 \n  BECMG 2510/2512 26010KT 7000 NSW SCT010 \n  BECMG 2515/2517 VRB05KT \n  TEMPO 2520/2608 4000 -RA BR BKN004"
    },
    {
      "icao": "LPPR",
      "iata": "OPO",
      "name": "Francisco de Sá Carneiro Airport",
      "lat": 41.2481002808,
      "lon": -8.68138980865,
      "updatedAt": "250930Z",
      "visibility_m": 8000,
      "taf_visibility_m": 3000,
      "worst_visibility_m": 3000,
      "ceiling_ft": 4800,
      "hazards": [
        "BR",
        "SHRA",
        "RA",
        "DZ"
      ],
      "severityScore": 46,
      "metarRaw": "METAR LPPR 250930Z 29007KT 240V330 8000 FEW018 SCT025 BKN048 13/09 Q1012",
      "tafRaw": "TAF LPPR 250500Z 2506/2606 27012KT 9999 SCT020 \n  TEMPO 2506/2516 27015G25KT 8000 SHRA SCT015 FEW018CB BKN025 \n  BECMG 2516/2518 21007KT \n  BECMG 2522/2524 6000 -RADZ SCT002 BKN004 \n  TEMPO 2600/2606 18015G25KT 3000 RADZ BR BKN002"
    },
    {
      "icao": "LPFR",
      "iata": "FAO",
      "name": "Faro - Gago Coutinho International Airport",
      "lat": 37.015909,
      "lon": -7.970939,
      "updatedAt": "250930Z",
      "visibility_m": 9000,
      "taf_visibility_m": 4000,
      "worst_visibility_m": 4000,
      "ceiling_ft": 1200,
      "hazards": [
        "BR",
        "RA",
        "DZ"
      ],
      "severityScore": 44,
      "metarRaw": "METAR LPFR 250930Z 26014KT 9000 VCSH FEW010 SCT035 14/11 Q1019",
      "tafRaw": "TAF LPFR 250500Z 2506/2606 26015KT 9999 SCT015 BKN030 \n  TEMPO 2506/2606 26020G30KT 4000 -RADZ BR SCT006 BKN012"
    },
    {
      "icao": "EYVI",
      "iata": "VNO",
      "name": "Vilnius International Airport",
      "lat": 54.634102,
      "lon": 25.285801,
      "updatedAt": "250920Z",
      "visibility_m": 10000,
      "taf_visibility_m": 3000,
      "worst_visibility_m": 3000,
      "ceiling_ft": 500,
      "hazards": [
        "SN"
      ],
      "severityScore": 43,
      "metarRaw": "METAR EYVI 250920Z 14010KT 9999 FEW044 M10/M14 Q1018 NOSIG",
      "tafRaw": "TAF EYVI 250500Z 2506/2606 12012KT 9000 OVC035 \n  TEMPO 2506/2512 5000 -SN SCT010 \n  BECMG 2518/2520 OVC010 \n  TEMPO 2521/2603 3000 SN BKN005"
    },
    {
      "icao": "EDSB",
      "iata": "FKB",
      "name": "Karlsruhe Baden-Baden Airport",
      "lat": 48.7794,
      "lon": 8.0805,
      "updatedAt": "250920Z",
      "visibility_m": 4300,
      "taf_visibility_m": null,
      "worst_visibility_m": 4300,
      "ceiling_ft": 700,
      "hazards": [
        "BR"
      ],
      "severityScore": 40,
      "metarRaw": "METAR EDSB 250920Z 03005KT 4300 BR OVC007 M01/M02 Q0999",
      "tafRaw": null
    },
    {
      "icao": "EPSY",
      "iata": "SZY",
      "name": "Olsztyn-Mazury Airport",
      "lat": 53.481899,
      "lon": 20.9377,
      "updatedAt": "250930Z",
      "visibility_m": 10000,
      "taf_visibility_m": 4000,
      "worst_visibility_m": 4000,
      "ceiling_ft": 1300,
      "hazards": [
        "BR",
        "SN"
      ],
      "severityScore": 40,
      "metarRaw": "METAR EPSY 250930Z 11006KT 030V150 9999 OVC013 M07/M10 Q1012",
      "tafRaw": "TAF EPSY 250830Z 2509/2518 10010KT 8000 BKN012 \n  TEMPO 2511/2518 4000 -SN BR BKN008"
    },
    {
      "icao": "LIPE",
      "iata": "BLQ",
      "name": "Bologna Guglielmo Marconi Airport",
      "lat": 44.5354,
      "lon": 11.2887,
      "updatedAt": "250920Z",
      "visibility_m": 2000,
      "taf_visibility_m": null,
      "worst_visibility_m": 2000,
      "ceiling_ft": 500,
      "hazards": [
        "BR"
      ],
      "severityScore": 40,
      "metarRaw": "METAR LIPE 250920Z 28007KT 250V310 2000 BR OVC005 05/05 Q1000",
      "tafRaw": null
    },
    {
      "icao": "LTAC",
      "iata": "ESB",
      "name": "Esenboğa International Airport",
      "lat": 40.128101,
      "lon": 32.995098,
      "updatedAt": "250920Z",
      "visibility_m": 8000,
      "taf_visibility_m": 1200,
      "worst_visibility_m": 1200,
      "ceiling_ft": 4000,
      "hazards": [
        "BR",
        "FG"
      ],
      "severityScore": 40,
      "metarRaw": "METAR LTAC 250920Z VRB02KT 8000 FEW005 BKN040 07/05 Q1020 NOSIG",
      "tafRaw": "TAF LTAC 250440Z 2506/2606 VRB02KT 1200 BCFG BKN001 \n  BECMG 2506/2508 4000 BR SCT040 BKN100 \n  BECMG 2508/2510 9999 NSW \n  BECMG 2517/2520 4000 BR \n  PROB30 2602/2606 1200 BCFG BKN010"
    },
    {
      "icao": "EGGP",
      "iata": "LPL",
      "name": "Liverpool John Lennon Airport",
      "lat": 53.334863,
      "lon": -2.849637,
      "updatedAt": "250920Z",
      "visibility_m": 10000,
      "taf_visibility_m": 6000,
      "worst_visibility_m": 6000,
      "ceiling_ft": 800,
      "hazards": [
        "RA"
      ],
      "severityScore": 37,
      "metarRaw": "METAR EGGP 250920Z 09011KT 9999 VCSH SCT025 SCT046 06/05 Q0991",
      "tafRaw": "TAF EGGP 250458Z 2506/2606 12010KT 9999 OVC030 \n  TEMPO 2506/2521 BKN014 \n  PROB30 \n  TEMPO 2506/2521 8000 -RA BKN008 \n  TEMPO 2521/2606 6000"
    },
    {
      "icao": "LEZL",
      "iata": "SVQ",
      "name": "Sevilla Airport",
      "lat": 37.417999,
      "lon": -5.89311,
      "updatedAt": "250930Z",
      "visibility_m": 10000,
      "taf_visibility_m": 4000,
      "worst_visibility_m": 4000,
      "ceiling_ft": 800,
      "hazards": [
        "DZ"
      ],
      "severityScore": 35,
      "metarRaw": "METAR LEZL 250930Z 25011KT 9999 FEW032 14/12 Q1018 NOSIG",
      "tafRaw": "TAF LEZL 250800Z 2509/2609 24010KT CAVOK TX18/2515Z TN13/2607Z \n  PROB40 \n  TEMPO 2509/2511 4000 DZ BKN012 \n  TEMPO 2519/2524 4000 DZ BKN008"
    },
    {
      "icao": "EGPD",
      "iata": "ABZ",
      "name": "Aberdeen International Airport",
      "lat": 57.2019,
      "lon": -2.19778,
      "updatedAt": "250920Z",
      "visibility_m": 10000,
      "taf_visibility_m": 4000,
      "worst_visibility_m": 4000,
      "ceiling_ft": 1200,
      "hazards": [
        "RA",
        "DZ"
      ],
      "severityScore": 34,
      "metarRaw": "METAR EGPD 250920Z AUTO 11012KT 9999 BKN017 BKN024 BKN029 06/03 Q1001 TEMPO BKN012",
      "tafRaw": "TAF EGPD 250500Z 2506/2606 11012KT 9999 SCT014 BKN025 \n  TEMPO 2506/2606 6000 RA -RADZ BKN014 \n  TEMPO 2506/2514 12015G25KT \n  PROB30 \n  TEMPO 2506/2606 4000 RADZ \n  PROB30 \n  TEMPO 2514/2520 10015G25KT"
    },
    {
      "icao": "EGPF",
      "iata": "GLA",
      "name": "Glasgow Airport",
      "lat": 55.871899,
      "lon": -4.43306,
      "updatedAt": "250920Z",
      "visibility_m": 8000,
      "taf_visibility_m": 4000,
      "worst_visibility_m": 4000,
      "ceiling_ft": 1900,
      "hazards": [
        "RA",
        "DZ"
      ],
      "severityScore": 34,
      "metarRaw": "METAR EGPF 250920Z AUTO 07015KT 8000 -RA BKN019 OVC025 06/04 Q0995",
      "tafRaw": "TAF EGPF 250456Z 2506/2606 08018G28KT 9999 SCT016 BKN030 \n  BECMG 2506/2509 10012KT \n  TEMPO 2506/2510 6000 RA \n  PROB30 \n  TEMPO 2506/2510 4000 RADZ BKN014 \n  PROB30 \n  TEMPO 2508/2516 09015G25KT \n  TEMPO 2510/2521 8000 -RA \n  PROB30 \n  TEMPO 2510/2521 BKN014 \n  PROB30 \n  TEMPO 2521/2606 8000 -RADZ BKN014"
    },
    {
      "icao": "LRTR",
      "iata": "TSR",
      "name": "Timişoara Traian Vuia Airport",
      "lat": 45.809898,
      "lon": 21.3379,
      "updatedAt": "250930Z",
      "visibility_m": 10000,
      "taf_visibility_m": 5000,
      "worst_visibility_m": 5000,
      "ceiling_ft": 1000,
      "hazards": [
        "BR",
        "RA"
      ],
      "severityScore": 34,
      "metarRaw": "METAR LRTR 250930Z 10012KT CAVOK 07/03 Q1008",
      "tafRaw": "TAF LRTR 250500Z 2506/2606 10010KT 9999 BKN045 \n  TEMPO 2510/2514 5000 -RA BR BKN010 OVC030 \n  BECMG 2520/2522 17014KT \n  PROB40 \n  TEMPO 2602/2606 5000 -RA BR"
    },
    {
      "icao": "LWSK",
      "iata": "SKP",
      "name": "Skopje International Airport",
      "lat": 41.958087,
      "lon": 21.622581,
      "updatedAt": null,
      "visibility_m": null,
      "taf_visibility_m": 5000,
      "worst_visibility_m": 5000,
      "ceiling_ft": 1500,
      "hazards": [
        "BR",
        "RA"
      ],
      "severityScore": 34,
      "metarRaw": null,
      "tafRaw": "TAF LWSK 250830Z 2509/2609 VRB02KT 5000 BR OVC015 \n  BECMG 2511/2513 16012KT 9999 SCT020 BKN050 \n  TEMPO 2514/2521 16015G25KT \n  BECMG 2600/2602 5000 RA BKN015 OVC040"
    },
    {
      "icao": "LIMF",
      "iata": "TRN",
      "name": "Turin Airport",
      "lat": 45.200802,
      "lon": 7.64963,
      "updatedAt": "250920Z",
      "visibility_m": 5000,
      "taf_visibility_m": 1200,
      "worst_visibility_m": 1200,
      "ceiling_ft": 4000,
      "hazards": [
        "BR",
        "RA"
      ],
      "severityScore": 32,
      "metarRaw": "METAR LIMF 250920Z 20003KT 5000 BR SCT015 BKN040 05/03 Q0999",
      "tafRaw": "TAF LIMF 250500Z 2506/2606 VRB03KT 4000 RA SCT020 BKN040 \n  BECMG 2506/2508 6000 NSW \n  TEMPO 2521/2606 1200 BR BKN010"
    },
    {
      "icao": "EDDS",
      "iata": "STR",
      "name": "Stuttgart Airport",
      "lat": 48.689899,
      "lon": 9.22196,
      "updatedAt": "250920Z",
      "visibility_m": 7000,
      "taf_visibility_m": null,
      "worst_visibility_m": 7000,
      "ceiling_ft": 900,
      "hazards": [],
      "severityScore": 30,
      "metarRaw": "METAR EDDS 250920Z AUTO VRB02KT 7000 OVC009 M02/M04 Q0997 TEMPO OVC010",
      "tafRaw": null
    },
    {
      "icao": "EFTU",
      "iata": "TKU",
      "name": "Turku Airport",
      "lat": 60.514099,
      "lon": 22.2628,
      "updatedAt": "250920Z",
      "visibility_m": 10000,
      "taf_visibility_m": 3000,
      "worst_visibility_m": 3000,
      "ceiling_ft": 1200,
      "hazards": [
        "SN"
      ],
      "severityScore": 30,
      "metarRaw": "METAR EFTU 250920Z AUTO 10005KT 9999 -SN OVC012 M09/M10 Q1020",
      "tafRaw": "TAF EFTU 250838Z 2509/2609 13004KT 9999 -SN OVC015 \n  TEMPO 2509/2524 BKN009 \n  PROB40 \n  TEMPO 2516/2524 3000 \n  TEMPO 2600/2606 BKN012"
    },
    {
      "icao": "EKCH",
      "iata": "CPH",
      "name": "Copenhagen Kastrup Airport",
      "lat": 55.617900848389,
      "lon": 12.656000137329,
      "updatedAt": "250920Z",
      "visibility_m": 10000,
      "taf_visibility_m": null,
      "worst_visibility_m": 10000,
      "ceiling_ft": 700,
      "hazards": [],
      "severityScore": 30,
      "metarRaw": "METAR EKCH 250920Z 10009KT 9999 OVC007 00/M01 Q1010 NOSIG",
      "tafRaw": null
    },
    {
      "icao": "ENTO",
      "iata": "TRF",
      "name": "Sandefjord Airport, Torp",
      "lat": 59.186699,
      "lon": 10.2586,
      "updatedAt": "250920Z",
      "visibility_m": 4000,
      "taf_visibility_m": 2500,
      "worst_visibility_m": 2500,
      "ceiling_ft": 1400,
      "hazards": [
        "SN"
      ],
      "severityScore": 30,
      "metarRaw": "METAR ENTO 250920Z 03005KT 6000 -SN BKN021 M04/M06 Q1015 TEMPO 4000 BKN014",
      "tafRaw": "TAF ENTO 250500Z 2506/2606 02008KT 9999 -SN FEW012 BKN040 \n  TEMPO 2506/2512 2500 BKN012"
    },
    {
      "icao": "LFSB",
      "iata": "BSL",
      "name": "EuroAirport Basel–Mulhouse–Freiburg",
      "lat": 47.60068,
      "lon": 7.521117,
      "updatedAt": "250930Z",
      "visibility_m": 7000,
      "taf_visibility_m": null,
      "worst_visibility_m": 7000,
      "ceiling_ft": 600,
      "hazards": [],
      "severityScore": 30,
      "metarRaw": "METAR LFSB 250930Z AUTO VRB02KT 7000 OVC006 02/01 Q0998 BECMG FEW008 BKN030",
      "tafRaw": null
    },
    {
      "icao": "EDDB",
      "iata": "BER",
      "name": "Berlin Brandenburg Willy Brandt Airport",
      "lat": 52.361738,
      "lon": 13.502341,
      "updatedAt": "250920Z",
      "visibility_m": 4400,
      "taf_visibility_m": null,
      "worst_visibility_m": 4400,
      "ceiling_ft": 1200,
      "hazards": [
        "BR"
      ],
      "severityScore": 27,
      "metarRaw": "METAR EDDB 250920Z AUTO 08009KT 4400 BR OVC012 M02/M05 Q1005 NOSIG",
      "tafRaw": null
    },
    {
      "icao": "LEBL",
      "iata": "BCN",
      "name": "Josep Tarradellas Barcelona-El Prat Airport",
      "lat": 41.2971,
      "lon": 2.07846,
      "updatedAt": "250930Z",
      "visibility_m": 10000,
      "taf_visibility_m": 4000,
      "worst_visibility_m": 4000,
      "ceiling_ft": 3000,
      "hazards": [
        "SHRA",
        "RA"
      ],
      "severityScore": 26,
      "metarRaw": "METAR LEBL 250930Z 29006KT 250V330 CAVOK 11/03 Q1004 NOSIG",
      "tafRaw": "TAF LEBL 250500Z 2506/2606 31012KT 9999 FEW020 TX16/2512Z TN08/2506Z \n  BECMG 2507/2510 26012KT \n  TEMPO 2514/2516 25015G25KT \n  PROB40 \n  TEMPO 2516/2519 4000 SHRA FEW020TCU BKN030 \n  BECMG 2521/2523 31020KT \n  TEMPO 2522/2606 31025G35KT"
    },
    {
      "icao": "LIMJ",
      "iata": "GOA",
      "name": "Genoa Cristoforo Colombo Airport",
      "lat": 44.412039,
      "lon": 8.840732,
      "updatedAt": "250920Z",
      "visibility_m": 10000,
      "taf_visibility_m": 4000,
      "worst_visibility_m": 4000,
      "ceiling_ft": null,
      "hazards": [
        "SHRA",
        "RA"
      ],
      "severityScore": 26,
      "metarRaw": "METAR LIMJ 250920Z 04015KT 9999 SCT080 07/02 Q0999",
      "tafRaw": "TAF LIMJ 250500Z 2506/2606 03012KT 9999 SCT040 \n  BECMG 2511/2513 16008KT \n  TEMPO 2518/2602 4000 SHRA \n  BECMG 2600/2602 03010KT"
    },
    {
      "icao": "OMAA",
      "iata": "AUH",
      "name": "Zayed International Airport",
      "lat": 24.440966,
      "lon": 54.649237,
      "updatedAt": "250930Z",
      "visibility_m": 10000,
      "taf_visibility_m": 3000,
      "worst_visibility_m": 3000,
      "ceiling_ft": null,
      "hazards": [
        "SHRA",
        "RA"
      ],
      "severityScore": 26,
      "metarRaw": "METAR OMAA 250930Z 16013KT 130V190 9999 FEW030 24/10 Q1014 NOSIG",
      "tafRaw": "TAF OMAA 250500Z 2506/2612 16010KT 8000 FEW045 \n  PROB30 \n  TEMPO 2506/2510 16015G25KT 3000 BLDU \n  PROB30 \n  TEMPO 2510/2519 VRB18G28KT 3000 SHRA BLDU FEW030TCU \n  BECMG 2518/2520 31015KT"
    },
    {
      "icao": "OMDB",
      "iata": "DXB",
      "name": "Dubai International Airport",
      "lat": 25.2527999878,
      "lon": 55.3643989563,
      "updatedAt": "250930Z",
      "visibility_m": 10000,
      "taf_visibility_m": 4000,
      "worst_visibility_m": 4000,
      "ceiling_ft": null,
      "hazards": [
        "SHRA",
        "RA"
      ],
      "severityScore": 26,
      "metarRaw": "METAR OMDB 250930Z 17009KT CAVOK 23/14 Q1015 NOSIG",
      "tafRaw": "TAF OMDB 250500Z 2506/2612 16012KT 8000 NSC \n  PROB30 \n  TEMPO 2506/2606 VRB17G27KT 4000 SHRA BLDU FEW035TCU \n  BECMG 2512/2514 35010KT \n  BECMG 2515/2517 VRB02KT \n  BECMG 2600/2602 29010KT"
    },
    {
      "icao": "GCTS",
      "iata": "TFS",
      "name": "Tenerife Sur Airport",
      "lat": 28.0445,
      "lon": -16.5725,
      "updatedAt": "250930Z",
      "visibility_m": 10000,
      "taf_visibility_m": 10000,
      "worst_visibility_m": 10000,
      "ceiling_ft": null,
      "hazards": [
        "TS"
      ],
      "severityScore": 25,
      "metarRaw": "METAR GCTS 250930Z 06006KT 9999 SCT040 18/08 Q1029 NOSIG",
      "tafRaw": "TAF GCTS 250800Z 2509/2609 09010KT 9999 FEW040 TX22/2514Z TN15/2606Z \n  TEMPO 2509/2511 02007KT \n  BECMG 2520/2522 01007KT"
    },
    {
      "icao": "ESMS",
      "iata": "MMX",
      "name": "Malmö Sturup Airport",
      "lat": 55.535564,
      "lon": 13.376327,
      "updatedAt": "250920Z",
      "visibility_m": 9000,
      "taf_visibility_m": 6000,
      "worst_visibility_m": 6000,
      "ceiling_ft": 800,
      "hazards": [],
      "severityScore": 25,
      "metarRaw": "METAR ESMS 250920Z 10012KT 9000 OVC008 M00/M02 Q1010",
      "tafRaw": "TAF ESMS 250827Z 2509/2609 10013KT 6000 OVC008 \n  TEMPO 2509/2605 OVC012 \n  BECMG 2603/2605 07020G30KT \n  TEMPO 2605/2609 06018KT BKN012"
    },
    {
      "icao": "LWOH",
      "iata": "OHD",
      "name": "Ohrid St. Paul the Apostle Airport",
      "lat": 41.18,
      "lon": 20.7423,
      "updatedAt": null,
      "visibility_m": null,
      "taf_visibility_m": 5000,
      "worst_visibility_m": 5000,
      "ceiling_ft": 1000,
      "hazards": [
        "RA"
      ],
      "severityScore": 24,
      "metarRaw": null,
      "tafRaw": "TAF LWOH 250830Z 2509/2609 VRB02KT 9999 SCT030 BKN090 \n  BECMG 2509/2511 16010KT SCT040 SCT090 \n  BECMG 2523/2601 5000 RA BKN010 OVC030"
    },
    {
      "icao": "EGKK",
      "iata": "LGW",
      "name": "London Gatwick Airport",
      "lat": 51.148771,
      "lon": -0.192089,
      "updatedAt": "250920Z",
      "visibility_m": 10000,
      "taf_visibility_m": 4000,
      "worst_visibility_m": 4000,
      "ceiling_ft": 3900,
      "hazards": [
        "RA",
        "DZ"
      ],
      "severityScore": 22,
      "metarRaw": "METAR EGKK 250920Z 10005KT 9999 SCT013 BKN039 07/07 Q0992",
      "tafRaw": "TAF EGKK 250502Z 2506/2612 14010KT 9999 FEW008 SCT020 \n  TEMPO 2506/2510 7000 -RA BKN007 \n  PROB40 \n  TEMPO 2510/2521 6000 -RADZ BKN012 \n  BECMG 2512/2515 07005KT \n  PROB30 \n  TEMPO 2521/2612 4000 HZ -RADZ BKN006"
    },
    {
      "icao": "EHEH",
      "iata": "EIN",
      "name": "Eindhoven Airport",
      "lat": 51.4500999451,
      "lon": 5.37452983856,
      "updatedAt": null,
      "visibility_m": null,
      "taf_visibility_m": 3000,
      "worst_visibility_m": 3000,
      "ceiling_ft": 1200,
      "hazards": [
        "BR"
      ],
      "severityScore": 22,
      "metarRaw": null,
      "tafRaw": "TAF EHEH 250520Z 2506/2612 10005KT 6000 HZ NSC \n  BECMG 2601/2604 01003KT 3000 BR SCT008 BKN012"
    },
    {
      "icao": "LATI",
      "iata": "TIA",
      "name": "Tirana International Airport Mother Teresa",
      "lat": 41.4147,
      "lon": 19.7206,
      "updatedAt": "250920Z",
      "visibility_m": 10000,
      "taf_visibility_m": 4000,
      "worst_visibility_m": 4000,
      "ceiling_ft": 13000,
      "hazards": [
        "BR",
        "RA"
      ],
      "severityScore": 22,
      "metarRaw": "METAR LATI 250920Z 06003KT 030V120 9999 OVC130 12/07 Q1008 NOSIG",
      "tafRaw": "TAF LATI 250500Z 2506/2606 17008KT 9999 BKN080 TX18/2512Z TN06/2604Z \n  TEMPO 2511/2523 16016KT \n  PROB40 \n  TEMPO 2516/2521 16013G25KT \n  TEMPO 2523/2606 24013KT 4000 RA BR SCT015 OVC025"
    },
    {
      "icao": "LIPH",
      "iata": "TSF",
      "name": "Treviso Antonio Canova Airport",
      "lat": 45.648399,
      "lon": 12.1944,
      "updatedAt": "250920Z",
      "visibility_m": 10000,
      "taf_visibility_m": 4000,
      "worst_visibility_m": 4000,
      "ceiling_ft": 2000,
      "hazards": [
        "BR",
        "RA"
      ],
      "severityScore": 22,
      "metarRaw": "METAR LIPH 250920Z 26003KT 9999 BKN020 07/07 Q0997",
      "tafRaw": "TAF LIPH 250500Z 2506/2606 VRB05KT 4000 RA BKN010 \n  BECMG 2511/2513 7000 NSW SCT020 \n  TEMPO 2520/2606 4000 -RA BR BKN006"
    },
    {
      "icao": "LRSB",
      "iata": "SBZ",
      "name": "Sibiu International Airport",
      "lat": 45.785841,
      "lon": 24.086666,
      "updatedAt": "250930Z",
      "visibility_m": 10000,
      "taf_visibility_m": 3000,
      "worst_visibility_m": 3000,
      "ceiling_ft": null,
      "hazards": [
        "BR",
        "RA"
      ],
      "severityScore": 22,
      "metarRaw": "METAR LRSB 250930Z 28002KT CAVOK 05/01 Q1010",
      "tafRaw": "TAF LRSB 250500Z 2506/2606 VRB04KT 9999 SCT055 \n  PROB40 \n  TEMPO 2506/2508 3000 BR \n  TEMPO 2512/2515 13010KT \n  BECMG 2515/2517 13012KT \n  PROB40 \n  TEMPO 2603/2606 5000 -RA"
    },
    {
      "icao": "LRSM",
      "iata": "SUJ",
      "name": "Satu Mare International Airport",
      "lat": 47.7033,
      "lon": 22.8857,
      "updatedAt": "250930Z",
      "visibility_m": 10000,
      "taf_visibility_m": 5000,
      "worst_visibility_m": 5000,
      "ceiling_ft": 3500,
      "hazards": [
        "BR",
        "RA"
      ],
      "severityScore": 22,
      "metarRaw": "METAR LRSM 250930Z 14004KT CAVOK 07/02 Q1010",
      "tafRaw": "TAF LRSM 250800Z 2509/2518 12006KT 9999 BKN035 \n  BECMG 2512/2514 5000 -RA BR"
    },
    {
      "icao": "UGKO",
      "iata": "KUT",
      "name": "David the Builder Kutaisi International Airport",
      "lat": 42.177448,
      "lon": 42.485353,
      "updatedAt": "250930Z",
      "visibility_m": 10000,
      "taf_visibility_m": 5000,
      "worst_visibility_m": 5000,
      "ceiling_ft": 5000,
      "hazards": [
        "BR",
        "RA"
      ],
      "severityScore": 22,
      "metarRaw": "METAR UGKO 250930Z 08004KT 9999 SCT023 OVC050 07/06 Q1021 NOSIG",
      "tafRaw": "TAF UGKO 250500Z 2506/2606 09007KT 9999 BKN080 TX09/2511Z TN03/2604Z \n  TEMPO 2506/2510 5000 RA BR SCT025 OVC050 \n  TEMPO 2602/2606 CAVOK"
    },
    {
      "icao": "UAAA",
      "iata": "ALA",
      "name": "Almaty International Airport",
      "lat": 43.354267,
      "lon": 77.042828,
      "updatedAt": "250930Z",
      "visibility_m": 4100,
      "taf_visibility_m": 1500,
      "worst_visibility_m": 1500,
      "ceiling_ft": 10000,
      "hazards": [
        "BR"
      ],
      "severityScore": 20,
      "metarRaw": "METAR UAAA 250930Z 04002MPS 4100 FU BKN100 OVC200 M00/M06 Q1021 NOSIG",
      "tafRaw": "TAF UAAA 250505Z 2506/2606 26003MPS 9999 SCT050 BKN100 TXM01/2508Z TNM07/2602Z \n  TEMPO 2506/2509 4000 BR FU \n  FM251200 17002MPS 4000 BR FU BKN030 OVC100 \n  TEMPO 2512/2524 1500 \n  FM260500 02003MPS 6000 BKN030 OVC100"
    },
    {
      "icao": "ENGM",
      "iata": "OSL",
      "name": "Oslo-Gardermoen International Airport",
      "lat": 60.193901,
      "lon": 11.1004,
      "updatedAt": "250920Z",
      "visibility_m": 10000,
      "taf_visibility_m": 10000,
      "worst_visibility_m": 10000,
      "ceiling_ft": 4700,
      "hazards": [
        "SN"
      ],
      "severityScore": 18,
      "metarRaw": "METAR ENGM 250920Z 01004KT 9999 -SN OVC047 M07/M09 Q1016 NOSIG",
      "tafRaw": "TAF ENGM 250500Z 2506/2606 36005KT 9999 -SN FEW020 BKN040"
    },
    {
      "icao": "ESGG",
      "iata": "GOT",
      "name": "Göteborg Landvetter Airport",
      "lat": 57.6628,
      "lon": 12.2798,
      "updatedAt": "250920Z",
      "visibility_m": 10000,
      "taf_visibility_m": 10000,
      "worst_visibility_m": 10000,
      "ceiling_ft": 3300,
      "hazards": [
        "SN"
      ],
      "severityScore": 18,
      "metarRaw": "METAR ESGG 250920Z 10008KT 9999 -SN SCT023 BKN033 M04/M07 Q1012",
      "tafRaw": "TAF ESGG 250830Z 2509/2609 09008KT 9999 -SN -SG OVC030"
    },
    {
      "icao": "ESKN",
      "iata": "NYO",
      "name": "Stockholm Skavsta Airport",
      "lat": 58.789656,
      "lon": 16.911479,
      "updatedAt": "250920Z",
      "visibility_m": 3800,
      "taf_visibility_m": 4000,
      "worst_visibility_m": 3800,
      "ceiling_ft": 3500,
      "hazards": [
        "SN"
      ],
      "severityScore": 18,
      "metarRaw": "METAR ESKN 250920Z 09008KT 3800 SN BKN035 M04/M07 Q1016",
      "tafRaw": "TAF ESKN 250830Z 2509/2609 10010KT 9999 -SN BKN030 \n  PROB40 2509/2523 4000 VV014 \n  BECMG 2518/2520 02010KT"
    },
    {
      "icao": "ESSA",
      "iata": "ARN",
      "name": "Stockholm-Arlanda Airport",
      "lat": 59.64849,
      "lon": 17.928829,
      "updatedAt": "250920Z",
      "visibility_m": 4500,
      "taf_visibility_m": 4000,
      "worst_visibility_m": 4000,
      "ceiling_ft": 3300,
      "hazards": [
        "SN"
      ],
      "severityScore": 18,
      "metarRaw": "METAR ESSA 250920Z 07008KT 8000 -SN BKN033 M05/M07 Q1017 TEMPO 4500",
      "tafRaw": "TAF ESSA 250830Z 2509/2609 07009KT 9999 -SN BKN035 \n  PROB40 2509/2518 4000 VV014"
    },
    {
      "icao": "EPSC",
      "iata": "SZZ",
      "name": "Solidarity Szczecin–Goleniów Airport",
      "lat": 53.584702,
      "lon": 14.9022,
      "updatedAt": "250930Z",
      "visibility_m": 8000,
      "taf_visibility_m": null,
      "worst_visibility_m": 8000,
      "ceiling_ft": 1300,
      "hazards": [],
      "severityScore": 17,
      "metarRaw": "METAR EPSC 250930Z 08007KT 040V100 8000 OVC013 M03/M06 Q1008",
      "tafRaw": null
    },
    {
      "icao": "LFPO",
      "iata": "ORY",
      "name": "Paris-Orly Airport",
      "lat": 48.72333,
      "lon": 2.37944,
      "updatedAt": "250930Z",
      "visibility_m": 10000,
      "taf_visibility_m": null,
      "worst_visibility_m": 10000,
      "ceiling_ft": 1100,
      "hazards": [],
      "severityScore": 17,
      "metarRaw": "METAR LFPO 250930Z 16006KT 130V200 9999 BKN011 06/04 Q0994 NOSIG",
      "tafRaw": null
    },
    {
      "icao": "EDFH",
      "iata": "HHN",
      "name": "Frankfurt-Hahn Airport",
      "lat": 49.946353,
      "lon": 7.261734,
      "updatedAt": "250920Z",
      "visibility_m": 2700,
      "taf_visibility_m": null,
      "worst_visibility_m": 2700,
      "ceiling_ft": null,
      "hazards": [
        "BR"
      ],
      "severityScore": 15,
      "metarRaw": "METAR EDFH 250920Z 14017KT 2700 BR SCT002 M05/M06 Q0997",
      "tafRaw": null
    },
    {
      "icao": "EPRZ",
      "iata": "RZE",
      "name": "Rzeszów-Jasionka Airport",
      "lat": 50.109791,
      "lon": 22.024155,
      "updatedAt": "250930Z",
      "visibility_m": 5000,
      "taf_visibility_m": null,
      "worst_visibility_m": 5000,
      "ceiling_ft": 4800,
      "hazards": [
        "BR"
      ],
      "severityScore": 15,
      "metarRaw": "METAR EPRZ 250930Z 08013KT 5000 BR FEW007 BKN048 M01/M02 Q1009",
      "tafRaw": null
    },
    {
      "icao": "LQSA",
      "iata": "SJJ",
      "name": "Sarajevo International Airport",
      "lat": 43.8246,
      "lon": 18.331499,
      "updatedAt": "250930Z",
      "visibility_m": 10000,
      "taf_visibility_m": null,
      "worst_visibility_m": 10000,
      "ceiling_ft": 4500,
      "hazards": [
        "DZ"
      ],
      "severityScore": 15,
      "metarRaw": "METAR LQSA 250930Z 11018G30KT 9999 DZ BKN045 10/04 Q1003 NOSIG",
      "tafRaw": null
    },
    {
      "icao": "GMMN",
      "iata": "CMN",
      "name": "Mohammed V International Airport",
      "lat": 33.3675,
      "lon": -7.58997,
      "updatedAt": "250930Z",
      "visibility_m": 10000,
      "taf_visibility_m": 8000,
      "worst_visibility_m": 8000,
      "ceiling_ft": 1600,
      "hazards": [],
      "severityScore": 12,
      "metarRaw": "METAR GMMN 250930Z 20011KT 9999 SCT023 11/09 Q1026 NOSIG",
      "tafRaw": "TAF GMMN 250500Z 2506/2612 20004KT 8000 FEW016TCU SCT030 \n  BECMG 2512/2515 22016KT BKN016 SCT200 \n  BECMG 2519/2521 28010KT SCT016 BKN200"
    },
    {
      "icao": "LGAV",
      "iata": "ATH",
      "name": "Athens Eleftherios Venizelos International Airport",
      "lat": 37.936401,
      "lon": 23.9445,
      "updatedAt": "250920Z",
      "visibility_m": 10000,
      "taf_visibility_m": 5000,
      "worst_visibility_m": 5000,
      "ceiling_ft": 4000,
      "hazards": [
        "RA"
      ],
      "severityScore": 12,
      "metarRaw": "METAR LGAV 250920Z 20016KT 9999 FEW015 BKN040 17/12 Q1017 NOSIG",
      "tafRaw": "TAF LGAV 250500Z 2506/2606 20012KT 9999 FEW015 SCT020 \n  TEMPO 2506/2510 20015G25KT \n  BECMG 2510/2512 17016KT \n  PROB30 \n  TEMPO 2509/2512 5000 RA SCT016 FEW018TCU BKN070"
    },
    {
      "icao": "LHDC",
      "iata": "DEB",
      "name": "Debrecen International Airport",
      "lat": 47.488899,
      "lon": 21.615299,
      "updatedAt": "250915Z",
      "visibility_m": 10000,
      "taf_visibility_m": 8000,
      "worst_visibility_m": 8000,
      "ceiling_ft": 4000,
      "hazards": [
        "RA"
      ],
      "severityScore": 12,
      "metarRaw": "METAR LHDC 250915Z AUTO 08006KT CAVOK 06/03 Q1009 NOSIG",
      "tafRaw": "TAF LHDC 250815Z 2509/2518 08006KT 8000 NSC \n  BECMG 2512/2515 11012KT BKN040 BKN090 \n  TEMPO 2515/2518 RA"
    },
    {
      "icao": "LICA",
      "iata": "SUF",
      "name": "Lamezia Terme Sant'Eufemia International Airport",
      "lat": 38.906214,
      "lon": 16.246007,
      "updatedAt": "250920Z",
      "visibility_m": 10000,
      "taf_visibility_m": 10000,
      "worst_visibility_m": 10000,
      "ceiling_ft": null,
      "hazards": [
        "RA"
      ],
      "severityScore": 12,
      "metarRaw": "METAR LICA 250920Z AUTO 07007KT 030V120 9999 SCT036/// 18/14 Q1003",
      "tafRaw": "TAF LICA 250500Z 2506/2606 07018KT 9999 SCT020 \n  TEMPO 2506/2516 RA \n  BECMG 2508/2510 27012KT \n  BECMG 2516/2518 VRB05KT \n  TEMPO 2522/2606 RA"
    },
    {
      "icao": "LIPR",
      "iata": "RMI",
      "name": "Federico Fellini International Airport",
      "lat": 44.020024,
      "lon": 12.612198,
      "updatedAt": "250920Z",
      "visibility_m": 10000,
      "taf_visibility_m": 4000,
      "worst_visibility_m": 4000,
      "ceiling_ft": 4000,
      "hazards": [
        "RA"
      ],
      "severityScore": 12,
      "metarRaw": "METAR LIPR 250920Z 28005KT 9999 RA SCT020 BKN040 08/07 Q0999",
      "tafRaw": "TAF LIPR 250500Z 2506/2606 VRB05KT 4000 RA BKN030 \n  BECMG 2508/2510 7000 NSW \n  TEMPO 2517/2522 RA"
    },
    {
      "icao": "UBBB",
      "iata": "GYD",
      "name": "Heydar Aliyev International Airport",
      "lat": 40.467498779296875,
      "lon": 50.04669952392578,
      "updatedAt": "250930Z",
      "visibility_m": 10000,
      "taf_visibility_m": 10000,
      "worst_visibility_m": 10000,
      "ceiling_ft": 3300,
      "hazards": [
        "RA"
      ],
      "severityScore": 12,
      "metarRaw": "METAR UBBB 250930Z 36006KT 9999 SCT013 OVC033 07/03 Q1019 NOSIG",
      "tafRaw": "TAF UBBB 250502Z 2506/2606 33006KT 9999 SCT009 BKN025 TX07/2510Z TN02/2601Z \n  TEMPO 2506/2512 35010KT BKN005 OVC017 \n  TEMPO 2512/2518 01005KT -RA OVC018 \n  BECMG 2518/2520 VRB04KT"
    },
    {
      "icao": "ENBR",
      "iata": "BGO",
      "name": "Bergen Airport, Flesland",
      "lat": 60.2934,
      "lon": 5.21814,
      "updatedAt": "250920Z",
      "visibility_m": 10000,
      "taf_visibility_m": 10000,
      "worst_visibility_m": 10000,
      "ceiling_ft": 4100,
      "hazards": [
        "BR"
      ],
      "severityScore": 10,
      "metarRaw": "METAR ENBR 250920Z 07002KT 9999 BKN041 M04/M11 Q1012 NOSIG RMK WIND 1200FT 11004KT",
      "tafRaw": "TAF ENBR 250500Z 2506/2606 04005KT 9999 FEW040"
    },
    {
      "icao": "LEMG",
      "iata": "AGP",
      "name": "Málaga-Costa del Sol Airport",
      "lat": 36.6749,
      "lon": -4.49911,
      "updatedAt": "250930Z",
      "visibility_m": 10000,
      "taf_visibility_m": 4000,
      "worst_visibility_m": 4000,
      "ceiling_ft": 4800,
      "hazards": [
        "DZ"
      ],
      "severityScore": 10,
      "metarRaw": "METAR LEMG 250930Z VRB01KT 9999 BKN048 11/06 Q1018 NOSIG",
      "tafRaw": "TAF LEMG 250500Z 2506/2606 VRB02KT CAVOK TX16/2514Z TN10/2507Z \n  PROB30 \n  TEMPO 2508/2515 4000 DZ BKN025 \n  PROB40 \n  TEMPO 2523/2603 4000 DZ BKN025"
    },
    {
      "icao": "LRCL",
      "iata": "CLJ",
      "name": "Cluj Avram Iancu International Airport",
      "lat": 46.787425,
      "lon": 23.684292,
      "updatedAt": "250930Z",
      "visibility_m": 2500,
      "taf_visibility_m": 3000,
      "worst_visibility_m": 2500,
      "ceiling_ft": 5000,
      "hazards": [
        "BR"
      ],
      "severityScore": 10,
      "metarRaw": "METAR LRCL 250930Z 00000KT 2500 BR FEW010 03/M01 Q1011",
      "tafRaw": "TAF LRCL 250800Z 2509/2518 09006KT 3000 BR SCT005 BKN050 \n  BECMG 2510/2512 CAVOK"
    },
    {
      "icao": "LRTM",
      "iata": "TGM",
      "name": "Târgu Mureş Transilvania International Airport",
      "lat": 46.467701,
      "lon": 24.4125,
      "updatedAt": "250930Z",
      "visibility_m": 7000,
      "taf_visibility_m": 5000,
      "worst_visibility_m": 5000,
      "ceiling_ft": 4500,
      "hazards": [
        "BR"
      ],
      "severityScore": 10,
      "metarRaw": "METAR LRTM 250930Z 12003KT 7000 NSC 03/00 Q1011",
      "tafRaw": "TAF LRTM 250800Z 2509/2518 VRB04KT 5000 BR BKN045 \n  BECMG 2509/2511 9999 NSW"
    },
    {
      "icao": "LTFM",
      "iata": "IST",
      "name": "İstanbul Airport",
      "lat": 41.261297,
      "lon": 28.741951,
      "updatedAt": "250920Z",
      "visibility_m": 10000,
      "taf_visibility_m": 4800,
      "worst_visibility_m": 4800,
      "ceiling_ft": 10000,
      "hazards": [
        "BR"
      ],
      "severityScore": 10,
      "metarRaw": "METAR LTFM 250920Z 21012KT 9999 SCT035 BKN100 13/10 Q1017 NOSIG",
      "tafRaw": "TAF LTFM 250440Z 2506/2612 22014KT 9999 BKN035 \n  TEMPO 2506/2508 4800 BR SCT018 BKN028 \n  BECMG 2508/2510 SCT040 BKN100 \n  BECMG 2511/2514 CAVOK \n  BECMG 2518/2521 16010KT \n  BECMG 2610/2612 10005KT SCT035 BKN090"
    },
    {
      "icao": "OJAI",
      "iata": "AMM",
      "name": "Queen Alia International Airport",
      "lat": 31.7226009369,
      "lon": 35.9931983948,
      "updatedAt": null,
      "visibility_m": null,
      "taf_visibility_m": 2000,
      "worst_visibility_m": 2000,
      "ceiling_ft": null,
      "hazards": [
        "BR"
      ],
      "severityScore": 10,
      "metarRaw": null,
      "tafRaw": "TAF OJAI 250500Z 2506/2612 13008KT 2000 BR FEW030 \n  BECMG 2507/2509 6000"
    },
    {
      "icao": "LCLK",
      "iata": "LCA",
      "name": "Larnaca International Airport",
      "lat": 34.875099,
      "lon": 33.624901,
      "updatedAt": "250930Z",
      "visibility_m": 10000,
      "taf_visibility_m": null,
      "worst_visibility_m": 10000,
      "ceiling_ft": null,
      "hazards": [],
      "severityScore": 5,
      "metarRaw": "METAR LCLK 250930Z 04008KT 9999 FEW021 18/13 Q1022 NOSIG",
      "tafRaw": null
    },
    {
      "icao": "LCPH",
      "iata": "PFO",
      "name": "Paphos International Airport",
      "lat": 34.717999,
      "lon": 32.485699,
      "updatedAt": "250930Z",
      "visibility_m": 7000,
      "taf_visibility_m": null,
      "worst_visibility_m": 7000,
      "ceiling_ft": null,
      "hazards": [],
      "severityScore": 5,
      "metarRaw": "METAR LCPH 250930Z 15010KT 7000 NSC 18/11 Q1022 NOSIG",
      "tafRaw": null
    },
    {
      "icao": "LECH",
      "iata": "CDT",
      "name": "Castellón-Costa Azahar Airport",
      "lat": 40.213889,
      "lon": 0.073333,
      "updatedAt": "250930Z",
      "visibility_m": 9000,
      "taf_visibility_m": null,
      "worst_visibility_m": 9000,
      "ceiling_ft": null,
      "hazards": [],
      "severityScore": 5,
      "metarRaw": "METAR LECH 250930Z AUTO 21006KT 9000 NCD 10/M00 Q1005",
      "tafRaw": null
    },
    {
      "icao": "LEZG",
      "iata": "ZAZ",
      "name": "Zaragoza Airport",
      "lat": 41.666199,
      "lon": -1.04155,
      "updatedAt": "250930Z",
      "visibility_m": 10000,
      "taf_visibility_m": null,
      "worst_visibility_m": 10000,
      "ceiling_ft": null,
      "hazards": [],
      "severityScore": 5,
      "metarRaw": "METAR LEZG 250930Z 24020G30KT 200V260 9999 FEW060 10/03 Q1004 NOSIG",
      "tafRaw": null
    },
    {
      "icao": "LFLL",
      "iata": "LYS",
      "name": "Lyon Saint-Exupéry Airport",
      "lat": 45.725996,
      "lon": 5.090139,
      "updatedAt": "250930Z",
      "visibility_m": 7000,
      "taf_visibility_m": null,
      "worst_visibility_m": 7000,
      "ceiling_ft": null,
      "hazards": [],
      "severityScore": 5,
      "metarRaw": "METAR LFLL 250930Z 16006KT 7000 FEW005 SCT080 05/03 Q0999 NOSIG",
      "tafRaw": null
    },
    {
      "icao": "LQTZ",
      "iata": "TZL",
      "name": "Tuzla International Airport",
      "lat": 44.459858,
      "lon": 18.723627,
      "updatedAt": "250930Z",
      "visibility_m": 10000,
      "taf_visibility_m": null,
      "worst_visibility_m": 10000,
      "ceiling_ft": null,
      "hazards": [],
      "severityScore": 5,
      "metarRaw": "METAR LQTZ 250930Z 12015KT 9999 FEW070 11/05 Q1003",
      "tafRaw": null
    },
    {
      "icao": "BIKF",
      "iata": "KEF",
      "name": "Keflavik International Airport",
      "lat": 63.985001,
      "lon": -22.6056,
      "updatedAt": "250930Z",
      "visibility_m": 10000,
      "taf_visibility_m": 10000,
      "worst_visibility_m": 10000,
      "ceiling_ft": 6200,
      "hazards": [],
      "severityScore": 0,
      "metarRaw": "METAR BIKF 250930Z 08014KT 9999 FEW048 OVC062 04/M01 Q1006",
      "tafRaw": "TAF BIKF 250753Z 2509/2609 09015KT 9999 FEW025 TX05/2513Z TN01/2602Z \n  TEMPO 2513/2609 09020G30KT"
    },
    {
      "icao": "BKPR",
      "iata": "PRN",
      "name": "Priština Adem Jashari International Airport",
      "lat": 42.5728,
      "lon": 21.035801,
      "updatedAt": "250930Z",
      "visibility_m": 10000,
      "taf_visibility_m": 10000,
      "worst_visibility_m": 10000,
      "ceiling_ft": 4000,
      "hazards": [],
      "severityScore": 0,
      "metarRaw": "METAR BKPR 250930Z 15017KT 9999 FEW080 09/06 Q1010 NOSIG",
      "tafRaw": "TAF BKPR 250530Z 2506/2606 18010KT 9999 BKN040 \n  TEMPO 2511/2606 18020G30KT"
    },
    {
      "icao": "GCFV",
      "iata": "FUE",
      "name": "Fuerteventura Airport",
      "lat": 28.4527,
      "lon": -13.8638,
      "updatedAt": "250930Z",
      "visibility_m": 10000,
      "taf_visibility_m": 10000,
      "worst_visibility_m": 10000,
      "ceiling_ft": null,
      "hazards": [],
      "severityScore": 0,
      "metarRaw": "METAR GCFV 250930Z 32005KT 260V010 9999 FEW040 17/10 Q1029",
      "tafRaw": "TAF GCFV 250800Z 2509/2609 05010KT 9999 FEW035 TX20/2514Z TN14/2606Z \n  TEMPO 2509/2511 35008KT \n  BECMG 2519/2521 33005KT"
    },
    {
      "icao": "GCLP",
      "iata": "LPA",
      "name": "Gran Canaria Airport",
      "lat": 27.9319,
      "lon": -15.3866,
      "updatedAt": "250930Z",
      "visibility_m": 10000,
      "taf_visibility_m": 10000,
      "worst_visibility_m": 10000,
      "ceiling_ft": null,
      "hazards": [],
      "severityScore": 0,
      "metarRaw": "METAR GCLP 250930Z 31006KT 280V350 9999 SCT036 16/09 Q1029 NOSIG",
      "tafRaw": "TAF GCLP 250800Z 2509/2609 04012KT 9999 FEW035 TX20/2514Z TN13/2606Z \n  TEMPO 2509/2511 33007KT \n  BECMG 2519/2521 33008KT"
    },
    {
      "icao": "GMAD",
      "iata": "AGA",
      "name": "Al Massira Airport",
      "lat": 30.322478,
      "lon": -9.412003,
      "updatedAt": "250930Z",
      "visibility_m": 10000,
      "taf_visibility_m": 8000,
      "worst_visibility_m": 8000,
      "ceiling_ft": null,
      "hazards": [],
      "severityScore": 0,
      "metarRaw": "METAR GMAD 250930Z 08007KT CAVOK 11/09 Q1026 NOSIG",
      "tafRaw": "TAF GMAD 250500Z 2506/2612 06010KT 8000 SCT020"
    },
    {
      "icao": "GMMX",
      "iata": "RAK",
      "name": "Marrakesh Menara Airport",
      "lat": 31.604807,
      "lon": -8.035788,
      "updatedAt": "250930Z",
      "visibility_m": 10000,
      "taf_visibility_m": 8000,
      "worst_visibility_m": 8000,
      "ceiling_ft": null,
      "hazards": [],
      "severityScore": 0,
      "metarRaw": "METAR GMMX 250930Z VRB01KT CAVOK 10/06 Q1027 NOSIG",
      "tafRaw": "TAF GMMX 250500Z 2506/2612 20006KT 8000 SCT020 \n  TEMPO 2516/2520 32018KT"
    },
    {
      "icao": "ENAL",
      "iata": "AES",
      "name": "Ålesund Airport, Vigra",
      "lat": 62.5625,
      "lon": 6.1197,
      "updatedAt": "250920Z",
      "visibility_m": 10000,
      "taf_visibility_m": 10000,
      "worst_visibility_m": 10000,
      "ceiling_ft": 5300,
      "hazards": [],
      "severityScore": 0,
      "metarRaw": "METAR ENAL 250920Z 14010KT 9999 FEW030 BKN053 M01/M08 Q1013",
      "tafRaw": "TAF ENAL 250800Z 2509/2518 14012KT 9999 BKN040 \n  BECMG 2512/2514 06012KT"
    },
    {
      "icao": "ENHD",
      "iata": "HAU",
      "name": "Haugesund Airport, Karmøy",
      "lat": 59.345299,
      "lon": 5.20836,
      "updatedAt": "250920Z",
      "visibility_m": 10000,
      "taf_visibility_m": 10000,
      "worst_visibility_m": 10000,
      "ceiling_ft": null,
      "hazards": [],
      "severityScore": 0,
      "metarRaw": "METAR ENHD 250920Z /////KT 9999 FEW049 M00/M11 Q1012 RMK WIND RWY 31 11011KT",
      "tafRaw": "TAF ENHD 250800Z 2509/2518 11009KT CAVOK"
    },
    {
      "icao": "ENVA",
      "iata": "TRD",
      "name": "Trondheim Airport, Værnes",
      "lat": 63.457802,
      "lon": 10.924,
      "updatedAt": "250920Z",
      "visibility_m": 10000,
      "taf_visibility_m": 10000,
      "worst_visibility_m": 10000,
      "ceiling_ft": 5000,
      "hazards": [],
      "severityScore": 0,
      "metarRaw": "METAR ENVA 250920Z 12009KT CAVOK M11/M15 Q1015 RMK WIND 670FT 12007KT",
      "tafRaw": "TAF ENVA 250500Z 2506/2606 10005KT 9999 BKN050"
    },
    {
      "icao": "ENZV",
      "iata": "SVG",
      "name": "Stavanger Airport, Sola",
      "lat": 58.876701,
      "lon": 5.63778,
      "updatedAt": "250920Z",
      "visibility_m": 10000,
      "taf_visibility_m": 10000,
      "worst_visibility_m": 10000,
      "ceiling_ft": null,
      "hazards": [],
      "severityScore": 0,
      "metarRaw": "METAR ENZV 250920Z 10007KT CAVOK M01/M12 Q1012 NOSIG",
      "tafRaw": "TAF ENZV 250500Z 2506/2606 08008KT 9999 FEW050"
    },
    {
      "icao": "HEGN",
      "iata": "HRG",
      "name": "Hurghada International Airport",
      "lat": 27.176776,
      "lon": 33.796692,
      "updatedAt": "250900Z",
      "visibility_m": 10000,
      "taf_visibility_m": 10000,
      "worst_visibility_m": 10000,
      "ceiling_ft": null,
      "hazards": [],
      "severityScore": 0,
      "metarRaw": "METAR HEGN 250900Z 01005KT CAVOK 22/06 Q1021 NOSIG",
      "tafRaw": "TAF HEGN 250500Z 2506/2612 01012KT CAVOK"
    },
    {
      "icao": "HEMA",
      "iata": "RMF",
      "name": "Marsa Alam International Airport",
      "lat": 25.555548,
      "lon": 34.59245,
      "updatedAt": "250900Z",
      "visibility_m": 10000,
      "taf_visibility_m": 10000,
      "worst_visibility_m": 10000,
      "ceiling_ft": null,
      "hazards": [],
      "severityScore": 0,
      "metarRaw": "METAR HEMA 250900Z 35013KT CAVOK 23/07 Q1020 NOSIG",
      "tafRaw": "TAF HEMA 250500Z 2506/2612 02014KT CAVOK"
    },
    {
      "icao": "HESH",
      "iata": "SSH",
      "name": "Sharm El Sheikh International Airport",
      "lat": 27.977272,
      "lon": 34.394717,
      "updatedAt": "250900Z",
      "visibility_m": 10000,
      "taf_visibility_m": 10000,
      "worst_visibility_m": 10000,
      "ceiling_ft": null,
      "hazards": [],
      "severityScore": 0,
      "metarRaw": "METAR HESH 250900Z 02010KT CAVOK 22/06 Q1021 NOSIG",
      "tafRaw": "TAF HESH 250500Z 2506/2612 03012KT CAVOK"
    },
    {
      "icao": "HESX",
      "iata": "SPX",
      "name": "Sphinx International Airport",
      "lat": 30.108179,
      "lon": 30.895728,
      "updatedAt": "250900Z",
      "visibility_m": 10000,
      "taf_visibility_m": 3000,
      "worst_visibility_m": 3000,
      "ceiling_ft": null,
      "hazards": [],
      "severityScore": 0,
      "metarRaw": "METAR HESX 250900Z 09004KT CAVOK 19/06 Q1020 NOSIG",
      "tafRaw": "TAF HESX 250500Z 2506/2612 15007KT 6000 NSC \n  TEMPO 2507/2512 VRB03KT 3000 HZ NSC"
    },
    {
      "icao": "LEAL",
      "iata": "ALC",
      "name": "Alicante-Elche Miguel Hernández Airport",
      "lat": 38.2822,
      "lon": -0.558156,
      "updatedAt": "250930Z",
      "visibility_m": 10000,
      "taf_visibility_m": 10000,
      "worst_visibility_m": 10000,
      "ceiling_ft": null,
      "hazards": [],
      "severityScore": 0,
      "metarRaw": "METAR LEAL 250930Z 23011KT 200V260 9999 FEW030 14/03 Q1011 NOSIG",
      "tafRaw": "TAF LEAL 250500Z 2506/2606 23008KT CAVOK TX18/2513Z TN09/2506Z \n  BECMG 2513/2515 26018KT \n  TEMPO 2514/2524 26020G30KT \n  BECMG 2600/2602 22008KT"
    },
    {
      "icao": "LEVC",
      "iata": "VLC",
      "name": "Valencia Airport",
      "lat": 39.4893,
      "lon": -0.481625,
      "updatedAt": "250930Z",
      "visibility_m": 10000,
      "taf_visibility_m": 10000,
      "worst_visibility_m": 10000,
      "ceiling_ft": null,
      "hazards": [],
      "severityScore": 0,
      "metarRaw": "METAR LEVC 250930Z 25018KT 9999 FEW045 11/03 Q1008 NOSIG",
      "tafRaw": "TAF LEVC 250500Z 2506/2606 27018KT CAVOK TX17/2513Z TN08/2506Z \n  TEMPO 2506/2509 24008KT \n  TEMPO 2508/2601 27020G30KT \n  TEMPO 2511/2517 27025G43KT \n  BECMG 2602/2604 26008KT"
    },
    {
      "icao": "LFMN",
      "iata": "NCE",
      "name": "Nice-Côte d'Azur Airport",
      "lat": 43.658401,
      "lon": 7.21587,
      "updatedAt": "250930Z",
      "visibility_m": 10000,
      "taf_visibility_m": 10000,
      "worst_visibility_m": 10000,
      "ceiling_ft": 2500,
      "hazards": [],
      "severityScore": 0,
      "metarRaw": "METAR LFMN 250930Z 01007KT 9999 FEW055 SCT260 09/04 Q0999 NOSIG",
      "tafRaw": "TAF LFMN 250800Z 2509/2615 VRB05KT 9999 SCT050 BKN120 \n  BECMG 2511/2513 21010KT NSC \n  BECMG 2521/2523 33010KT \n  PROB40 \n  TEMPO 2605/2608 BKN025 \n  BECMG 2611/2613 20010KT"
    },
    {
      "icao": "LLBG",
      "iata": "TLV",
      "name": "Ben Gurion International Airport",
      "lat": 32.011398,
      "lon": 34.8867,
      "updatedAt": "250920Z",
      "visibility_m": 10000,
      "taf_visibility_m": 10000,
      "worst_visibility_m": 10000,
      "ceiling_ft": null,
      "hazards": [],
      "severityScore": 0,
      "metarRaw": "METAR LLBG 250920Z VRB03KT CAVOK 20/04 Q1021 NOSIG",
      "tafRaw": "TAF LLBG 250501Z 2506/2606 VRB04KT CAVOK \n  BECMG 2508/2510 31010KT \n  BECMG 2514/2516 02005KT \n  BECMG 2520/2523 13005KT TX21/2511Z TN09/2604Z"
    },
    {
      "icao": "LPMA",
      "iata": "FNC",
      "name": "Cristiano Ronaldo International Airport",
      "lat": 32.697812,
      "lon": -16.774613,
      "updatedAt": "250930Z",
      "visibility_m": 10000,
      "taf_visibility_m": 10000,
      "worst_visibility_m": 10000,
      "ceiling_ft": null,
      "hazards": [],
      "severityScore": 0,
      "metarRaw": "METAR LPMA 250930Z VRB02KT 9999 FEW015 17/08 Q1027",
      "tafRaw": "TAF LPMA 250500Z 2506/2606 VRB05KT 9999 SCT015"
    },
    {
      "icao": "LPPS",
      "iata": "PXO",
      "name": "Porto Santo Airport",
      "lat": 33.0733985901,
      "lon": -16.3500003815,
      "updatedAt": "250930Z",
      "visibility_m": 10000,
      "taf_visibility_m": 10000,
      "worst_visibility_m": 10000,
      "ceiling_ft": null,
      "hazards": [],
      "severityScore": 0,
      "metarRaw": "METAR LPPS 250930Z 27013KT 9999 FEW015 17/10 Q1026",
      "tafRaw": "TAF LPPS 250500Z 2506/2612 27010KT 9999 SCT015 \n  PROB40 \n  TEMPO 2509/2516 27015G25KT \n  BECMG 2600/2602 24007KT"
    },
    {
      "icao": "LRBV",
      "iata": "GHV",
      "name": "Brașov-Ghimbav International Airport",
      "lat": 45.70558,
      "lon": 25.522871,
      "updatedAt": "250930Z",
      "visibility_m": 10000,
      "taf_visibility_m": 10000,
      "worst_visibility_m": 10000,
      "ceiling_ft": null,
      "hazards": [],
      "severityScore": 0,
      "metarRaw": "METAR LRBV 250930Z VRB02KT CAVOK 04/00 Q1012",
      "tafRaw": "TAF LRBV 250800Z 2509/2518 VRB04KT CAVOK \n  TEMPO 2514/2518 20010KT"
    },
    {
      "icao": "LYBE",
      "iata": "BEG",
      "name": "Belgrade Nikola Tesla Airport",
      "lat": 44.818401,
      "lon": 20.309099,
      "updatedAt": "250930Z",
      "visibility_m": 10000,
      "taf_visibility_m": 10000,
      "worst_visibility_m": 10000,
      "ceiling_ft": null,
      "hazards": [],
      "severityScore": 0,
      "metarRaw": "METAR LYBE 250930Z 13014KT CAVOK 11/05 Q1006 NOSIG",
      "tafRaw": "TAF LYBE 250500Z 2506/2606 12007KT CAVOK TX13/2513Z TN05/2606Z \n  BECMG 2508/2510 12017KT \n  TEMPO 2512/2522 13018G30KT"
    },
    {
      "icao": "LYNI",
      "iata": "INI",
      "name": "Niš Constantine the Great Airport",
      "lat": 43.336538,
      "lon": 21.856242,
      "updatedAt": "250930Z",
      "visibility_m": 10000,
      "taf_visibility_m": 10000,
      "worst_visibility_m": 10000,
      "ceiling_ft": 8000,
      "hazards": [],
      "severityScore": 0,
      "metarRaw": "METAR LYNI 250930Z VRB02KT 9999 FEW033 BKN080 09/05 Q1011 NOSIG",
      "tafRaw": "TAF LYNI 250500Z 2506/2606 10006KT 9999 SCT070 TX12/2513Z TN03/2506Z"
    },
    {
      "icao": "OEJN",
      "iata": "JED",
      "name": "King Abdulaziz International Airport",
      "lat": 21.6796,
      "lon": 39.156502,
      "updatedAt": "250900Z",
      "visibility_m": 10000,
      "taf_visibility_m": 3000,
      "worst_visibility_m": 3000,
      "ceiling_ft": null,
      "hazards": [],
      "severityScore": 0,
      "metarRaw": "METAR OEJN 250900Z 33008KT CAVOK 28/09 Q1015 NOSIG",
      "tafRaw": "TAF OEJN 250500Z 2506/2612 34012KT 9999 FEW040 \n  BECMG 2520/2522 09015KT 6000 \n  TEMPO 2522/2608 3000 BLDU \n  BECMG 2608/2610 27010KT"
    },
    {
      "icao": "OEMA",
      "iata": "MED",
      "name": "Prince Mohammad Bin Abdulaziz Airport",
      "lat": 24.5534,
      "lon": 39.705101,
      "updatedAt": "250900Z",
      "visibility_m": 10000,
      "taf_visibility_m": 7000,
      "worst_visibility_m": 7000,
      "ceiling_ft": null,
      "hazards": [],
      "severityScore": 0,
      "metarRaw": "METAR OEMA 250900Z 06007KT CAVOK 19/M02 Q1023 NOSIG",
      "tafRaw": "TAF OEMA 250500Z 2506/2612 09012KT 7000 NSC"
    }
  ],
  "stats": {
    "icaoCount": 159,
    "metarReturned": 155,
    "tafReturned": 130,
    "stationsWritten": 159,
    "missingMetar": 4,
    "missingTaf": 29
  },
  "errors": []
}