{
  "generatedAt": "2026-01-16T07:13:10.852Z",
  "stations": [
    {
      "icao": "BKPR",
      "iata": "PRN",
      "name": "Priština Adem Jashari International Airport",
      "updatedAt": "160700Z",
      "visibility_m": 2500,
      "taf_visibility_m": 150,
      "worst_visibility_m": 150,
      "ceiling_ft": 4000,
      "hazards": [
        "BR",
        "FZFG",
        "FG"
      ],
      "severityScore": 100,
      "metarRaw": "METAR BKPR 160700Z VRB01KT 5000 BR SCT030 BKN040 02/02 Q1023 TEMPO 2500 BR",
      "tafRaw": "TAF BKPR 160530Z 1606/1706 VRB03KT 5000 BR SCT030 \n  TEMPO 1606/1608 2000 \n  BECMG 1608/1610 9999 NSW \n  BECMG 1621/1623 3000 BR \n  PROB40 1701/1706 0150 FZFG BKN003"
    },
    {
      "icao": "EDDH",
      "iata": "HAM",
      "name": "Hamburg Helmut Schmidt Airport",
      "updatedAt": "160650Z",
      "visibility_m": 10000,
      "taf_visibility_m": 500,
      "worst_visibility_m": 500,
      "ceiling_ft": 100,
      "hazards": [
        "FG",
        "BR"
      ],
      "severityScore": 100,
      "metarRaw": "METAR EDDH 160650Z AUTO 14010KT CAVOK 06/04 Q1010 NOSIG",
      "tafRaw": "TAF EDDH 160500Z 1606/1712 15010KT CAVOK \n  BECMG 1610/1612 23009KT \n  BECMG 1614/1616 17003KT \n  BECMG 1623/1701 11005KT \n  PROB40 \n  TEMPO 1701/1706 3500 BR BKN005 \n  PROB30 \n  TEMPO 1704/1708 0500 FG OVC001"
    },
    {
      "icao": "EGBB",
      "iata": "BHX",
      "name": "Birmingham Airport",
      "updatedAt": "160650Z",
      "visibility_m": 2300,
      "taf_visibility_m": 300,
      "worst_visibility_m": 300,
      "ceiling_ft": 300,
      "hazards": [
        "BR",
        "FG",
        "RA",
        "SHRA"
      ],
      "severityScore": 100,
      "metarRaw": "METAR EGBB 160650Z 15007KT 2300 BR OVC003 04/03 Q1003",
      "tafRaw": "TAF EGBB 160459Z 1606/1706 15007KT 9999 BKN020 \n  TEMPO 1606/1609 4000 BR BKN003 \n  PROB40 \n  TEMPO 1606/1609 0300 FG BKN000 \n  PROB30 \n  TEMPO 1606/1608 SHRA \n  TEMPO 1609/1611 7000 BKN008 \n  PROB30 \n  TEMPO 1617/1621 8000 -SHRA BKN014 \n  TEMPO 1621/1706 7000 RA BKN009 \n  PROB30 \n  TEMPO 1621/1706 4000 +RA BKN004"
    },
    {
      "icao": "EGGW",
      "iata": "LTN",
      "name": "London Luton Airport",
      "updatedAt": "160650Z",
      "visibility_m": 2300,
      "taf_visibility_m": 300,
      "worst_visibility_m": 300,
      "ceiling_ft": 200,
      "hazards": [
        "BR",
        "FG",
        "RA",
        "SHRA",
        "DZ"
      ],
      "severityScore": 100,
      "metarRaw": "METAR EGGW 160650Z AUTO 15007KT 2300 BR BKN002 03/03 Q1004",
      "tafRaw": "TAF EGGW 160458Z 1606/1706 15007KT 0300 FG BKN001 \n  PROB40 \n  TEMPO 1606/1613 6000 RA SHRA \n  BECMG 1607/1610 21010KT 9999 NSW SCT015 \n  PROB30 \n  TEMPO 1610/1612 BKN006 \n  PROB30 \n  TEMPO 1613/1619 7000 SHRA \n  BECMG 1614/1617 14007KT \n  PROB30 1621/1702 8000 BKN006 \n  TEMPO 1702/1706 6000 -RADZ BKN004 \n  PROB30 \n  TEMPO 1702/1706 2000 BR RADZ BKN001"
    },
    {
      "icao": "EGPD",
      "iata": "ABZ",
      "name": "Aberdeen International Airport",
      "updatedAt": "160650Z",
      "visibility_m": 4000,
      "taf_visibility_m": 300,
      "worst_visibility_m": 300,
      "ceiling_ft": 600,
      "hazards": [
        "BR",
        "FZFG",
        "FG",
        "RA",
        "DZ"
      ],
      "severityScore": 100,
      "metarRaw": "METAR EGPD 160650Z AUTO 01002KT 9999 NCD M04/M05 Q1000 TEMPO 4000 BR",
      "tafRaw": "TAF EGPD 160455Z 1606/1706 VRB03KT 9999 FEW040 \n  PROB30 1606/1610 0300 FG FZFG VV/// \n  PROB30 \n  TEMPO 1615/1617 6000 -RADZ BKN014 \n  TEMPO 1617/1706 3000 BR \n  PROB30 1620/1701 0300 FG VV/// \n  PROB30 \n  TEMPO 1701/1706 BKN006"
    },
    {
      "icao": "EGPF",
      "iata": "GLA",
      "name": "Glasgow Airport",
      "updatedAt": "160650Z",
      "visibility_m": 2600,
      "taf_visibility_m": 500,
      "worst_visibility_m": 500,
      "ceiling_ft": 100,
      "hazards": [
        "BR",
        "FZFG",
        "RA",
        "SHRA",
        "FG"
      ],
      "severityScore": 100,
      "metarRaw": "METAR EGPF 160650Z AUTO 07005KT 2600 BR NCD 01/01 Q0999",
      "tafRaw": "TAF EGPF 160457Z 1606/1706 VRB03KT 9999 SCT025 \n  TEMPO 1606/1608 4000 MIFG \n  PROB40 \n  TEMPO 1606/1608 0500 FZFG BKN001 \n  TEMPO 1608/1613 6000 SHRA BKN012 \n  PROB30 \n  TEMPO 1608/1610 3000 +SHRA BKN008 \n  PROB30 \n  TEMPO 1613/1703 6000 SHRA BKN014 \n  TEMPO 1703/1706 4000 RA SHRA BKN005"
    },
    {
      "icao": "EPGD",
      "iata": "GDN",
      "name": "Gdańsk Lech Wałęsa Airport",
      "updatedAt": "160700Z",
      "visibility_m": 350,
      "taf_visibility_m": null,
      "worst_visibility_m": 350,
      "ceiling_ft": 100,
      "hazards": [
        "FZFG",
        "FG"
      ],
      "severityScore": 100,
      "metarRaw": "METAR EPGD 160700Z 15010KT 0350 R29/0500N FZFG VV001 M03/M03 Q1022",
      "tafRaw": null
    },
    {
      "icao": "EPKK",
      "iata": "KRK",
      "name": "Kraków John Paul II International Airport",
      "updatedAt": "160700Z",
      "visibility_m": 6000,
      "taf_visibility_m": 600,
      "worst_visibility_m": 600,
      "ceiling_ft": 200,
      "hazards": [
        "FZFG",
        "FG",
        "BR"
      ],
      "severityScore": 100,
      "metarRaw": "METAR EPKK 160700Z 05007KT 6000 SCT050 00/M01 Q1022",
      "tafRaw": "TAF EPKK 160530Z 1606/1706 05006KT 7000 OVC045 \n  TEMPO 1606/1616 4000 BR BKN014 \n  PROB30 \n  TEMPO 1606/1608 0800 FG OVC002 \n  BECMG 1616/1619 4000 BR BKN006 \n  TEMPO 1621/1706 0600 FZFG OVC002"
    },
    {
      "icao": "EPKT",
      "iata": "KTW",
      "name": "Katowice Wojciech Korfanty International Airport",
      "updatedAt": "160700Z",
      "visibility_m": 3100,
      "taf_visibility_m": 400,
      "worst_visibility_m": 400,
      "ceiling_ft": 100,
      "hazards": [
        "BR",
        "FZFG",
        "FG"
      ],
      "severityScore": 100,
      "metarRaw": "METAR EPKT 160700Z 13003KT 3100 BR FEW001 M00/M00 Q1021",
      "tafRaw": "TAF EPKT 160530Z 1606/1706 12005KT 5000 BR SCT007 OVC040 \n  TEMPO 1606/1615 3000 BR BKN009 \n  PROB30 \n  TEMPO 1606/1608 0600 FG OVC002 \n  BECMG 1615/1618 3000 BR BKN004 \n  TEMPO 1618/1706 0800 FG OVC001 \n  PROB30 \n  TEMPO 1700/1706 0400 FZFG"
    },
    {
      "icao": "EPSC",
      "iata": "SZZ",
      "name": "Solidarity Szczecin–Goleniów Airport",
      "updatedAt": "160700Z",
      "visibility_m": 1400,
      "taf_visibility_m": 500,
      "worst_visibility_m": 500,
      "ceiling_ft": 200,
      "hazards": [
        "BR",
        "FG"
      ],
      "severityScore": 100,
      "metarRaw": "METAR EPSC 160700Z 13012KT 1400 0900SE R31/1900N PRFG BR OVC002 02/02 Q1017",
      "tafRaw": "TAF EPSC 160530Z 1606/1706 13013KT 0800 FG BKN002 \n  PROB40 1606/1608 0500 FG BKN001 \n  BECMG 1607/1610 1800 BR \n  PROB40 1610/1616 BKN005 \n  BECMG 1615/1618 0500 FG"
    },
    {
      "icao": "EPWR",
      "iata": "WRO",
      "name": "Copernicus Wrocław Airport",
      "updatedAt": "160700Z",
      "visibility_m": 3000,
      "taf_visibility_m": 300,
      "worst_visibility_m": 300,
      "ceiling_ft": 100,
      "hazards": [
        "BR",
        "FG"
      ],
      "severityScore": 100,
      "metarRaw": "METAR EPWR 160700Z 11006KT 3000 BR NSC 01/00 Q1019",
      "tafRaw": "TAF EPWR 160530Z 1606/1706 12006KT 2000 BR BKN025 \n  TEMPO 1606/1609 0400 FG \n  PROB30 \n  TEMPO 1606/1609 BKN001 \n  BECMG 1609/1612 8000 SCT005 \n  BECMG 1615/1618 2000 BR \n  TEMPO 1616/1621 0500 FG BKN002 \n  BECMG 1621/1624 0300 FG BKN002"
    },
    {
      "icao": "ESMS",
      "iata": "MMX",
      "name": "Malmö Sturup Airport",
      "updatedAt": "160650Z",
      "visibility_m": 1100,
      "taf_visibility_m": 200,
      "worst_visibility_m": 200,
      "ceiling_ft": 200,
      "hazards": [
        "FG",
        "BR"
      ],
      "severityScore": 100,
      "metarRaw": "METAR ESMS 160650Z 13012KT 1100 R17/P2000N R35/P2000N OVC002 03/03 Q1013",
      "tafRaw": "TAF ESMS 160527Z 1606/1706 14012KT 0200 FG OVC002 \n  BECMG 1606/1608 6000 NSW BKN006 \n  BECMG 1611/1614 SCT006 \n  BECMG 1614/1617 4000 BR \n  BECMG 1701/1703 2000 BKN004"
    },
    {
      "icao": "LEMD",
      "iata": "MAD",
      "name": "Adolfo Suárez Madrid–Barajas Airport",
      "updatedAt": "160700Z",
      "visibility_m": 3000,
      "taf_visibility_m": 800,
      "worst_visibility_m": 800,
      "ceiling_ft": 500,
      "hazards": [
        "BR",
        "DZ",
        "FG",
        "RA"
      ],
      "severityScore": 100,
      "metarRaw": "METAR LEMD 160700Z 13003KT 070V170 3000 0450NW R32R/P2000 R32L/P2000 DZ BR BCFG FEW002 OVC005 06/06 Q1012 NOSIG",
      "tafRaw": "TAF LEMD 160500Z 1606/1712 VRB04KT 9999 SCT020 TX11/1615Z TN05/1607Z \n  TEMPO 1606/1610 3000 BR BCFG BKN004 BKN010 \n  PROB30 \n  TEMPO 1606/1608 0800 FG VV002 \n  PROB30 \n  TEMPO 1609/1613 DZRA BKN014 \n  TEMPO 1611/1618 22010KT \n  TEMPO 1623/1709 4000 DZRA BR BKN010"
    },
    {
      "icao": "LEZL",
      "iata": "SVQ",
      "name": "Sevilla Airport",
      "updatedAt": "160700Z",
      "visibility_m": 10000,
      "taf_visibility_m": 3000,
      "worst_visibility_m": 3000,
      "ceiling_ft": 100,
      "hazards": [
        "BR",
        "TSRA",
        "RA",
        "SHRA",
        "TS"
      ],
      "severityScore": 100,
      "metarRaw": "METAR LEZL 160700Z 26007KT 9999 FEW015 12/12 Q1015 NOSIG",
      "tafRaw": "TAF LEZL 160200Z 1603/1703 24005KT CAVOK TX17/1614Z TN08/1607Z \n  TEMPO 1603/1605 VRB10KT 4000 RA SHRA FEW004CB BKN008 \n  PROB30 \n  TEMPO 1605/1609 3000 BR BKN001 \n  TEMPO 1617/1620 3000 TSRA SHRA FEW065CB"
    },
    {
      "icao": "LFBD",
      "iata": "BOD",
      "name": "Bordeaux–Mérignac Airport",
      "updatedAt": "160700Z",
      "visibility_m": 3000,
      "taf_visibility_m": 500,
      "worst_visibility_m": 500,
      "ceiling_ft": 1000,
      "hazards": [
        "SHRA",
        "RA",
        "FG",
        "BR"
      ],
      "severityScore": 100,
      "metarRaw": "METAR LFBD 160700Z AUTO 19008KT CAVOK 09/08 Q1012 TEMPO 3000 -SHRA BKN010 BKN040TCU",
      "tafRaw": "TAF LFBD 160500Z 1606/1712 21010KT 9999 BKN040 TX11/1615Z TN05/1704Z \n  BECMG 1606/1609 15005KT \n  PROB40 \n  TEMPO 1606/1609 3000 -SHRA BKN010 BKN040TCU \n  PROB30 \n  TEMPO 1609/1615 BKN014 \n  BECMG 1620/1622 VRB03KT \n  TEMPO 1622/1710 4000 BR \n  PROB30 \n  TEMPO 1702/1710 0500 FG VV///"
    },
    {
      "icao": "LFOB",
      "iata": "BVA",
      "name": "Beauvais Tillé airport",
      "updatedAt": "160700Z",
      "visibility_m": 4000,
      "taf_visibility_m": 400,
      "worst_visibility_m": 400,
      "ceiling_ft": 400,
      "hazards": [
        "BR",
        "FG",
        "RA"
      ],
      "severityScore": 100,
      "metarRaw": "METAR LFOB 160700Z AUTO 13007KT CAVOK 05/05 Q1009 TEMPO 4000 BR BKN004 OVC007",
      "tafRaw": "TAF LFOB 160500Z 1606/1706 VRB03KT 9999 SCT012 BKN040 \n  BECMG 1606/1608 BKN008 OVC012 \n  TEMPO 1607/1610 4000 BR BKN004 OVC007 \n  BECMG 1612/1614 18010KT BKN013 OVC018 \n  BECMG 1616/1619 12005KT \n  BECMG 1619/1622 4000 -RA BR SCT020 BKN060 \n  PROB30 1622/1624 0800 FG \n  PROB40 1700/1706 0400 FG VV///"
    },
    {
      "icao": "LFPO",
      "iata": "ORY",
      "name": "Paris-Orly Airport",
      "updatedAt": "160700Z",
      "visibility_m": 10000,
      "taf_visibility_m": 800,
      "worst_visibility_m": 800,
      "ceiling_ft": 700,
      "hazards": [
        "FG",
        "BR",
        "SHRA",
        "RA"
      ],
      "severityScore": 100,
      "metarRaw": "METAR LFPO 160700Z AUTO 19002KT 9999 FEW011 07/07 Q1010 TEMPO BKN007",
      "tafRaw": "TAF LFPO 160500Z 1606/1712 21010KT 9999 SCT012 BKN020 \n  TEMPO 1606/1612 BKN012 \n  PROB40 \n  TEMPO 1606/1610 BKN007 \n  BECMG 1616/1618 15005KT CAVOK \n  PROB30 1620/1624 -SHRA SCT008 BKN050TCU \n  BECMG 1702/1705 4000 BR BKN006 \n  TEMPO 1705/1710 2500 BR BKN003 \n  PROB40 \n  TEMPO 1706/1709 0800 FG BKN002 \n  BECMG 1710/1712 9999 NSW BKN010"
    },
    {
      "icao": "LHBP",
      "iata": "BUD",
      "name": "Budapest Liszt Ferenc International Airport",
      "updatedAt": "160700Z",
      "visibility_m": 1200,
      "taf_visibility_m": 700,
      "worst_visibility_m": 700,
      "ceiling_ft": 200,
      "hazards": [
        "BR",
        "FZFG",
        "FZDZ",
        "DZ",
        "FG"
      ],
      "severityScore": 100,
      "metarRaw": "METAR LHBP 160700Z 08005KT 050V110 1500 BR OVC002 01/00 Q1023 TEMPO 1200 BR",
      "tafRaw": "TAF LHBP 160515Z 1606/1706 08005KT 3000 BR OVC004 \n  TEMPO 1606/1610 02003KT 0700 -FZDZ FZFG OVC001 \n  BECMG 1610/1613 6000 NSW SCT007 OVC010 \n  TEMPO 1613/1618 3500 BR BKN005 OVC010 \n  TEMPO 1618/1703 1400 -FZDZ -DZ BR OVC003 \n  TEMPO 1703/1706 3000 BR SCT005 BKN033"
    },
    {
      "icao": "LIMC",
      "iata": "MXP",
      "name": "Milan Malpensa International Airport",
      "updatedAt": "160650Z",
      "visibility_m": 900,
      "taf_visibility_m": 800,
      "worst_visibility_m": 800,
      "ceiling_ft": 200,
      "hazards": [
        "FG",
        "BR",
        "RA"
      ],
      "severityScore": 100,
      "metarRaw": "METAR LIMC 160650Z VRB02KT 0900 R35R/1800N R17L/P2000N R35L/P2000N FG OVC002 06/06 Q1021 NOSIG",
      "tafRaw": "TAF LIMC 160500Z 1606/1712 VRB05KT 2000 -RA BR BKN003 BKN040 \n  TEMPO 1606/1610 0800 FG SCT010 BKN040 \n  BECMG 1616/1618 1200 BCFG BKN003 BKN040"
    },
    {
      "icao": "LIPR",
      "iata": "RMI",
      "name": "Federico Fellini International Airport",
      "updatedAt": "160650Z",
      "visibility_m": 800,
      "taf_visibility_m": 300,
      "worst_visibility_m": 300,
      "ceiling_ft": 200,
      "hazards": [
        "FG",
        "BR"
      ],
      "severityScore": 100,
      "metarRaw": "METAR LIPR 160650Z VRB01KT 0800 R30/1500D FG VV002 06/06 Q1022",
      "tafRaw": "TAF LIPR 160500Z 1606/1706 VRB04KT 2000 BR BKN020 \n  TEMPO 1606/1609 0300 FG BKN001"
    },
    {
      "icao": "LIPY",
      "iata": "AOI",
      "name": "Marche Airport",
      "updatedAt": "160650Z",
      "visibility_m": 100,
      "taf_visibility_m": 400,
      "worst_visibility_m": 100,
      "ceiling_ft": 200,
      "hazards": [
        "FG",
        "RA"
      ],
      "severityScore": 100,
      "metarRaw": "METAR LIPY 160650Z AUTO 21003KT 180V240 0100 R22/0450N -RA FG VV002 06/06 Q1022",
      "tafRaw": "TAF LIPY 160500Z 1606/1706 VRB05KT 6000 SCT060 \n  TEMPO 1606/1608 0400 FG BKN001"
    },
    {
      "icao": "LKMT",
      "iata": "OSR",
      "name": "Ostrava Leos Janáček Airport",
      "updatedAt": "160700Z",
      "visibility_m": 2000,
      "taf_visibility_m": 400,
      "worst_visibility_m": 400,
      "ceiling_ft": 800,
      "hazards": [
        "BR",
        "FZFG",
        "FG"
      ],
      "severityScore": 100,
      "metarRaw": "METAR LKMT 160700Z 16004KT 140V200 2000 BR OVC008 01/01 Q1021 NOSIG",
      "tafRaw": "TAF LKMT 160500Z 1606/1706 22008KT 5000 BR SCT008 BKN030 \n  PROB30 \n  TEMPO 1606/1610 1200 BR BKN005 OVC014 \n  TEMPO 1616/1620 VRB02KT 2000 BR BKN004 OVC012 \n  PROB40 \n  TEMPO 1621/1706 0400 FZFG VV002"
    },
    {
      "icao": "LKPR",
      "iata": "PRG",
      "name": "Václav Havel Airport Prague",
      "updatedAt": "160700Z",
      "visibility_m": 300,
      "taf_visibility_m": 400,
      "worst_visibility_m": 300,
      "ceiling_ft": 200,
      "hazards": [
        "FZFG",
        "FG",
        "BR",
        "DZ"
      ],
      "severityScore": 100,
      "metarRaw": "METAR LKPR 160700Z 09004KT 060V130 0300 R24/0500U R30/0450N FZFG VV002 M01/M01 Q1019 NOSIG",
      "tafRaw": "TAF LKPR 160500Z 1606/1712 VRB02KT 0400 FZFG VV002 \n  TEMPO 1606/1608 0700 FZFG OVC002 \n  BECMG 1608/1610 11005KT 2000 BR BKN003 \n  TEMPO 1610/1617 3500 BR BKN005 \n  PROB40 \n  TEMPO 1618/1709 0500 -DZ FG OVC002"
    },
    {
      "icao": "LOWW",
      "iata": "VIE",
      "name": "Vienna International Airport",
      "updatedAt": "160650Z",
      "visibility_m": 500,
      "taf_visibility_m": null,
      "worst_visibility_m": 500,
      "ceiling_ft": 100,
      "hazards": [
        "FZFG",
        "FG"
      ],
      "severityScore": 100,
      "metarRaw": "METAR LOWW 160650Z 14007KT 0600 R11/0800N R16/0750N FZFG VV002 M01/M01 Q1022 TEMPO 0500 FZFG VV001",
      "tafRaw": null
    },
    {
      "icao": "LQBK",
      "iata": "BNX",
      "name": "Banja Luka International Airport",
      "updatedAt": "160700Z",
      "visibility_m": 10000,
      "taf_visibility_m": 400,
      "worst_visibility_m": 400,
      "ceiling_ft": 200,
      "hazards": [
        "FG",
        "BR"
      ],
      "severityScore": 100,
      "metarRaw": "METAR LQBK 160700Z VRB02KT CAVOK 02/01 Q1021 NOSIG",
      "tafRaw": "TAF LQBK 160500Z 1606/1706 15005KT 9999 SCT047 TX11/1613Z TN00/1705Z \n  TEMPO 1622/1706 3000 BR BKN005 \n  PROB30 \n  TEMPO 1700/1706 0400 FG BKN002"
    },
    {
      "icao": "LQSA",
      "iata": "SJJ",
      "name": "Sarajevo International Airport",
      "updatedAt": "160700Z",
      "visibility_m": 100,
      "taf_visibility_m": 300,
      "worst_visibility_m": 100,
      "ceiling_ft": 200,
      "hazards": [
        "FZFG",
        "FG",
        "BR"
      ],
      "severityScore": 100,
      "metarRaw": "METAR LQSA 160700Z 00000KT 0100 R11/0200N FZFG BKN002 M00/M00 Q1023 BECMG 0400",
      "tafRaw": "TAF LQSA 160500Z 1606/1706 VRB02KT 1200 BR BKN004 TX06/1614Z TNM01/1606Z \n  PROB40 1606/1608 0500 FZFG \n  BECMG 1609/1611 6000 NSW FEW010 \n  BECMG 1617/1620 2000 BR \n  PROB40 1702/1706 0300 FZFG BKN003"
    },
    {
      "icao": "LQTZ",
      "iata": "TZL",
      "name": "Tuzla International Airport",
      "updatedAt": "160700Z",
      "visibility_m": 3000,
      "taf_visibility_m": 400,
      "worst_visibility_m": 400,
      "ceiling_ft": 200,
      "hazards": [
        "BR",
        "FZFG",
        "FG"
      ],
      "severityScore": 100,
      "metarRaw": "METAR LQTZ 160700Z VRB02KT 3000 BR NSC 01/01 Q1022",
      "tafRaw": "TAF LQTZ 160500Z 1606/1706 VRB02KT 6000 SCT050 TX10/1613Z TNM02/1705Z \n  TEMPO 1606/1609 3000 BR \n  TEMPO 1620/1706 2000 BR BKN005 \n  PROB30 \n  TEMPO 1700/1706 0400 FZFG BKN002"
    },
    {
      "icao": "LRCL",
      "iata": "CLJ",
      "name": "Cluj Avram Iancu International Airport",
      "updatedAt": "160700Z",
      "visibility_m": 3000,
      "taf_visibility_m": 3000,
      "worst_visibility_m": 3000,
      "ceiling_ft": 300,
      "hazards": [
        "BR",
        "SN",
        "FZRA",
        "RA"
      ],
      "severityScore": 100,
      "metarRaw": "METAR LRCL 160700Z 05006KT 3000 -SN BR OVC003 00/M00 Q1025 REFZRA",
      "tafRaw": "TAF LRCL 160500Z 1606/1615 VRB04KT 3000 -FZRA BR OVC005 \n  BECMG 1606/1608 5000 -SN BR BKN010 OVC020 \n  BECMG 1610/1612 12010KT 9999 NSW BKN020"
    },
    {
      "icao": "LWSK",
      "iata": "SKP",
      "name": "Skopje International Airport",
      "updatedAt": "160650Z",
      "visibility_m": 4000,
      "taf_visibility_m": 800,
      "worst_visibility_m": 800,
      "ceiling_ft": 500,
      "hazards": [
        "BR",
        "FZFG",
        "FG"
      ],
      "severityScore": 100,
      "metarRaw": "METAR LWSK 160650Z VRB01KT 4000 BR SCT055 M02/M03 Q1025 NOSIG",
      "tafRaw": "TAF LWSK 160535Z 1606/1706 VRB02KT 3000 BR FEW050 \n  PROB30 \n  TEMPO 1606/1608 0800 FZFG BKN005 \n  BECMG 1609/1611 CAVOK"
    },
    {
      "icao": "LZTT",
      "iata": "TAT",
      "name": "Poprad-Tatry Airport",
      "updatedAt": "160700Z",
      "visibility_m": 3000,
      "taf_visibility_m": 800,
      "worst_visibility_m": 800,
      "ceiling_ft": 600,
      "hazards": [
        "BR",
        "FZFG",
        "FG"
      ],
      "severityScore": 100,
      "metarRaw": "METAR LZTT 160700Z VRB01KT 3000 BR OVC006 M00/M01 Q1021 NOSIG",
      "tafRaw": "TAF LZTT 160515Z 1606/1706 VRB02KT 4000 OVC006 \n  TEMPO 1606/1609 1200 BR OVC002 \n  TEMPO 1609/1617 8000 BKN017 \n  TEMPO 1618/1706 0800 FZFG OVC002"
    },
    {
      "icao": "UAAA",
      "iata": "ALA",
      "name": "Almaty International Airport",
      "updatedAt": "160700Z",
      "visibility_m": 3100,
      "taf_visibility_m": 600,
      "worst_visibility_m": 600,
      "ceiling_ft": 2800,
      "hazards": [
        "BR",
        "SN",
        "FZFG",
        "BLSN",
        "SHSN",
        "FG"
      ],
      "severityScore": 100,
      "metarRaw": "METAR UAAA 160700Z 28004MPS 3100 -SN BR OVC028 M10/M11 Q1017 NOSIG",
      "tafRaw": "TAF UAAA 160504Z 1606/1706 33003G08MPS 3100 -SHSN BR BKN011CB OVC030 TXM07/1608Z TNM18/1703Z \n  TEMPO 1606/1616 26005G12MPS 1200 SN BR OVC003 \n  TEMPO 1616/1704 33008G13MPS 0600 SHSN BLSN FZFG VV002"
    },
    {
      "icao": "LRSB",
      "iata": "SBZ",
      "name": "Sibiu International Airport",
      "updatedAt": "160700Z",
      "visibility_m": 1800,
      "taf_visibility_m": 1500,
      "worst_visibility_m": 1500,
      "ceiling_ft": 300,
      "hazards": [
        "BR",
        "RA",
        "SN",
        "DZ"
      ],
      "severityScore": 95,
      "metarRaw": "METAR LRSB 160700Z 23001KT 1800 -RA BR BKN003 OVC007 01/01 Q1023 NOSIG",
      "tafRaw": "TAF LRSB 160500Z 1606/1706 VRB04KT 1500 -DZ BR OVC002 \n  BECMG 1607/1609 3000 -RA BR BKN005 OVC020 \n  BECMG 1609/1611 5000 -RA BR BKN010 OVC025 \n  BECMG 1614/1616 11010KT 3000 -SN BR \n  BECMG 1616/1618 9999 NSW BKN025 \n  BECMG 1622/1624 VRB04KT"
    },
    {
      "icao": "LIRZ",
      "iata": "PEG",
      "name": "Perugia San Francesco d'Assisi – Umbria International Airport",
      "updatedAt": "160650Z",
      "visibility_m": 10000,
      "taf_visibility_m": 800,
      "worst_visibility_m": 800,
      "ceiling_ft": 200,
      "hazards": [
        "FG",
        "BR"
      ],
      "severityScore": 90,
      "metarRaw": "METAR LIRZ 160650Z AUTO 01005KT 9999 NCD 03/03 Q1021",
      "tafRaw": "TAF LIRZ 160500Z 1606/1706 VRB04KT 4000 BR FEW040 \n  TEMPO 1606/1609 0800 FG OVC002 \n  BECMG 1609/1611 9000 \n  TEMPO 1703/1706 1500 BCFG"
    },
    {
      "icao": "EGGP",
      "iata": "LPL",
      "name": "Liverpool John Lennon Airport",
      "updatedAt": "160650Z",
      "visibility_m": 10000,
      "taf_visibility_m": 3000,
      "worst_visibility_m": 3000,
      "ceiling_ft": 400,
      "hazards": [
        "BR",
        "RA",
        "DZ",
        "FG"
      ],
      "severityScore": 87,
      "metarRaw": "METAR EGGP 160650Z 15008KT 9999 FEW015 03/03 Q1001",
      "tafRaw": "TAF EGGP 160500Z 1606/1706 15009KT 9999 FEW040 \n  TEMPO 1606/1612 3000 -DZ BR MIFG BKN004 \n  PROB30 \n  TEMPO 1606/1608 RADZ \n  PROB30 \n  TEMPO 1619/1622 6000 RA BKN012 \n  TEMPO 1622/1706 6000 RA BKN009 \n  PROB30 \n  TEMPO 1700/1706 4000 +RA"
    },
    {
      "icao": "LIPE",
      "iata": "BLQ",
      "name": "Bologna Guglielmo Marconi Airport",
      "updatedAt": "160650Z",
      "visibility_m": 1000,
      "taf_visibility_m": 300,
      "worst_visibility_m": 300,
      "ceiling_ft": 1000,
      "hazards": [
        "BR",
        "FG"
      ],
      "severityScore": 87,
      "metarRaw": "METAR LIPE 160650Z 29003KT 1000 R12/P2000N R30/P2000N BR FEW005 OVC010 06/06 Q1022",
      "tafRaw": "TAF LIPE 160500Z 1606/1706 VRB04KT 2000 BR BKN020 \n  TEMPO 1606/1609 0300 FG BKN001"
    },
    {
      "icao": "ENGM",
      "iata": "OSL",
      "name": "Oslo-Gardermoen International Airport",
      "updatedAt": "160650Z",
      "visibility_m": 2000,
      "taf_visibility_m": 1000,
      "worst_visibility_m": 1000,
      "ceiling_ft": 400,
      "hazards": [
        "BR",
        "SN",
        "RA"
      ],
      "severityScore": 85,
      "metarRaw": "METAR ENGM 160650Z VRB02KT 4500 -SNRA BKN004 00/M00 Q1008 TEMPO 2000 -SNRA BR",
      "tafRaw": "TAF ENGM 160500Z 1606/1706 VRB03KT 5000 -SNRA BR BKN010 \n  TEMPO 1606/1613 1000 RASN BR BKN003 \n  BECMG 1612/1614 18010KT RA \n  TEMPO 1613/1624 3000 BR BKN003 \n  PROB40 1700/1706 1200 BR BKN002"
    },
    {
      "icao": "HESX",
      "iata": "SPX",
      "name": "Sphinx International Airport",
      "updatedAt": "160700Z",
      "visibility_m": 150,
      "taf_visibility_m": 150,
      "worst_visibility_m": 150,
      "ceiling_ft": null,
      "hazards": [
        "FG",
        "BR"
      ],
      "severityScore": 85,
      "metarRaw": "METAR HESX 160700Z 29002KT 0150 R34/0150 FG NSC 09/08 Q1024 NOSIG",
      "tafRaw": "TAF HESX 160630Z 1607/1712 36006KT 9999 SCT025 \n  TEMPO 1607/1608 0150 FG VV/// \n  TEMPO 1608/1610 3000 BR"
    },
    {
      "icao": "EGKK",
      "iata": "LGW",
      "name": "London Gatwick Airport",
      "updatedAt": "160650Z",
      "visibility_m": 10000,
      "taf_visibility_m": 4000,
      "worst_visibility_m": 4000,
      "ceiling_ft": 400,
      "hazards": [
        "RA",
        "BR",
        "SHRA",
        "DZ"
      ],
      "severityScore": 81,
      "metarRaw": "METAR EGKK 160650Z VRB01KT 9999 -RA SCT014 SCT023 06/06 Q1005",
      "tafRaw": "TAF EGKK 160455Z 1606/1712 07003KT 9999 SCT030 \n  BECMG 1606/1609 20010KT \n  TEMPO 1606/1607 4000 BR BKN004 \n  PROB40 \n  TEMPO 1606/1612 6000 SHRA BKN008 \n  PROB30 \n  TEMPO 1612/1623 7000 SHRA \n  PROB30 \n  TEMPO 1612/1616 BKN012 \n  BECMG 1615/1618 14010KT \n  PROB30 \n  TEMPO 1616/1623 BKN008 \n  TEMPO 1623/1712 7000 -RADZ BKN007 \n  PROB30 \n  TEMPO 1706/1711 4000 RADZ BKN004"
    },
    {
      "icao": "LROP",
      "iata": "OTP",
      "name": "Bucharest Henri Coandă International Airport",
      "updatedAt": "160700Z",
      "visibility_m": 800,
      "taf_visibility_m": 1500,
      "worst_visibility_m": 800,
      "ceiling_ft": 700,
      "hazards": [
        "SN",
        "BR"
      ],
      "severityScore": 78,
      "metarRaw": "METAR LROP 160700Z 07014KT 0800 R08R/1000D R08L/1100U SN BKN007 OVC033 M04/M06 Q1029 NOSIG",
      "tafRaw": "TAF LROP 160500Z 1606/1706 07015KT 3000 -SN BR BKN010 OVC035 \n  TEMPO 1606/1610 1500 -SN BR BKN005 OVC025 \n  BECMG 1610/1612 9999 NSW BKN035 \n  BECMG 1618/1620 06005KT"
    },
    {
      "icao": "LIBR",
      "iata": "BDS",
      "name": "Brindisi Airport",
      "updatedAt": "160650Z",
      "visibility_m": 8000,
      "taf_visibility_m": 1500,
      "worst_visibility_m": 1500,
      "ceiling_ft": 100,
      "hazards": [
        "BR",
        "FG"
      ],
      "severityScore": 75,
      "metarRaw": "METAR LIBR 160650Z VRB02KT 8000 FEW025 08/07 Q1021",
      "tafRaw": "TAF LIBR 160500Z 1606/1706 VRB05KT 9999 FEW025 \n  TEMPO 1606/1608 1500 BCFG BKN001"
    },
    {
      "icao": "LICC",
      "iata": "CTA",
      "name": "Catania-Fontanarossa Airport",
      "updatedAt": "160650Z",
      "visibility_m": 10000,
      "taf_visibility_m": 4000,
      "worst_visibility_m": 4000,
      "ceiling_ft": 1500,
      "hazards": [
        "TSRA",
        "TS",
        "RA"
      ],
      "severityScore": 74,
      "metarRaw": "METAR LICC 160650Z 24004KT 9999 BKN015 07/05 Q1020",
      "tafRaw": "TAF LICC 160500Z 1606/1706 VRB05KT 9999 SCT020 \n  BECMG 1610/1612 08010KT \n  TEMPO 1620/1624 4000 TSRA \n  TEMPO 1704/1706 4000 TSRA"
    },
    {
      "icao": "ENTO",
      "iata": "TRF",
      "name": "Sandefjord Airport, Torp",
      "updatedAt": "160650Z",
      "visibility_m": 1000,
      "taf_visibility_m": null,
      "worst_visibility_m": 1000,
      "ceiling_ft": 200,
      "hazards": [
        "BR",
        "RA"
      ],
      "severityScore": 72,
      "metarRaw": "METAR ENTO 160650Z 17014KT 1000 R18/1800D R36/P2000N RA BR VV002 04/04 Q1007 TEMPO 3000 -RA BR",
      "tafRaw": null
    },
    {
      "icao": "UGKO",
      "iata": "KUT",
      "name": "David the Builder Kutaisi International Airport",
      "updatedAt": "160700Z",
      "visibility_m": 1200,
      "taf_visibility_m": 2000,
      "worst_visibility_m": 1200,
      "ceiling_ft": 1000,
      "hazards": [
        "BR",
        "SN",
        "RA",
        "SHSN"
      ],
      "severityScore": 72,
      "metarRaw": "METAR UGKO 160700Z 07009KT 1200 R07/1000N SNRA BR BKN010 OVC028 M00/M01 Q1022 NOSIG",
      "tafRaw": "TAF UGKO 160500Z 1606/1706 10007KT 8000 BKN020 OVC040 TX03/1612Z TN00/1606Z \n  TEMPO 1606/1611 2000 SHSN SCT007 BKN015CB OVC030 \n  TEMPO 1611/1620 5000 SNRA BR SCT017 OVC035 \n  TEMPO 1620/1706 3000 SHSNRA SCT010 BKN015CB OVC030"
    },
    {
      "icao": "EFTU",
      "iata": "TKU",
      "name": "Turku Airport",
      "updatedAt": "160650Z",
      "visibility_m": 10000,
      "taf_visibility_m": 2500,
      "worst_visibility_m": 2500,
      "ceiling_ft": 1900,
      "hazards": [
        "FZRA",
        "RA",
        "DZ"
      ],
      "severityScore": 69,
      "metarRaw": "METAR EFTU 160650Z AUTO 17009KT 9999 OVC019 01/M00 Q1023",
      "tafRaw": "TAF EFTU 160532Z 1606/1706 18010KT 9000 FEW009 OVC025 \n  BECMG 1606/1608 BKN013 \n  PROB30 \n  TEMPO 1608/1616 BKN015 \n  TEMPO 1616/1702 7000 -FZRA OVC008 \n  BECMG 1702/1704 4000 -FZRA BKN006 \n  BECMG 1704/1706 2500 -DZRA BKN003"
    },
    {
      "icao": "ESGG",
      "iata": "GOT",
      "name": "Göteborg Landvetter Airport",
      "updatedAt": "160650Z",
      "visibility_m": 1500,
      "taf_visibility_m": 1200,
      "worst_visibility_m": 1200,
      "ceiling_ft": 200,
      "hazards": [
        "BR",
        "RA"
      ],
      "severityScore": 67,
      "metarRaw": "METAR ESGG 160650Z 14011KT 1500 R03/P2000N R21/P2000N BR VV002 03/03 Q1010",
      "tafRaw": "TAF ESGG 160530Z 1606/1706 16009KT 5000 -RA OVC002 \n  TEMPO 1606/1609 1200 RA BR \n  PROB40 1609/1618 16015G25KT"
    },
    {
      "icao": "LIME",
      "iata": "BGY",
      "name": "Milan Bergamo Airport / Antonio Locatelli Air Base",
      "updatedAt": "160650Z",
      "visibility_m": 4000,
      "taf_visibility_m": 800,
      "worst_visibility_m": 800,
      "ceiling_ft": 5500,
      "hazards": [
        "BR",
        "RA",
        "FG"
      ],
      "severityScore": 67,
      "metarRaw": "METAR LIME 160650Z VRB02KT 4000 -RA BR SCT035 BKN055 05/05 Q1021 NOSIG",
      "tafRaw": "TAF LIME 160500Z 1606/1706 VRB03KT 2000 BR BKN020 \n  TEMPO 1606/1609 0800 FG BKN005 \n  BECMG 1616/1618 1200 BCFG BKN005"
    },
    {
      "icao": "OJAI",
      "iata": "AMM",
      "name": "Queen Alia International Airport",
      "updatedAt": "160700Z",
      "visibility_m": 800,
      "taf_visibility_m": 300,
      "worst_visibility_m": 300,
      "ceiling_ft": null,
      "hazards": [
        "FG"
      ],
      "severityScore": 65,
      "metarRaw": "METAR OJAI 160700Z 09002KT 0800 FG VV/// 04/03 Q1024 NOSIG",
      "tafRaw": "TAF OJAI 160435Z 1606/1712 VRB02KT 0300 FG NSC \n  BECMG 1607/1609 15010KT 4000 FEW030"
    },
    {
      "icao": "LPFR",
      "iata": "FAO",
      "name": "Faro Airport",
      "updatedAt": "160700Z",
      "visibility_m": 10000,
      "taf_visibility_m": 3000,
      "worst_visibility_m": 3000,
      "ceiling_ft": 1500,
      "hazards": [
        "SHRA",
        "TS",
        "RA"
      ],
      "severityScore": 63,
      "metarRaw": "METAR LPFR 160700Z 27007KT 9999 FEW020 11/10 Q1016",
      "tafRaw": "TAF LPFR 160500Z 1606/1706 30010KT 9999 FEW015 \n  BECMG 1610/1612 24012KT SCT025 \n  TEMPO 1610/1706 8000 SHRA BKN015 FEW020CB \n  PROB30 \n  TEMPO 1610/1618 VRB10G20KT 3000 TSRAGS SCT018CB \n  BECMG 1618/1620 31005KT"
    },
    {
      "icao": "LPPT",
      "iata": "LIS",
      "name": "Lisbon Humberto Delgado Airport",
      "updatedAt": "160700Z",
      "visibility_m": 10000,
      "taf_visibility_m": 3000,
      "worst_visibility_m": 3000,
      "ceiling_ft": 1200,
      "hazards": [
        "SHRA",
        "TS",
        "RA"
      ],
      "severityScore": 63,
      "metarRaw": "METAR LPPT 160700Z 29004KT 9999 VCSH FEW016 FEW020TCU SCT044 10/10 Q1015",
      "tafRaw": "TAF LPPT 160500Z 1606/1712 24007KT 9999 FEW015 SCT035 \n  TEMPO 1606/1712 7000 SHRA BKN012 FEW020CB \n  PROB40 \n  TEMPO 1606/1619 VRB10G20KT 3000 +TSRAGS SCT018CB \n  BECMG 1612/1614 32010KT \n  BECMG 1619/1621 30007KT"
    },
    {
      "icao": "LRBS",
      "iata": "BBU",
      "name": "Bucharest Băneasa Aurel Vlaicu International Airport",
      "updatedAt": "160700Z",
      "visibility_m": 1500,
      "taf_visibility_m": 1500,
      "worst_visibility_m": 1500,
      "ceiling_ft": 500,
      "hazards": [
        "BR",
        "SN"
      ],
      "severityScore": 63,
      "metarRaw": "METAR LRBS 160700Z 05014G24KT 020V080 2400 -SN BR BKN007 OVC030 M04/M05 Q1029 TEMPO 1500 SN BKN005 OVC030",
      "tafRaw": "TAF LRBS 160500Z 1606/1706 06015KT 3000 -SN BR BKN010 OVC035 \n  TEMPO 1606/1610 1500 -SN BR BKN005 OVC025 \n  BECMG 1610/1612 9999 NSW BKN035 \n  BECMG 1618/1620 06005KT"
    },
    {
      "icao": "LRTM",
      "iata": "TGM",
      "name": "Târgu Mureş Transilvania International Airport",
      "updatedAt": "160700Z",
      "visibility_m": 4000,
      "taf_visibility_m": 3000,
      "worst_visibility_m": 3000,
      "ceiling_ft": 400,
      "hazards": [
        "BR",
        "SN"
      ],
      "severityScore": 63,
      "metarRaw": "METAR LRTM 160700Z 07007KT 4000 -SN BR FEW002 BKN004 BKN010 M01/M01 Q1025",
      "tafRaw": "TAF LRTM 160500Z 1606/1615 VRB04KT 5000 BR BKN005 BKN030 \n  BECMG 1606/1608 3000 -SN BR \n  BECMG 1612/1614 9999 NSW BKN030"
    },
    {
      "icao": "LUKK",
      "iata": "RMO",
      "name": "Chişinău International Airport",
      "updatedAt": "160700Z",
      "visibility_m": 2000,
      "taf_visibility_m": 3000,
      "worst_visibility_m": 2000,
      "ceiling_ft": 300,
      "hazards": [
        "SN",
        "BR"
      ],
      "severityScore": 63,
      "metarRaw": "METAR LUKK 160700Z 35007KT 320V030 8000 NSC M13/M14 Q1032 TEMPO 2000 SN BKN003",
      "tafRaw": "TAF LUKK 160518Z 1606/1706 01012KT 9999 BKN015 \n  TEMPO 1606/1609 3000 -SN BR BKN004 \n  BECMG 1609/1610 CAVOK"
    },
    {
      "icao": "LMML",
      "iata": "MLA",
      "name": "Malta International Airport",
      "updatedAt": "160645Z",
      "visibility_m": 10000,
      "taf_visibility_m": 4000,
      "worst_visibility_m": 4000,
      "ceiling_ft": null,
      "hazards": [
        "TSRA",
        "RA",
        "TS"
      ],
      "severityScore": 62,
      "metarRaw": "METAR LMML 160645Z 13013KT CAVOK 16/14 Q1018 NOSIG",
      "tafRaw": "TAF LMML 160500Z 1606/1706 13012KT 9999 FEW020 \n  TEMPO 1606/1706 7000 RA \n  PROB30 \n  TEMPO 1621/1706 VRB15G25KT 4000 TSRA TSRAGS BKN015CB"
    },
    {
      "icao": "EKBI",
      "iata": "BLL",
      "name": "Billund Airport",
      "updatedAt": "160650Z",
      "visibility_m": 10000,
      "taf_visibility_m": 3000,
      "worst_visibility_m": 3000,
      "ceiling_ft": 800,
      "hazards": [
        "BR",
        "RA",
        "DZ"
      ],
      "severityScore": 57,
      "metarRaw": "METAR EKBI 160650Z AUTO 14009KT 9999 FEW009/// BKN070/// 05/05 Q1006",
      "tafRaw": "TAF EKBI 160527Z 1606/1706 15008KT 6000 FEW045 \n  TEMPO 1606/1615 20015G25KT 4000 -RADZ BR BKN008 \n  BECMG 1617/1620 3000 BR \n  TEMPO 1702/1706 BKN010"
    },
    {
      "icao": "EPMO",
      "iata": "WMI",
      "name": "Modlin Airport",
      "updatedAt": "160700Z",
      "visibility_m": 2300,
      "taf_visibility_m": 1500,
      "worst_visibility_m": 1500,
      "ceiling_ft": 400,
      "hazards": [
        "BR"
      ],
      "severityScore": 55,
      "metarRaw": "METAR EPMO 160700Z 09006KT 2300 BR SCT008 M06/M07 Q1025",
      "tafRaw": "TAF EPMO 160530Z 1606/1706 12007KT 3000 BR BKN007 \n  TEMPO 1606/1608 1500 BR BKN004 \n  PROB40 1606/1610 SCT007 \n  BECMG 1607/1609 9999 \n  TEMPO 1610/1706 BKN010 \n  PROB40 1618/1706 BKN015"
    },
    {
      "icao": "LHDC",
      "iata": "DEB",
      "name": "Debrecen International Airport",
      "updatedAt": "160645Z",
      "visibility_m": 1700,
      "taf_visibility_m": 1400,
      "worst_visibility_m": 1400,
      "ceiling_ft": 800,
      "hazards": [
        "BR",
        "DZ"
      ],
      "severityScore": 55,
      "metarRaw": "METAR LHDC 160645Z AUTO 06008KT 1700 BR OVC008 01/01 Q1024 NOSIG",
      "tafRaw": "TAF LHDC 160515Z 1606/1615 06005KT 5000 BR SCT010 OVC015 \n  TEMPO 1606/1610 1400 -DZ BR OVC004 \n  TEMPO 1610/1615 3500 BR OVC010"
    },
    {
      "icao": "LIPQ",
      "iata": "TRS",
      "name": "Trieste–Friuli Venezia Giulia Airport",
      "updatedAt": "160650Z",
      "visibility_m": 1800,
      "taf_visibility_m": 1200,
      "worst_visibility_m": 1200,
      "ceiling_ft": 100,
      "hazards": [
        "BR"
      ],
      "severityScore": 55,
      "metarRaw": "METAR LIPQ 160650Z AUTO 36003KT 330V030 1800 BR BKN003/// BKN027/// OVC032/// 08/08 Q1021",
      "tafRaw": "TAF LIPQ 160500Z 1606/1706 VRB04KT 3000 BR BKN020 \n  TEMPO 1606/1608 1200 BR BKN001 \n  BECMG 1608/1610 8000 \n  BECMG 1616/1618 3000 BR"
    },
    {
      "icao": "LBWN",
      "iata": "VAR",
      "name": "Varna Airport",
      "updatedAt": "160700Z",
      "visibility_m": 5000,
      "taf_visibility_m": 1200,
      "worst_visibility_m": 1200,
      "ceiling_ft": 1000,
      "hazards": [
        "SN",
        "RA"
      ],
      "severityScore": 52,
      "metarRaw": "METAR LBWN 160700Z 09005KT 020V130 7000 -RASN FEW011 SCT018 OVC022 00/M00 Q1026 TEMPO 5000 SNRA BKN010 OVC025",
      "tafRaw": "TAF LBWN 160500Z 1606/1706 04010KT 5000 RASN SCT010 OVC020 \n  BECMG 1607/1609 3000 SN BKN005 OVC020 \n  PROB40 \n  TEMPO 1607/1614 1200 SN \n  BECMG 1614/1616 9999 NSW BKN045"
    },
    {
      "icao": "LIPX",
      "iata": "VRN",
      "name": "Verona Villafranca Valerio Catullo Airport",
      "updatedAt": "160650Z",
      "visibility_m": 5000,
      "taf_visibility_m": 1200,
      "worst_visibility_m": 1200,
      "ceiling_ft": 6000,
      "hazards": [
        "BR",
        "RA",
        "FG"
      ],
      "severityScore": 52,
      "metarRaw": "METAR LIPX 160650Z VRB02KT 5000 -RA BR FEW050 BKN060 04/04 Q1022",
      "tafRaw": "TAF LIPX 160500Z 1606/1706 VRB04KT 4000 BR SCT020 BKN060 \n  TEMPO 1606/1609 1500 BCFG BKN010 BKN060 \n  TEMPO 1620/1624 1200 BCFG BKN010 BKN060"
    },
    {
      "icao": "LPPR",
      "iata": "OPO",
      "name": "Francisco de Sá Carneiro Airport",
      "updatedAt": "160700Z",
      "visibility_m": 10000,
      "taf_visibility_m": 2000,
      "worst_visibility_m": 2000,
      "ceiling_ft": 4300,
      "hazards": [
        "SHRA",
        "TS",
        "RA"
      ],
      "severityScore": 51,
      "metarRaw": "METAR LPPR 160700Z 16009KT 9999 FEW030 BKN043 09/08 Q1012",
      "tafRaw": "TAF LPPR 160500Z 1606/1706 20010KT 9999 SCT012 SCT025 \n  TEMPO 1606/1706 5000 SHRA BKN010 FEW018CB \n  PROB40 \n  TEMPO 1606/1620 VRB15G25KT 2000 +TSRAGS BKN008 SCT015CB \n  BECMG 1610/1612 30007KT \n  BECMG 1620/1622 VRB02KT"
    },
    {
      "icao": "EKCH",
      "iata": "CPH",
      "name": "Copenhagen Kastrup Airport",
      "updatedAt": "160650Z",
      "visibility_m": 2000,
      "taf_visibility_m": null,
      "worst_visibility_m": 2000,
      "ceiling_ft": 200,
      "hazards": [
        "BR"
      ],
      "severityScore": 50,
      "metarRaw": "METAR EKCH 160650Z 13017KT 2000 BR BKN002 04/03 Q1012 BECMG 4000 BKN005",
      "tafRaw": null
    },
    {
      "icao": "EPPO",
      "iata": "POZ",
      "name": "Poznań-Ławica Airport",
      "updatedAt": "160700Z",
      "visibility_m": 3000,
      "taf_visibility_m": null,
      "worst_visibility_m": 3000,
      "ceiling_ft": 400,
      "hazards": [
        "BR"
      ],
      "severityScore": 50,
      "metarRaw": "METAR EPPO 160700Z 12007KT 3000 BR OVC004 01/00 Q1020",
      "tafRaw": null
    },
    {
      "icao": "ESKN",
      "iata": "NYO",
      "name": "Stockholm Skavsta Airport",
      "updatedAt": "160650Z",
      "visibility_m": 2500,
      "taf_visibility_m": null,
      "worst_visibility_m": 2500,
      "ceiling_ft": 300,
      "hazards": [
        "BR"
      ],
      "severityScore": 50,
      "metarRaw": "METAR ESKN 160650Z 15015KT 2500 BR OVC003 03/03 Q1017",
      "tafRaw": null
    },
    {
      "icao": "LRBV",
      "iata": "GHV",
      "name": "Brașov-Ghimbav International Airport",
      "updatedAt": "160700Z",
      "visibility_m": 9000,
      "taf_visibility_m": 1500,
      "worst_visibility_m": 1500,
      "ceiling_ft": 1300,
      "hazards": [
        "BR",
        "SN"
      ],
      "severityScore": 50,
      "metarRaw": "METAR LRBV 160700Z 11005KT 080V150 9000 FEW010 BKN013 OVC017 01/M01 Q1024",
      "tafRaw": "TAF LRBV 160500Z 1606/1615 VRB04KT 3000 BR BKN005 BKN025 \n  BECMG 1606/1608 08010KT \n  TEMPO 1606/1610 1500 -SN BR"
    },
    {
      "icao": "LEBL",
      "iata": "BCN",
      "name": "Josep Tarradellas Barcelona-El Prat Airport",
      "updatedAt": "160700Z",
      "visibility_m": 9000,
      "taf_visibility_m": 2000,
      "worst_visibility_m": 2000,
      "ceiling_ft": 1000,
      "hazards": [
        "BR",
        "SHRA",
        "RA"
      ],
      "severityScore": 48,
      "metarRaw": "METAR LEBL 160700Z 33010G25KT 280V010 9000 FEW015 06/04 Q1014 NOSIG",
      "tafRaw": "TAF LEBL 160500Z 1606/1706 34007KT 9999 FEW015 TX14/1612Z TN06/1606Z \n  PROB30 \n  TEMPO 1606/1607 3000 BR BKN010 \n  BECMG 1611/1613 14006KT \n  BECMG 1618/1620 34007KT \n  PROB40 \n  TEMPO 1620/1703 4000 SHRA FEW020TCU \n  TEMPO 1703/1706 2000 +SHRA SCT015TCU BKN018"
    },
    {
      "icao": "ESSA",
      "iata": "ARN",
      "name": "Stockholm-Arlanda Airport",
      "updatedAt": "160650Z",
      "visibility_m": 10000,
      "taf_visibility_m": 3000,
      "worst_visibility_m": 3000,
      "ceiling_ft": 900,
      "hazards": [
        "BR",
        "RA"
      ],
      "severityScore": 47,
      "metarRaw": "METAR ESSA 160650Z 16013KT 9999 BKN010 02/01 Q1018 TEMPO BKN009",
      "tafRaw": "TAF ESSA 160530Z 1606/1706 17015KT 9999 OVC010 \n  BECMG 1606/1608 OVC007 \n  PROB40 1608/1610 3000 -RA BR OVC004 \n  BECMG 1610/1612 OVC004 \n  PROB40 1612/1706 OVC005 \n  TEMPO 1611/1622 18015G25KT"
    },
    {
      "icao": "EDDN",
      "iata": "NUE",
      "name": "Nuremberg Airport",
      "updatedAt": "160650Z",
      "visibility_m": 10000,
      "taf_visibility_m": 2000,
      "worst_visibility_m": 2000,
      "ceiling_ft": 300,
      "hazards": [
        "BR"
      ],
      "severityScore": 45,
      "metarRaw": "METAR EDDN 160650Z AUTO 14003KT CAVOK 01/M01 Q1016 NOSIG",
      "tafRaw": "TAF EDDN 160500Z 1606/1706 11006KT CAVOK \n  BECMG 1619/1621 2000 BR OVC003"
    },
    {
      "icao": "EPRZ",
      "iata": "RZE",
      "name": "Rzeszów-Jasionka Airport",
      "updatedAt": "160700Z",
      "visibility_m": 2000,
      "taf_visibility_m": 4000,
      "worst_visibility_m": 2000,
      "ceiling_ft": 300,
      "hazards": [
        "BR"
      ],
      "severityScore": 45,
      "metarRaw": "METAR EPRZ 160700Z 10013KT 2000 BR OVC003 M01/M02 Q1025",
      "tafRaw": "TAF EPRZ 160530Z 1606/1706 09010KT 4000 BR OVC004 \n  BECMG 1606/1609 7000 BKN010 \n  BECMG 1609/1612 SCT012 \n  PROB30 \n  TEMPO 1618/1706 4000 BR"
    },
    {
      "icao": "LTFM",
      "iata": "IST",
      "name": "İstanbul Airport",
      "updatedAt": "160650Z",
      "visibility_m": 10000,
      "taf_visibility_m": 10000,
      "worst_visibility_m": 10000,
      "ceiling_ft": 2400,
      "hazards": [
        "SHRA",
        "SN",
        "RA"
      ],
      "severityScore": 44,
      "metarRaw": "METAR LTFM 160650Z 03007KT 9999 SCT008 BKN024 09/07 Q1024 NOSIG RMK RWY17L 04006KT RWY34L 36005KT RWY16R 03006KT RWY36 03007KT RWY18 04006KT",
      "tafRaw": "TAF LTFM 160440Z 1606/1712 VRB02KT 9999 FEW008 SCT025 BKN070 \n  BECMG 1607/1610 04017G27KT -SHRA SCT008 BKN022 \n  TEMPO 1618/1622 -SHRASN \n  TEMPO 1623/1703 -SHSNRA"
    },
    {
      "icao": "LBPD",
      "iata": "PDV",
      "name": "Plovdiv International Airport",
      "updatedAt": "160700Z",
      "visibility_m": 10000,
      "taf_visibility_m": 3000,
      "worst_visibility_m": 3000,
      "ceiling_ft": 1000,
      "hazards": [
        "SN",
        "RA"
      ],
      "severityScore": 42,
      "metarRaw": "METAR LBPD 160700Z AUTO 08005KT 9999 OVC073/// 04/03 Q1024 NOSIG",
      "tafRaw": "TAF LBPD 160500Z 1606/1706 VRB03KT 9999 BKN070 \n  BECMG 1607/1609 10010KT \n  TEMPO 1614/1618 5000 RASN BKN015 OVC030 \n  TEMPO 1618/1702 3000 SN BKN010 OVC020"
    },
    {
      "icao": "LRTR",
      "iata": "TSR",
      "name": "Timişoara Traian Vuia Airport",
      "updatedAt": "160700Z",
      "visibility_m": 1800,
      "taf_visibility_m": 1500,
      "worst_visibility_m": 1500,
      "ceiling_ft": 4500,
      "hazards": [
        "BR",
        "RA",
        "DZ"
      ],
      "severityScore": 42,
      "metarRaw": "METAR LRTR 160700Z 12008KT 1800 -DZRA BR SCT015 OVC045 02/02 Q1023 REDZ",
      "tafRaw": "TAF LRTR 160500Z 1606/1706 11008KT 5000 -RA BR BKN040 \n  TEMPO 1606/1615 1500 -RA BR BKN010 OVC025 \n  BECMG 1615/1617 9999 NSW"
    },
    {
      "icao": "EYKA",
      "iata": "KUN",
      "name": "Kaunas International Airport",
      "updatedAt": "160650Z",
      "visibility_m": 7000,
      "taf_visibility_m": null,
      "worst_visibility_m": 7000,
      "ceiling_ft": 300,
      "hazards": [],
      "severityScore": 40,
      "metarRaw": "METAR EYKA 160650Z 13008KT 100V250 7000 OVC003 M15/M17 Q1031",
      "tafRaw": null
    },
    {
      "icao": "LRBC",
      "iata": "BCM",
      "name": "Bacău George Enescu International  Airport",
      "updatedAt": "160700Z",
      "visibility_m": 7000,
      "taf_visibility_m": 5000,
      "worst_visibility_m": 5000,
      "ceiling_ft": 1200,
      "hazards": [
        "BR",
        "SN"
      ],
      "severityScore": 40,
      "metarRaw": "METAR LRBC 160700Z 34007KT 7000 OVC012 M06/M09 Q1032",
      "tafRaw": "TAF LRBC 160500Z 1606/1615 35008KT 5000 -SN BR BKN010 OVC020 \n  BECMG 1607/1609 9999 NSW SCT020"
    },
    {
      "icao": "LZIB",
      "iata": "BTS",
      "name": "M. R. Štefánik Airport",
      "updatedAt": "160700Z",
      "visibility_m": 2000,
      "taf_visibility_m": null,
      "worst_visibility_m": 2000,
      "ceiling_ft": 800,
      "hazards": [
        "BR"
      ],
      "severityScore": 40,
      "metarRaw": "METAR LZIB 160700Z 06006KT 2000 BR BKN008 OVC009 00/M00 Q1022 TEMPO 3500 BR",
      "tafRaw": null
    },
    {
      "icao": "LPMA",
      "iata": "FNC",
      "name": "Madeira International Airport Cristiano Ronaldo",
      "updatedAt": "160700Z",
      "visibility_m": 10000,
      "taf_visibility_m": 8000,
      "worst_visibility_m": 8000,
      "ceiling_ft": 1400,
      "hazards": [
        "SHRA",
        "RA"
      ],
      "severityScore": 38,
      "metarRaw": "METAR LPMA 160700Z 35018KT 9999 BKN014 16/09 Q1023",
      "tafRaw": "TAF LPMA 160500Z 1606/1706 36015KT 9999 SCT015 SCT030 \n  PROB40 \n  TEMPO 1606/1706 35022G35KT 8000 SHRA BKN013 FEW018CB"
    },
    {
      "icao": "LPPS",
      "iata": "PXO",
      "name": "Porto Santo Airport",
      "updatedAt": "160700Z",
      "visibility_m": 10000,
      "taf_visibility_m": 7000,
      "worst_visibility_m": 7000,
      "ceiling_ft": 1000,
      "hazards": [
        "SHRA",
        "RA"
      ],
      "severityScore": 38,
      "metarRaw": "METAR LPPS 160700Z 34014KT 9999 SCT014 15/08 Q1024",
      "tafRaw": "TAF LPPS 160500Z 1606/1712 34017KT 9999 SCT015 SCT030 \n  PROB30 \n  TEMPO 1606/1712 7000 SHRA BKN010 FEW018CB \n  BECMG 1700/1702 31022KT \n  PROB40 \n  TEMPO 1702/1712 31025G35KT"
    },
    {
      "icao": "EPRA",
      "iata": "RDO",
      "name": "Warsaw Radom Airport",
      "updatedAt": "160700Z",
      "visibility_m": 6000,
      "taf_visibility_m": 8000,
      "worst_visibility_m": 6000,
      "ceiling_ft": 600,
      "hazards": [
        "RA"
      ],
      "severityScore": 37,
      "metarRaw": "METAR EPRA 160700Z 13009KT 6000 OVC006 M03/M05 Q1025",
      "tafRaw": "TAF EPRA 160530Z 1606/1615 11010KT 8000 OVC006 \n  BECMG 1607/1609 BKN012"
    },
    {
      "icao": "LGTS",
      "iata": "SKG",
      "name": "Thessaloniki Macedonia International Airport",
      "updatedAt": "160650Z",
      "visibility_m": 10000,
      "taf_visibility_m": 5000,
      "worst_visibility_m": 5000,
      "ceiling_ft": 2500,
      "hazards": [
        "TS",
        "RA"
      ],
      "severityScore": 37,
      "metarRaw": "METAR LGTS 160650Z 11003KT CAVOK 03/02 Q1024 NOSIG",
      "tafRaw": "TAF LGTS 160500Z 1606/1706 VRB03KT 9999 FEW030 \n  BECMG 1620/1622 09013KT FEW010 BKN025 \n  PROB30 1703/1706 5000 RA"
    },
    {
      "icao": "EPWA",
      "iata": "WAW",
      "name": "Warsaw Chopin Airport",
      "updatedAt": "160700Z",
      "visibility_m": 3900,
      "taf_visibility_m": 2500,
      "worst_visibility_m": 2500,
      "ceiling_ft": 700,
      "hazards": [
        "BR"
      ],
      "severityScore": 35,
      "metarRaw": "METAR EPWA 160700Z 11008KT 3900 BR BKN007 BKN024 M05/M06 Q1026 NOSIG",
      "tafRaw": "TAF EPWA 160530Z 1606/1706 12008KT 7000 BKN008 \n  TEMPO 1606/1608 4500 BR SCT008 \n  PROB40 1606/1607 2500 BR \n  BECMG 1607/1610 BKN018 \n  TEMPO 1610/1705 BKN012 \n  PROB40 1618/1624 4000 BR BKN007"
    },
    {
      "icao": "UBBB",
      "iata": "GYD",
      "name": "Heydar Aliyev International Airport",
      "updatedAt": "160700Z",
      "visibility_m": 10000,
      "taf_visibility_m": 4000,
      "worst_visibility_m": 4000,
      "ceiling_ft": 600,
      "hazards": [
        "BR"
      ],
      "severityScore": 35,
      "metarRaw": "METAR UBBB 160700Z 23010KT CAVOK 06/M00 Q1022 NOSIG",
      "tafRaw": "TAF UBBB 160502Z 1606/1706 19012KT 9999 FEW025 TX07/1610Z TN01/1702Z \n  TEMPO 1606/1612 21018KT \n  BECMG 1616/1618 32008KT SCT010 BKN020 \n  TEMPO 1618/1624 4000 BR BKN006"
    },
    {
      "icao": "EBCI",
      "iata": "CRL",
      "name": "Brussels South Charleroi Airport",
      "updatedAt": "160650Z",
      "visibility_m": 10000,
      "taf_visibility_m": 4500,
      "worst_visibility_m": 4500,
      "ceiling_ft": 1400,
      "hazards": [
        "BR",
        "RA"
      ],
      "severityScore": 34,
      "metarRaw": "METAR EBCI 160650Z 21008KT 9999 BKN014 BKN020 09/06 Q1010 NOSIG",
      "tafRaw": "TAF EBCI 160500Z 1606/1712 22008KT 9999 SCT018 SCT035 \n  PROB30 \n  TEMPO 1606/1608 SCT009 BKN012 \n  BECMG 1622/1624 15010KT \n  PROB30 \n  TEMPO 1623/1702 4500 -RA BR"
    },
    {
      "icao": "EDFH",
      "iata": "HHN",
      "name": "Frankfurt-Hahn Airport",
      "updatedAt": "160650Z",
      "visibility_m": 10000,
      "taf_visibility_m": 2500,
      "worst_visibility_m": 2500,
      "ceiling_ft": 1000,
      "hazards": [
        "FG"
      ],
      "severityScore": 32,
      "metarRaw": "METAR EDFH 160650Z 21009KT 180V240 9999 SCT035 08/05 Q1012",
      "tafRaw": "TAF EDFH 160500Z 1606/1706 16012KT 9999 BKN025 \n  TEMPO 1606/1611 BKN010 \n  TEMPO 1702/1706 2500 BCFG"
    },
    {
      "icao": "ENHD",
      "iata": "HAU",
      "name": "Haugesund Airport, Karmøy",
      "updatedAt": "160650Z",
      "visibility_m": 10000,
      "taf_visibility_m": 4000,
      "worst_visibility_m": 4000,
      "ceiling_ft": 2200,
      "hazards": [
        "RA",
        "BR",
        "DZ"
      ],
      "severityScore": 32,
      "metarRaw": "METAR ENHD 160650Z 09008KT 9999 -RA FEW016 BKN022 05/04 Q1000",
      "tafRaw": "TAF ENHD 160500Z 1606/1615 11012KT 9999 -RA FEW012 BKN020 \n  TEMPO 1608/1612 RA BKN014 \n  BECMG 1611/1613 SCT007 BKN012 \n  TEMPO 1612/1615 4000 RADZ BR BKN007 \n  BECMG 1613/1615 32015KT"
    },
    {
      "icao": "EDJA",
      "iata": "FMM",
      "name": "Memmingen Allgau Airport",
      "updatedAt": "160650Z",
      "visibility_m": 10000,
      "taf_visibility_m": 1200,
      "worst_visibility_m": 1200,
      "ceiling_ft": null,
      "hazards": [
        "FG"
      ],
      "severityScore": 30,
      "metarRaw": "METAR EDJA 160650Z 19004KT CAVOK M02/M04 Q1016",
      "tafRaw": "TAF EDJA 160500Z 1606/1615 VRB03KT CAVOK \n  PROB30 \n  TEMPO 1606/1608 1200 BCFG \n  BECMG 1613/1615 06005KT"
    },
    {
      "icao": "LBSF",
      "iata": "SOF",
      "name": "Sofia Airport",
      "updatedAt": "160700Z",
      "visibility_m": 10000,
      "taf_visibility_m": 5000,
      "worst_visibility_m": 5000,
      "ceiling_ft": 6800,
      "hazards": [
        "SN",
        "RA"
      ],
      "severityScore": 30,
      "metarRaw": "METAR LBSF 160700Z VRB01KT 9999 BKN068 02/00 Q1023 NOSIG",
      "tafRaw": "TAF LBSF 160500Z 1606/1706 VRB03KT 9999 BKN050 \n  BECMG 1613/1615 08010KT \n  TEMPO 1616/1620 5000 RASN SCT010 BKN015"
    },
    {
      "icao": "EPLB",
      "iata": "LUZ",
      "name": "Lublin Airport",
      "updatedAt": "160700Z",
      "visibility_m": 7000,
      "taf_visibility_m": 4000,
      "worst_visibility_m": 4000,
      "ceiling_ft": 2100,
      "hazards": [
        "BR",
        "SN"
      ],
      "severityScore": 28,
      "metarRaw": "METAR EPLB 160700Z 10009KT 7000 OVC021 M07/M08 Q1027",
      "tafRaw": "TAF EPLB 160530Z 1606/1706 11008KT 8000 OVC015 \n  TEMPO 1606/1615 BKN013 \n  PROB40 \n  TEMPO 1606/1607 4000 -SN BR BKN003 OVC007"
    },
    {
      "icao": "LRCV",
      "iata": "CRA",
      "name": "Craiova International Airport",
      "updatedAt": "160700Z",
      "visibility_m": 3000,
      "taf_visibility_m": 3000,
      "worst_visibility_m": 3000,
      "ceiling_ft": 2000,
      "hazards": [
        "BR",
        "SN"
      ],
      "severityScore": 28,
      "metarRaw": "METAR LRCV 160700Z 10011KT 3000 BR SCT007 BKN020 OVC033 M01/M01 Q1026",
      "tafRaw": "TAF LRCV 160500Z 1606/1615 09010KT 5000 BR BKN010 \n  BECMG 1606/1608 9999 NSW BKN015 BKN040 \n  TEMPO 1609/1615 3000 -SN BR BKN005 OVC030"
    },
    {
      "icao": "ENVA",
      "iata": "TRD",
      "name": "Trondheim Airport, Værnes",
      "updatedAt": "160650Z",
      "visibility_m": 10000,
      "taf_visibility_m": 10000,
      "worst_visibility_m": 10000,
      "ceiling_ft": 2500,
      "hazards": [
        "SHRA",
        "RA"
      ],
      "severityScore": 26,
      "metarRaw": "METAR ENVA 160650Z 11006KT 090V170 CAVOK 05/M02 Q1007 NOSIG RMK WIND 670FT 16012KT",
      "tafRaw": "TAF ENVA 160500Z 1606/1706 10007KT CAVOK \n  PROB40 \n  TEMPO 1619/1706 21012KT SHRA SCT018CB BKN025"
    },
    {
      "icao": "LCPH",
      "iata": "PFO",
      "name": "Paphos International Airport",
      "updatedAt": "160700Z",
      "visibility_m": 10000,
      "taf_visibility_m": 5000,
      "worst_visibility_m": 5000,
      "ceiling_ft": null,
      "hazards": [
        "SHRA",
        "RA"
      ],
      "severityScore": 26,
      "metarRaw": "METAR LCPH 160700Z 04005KT 010V080 9999 FEW020 13/06 Q1023 NOSIG",
      "tafRaw": "TAF LCPH 160530Z 1606/1706 05008KT 9999 FEW025 SCT035 \n  BECMG 1608/1610 21010KT \n  BECMG 1613/1615 30010KT \n  BECMG 1616/1618 03007KT \n  PROB30 \n  TEMPO 1616/1621 5000 SHRA SCT020TCU"
    },
    {
      "icao": "GCTS",
      "iata": "TFS",
      "name": "Tenerife Sur Airport",
      "updatedAt": "160700Z",
      "visibility_m": 10000,
      "taf_visibility_m": 10000,
      "worst_visibility_m": 10000,
      "ceiling_ft": 3500,
      "hazards": [
        "TS"
      ],
      "severityScore": 25,
      "metarRaw": "METAR GCTS 160700Z 01007KT 350V060 9999 SCT035 14/08 Q1024 NOSIG",
      "tafRaw": "TAF GCTS 160200Z 1603/1703 01005KT 9999 BKN035 TX22/1614Z TN13/1606Z \n  BECMG 1609/1611 28010KT \n  BECMG 1613/1615 18004KT \n  PROB40 \n  TEMPO 1619/1703 04010KT"
    },
    {
      "icao": "EYVI",
      "iata": "VNO",
      "name": "Vilnius International Airport",
      "updatedAt": "160650Z",
      "visibility_m": 8000,
      "taf_visibility_m": 7000,
      "worst_visibility_m": 7000,
      "ceiling_ft": 500,
      "hazards": [],
      "severityScore": 25,
      "metarRaw": "METAR EYVI 160650Z 16009KT 8000 NSC M19/M21 Q1031 NOSIG",
      "tafRaw": "TAF EYVI 160506Z 1606/1706 16010KT 7000 NSC \n  BECMG 1607/1609 OVC005 \n  BECMG 1609/1612 FEW005 BKN020"
    },
    {
      "icao": "EHBK",
      "iata": "MST",
      "name": "Maastricht Aachen Airport",
      "updatedAt": "160655Z",
      "visibility_m": 10000,
      "taf_visibility_m": 7000,
      "worst_visibility_m": 7000,
      "ceiling_ft": 1800,
      "hazards": [
        "RA"
      ],
      "severityScore": 24,
      "metarRaw": "METAR EHBK 160655Z AUTO 22008KT 9999 BKN018 OVC023 10/07 Q1010 NOSIG",
      "tafRaw": "TAF EHBK 160507Z 1606/1712 20013KT 9999 OVC045 \n  BECMG 1614/1617 14005KT \n  PROB30 \n  TEMPO 1622/1703 7000 -RA"
    },
    {
      "icao": "GMMX",
      "iata": "RAK",
      "name": "Menara Airport",
      "updatedAt": "160700Z",
      "visibility_m": 5000,
      "taf_visibility_m": 3000,
      "worst_visibility_m": 3000,
      "ceiling_ft": 3000,
      "hazards": [
        "BR",
        "RA"
      ],
      "severityScore": 22,
      "metarRaw": "METAR GMMX 160700Z VRB01KT 5000 FEW006 BKN030 09/08 Q1022 NOSIG",
      "tafRaw": "TAF GMMX 160500Z 1606/1712 06006KT 8000 SCT026 \n  TEMPO 1606/1609 3000 BR SCT004 \n  TEMPO 1616/1624 34016KT 4000 RA FEW010 BKN026 SCT090"
    },
    {
      "icao": "ENBR",
      "iata": "BGO",
      "name": "Bergen Airport, Flesland",
      "updatedAt": "160650Z",
      "visibility_m": 10000,
      "taf_visibility_m": 4000,
      "worst_visibility_m": 4000,
      "ceiling_ft": 3800,
      "hazards": [
        "RA",
        "BR"
      ],
      "severityScore": 22,
      "metarRaw": "METAR ENBR 160650Z 10003KT 9999 -RA FEW020 BKN038 04/03 Q1001 NOSIG RMK WIND 1200FT 12014KT",
      "tafRaw": "TAF ENBR 160500Z 1606/1706 08005KT 9999 -RA SCT020 BKN040 \n  BECMG 1609/1611 BKN012 \n  TEMPO 1612/1619 4000 RA BKN005 \n  BECMG 1621/1623 BKN020"
    },
    {
      "icao": "ENZV",
      "iata": "SVG",
      "name": "Stavanger Airport, Sola",
      "updatedAt": "160650Z",
      "visibility_m": 10000,
      "taf_visibility_m": 4000,
      "worst_visibility_m": 4000,
      "ceiling_ft": 3100,
      "hazards": [
        "RA",
        "BR"
      ],
      "severityScore": 22,
      "metarRaw": "METAR ENZV 160650Z 12009KT 9999 -RA BKN031 BKN039 05/02 Q1000 NOSIG",
      "tafRaw": "TAF ENZV 160500Z 1606/1706 12012KT 9999 -RA FEW020 BKN030 \n  TEMPO 1606/1614 RA \n  BECMG 1611/1613 20015KT SCT004 BKN010 \n  TEMPO 1611/1616 4000 BR BKN004 \n  BECMG 1614/1616 27015KT \n  BECMG 1616/1618 VRB05KT SCT012 BKN018"
    },
    {
      "icao": "EYPA",
      "iata": "PLQ",
      "name": "Palanga International Airport",
      "updatedAt": "160650Z",
      "visibility_m": 5000,
      "taf_visibility_m": 6000,
      "worst_visibility_m": 5000,
      "ceiling_ft": 1000,
      "hazards": [
        "BR"
      ],
      "severityScore": 22,
      "metarRaw": "METAR EYPA 160650Z 13010KT 5000 BR NSC M07/M09 Q1026",
      "tafRaw": "TAF EYPA 160500Z 1606/1706 13012KT 6000 SCT010 BKN020 \n  TEMPO 1606/1608 SCT025 \n  TEMPO 1608/1614 13015G25KT BKN010 \n  TEMPO 1621/1703 BKN010"
    },
    {
      "icao": "LEZG",
      "iata": "ZAZ",
      "name": "Zaragoza Airport",
      "updatedAt": "160700Z",
      "visibility_m": 6000,
      "taf_visibility_m": 2000,
      "worst_visibility_m": 2000,
      "ceiling_ft": 5000,
      "hazards": [
        "BR",
        "RA"
      ],
      "severityScore": 22,
      "metarRaw": "METAR LEZG 160700Z 08003KT 6000 BKN050 06/06 Q1014 NOSIG",
      "tafRaw": "TAF LEZG 160500Z 1606/1706 09005KT 9999 FEW020 TX12/1614Z TN05/1606Z \n  TEMPO 1606/1612 2000 BR \n  TEMPO 1617/1624 3000 RA \n  TEMPO 1618/1706 2000 BR BKN014 \n  BECMG 1620/1622 VRB04KT"
    },
    {
      "icao": "LIMF",
      "iata": "TRN",
      "name": "Turin Airport",
      "updatedAt": "160650Z",
      "visibility_m": 5000,
      "taf_visibility_m": 4000,
      "worst_visibility_m": 4000,
      "ceiling_ft": 6000,
      "hazards": [
        "BR",
        "RA"
      ],
      "severityScore": 22,
      "metarRaw": "METAR LIMF 160650Z VRB01KT 5000 BR SCT015 BKN060 04/02 Q1021",
      "tafRaw": "TAF LIMF 160500Z 1606/1706 VRB03KT 6000 SCT020 BKN060 \n  TEMPO 1614/1706 4000 RA"
    },
    {
      "icao": "LIPH",
      "iata": "TSF",
      "name": "Treviso Antonio Canova Airport",
      "updatedAt": "160650Z",
      "visibility_m": 6000,
      "taf_visibility_m": 3000,
      "worst_visibility_m": 3000,
      "ceiling_ft": 1000,
      "hazards": [
        "BR"
      ],
      "severityScore": 22,
      "metarRaw": "METAR LIPH 160650Z 33004KT 6000 FEW010 03/02 Q1021",
      "tafRaw": "TAF LIPH 160500Z 1606/1706 VRB04KT 7000 SCT040 \n  TEMPO 1606/1608 3000 BR BKN010"
    },
    {
      "icao": "LIPZ",
      "iata": "VCE",
      "name": "Venice Marco Polo Airport",
      "updatedAt": "160650Z",
      "visibility_m": 6000,
      "taf_visibility_m": 2000,
      "worst_visibility_m": 2000,
      "ceiling_ft": 1000,
      "hazards": [
        "BR"
      ],
      "severityScore": 22,
      "metarRaw": "METAR LIPZ 160650Z 03003KT 6000 FEW025 SCT070 06/04 Q1021 NOSIG",
      "tafRaw": "TAF LIPZ 160500Z 1606/1712 VRB04KT 6000 SCT030 \n  TEMPO 1621/1706 2000 BR BKN010"
    },
    {
      "icao": "LJLJ",
      "iata": "LJU",
      "name": "Ljubljana Jože Pučnik Airport",
      "updatedAt": "160700Z",
      "visibility_m": 10000,
      "taf_visibility_m": 2000,
      "worst_visibility_m": 2000,
      "ceiling_ft": 5000,
      "hazards": [
        "BR",
        "RA"
      ],
      "severityScore": 22,
      "metarRaw": "METAR LJLJ 160700Z 00000KT 9999 FEW040 BKN050 01/01 Q1020 NOSIG",
      "tafRaw": "TAF LJLJ 160500Z 1606/1706 30004KT 9999 FEW003 SCT033 BKN050 \n  TEMPO 1620/1706 4000 BR \n  PROB40 \n  TEMPO 1621/1706 2000 -RA BR BKN013 OVC025"
    },
    {
      "icao": "LYBE",
      "iata": "BEG",
      "name": "Belgrade Nikola Tesla Airport",
      "updatedAt": "160700Z",
      "visibility_m": 2500,
      "taf_visibility_m": 4000,
      "worst_visibility_m": 2500,
      "ceiling_ft": null,
      "hazards": [
        "BR",
        "RA"
      ],
      "severityScore": 22,
      "metarRaw": "METAR LYBE 160700Z 25006KT 180V310 5000 BR NSC 03/02 Q1023 TEMPO 2500 BR",
      "tafRaw": "TAF LYBE 160500Z 1606/1706 06004KT 9999 SCT045 TX06/1613Z TNM00/1706Z \n  TEMPO 1606/1609 4000 -RA BR \n  BECMG 1613/1615 12010KT \n  TEMPO 1620/1701 13015G25KT"
    },
    {
      "icao": "LZKZ",
      "iata": "KSC",
      "name": "Košice International Airport",
      "updatedAt": "160700Z",
      "visibility_m": 8000,
      "taf_visibility_m": 2000,
      "worst_visibility_m": 2000,
      "ceiling_ft": 1900,
      "hazards": [
        "BR"
      ],
      "severityScore": 22,
      "metarRaw": "METAR LZKZ 160700Z 01007KT 8000 SCT011 BKN019 OVC023 01/M01 Q1024 NOSIG",
      "tafRaw": "TAF LZKZ 160515Z 1606/1706 VRB02KT 8000 BKN017 \n  TEMPO 1606/1610 2000 BR BKN006 \n  TEMPO 1619/1706 2000 BR BKN007"
    },
    {
      "icao": "EDDS",
      "iata": "STR",
      "name": "Stuttgart Airport",
      "updatedAt": "160650Z",
      "visibility_m": 10000,
      "taf_visibility_m": 2500,
      "worst_visibility_m": 2500,
      "ceiling_ft": null,
      "hazards": [
        "FG"
      ],
      "severityScore": 20,
      "metarRaw": "METAR EDDS 160650Z AUTO VRB01KT CAVOK M01/M01 Q1015 NOSIG",
      "tafRaw": "TAF EDDS 160500Z 1606/1706 VRB03KT CAVOK \n  PROB40 \n  TEMPO 1702/1706 2500 BCFG"
    },
    {
      "icao": "EDSB",
      "iata": "FKB",
      "name": "Karlsruhe Baden-Baden Airport",
      "updatedAt": "160650Z",
      "visibility_m": 10000,
      "taf_visibility_m": 2000,
      "worst_visibility_m": 2000,
      "ceiling_ft": null,
      "hazards": [
        "FG"
      ],
      "severityScore": 20,
      "metarRaw": "METAR EDSB 160650Z 24003KT CAVOK 01/00 Q1015",
      "tafRaw": "TAF EDSB 160500Z 1606/1706 VRB03KT CAVOK \n  PROB40 \n  TEMPO 1700/1706 2000 BCFG"
    },
    {
      "icao": "EETN",
      "iata": "TLL",
      "name": "Lennart Meri Tallinn Airport",
      "updatedAt": "160650Z",
      "visibility_m": 10000,
      "taf_visibility_m": 4000,
      "worst_visibility_m": 4000,
      "ceiling_ft": 2400,
      "hazards": [
        "SN"
      ],
      "severityScore": 18,
      "metarRaw": "METAR EETN 160650Z 15007KT 120V180 9999 OVC024 M06/M08 Q1028 NOSIG",
      "tafRaw": "TAF EETN 160530Z 1606/1706 17012KT 9999 OVC025 \n  TEMPO 1606/1614 BKN006 BKN012 \n  TEMPO 1608/1612 4000 SN \n  TEMPO 1614/1702 OVC005 \n  TEMPO 1702/1706 4000 SN OVC004"
    },
    {
      "icao": "LIBG",
      "iata": "TAR",
      "name": "Taranto-Grottaglie Marcello Arlotta Airport",
      "updatedAt": "160655Z",
      "visibility_m": 5000,
      "taf_visibility_m": null,
      "worst_visibility_m": 5000,
      "ceiling_ft": null,
      "hazards": [
        "BR"
      ],
      "severityScore": 15,
      "metarRaw": "SPECI LIBG 160655Z 35002KT 5000 BR FEW020 06/06 Q1021",
      "tafRaw": null
    },
    {
      "icao": "LYPG",
      "iata": "TGD",
      "name": "Podgorica Airport / Podgorica Golubovci Airbase",
      "updatedAt": "160700Z",
      "visibility_m": 5000,
      "taf_visibility_m": null,
      "worst_visibility_m": 5000,
      "ceiling_ft": null,
      "hazards": [
        "BR"
      ],
      "severityScore": 15,
      "metarRaw": "METAR LYPG 160700Z VRB02KT 5000 BR FEW034 SCT080 06/06 Q1023 NOSIG",
      "tafRaw": null
    },
    {
      "icao": "GMMN",
      "iata": "CMN",
      "name": "Mohammed V International Airport",
      "updatedAt": "160700Z",
      "visibility_m": 10000,
      "taf_visibility_m": 4000,
      "worst_visibility_m": 4000,
      "ceiling_ft": 10000,
      "hazards": [
        "RA"
      ],
      "severityScore": 12,
      "metarRaw": "METAR GMMN 160700Z 21009KT 9999 SCT016 BKN100 08/07 Q1020 NOSIG",
      "tafRaw": "TAF GMMN 160500Z 1606/1712 21008KT 9999 SCT016 SCT100 \n  TEMPO 1611/1712 24013KT 4000 RA SCT013 BKN026TCU"
    },
    {
      "icao": "LEAL",
      "iata": "ALC",
      "name": "Alicante-Elche Miguel Hernández Airport",
      "updatedAt": "160700Z",
      "visibility_m": 10000,
      "taf_visibility_m": 4000,
      "worst_visibility_m": 4000,
      "ceiling_ft": 6000,
      "hazards": [
        "RA"
      ],
      "severityScore": 12,
      "metarRaw": "METAR LEAL 160700Z VRB02KT 9999 BKN060 11/08 Q1016 NOSIG",
      "tafRaw": "TAF LEAL 160500Z 1606/1706 VRB04KT CAVOK TX16/1613Z TN07/1606Z \n  TEMPO 1620/1624 4000 RA BKN014"
    },
    {
      "icao": "LEBB",
      "iata": "BIO",
      "name": "Bilbao Airport",
      "updatedAt": "160700Z",
      "visibility_m": 10000,
      "taf_visibility_m": 3000,
      "worst_visibility_m": 3000,
      "ceiling_ft": null,
      "hazards": [
        "RA"
      ],
      "severityScore": 12,
      "metarRaw": "METAR LEBB 160700Z 11004KT 070V150 CAVOK 08/05 Q1011 NOSIG",
      "tafRaw": "TAF LEBB 160500Z 1606/1706 12006KT 9999 FEW045 TX15/1613Z TN07/1607Z \n  TEMPO 1610/1617 22010KT \n  PROB40 \n  TEMPO 1620/1706 3000 RA"
    },
    {
      "icao": "LEMG",
      "iata": "AGP",
      "name": "Málaga-Costa del Sol Airport",
      "updatedAt": "160700Z",
      "visibility_m": 10000,
      "taf_visibility_m": 3000,
      "worst_visibility_m": 3000,
      "ceiling_ft": 3000,
      "hazards": [
        "RA"
      ],
      "severityScore": 12,
      "metarRaw": "METAR LEMG 160700Z 00000KT 9999 BKN030 OVC035 10/09 Q1016 NOSIG",
      "tafRaw": "TAF LEMG 160500Z 1606/1706 VRB02KT 9999 SCT015 TX18/1614Z TN11/1607Z \n  TEMPO 1606/1611 4000 RA BKN006 \n  TEMPO 1620/1624 3000 RA BKN012"
    },
    {
      "icao": "LEXJ",
      "iata": "SDR",
      "name": "Seve Ballesteros-Santander Airport",
      "updatedAt": "160700Z",
      "visibility_m": 10000,
      "taf_visibility_m": 3000,
      "worst_visibility_m": 3000,
      "ceiling_ft": 4000,
      "hazards": [
        "RA"
      ],
      "severityScore": 12,
      "metarRaw": "METAR LEXJ 160700Z 18003KT 9999 BKN040 06/05 Q1010",
      "tafRaw": "TAF LEXJ 160200Z 1603/1703 VRB03KT 9999 FEW045 TX15/1614Z TN06/1607Z \n  PROB40 1608/1615 20012KT \n  PROB40 1615/1618 29010KT \n  PROB40 \n  TEMPO 1618/1624 3000 RA \n  PROB30 1621/1703 20010KT"
    },
    {
      "icao": "LFLL",
      "iata": "LYS",
      "name": "Lyon Saint-Exupéry Airport",
      "updatedAt": "160700Z",
      "visibility_m": 10000,
      "taf_visibility_m": 10000,
      "worst_visibility_m": 10000,
      "ceiling_ft": 4000,
      "hazards": [
        "RA"
      ],
      "severityScore": 12,
      "metarRaw": "METAR LFLL 160700Z 11004KT 100V160 CAVOK 07/04 Q1014 NOSIG",
      "tafRaw": "TAF LFLL 160500Z 1606/1712 18007KT CAVOK \n  BECMG 1707/1709 RA BKN040"
    },
    {
      "icao": "LFLS",
      "iata": "GNB",
      "name": "Grenoble Alpes Isère Airport",
      "updatedAt": "160700Z",
      "visibility_m": 10000,
      "taf_visibility_m": 4500,
      "worst_visibility_m": 4500,
      "ceiling_ft": 6000,
      "hazards": [
        "RA"
      ],
      "severityScore": 12,
      "metarRaw": "METAR LFLS 160700Z AUTO 11003KT CAVOK 03/02 Q1014 NOSIG",
      "tafRaw": "TAF LFLS 160200Z 1603/1703 VRB02KT 9999 FEW060 \n  FM161700 09005KT 9999 BKN060 OVC090 \n  TEMPO 1618/1622 17012KT \n  PROB30 \n  TEMPO 1618/1623 4500 -RA"
    },
    {
      "icao": "LFMN",
      "iata": "NCE",
      "name": "Nice-Côte d'Azur Airport",
      "updatedAt": "160700Z",
      "visibility_m": 10000,
      "taf_visibility_m": 10000,
      "worst_visibility_m": 10000,
      "ceiling_ft": 16000,
      "hazards": [
        "RA"
      ],
      "severityScore": 12,
      "metarRaw": "METAR LFMN 160700Z 34009KT 9999 FEW033 OVC160 09/03 Q1019 NOSIG",
      "tafRaw": "TAF LFMN 160200Z 1603/1709 33010KT CAVOK \n  BECMG 1612/1614 09012KT BKN020 \n  TEMPO 1620/1707 -RA BKN020TCU \n  BECMG 1623/1702 33010KT"
    },
    {
      "icao": "LICA",
      "iata": "SUF",
      "name": "Lamezia Terme Sant'Eufemia International Airport",
      "updatedAt": "160650Z",
      "visibility_m": 10000,
      "taf_visibility_m": 4000,
      "worst_visibility_m": 4000,
      "ceiling_ft": null,
      "hazards": [
        "RA"
      ],
      "severityScore": 12,
      "metarRaw": "METAR LICA 160650Z AUTO 07010KT 9999 NCD 10/08 Q1020",
      "tafRaw": "TAF LICA 160500Z 1606/1706 08012KT CAVOK \n  TEMPO 1704/1706 4000 RA"
    },
    {
      "icao": "LICJ",
      "iata": "PMO",
      "name": "Falcone–Borsellino Airport",
      "updatedAt": "160650Z",
      "visibility_m": 10000,
      "taf_visibility_m": 10000,
      "worst_visibility_m": 10000,
      "ceiling_ft": null,
      "hazards": [
        "RA"
      ],
      "severityScore": 12,
      "metarRaw": "METAR LICJ 160650Z 19004KT CAVOK 12/09 Q1018",
      "tafRaw": "TAF LICJ 160500Z 1606/1706 VRB06KT CAVOK \n  TEMPO 1621/1701 RA"
    },
    {
      "icao": "LIMJ",
      "iata": "GOA",
      "name": "Genoa Cristoforo Colombo Airport",
      "updatedAt": "160650Z",
      "visibility_m": 10000,
      "taf_visibility_m": 10000,
      "worst_visibility_m": 10000,
      "ceiling_ft": 3500,
      "hazards": [
        "RA"
      ],
      "severityScore": 12,
      "metarRaw": "METAR LIMJ 160650Z 04016KT 9999 FEW023 BKN035 09/06 Q1019",
      "tafRaw": "TAF LIMJ 160500Z 1606/1706 04012KT 9999 SCT020 BKN030 \n  TEMPO 1606/1706 RA"
    },
    {
      "icao": "LIRP",
      "iata": "PSA",
      "name": "Pisa International Airport",
      "updatedAt": "160645Z",
      "visibility_m": 10000,
      "taf_visibility_m": 10000,
      "worst_visibility_m": 10000,
      "ceiling_ft": 7000,
      "hazards": [
        "RA"
      ],
      "severityScore": 12,
      "metarRaw": "METAR LIRP 160645Z 10006KT 9999 FEW040 BKN070 10/10 Q1020 NOSIG",
      "tafRaw": "TAF LIRP 160500Z 1606/1706 15003KT 9999 SCT020 BKN070 \n  PROB40 \n  TEMPO 1606/1612 RA"
    },
    {
      "icao": "GCLP",
      "iata": "LPA",
      "name": "Gran Canaria Airport",
      "updatedAt": "160700Z",
      "visibility_m": 10000,
      "taf_visibility_m": 10000,
      "worst_visibility_m": 10000,
      "ceiling_ft": 3400,
      "hazards": [
        "DZ"
      ],
      "severityScore": 10,
      "metarRaw": "METAR GCLP 160700Z 35011KT 9999 BKN034 17/10 Q1024 NOSIG",
      "tafRaw": "TAF GCLP 160200Z 1603/1703 36013KT 9999 BKN035 TX22/1614Z TN15/1606Z \n  PROB30 \n  TEMPO 1618/1703 02020G30KT \n  PROB30 \n  TEMPO 1618/1621 DZ BKN014"
    },
    {
      "icao": "EDDB",
      "iata": "BER",
      "name": "Berlin Brandenburg Airport",
      "updatedAt": "160650Z",
      "visibility_m": 4500,
      "taf_visibility_m": 2500,
      "worst_visibility_m": 2500,
      "ceiling_ft": null,
      "hazards": [
        "BR"
      ],
      "severityScore": 10,
      "metarRaw": "METAR EDDB 160650Z AUTO 13006KT 8000 NSC 03/02 Q1016 TEMPO 4500 BR",
      "tafRaw": "TAF EDDB 160500Z 1606/1706 15008KT 9000 NSC \n  PROB30 \n  TEMPO 1606/1608 2500 BR \n  TEMPO 1608/1613 16013KT"
    },
    {
      "icao": "EPSY",
      "iata": "SZY",
      "name": "Olsztyn-Mazury Airport",
      "updatedAt": "160700Z",
      "visibility_m": 4700,
      "taf_visibility_m": 3000,
      "worst_visibility_m": 3000,
      "ceiling_ft": 2100,
      "hazards": [
        "BR"
      ],
      "severityScore": 10,
      "metarRaw": "METAR EPSY 160700Z 12003KT 070V160 4700 BR BKN021 M08/M10 Q1026",
      "tafRaw": "TAF EPSY 160530Z 1606/1615 14006KT 5000 BR BKN025 \n  PROB40 1606/1609 3000 BR OVC004"
    },
    {
      "icao": "LRSV",
      "iata": "SCV",
      "name": "Suceava Stefan cel Mare Airport",
      "updatedAt": "160700Z",
      "visibility_m": 4000,
      "taf_visibility_m": 3000,
      "worst_visibility_m": 3000,
      "ceiling_ft": 3800,
      "hazards": [
        "BR"
      ],
      "severityScore": 10,
      "metarRaw": "METAR LRSV 160700Z 08005KT 4000 BR BKN038 M12/M13 Q1029",
      "tafRaw": "TAF LRSV 160500Z 1606/1615 07007KT 3000 BR OVC020 \n  BECMG 1608/1610 9999 NSW"
    },
    {
      "icao": "LYNI",
      "iata": "INI",
      "name": "Niš Constantine the Great Airport",
      "updatedAt": "160700Z",
      "visibility_m": 4000,
      "taf_visibility_m": 4000,
      "worst_visibility_m": 4000,
      "ceiling_ft": 7300,
      "hazards": [
        "BR"
      ],
      "severityScore": 10,
      "metarRaw": "METAR LYNI 160700Z 13002KT 8000 BKN073 04/04 Q1023 TEMPO 4000 BR",
      "tafRaw": "TAF LYNI 160500Z 1606/1706 20004KT 9999 SCT050 BKN080 TX07/1612Z TNM01/1706Z \n  TEMPO 1606/1608 4000 BR \n  BECMG 1611/1613 05011KT \n  BECMG 1615/1617 BKN013 BKN030"
    },
    {
      "icao": "EGNM",
      "iata": "LBA",
      "name": "Leeds Bradford Airport",
      "updatedAt": "160650Z",
      "visibility_m": 10000,
      "taf_visibility_m": null,
      "worst_visibility_m": 10000,
      "ceiling_ft": null,
      "hazards": [],
      "severityScore": 5,
      "metarRaw": "METAR EGNM 160650Z 16004KT 9999 FEW011 01/01 Q1001",
      "tafRaw": null
    },
    {
      "icao": "LECH",
      "iata": "CDT",
      "name": "Castellón-Costa Azahar Airport",
      "updatedAt": "160700Z",
      "visibility_m": 10000,
      "taf_visibility_m": null,
      "worst_visibility_m": 10000,
      "ceiling_ft": 7000,
      "hazards": [],
      "severityScore": 5,
      "metarRaw": "METAR LECH 160700Z AUTO 36001KT 9999 FEW055 OVC070 06/03 Q1014",
      "tafRaw": null
    },
    {
      "icao": "LTAC",
      "iata": "ESB",
      "name": "Esenboğa International Airport",
      "updatedAt": "160650Z",
      "visibility_m": 7000,
      "taf_visibility_m": null,
      "worst_visibility_m": 7000,
      "ceiling_ft": 2500,
      "hazards": [],
      "severityScore": 5,
      "metarRaw": "METAR LTAC 160650Z 20006KT 7000 SCT010 BKN025 BKN080 03/01 Q1021 NOSIG RMK RWY21C 19007KT RWY03L 19006KT RWY21R 18008KT 140V200 RWY03R 19005KT RWY21L 19006KT",
      "tafRaw": null
    },
    {
      "icao": "BIKF",
      "iata": "KEF",
      "name": "Keflavik International Airport",
      "updatedAt": "160700Z",
      "visibility_m": 10000,
      "taf_visibility_m": 10000,
      "worst_visibility_m": 10000,
      "ceiling_ft": null,
      "hazards": [],
      "severityScore": 0,
      "metarRaw": "METAR BIKF 160700Z 01018KT 9999 FEW022 SCT058 01/M02 Q0999",
      "tafRaw": "TAF BIKF 160432Z 1606/1706 02020KT 9999 SCT035 TX02/1609Z TNM02/1706Z \n  BECMG 1616/1618 02010KT \n  BECMG 1623/1701 09008KT"
    },
    {
      "icao": "GCFV",
      "iata": "FUE",
      "name": "Fuerteventura Airport",
      "updatedAt": "160700Z",
      "visibility_m": 10000,
      "taf_visibility_m": 10000,
      "worst_visibility_m": 10000,
      "ceiling_ft": 3500,
      "hazards": [],
      "severityScore": 0,
      "metarRaw": "METAR GCFV 160700Z 33006KT 9999 BKN035 17/09 Q1024",
      "tafRaw": "TAF GCFV 160200Z 1603/1703 34007KT 9999 SCT035 TX22/1614Z TN14/1606Z \n  BECMG 1609/1611 04010KT \n  BECMG 1614/1616 34010KT"
    },
    {
      "icao": "GMAD",
      "iata": "AGA",
      "name": "Al Massira Airport",
      "updatedAt": "160700Z",
      "visibility_m": 10000,
      "taf_visibility_m": 10000,
      "worst_visibility_m": 10000,
      "ceiling_ft": null,
      "hazards": [],
      "severityScore": 0,
      "metarRaw": "METAR GMAD 160700Z 07004KT CAVOK 08/08 Q1022 NOSIG",
      "tafRaw": "TAF GMAD 160500Z 1606/1712 09005KT CAVOK \n  BECMG 1616/1618 27010KT"
    },
    {
      "icao": "EDDK",
      "iata": "CGN",
      "name": "Cologne Bonn Airport",
      "updatedAt": "160650Z",
      "visibility_m": 10000,
      "taf_visibility_m": 10000,
      "worst_visibility_m": 10000,
      "ceiling_ft": 4900,
      "hazards": [],
      "severityScore": 0,
      "metarRaw": "METAR EDDK 160650Z AUTO 17008KT 9999 SCT037 BKN049 10/06 Q1012 NOSIG",
      "tafRaw": "TAF EDDK 160500Z 1606/1712 17008KT 9999 SCT035 \n  BECMG 1614/1617 11007KT"
    },
    {
      "icao": "EDLW",
      "iata": "DTM",
      "name": "Dortmund Airport",
      "updatedAt": "160650Z",
      "visibility_m": 10000,
      "taf_visibility_m": 10000,
      "worst_visibility_m": 10000,
      "ceiling_ft": 4600,
      "hazards": [],
      "severityScore": 0,
      "metarRaw": "METAR EDLW 160650Z 20013KT 9999 OVC046 11/05 Q1010",
      "tafRaw": "TAF EDLW 160500Z 1606/1706 19011KT 9999 BKN035 \n  BECMG 1615/1618 13005KT"
    },
    {
      "icao": "EDNY",
      "iata": "FDH",
      "name": "Friedrichshafen Airport",
      "updatedAt": "160650Z",
      "visibility_m": 10000,
      "taf_visibility_m": 10000,
      "worst_visibility_m": 10000,
      "ceiling_ft": null,
      "hazards": [],
      "severityScore": 0,
      "metarRaw": "METAR EDNY 160650Z COR VRB02KT CAVOK M04/M04 Q1017",
      "tafRaw": "TAF EDNY 160500Z 1606/1615 VRB03KT CAVOK"
    },
    {
      "icao": "EHEH",
      "iata": "EIN",
      "name": "Eindhoven Airport",
      "updatedAt": "160655Z",
      "visibility_m": 10000,
      "taf_visibility_m": 10000,
      "worst_visibility_m": 10000,
      "ceiling_ft": 2700,
      "hazards": [],
      "severityScore": 0,
      "metarRaw": "METAR EHEH 160655Z AUTO 21007KT 9999 FEW019 BKN027 OVC220 08/06 Q1009 BLU NOSIG RMK TREND REMOTE BY EHWX",
      "tafRaw": "TAF EHEH 160538Z 1606/1712 23016KT 9999 BKN030 \n  BECMG 1606/1608 21007KT \n  TEMPO 1608/1614 SCT012 BKN015 \n  BECMG 1615/1617 14005KT"
    },
    {
      "icao": "ENAL",
      "iata": "AES",
      "name": "Ålesund Airport, Vigra",
      "updatedAt": "160650Z",
      "visibility_m": 10000,
      "taf_visibility_m": 10000,
      "worst_visibility_m": 10000,
      "ceiling_ft": null,
      "hazards": [],
      "severityScore": 0,
      "metarRaw": "METAR ENAL 160650Z 17004KT 130V190 9999 FEW060 04/M02 Q1002",
      "tafRaw": "TAF ENAL 160500Z 1606/1615 14007KT 9999 SCT060"
    },
    {
      "icao": "ENTC",
      "iata": "TOS",
      "name": "Tromsø Airport, Langnes",
      "updatedAt": "160650Z",
      "visibility_m": 10000,
      "taf_visibility_m": 10000,
      "worst_visibility_m": 10000,
      "ceiling_ft": null,
      "hazards": [],
      "severityScore": 0,
      "metarRaw": "METAR ENTC 160650Z 22013KT CAVOK M02/M07 Q1009 NOSIG RMK WIND 2600FT 16008KT",
      "tafRaw": "TAF ENTC 160500Z 1606/1706 20008KT CAVOK \n  TEMPO 1606/1615 21018KT"
    },
    {
      "icao": "HEGN",
      "iata": "HRG",
      "name": "Hurghada International Airport",
      "updatedAt": "160700Z",
      "visibility_m": 10000,
      "taf_visibility_m": 10000,
      "worst_visibility_m": 10000,
      "ceiling_ft": null,
      "hazards": [],
      "severityScore": 0,
      "metarRaw": "METAR HEGN 160700Z 30014KT CAVOK 17/07 Q1022 NOSIG",
      "tafRaw": "TAF HEGN 160500Z 1606/1712 30015KT 9999 FEW025"
    },
    {
      "icao": "HEMA",
      "iata": "RMF",
      "name": "Marsa Alam International Airport",
      "updatedAt": "160700Z",
      "visibility_m": 10000,
      "taf_visibility_m": 10000,
      "worst_visibility_m": 10000,
      "ceiling_ft": null,
      "hazards": [],
      "severityScore": 0,
      "metarRaw": "METAR HEMA 160700Z 31014KT 9999 SCT020 18/10 Q1020 NOSIG",
      "tafRaw": "TAF HEMA 160500Z 1606/1712 31015KT 9999 FEW025"
    },
    {
      "icao": "HESH",
      "iata": "SSH",
      "name": "Sharm El Sheikh International Airport",
      "updatedAt": "160700Z",
      "visibility_m": 10000,
      "taf_visibility_m": 10000,
      "worst_visibility_m": 10000,
      "ceiling_ft": null,
      "hazards": [],
      "severityScore": 0,
      "metarRaw": "METAR HESH 160700Z 34010KT CAVOK 19/05 Q1021 NOSIG",
      "tafRaw": "TAF HESH 160500Z 1606/1712 35010KT CAVOK"
    },
    {
      "icao": "LATI",
      "iata": "TIA",
      "name": "Tirana International Airport Mother Teresa",
      "updatedAt": "160650Z",
      "visibility_m": 10000,
      "taf_visibility_m": 10000,
      "worst_visibility_m": 10000,
      "ceiling_ft": 9000,
      "hazards": [],
      "severityScore": 0,
      "metarRaw": "METAR LATI 160650Z VRB03KT 9999 SCT070 BKN090 09/05 Q1023 NOSIG",
      "tafRaw": "TAF LATI 160500Z 1606/1706 VRB05KT 9999 FEW040 BKN070 TX16/1612Z TN05/1705Z"
    },
    {
      "icao": "LCLK",
      "iata": "LCA",
      "name": "Larnaca International Airport",
      "updatedAt": "160700Z",
      "visibility_m": 10000,
      "taf_visibility_m": 10000,
      "worst_visibility_m": 10000,
      "ceiling_ft": null,
      "hazards": [],
      "severityScore": 0,
      "metarRaw": "METAR LCLK 160700Z VRB02KT 9999 FEW030 14/10 Q1023 NOSIG",
      "tafRaw": "TAF LCLK 160530Z 1606/1706 32006KT 9999 FEW025 SCT040 \n  BECMG 1609/1611 20010KT \n  BECMG 1615/1617 32006KT"
    },
    {
      "icao": "LEVC",
      "iata": "VLC",
      "name": "Valencia Airport",
      "updatedAt": "160700Z",
      "visibility_m": 10000,
      "taf_visibility_m": 10000,
      "worst_visibility_m": 10000,
      "ceiling_ft": null,
      "hazards": [],
      "severityScore": 0,
      "metarRaw": "METAR LEVC 160700Z 26004KT 9999 FEW065 07/05 Q1015 NOSIG",
      "tafRaw": "TAF LEVC 160500Z 1606/1706 24005KT CAVOK TX16/1612Z TN07/1606Z \n  TEMPO 1612/1618 VRB03KT \n  BECMG 1617/1619 30005KT"
    },
    {
      "icao": "LFSB",
      "iata": "BSL",
      "name": "EuroAirport Basel–Mulhouse–Freiburg",
      "updatedAt": "160700Z",
      "visibility_m": 9000,
      "taf_visibility_m": 10000,
      "worst_visibility_m": 9000,
      "ceiling_ft": null,
      "hazards": [],
      "severityScore": 0,
      "metarRaw": "METAR LFSB 160700Z AUTO 18007KT 9000 NSC 02/02 Q1015 NOSIG",
      "tafRaw": "TAF LFSB 160500Z 1606/1706 18005KT CAVOK"
    },
    {
      "icao": "LGAV",
      "iata": "ATH",
      "name": "Athens Eleftherios Venizelos International Airport",
      "updatedAt": "160650Z",
      "visibility_m": 10000,
      "taf_visibility_m": 10000,
      "worst_visibility_m": 10000,
      "ceiling_ft": null,
      "hazards": [],
      "severityScore": 0,
      "metarRaw": "METAR LGAV 160650Z VRB01KT 9999 FEW025 08/05 Q1023 NOSIG",
      "tafRaw": "TAF LGAV 160500Z 1606/1706 VRB03KT 9999 FEW030 \n  BECMG 1618/1620 04012KT"
    },
    {
      "icao": "LIBD",
      "iata": "BRI",
      "name": "Bari Karol Wojtyła International Airport",
      "updatedAt": "160650Z",
      "visibility_m": 10000,
      "taf_visibility_m": 10000,
      "worst_visibility_m": 10000,
      "ceiling_ft": null,
      "hazards": [],
      "severityScore": 0,
      "metarRaw": "METAR LIBD 160650Z 21004KT CAVOK 03/03 Q1022",
      "tafRaw": "TAF LIBD 160500Z 1606/1706 VRB05KT 9999 FEW030"
    },
    {
      "icao": "LIBP",
      "iata": "PSR",
      "name": "Abruzzo Airport",
      "updatedAt": "160650Z",
      "visibility_m": 10000,
      "taf_visibility_m": 10000,
      "worst_visibility_m": 10000,
      "ceiling_ft": null,
      "hazards": [],
      "severityScore": 0,
      "metarRaw": "METAR LIBP 160650Z AUTO 22003KT 9999 NCD 02/02 Q1022",
      "tafRaw": "TAF LIBP 160500Z 1606/1706 VRB05KT CAVOK"
    },
    {
      "icao": "LIRF",
      "iata": "FCO",
      "name": "Rome–Fiumicino Leonardo da Vinci International Airport",
      "updatedAt": "160650Z",
      "visibility_m": 10000,
      "taf_visibility_m": 10000,
      "worst_visibility_m": 10000,
      "ceiling_ft": null,
      "hazards": [],
      "severityScore": 0,
      "metarRaw": "METAR LIRF 160650Z 08004KT CAVOK 06/05 Q1020 NOSIG",
      "tafRaw": "TAF LIRF 160500Z 1606/1712 06007KT CAVOK"
    },
    {
      "icao": "LIRN",
      "iata": "NAP",
      "name": "Naples International Airport",
      "updatedAt": "160650Z",
      "visibility_m": 8000,
      "taf_visibility_m": 10000,
      "worst_visibility_m": 8000,
      "ceiling_ft": null,
      "hazards": [],
      "severityScore": 0,
      "metarRaw": "METAR LIRN 160650Z 35003KT 8000 NSC 06/04 Q1020 NOSIG",
      "tafRaw": "TAF LIRN 160500Z 1606/1706 VRB05KT CAVOK"
    },
    {
      "icao": "LLBG",
      "iata": "TLV",
      "name": "Ben Gurion International Airport",
      "updatedAt": "160650Z",
      "visibility_m": 10000,
      "taf_visibility_m": 10000,
      "worst_visibility_m": 10000,
      "ceiling_ft": 4000,
      "hazards": [],
      "severityScore": 0,
      "metarRaw": "METAR LLBG 160650Z VRB02KT CAVOK 12/07 Q1023 NOSIG RMK FEW055",
      "tafRaw": "TAF LLBG 160503Z 1606/1706 VRB03KT 9999 FEW045 \n  BECMG 1609/1611 29010KT SCT045 \n  PROB40 \n  TEMPO 1611/1614 BKN040 \n  BECMG 1615/1617 VRB03KT \n  PROB40 \n  TEMPO 1701/1706 10005KT BKN040 TX19/1612Z TN08/1704Z"
    },
    {
      "icao": "LRIA",
      "iata": "IAS",
      "name": "Iaşi Airport",
      "updatedAt": "160700Z",
      "visibility_m": 10000,
      "taf_visibility_m": 10000,
      "worst_visibility_m": 10000,
      "ceiling_ft": null,
      "hazards": [],
      "severityScore": 0,
      "metarRaw": "METAR LRIA 160700Z 30004KT CAVOK M15/M17 Q1033",
      "tafRaw": "TAF LRIA 160500Z 1606/1615 33004KT CAVOK"
    },
    {
      "icao": "LRSM",
      "iata": "SUJ",
      "name": "Satu Mare International Airport",
      "updatedAt": "160700Z",
      "visibility_m": 10000,
      "taf_visibility_m": 10000,
      "worst_visibility_m": 10000,
      "ceiling_ft": 3900,
      "hazards": [],
      "severityScore": 0,
      "metarRaw": "METAR LRSM 160700Z 10005KT 9999 OVC039 01/M00 Q1024",
      "tafRaw": "TAF LRSM 160500Z 1606/1615 11008KT 9999 BKN040"
    },
    {
      "icao": "LWOH",
      "iata": "OHD",
      "name": "Ohrid St. Paul the Apostle Airport",
      "updatedAt": "160650Z",
      "visibility_m": 10000,
      "taf_visibility_m": 10000,
      "worst_visibility_m": 10000,
      "ceiling_ft": 5000,
      "hazards": [],
      "severityScore": 0,
      "metarRaw": "METAR LWOH 160650Z 31003KT 270V330 9999 BKN050 01/00 Q1023",
      "tafRaw": "TAF LWOH 160535Z 1606/1706 VRB02KT 9999 FEW040"
    },
    {
      "icao": "OEJN",
      "iata": "JED",
      "name": "King Abdulaziz International Airport",
      "updatedAt": "160700Z",
      "visibility_m": 8000,
      "taf_visibility_m": 2000,
      "worst_visibility_m": 2000,
      "ceiling_ft": null,
      "hazards": [],
      "severityScore": 0,
      "metarRaw": "METAR OEJN 160700Z 06006KT 8000 FEW040 26/01 Q1015 NOSIG",
      "tafRaw": "TAF OEJN 160500Z 1606/1712 08014KT 6000 NSC \n  TEMPO 1606/1614 2000 BLDU \n  BECMG 1618/1620 08008KT"
    },
    {
      "icao": "OEMA",
      "iata": "MED",
      "name": "Prince Mohammad Bin Abdulaziz Airport",
      "updatedAt": "160700Z",
      "visibility_m": 10000,
      "taf_visibility_m": 2000,
      "worst_visibility_m": 2000,
      "ceiling_ft": null,
      "hazards": [],
      "severityScore": 0,
      "metarRaw": "METAR OEMA 160700Z 09011KT CAVOK 14/M01 Q1025 NOSIG",
      "tafRaw": "TAF OEMA 160500Z 1606/1712 09015KT 6000 NSC \n  TEMPO 1606/1614 2000 BLDU"
    },
    {
      "icao": "OMAA",
      "iata": "AUH",
      "name": "Zayed International Airport",
      "updatedAt": "160700Z",
      "visibility_m": 10000,
      "taf_visibility_m": 8000,
      "worst_visibility_m": 8000,
      "ceiling_ft": null,
      "hazards": [],
      "severityScore": 0,
      "metarRaw": "METAR OMAA 160700Z 31015KT 9999 FEW040 21/10 Q1020 NOSIG",
      "tafRaw": "TAF OMAA 160500Z 1606/1712 32013KT 8000 FEW030 \n  PROB30 \n  TEMPO 1606/1613 32015G25KT \n  PROB30 \n  TEMPO 1704/1712 32015G25KT"
    },
    {
      "icao": "OMDB",
      "iata": "DXB",
      "name": "Dubai International Airport",
      "updatedAt": "160700Z",
      "visibility_m": 10000,
      "taf_visibility_m": 8000,
      "worst_visibility_m": 8000,
      "ceiling_ft": 4000,
      "hazards": [],
      "severityScore": 0,
      "metarRaw": "METAR OMDB 160700Z 28014KT 240V320 9999 BKN040 22/11 Q1020 TEMPO 29020G30KT",
      "tafRaw": "TAF OMDB 160500Z 1606/1712 29014KT 8000 FEW030 \n  PROB30 \n  TEMPO 1606/1615 29018G28KT \n  PROB30 1701/1705 23007KT"
    },
    {
      "icao": "UDSG",
      "iata": "LWN",
      "name": "Shirak International Airport",
      "updatedAt": "160700Z",
      "visibility_m": 10000,
      "taf_visibility_m": 10000,
      "worst_visibility_m": 10000,
      "ceiling_ft": null,
      "hazards": [],
      "severityScore": 0,
      "metarRaw": "METAR UDSG 160700Z 20001KT 9999 FEW049 M14/M18 Q1021 NOSIG",
      "tafRaw": "TAF UDSG 160500Z 1606/1706 VRB06KT 9999 SCT040"
    },
    {
      "icao": "UDYZ",
      "iata": "EVN",
      "name": "Zvartnots International Airport",
      "updatedAt": "160700Z",
      "visibility_m": 10000,
      "taf_visibility_m": 10000,
      "worst_visibility_m": 10000,
      "ceiling_ft": null,
      "hazards": [],
      "severityScore": 0,
      "metarRaw": "METAR UDYZ 160700Z 14001KT 9999 NSC M04/M10 Q1024 NOSIG",
      "tafRaw": "TAF UDYZ 160500Z 1606/1706 VRB06KT 9999 FEW040"
    }
  ],
  "stats": {
    "icaoCount": 159,
    "metarReturned": 159,
    "tafReturned": 146,
    "stationsWritten": 159,
    "missingMetar": 0,
    "missingTaf": 13
  },
  "errors": []
}