{
  "generatedAt": "2026-01-18T01:28:34.600Z",
  "metarFetchedAt": "2026-01-18T01:28:35.345Z",
  "tafFetchedAt": "2026-01-18T01:28:35.913Z",
  "stations": [
    {
      "icao": "EDDS",
      "iata": "STR",
      "name": "Stuttgart Airport",
      "updatedAt": "180120Z",
      "visibility_m": 10000,
      "taf_visibility_m": 100,
      "worst_visibility_m": 100,
      "ceiling_ft": 100,
      "hazards": [
        "FZFG",
        "FG"
      ],
      "severityScore": 100,
      "metarRaw": "METAR EDDS 180120Z AUTO 07005KT 9999 SCT006 M03/M04 Q1020",
      "tafRaw": "TAF EDDS 172300Z 1800/1824 VRB03KT CAVOK \n  TEMPO 1800/1809 0100 FZFG BKN001 \n  TEMPO 1809/1814 BKN004 \n  PROB30 \n  TEMPO 1820/1824 1200 BCFG"
    },
    {
      "icao": "EDFH",
      "iata": "HHN",
      "name": "Frankfurt-Hahn Airport",
      "updatedAt": "180120Z",
      "visibility_m": 300,
      "taf_visibility_m": 100,
      "worst_visibility_m": 100,
      "ceiling_ft": 100,
      "hazards": [
        "FZFG",
        "FG"
      ],
      "severityScore": 100,
      "metarRaw": "METAR EDFH 180120Z 12016KT 0350 0300 R21/0375N FZFG VV/// M01/M01 Q1019",
      "tafRaw": "TAF EDFH 172300Z 1800/1824 14013KT 6000 BKN005 \n  TEMPO 1800/1809 0100 FZFG BKN001 \n  BECMG 1812/1815 SCT005 \n  TEMPO 1817/1824 BKN005 \n  PROB40 \n  TEMPO 1818/1824 0100 FZFG BKN001"
    },
    {
      "icao": "EDJA",
      "iata": "FMM",
      "name": "Memmingen Allgau Airport",
      "updatedAt": "180120Z",
      "visibility_m": 1400,
      "taf_visibility_m": 400,
      "worst_visibility_m": 400,
      "ceiling_ft": 100,
      "hazards": [
        "FZFG",
        "FG"
      ],
      "severityScore": 100,
      "metarRaw": "METAR EDJA 180120Z AUTO 05008KT 1400 R06/1900U // VV/// M03/M03 Q1019",
      "tafRaw": "TAF EDJA 171700Z 1718/1803 05005KT 0900 FZFG OVC002 \n  BECMG 1718/1720 0400 FZFG VV001"
    },
    {
      "icao": "EFTU",
      "iata": "TKU",
      "name": "Turku Airport",
      "updatedAt": "180120Z",
      "visibility_m": 750,
      "taf_visibility_m": 400,
      "worst_visibility_m": 400,
      "ceiling_ft": 200,
      "hazards": [
        "DZ",
        "FG",
        "BR"
      ],
      "severityScore": 100,
      "metarRaw": "METAR EFTU 180120Z AUTO 22003KT 0800 0750 R26/1000N DZ VV002 02/02 Q1034",
      "tafRaw": "TAF EFTU 172335Z 1800/1824 22005KT 1500 -DZ BR OVC001 \n  TEMPO 1800/1809 0400 DZ FG VV002 \n  BECMG 1809/1812 8000 NSW OVC013 \n  TEMPO 1812/1824 2500 DZ OVC006 \n  PROB30 1819/1824 1000 BCFG"
    },
    {
      "icao": "EGBB",
      "iata": "BHX",
      "name": "Birmingham Airport",
      "updatedAt": "180120Z",
      "visibility_m": 1100,
      "taf_visibility_m": 300,
      "worst_visibility_m": 300,
      "ceiling_ft": 200,
      "hazards": [
        "BR",
        "FG",
        "DZ"
      ],
      "severityScore": 100,
      "metarRaw": "METAR EGBB 180120Z 12007KT 1100 BR OVC002 04/04 Q1019",
      "tafRaw": "TAF EGBB 172300Z 1800/1824 13005KT 4000 BR BKN020 \n  BECMG 1800/1803 1200 BKN005 \n  TEMPO 1800/1812 0300 -DZ FG BKN000 \n  BECMG 1810/1813 6000 NSW BKN005 \n  TEMPO 1813/1816 1200 DZ BR BKN002 \n  TEMPO 1816/1824 0300 DZ FG BKN000"
    },
    {
      "icao": "EGGW",
      "iata": "LTN",
      "name": "London Luton Airport",
      "updatedAt": "180120Z",
      "visibility_m": 250,
      "taf_visibility_m": 300,
      "worst_visibility_m": 250,
      "ceiling_ft": 200,
      "hazards": [
        "FG",
        "BR",
        "RA",
        "DZ"
      ],
      "severityScore": 100,
      "metarRaw": "METAR EGGW 180120Z AUTO 11004KT 0250 R25/0700N FG OVC002 05/05 Q1019",
      "tafRaw": "TAF EGGW 172258Z 1800/1824 10006KT 2000 BR BKN002 \n  BECMG 1800/1803 0300 FG VV/// \n  PROB40 \n  TEMPO 1803/1806 0800 RADZ BKN002 \n  PROB40 1806/1811 2500 BR BKN002 \n  BECMG 1811/1814 9999 NSW FEW008 \n  PROB40 1814/1820 6000 \n  PROB40 1820/1823 3000 BR \n  PROB30 1823/1824 0300 FG VV///"
    },
    {
      "icao": "EGNM",
      "iata": "LBA",
      "name": "Leeds Bradford Airport",
      "updatedAt": null,
      "visibility_m": null,
      "taf_visibility_m": 300,
      "worst_visibility_m": 300,
      "ceiling_ft": 200,
      "hazards": [
        "FG",
        "BR",
        "RA",
        "DZ"
      ],
      "severityScore": 100,
      "metarRaw": null,
      "tafRaw": "TAF EGNM 172257Z 1800/1824 13003KT 0300 FG VV/// \n  TEMPO 1806/1824 RA -RADZ \n  PROB30 \n  TEMPO 1806/1815 2000 BR SCT001 BKN002"
    },
    {
      "icao": "EGPD",
      "iata": "ABZ",
      "name": "Aberdeen International Airport",
      "updatedAt": "180120Z",
      "visibility_m": 4000,
      "taf_visibility_m": 300,
      "worst_visibility_m": 300,
      "ceiling_ft": 900,
      "hazards": [
        "BR",
        "FG",
        "DZ",
        "RA"
      ],
      "severityScore": 100,
      "metarRaw": "METAR EGPD 180120Z AUTO 18007KT 9999 BKN009 05/04 Q1020 TEMPO 4000 BR",
      "tafRaw": "TAF EGPD 172258Z 1800/1824 16004KT 9999 SCT006 BKN015 \n  TEMPO 1800/1812 3000 BR BKN004 \n  PROB30 \n  TEMPO 1800/1810 0300 FG VV/// \n  TEMPO 1812/1824 6000 -RADZ BKN006 \n  PROB30 \n  TEMPO 1812/1819 3000 BR BKN003 \n  PROB30 \n  TEMPO 1815/1818 RADZ \n  PROB30 \n  TEMPO 1819/1824 0800 FG DZ BKN001"
    },
    {
      "icao": "ENGM",
      "iata": "OSL",
      "name": "Oslo-Gardermoen International Airport",
      "updatedAt": "180120Z",
      "visibility_m": 3800,
      "taf_visibility_m": 2000,
      "worst_visibility_m": 2000,
      "ceiling_ft": 200,
      "hazards": [
        "BR",
        "SN",
        "FZDZ",
        "DZ"
      ],
      "severityScore": 100,
      "metarRaw": "METAR ENGM 180120Z 02004KT 3800 BR OVC002 00/M00 Q1032",
      "tafRaw": "TAF ENGM 172300Z 1800/1824 04005KT 9999 BKN005 \n  TEMPO 1800/1816 2500 -SN BR BKN003 \n  PROB40 \n  TEMPO 1816/1824 2000 -FZDZ BR OVC002"
    },
    {
      "icao": "EPWR",
      "iata": "WRO",
      "name": "Copernicus Wrocław Airport",
      "updatedAt": "180100Z",
      "visibility_m": 400,
      "taf_visibility_m": 500,
      "worst_visibility_m": 400,
      "ceiling_ft": 100,
      "hazards": [
        "FZFG",
        "FG",
        "BR"
      ],
      "severityScore": 100,
      "metarRaw": "METAR EPWR 180100Z 12012KT 0400 R29/0700N FZFG BKN001 M01/M01 Q1030",
      "tafRaw": "TAF EPWR 172330Z 1800/1824 13010KT 2000 BR NSC \n  PROB40 1800/1809 0500 FZFG OVC001 \n  BECMG 1809/1812 CAVOK \n  PROB40 1820/1824 4000 BR"
    },
    {
      "icao": "ESGG",
      "iata": "GOT",
      "name": "Göteborg Landvetter Airport",
      "updatedAt": "180120Z",
      "visibility_m": 450,
      "taf_visibility_m": 300,
      "worst_visibility_m": 300,
      "ceiling_ft": 200,
      "hazards": [
        "FG",
        "BR"
      ],
      "severityScore": 100,
      "metarRaw": "METAR ESGG 180120Z 14006KT 0450 R03/1700D R21/1600D FG VV002 00/00 Q1030",
      "tafRaw": "TAF ESGG 172330Z 1800/1824 12004KT 0300 FG VV002 \n  PROB40 1800/1810 1200 BR \n  BECMG 1810/1812 9999 NSW \n  PROB40 1812/1815 2000 BR \n  PROB40 1815/1821 SCT003 \n  BECMG 1821/1823 NSC"
    },
    {
      "icao": "ESKN",
      "iata": "NYO",
      "name": "Stockholm Skavsta Airport",
      "updatedAt": "180120Z",
      "visibility_m": 200,
      "taf_visibility_m": 300,
      "worst_visibility_m": 200,
      "ceiling_ft": 200,
      "hazards": [
        "FG",
        "BR"
      ],
      "severityScore": 100,
      "metarRaw": "METAR ESKN 180120Z 14005KT 0200 R08/0800N R26/0800N FG VV002 02/02 Q1033",
      "tafRaw": "TAF ESKN 172330Z 1800/1824 14004KT 0300 FG VV002 \n  TEMPO 1800/1807 1200 BR \n  BECMG 1807/1809 2000 BR \n  PROB40 1809/1817 6000 BKN010 \n  PROB40 1817/1824 9999 SCT007 BKN015"
    },
    {
      "icao": "ESMS",
      "iata": "MMX",
      "name": "Malmö Sturup Airport",
      "updatedAt": "180120Z",
      "visibility_m": 550,
      "taf_visibility_m": 200,
      "worst_visibility_m": 200,
      "ceiling_ft": 200,
      "hazards": [
        "FG",
        "BR"
      ],
      "severityScore": 100,
      "metarRaw": "METAR ESMS 180120Z 12009KT 0550 R17/P2000N R35/1700N FG OVC002 02/02 Q1030",
      "tafRaw": "TAF ESMS 172327Z 1800/1824 13008KT 0200 FG VV002 \n  TEMPO 1800/1806 4000 BR BKN005 \n  BECMG 1806/1808 CAVOK"
    },
    {
      "icao": "ESSA",
      "iata": "ARN",
      "name": "Stockholm-Arlanda Airport",
      "updatedAt": "180120Z",
      "visibility_m": 200,
      "taf_visibility_m": 300,
      "worst_visibility_m": 200,
      "ceiling_ft": 300,
      "hazards": [
        "FG",
        "BR"
      ],
      "severityScore": 100,
      "metarRaw": "METAR ESSA 180120Z 17004KT 0200 R01L/1000N R19R/0900N R01R/1200D R19L/P2000N FG VV003 01/01 Q1034 TEMPO 0500",
      "tafRaw": "TAF ESSA 172330Z 1800/1824 17003KT 0300 FG VV002 \n  PROB40 1800/1807 2000 BR \n  BECMG 1807/1809 5000 \n  TEMPO 1809/1816 4000 BR BKN012 \n  PROB40 1816/1822 1200 BR BKN006 \n  BECMG 1822/1824 BKN015"
    },
    {
      "icao": "LFLL",
      "iata": "LYS",
      "name": "Lyon Saint-Exupéry Airport",
      "updatedAt": "180100Z",
      "visibility_m": 750,
      "taf_visibility_m": 200,
      "worst_visibility_m": 200,
      "ceiling_ft": 200,
      "hazards": [
        "BR",
        "FG"
      ],
      "severityScore": 100,
      "metarRaw": "METAR LFLL 180100Z 13004KT 3200 0750 R35L/1800D R17R/1500U R35R/1200D R17L/P2000 BCFG BR NSC 05/05 Q1015 NOSIG",
      "tafRaw": "TAF LFLL 172300Z 1800/1906 VRB02KT 3000 BR NSC \n  TEMPO 1800/1807 0700 FG VV/// \n  FM180700 VRB02KT 0400 FG VV/// \n  PROB40 \n  TEMPO 1807/1811 0200 \n  BECMG 1811/1813 3000 BR OVC002 \n  PROB40 \n  TEMPO 1821/1903 0700 FG VV/// \n  FM190300 VRB02KT 0600 FG VV///"
    },
    {
      "icao": "LFSB",
      "iata": "BSL",
      "name": "EuroAirport Basel–Mulhouse–Freiburg",
      "updatedAt": "180100Z",
      "visibility_m": 300,
      "taf_visibility_m": 300,
      "worst_visibility_m": 300,
      "ceiling_ft": 300,
      "hazards": [
        "FG",
        "FZFG",
        "BR"
      ],
      "severityScore": 100,
      "metarRaw": "METAR LFSB 180100Z AUTO 35005KT 0700 0550 R15/1100N R33/0900N FG VV/// 01/01 Q1019 TEMPO 0300 FG",
      "tafRaw": "TAF LFSB 172300Z 1800/1824 VRB03KT 5000 BR OVC010 \n  TEMPO 1800/1810 2000 BR OVC003 \n  PROB40 \n  TEMPO 1800/1810 0300 FG VV/// \n  PROB30 \n  TEMPO 1803/1809 FZFG \n  BECMG 1811/1813 6000 NSW NSC \n  PROB40 \n  TEMPO 1813/1818 BKN005 \n  BECMG 1818/1820 0300 FG VV/// \n  PROB40 \n  TEMPO 1820/1824 FZFG"
    },
    {
      "icao": "LIBP",
      "iata": "PSR",
      "name": "Abruzzo Airport",
      "updatedAt": "180120Z",
      "visibility_m": 400,
      "taf_visibility_m": 300,
      "worst_visibility_m": 300,
      "ceiling_ft": 200,
      "hazards": [
        "FG",
        "BR"
      ],
      "severityScore": 100,
      "metarRaw": "METAR LIBP 180120Z AUTO 21002KT 0400 R22/1900D BCFG OVC090/// 06/06 Q1023",
      "tafRaw": "TAF LIBP 172300Z 1800/1824 VRB05KT 2000 BR BKN010 \n  PROB40 \n  TEMPO 1800/1806 0300 FG OVC002 \n  BECMG 1806/1808 7000 FEW010 \n  BECMG 1810/1812 08010KT \n  BECMG 1816/1818 VRB05KT"
    },
    {
      "icao": "LIPE",
      "iata": "BLQ",
      "name": "Bologna Guglielmo Marconi Airport",
      "updatedAt": "180120Z",
      "visibility_m": 1200,
      "taf_visibility_m": 500,
      "worst_visibility_m": 500,
      "ceiling_ft": 100,
      "hazards": [
        "BR",
        "FG",
        "RA"
      ],
      "severityScore": 100,
      "metarRaw": "METAR LIPE 180120Z AUTO VRB02KT 1200 1000N R12/P2000N R30/P2000N BR OVC004/// 08/08 Q1024",
      "tafRaw": "TAF LIPE 172300Z 1800/1824 VRB04KT 1400 BR BKN004 \n  TEMPO 1800/1806 0500 FG OVC001 \n  BECMG 1805/1807 3000 -RA BR BKN018"
    },
    {
      "icao": "LIPR",
      "iata": "RMI",
      "name": "Federico Fellini International Airport",
      "updatedAt": "180120Z",
      "visibility_m": 1000,
      "taf_visibility_m": 500,
      "worst_visibility_m": 500,
      "ceiling_ft": 100,
      "hazards": [
        "BR",
        "RA",
        "FG"
      ],
      "severityScore": 100,
      "metarRaw": "METAR LIPR 180120Z AUTO 31003KT 1000 R30/P2000N -RA BR OVC003/// 08/08 Q1024",
      "tafRaw": "TAF LIPR 172300Z 1800/1824 VRB05KT 4000 BR BKN005 \n  TEMPO 1800/1807 0500 FG OVC001 \n  BECMG 1807/1809 4000 BR BKN020 \n  BECMG 1810/1812 08010KT 7000"
    },
    {
      "icao": "LIPY",
      "iata": "AOI",
      "name": "Marche Airport",
      "updatedAt": "180120Z",
      "visibility_m": 3800,
      "taf_visibility_m": 500,
      "worst_visibility_m": 500,
      "ceiling_ft": 100,
      "hazards": [
        "BR",
        "FG"
      ],
      "severityScore": 100,
      "metarRaw": "METAR LIPY 180120Z AUTO 32004KT 290V350 3800 BR OVC003/// 09/09 Q1023",
      "tafRaw": "TAF LIPY 172300Z 1800/1824 VRB05KT 3000 BR BKN005 \n  TEMPO 1800/1805 0500 FG OVC001 \n  BECMG 1808/1810 10010KT 7000 BKN020"
    },
    {
      "icao": "LKMT",
      "iata": "OSR",
      "name": "Ostrava Leos Janáček Airport",
      "updatedAt": "180100Z",
      "visibility_m": 350,
      "taf_visibility_m": 200,
      "worst_visibility_m": 200,
      "ceiling_ft": 200,
      "hazards": [
        "FZFG",
        "FG",
        "BR"
      ],
      "severityScore": 100,
      "metarRaw": "METAR LKMT 180100Z VRB01KT 0350 R22/0500N R04/0500N FZFG VV002 M04/M05 Q1031 NOSIG",
      "tafRaw": "TAF LKMT 172300Z 1800/1824 VRB02KT 0200 FZFG VV002 \n  BECMG 1808/1810 1400 BR SCT005 \n  BECMG 1810/1812 CAVOK"
    },
    {
      "icao": "LQSA",
      "iata": "SJJ",
      "name": "Sarajevo International Airport",
      "updatedAt": "180100Z",
      "visibility_m": 2000,
      "taf_visibility_m": 300,
      "worst_visibility_m": 300,
      "ceiling_ft": 200,
      "hazards": [
        "BR",
        "FZFG",
        "FG"
      ],
      "severityScore": 100,
      "metarRaw": "METAR LQSA 180100Z 00000KT 2000 BR OVC002 M02/M02 Q1027",
      "tafRaw": "TAF LQSA 172300Z 1800/1824 VRB02KT 0300 FZFG BKN003 TX02/1813Z TNM02/1800Z \n  PROB40 \n  TEMPO 1801/1808 1000 BR BKN012 \n  BECMG 1808/1810 6000 NSW SCT018 \n  PROB30 1821/1824 4000 BR BKN008"
    },
    {
      "icao": "LRTR",
      "iata": "TSR",
      "name": "Timişoara Traian Vuia Airport",
      "updatedAt": "180100Z",
      "visibility_m": 8000,
      "taf_visibility_m": 600,
      "worst_visibility_m": 600,
      "ceiling_ft": 200,
      "hazards": [
        "FZFG",
        "BR",
        "FG"
      ],
      "severityScore": 100,
      "metarRaw": "METAR LRTR 180100Z COR 02002KT 8000 NSC M06/M06 Q1032",
      "tafRaw": "TAF LRTR 172300Z 1800/1824 VRB04KT CAVOK \n  TEMPO 1802/1806 3000 BR BKN010 \n  BECMG 1817/1819 5000 BR \n  BECMG 1819/1821 1500 BR BKN005 \n  BECMG 1821/1823 0600 FZFG OVC002"
    },
    {
      "icao": "OJAI",
      "iata": "AMM",
      "name": "Queen Alia International Airport",
      "updatedAt": "180100Z",
      "visibility_m": 3000,
      "taf_visibility_m": 900,
      "worst_visibility_m": 900,
      "ceiling_ft": 2500,
      "hazards": [
        "BR",
        "FG",
        "TSRA",
        "RA",
        "TS"
      ],
      "severityScore": 100,
      "metarRaw": "METAR OJAI 180100Z 30002KT 3000 BR NSC 05/04 Q1016 NOSIG",
      "tafRaw": "TAF OJAI 172300Z 1800/1906 25010KT 4000 BR FEW020 SCT025 \n  PROB40 1800/1806 VRB02KT 0900 FG \n  BECMG 1806/1808 27016KT 4000 RA BR SCT020 BKN025 \n  TEMPO 1808/1812 28020KT 2000 TSRA FEW020CB SCT020 BKN025"
    },
    {
      "icao": "UAAA",
      "iata": "ALA",
      "name": "Almaty International Airport",
      "updatedAt": "180118Z",
      "visibility_m": 5000,
      "taf_visibility_m": 400,
      "worst_visibility_m": 400,
      "ceiling_ft": 4300,
      "hazards": [
        "BR",
        "SN",
        "FZFG",
        "FG"
      ],
      "severityScore": 100,
      "metarRaw": "SPECI UAAA 180118Z 02002MPS 5000 -SN BR BKN043 OVC100 M18/M21 Q1031 NOSIG",
      "tafRaw": "TAF UAAA 172300Z 1800/1824 33003MPS 6000 BKN015CB OVC050 TXM15/1808Z TNM22/1803Z \n  TEMPO 1800/1804 26003MPS 3100 -SN BR BKN005 OVC011 \n  TEMPO 1804/1812 02003G08MPS 3100 BR BKN005 OVC011 \n  BECMG 1812/1813 1200 BR FU \n  TEMPO 1812/1824 0400 FZFG VV002"
    },
    {
      "icao": "UDSG",
      "iata": "LWN",
      "name": "Shirak International Airport",
      "updatedAt": "180100Z",
      "visibility_m": 2000,
      "taf_visibility_m": 200,
      "worst_visibility_m": 200,
      "ceiling_ft": 2600,
      "hazards": [
        "BR",
        "SN",
        "FZFG",
        "FG"
      ],
      "severityScore": 100,
      "metarRaw": "METAR UDSG 180100Z 12002KT 2000 SN BR OVC026 M08/M08 Q1017 NOSIG",
      "tafRaw": "TAF UDSG 172300Z 1800/1824 VRB06KT 2000 BR OVC020 \n  TEMPO 1800/1807 0200 SN FZFG VV002"
    },
    {
      "icao": "EGPF",
      "iata": "GLA",
      "name": "Glasgow Airport",
      "updatedAt": "180120Z",
      "visibility_m": 7000,
      "taf_visibility_m": 300,
      "worst_visibility_m": 300,
      "ceiling_ft": 4600,
      "hazards": [
        "FG",
        "BR",
        "RA",
        "DZ"
      ],
      "severityScore": 97,
      "metarRaw": "METAR EGPF 180120Z AUTO VRB02KT 7000 OVC046 05/04 Q1020",
      "tafRaw": "TAF EGPF 172253Z 1800/1824 04003KT 9999 SCT040 \n  TEMPO 1800/1824 6000 BKN010 \n  PROB30 1800/1811 0300 FG VV/// \n  PROB30 \n  TEMPO 1811/1815 3000 BR BKN003 \n  PROB30 \n  TEMPO 1815/1824 3000 RADZ BR BKN004"
    },
    {
      "icao": "LZIB",
      "iata": "BTS",
      "name": "M. R. Štefánik Airport",
      "updatedAt": "180100Z",
      "visibility_m": 6000,
      "taf_visibility_m": 500,
      "worst_visibility_m": 500,
      "ceiling_ft": 3200,
      "hazards": [
        "FZFG",
        "BR",
        "FG"
      ],
      "severityScore": 95,
      "metarRaw": "METAR LZIB 180100Z 10004KT 6000 FEW007 BKN032 M00/M01 Q1032 NOSIG",
      "tafRaw": "TAF LZIB 172315Z 1800/1900 05005KT 4500 BR SCT006 \n  TEMPO 1800/1810 2000 BCFG BR BKN006 \n  PROB40 \n  TEMPO 1801/1809 0500 FZFG BKN002 OVC003 \n  BECMG 1810/1812 9999 BKN018 \n  TEMPO 1810/1821 11007KT BKN013 \n  PROB40 \n  TEMPO 1821/1900 2000 BCFG BR BKN004"
    },
    {
      "icao": "LEMD",
      "iata": "MAD",
      "name": "Adolfo Suárez Madrid–Barajas Airport",
      "updatedAt": "180100Z",
      "visibility_m": 10000,
      "taf_visibility_m": 400,
      "worst_visibility_m": 400,
      "ceiling_ft": 700,
      "hazards": [
        "FG",
        "BR"
      ],
      "severityScore": 90,
      "metarRaw": "METAR LEMD 180100Z VRB02KT 9999 BKN007 BKN011 OVC033 04/03 Q1009 NOSIG",
      "tafRaw": "TAF LEMD 172300Z 1800/1906 VRB04KT 9999 SCT035 TX09/1814Z TNM00/1808Z \n  TEMPO 1800/1810 4000 BR BKN005 BKN012 \n  PROB30 \n  TEMPO 1804/1810 0400 FG VV002 \n  PROB30 \n  TEMPO 1810/1818 04010KT"
    },
    {
      "icao": "LFOB",
      "iata": "BVA",
      "name": "Beauvais Tillé airport",
      "updatedAt": "180100Z",
      "visibility_m": 900,
      "taf_visibility_m": 800,
      "worst_visibility_m": 800,
      "ceiling_ft": 200,
      "hazards": [
        "FG",
        "BR"
      ],
      "severityScore": 90,
      "metarRaw": "METAR LFOB 180100Z AUTO VRB02KT CAVOK 05/05 Q1017 TEMPO 0900 FG VV///",
      "tafRaw": "TAF LFOB 172300Z 1800/1824 10005KT CAVOK \n  PROB40 1800/1812 4000 BR OVC002 \n  PROB30 1800/1810 0900 FG VV/// \n  BECMG 1816/1818 4000 BR OVC002 \n  PROB40 1820/1824 0800 FG VV///"
    },
    {
      "icao": "LEBL",
      "iata": "BCN",
      "name": "Josep Tarradellas Barcelona-El Prat Airport",
      "updatedAt": "180100Z",
      "visibility_m": 10000,
      "taf_visibility_m": 2000,
      "worst_visibility_m": 2000,
      "ceiling_ft": 1200,
      "hazards": [
        "TSRA",
        "SHRA",
        "TS",
        "RA"
      ],
      "severityScore": 88,
      "metarRaw": "METAR LEBL 180100Z 32004KT 9999 FEW008 SCT028 11/11 Q1009 NOSIG",
      "tafRaw": "TAF LEBL 172300Z 1800/1824 33005KT 9999 SCT020 TX13/1812Z TN10/1806Z \n  TEMPO 1800/1810 4000 SHRA BKN012 FEW020TCU \n  PROB30 \n  TEMPO 1800/1810 2000 TSRA FEW020CB \n  TEMPO 1803/1818 09007KT \n  PROB40 \n  TEMPO 1810/1824 4000 SHRA FEW020TCU"
    },
    {
      "icao": "EETN",
      "iata": "TLL",
      "name": "Lennart Meri Tallinn Airport",
      "updatedAt": "180120Z",
      "visibility_m": 2700,
      "taf_visibility_m": 3000,
      "worst_visibility_m": 2700,
      "ceiling_ft": 300,
      "hazards": [
        "BR",
        "FZDZ",
        "DZ"
      ],
      "severityScore": 83,
      "metarRaw": "METAR EETN 180120Z 21005KT 2700 -FZDZ BR OVC003 M03/M03 Q1037",
      "tafRaw": "TAF EETN 172330Z 1800/1824 19010KT 8000 BKN005 OVC010 \n  TEMPO 1800/1806 3000 -FZDZ BR OVC004 \n  BECMG 1806/1808 BKN012 \n  TEMPO 1812/1817 OVC005"
    },
    {
      "icao": "LCPH",
      "iata": "PFO",
      "name": "Paphos International Airport",
      "updatedAt": "180100Z",
      "visibility_m": 5000,
      "taf_visibility_m": 2000,
      "worst_visibility_m": 2000,
      "ceiling_ft": 2800,
      "hazards": [
        "SHRA",
        "RA",
        "TSRA",
        "TS"
      ],
      "severityScore": 76,
      "metarRaw": "METAR LCPH 180100Z AUTO 09003KT 9999 BKN028 BKN075 12/10 Q1014 TEMPO 5000 SHRA SCT020TCU",
      "tafRaw": "TAF LCPH 172330Z 1800/1900 07008KT 9999 SCT025 \n  PROB30 \n  TEMPO 1800/1817 5000 SHRA SCT020TCU \n  PROB30 \n  TEMPO 1800/1817 VRB15G25KT 2000 TSRA SCT020CB SCT025TCU \n  BECMG 1808/1810 13012KT \n  BECMG 1813/1815 04007KT \n  BECMG 1818/1820 03017KT"
    },
    {
      "icao": "LFBD",
      "iata": "BOD",
      "name": "Bordeaux–Mérignac Airport",
      "updatedAt": "180100Z",
      "visibility_m": 4700,
      "taf_visibility_m": 1500,
      "worst_visibility_m": 1500,
      "ceiling_ft": 500,
      "hazards": [
        "BR",
        "DZ",
        "FG"
      ],
      "severityScore": 75,
      "metarRaw": "METAR LFBD 180100Z AUTO VRB03KT 4700 BR BKN005 OVC009 09/09 Q1010 NOSIG",
      "tafRaw": "TAF LFBD 172300Z 1800/1906 04010KT 8000 BKN015 TX11/1815Z TN07/1806Z \n  PROB40 1800/1812 3000 -DZ OVC003 \n  TEMPO 1822/1906 1500 MIFG"
    },
    {
      "icao": "LHBP",
      "iata": "BUD",
      "name": "Budapest Liszt Ferenc International Airport",
      "updatedAt": "180100Z",
      "visibility_m": 10000,
      "taf_visibility_m": 1200,
      "worst_visibility_m": 1200,
      "ceiling_ft": 400,
      "hazards": [
        "BR",
        "FG"
      ],
      "severityScore": 75,
      "metarRaw": "METAR LHBP 180100Z VRB01KT CAVOK M07/M08 Q1032 NOSIG",
      "tafRaw": "TAF LHBP 172315Z 1800/1824 VRB03KT CAVOK \n  TEMPO 1801/1808 1400 BCFG BR \n  PROB40 \n  TEMPO 1801/1808 BKN004 \n  BECMG 1818/1821 5000 BR SCT005 \n  TEMPO 1821/1824 1200 BCFG BR BKN004"
    },
    {
      "icao": "LFPO",
      "iata": "ORY",
      "name": "Paris-Orly Airport",
      "updatedAt": "180100Z",
      "visibility_m": 10000,
      "taf_visibility_m": 700,
      "worst_visibility_m": 700,
      "ceiling_ft": null,
      "hazards": [
        "FG",
        "BR",
        "RA"
      ],
      "severityScore": 67,
      "metarRaw": "METAR LFPO 180100Z AUTO 11004KT CAVOK 09/07 Q1017 NOSIG",
      "tafRaw": "TAF LFPO 172300Z 1800/1906 09006KT CAVOK \n  TEMPO 1800/1803 -RA \n  BECMG 1815/1818 VRB03KT \n  BECMG 1900/1903 4000 BR \n  TEMPO 1904/1906 2500 MIFG \n  PROB30 \n  TEMPO 1905/1906 0700 FG VV///"
    },
    {
      "icao": "HESX",
      "iata": "SPX",
      "name": "Sphinx International Airport",
      "updatedAt": "180100Z",
      "visibility_m": 10000,
      "taf_visibility_m": 500,
      "worst_visibility_m": 500,
      "ceiling_ft": null,
      "hazards": [
        "FG",
        "BR"
      ],
      "severityScore": 65,
      "metarRaw": "METAR HESX 180100Z 00000KT CAVOK 10/07 Q1016 NOSIG",
      "tafRaw": "TAF HESX 172300Z 1800/1906 33009KT CAVOK \n  TEMPO 1800/1807 VRB03KT 3000 BR NSC \n  PROB40 \n  TEMPO 1801/1806 1000 \n  PROB30 \n  TEMPO 1803/1806 0500 FG"
    },
    {
      "icao": "LYPG",
      "iata": "TGD",
      "name": "Podgorica Airport / Podgorica Golubovci Airbase",
      "updatedAt": "180100Z",
      "visibility_m": 10000,
      "taf_visibility_m": 500,
      "worst_visibility_m": 500,
      "ceiling_ft": null,
      "hazards": [
        "FG",
        "BR"
      ],
      "severityScore": 65,
      "metarRaw": "METAR LYPG 180100Z 36004KT CAVOK 02/01 Q1025 NOSIG",
      "tafRaw": "TAF LYPG 172300Z 1800/1824 36004KT CAVOK TX11/1813Z TN00/1805Z \n  TEMPO 1800/1807 2000 BR \n  PROB40 \n  TEMPO 1802/1806 0500 FG"
    },
    {
      "icao": "UGKO",
      "iata": "KUT",
      "name": "David the Builder Kutaisi International Airport",
      "updatedAt": "180100Z",
      "visibility_m": 10000,
      "taf_visibility_m": 2000,
      "worst_visibility_m": 2000,
      "ceiling_ft": 800,
      "hazards": [
        "BR",
        "SN",
        "RA"
      ],
      "severityScore": 65,
      "metarRaw": "METAR UGKO 180100Z AUTO 09003KT 9999 OVC009/// 01/01 Q1024 NOSIG",
      "tafRaw": "TAF UGKO 172300Z 1800/1824 08007KT 9999 SCT020 BKN050 TX06/1811Z TN00/1803Z \n  TEMPO 1800/1802 2000 SNRA BR BKN008 OVC025 \n  BECMG 1806/1809 25010KT \n  TEMPO 1806/1813 CAVOK"
    },
    {
      "icao": "LLBG",
      "iata": "TLV",
      "name": "Ben Gurion International Airport",
      "updatedAt": "180120Z",
      "visibility_m": 10000,
      "taf_visibility_m": 5000,
      "worst_visibility_m": 5000,
      "ceiling_ft": 2500,
      "hazards": [
        "TSRA",
        "RA",
        "TS"
      ],
      "severityScore": 62,
      "metarRaw": "METAR LLBG 180120Z 17005KT 9999 FEW036 SCT050 12/09 Q1015 NOSIG",
      "tafRaw": "TAF LLBG 172321Z 1800/1824 15006KT 9999 SCT035 \n  PROB40 \n  TEMPO 1802/1806 19012KT 7000 RA FEW025TCU BKN030 \n  FM180600 23012KT 9999 SCT030 \n  TEMPO 1806/1815 26018G28KT 5000 TSRA SCT015 FEW020CB BKN025 \n  BECMG 1815/1817 15006KT \n  PROB40 \n  TEMPO 1817/1824 19012KT 7000 RA FEW025TCU BKN030 TX16/1811Z TN09/1804Z"
    },
    {
      "icao": "EKCH",
      "iata": "CPH",
      "name": "Copenhagen Kastrup Airport",
      "updatedAt": "180120Z",
      "visibility_m": 1200,
      "taf_visibility_m": null,
      "worst_visibility_m": 1200,
      "ceiling_ft": 300,
      "hazards": [
        "BR"
      ],
      "severityScore": 60,
      "metarRaw": "METAR EKCH 180120Z 12011KT 2000 BR OVC003 02/02 Q1030 TEMPO 1200",
      "tafRaw": null
    },
    {
      "icao": "LPPS",
      "iata": "PXO",
      "name": "Porto Santo Airport",
      "updatedAt": "180100Z",
      "visibility_m": 10000,
      "taf_visibility_m": 5000,
      "worst_visibility_m": 5000,
      "ceiling_ft": 1200,
      "hazards": [
        "BR",
        "SHRA",
        "RA",
        "DZ"
      ],
      "severityScore": 58,
      "metarRaw": "METAR LPPS 180100Z 32023G34KT 9999 SCT008 BKN012 16/15 Q1014",
      "tafRaw": "TAF LPPS 172300Z 1800/1906 31018KT 9999 SCT012 BKN030 \n  TEMPO 1800/1804 31020G33KT 5000 -RADZ BR SCT004 BKN008 \n  PROB30 \n  TEMPO 1800/1803 31028G40KT \n  BECMG 1804/1806 01018KT SCT015 \n  TEMPO 1806/1818 36020G32KT 8000 SHRA BKN012"
    },
    {
      "icao": "ENZV",
      "iata": "SVG",
      "name": "Stavanger Airport, Sola",
      "updatedAt": "180120Z",
      "visibility_m": 8000,
      "taf_visibility_m": 3000,
      "worst_visibility_m": 3000,
      "ceiling_ft": 300,
      "hazards": [
        "RA",
        "BR"
      ],
      "severityScore": 57,
      "metarRaw": "METAR ENZV 180120Z 28003KT 8000 RA FEW040 05/04 Q1026",
      "tafRaw": "TAF ENZV 172300Z 1800/1824 VRB05KT 9999 FEW020 BKN040 \n  TEMPO 1800/1805 RA BKN014 \n  PROB30 1805/1809 3000 BR BKN003"
    },
    {
      "icao": "EDNY",
      "iata": "FDH",
      "name": "Friedrichshafen Airport",
      "updatedAt": "180120Z",
      "visibility_m": 10000,
      "taf_visibility_m": 1200,
      "worst_visibility_m": 1200,
      "ceiling_ft": 300,
      "hazards": [
        "BR"
      ],
      "severityScore": 55,
      "metarRaw": "METAR EDNY 180120Z AUTO 03007KT 360V060 9999 // OVC008/// M01/M02 Q1020",
      "tafRaw": "TAF EDNY 171700Z 1718/1803 02007KT 9000 BKN006 \n  TEMPO 1718/1803 1200 BR OVC003"
    },
    {
      "icao": "LRSV",
      "iata": "SCV",
      "name": "Suceava Stefan cel Mare Airport",
      "updatedAt": "180100Z",
      "visibility_m": 1500,
      "taf_visibility_m": 1500,
      "worst_visibility_m": 1500,
      "ceiling_ft": 200,
      "hazards": [
        "BR"
      ],
      "severityScore": 55,
      "metarRaw": "METAR LRSV 180100Z 35005KT 1500 BR OVC002 M13/M14 Q1037",
      "tafRaw": "TAF LRSV 172300Z 1800/1809 36005KT 5000 BR SCT015 \n  TEMPO 1800/1806 1500 BR BKN005 \n  BECMG 1806/1808 9999 NSW"
    },
    {
      "icao": "LEZG",
      "iata": "ZAZ",
      "name": "Zaragoza Airport",
      "updatedAt": "180100Z",
      "visibility_m": 10000,
      "taf_visibility_m": 1500,
      "worst_visibility_m": 1500,
      "ceiling_ft": 1000,
      "hazards": [
        "RA",
        "FG"
      ],
      "severityScore": 54,
      "metarRaw": "METAR LEZG 180100Z 27008KT 9999 -RA OVC010 07/07 Q1009 NOSIG",
      "tafRaw": "TAF LEZG 172300Z 1800/1824 29007KT 6000 SCT005 TX10/1814Z TN05/1806Z \n  TEMPO 1800/1824 1500 RA BCFG BKN005"
    },
    {
      "icao": "LEBB",
      "iata": "BIO",
      "name": "Bilbao Airport",
      "updatedAt": "180100Z",
      "visibility_m": 4000,
      "taf_visibility_m": null,
      "worst_visibility_m": 4000,
      "ceiling_ft": 900,
      "hazards": [
        "BR",
        "RA"
      ],
      "severityScore": 52,
      "metarRaw": "METAR LEBB 180100Z AUTO 27002KT 4000 1700NW -RA BR BKN009 OVC014 08/08 Q1011",
      "tafRaw": null
    },
    {
      "icao": "UDYZ",
      "iata": "EVN",
      "name": "Zvartnots International Airport",
      "updatedAt": "180100Z",
      "visibility_m": 5000,
      "taf_visibility_m": 1000,
      "worst_visibility_m": 1000,
      "ceiling_ft": 1000,
      "hazards": [
        "BR",
        "SN"
      ],
      "severityScore": 50,
      "metarRaw": "METAR UDYZ 180100Z 08001KT 5000 BR SCT046 M03/M05 Q1019 NOSIG",
      "tafRaw": "TAF UDYZ 172300Z 1800/1824 14006KT 3500 BR BKN040 \n  TEMPO 1800/1809 1000 SN BR OVC010"
    },
    {
      "icao": "GMMN",
      "iata": "CMN",
      "name": "Mohammed V International Airport",
      "updatedAt": "180100Z",
      "visibility_m": 10000,
      "taf_visibility_m": 1200,
      "worst_visibility_m": 1200,
      "ceiling_ft": 600,
      "hazards": [
        "RA"
      ],
      "severityScore": 47,
      "metarRaw": "METAR GMMN 180100Z 22010KT 9999 SCT020 SCT040 07/06 Q1010 NOSIG",
      "tafRaw": "TAF GMMN 172300Z 1800/1906 22007KT 9999 SCT020 SCT030 \n  TEMPO 0800/1804 4000 RA BKN013 BKN020 \n  TEMPO 1804/1810 1200 RA BKN006 BKN026TCU \n  BECMG 1811/1813 33013KT SCT020 FEW030CB \n  BECMG 1818/1820 21005KT"
    },
    {
      "icao": "EDDB",
      "iata": "BER",
      "name": "Berlin Brandenburg Airport",
      "updatedAt": "180120Z",
      "visibility_m": 5000,
      "taf_visibility_m": 4000,
      "worst_visibility_m": 4000,
      "ceiling_ft": 400,
      "hazards": [
        "BR"
      ],
      "severityScore": 45,
      "metarRaw": "METAR EDDB 180120Z AUTO 11008KT 5000 BR BKN004 BKN007 02/02 Q1027 TEMPO SCT005",
      "tafRaw": "TAF EDDB 172300Z 1800/1824 10009KT 5000 BR BKN005 \n  TEMPO 1800/1809 4000 BR BKN004 \n  BECMG 1809/1812 SCT005"
    },
    {
      "icao": "EDLW",
      "iata": "DTM",
      "name": "Dortmund Airport",
      "updatedAt": "180120Z",
      "visibility_m": 10000,
      "taf_visibility_m": 2500,
      "worst_visibility_m": 2500,
      "ceiling_ft": 200,
      "hazards": [
        "BR"
      ],
      "severityScore": 45,
      "metarRaw": "METAR EDLW 180120Z AUTO 15005KT 9999 // NCD 03/02 Q1021",
      "tafRaw": "TAF EDLW 171700Z 1718/1818 09004KT CAVOK \n  PROB30 \n  TEMPO 1802/1810 2500 BR BKN002"
    },
    {
      "icao": "EDSB",
      "iata": "FKB",
      "name": "Karlsruhe Baden-Baden Airport",
      "updatedAt": "180120Z",
      "visibility_m": 10000,
      "taf_visibility_m": 3000,
      "worst_visibility_m": 3000,
      "ceiling_ft": 400,
      "hazards": [
        "BR"
      ],
      "severityScore": 45,
      "metarRaw": "METAR EDSB 180120Z AUTO 02010KT 9999 // SCT011/// 00/M01 Q1020",
      "tafRaw": "TAF EDSB 172300Z 1800/1824 03008KT 9000 BKN008 \n  TEMPO 1800/1810 3000 BR BKN004 \n  BECMG 1810/1813 BKN015 \n  BECMG 1812/1815 VRB03KT \n  TEMPO 1818/1824 3000 BR BKN012"
    },
    {
      "icao": "EGKK",
      "iata": "LGW",
      "name": "London Gatwick Airport",
      "updatedAt": "180120Z",
      "visibility_m": 7000,
      "taf_visibility_m": 3000,
      "worst_visibility_m": 3000,
      "ceiling_ft": 500,
      "hazards": [
        "BR",
        "DZ"
      ],
      "severityScore": 45,
      "metarRaw": "METAR EGKK 180120Z 02003KT 7000 BKN005 07/06 Q1018",
      "tafRaw": "TAF EGKK 172300Z 1800/1906 08006KT 9999 BKN006 \n  TEMPO 1800/1808 6000 -DZ \n  PROB40 \n  TEMPO 1800/1808 3000 DZ BR BKN003 \n  PROB30 \n  TEMPO 1808/1810 7000 BKN004 \n  BECMG 1810/1813 SCT015 \n  BECMG 1823/1902 6000 \n  TEMPO 1902/1906 3000 BR BKN004"
    },
    {
      "icao": "OMAA",
      "iata": "AUH",
      "name": "Zayed International Airport",
      "updatedAt": "180100Z",
      "visibility_m": 10000,
      "taf_visibility_m": 1500,
      "worst_visibility_m": 1500,
      "ceiling_ft": 500,
      "hazards": [
        "BR"
      ],
      "severityScore": 45,
      "metarRaw": "METAR OMAA 180100Z 19004KT 9999 FEW030 15/11 Q1016 NOSIG",
      "tafRaw": "TAF OMAA 172300Z 1800/1906 21004KT 9999 FEW040 \n  BECMG 1804/1806 34011KT \n  BECMG 1814/1816 21005KT \n  PROB40 1822/1905 4000 HZ \n  PROB30 1900/1905 1500 BR BKN005"
    },
    {
      "icao": "LTFM",
      "iata": "IST",
      "name": "İstanbul Airport",
      "updatedAt": "180120Z",
      "visibility_m": 10000,
      "taf_visibility_m": 2000,
      "worst_visibility_m": 2000,
      "ceiling_ft": 2800,
      "hazards": [
        "SN",
        "RA",
        "SHSN"
      ],
      "severityScore": 40,
      "metarRaw": "METAR LTFM 180120Z 02016KT 9999 -SHSNRA SCT012 BKN028 02/M02 Q1028 RESHSN NOSIG RMK RWY17L 01016KT RWY34L 01017KT RWY16R 01016KT RWY36 02019KT RWY18 04017KT",
      "tafRaw": "TAF LTFM 172240Z 1800/1906 03018KT 9999 -SHSNRA SCT016 BKN028 \n  TEMPO 1800/1804 4000 -SHSN BKN012 BKN020 \n  BECMG 1811/1814 35024G36KT -SHSN BKN006 BKN022 \n  TEMPO 1820/1824 2500 SHSN \n  TEMPO 1902/1906 2000 SHSN"
    },
    {
      "icao": "LPMA",
      "iata": "FNC",
      "name": "Madeira International Airport Cristiano Ronaldo",
      "updatedAt": "180100Z",
      "visibility_m": 10000,
      "taf_visibility_m": 6000,
      "worst_visibility_m": 6000,
      "ceiling_ft": 1500,
      "hazards": [
        "SHRA",
        "RA"
      ],
      "severityScore": 38,
      "metarRaw": "METAR LPMA 180100Z 33011G25KT 240V020 9999 -SHRA BKN015 18/14 Q1014",
      "tafRaw": "TAF LPMA 172300Z 1800/1824 VRB05KT 9999 SCT015 SCT030 \n  TEMPO 1800/1805 6000 -RA SCT006 BKN013 \n  BECMG 1801/1803 36018KT \n  TEMPO 1803/1820 01023G35KT \n  PROB30 \n  TEMPO 1803/1807 01028G40KT \n  BECMG 1820/1822 01013KT"
    },
    {
      "icao": "UBBB",
      "iata": "GYD",
      "name": "Heydar Aliyev International Airport",
      "updatedAt": "180100Z",
      "visibility_m": 10000,
      "taf_visibility_m": 4000,
      "worst_visibility_m": 4000,
      "ceiling_ft": 700,
      "hazards": [
        "RA"
      ],
      "severityScore": 37,
      "metarRaw": "METAR UBBB 180100Z 32010KT 9999 -RA BKN007 OVC024 04/03 Q1026 NOSIG",
      "tafRaw": "TAF UBBB 172302Z 1800/1824 31014KT 8000 BKN007 OVC025 TX06/1810Z TN02/1801Z \n  TEMPO 1800/1806 34018G28KT 4000 -RA BKN005 OVC017 \n  BECMG 1806/1808 05010KT 9999 SCT012 BKN030 \n  TEMPO 1808/1818 08016KT OVC020"
    },
    {
      "icao": "EDDH",
      "iata": "HAM",
      "name": "Hamburg Helmut Schmidt Airport",
      "updatedAt": "180120Z",
      "visibility_m": 10000,
      "taf_visibility_m": 3500,
      "worst_visibility_m": 3500,
      "ceiling_ft": 900,
      "hazards": [
        "BR"
      ],
      "severityScore": 35,
      "metarRaw": "METAR EDDH 180120Z AUTO 11009KT 080V140 9999 BKN011 OVC019 04/02 Q1025 TEMPO BKN009",
      "tafRaw": "TAF EDDH 172300Z 1800/1906 11009KT 9999 OVC012 \n  TEMPO 1800/1810 BKN007 \n  PROB30 \n  TEMPO 1802/1808 3500 BR OVC004 \n  BECMG 1812/1814 CAVOK"
    },
    {
      "icao": "EPSC",
      "iata": "SZZ",
      "name": "Solidarity Szczecin–Goleniów Airport",
      "updatedAt": "180100Z",
      "visibility_m": 3400,
      "taf_visibility_m": 2000,
      "worst_visibility_m": 2000,
      "ceiling_ft": 500,
      "hazards": [
        "BR"
      ],
      "severityScore": 35,
      "metarRaw": "METAR EPSC 180100Z 10006KT 3400 BR OVC005 00/M01 Q1030",
      "tafRaw": "TAF EPSC 172330Z 1800/1824 11010KT 2000 BR OVC002 \n  BECMG 1800/1803 CAVOK \n  PROB40 \n  TEMPO 1816/1824 14015G25KT"
    },
    {
      "icao": "EYVI",
      "iata": "VNO",
      "name": "Vilnius International Airport",
      "updatedAt": "180120Z",
      "visibility_m": 9000,
      "taf_visibility_m": 3000,
      "worst_visibility_m": 3000,
      "ceiling_ft": 500,
      "hazards": [
        "BR"
      ],
      "severityScore": 35,
      "metarRaw": "METAR EYVI 180120Z 17008KT 9000 NSC M14/M17 Q1041 NOSIG",
      "tafRaw": "TAF EYVI 172311Z 1800/1824 16009KT 6000 NSC \n  TEMPO 1800/1804 3000 BR BKN005 \n  TEMPO 1804/1807 5000 BR SCT005"
    },
    {
      "icao": "LEZL",
      "iata": "SVQ",
      "name": "Sevilla Airport",
      "updatedAt": "180100Z",
      "visibility_m": 9000,
      "taf_visibility_m": 3000,
      "worst_visibility_m": 3000,
      "ceiling_ft": 1000,
      "hazards": [
        "BR",
        "RA"
      ],
      "severityScore": 34,
      "metarRaw": "METAR LEZL 180100Z AUTO 13003KT 100V160 9000 NSC 06/06 Q1009",
      "tafRaw": "TAF LEZL 172000Z 1721/1821 VRB03KT 9999 SCT020 TX14/1815Z TN04/1807Z \n  PROB30 \n  TEMPO 1801/1808 3000 RA BR BKN010 \n  BECMG 1803/1805 05010KT"
    },
    {
      "icao": "EGGP",
      "iata": "LPL",
      "name": "Liverpool John Lennon Airport",
      "updatedAt": "180120Z",
      "visibility_m": 10000,
      "taf_visibility_m": 3000,
      "worst_visibility_m": 3000,
      "ceiling_ft": 4600,
      "hazards": [
        "BR",
        "RA",
        "DZ"
      ],
      "severityScore": 32,
      "metarRaw": "METAR EGGP 180120Z 07007KT 9999 OVC046 04/03 Q1019",
      "tafRaw": "TAF EGGP 172257Z 1800/1824 07004KT 9999 SCT045 \n  BECMG 1800/1803 BKN010 \n  TEMPO 1800/1806 6000 \n  PROB30 \n  TEMPO 1800/1806 3000 BR BKN006 \n  TEMPO 1806/1824 7000 -RA \n  PROB40 \n  TEMPO 1808/1824 4000 RA RADZ BKN003"
    },
    {
      "icao": "EHEH",
      "iata": "EIN",
      "name": "Eindhoven Airport",
      "updatedAt": "180055Z",
      "visibility_m": 4400,
      "taf_visibility_m": 4000,
      "worst_visibility_m": 4000,
      "ceiling_ft": 35000,
      "hazards": [
        "BR",
        "FG"
      ],
      "severityScore": 30,
      "metarRaw": "METAR EHEH 180055Z AUTO 05003KT 4400 BR OVC350 03/02 Q1020 GRN",
      "tafRaw": "TAF EHEH 172313Z 1800/1906 09004KT CAVOK \n  PROB40 1800/1807 4000 BR MIFG"
    },
    {
      "icao": "LBWN",
      "iata": "VAR",
      "name": "Varna Airport",
      "updatedAt": "180100Z",
      "visibility_m": 10000,
      "taf_visibility_m": 5000,
      "worst_visibility_m": 5000,
      "ceiling_ft": 1200,
      "hazards": [
        "SN"
      ],
      "severityScore": 30,
      "metarRaw": "METAR LBWN 180100Z AUTO 35019KT 9999 -SN OVC041/// M09/M12 Q1033 NOSIG",
      "tafRaw": "TAF LBWN 172300Z 1800/1824 35018KT 9999 BKN025 OVC040 \n  TEMPO 1800/1804 36020G32KT 5000 -SN \n  TEMPO 1804/1809 34016G26KT \n  PROB40 \n  TEMPO 1809/1819 5000 -SN BKN012 OVC020"
    },
    {
      "icao": "LPPR",
      "iata": "OPO",
      "name": "Francisco de Sá Carneiro Airport",
      "updatedAt": "180100Z",
      "visibility_m": 10000,
      "taf_visibility_m": 3000,
      "worst_visibility_m": 3000,
      "ceiling_ft": null,
      "hazards": [
        "BR",
        "FG"
      ],
      "severityScore": 30,
      "metarRaw": "METAR LPPR 180100Z 03002KT CAVOK 04/04 Q1010",
      "tafRaw": "TAF LPPR 172300Z 1800/1824 05005KT CAVOK \n  PROB30 \n  TEMPO 1800/1808 3000 BCFG BR SCT002 \n  BECMG 1811/1813 32007KT \n  BECMG 1818/1820 VRB02KT"
    },
    {
      "icao": "LTAC",
      "iata": "ESB",
      "name": "Esenboğa International Airport",
      "updatedAt": "180120Z",
      "visibility_m": 10000,
      "taf_visibility_m": 10000,
      "worst_visibility_m": 10000,
      "ceiling_ft": 8000,
      "hazards": [
        "SN",
        "SHSN"
      ],
      "severityScore": 28,
      "metarRaw": "METAR LTAC 180120Z VRB02KT 9999 FEW020 SCT040 BKN080 M03/M07 Q1020 RESN NOSIG RMK RWY21C 00000KT RWY03L VRB02KT RWY21R 00000KT RWY03R VRB01KT RWY21L 00000KT",
      "tafRaw": "TAF LTAC 172240Z 1800/1824 VRB02KT 9999 SCT040 SCT100 \n  TEMPO 1801/1805 -SN BKN030 BKN080 \n  TEMPO 1811/1815 32015KT -SHSN BKN030 BKN080"
    },
    {
      "icao": "GMAD",
      "iata": "AGA",
      "name": "Al Massira Airport",
      "updatedAt": "180100Z",
      "visibility_m": 10000,
      "taf_visibility_m": 4000,
      "worst_visibility_m": 4000,
      "ceiling_ft": 9000,
      "hazards": [
        "SHRA",
        "RA"
      ],
      "severityScore": 26,
      "metarRaw": "METAR GMAD 180100Z 19007KT 9999 FEW030 BKN090 12/11 Q1013 NOSIG",
      "tafRaw": "TAF GMAD 172300Z 1800/1906 22008KT 8000 SCT020 BKN080 \n  TEMPO 1800/1812 4000 SHRA BKN013TCU"
    },
    {
      "icao": "GMMX",
      "iata": "RAK",
      "name": "Menara Airport",
      "updatedAt": "180100Z",
      "visibility_m": 10000,
      "taf_visibility_m": 3000,
      "worst_visibility_m": 3000,
      "ceiling_ft": 2300,
      "hazards": [
        "RA",
        "SHRA"
      ],
      "severityScore": 26,
      "metarRaw": "METAR GMMX 180100Z 25008KT 9999 BKN023 09/07 Q1012 NOSIG",
      "tafRaw": "TAF GMMX 172300Z 1800/1906 22007KT 8000 BKN026 SCT080 \n  TEMPO 1807/1813 32018KT 3000 SHRA SCT013 BKN020 SCT026TCU \n  TEMPO 1815/1822 02016G28KT 4000 RA SCT016 BKN023 FEW030CB"
    },
    {
      "icao": "LCLK",
      "iata": "LCA",
      "name": "Larnaca International Airport",
      "updatedAt": "180100Z",
      "visibility_m": 10000,
      "taf_visibility_m": 5000,
      "worst_visibility_m": 5000,
      "ceiling_ft": 5000,
      "hazards": [
        "SHRA",
        "RA"
      ],
      "severityScore": 26,
      "metarRaw": "METAR LCLK 180100Z 01014KT 9999 -SHRA FEW009 SCT030 BKN050 11/08 Q1016 NOSIG",
      "tafRaw": "TAF LCLK 172330Z 1800/1900 02009KT 9999 SCT025 SCT050 \n  PROB30 \n  TEMPO 1800/1806 5000 SHRA SCT035TCU"
    },
    {
      "icao": "LEAL",
      "iata": "ALC",
      "name": "Alicante-Elche Miguel Hernández Airport",
      "updatedAt": "180100Z",
      "visibility_m": 10000,
      "taf_visibility_m": 3000,
      "worst_visibility_m": 3000,
      "ceiling_ft": null,
      "hazards": [
        "SHRA",
        "RA"
      ],
      "severityScore": 26,
      "metarRaw": "METAR LEAL 180100Z 32004KT 290V010 9999 SCT050 10/04 Q1008 NOSIG",
      "tafRaw": "TAF LEAL 172300Z 1800/1824 31009KT 9999 FEW020 TX15/1812Z TN06/1806Z \n  TEMPO 1809/1812 VRB04KT \n  TEMPO 1812/1818 12010KT \n  PROB30 \n  TEMPO 1812/1815 3000 SHRA FEW040TCU \n  TEMPO 1818/1820 VRB04KT"
    },
    {
      "icao": "LEVC",
      "iata": "VLC",
      "name": "Valencia Airport",
      "updatedAt": "180100Z",
      "visibility_m": 10000,
      "taf_visibility_m": 3000,
      "worst_visibility_m": 3000,
      "ceiling_ft": 2000,
      "hazards": [
        "RA",
        "SHRA"
      ],
      "severityScore": 26,
      "metarRaw": "METAR LEVC 180100Z 24010KT CAVOK 07/02 Q1009 NOSIG",
      "tafRaw": "TAF LEVC 172300Z 1800/1824 27007KT 9999 FEW020 TX14/1812Z TN04/1806Z \n  BECMG 1812/1814 08007KT \n  BECMG 1818/1820 30008KT \n  PROB40 \n  TEMPO 1818/1821 3000 RA SHRA BKN020 FEW030TCU \n  TEMPO 1821/1824 3000 RA SHRA BKN020 FEW030TCU"
    },
    {
      "icao": "LPFR",
      "iata": "FAO",
      "name": "Faro Airport",
      "updatedAt": "180100Z",
      "visibility_m": 10000,
      "taf_visibility_m": 8000,
      "worst_visibility_m": 8000,
      "ceiling_ft": 3000,
      "hazards": [
        "SHRA",
        "RA"
      ],
      "severityScore": 26,
      "metarRaw": "METAR LPFR 180100Z 35006KT 9999 FEW012 FEW025CB SCT038 09/06 Q1008",
      "tafRaw": "TAF LPFR 172300Z 1800/1824 VRB02KT 9999 SCT035 \n  TEMPO 1800/1808 8000 SHRA SCT015 FEW020CB BKN030 \n  BECMG 1804/1806 02008KT \n  BECMG 1815/1817 34008KT CAVOK"
    },
    {
      "icao": "GCTS",
      "iata": "TFS",
      "name": "Tenerife Sur Airport",
      "updatedAt": "180100Z",
      "visibility_m": 10000,
      "taf_visibility_m": 10000,
      "worst_visibility_m": 10000,
      "ceiling_ft": null,
      "hazards": [
        "TS"
      ],
      "severityScore": 25,
      "metarRaw": "METAR GCTS 180100Z VRB01KT 9999 FEW030 17/11 Q1018 NOSIG",
      "tafRaw": "TAF GCTS 172000Z 1721/1821 25005KT 9999 FEW030 TX22/1814Z TN14/1806Z \n  TEMPO 1807/1812 36010KT \n  TEMPO 1814/1816 12010KT \n  BECMG 1815/1817 05010KT"
    },
    {
      "icao": "EDDK",
      "iata": "CGN",
      "name": "Cologne Bonn Airport",
      "updatedAt": "180120Z",
      "visibility_m": 10000,
      "taf_visibility_m": 10000,
      "worst_visibility_m": 10000,
      "ceiling_ft": 500,
      "hazards": [],
      "severityScore": 25,
      "metarRaw": "METAR EDDK 180120Z AUTO 11004KT 080V150 CAVOK 02/M01 Q1022 NOSIG",
      "tafRaw": "TAF EDDK 172300Z 1800/1906 11007KT CAVOK \n  PROB30 \n  TEMPO 1807/1810 BKN005"
    },
    {
      "icao": "EDDN",
      "iata": "NUE",
      "name": "Nuremberg Airport",
      "updatedAt": "180120Z",
      "visibility_m": 10000,
      "taf_visibility_m": 10000,
      "worst_visibility_m": 10000,
      "ceiling_ft": 800,
      "hazards": [],
      "severityScore": 25,
      "metarRaw": "METAR EDDN 180120Z AUTO VRB02KT 9999 OVC008 01/M00 Q1022",
      "tafRaw": "TAF EDDN 172300Z 1800/1824 10007KT 9999 OVC009 \n  BECMG 1810/1812 FEW010"
    },
    {
      "icao": "LECH",
      "iata": "CDT",
      "name": "Castellón-Costa Azahar Airport",
      "updatedAt": "180100Z",
      "visibility_m": 1200,
      "taf_visibility_m": null,
      "worst_visibility_m": 1200,
      "ceiling_ft": null,
      "hazards": [
        "BR"
      ],
      "severityScore": 25,
      "metarRaw": "METAR LECH 180100Z AUTO 24003KT 1200 R06/1700D BR FEW041 06/05 Q1008",
      "tafRaw": null
    },
    {
      "icao": "LGTS",
      "iata": "SKG",
      "name": "Thessaloniki Macedonia International Airport",
      "updatedAt": "180120Z",
      "visibility_m": 10000,
      "taf_visibility_m": 10000,
      "worst_visibility_m": 10000,
      "ceiling_ft": 3500,
      "hazards": [
        "TS"
      ],
      "severityScore": 25,
      "metarRaw": "METAR LGTS 180120Z 12004KT 9999 FEW020 BKN035 04/00 Q1029 NOSIG",
      "tafRaw": "TAF LGTS 172300Z 1800/1824 09007KT 9999 FEW015 BKN030"
    },
    {
      "icao": "LUKK",
      "iata": "RMO",
      "name": "Chişinău International Airport",
      "updatedAt": "180100Z",
      "visibility_m": 10000,
      "taf_visibility_m": 10000,
      "worst_visibility_m": 10000,
      "ceiling_ft": 800,
      "hazards": [],
      "severityScore": 25,
      "metarRaw": "METAR LUKK 180100Z 35010KT CAVOK M14/M16 Q1039 NOSIG",
      "tafRaw": "TAF LUKK 172324Z 1800/1824 01009KT 9999 SCT020 \n  TEMPO 1801/1808 BKN008 \n  BECMG 1808/1810 BKN010"
    },
    {
      "icao": "ENHD",
      "iata": "HAU",
      "name": "Haugesund Airport, Karmøy",
      "updatedAt": "180120Z",
      "visibility_m": 10000,
      "taf_visibility_m": 10000,
      "worst_visibility_m": 10000,
      "ceiling_ft": 1400,
      "hazards": [
        "RA"
      ],
      "severityScore": 24,
      "metarRaw": "METAR ENHD 180120Z AUTO 36002KT 9999 -RA OVC024/// 05/04 Q1026 RERA",
      "tafRaw": "TAF ENHD 171400Z 1715/1723 11008KT 9999 FEW025 BKN040 \n  TEMPO 1721/1723 -RA BKN014"
    },
    {
      "icao": "ENTC",
      "iata": "TOS",
      "name": "Tromsø Airport, Langnes",
      "updatedAt": "180120Z",
      "visibility_m": 10000,
      "taf_visibility_m": 10000,
      "worst_visibility_m": 10000,
      "ceiling_ft": 1400,
      "hazards": [
        "RA"
      ],
      "severityScore": 24,
      "metarRaw": "METAR ENTC 180120Z AUTO 19016KT 9999 -RA BKN015/// BKN019/// OVC023/// 03/01 Q1023 RMK WIND 2600FT 19018KT",
      "tafRaw": "TAF ENTC 172300Z 1800/1824 19012KT 9999 BKN020 \n  TEMPO 1805/1824 27015KT -RA BKN014"
    },
    {
      "icao": "ENBR",
      "iata": "BGO",
      "name": "Bergen Airport, Flesland",
      "updatedAt": "180120Z",
      "visibility_m": 10000,
      "taf_visibility_m": 3000,
      "worst_visibility_m": 3000,
      "ceiling_ft": 4300,
      "hazards": [
        "RA",
        "BR"
      ],
      "severityScore": 22,
      "metarRaw": "METAR ENBR 180120Z VRB02KT 9999 -RA FEW030 BKN043 03/01 Q1027 RMK WIND 1200FT 12013KT",
      "tafRaw": "TAF ENBR 172300Z 1800/1824 VRB05KT 9999 -RA FEW012 BKN025 \n  PROB30 \n  TEMPO 1802/1810 RA BKN014 \n  PROB30 1810/1818 3000 BR OVC005"
    },
    {
      "icao": "LIME",
      "iata": "BGY",
      "name": "Milan Bergamo Airport / Antonio Locatelli Air Base",
      "updatedAt": "180120Z",
      "visibility_m": 10000,
      "taf_visibility_m": 2000,
      "worst_visibility_m": 2000,
      "ceiling_ft": 7000,
      "hazards": [
        "BR",
        "RA"
      ],
      "severityScore": 22,
      "metarRaw": "METAR LIME 180120Z 03003KT 9999 BKN070 08/06 Q1023 NOSIG",
      "tafRaw": "TAF LIME 172300Z 1800/1824 VRB03KT 6000 SCT040 \n  TEMPO 1800/1803 4000 -RA BKN012 \n  TEMPO 1803/1806 2000 BR BKN012"
    },
    {
      "icao": "LJLJ",
      "iata": "LJU",
      "name": "Ljubljana Jože Pučnik Airport",
      "updatedAt": "180100Z",
      "visibility_m": 5000,
      "taf_visibility_m": 4000,
      "worst_visibility_m": 4000,
      "ceiling_ft": 1000,
      "hazards": [
        "BR"
      ],
      "severityScore": 22,
      "metarRaw": "METAR LJLJ 180100Z 13005KT 5000 BR OVC010 02/M01 Q1029 NOSIG",
      "tafRaw": "TAF LJLJ 172300Z 1800/1900 12003KT 6000 OVC016 \n  TEMPO 1800/1808 4000 BR OVC013 \n  PROB40 \n  TEMPO 1820/1900 OVC014"
    },
    {
      "icao": "LRIA",
      "iata": "IAS",
      "name": "Iaşi Airport",
      "updatedAt": "180100Z",
      "visibility_m": 10000,
      "taf_visibility_m": 5000,
      "worst_visibility_m": 5000,
      "ceiling_ft": 1000,
      "hazards": [
        "BR"
      ],
      "severityScore": 22,
      "metarRaw": "METAR LRIA 180100Z 33006KT CAVOK M14/M17 Q1040",
      "tafRaw": "TAF LRIA 172300Z 1800/1809 30005KT CAVOK \n  PROB40 \n  TEMPO 1800/1806 5000 BR BKN010"
    },
    {
      "icao": "LRBC",
      "iata": "BCM",
      "name": "Bacău George Enescu International  Airport",
      "updatedAt": "180100Z",
      "visibility_m": 10000,
      "taf_visibility_m": 5000,
      "worst_visibility_m": 5000,
      "ceiling_ft": 1300,
      "hazards": [
        "BR"
      ],
      "severityScore": 22,
      "metarRaw": "METAR LRBC 180100Z 36009KT 9999 BKN013 M11/M15 Q1039",
      "tafRaw": "TAF LRBC 172300Z 1800/1809 01008KT 9999 BKN025 \n  PROB40 \n  TEMPO 1800/1806 5000 BR BKN010"
    },
    {
      "icao": "EHBK",
      "iata": "MST",
      "name": "Maastricht Aachen Airport",
      "updatedAt": "180125Z",
      "visibility_m": 10000,
      "taf_visibility_m": 7000,
      "worst_visibility_m": 7000,
      "ceiling_ft": null,
      "hazards": [
        "FG"
      ],
      "severityScore": 20,
      "metarRaw": "METAR EHBK 180125Z AUTO 10006KT 9999 NSC 04/03 Q1020",
      "tafRaw": "TAF EHBK 172319Z 1800/1906 12006KT CAVOK \n  PROB30 1818/1906 7000 MIFG"
    },
    {
      "icao": "LIRP",
      "iata": "PSA",
      "name": "Pisa International Airport",
      "updatedAt": "180115Z",
      "visibility_m": 10000,
      "taf_visibility_m": 5000,
      "worst_visibility_m": 5000,
      "ceiling_ft": null,
      "hazards": [
        "FG"
      ],
      "severityScore": 20,
      "metarRaw": "METAR LIRP 180115Z 13011KT 9999 SCT060 09/07 Q1020 NOSIG",
      "tafRaw": "TAF LIRP 172300Z 1800/1824 14008KT 9999 SCT070 \n  PROB30 \n  TEMPO 1805/1807 5000 MIFG NSC \n  BECMG 1810/1812 09013KT"
    },
    {
      "icao": "LWSK",
      "iata": "SKP",
      "name": "Skopje International Airport",
      "updatedAt": "180050Z",
      "visibility_m": 8000,
      "taf_visibility_m": 1500,
      "worst_visibility_m": 1500,
      "ceiling_ft": 3500,
      "hazards": [
        "BR"
      ],
      "severityScore": 20,
      "metarRaw": "METAR LWSK 180050Z VRB01KT 8000 FEW015 OVC035 02/01 Q1028 NOSIG",
      "tafRaw": "TAF LWSK 172320Z 1800/1824 VRB02KT 5000 BR SCT015 OVC040 \n  TEMPO 1803/1807 1500 BR SCT010 OVC020 \n  BECMG 1808/1810 7000 NSW FEW015 BKN030 \n  BECMG 1812/1814 CAVOK"
    },
    {
      "icao": "ENTO",
      "iata": "TRF",
      "name": "Sandefjord Airport, Torp",
      "updatedAt": "180120Z",
      "visibility_m": 10000,
      "taf_visibility_m": null,
      "worst_visibility_m": 10000,
      "ceiling_ft": null,
      "hazards": [
        "RA"
      ],
      "severityScore": 17,
      "metarRaw": "METAR ENTO 180120Z AUTO 01007KT 9999 SCT002/// OVC003/// 00/00 Q1031 RERA",
      "tafRaw": null
    },
    {
      "icao": "EKBI",
      "iata": "BLL",
      "name": "Billund Airport",
      "updatedAt": "180120Z",
      "visibility_m": 2100,
      "taf_visibility_m": null,
      "worst_visibility_m": 2100,
      "ceiling_ft": null,
      "hazards": [
        "BR"
      ],
      "severityScore": 15,
      "metarRaw": "METAR EKBI 180120Z AUTO 10009KT 2100 BR OVC003/// 02/02 Q1027",
      "tafRaw": null
    },
    {
      "icao": "GCFV",
      "iata": "FUE",
      "name": "Fuerteventura Airport",
      "updatedAt": "180100Z",
      "visibility_m": 10000,
      "taf_visibility_m": 4500,
      "worst_visibility_m": 4500,
      "ceiling_ft": null,
      "hazards": [
        "RA"
      ],
      "severityScore": 12,
      "metarRaw": "METAR GCFV 180100Z AUTO 29008KT CAVOK 16/11 Q1017",
      "tafRaw": "TAF GCFV 172000Z 1721/1821 35010KT 9999 SCT035 TX20/1814Z TN15/1806Z \n  TEMPO 1801/1804 28008KT \n  BECMG 1804/1806 28018KT \n  PROB40 \n  TEMPO 1805/1810 28018G28KT \n  BECMG 1810/1812 35020KT \n  PROB40 \n  TEMPO 1810/1820 35020G30KT \n  PROB30 \n  TEMPO 1806/1812 4500 RA FEW035TCU"
    },
    {
      "icao": "GCLP",
      "iata": "LPA",
      "name": "Gran Canaria Airport",
      "updatedAt": "180100Z",
      "visibility_m": 10000,
      "taf_visibility_m": 4500,
      "worst_visibility_m": 4500,
      "ceiling_ft": 3500,
      "hazards": [
        "RA"
      ],
      "severityScore": 12,
      "metarRaw": "METAR GCLP 180100Z 35007KT 9999 FEW035 16/11 Q1018 NOSIG",
      "tafRaw": "TAF GCLP 172000Z 1721/1821 36010KT 9999 BKN035 TX21/1814Z TN15/1806Z \n  TEMPO 1801/1808 27007KT \n  BECMG 1810/1812 36020KT \n  PROB40 \n  TEMPO 1810/1820 36020G30KT \n  PROB30 \n  TEMPO 1808/1815 4500 RA FEW035TCU"
    },
    {
      "icao": "EPRA",
      "iata": "RDO",
      "name": "Warsaw Radom Airport",
      "updatedAt": "180100Z",
      "visibility_m": 10000,
      "taf_visibility_m": 10000,
      "worst_visibility_m": 10000,
      "ceiling_ft": null,
      "hazards": [
        "RA"
      ],
      "severityScore": 12,
      "metarRaw": "METAR EPRA 180100Z 11010KT CAVOK M12/M15 Q1035",
      "tafRaw": "TAF EPRA 172330Z 1800/1809 10008KT CAVOK"
    },
    {
      "icao": "LEXJ",
      "iata": "SDR",
      "name": "Seve Ballesteros-Santander Airport",
      "updatedAt": "180100Z",
      "visibility_m": 8000,
      "taf_visibility_m": 3000,
      "worst_visibility_m": 3000,
      "ceiling_ft": 2000,
      "hazards": [
        "RA"
      ],
      "severityScore": 12,
      "metarRaw": "METAR LEXJ 180100Z AUTO 23005KT 8000 -RA OVC020 07/06 Q1012",
      "tafRaw": "TAF LEXJ 172000Z 1721/1821 25009KT 9999 SCT015 BKN020 TX11/1814Z TN07/1801Z \n  TEMPO 1721/1806 3000 RA BKN010 \n  PROB30 \n  TEMPO 1806/1815 3000 RA BKN010 \n  PROB40 \n  TEMPO 1815/1821 3000 RA BKN010"
    },
    {
      "icao": "LFMN",
      "iata": "NCE",
      "name": "Nice-Côte d'Azur Airport",
      "updatedAt": "180100Z",
      "visibility_m": 10000,
      "taf_visibility_m": 3000,
      "worst_visibility_m": 3000,
      "ceiling_ft": 13000,
      "hazards": [
        "RA"
      ],
      "severityScore": 12,
      "metarRaw": "METAR LFMN 180100Z 07022KT 9999 SCT083 BKN130 16/07 Q1017 NOSIG",
      "tafRaw": "TAF LFMN 172000Z 1721/1903 09025KT CAVOK \n  PROB40 \n  TEMPO 1803/1903 3000 RA \n  BECMG 1822/1824 03020KT"
    },
    {
      "icao": "LICA",
      "iata": "SUF",
      "name": "Lamezia Terme Sant'Eufemia International Airport",
      "updatedAt": "180120Z",
      "visibility_m": 10000,
      "taf_visibility_m": 4000,
      "worst_visibility_m": 4000,
      "ceiling_ft": 4000,
      "hazards": [
        "RA"
      ],
      "severityScore": 12,
      "metarRaw": "METAR LICA 180120Z AUTO 07009KT 9999 NCD 12/10 Q1019",
      "tafRaw": "TAF LICA 172300Z 1800/1824 08018KT 9999 BKN040 \n  PROB30 \n  TEMPO 1808/1818 4000 RA"
    },
    {
      "icao": "LICC",
      "iata": "CTA",
      "name": "Catania-Fontanarossa Airport",
      "updatedAt": "180120Z",
      "visibility_m": 10000,
      "taf_visibility_m": 10000,
      "worst_visibility_m": 10000,
      "ceiling_ft": 5000,
      "hazards": [
        "RA"
      ],
      "severityScore": 12,
      "metarRaw": "METAR LICC 180120Z 05012KT 9999 FEW015 BKN050 15/14 Q1018",
      "tafRaw": "TAF LICC 172300Z 1800/1824 08013KT 9999 SCT015 BKN040 \n  TEMPO 1800/1824 RA"
    },
    {
      "icao": "LIMF",
      "iata": "TRN",
      "name": "Turin Airport",
      "updatedAt": "180120Z",
      "visibility_m": 8000,
      "taf_visibility_m": 4000,
      "worst_visibility_m": 4000,
      "ceiling_ft": 4000,
      "hazards": [
        "RA"
      ],
      "severityScore": 12,
      "metarRaw": "METAR LIMF 180120Z 31007KT 8000 OVC040 08/06 Q1023",
      "tafRaw": "TAF LIMF 172300Z 1800/1824 30007KT 4000 -RA BKN035"
    },
    {
      "icao": "LMML",
      "iata": "MLA",
      "name": "Malta International Airport",
      "updatedAt": "180115Z",
      "visibility_m": 10000,
      "taf_visibility_m": 10000,
      "worst_visibility_m": 10000,
      "ceiling_ft": 1200,
      "hazards": [],
      "severityScore": 12,
      "metarRaw": "METAR LMML 180115Z 13005KT 9999 FEW017 12/10 Q1017 NOSIG",
      "tafRaw": "TAF LMML 172300Z 1800/1824 10008KT 9999 FEW015 \n  PROB40 \n  TEMPO 1800/1806 BKN012 \n  BECMG 1803/1806 16012KT \n  BECMG 1815/1818 14022KT \n  TEMPO 1818/1824 14022G32KT \n  PROB40 \n  TEMPO 1818/1824 BKN014"
    },
    {
      "icao": "EPKK",
      "iata": "KRK",
      "name": "Kraków John Paul II International Airport",
      "updatedAt": "180100Z",
      "visibility_m": 10000,
      "taf_visibility_m": 4000,
      "worst_visibility_m": 4000,
      "ceiling_ft": null,
      "hazards": [
        "BR"
      ],
      "severityScore": 10,
      "metarRaw": "METAR EPKK 180100Z 06006KT CAVOK M08/M12 Q1032",
      "tafRaw": "TAF EPKK 172330Z 1800/1824 06010KT CAVOK \n  PROB40 1800/1808 4000 BR \n  PROB40 1818/1824 4000 BR"
    },
    {
      "icao": "EPKT",
      "iata": "KTW",
      "name": "Katowice Wojciech Korfanty International Airport",
      "updatedAt": "180100Z",
      "visibility_m": 10000,
      "taf_visibility_m": 4000,
      "worst_visibility_m": 4000,
      "ceiling_ft": null,
      "hazards": [
        "BR"
      ],
      "severityScore": 10,
      "metarRaw": "METAR EPKT 180100Z 12006KT CAVOK M05/M08 Q1031",
      "tafRaw": "TAF EPKT 172330Z 1800/1824 10010KT CAVOK \n  PROB40 1800/1808 4000 BR \n  PROB40 1818/1824 4000 BR"
    },
    {
      "icao": "EPLB",
      "iata": "LUZ",
      "name": "Lublin Airport",
      "updatedAt": "180100Z",
      "visibility_m": 7000,
      "taf_visibility_m": 4000,
      "worst_visibility_m": 4000,
      "ceiling_ft": null,
      "hazards": [
        "BR"
      ],
      "severityScore": 10,
      "metarRaw": "METAR EPLB 180100Z 10008KT 7000 NSC M16/M17 Q1037",
      "tafRaw": "TAF EPLB 172330Z 1800/1824 10008KT CAVOK \n  PROB30 1800/1806 4000 BR"
    },
    {
      "icao": "EPPO",
      "iata": "POZ",
      "name": "Poznań-Ławica Airport",
      "updatedAt": "180100Z",
      "visibility_m": 9000,
      "taf_visibility_m": 4000,
      "worst_visibility_m": 4000,
      "ceiling_ft": null,
      "hazards": [
        "BR"
      ],
      "severityScore": 10,
      "metarRaw": "METAR EPPO 180100Z 09006KT 9000 NSC M03/M05 Q1031",
      "tafRaw": "TAF EPPO 172330Z 1800/1824 12010KT 8000 NSC \n  PROB40 1800/1806 4000 BR"
    },
    {
      "icao": "EYKA",
      "iata": "KUN",
      "name": "Kaunas International Airport",
      "updatedAt": "180120Z",
      "visibility_m": 10000,
      "taf_visibility_m": 5000,
      "worst_visibility_m": 5000,
      "ceiling_ft": null,
      "hazards": [
        "BR"
      ],
      "severityScore": 10,
      "metarRaw": "METAR EYKA 180120Z AUTO 18006KT 130V240 9999 NCD M13/M15 Q1041",
      "tafRaw": "TAF EYKA 172304Z 1800/1824 16008KT 8000 NSC \n  TEMPO 1802/1806 5000 BR SCT005"
    },
    {
      "icao": "LHDC",
      "iata": "DEB",
      "name": "Debrecen International Airport",
      "updatedAt": "180045Z",
      "visibility_m": 10000,
      "taf_visibility_m": 4000,
      "worst_visibility_m": 4000,
      "ceiling_ft": null,
      "hazards": [
        "BR"
      ],
      "severityScore": 10,
      "metarRaw": "METAR LHDC 180045Z AUTO VRB01KT CAVOK M07/M08 Q1032",
      "tafRaw": "TAF LHDC 171415Z 1715/1724 08005KT CAVOK \n  TEMPO 1721/1724 4000 BR"
    },
    {
      "icao": "LIBD",
      "iata": "BRI",
      "name": "Bari Karol Wojtyła International Airport",
      "updatedAt": "180120Z",
      "visibility_m": 4200,
      "taf_visibility_m": 2500,
      "worst_visibility_m": 2500,
      "ceiling_ft": null,
      "hazards": [
        "BR"
      ],
      "severityScore": 10,
      "metarRaw": "METAR LIBD 180120Z AUTO 24005KT 4200 BR FEW004/// 05/04 Q1022",
      "tafRaw": "TAF LIBD 172300Z 1800/1824 VRB05KT 7000 FEW015 \n  TEMPO 1800/1807 2500 BR"
    },
    {
      "icao": "LIBR",
      "iata": "BDS",
      "name": "Brindisi Airport",
      "updatedAt": "180050Z",
      "visibility_m": 10000,
      "taf_visibility_m": 10000,
      "worst_visibility_m": 10000,
      "ceiling_ft": null,
      "hazards": [
        "BR"
      ],
      "severityScore": 10,
      "metarRaw": "METAR LIBR 180050Z 27004KT CAVOK 06/06 Q1022",
      "tafRaw": "TAF LIBR 172300Z 1800/1824 VRB05KT CAVOK \n  BECMG 1810/1812 13010KT \n  BECMG 1816/1818 VRB05KT"
    },
    {
      "icao": "LIMC",
      "iata": "MXP",
      "name": "Milan Malpensa International Airport",
      "updatedAt": "180120Z",
      "visibility_m": 10000,
      "taf_visibility_m": 7000,
      "worst_visibility_m": 7000,
      "ceiling_ft": 3500,
      "hazards": [
        "DZ"
      ],
      "severityScore": 10,
      "metarRaw": "METAR LIMC 180120Z 03003KT 9999 -DZ BKN035 08/06 Q1023 NOSIG",
      "tafRaw": "TAF LIMC 172300Z 1800/1906 VRB04KT 7000 BKN040 \n  TEMPO 1800/1811 DZ \n  BECMG 1817/1819 DZ"
    },
    {
      "icao": "LIPX",
      "iata": "VRN",
      "name": "Verona Villafranca Valerio Catullo Airport",
      "updatedAt": "180120Z",
      "visibility_m": 7000,
      "taf_visibility_m": 2500,
      "worst_visibility_m": 2500,
      "ceiling_ft": 4000,
      "hazards": [
        "BR"
      ],
      "severityScore": 10,
      "metarRaw": "METAR LIPX 180120Z VRB02KT 7000 NSC 07/05 Q1023",
      "tafRaw": "TAF LIPX 172300Z 1800/1824 VRB04KT 6000 BKN040 \n  TEMPO 1800/1803 2500 BR \n  BECMG 1803/1805 10010KT \n  BECMG 1812/1814 VRB04KT"
    },
    {
      "icao": "LOWW",
      "iata": "VIE",
      "name": "Vienna International Airport",
      "updatedAt": "180120Z",
      "visibility_m": 10000,
      "taf_visibility_m": 4000,
      "worst_visibility_m": 4000,
      "ceiling_ft": 2400,
      "hazards": [
        "BR"
      ],
      "severityScore": 10,
      "metarRaw": "METAR LOWW 180120Z 13013KT 9999 BKN024 M00/M04 Q1030 NOSIG",
      "tafRaw": "TAF LOWW 172315Z 1800/1906 12008KT 9999 FEW030 TXM00/1813Z TNM06/1906Z \n  BECMG 1806/1808 14013KT \n  TEMPO 1806/1812 4000 BR FEW006 BKN009"
    },
    {
      "icao": "LPPT",
      "iata": "LIS",
      "name": "Lisbon Humberto Delgado Airport",
      "updatedAt": "180100Z",
      "visibility_m": 10000,
      "taf_visibility_m": 5000,
      "worst_visibility_m": 5000,
      "ceiling_ft": null,
      "hazards": [
        "BR"
      ],
      "severityScore": 10,
      "metarRaw": "METAR LPPT 180100Z 01003KT 9999 FEW036 05/04 Q1009",
      "tafRaw": "TAF LPPT 172300Z 1800/1906 VRB02KT 9999 SCT030 \n  BECMG 1803/1806 04005KT \n  PROB30 \n  TEMPO 1806/1809 5000 BR SCT003 \n  BECMG 1818/1820 32007KT"
    },
    {
      "icao": "LQTZ",
      "iata": "TZL",
      "name": "Tuzla International Airport",
      "updatedAt": "180100Z",
      "visibility_m": 8000,
      "taf_visibility_m": 3000,
      "worst_visibility_m": 3000,
      "ceiling_ft": 2300,
      "hazards": [
        "BR"
      ],
      "severityScore": 10,
      "metarRaw": "METAR LQTZ 180100Z VRB02KT 8000 OVC023 M01/M01 Q1029",
      "tafRaw": "TAF LQTZ 172300Z 1800/1824 10006KT 6000 BKN015 TX01/1813Z TNM05/1824Z \n  PROB40 \n  TEMPO 1800/1809 3000 BR OVC008"
    },
    {
      "icao": "LRCL",
      "iata": "CLJ",
      "name": "Cluj Avram Iancu International Airport",
      "updatedAt": "180100Z",
      "visibility_m": 6000,
      "taf_visibility_m": 5000,
      "worst_visibility_m": 5000,
      "ceiling_ft": null,
      "hazards": [
        "BR"
      ],
      "severityScore": 10,
      "metarRaw": "METAR LRCL 180100Z 09003KT 6000 NSC M13/M15 Q1033",
      "tafRaw": "TAF LRCL 172300Z 1800/1809 VRB04KT 5000 BR NSC \n  BECMG 1806/1808 9999 NSW"
    },
    {
      "icao": "LRSB",
      "iata": "SBZ",
      "name": "Sibiu International Airport",
      "updatedAt": "180100Z",
      "visibility_m": 10000,
      "taf_visibility_m": 3000,
      "worst_visibility_m": 3000,
      "ceiling_ft": null,
      "hazards": [
        "BR"
      ],
      "severityScore": 10,
      "metarRaw": "METAR LRSB 180100Z 16002KT CAVOK M08/M09 Q1031",
      "tafRaw": "TAF LRSB 172300Z 1800/1824 VRB04KT CAVOK \n  TEMPO 1800/1802 3000 BR \n  BECMG 1818/1820 5000 BR"
    },
    {
      "icao": "LRTM",
      "iata": "TGM",
      "name": "Târgu Mureş Transilvania International Airport",
      "updatedAt": "180100Z",
      "visibility_m": 4500,
      "taf_visibility_m": 5000,
      "worst_visibility_m": 4500,
      "ceiling_ft": null,
      "hazards": [
        "BR"
      ],
      "severityScore": 10,
      "metarRaw": "METAR LRTM 180100Z AUTO 06004KT 4500 BR NCD M15/M16 Q1034",
      "tafRaw": "TAF LRTM 171400Z 1715/1724 VRB04KT CAVOK \n  BECMG 1718/1720 5000 BR"
    },
    {
      "icao": "BIKF",
      "iata": "KEF",
      "name": "Keflavik International Airport",
      "updatedAt": "180100Z",
      "visibility_m": 10000,
      "taf_visibility_m": null,
      "worst_visibility_m": 10000,
      "ceiling_ft": 3200,
      "hazards": [],
      "severityScore": 5,
      "metarRaw": "METAR BIKF 180100Z 14031G47KT 9999 SCT024 BKN032 OVC130 07/03 Q0997",
      "tafRaw": null
    },
    {
      "icao": "LRSM",
      "iata": "SUJ",
      "name": "Satu Mare International Airport",
      "updatedAt": "180100Z",
      "visibility_m": 10000,
      "taf_visibility_m": null,
      "worst_visibility_m": 10000,
      "ceiling_ft": null,
      "hazards": [],
      "severityScore": 5,
      "metarRaw": "METAR LRSM 180100Z AUTO 09008KT 9999 NCD M10/M12 Q1033",
      "tafRaw": null
    },
    {
      "icao": "BKPR",
      "iata": "PRN",
      "name": "Priština Adem Jashari International Airport",
      "updatedAt": null,
      "visibility_m": null,
      "taf_visibility_m": 10000,
      "worst_visibility_m": 10000,
      "ceiling_ft": 3000,
      "hazards": [],
      "severityScore": 0,
      "metarRaw": null,
      "tafRaw": "TAF BKPR 172330Z 1800/1824 35008KT 9999 SCT012 BKN030"
    },
    {
      "icao": "EBCI",
      "iata": "CRL",
      "name": "Brussels South Charleroi Airport",
      "updatedAt": "180120Z",
      "visibility_m": 10000,
      "taf_visibility_m": 10000,
      "worst_visibility_m": 10000,
      "ceiling_ft": null,
      "hazards": [],
      "severityScore": 0,
      "metarRaw": "METAR EBCI 180120Z 12004KT CAVOK 08/04 Q1019 NOSIG",
      "tafRaw": "TAF EBCI 172310Z 1800/1906 10004KT CAVOK"
    },
    {
      "icao": "ENAL",
      "iata": "AES",
      "name": "Ålesund Airport, Vigra",
      "updatedAt": "180120Z",
      "visibility_m": 10000,
      "taf_visibility_m": 10000,
      "worst_visibility_m": 10000,
      "ceiling_ft": null,
      "hazards": [],
      "severityScore": 0,
      "metarRaw": "METAR ENAL 180120Z AUTO 15009KT 9999 NCD 03/M02 Q1028",
      "tafRaw": "TAF ENAL 172300Z 1800/1809 14008KT CAVOK"
    },
    {
      "icao": "ENVA",
      "iata": "TRD",
      "name": "Trondheim Airport, Værnes",
      "updatedAt": "180120Z",
      "visibility_m": 10000,
      "taf_visibility_m": 10000,
      "worst_visibility_m": 10000,
      "ceiling_ft": null,
      "hazards": [],
      "severityScore": 0,
      "metarRaw": "METAR ENVA 180120Z AUTO 11006KT 9999 NCD M02/M03 Q1030 RMK WIND 670FT 10008KT",
      "tafRaw": "TAF ENVA 172300Z 1800/1824 12008KT 9999 FEW040"
    },
    {
      "icao": "EPGD",
      "iata": "GDN",
      "name": "Gdańsk Lech Wałęsa Airport",
      "updatedAt": "180100Z",
      "visibility_m": 8000,
      "taf_visibility_m": 10000,
      "worst_visibility_m": 8000,
      "ceiling_ft": null,
      "hazards": [],
      "severityScore": 0,
      "metarRaw": "METAR EPGD 180100Z 11004KT 8000 NSC M09/M11 Q1034",
      "tafRaw": "TAF EPGD 172330Z 1800/1824 16005KT CAVOK"
    },
    {
      "icao": "EPMO",
      "iata": "WMI",
      "name": "Modlin Airport",
      "updatedAt": "180100Z",
      "visibility_m": 8000,
      "taf_visibility_m": 10000,
      "worst_visibility_m": 8000,
      "ceiling_ft": null,
      "hazards": [],
      "severityScore": 0,
      "metarRaw": "METAR EPMO 180100Z 09007KT 8000 NSC M11/M13 Q1036",
      "tafRaw": "TAF EPMO 172330Z 1800/1824 10008KT CAVOK"
    },
    {
      "icao": "EPRZ",
      "iata": "RZE",
      "name": "Rzeszów-Jasionka Airport",
      "updatedAt": "180100Z",
      "visibility_m": 10000,
      "taf_visibility_m": 10000,
      "worst_visibility_m": 10000,
      "ceiling_ft": null,
      "hazards": [],
      "severityScore": 0,
      "metarRaw": "METAR EPRZ 180100Z 09013KT CAVOK M12/M15 Q1035",
      "tafRaw": "TAF EPRZ 172330Z 1800/1824 09012KT CAVOK \n  TEMPO 1808/1818 10015G25KT"
    },
    {
      "icao": "EPSY",
      "iata": "SZY",
      "name": "Olsztyn-Mazury Airport",
      "updatedAt": "180100Z",
      "visibility_m": 10000,
      "taf_visibility_m": 10000,
      "worst_visibility_m": 10000,
      "ceiling_ft": null,
      "hazards": [],
      "severityScore": 0,
      "metarRaw": "METAR EPSY 180100Z 11003KT 070V150 CAVOK M12/M14 Q1037",
      "tafRaw": "TAF EPSY 172330Z 1800/1809 12006KT CAVOK"
    },
    {
      "icao": "EPWA",
      "iata": "WAW",
      "name": "Warsaw Chopin Airport",
      "updatedAt": "180100Z",
      "visibility_m": 10000,
      "taf_visibility_m": 10000,
      "worst_visibility_m": 10000,
      "ceiling_ft": null,
      "hazards": [],
      "severityScore": 0,
      "metarRaw": "METAR EPWA 180100Z 12011KT CAVOK M10/M13 Q1036 NOSIG",
      "tafRaw": "TAF EPWA 172330Z 1800/1824 11008KT CAVOK"
    },
    {
      "icao": "EYPA",
      "iata": "PLQ",
      "name": "Palanga International Airport",
      "updatedAt": "180120Z",
      "visibility_m": 10000,
      "taf_visibility_m": 7000,
      "worst_visibility_m": 7000,
      "ceiling_ft": null,
      "hazards": [],
      "severityScore": 0,
      "metarRaw": "METAR EYPA 180120Z 16010KT CAVOK M08/M13 Q1038",
      "tafRaw": "TAF EYPA 172303Z 1800/1824 16011KT 7000 NSC \n  TEMPO 1807/1809 SCT005"
    },
    {
      "icao": "HEGN",
      "iata": "HRG",
      "name": "Hurghada International Airport",
      "updatedAt": "180100Z",
      "visibility_m": 10000,
      "taf_visibility_m": 10000,
      "worst_visibility_m": 10000,
      "ceiling_ft": null,
      "hazards": [],
      "severityScore": 0,
      "metarRaw": "METAR HEGN 180100Z 29006KT CAVOK 13/05 Q1015 NOSIG",
      "tafRaw": "TAF HEGN 172300Z 1800/1906 28010KT CAVOK"
    },
    {
      "icao": "HEMA",
      "iata": "RMF",
      "name": "Marsa Alam International Airport",
      "updatedAt": "180100Z",
      "visibility_m": 10000,
      "taf_visibility_m": 10000,
      "worst_visibility_m": 10000,
      "ceiling_ft": null,
      "hazards": [],
      "severityScore": 0,
      "metarRaw": "METAR HEMA 180100Z 25007KT CAVOK 14/10 Q1014 NOSIG",
      "tafRaw": "TAF HEMA 172300Z 1800/1906 27010KT CAVOK"
    },
    {
      "icao": "HESH",
      "iata": "SSH",
      "name": "Sharm El Sheikh International Airport",
      "updatedAt": "180100Z",
      "visibility_m": 10000,
      "taf_visibility_m": 10000,
      "worst_visibility_m": 10000,
      "ceiling_ft": null,
      "hazards": [],
      "severityScore": 0,
      "metarRaw": "METAR HESH 180100Z 28006KT CAVOK 16/06 Q1013 NOSIG",
      "tafRaw": "TAF HESH 172300Z 1800/1906 33010KT CAVOK"
    },
    {
      "icao": "LATI",
      "iata": "TIA",
      "name": "Tirana International Airport Mother Teresa",
      "updatedAt": "180120Z",
      "visibility_m": 10000,
      "taf_visibility_m": 10000,
      "worst_visibility_m": 10000,
      "ceiling_ft": null,
      "hazards": [],
      "severityScore": 0,
      "metarRaw": "METAR LATI 180120Z 00000KT CAVOK 02/M00 Q1024 NOSIG",
      "tafRaw": "TAF LATI 172300Z 1800/1824 VRB05KT CAVOK TX18/1812Z TN01/1805Z"
    },
    {
      "icao": "LBPD",
      "iata": "PDV",
      "name": "Plovdiv International Airport",
      "updatedAt": "180100Z",
      "visibility_m": 10000,
      "taf_visibility_m": 10000,
      "worst_visibility_m": 10000,
      "ceiling_ft": null,
      "hazards": [],
      "severityScore": 0,
      "metarRaw": "METAR LBPD 180100Z AUTO 11005KT 9999 BKN023/// OVC035/// M04/M04 Q1032",
      "tafRaw": "TAF LBPD 172300Z 1800/1824 VRB04KT 9999 SCT070 \n  BECMG 1800/1802 10010KT \n  BECMG 1813/1815 VRB04KT"
    },
    {
      "icao": "LBSF",
      "iata": "SOF",
      "name": "Sofia Airport",
      "updatedAt": "180100Z",
      "visibility_m": 10000,
      "taf_visibility_m": 10000,
      "worst_visibility_m": 10000,
      "ceiling_ft": null,
      "hazards": [],
      "severityScore": 0,
      "metarRaw": "METAR LBSF 180100Z AUTO 00000KT 9999 NCD M07/M08 Q1030 NOSIG",
      "tafRaw": "TAF LBSF 172300Z 1800/1824 10010KT 9999 SCT070 \n  BECMG 1804/1806 VRB04KT \n  BECMG 1809/1811 03010KT \n  BECMG 1821/1823 VRB04KT"
    },
    {
      "icao": "LEMG",
      "iata": "AGP",
      "name": "Málaga-Costa del Sol Airport",
      "updatedAt": "180100Z",
      "visibility_m": 10000,
      "taf_visibility_m": 10000,
      "worst_visibility_m": 10000,
      "ceiling_ft": null,
      "hazards": [],
      "severityScore": 0,
      "metarRaw": "METAR LEMG 180100Z 29004KT 260V330 CAVOK 05/03 Q1009 NOSIG",
      "tafRaw": "TAF LEMG 172300Z 1800/1824 29005KT 9999 FEW030 TX13/1814Z TN06/1806Z \n  BECMG 1811/1813 10010KT \n  BECMG 1818/1820 27010KT"
    },
    {
      "icao": "LFLS",
      "iata": "GNB",
      "name": "Grenoble Alpes Isère Airport",
      "updatedAt": "180100Z",
      "visibility_m": 10000,
      "taf_visibility_m": 10000,
      "worst_visibility_m": 10000,
      "ceiling_ft": null,
      "hazards": [],
      "severityScore": 0,
      "metarRaw": "METAR LFLS 180100Z AUTO 08007KT CAVOK 03/02 Q1015",
      "tafRaw": "TAF LFLS 171400Z 1715/1815 09005KT CAVOK \n  BECMG 1808/1810 VRB02KT"
    },
    {
      "icao": "LGAV",
      "iata": "ATH",
      "name": "Athens Eleftherios Venizelos International Airport",
      "updatedAt": "180120Z",
      "visibility_m": 10000,
      "taf_visibility_m": 10000,
      "worst_visibility_m": 10000,
      "ceiling_ft": 3000,
      "hazards": [],
      "severityScore": 0,
      "metarRaw": "METAR LGAV 180120Z 01017KT 9999 FEW020 06/02 Q1025 NOSIG",
      "tafRaw": "TAF LGAV 172300Z 1800/1824 03015G25KT 9999 FEW018 SCT030 \n  BECMG 1804/1806 03020G30KT SCT018 BKN030"
    },
    {
      "icao": "LIBG",
      "iata": "TAR",
      "name": "Taranto-Grottaglie Marcello Arlotta Airport",
      "updatedAt": null,
      "visibility_m": null,
      "taf_visibility_m": 10000,
      "worst_visibility_m": 10000,
      "ceiling_ft": null,
      "hazards": [],
      "severityScore": 0,
      "metarRaw": null,
      "tafRaw": "TAF LIBG 171700Z 1718/1803 VRB05KT 9999 FEW020"
    },
    {
      "icao": "LICJ",
      "iata": "PMO",
      "name": "Falcone–Borsellino Airport",
      "updatedAt": "180120Z",
      "visibility_m": 10000,
      "taf_visibility_m": 10000,
      "worst_visibility_m": 10000,
      "ceiling_ft": null,
      "hazards": [],
      "severityScore": 0,
      "metarRaw": "METAR LICJ 180120Z 18003KT CAVOK 11/08 Q1017",
      "tafRaw": "TAF LICJ 172300Z 1800/1824 11008KT 9999 FEW040"
    },
    {
      "icao": "LIMJ",
      "iata": "GOA",
      "name": "Genoa Cristoforo Colombo Airport",
      "updatedAt": "180120Z",
      "visibility_m": 10000,
      "taf_visibility_m": 10000,
      "worst_visibility_m": 10000,
      "ceiling_ft": null,
      "hazards": [],
      "severityScore": 0,
      "metarRaw": "METAR LIMJ 180120Z 03014KT CAVOK 10/06 Q1021",
      "tafRaw": "TAF LIMJ 172300Z 1800/1824 02014KT 9999 FEW040"
    },
    {
      "icao": "LIPH",
      "iata": "TSF",
      "name": "Treviso Antonio Canova Airport",
      "updatedAt": "180120Z",
      "visibility_m": 10000,
      "taf_visibility_m": 10000,
      "worst_visibility_m": 10000,
      "ceiling_ft": null,
      "hazards": [],
      "severityScore": 0,
      "metarRaw": "METAR LIPH 180120Z AUTO 05007KT 9999 OVC082/// 10/03 Q1024",
      "tafRaw": "TAF LIPH 172300Z 1800/1824 04005KT 9999 SCT060"
    },
    {
      "icao": "LIPQ",
      "iata": "TRS",
      "name": "Trieste–Friuli Venezia Giulia Airport",
      "updatedAt": "180120Z",
      "visibility_m": 10000,
      "taf_visibility_m": 10000,
      "worst_visibility_m": 10000,
      "ceiling_ft": null,
      "hazards": [],
      "severityScore": 0,
      "metarRaw": "METAR LIPQ 180120Z AUTO VRB02KT 9999 OVC088/// 09/01 Q1024",
      "tafRaw": "TAF LIPQ 172300Z 1800/1824 02005KT 9999 FEW070 \n  BECMG 1807/1809 08012KT"
    },
    {
      "icao": "LIPZ",
      "iata": "VCE",
      "name": "Venice Marco Polo Airport",
      "updatedAt": "180120Z",
      "visibility_m": 10000,
      "taf_visibility_m": 10000,
      "worst_visibility_m": 10000,
      "ceiling_ft": null,
      "hazards": [],
      "severityScore": 0,
      "metarRaw": "METAR LIPZ 180120Z 06005KT CAVOK 07/04 Q1024 NOSIG",
      "tafRaw": "TAF LIPZ 172300Z 1800/1906 04010KT 9999 SCT060"
    },
    {
      "icao": "LIRF",
      "iata": "FCO",
      "name": "Rome–Fiumicino Leonardo da Vinci International Airport",
      "updatedAt": "180120Z",
      "visibility_m": 10000,
      "taf_visibility_m": 10000,
      "worst_visibility_m": 10000,
      "ceiling_ft": null,
      "hazards": [],
      "severityScore": 0,
      "metarRaw": "METAR LIRF 180120Z 05007KT CAVOK 08/04 Q1019 NOSIG",
      "tafRaw": "TAF LIRF 172300Z 1800/1906 05008KT 9999 FEW040"
    },
    {
      "icao": "LIRN",
      "iata": "NAP",
      "name": "Naples International Airport",
      "updatedAt": "180120Z",
      "visibility_m": 10000,
      "taf_visibility_m": 10000,
      "worst_visibility_m": 10000,
      "ceiling_ft": null,
      "hazards": [],
      "severityScore": 0,
      "metarRaw": "METAR LIRN 180120Z AUTO 03008KT 9999 FEW094/// 10/06 Q1019",
      "tafRaw": "TAF LIRN 172300Z 1800/1824 05008KT 9999 FEW040"
    },
    {
      "icao": "LIRZ",
      "iata": "PEG",
      "name": "Perugia San Francesco d'Assisi – Umbria International Airport",
      "updatedAt": "180120Z",
      "visibility_m": 10000,
      "taf_visibility_m": 10000,
      "worst_visibility_m": 10000,
      "ceiling_ft": null,
      "hazards": [],
      "severityScore": 0,
      "metarRaw": "METAR LIRZ 180120Z AUTO 36009KT 9999 NCD 05/04 Q1021",
      "tafRaw": "TAF LIRZ 172300Z 1800/1824 02008KT CAVOK"
    },
    {
      "icao": "LKPR",
      "iata": "PRG",
      "name": "Václav Havel Airport Prague",
      "updatedAt": "180100Z",
      "visibility_m": 10000,
      "taf_visibility_m": 10000,
      "worst_visibility_m": 10000,
      "ceiling_ft": null,
      "hazards": [],
      "severityScore": 0,
      "metarRaw": "METAR LKPR 180100Z 11008KT CAVOK M00/M02 Q1026 NOSIG",
      "tafRaw": "TAF LKPR 172300Z 1800/1906 12012KT CAVOK"
    },
    {
      "icao": "LQBK",
      "iata": "BNX",
      "name": "Banja Luka International Airport",
      "updatedAt": "180100Z",
      "visibility_m": 10000,
      "taf_visibility_m": 10000,
      "worst_visibility_m": 10000,
      "ceiling_ft": 2300,
      "hazards": [],
      "severityScore": 0,
      "metarRaw": "METAR LQBK 180100Z 32004KT 9999 OVC023 00/M02 Q1031 NOSIG",
      "tafRaw": "TAF LQBK 172300Z 1800/1824 34006KT 9999 BKN018 TX00/1812Z TNM04/1824Z \n  PROB40 \n  TEMPO 1803/1809 OVC013"
    },
    {
      "icao": "LRBS",
      "iata": "BBU",
      "name": "Bucharest Băneasa Aurel Vlaicu International Airport",
      "updatedAt": "180100Z",
      "visibility_m": 10000,
      "taf_visibility_m": 10000,
      "worst_visibility_m": 10000,
      "ceiling_ft": 2400,
      "hazards": [],
      "severityScore": 0,
      "metarRaw": "METAR LRBS 180100Z 06008KT 9999 OVC024 M09/M12 Q1038 NOSIG",
      "tafRaw": "TAF LRBS 172300Z 1800/1824 07011KT 9999 SCT015 BKN025 \n  BECMG 1806/1808 VRB04KT \n  TEMPO 1806/1810 BKN015 BKN030 \n  BECMG 1810/1812 BKN015 BKN030 \n  BECMG 1816/1818 BKN025 \n  BECMG 1822/1824 BKN015"
    },
    {
      "icao": "LRBV",
      "iata": "GHV",
      "name": "Brașov-Ghimbav International Airport",
      "updatedAt": "180100Z",
      "visibility_m": 10000,
      "taf_visibility_m": 10000,
      "worst_visibility_m": 10000,
      "ceiling_ft": null,
      "hazards": [],
      "severityScore": 0,
      "metarRaw": "METAR LRBV 180100Z AUTO 21007KT 9999 NCD M11/M13 Q1032",
      "tafRaw": "TAF LRBV 172000Z 1721/1806 VRB04KT CAVOK"
    },
    {
      "icao": "LRCV",
      "iata": "CRA",
      "name": "Craiova International Airport",
      "updatedAt": "180100Z",
      "visibility_m": 8000,
      "taf_visibility_m": 10000,
      "worst_visibility_m": 8000,
      "ceiling_ft": 3600,
      "hazards": [],
      "severityScore": 0,
      "metarRaw": "METAR LRCV 180100Z 13010KT 8000 BKN036 M09/M11 Q1036",
      "tafRaw": "TAF LRCV 172300Z 1800/1809 11007KT 9999 BKN025 \n  TEMPO 1800/1803 BKN010"
    },
    {
      "icao": "LROP",
      "iata": "OTP",
      "name": "Bucharest Henri Coandă International Airport",
      "updatedAt": "180100Z",
      "visibility_m": 10000,
      "taf_visibility_m": 10000,
      "worst_visibility_m": 10000,
      "ceiling_ft": 2400,
      "hazards": [],
      "severityScore": 0,
      "metarRaw": "METAR LROP 180100Z 08007KT 9999 OVC024 M09/M14 Q1038 NOSIG",
      "tafRaw": "TAF LROP 172300Z 1800/1824 07011KT 9999 SCT015 BKN025 \n  BECMG 1806/1808 VRB04KT \n  TEMPO 1806/1810 BKN015 BKN030 \n  BECMG 1810/1812 BKN015 BKN030 \n  BECMG 1816/1818 BKN025 \n  BECMG 1822/1824 BKN015"
    },
    {
      "icao": "LWOH",
      "iata": "OHD",
      "name": "Ohrid St. Paul the Apostle Airport",
      "updatedAt": null,
      "visibility_m": null,
      "taf_visibility_m": 10000,
      "worst_visibility_m": 10000,
      "ceiling_ft": 4000,
      "hazards": [],
      "severityScore": 0,
      "metarRaw": null,
      "tafRaw": "TAF LWOH 172320Z 1800/1824 VRB02KT 9999 BKN040"
    },
    {
      "icao": "LYBE",
      "iata": "BEG",
      "name": "Belgrade Nikola Tesla Airport",
      "updatedAt": "180100Z",
      "visibility_m": 10000,
      "taf_visibility_m": 10000,
      "worst_visibility_m": 10000,
      "ceiling_ft": null,
      "hazards": [],
      "severityScore": 0,
      "metarRaw": "METAR LYBE 180100Z 10011KT CAVOK M03/M07 Q1031 NOSIG",
      "tafRaw": "TAF LYBE 172300Z 1800/1824 11012KT CAVOK TX01/1813Z TNM05/1806Z"
    },
    {
      "icao": "LYNI",
      "iata": "INI",
      "name": "Niš Constantine the Great Airport",
      "updatedAt": "180100Z",
      "visibility_m": 10000,
      "taf_visibility_m": 10000,
      "worst_visibility_m": 10000,
      "ceiling_ft": null,
      "hazards": [],
      "severityScore": 0,
      "metarRaw": "METAR LYNI 180100Z VRB02KT CAVOK M05/M07 Q1031 NOSIG",
      "tafRaw": "TAF LYNI 172300Z 1800/1824 04006KT 9999 SCT040 TX02/1813Z TNM06/1806Z"
    },
    {
      "icao": "LZKZ",
      "iata": "KSC",
      "name": "Košice International Airport",
      "updatedAt": "180100Z",
      "visibility_m": 10000,
      "taf_visibility_m": 10000,
      "worst_visibility_m": 10000,
      "ceiling_ft": null,
      "hazards": [],
      "severityScore": 0,
      "metarRaw": "METAR LZKZ 180100Z 00000KT CAVOK M08/M11 Q1033 NOSIG",
      "tafRaw": "TAF LZKZ 172315Z 1800/1900 VRB02KT CAVOK"
    },
    {
      "icao": "LZTT",
      "iata": "TAT",
      "name": "Poprad-Tatry Airport",
      "updatedAt": "180100Z",
      "visibility_m": 10000,
      "taf_visibility_m": 10000,
      "worst_visibility_m": 10000,
      "ceiling_ft": null,
      "hazards": [],
      "severityScore": 0,
      "metarRaw": "METAR LZTT 180100Z 29007KT CAVOK M10/M11 Q1030",
      "tafRaw": "TAF LZTT 172315Z 1800/1900 28005KT CAVOK"
    },
    {
      "icao": "OEJN",
      "iata": "JED",
      "name": "King Abdulaziz International Airport",
      "updatedAt": "180100Z",
      "visibility_m": 10000,
      "taf_visibility_m": 7000,
      "worst_visibility_m": 7000,
      "ceiling_ft": null,
      "hazards": [],
      "severityScore": 0,
      "metarRaw": "METAR OEJN 180100Z 00000KT CAVOK 23/16 Q1012 NOSIG",
      "tafRaw": "TAF OEJN 172300Z 1800/1906 VRB03KT 7000 FEW040 \n  BECMG 1806/1808 27010KT \n  BECMG 1818/1820 36005KT"
    },
    {
      "icao": "OEMA",
      "iata": "MED",
      "name": "Prince Mohammad Bin Abdulaziz Airport",
      "updatedAt": "180100Z",
      "visibility_m": 8000,
      "taf_visibility_m": 7000,
      "worst_visibility_m": 7000,
      "ceiling_ft": null,
      "hazards": [],
      "severityScore": 0,
      "metarRaw": "METAR OEMA 180100Z 35003KT 8000 FEW045 16/05 Q1015 NOSIG",
      "tafRaw": "TAF OEMA 172300Z 1800/1906 VRB03KT 7000 FEW045 \n  BECMG 1807/1809 26010KT CAVOK \n  BECMG 1818/1820 VRB03KT"
    },
    {
      "icao": "OMDB",
      "iata": "DXB",
      "name": "Dubai International Airport",
      "updatedAt": "180100Z",
      "visibility_m": 10000,
      "taf_visibility_m": 3000,
      "worst_visibility_m": 3000,
      "ceiling_ft": null,
      "hazards": [],
      "severityScore": 0,
      "metarRaw": "METAR OMDB 180100Z 16004KT 9999 FEW035 16/11 Q1015 NOSIG",
      "tafRaw": "TAF OMDB 172300Z 1800/1906 20006KT 8000 FEW030 \n  BECMG 1806/1808 29012KT \n  BECMG 1816/1818 20005KT \n  PROB30 1900/1905 3000 HZ"
    }
  ],
  "stats": {
    "icaoCount": 159,
    "metarReturned": 155,
    "tafReturned": 152,
    "stationsWritten": 159,
    "missingMetar": 4,
    "missingTaf": 7
  },
  "errors": []
}