{
  "generatedAt": "2026-01-17T12:56:42.503Z",
  "stations": [
    {
      "icao": "EDDB",
      "iata": "BER",
      "name": "Berlin Brandenburg Airport",
      "updatedAt": "171250Z",
      "visibility_m": 1700,
      "taf_visibility_m": 400,
      "worst_visibility_m": 400,
      "ceiling_ft": 200,
      "hazards": [
        "BR",
        "FZFG",
        "FG"
      ],
      "severityScore": 100,
      "metarRaw": "METAR EDDB 171250Z AUTO 10009KT 4000 1700 BR OVC002 01/01 Q1025 NOSIG",
      "tafRaw": "TAF EDDB 171100Z 1712/1812 10010KT 3000 BR OVC002 \n  TEMPO 1712/1717 1400 BR \n  TEMPO 1717/1808 0700 FG OVC001 \n  PROB30 \n  TEMPO 1800/1808 0400 FZFG \n  BECMG 1808/1811 5000 SCT004"
    },
    {
      "icao": "EDDS",
      "iata": "STR",
      "name": "Stuttgart Airport",
      "updatedAt": "171250Z",
      "visibility_m": 10000,
      "taf_visibility_m": 500,
      "worst_visibility_m": 500,
      "ceiling_ft": 100,
      "hazards": [
        "FZFG",
        "FG"
      ],
      "severityScore": 100,
      "metarRaw": "METAR EDDS 171250Z AUTO 08005KT 040V110 CAVOK 06/00 Q1018 NOSIG",
      "tafRaw": "TAF EDDS 171100Z 1712/1812 08004KT CAVOK \n  PROB30 \n  TEMPO 1800/1810 0500 FZFG BKN001 \n  TEMPO 1806/1812 BKN009"
    },
    {
      "icao": "EDFH",
      "iata": "HHN",
      "name": "Frankfurt-Hahn Airport",
      "updatedAt": "171250Z",
      "visibility_m": 10000,
      "taf_visibility_m": 500,
      "worst_visibility_m": 500,
      "ceiling_ft": 100,
      "hazards": [
        "FZFG",
        "FG"
      ],
      "severityScore": 100,
      "metarRaw": "METAR EDFH 171250Z 14011KT CAVOK 06/02 Q1018",
      "tafRaw": "TAF EDFH 171100Z 1712/1812 13011KT CAVOK \n  TEMPO 1803/1812 BKN005 \n  PROB30 \n  TEMPO 1806/1810 0500 FZFG BKN001"
    },
    {
      "icao": "EDJA",
      "iata": "FMM",
      "name": "Memmingen Allgau Airport",
      "updatedAt": "171250Z",
      "visibility_m": 3500,
      "taf_visibility_m": 200,
      "worst_visibility_m": 200,
      "ceiling_ft": 200,
      "hazards": [
        "FZFG",
        "BR",
        "FG"
      ],
      "severityScore": 100,
      "metarRaw": "METAR EDJA 171250Z 04008KT 3500 OVC002 M01/M01 Q1018",
      "tafRaw": "TAF EDJA 171100Z 1712/1721 05005KT 0700 FZFG VV002 \n  PROB30 \n  TEMPO 1712/1716 3000 BR \n  TEMPO 1717/1721 0200 FZFG VV001"
    },
    {
      "icao": "EDSB",
      "iata": "FKB",
      "name": "Karlsruhe Baden-Baden Airport",
      "updatedAt": "171250Z",
      "visibility_m": 10000,
      "taf_visibility_m": 500,
      "worst_visibility_m": 500,
      "ceiling_ft": 100,
      "hazards": [
        "FZFG",
        "BR",
        "FG"
      ],
      "severityScore": 100,
      "metarRaw": "METAR EDSB 171250Z 02010KT CAVOK 05/01 Q1019",
      "tafRaw": "TAF EDSB 171100Z 1712/1812 02007KT CAVOK \n  TEMPO 1720/1810 0500 FZFG BKN001 \n  TEMPO 1810/1812 3000 BR BKN006"
    },
    {
      "icao": "EGBB",
      "iata": "BHX",
      "name": "Birmingham Airport",
      "updatedAt": "171250Z",
      "visibility_m": 10000,
      "taf_visibility_m": 300,
      "worst_visibility_m": 300,
      "ceiling_ft": 1600,
      "hazards": [
        "FG",
        "BR",
        "RA",
        "DZ"
      ],
      "severityScore": 100,
      "metarRaw": "METAR EGBB 171250Z COR 14007KT 9999 BKN016 08/06 Q1014",
      "tafRaw": "TAF EGBB 171103Z 1712/1812 15005KT 9999 FEW020 \n  PROB30 \n  TEMPO 1712/1718 BKN014 \n  BECMG 1718/1721 7000 BKN006 \n  BECMG 1721/1724 3000 BR BKN004 \n  PROB30 1722/1807 0300 FG BKN001 \n  BECMG 1807/1810 9999 NSW BKN006 \n  TEMPO 1807/1812 2000 RADZ BR BKN002"
    },
    {
      "icao": "EGNM",
      "iata": "LBA",
      "name": "Leeds Bradford Airport",
      "updatedAt": "171250Z",
      "visibility_m": 1100,
      "taf_visibility_m": 300,
      "worst_visibility_m": 300,
      "ceiling_ft": 200,
      "hazards": [
        "BR",
        "FG",
        "RA",
        "DZ"
      ],
      "severityScore": 100,
      "metarRaw": "METAR EGNM 171250Z 13007KT 1100 R14/P1500N BR SCT001 BKN002 06/06 Q1015",
      "tafRaw": "TAF EGNM 171059Z 1712/1812 13004KT 0300 FG OVC001 \n  BECMG 1712/1714 6000 NSW SCT008 \n  PROB40 \n  TEMPO 1712/1713 RA -RADZ \n  TEMPO 1714/1718 3000 BR BKN004 \n  BECMG 1718/1720 0300 FG VV/// \n  TEMPO 1804/1812 RA -RADZ"
    },
    {
      "icao": "EGPD",
      "iata": "ABZ",
      "name": "Aberdeen International Airport",
      "updatedAt": "171250Z",
      "visibility_m": 10000,
      "taf_visibility_m": 300,
      "worst_visibility_m": 300,
      "ceiling_ft": 700,
      "hazards": [
        "RA",
        "FG",
        "BR",
        "DZ"
      ],
      "severityScore": 100,
      "metarRaw": "METAR EGPD 171250Z AUTO 13007KT 9999 -RA OVC007 08/07 Q1016",
      "tafRaw": "TAF EGPD 171054Z 1712/1812 13010KT 9999 SCT008 BKN015 \n  TEMPO 1712/1721 6000 RA -RADZ BKN008 \n  PROB40 \n  TEMPO 1712/1721 3000 +RA RADZ BKN004 \n  BECMG 1718/1721 VRB03KT \n  TEMPO 1721/1812 3000 BR BKN004 \n  PROB30 \n  TEMPO 1721/1812 0300 FG BKN001"
    },
    {
      "icao": "ENGM",
      "iata": "OSL",
      "name": "Oslo-Gardermoen International Airport",
      "updatedAt": "171250Z",
      "visibility_m": 800,
      "taf_visibility_m": null,
      "worst_visibility_m": 800,
      "ceiling_ft": 200,
      "hazards": [
        "FZFG",
        "BR",
        "FG"
      ],
      "severityScore": 100,
      "metarRaw": "METAR ENGM 171250Z 32003KT 280V360 1300 0900NE R19R/P2000N R01R/1700U R19L/1300N R01L/1100U BR BKN002 00/M00 Q1028 TEMPO 0800 FZFG",
      "tafRaw": null
    },
    {
      "icao": "ENTO",
      "iata": "TRF",
      "name": "Sandefjord Airport, Torp",
      "updatedAt": "171250Z",
      "visibility_m": 250,
      "taf_visibility_m": 200,
      "worst_visibility_m": 200,
      "ceiling_ft": 200,
      "hazards": [
        "FZFG",
        "FG",
        "BR",
        "FZRA",
        "DZ",
        "RA"
      ],
      "severityScore": 100,
      "metarRaw": "METAR ENTO 171250Z 01007KT 0250 R18/0550N R36/0600N FZFG VV002 M00/M00 Q1028 NOSIG",
      "tafRaw": "TAF ENTO 171100Z 1712/1812 01005KT 0200 FZFG VV001 \n  TEMPO 1712/1717 6000 NSW SCT004 \n  TEMPO 1717/1812 4000 DZ BR BKN004 \n  PROB30 1718/1721 -FZRA"
    },
    {
      "icao": "EPGD",
      "iata": "GDN",
      "name": "Gdańsk Lech Wałęsa Airport",
      "updatedAt": "171230Z",
      "visibility_m": 900,
      "taf_visibility_m": 900,
      "worst_visibility_m": 900,
      "ceiling_ft": 100,
      "hazards": [
        "FZFG",
        "FG",
        "BR"
      ],
      "severityScore": 100,
      "metarRaw": "METAR EPGD 171230Z 17009KT 0900 R29/1300N FZFG OVC001 M04/M05 Q1030",
      "tafRaw": "TAF EPGD 171130Z 1712/1812 17010KT 0900 FZFG OVC001 \n  BECMG 1712/1714 2000 BR BKN003 \n  BECMG 1714/1717 4000 BR SCT005 \n  TEMPO 1714/1720 7000 \n  BECMG 1720/1723 8000"
    },
    {
      "icao": "EPKK",
      "iata": "KRK",
      "name": "Kraków John Paul II International Airport",
      "updatedAt": "171230Z",
      "visibility_m": 8000,
      "taf_visibility_m": 300,
      "worst_visibility_m": 300,
      "ceiling_ft": 200,
      "hazards": [
        "FZFG",
        "BR",
        "FG"
      ],
      "severityScore": 100,
      "metarRaw": "METAR EPKK 171230Z 06009KT 8000 NSC M02/M05 Q1029",
      "tafRaw": "TAF EPKK 171130Z 1712/1812 06010KT 6000 NSC \n  BECMG 1715/1717 1500 BR \n  TEMPO 1716/1802 0700 FZFG \n  PROB40 \n  TEMPO 1717/1802 0300 FZFG BKN002 BKN005 \n  BECMG 1802/1805 1200 BR BKN005 \n  TEMPO 1802/1809 0300 FZFG BKN002 \n  BECMG 1809/1812 CAVOK"
    },
    {
      "icao": "EPPO",
      "iata": "POZ",
      "name": "Poznań-Ławica Airport",
      "updatedAt": "171230Z",
      "visibility_m": 1100,
      "taf_visibility_m": 300,
      "worst_visibility_m": 300,
      "ceiling_ft": 100,
      "hazards": [
        "BR",
        "FZFG",
        "FG"
      ],
      "severityScore": 100,
      "metarRaw": "METAR EPPO 171230Z 12011KT 1100 R28/1400N BR OVC001 02/01 Q1028",
      "tafRaw": "TAF EPPO 171130Z 1712/1812 11010KT 0300 FG OVC001 \n  BECMG 1712/1715 3500 BR OVC007 \n  BECMG 1715/1717 CAVOK \n  BECMG 1721/1724 2500 BR BKN004 \n  PROB40 \n  TEMPO 1722/1806 0500 FZFG OVC001"
    },
    {
      "icao": "EPWR",
      "iata": "WRO",
      "name": "Copernicus Wrocław Airport",
      "updatedAt": "171230Z",
      "visibility_m": 4000,
      "taf_visibility_m": 300,
      "worst_visibility_m": 300,
      "ceiling_ft": 100,
      "hazards": [
        "BR",
        "FZFG",
        "FG"
      ],
      "severityScore": 100,
      "metarRaw": "METAR EPWR 171230Z 13005KT 4000 BR FEW005 03/03 Q1027",
      "tafRaw": "TAF EPWR 171130Z 1712/1812 12010KT 1200 BR OVC002 \n  BECMG 1712/1715 CAVOK \n  BECMG 1716/1719 2500 BR BKN006 \n  TEMPO 1720/1724 0600 FG BKN002 \n  TEMPO 1800/1809 0300 FZFG BKN001 \n  BECMG 1809/1812 CAVOK"
    },
    {
      "icao": "ESGG",
      "iata": "GOT",
      "name": "Göteborg Landvetter Airport",
      "updatedAt": "171250Z",
      "visibility_m": 5000,
      "taf_visibility_m": 300,
      "worst_visibility_m": 300,
      "ceiling_ft": 200,
      "hazards": [
        "BR",
        "FG"
      ],
      "severityScore": 100,
      "metarRaw": "METAR ESGG 171250Z 09006KT 5000 BR OVC003TCU 03/03 Q1027",
      "tafRaw": "TAF ESGG 171130Z 1712/1812 11004KT 9999 BKN006 \n  PROB40 1712/1718 1200 BR BKN002 \n  PROB40 1718/1802 0300 FG VV002 \n  PROB40 1802/1812 1200 BR BKN002"
    },
    {
      "icao": "ESMS",
      "iata": "MMX",
      "name": "Malmö Sturup Airport",
      "updatedAt": "171250Z",
      "visibility_m": 200,
      "taf_visibility_m": null,
      "worst_visibility_m": 200,
      "ceiling_ft": 200,
      "hazards": [
        "FG"
      ],
      "severityScore": 100,
      "metarRaw": "METAR ESMS 171250Z 11008KT 0200 R17/0550N R35/0550N FG VV002 02/02 Q1027",
      "tafRaw": null
    },
    {
      "icao": "ESSA",
      "iata": "ARN",
      "name": "Stockholm-Arlanda Airport",
      "updatedAt": "171250Z",
      "visibility_m": 10000,
      "taf_visibility_m": 300,
      "worst_visibility_m": 300,
      "ceiling_ft": 800,
      "hazards": [
        "FG",
        "BR"
      ],
      "severityScore": 100,
      "metarRaw": "METAR ESSA 171250Z 23004KT 9999 OVC008 03/02 Q1029 NOSIG",
      "tafRaw": "TAF ESSA 171130Z 1712/1812 20005KT 9999 BKN012 \n  TEMPO 1712/1713 OVC008 \n  BECMG 1713/1715 4000 BR BKN005 \n  TEMPO 1715/1808 0300 FG VV002 \n  BECMG 1808/1810 9999 NSW BKN010"
    },
    {
      "icao": "LFBD",
      "iata": "BOD",
      "name": "Bordeaux–Mérignac Airport",
      "updatedAt": "171230Z",
      "visibility_m": 10000,
      "taf_visibility_m": 300,
      "worst_visibility_m": 300,
      "ceiling_ft": 4900,
      "hazards": [
        "RA",
        "FG",
        "BR",
        "SHRA"
      ],
      "severityScore": 100,
      "metarRaw": "METAR LFBD 171230Z AUTO 03004KT 9999 -RA OVC049 09/08 Q1011 TEMPO BKN025TCU",
      "tafRaw": "TAF LFBD 171100Z 1712/1818 08005KT CAVOK TX11/1815Z TN07/1806Z \n  TEMPO 1712/1716 -SHRA BKN025TCU \n  TEMPO 1716/1813 2000 BR BKN003 \n  PROB40 \n  TEMPO 1802/1812 0300 FG VV/// \n  TEMPO 1813/1815 BKN005"
    },
    {
      "icao": "LFSB",
      "iata": "BSL",
      "name": "EuroAirport Basel–Mulhouse–Freiburg",
      "updatedAt": "171230Z",
      "visibility_m": 10000,
      "taf_visibility_m": 300,
      "worst_visibility_m": 300,
      "ceiling_ft": 500,
      "hazards": [
        "FZFG",
        "FG",
        "BR"
      ],
      "severityScore": 100,
      "metarRaw": "METAR LFSB 171230Z AUTO 10003KT 060V130 CAVOK 09/02 Q1018 NOSIG",
      "tafRaw": "TAF LFSB 171100Z 1712/1812 VRB03KT CAVOK \n  BECMG 1717/1720 2000 BR OVC005 \n  TEMPO 1719/1810 0300 FG VV/// \n  PROB30 \n  TEMPO 1802/1810 4000 BR BKN010 \n  PROB30 \n  TEMPO 1803/1809 FZFG \n  TEMPO 1810/1812 4000 BR BKN010"
    },
    {
      "icao": "LIBP",
      "iata": "PSR",
      "name": "Abruzzo Airport",
      "updatedAt": "171250Z",
      "visibility_m": 10000,
      "taf_visibility_m": 300,
      "worst_visibility_m": 300,
      "ceiling_ft": 200,
      "hazards": [
        "FG",
        "BR"
      ],
      "severityScore": 100,
      "metarRaw": "METAR LIBP 171250Z AUTO 06007KT 9999 FEW005/// BKN044/// BKN058/// 11/10 Q1021",
      "tafRaw": "TAF LIBP 171100Z 1712/1812 VRB03KT 6000 SCT030 \n  BECMG 1718/1720 3000 BR \n  PROB40 \n  TEMPO 1722/1806 0300 FG OVC002 \n  BECMG 1806/1808 7000"
    },
    {
      "icao": "LIPE",
      "iata": "BLQ",
      "name": "Bologna Guglielmo Marconi Airport",
      "updatedAt": "171250Z",
      "visibility_m": 2500,
      "taf_visibility_m": 300,
      "worst_visibility_m": 300,
      "ceiling_ft": 600,
      "hazards": [
        "BR",
        "FG"
      ],
      "severityScore": 100,
      "metarRaw": "METAR LIPE 171250Z 30003KT 260V350 2500 BR BKN006 BKN011 08/07 Q1022",
      "tafRaw": "TAF LIPE 171100Z 1712/1812 VRB04KT 2000 BR BKN020 \n  TEMPO 1718/1806 0300 FG OVC003"
    },
    {
      "icao": "LIPR",
      "iata": "RMI",
      "name": "Federico Fellini International Airport",
      "updatedAt": "171250Z",
      "visibility_m": 4000,
      "taf_visibility_m": 300,
      "worst_visibility_m": 300,
      "ceiling_ft": 500,
      "hazards": [
        "BR",
        "FG"
      ],
      "severityScore": 100,
      "metarRaw": "METAR LIPR 171250Z 30007KT 4000 BR OVC005 08/08 Q1022",
      "tafRaw": "TAF LIPR 171100Z 1712/1812 VRB04KT 4000 BR BKN008 \n  BECMG 1721/1723 0300 FG OVC003 \n  BECMG 1808/1810 6000"
    },
    {
      "icao": "LIPY",
      "iata": "AOI",
      "name": "Marche Airport",
      "updatedAt": "171250Z",
      "visibility_m": 3200,
      "taf_visibility_m": 300,
      "worst_visibility_m": 300,
      "ceiling_ft": 100,
      "hazards": [
        "BR",
        "FG"
      ],
      "severityScore": 100,
      "metarRaw": "METAR LIPY 171250Z AUTO 01004KT 3200 BR OVC004/// 10/10 Q1021",
      "tafRaw": "TAF LIPY 171100Z 1712/1812 VRB05KT 4000 BR OVC010 \n  BECMG 1718/1720 0300 FG OVC001 \n  BECMG 1804/1806 3000 BR OVC010"
    },
    {
      "icao": "LKMT",
      "iata": "OSR",
      "name": "Ostrava Leos Janáček Airport",
      "updatedAt": "171230Z",
      "visibility_m": 150,
      "taf_visibility_m": 200,
      "worst_visibility_m": 150,
      "ceiling_ft": 200,
      "hazards": [
        "FZFG",
        "FG",
        "BR"
      ],
      "severityScore": 100,
      "metarRaw": "METAR LKMT 171230Z VRB02KT 0150 R22/0300N R04/0275N FZFG VV002 M01/M01 Q1028 NOSIG",
      "tafRaw": "TAF LKMT 171100Z 1712/1812 VRB02KT 0200 FZFG VV002 \n  PROB30 \n  TEMPO 1713/1717 2500 BR OVC006 \n  TEMPO 1809/1812 1500 BR SCT004"
    },
    {
      "icao": "LQSA",
      "iata": "SJJ",
      "name": "Sarajevo International Airport",
      "updatedAt": "171230Z",
      "visibility_m": 400,
      "taf_visibility_m": 500,
      "worst_visibility_m": 400,
      "ceiling_ft": 300,
      "hazards": [
        "FZFG",
        "FG",
        "BR"
      ],
      "severityScore": 100,
      "metarRaw": "METAR LQSA 171230Z VRB02KT 0400 R11/0650N FZFG VV003 M01/M01 Q1024 NOSIG",
      "tafRaw": "TAF LQSA 171100Z 1712/1812 VRB02KT 0500 FZFG BKN002 TX01/1714Z TNM03/1806Z \n  PROB30 \n  TEMPO 1712/1716 4000 BR SCT008 \n  PROB40 \n  TEMPO 1722/1812 4000 BR BKN012"
    },
    {
      "icao": "LRTR",
      "iata": "TSR",
      "name": "Timişoara Traian Vuia Airport",
      "updatedAt": "171230Z",
      "visibility_m": 10000,
      "taf_visibility_m": 600,
      "worst_visibility_m": 600,
      "ceiling_ft": 200,
      "hazards": [
        "FZFG",
        "BR",
        "FG"
      ],
      "severityScore": 100,
      "metarRaw": "METAR LRTR 171230Z 11007KT 9999 FEW049 02/M03 Q1029",
      "tafRaw": "TAF LRTR 171100Z 1712/1812 10006KT CAVOK \n  BECMG 1715/1717 5000 BR BKN010 \n  PROB40 \n  TEMPO 1718/1720 1500 BR \n  BECMG 1722/1724 3000 BR BKN005 \n  TEMPO 1802/1806 0600 FZFG OVC002 \n  BECMG 1808/1810 9999 NSW SCT025"
    },
    {
      "icao": "LYPG",
      "iata": "TGD",
      "name": "Podgorica Airport / Podgorica Golubovci Airbase",
      "updatedAt": "171230Z",
      "visibility_m": 10000,
      "taf_visibility_m": 200,
      "worst_visibility_m": 200,
      "ceiling_ft": null,
      "hazards": [
        "FZFG",
        "FG"
      ],
      "severityScore": 100,
      "metarRaw": "METAR LYPG 171230Z 13003KT 030V200 CAVOK 14/04 Q1022 NOSIG",
      "tafRaw": "TAF LYPG 171100Z 1712/1812 17007KT CAVOK TX13/1713Z TNM01/1802Z \n  BECMG 1718/1720 0500 FG \n  TEMPO 1720/1807 0200 \n  BECMG 1801/1803 FZFG \n  BECMG 1807/1809 9999 NSW"
    },
    {
      "icao": "ESKN",
      "iata": "NYO",
      "name": "Stockholm Skavsta Airport",
      "updatedAt": "171250Z",
      "visibility_m": 1500,
      "taf_visibility_m": 150,
      "worst_visibility_m": 150,
      "ceiling_ft": 1700,
      "hazards": [
        "BR",
        "FG"
      ],
      "severityScore": 97,
      "metarRaw": "METAR ESKN 171250Z 10005KT 1500 BR FEW002 BKN017 02/02 Q1029",
      "tafRaw": "TAF ESKN 171130Z 1712/1812 19005KT 0150 FG VV002 \n  TEMPO 1712/1808 3000 BR SCT002 \n  BECMG 1808/1810 6000 NSW BKN004 \n  PROB40 1810/1812 4000 BR"
    },
    {
      "icao": "EPKT",
      "iata": "KTW",
      "name": "Katowice Wojciech Korfanty International Airport",
      "updatedAt": "171230Z",
      "visibility_m": 10000,
      "taf_visibility_m": 500,
      "worst_visibility_m": 500,
      "ceiling_ft": null,
      "hazards": [
        "FZFG",
        "BR",
        "FG"
      ],
      "severityScore": 95,
      "metarRaw": "METAR EPKT 171230Z 07003KT 040V100 CAVOK 05/00 Q1028",
      "tafRaw": "TAF EPKT 171130Z 1712/1812 11005KT CAVOK \n  BECMG 1716/1718 2000 BR \n  PROB30 \n  TEMPO 1718/1724 0500 FZFG \n  BECMG 1800/1803 CAVOK \n  PROB40 \n  TEMPO 1803/1807 3000 BR"
    },
    {
      "icao": "ENTC",
      "iata": "TOS",
      "name": "Tromsø Airport, Langnes",
      "updatedAt": "171250Z",
      "visibility_m": 10000,
      "taf_visibility_m": 1800,
      "worst_visibility_m": 1800,
      "ceiling_ft": 800,
      "hazards": [
        "FZRA",
        "SN",
        "RA"
      ],
      "severityScore": 90,
      "metarRaw": "METAR ENTC 171250Z 21010KT CAVOK M03/M06 Q1018 NOSIG RMK WIND 2600FT 25007KT",
      "tafRaw": "TAF ENTC 171100Z 1712/1812 23009KT 9999 FEW035 \n  PROB30 \n  TEMPO 1720/1722 -FZRA \n  TEMPO 1721/1812 BKN008 FEW015CB \n  TEMPO 1721/1807 1800 SHSNRA \n  TEMPO 1723/1805 20015G25KT"
    },
    {
      "icao": "LFLL",
      "iata": "LYS",
      "name": "Lyon Saint-Exupéry Airport",
      "updatedAt": "171230Z",
      "visibility_m": 9000,
      "taf_visibility_m": 300,
      "worst_visibility_m": 300,
      "ceiling_ft": 4600,
      "hazards": [
        "RA",
        "FG",
        "BR"
      ],
      "severityScore": 87,
      "metarRaw": "METAR LFLL 171230Z 12006KT 9000 -RA BKN046 OVC056 09/07 Q1016 TEMPO RA",
      "tafRaw": "TAF LFLL 171100Z 1712/1818 14010KT CAVOK \n  TEMPO 1712/1715 RA BKN050 \n  BECMG 1717/1719 VRB03KT \n  PROB40 \n  TEMPO 1719/1724 0800 BCFG \n  BECMG 1721/1724 0600 FG VV/// \n  PROB40 1800/1810 0300 \n  BECMG 1810/1812 3000 BR OVC002 \n  BECMG 1812/1814 6000 NSW OVC005 \n  PROB30 1815/1818 OVC010"
    },
    {
      "icao": "LEBL",
      "iata": "BCN",
      "name": "Josep Tarradellas Barcelona-El Prat Airport",
      "updatedAt": "171230Z",
      "visibility_m": 9000,
      "taf_visibility_m": 2000,
      "worst_visibility_m": 2000,
      "ceiling_ft": 2500,
      "hazards": [
        "DZ",
        "TSRA",
        "SHRA",
        "TS",
        "RA"
      ],
      "severityScore": 86,
      "metarRaw": "METAR LEBL 171230Z 11013KT 9000 -DZ SCT012 BKN025 OVC050 15/14 Q1009 NOSIG",
      "tafRaw": "TAF LEBL 171100Z 1712/1812 12012KT 9999 SCT020 TX15/1712Z TN10/1806Z \n  TEMPO 1712/1716 12015G25KT \n  TEMPO 1712/1812 4000 SHRA FEW020TCU \n  TEMPO 1714/1810 VRB04KT 2000 TSRA BKN012 FEW020CB"
    },
    {
      "icao": "EETN",
      "iata": "TLL",
      "name": "Lennart Meri Tallinn Airport",
      "updatedAt": "171250Z",
      "visibility_m": 2000,
      "taf_visibility_m": 2000,
      "worst_visibility_m": 2000,
      "ceiling_ft": 400,
      "hazards": [
        "BR",
        "FZDZ",
        "DZ"
      ],
      "severityScore": 83,
      "metarRaw": "METAR EETN 171250Z 18010KT 3700 BR OVC005 M06/M07 Q1033 TEMPO 2000 -FZDZ OVC004",
      "tafRaw": "TAF EETN 171130Z 1712/1812 18010KT 9999 OVC008 \n  TEMPO 1712/1718 2000 -FZDZ BR BKN004 OVC006 \n  TEMPO 1718/1806 SCT012 OVC020 \n  PROB40 \n  TEMPO 1718/1806 4000 -FZDZ BR"
    },
    {
      "icao": "EGKK",
      "iata": "LGW",
      "name": "London Gatwick Airport",
      "updatedAt": "171250Z",
      "visibility_m": 10000,
      "taf_visibility_m": 3000,
      "worst_visibility_m": 3000,
      "ceiling_ft": 300,
      "hazards": [
        "BR",
        "SHRA",
        "DZ",
        "RA"
      ],
      "severityScore": 81,
      "metarRaw": "METAR EGKK 171250Z 16005KT 9999 FEW014 SCT021 10/08 Q1015",
      "tafRaw": "TAF EGKK 171055Z 1712/1818 15006KT 9999 SCT025 \n  TEMPO 1712/1716 7000 SHRA BKN009 \n  PROB30 \n  TEMPO 1716/1721 BKN007 \n  TEMPO 1721/1807 5000 -DZ BR BKN005 \n  PROB30 \n  TEMPO 1722/1806 3000 DZ BKN003 \n  BECMG 1804/1807 09010KT \n  PROB30 1807/1810 7000 \n  PROB30 \n  TEMPO 1807/1813 BKN013"
    },
    {
      "icao": "LKPR",
      "iata": "PRG",
      "name": "Václav Havel Airport Prague",
      "updatedAt": "171230Z",
      "visibility_m": 3000,
      "taf_visibility_m": 800,
      "worst_visibility_m": 800,
      "ceiling_ft": 500,
      "hazards": [
        "BR",
        "FG"
      ],
      "severityScore": 80,
      "metarRaw": "METAR LKPR 171230Z 12007KT 3000 BR FEW002 BKN005 OVC009 02/02 Q1023 TEMPO 5000 BR",
      "tafRaw": "TAF LKPR 171100Z 1712/1818 11007KT 2500 BR BKN012 \n  TEMPO 1712/1714 0800 PRFG BKN004 \n  BECMG 1714/1716 5000 BR BKN007 \n  BECMG 1714/1716 12012KT \n  TEMPO 1716/1720 8000 BKN015 \n  TEMPO 1720/1724 9999 SCT015 \n  BECMG 1800/1802 CAVOK"
    },
    {
      "icao": "EFTU",
      "iata": "TKU",
      "name": "Turku Airport",
      "updatedAt": "171250Z",
      "visibility_m": 1200,
      "taf_visibility_m": null,
      "worst_visibility_m": 1200,
      "ceiling_ft": 100,
      "hazards": [
        "SHRA",
        "RA"
      ],
      "severityScore": 76,
      "metarRaw": "METAR EFTU 171250Z AUTO 19005KT 1200 R26/1900D -SHRA OVC001 01/01 Q1029",
      "tafRaw": null
    },
    {
      "icao": "LLBG",
      "iata": "TLV",
      "name": "Ben Gurion International Airport",
      "updatedAt": "171250Z",
      "visibility_m": 10000,
      "taf_visibility_m": 5000,
      "worst_visibility_m": 5000,
      "ceiling_ft": 7000,
      "hazards": [
        "TSRA",
        "RA",
        "SHRA",
        "TS"
      ],
      "severityScore": 76,
      "metarRaw": "METAR LLBG 171250Z 28007KT 9999 SCT035 19/10 Q1016 NOSIG RMK BKN070",
      "tafRaw": "TAF LLBG 171107Z 1712/1812 28008KT 9999 SCT045 \n  BECMG 1715/1717 15006KT SCT040 \n  PROB40 \n  TEMPO 1800/1804 17012KT 7000 RA FEW025TCU BKN030 \n  PROB40 \n  TEMPO 1804/1809 21015G25KT 5000 SHRA FEW025CB BKN030 \n  BECMG 1809/1811 23010KT SCT030 BKN040 \n  PROB40 \n  TEMPO 1811/1812 26016G26KT 5000 TSRA SCT015 FEW020CB BKN030 TX19/1712Z TN09/1805Z"
    },
    {
      "icao": "EGGW",
      "iata": "LTN",
      "name": "London Luton Airport",
      "updatedAt": "171250Z",
      "visibility_m": 10000,
      "taf_visibility_m": 300,
      "worst_visibility_m": 300,
      "ceiling_ft": 2000,
      "hazards": [
        "FG",
        "BR"
      ],
      "severityScore": 75,
      "metarRaw": "METAR EGGW 171250Z AUTO 19004KT 160V220 9999 FEW009 SCT016 BKN020 08/07 Q1015",
      "tafRaw": "TAF EGGW 171057Z 1712/1812 13007KT 9000 BKN009 \n  BECMG 1712/1715 9999 SCT009 \n  PROB30 \n  TEMPO 1715/1718 BKN008 \n  BECMG 1718/1721 6000 BKN003 \n  PROB40 \n  TEMPO 1718/1722 1400 BR BKN001 \n  PROB40 1722/1810 0300 FG BKN001 \n  BECMG 1810/1812 SCT006"
    },
    {
      "icao": "OJAI",
      "iata": "AMM",
      "name": "Queen Alia International Airport",
      "updatedAt": "171200Z",
      "visibility_m": 5000,
      "taf_visibility_m": 2000,
      "worst_visibility_m": 2000,
      "ceiling_ft": 3000,
      "hazards": [
        "BR",
        "TSRA",
        "RA",
        "TS"
      ],
      "severityScore": 72,
      "metarRaw": "METAR OJAI 171200Z 24006KT 5000 HZ NSC 14/03 Q1017 NOSIG",
      "tafRaw": "TAF OJAI 171100Z 1712/1818 28010KT 5000 HZ SCT035 \n  TEMPO 1807/1818 23016KT 3000 RA BR SCT025TCU BKN035 \n  PROB30 \n  TEMPO 1809/1816 27015G25KT 2000 TSRA FEW020CB BKN030"
    },
    {
      "icao": "LPPS",
      "iata": "PXO",
      "name": "Porto Santo Airport",
      "updatedAt": "171230Z",
      "visibility_m": 10000,
      "taf_visibility_m": 3000,
      "worst_visibility_m": 3000,
      "ceiling_ft": 800,
      "hazards": [
        "BR",
        "SHRA",
        "RA",
        "DZ"
      ],
      "severityScore": 71,
      "metarRaw": "METAR LPPS 171230Z 34016G26KT 9999 SCT015 17/10 Q1022",
      "tafRaw": "TAF LPPS 171100Z 1712/1818 34018KT 9999 SCT015 \n  BECMG 1716/1718 30018KT SCT015 BKN030 \n  TEMPO 1718/1803 31023G35KT 3000 RADZ BR SCT004 BKN008 \n  PROB30 \n  TEMPO 1722/1803 31028G40KT \n  BECMG 1803/1805 36018KT SCT015 \n  TEMPO 1805/1812 36020G32KT 8000 SHRA BKN012"
    },
    {
      "icao": "LPPT",
      "iata": "LIS",
      "name": "Lisbon Humberto Delgado Airport",
      "updatedAt": "171230Z",
      "visibility_m": 10000,
      "taf_visibility_m": 2000,
      "worst_visibility_m": 2000,
      "ceiling_ft": 300,
      "hazards": [
        "BR",
        "SHRA",
        "RA"
      ],
      "severityScore": 71,
      "metarRaw": "METAR LPPT 171230Z 29007KT 260V330 9999 FEW015 FEW024CB SCT030 12/06 Q1012",
      "tafRaw": "TAF LPPT 171100Z 1712/1818 29007KT 9999 SCT020 \n  TEMPO 1712/1724 8000 SHRA SCT015 FEW025CB BKN030 \n  BECMG 1718/1720 34007KT \n  BECMG 1804/1806 04007KT SCT004 \n  PROB30 \n  TEMPO 1806/1809 2000 BR BKN003 \n  BECMG 1810/1812 SCT030"
    },
    {
      "icao": "UGKO",
      "iata": "KUT",
      "name": "David the Builder Kutaisi International Airport",
      "updatedAt": "171230Z",
      "visibility_m": 10000,
      "taf_visibility_m": 2000,
      "worst_visibility_m": 2000,
      "ceiling_ft": 1900,
      "hazards": [
        "RA",
        "BR",
        "SHRA",
        "SN"
      ],
      "severityScore": 66,
      "metarRaw": "METAR UGKO 171230Z 11003KT 9999 -RA BKN019 OVC042 04/02 Q1022 NOSIG",
      "tafRaw": "TAF UGKO 171100Z 1712/1812 25007KT 9999 SCT012 OVC040 TX06/1811Z TN00/1803Z \n  TEMPO 1712/1716 4000 SHRA BKN015CB \n  TEMPO 1717/1724 2000 SNRA BR BKN008 OVC025 \n  TEMPO 1723/1805 08010KT"
    },
    {
      "icao": "LFOB",
      "iata": "BVA",
      "name": "Beauvais Tillé airport",
      "updatedAt": "171230Z",
      "visibility_m": 4000,
      "taf_visibility_m": 900,
      "worst_visibility_m": 900,
      "ceiling_ft": 600,
      "hazards": [
        "BR",
        "FG"
      ],
      "severityScore": 65,
      "metarRaw": "METAR LFOB 171230Z AUTO 08005KT 9999 OVC006 09/08 Q1016 TEMPO 4000 BR BECMG NSC",
      "tafRaw": "TAF LFOB 171100Z 1712/1812 11005KT 9999 OVC006 \n  TEMPO 1712/1714 4000 BR OVC004 \n  BECMG 1714/1716 CAVOK \n  BECMG 1718/1720 4000 BR \n  PROB30 1720/1810 0900 FG VV/// \n  BECMG 1810/1812 CAVOK"
    },
    {
      "icao": "EKCH",
      "iata": "CPH",
      "name": "Copenhagen Kastrup Airport",
      "updatedAt": "171250Z",
      "visibility_m": 1200,
      "taf_visibility_m": null,
      "worst_visibility_m": 1200,
      "ceiling_ft": 200,
      "hazards": [
        "BR"
      ],
      "severityScore": 60,
      "metarRaw": "METAR EKCH 171250Z 12012KT 1200 R22L/P1500N R04L/P1500N R12/P1500N BR BKN002 02/02 Q1027 BECMG 2000",
      "tafRaw": null
    },
    {
      "icao": "LPMA",
      "iata": "FNC",
      "name": "Madeira International Airport Cristiano Ronaldo",
      "updatedAt": "171230Z",
      "visibility_m": 10000,
      "taf_visibility_m": 5000,
      "worst_visibility_m": 5000,
      "ceiling_ft": 1300,
      "hazards": [
        "BR",
        "SHRA",
        "RA",
        "DZ"
      ],
      "severityScore": 58,
      "metarRaw": "METAR LPMA 171230Z 35013G23KT 250V050 9999 SCT015 18/09 Q1022",
      "tafRaw": "TAF LPMA 171100Z 1712/1812 33012KT 9999 SCT015 \n  PROB40 \n  TEMPO 1712/1715 34015G25KT 8000 SHRA BKN013 \n  BECMG 1715/1717 VRB05KT SCT015 BKN030 \n  TEMPO 1717/1809 5000 -RADZ BR SCT006 BKN013 \n  PROB30 \n  TEMPO 1717/1723 21012KT \n  BECMG 1723/1801 31018KT \n  BECMG 1801/1803 35018KT \n  TEMPO 1803/1812 35023G35KT"
    },
    {
      "icao": "LEZG",
      "iata": "ZAZ",
      "name": "Zaragoza Airport",
      "updatedAt": "171230Z",
      "visibility_m": 5000,
      "taf_visibility_m": 3000,
      "worst_visibility_m": 3000,
      "ceiling_ft": 300,
      "hazards": [
        "RA",
        "BR"
      ],
      "severityScore": 57,
      "metarRaw": "METAR LEZG 171230Z 32004KT 5000 RA BKN003 08/08 Q1008 NOSIG",
      "tafRaw": "TAF LEZG 171100Z 1712/1812 29007KT 6000 SCT005 TX09/1714Z TN05/1806Z \n  TEMPO 1712/1812 3000 RA BR BKN005"
    },
    {
      "icao": "LPPR",
      "iata": "OPO",
      "name": "Francisco de Sá Carneiro Airport",
      "updatedAt": "171230Z",
      "visibility_m": 10000,
      "taf_visibility_m": 3000,
      "worst_visibility_m": 3000,
      "ceiling_ft": 3000,
      "hazards": [
        "BR",
        "SHRA",
        "FG",
        "RA"
      ],
      "severityScore": 56,
      "metarRaw": "METAR LPPR 171230Z 13005KT 080V150 9999 FEW020 FEW023TCU SCT043 09/07 Q1011",
      "tafRaw": "TAF LPPR 171100Z 1712/1812 12007KT 9999 SCT020 BKN040 \n  TEMPO 1712/1720 5000 SHRA SCT012 FEW020CB BKN030 \n  BECMG 1713/1715 VRB05KT \n  BECMG 1722/1724 06007KT FEW012 \n  PROB30 \n  TEMPO 1800/1807 3000 BCFG BR SCT003"
    },
    {
      "icao": "LHBP",
      "iata": "BUD",
      "name": "Budapest Liszt Ferenc International Airport",
      "updatedAt": "171248Z",
      "visibility_m": 8000,
      "taf_visibility_m": 2000,
      "worst_visibility_m": 2000,
      "ceiling_ft": 800,
      "hazards": [
        "BR",
        "FG"
      ],
      "severityScore": 55,
      "metarRaw": "SPECI LHBP 171248Z 10006KT 8000 OVC008 02/00 Q1030 NOSIG",
      "tafRaw": "TAF LHBP 171115Z 1712/1812 09007KT 9999 BKN030 \n  PROB40 1712/1718 4000 BR BKN004 \n  BECMG 1716/1719 CAVOK \n  BECMG 1721/1724 VRB02KT \n  TEMPO 1801/1808 2000 MIFG BR \n  PROB40 1802/1812 BKN003"
    },
    {
      "icao": "EGGP",
      "iata": "LPL",
      "name": "Liverpool John Lennon Airport",
      "updatedAt": "171250Z",
      "visibility_m": 10000,
      "taf_visibility_m": 3000,
      "worst_visibility_m": 3000,
      "ceiling_ft": 1700,
      "hazards": [
        "RA",
        "FG",
        "DZ"
      ],
      "severityScore": 54,
      "metarRaw": "METAR EGGP 171250Z 16005KT 120V180 9999 FEW012 BKN017 07/05 Q1014",
      "tafRaw": "TAF EGGP 171057Z 1712/1812 14006KT 9999 SCT018 \n  PROB30 \n  TEMPO 1712/1721 BKN014 \n  TEMPO 1721/1808 6000 BKN010 \n  PROB40 \n  TEMPO 1802/1808 3000 MIFG BKN003 \n  TEMPO 1808/1812 7000 -RA BKN007 \n  PROB30 \n  TEMPO 1808/1812 4000 RA -RADZ BKN004"
    },
    {
      "icao": "LTFM",
      "iata": "IST",
      "name": "İstanbul Airport",
      "updatedAt": "171250Z",
      "visibility_m": 10000,
      "taf_visibility_m": 4000,
      "worst_visibility_m": 4000,
      "ceiling_ft": 2600,
      "hazards": [
        "SHRA",
        "SHSN",
        "SN",
        "RA"
      ],
      "severityScore": 54,
      "metarRaw": "METAR LTFM 171250Z 02020KT 9999 SCT014 BKN026 03/M00 Q1028 NOSIG",
      "tafRaw": "TAF LTFM 171040Z 1712/1818 03018KT 9999 SCT012 BKN026 \n  TEMPO 1713/1716 -SHRA \n  BECMG 1716/1719 -SHSNRA \n  TEMPO 1720/1724 4000 -SHSN BKN006 BKN020 \n  PROB40 \n  TEMPO 1800/1804 4000 -SHSN BKN006 BKN020 \n  BECMG 1807/1810 35024G36KT -SHSN BKN006 BKN020"
    },
    {
      "icao": "ENBR",
      "iata": "BGO",
      "name": "Bergen Airport, Flesland",
      "updatedAt": "171250Z",
      "visibility_m": 10000,
      "taf_visibility_m": 3000,
      "worst_visibility_m": 3000,
      "ceiling_ft": 500,
      "hazards": [
        "BR",
        "RA"
      ],
      "severityScore": 47,
      "metarRaw": "METAR ENBR 171250Z VRB02KT CAVOK 06/00 Q1024 NOSIG RMK WIND 1200FT 12012KT",
      "tafRaw": "TAF ENBR 171100Z 1712/1812 11008KT 9999 BKN025 \n  PROB30 \n  TEMPO 1802/1806 RA BKN014 \n  PROB30 1810/1812 3000 BR OVC005"
    },
    {
      "icao": "LJLJ",
      "iata": "LJU",
      "name": "Ljubljana Jože Pučnik Airport",
      "updatedAt": "171230Z",
      "visibility_m": 4000,
      "taf_visibility_m": 4000,
      "worst_visibility_m": 4000,
      "ceiling_ft": 700,
      "hazards": [
        "BR",
        "RA"
      ],
      "severityScore": 47,
      "metarRaw": "METAR LJLJ 171230Z VRB01KT 4000 BR FEW004 BKN007 OVC013 05/04 Q1024 NOSIG",
      "tafRaw": "TAF LJLJ 171100Z 1712/1812 VRB02KT 6000 FEW005 OVC012 \n  TEMPO 1712/1804 4000 -RA BR BKN004 OVC010"
    },
    {
      "icao": "EDDH",
      "iata": "HAM",
      "name": "Hamburg Helmut Schmidt Airport",
      "updatedAt": "171250Z",
      "visibility_m": 10000,
      "taf_visibility_m": 1400,
      "worst_visibility_m": 1400,
      "ceiling_ft": 800,
      "hazards": [
        "BR"
      ],
      "severityScore": 45,
      "metarRaw": "METAR EDDH 171250Z AUTO 12012KT 9999 BKN010 03/01 Q1023 BECMG BKN008",
      "tafRaw": "TAF EDDH 171100Z 1712/1818 12010KT 8000 NSC \n  BECMG 1712/1714 3500 BR BKN005 \n  TEMPO 1714/1810 1400 BR BKN002 \n  BECMG 1813/1816 CAVOK"
    },
    {
      "icao": "EDLW",
      "iata": "DTM",
      "name": "Dortmund Airport",
      "updatedAt": "171250Z",
      "visibility_m": 10000,
      "taf_visibility_m": 2500,
      "worst_visibility_m": 2500,
      "ceiling_ft": 200,
      "hazards": [
        "BR"
      ],
      "severityScore": 45,
      "metarRaw": "METAR EDLW 171250Z 09005KT CAVOK 13/04 Q1018",
      "tafRaw": "TAF EDLW 171100Z 1712/1812 09004KT CAVOK \n  PROB30 \n  TEMPO 1802/1809 2500 BR BKN002"
    },
    {
      "icao": "EDNY",
      "iata": "FDH",
      "name": "Friedrichshafen Airport",
      "updatedAt": "171250Z",
      "visibility_m": 10000,
      "taf_visibility_m": 3000,
      "worst_visibility_m": 3000,
      "ceiling_ft": 400,
      "hazards": [
        "BR"
      ],
      "severityScore": 45,
      "metarRaw": "METAR EDNY 171250Z COR 04006KT CAVOK 03/00 Q1018",
      "tafRaw": "TAF EDNY 171100Z 1712/1721 03006KT CAVOK \n  BECMG 1717/1719 OVC005 \n  PROB30 \n  TEMPO 1719/1721 3000 BR OVC004"
    },
    {
      "icao": "LEMD",
      "iata": "MAD",
      "name": "Adolfo Suárez Madrid–Barajas Airport",
      "updatedAt": "171230Z",
      "visibility_m": 10000,
      "taf_visibility_m": 4000,
      "worst_visibility_m": 4000,
      "ceiling_ft": 1400,
      "hazards": [
        "BR",
        "RA",
        "DZ"
      ],
      "severityScore": 44,
      "metarRaw": "METAR LEMD 171230Z VRB01KT 9999 SCT008 BKN014 03/03 Q1008 NOSIG",
      "tafRaw": "TAF LEMD 171100Z 1712/1818 VRB04KT 9999 SCT035 TX05/1714Z TNM00/1808Z \n  TEMPO 1712/1714 RA DZRA BKN010 \n  PROB40 \n  TEMPO 1715/1722 DZRA \n  PROB40 \n  TEMPO 1718/1723 4000 BR BKN010 \n  TEMPO 1723/1809 4000 BR BKN005 BKN010"
    },
    {
      "icao": "EKBI",
      "iata": "BLL",
      "name": "Billund Airport",
      "updatedAt": "171250Z",
      "visibility_m": 3800,
      "taf_visibility_m": null,
      "worst_visibility_m": 3800,
      "ceiling_ft": 500,
      "hazards": [
        "BR"
      ],
      "severityScore": 40,
      "metarRaw": "METAR EKBI 171250Z 10008KT 3800 BR BKN005 04/04 Q1024",
      "tafRaw": null
    },
    {
      "icao": "EPSC",
      "iata": "SZZ",
      "name": "Solidarity Szczecin–Goleniów Airport",
      "updatedAt": "171230Z",
      "visibility_m": 7000,
      "taf_visibility_m": null,
      "worst_visibility_m": 7000,
      "ceiling_ft": 300,
      "hazards": [],
      "severityScore": 40,
      "metarRaw": "METAR EPSC 171230Z 12010KT 7000 BKN003 OVC004 01/01 Q1027",
      "tafRaw": null
    },
    {
      "icao": "UAAA",
      "iata": "ALA",
      "name": "Almaty International Airport",
      "updatedAt": "171230Z",
      "visibility_m": 5000,
      "taf_visibility_m": 1200,
      "worst_visibility_m": 1200,
      "ceiling_ft": 3300,
      "hazards": [
        "BR",
        "SN"
      ],
      "severityScore": 38,
      "metarRaw": "METAR UAAA 171230Z VRB01MPS 5000 -SN BR OVC033 M18/M21 Q1032 NOSIG",
      "tafRaw": "TAF UAAA 171102Z 1712/1812 33003MPS 3100 BR BKN011CB OVC020 TXM15/1808Z TNM22/1803Z \n  TEMPO 1712/1724 1200 -SN BR BKN005 OVC011 \n  BECMG 1804/1805 6000 NSW \n  TEMPO 1804/1812 02003G08MPS 3100 BR BKN008 OVC011"
    },
    {
      "icao": "UDSG",
      "iata": "LWN",
      "name": "Shirak International Airport",
      "updatedAt": "171230Z",
      "visibility_m": 10000,
      "taf_visibility_m": 1000,
      "worst_visibility_m": 1000,
      "ceiling_ft": 4000,
      "hazards": [
        "BR",
        "SN"
      ],
      "severityScore": 38,
      "metarRaw": "METAR UDSG 171230Z 00000KT 9999 BKN040 M06/M09 Q1018 NOSIG",
      "tafRaw": "TAF UDSG 171100Z 1712/1812 VRB06KT 3000 BR BKN020 \n  TEMPO 1712/1721 1000 SN BR OVC010"
    },
    {
      "icao": "UDYZ",
      "iata": "EVN",
      "name": "Zvartnots International Airport",
      "updatedAt": "171230Z",
      "visibility_m": 10000,
      "taf_visibility_m": 2300,
      "worst_visibility_m": 2300,
      "ceiling_ft": null,
      "hazards": [
        "BR",
        "SHSN",
        "SN"
      ],
      "severityScore": 38,
      "metarRaw": "METAR UDYZ 171230Z VRB02KT 9999 FEW046 02/M08 Q1020 NOSIG",
      "tafRaw": "TAF UDYZ 171100Z 1712/1812 VRB06KT 6000 SCT040 \n  TEMPO 1718/1724 2300 -SHSN BR BKN020CB"
    },
    {
      "icao": "LGTS",
      "iata": "SKG",
      "name": "Thessaloniki Macedonia International Airport",
      "updatedAt": "171250Z",
      "visibility_m": 10000,
      "taf_visibility_m": 5000,
      "worst_visibility_m": 5000,
      "ceiling_ft": 3000,
      "hazards": [
        "TS",
        "RA"
      ],
      "severityScore": 37,
      "metarRaw": "METAR LGTS 171250Z VRB02KT 9999 FEW012 BKN030 07/01 Q1028 NOSIG",
      "tafRaw": "TAF LGTS 171100Z 1712/1812 VRB03KT 9999 FEW012 BKN025 \n  PROB30 1712/1716 5000 RA \n  BECMG 1722/1724 14013KT"
    },
    {
      "icao": "EYKA",
      "iata": "KUN",
      "name": "Kaunas International Airport",
      "updatedAt": "171250Z",
      "visibility_m": 10000,
      "taf_visibility_m": 5000,
      "worst_visibility_m": 5000,
      "ceiling_ft": 500,
      "hazards": [
        "BR"
      ],
      "severityScore": 35,
      "metarRaw": "METAR EYKA 171250Z 16008KT 130V220 CAVOK M06/M14 Q1038",
      "tafRaw": "TAF EYKA 171101Z 1712/1812 16010KT 9000 NSC \n  TEMPO 1722/1806 5000 BR BKN005"
    },
    {
      "icao": "EYVI",
      "iata": "VNO",
      "name": "Vilnius International Airport",
      "updatedAt": "171250Z",
      "visibility_m": 10000,
      "taf_visibility_m": 5000,
      "worst_visibility_m": 5000,
      "ceiling_ft": 500,
      "hazards": [
        "BR"
      ],
      "severityScore": 35,
      "metarRaw": "METAR EYVI 171250Z 17009KT CAVOK M08/M14 Q1038 NOSIG",
      "tafRaw": "TAF EYVI 171102Z 1712/1812 17008KT 9000 NSC \n  TEMPO 1721/1806 5000 BR BKN005"
    },
    {
      "icao": "LEBB",
      "iata": "BIO",
      "name": "Bilbao Airport",
      "updatedAt": "171230Z",
      "visibility_m": 3000,
      "taf_visibility_m": 3000,
      "worst_visibility_m": 3000,
      "ceiling_ft": 1000,
      "hazards": [
        "RA",
        "BR"
      ],
      "severityScore": 34,
      "metarRaw": "METAR LEBB 171230Z VRB02KT 6000 -RA FEW009 SCT041 BKN053 08/08 Q1010 RERA TEMPO 3000 RA BKN010",
      "tafRaw": "TAF LEBB 171100Z 1712/1812 31008KT 9000 SCT010 BKN020 TX11/1812Z TN07/1803Z \n  PROB40 \n  TEMPO 1712/1723 3000 RA BKN010 \n  PROB40 \n  TEMPO 1723/1806 10010KT 3000 RA BR BKN010 \n  PROB30 \n  TEMPO 1806/1812 3000 RA BKN010"
    },
    {
      "icao": "LIMC",
      "iata": "MXP",
      "name": "Milan Malpensa International Airport",
      "updatedAt": "171250Z",
      "visibility_m": 10000,
      "taf_visibility_m": 1200,
      "worst_visibility_m": 1200,
      "ceiling_ft": 3000,
      "hazards": [
        "RA",
        "BR"
      ],
      "severityScore": 32,
      "metarRaw": "METAR LIMC 171250Z 35007KT 9999 -RA BKN030 08/07 Q1022 NOSIG",
      "tafRaw": "TAF LIMC 171100Z 1712/1818 VRB05KT 3000 BR BKN020 \n  TEMPO 1712/1802 1200 -RA BKN005 \n  TEMPO 1809/1815 1500 -RA"
    },
    {
      "icao": "LWSK",
      "iata": "SKP",
      "name": "Skopje International Airport",
      "updatedAt": "171250Z",
      "visibility_m": 6000,
      "taf_visibility_m": 1500,
      "worst_visibility_m": 1500,
      "ceiling_ft": 1300,
      "hazards": [
        "BR"
      ],
      "severityScore": 32,
      "metarRaw": "METAR LWSK 171250Z 09002KT 6000 BKN013 OVC023 04/01 Q1027 NOSIG",
      "tafRaw": "TAF LWSK 171120Z 1712/1812 VRB02KT 5000 BR SCT015 OVC025 \n  TEMPO 1712/1716 1500"
    },
    {
      "icao": "LECH",
      "iata": "CDT",
      "name": "Castellón-Costa Azahar Airport",
      "updatedAt": "171230Z",
      "visibility_m": 4600,
      "taf_visibility_m": null,
      "worst_visibility_m": 4600,
      "ceiling_ft": 5000,
      "hazards": [
        "BR",
        "RA"
      ],
      "severityScore": 27,
      "metarRaw": "METAR LECH 171230Z AUTO VRB02KT 4600 -RA BR SCT017 SCT043 BKN050 10/09 Q1007",
      "tafRaw": null
    },
    {
      "icao": "GMAD",
      "iata": "AGA",
      "name": "Al Massira Airport",
      "updatedAt": "171230Z",
      "visibility_m": 10000,
      "taf_visibility_m": 4000,
      "worst_visibility_m": 4000,
      "ceiling_ft": 8000,
      "hazards": [
        "SHRA",
        "RA"
      ],
      "severityScore": 26,
      "metarRaw": "METAR GMAD 171230Z 27014KT 9999 FEW026 SCT033 BKN080 17/09 Q1016 NOSIG",
      "tafRaw": "TAF GMAD 171100Z 1712/1818 28014KT 6000 SCT008 BKN020 \n  TEMPO 1721/1812 4000 SHRA SCT016TCU FEW030CB"
    },
    {
      "icao": "GMMX",
      "iata": "RAK",
      "name": "Menara Airport",
      "updatedAt": "171230Z",
      "visibility_m": 10000,
      "taf_visibility_m": 3000,
      "worst_visibility_m": 3000,
      "ceiling_ft": 2600,
      "hazards": [
        "RA",
        "SHRA"
      ],
      "severityScore": 26,
      "metarRaw": "METAR GMMX 171230Z 24010KT 210V280 9999 BKN026 SCT080 13/06 Q1016 NOSIG",
      "tafRaw": "TAF GMMX 171100Z 1712/1818 26007KT 8000 BKN026 SCT080 \n  TEMPO 1715/1722 34018KT 4000 RA SCT016 BKN023 FEW030TCU \n  TEMPO 1807/1818 02015G28KT 3000 SHRA BKN020 SCT030TCU"
    },
    {
      "icao": "LCLK",
      "iata": "LCA",
      "name": "Larnaca International Airport",
      "updatedAt": "171230Z",
      "visibility_m": 10000,
      "taf_visibility_m": 5000,
      "worst_visibility_m": 5000,
      "ceiling_ft": 6000,
      "hazards": [
        "SHRA",
        "RA"
      ],
      "severityScore": 26,
      "metarRaw": "METAR LCLK 171230Z 04008KT 9999 FEW023 SCT030 BKN060 17/12 Q1015 NOSIG",
      "tafRaw": "TAF LCLK 171130Z 1712/1812 15010KT 9999 SCT025 \n  PROB30 \n  TEMPO 1712/1718 5000 SHRA SCT020TCU \n  BECMG 1713/1717 02009KT"
    },
    {
      "icao": "LCPH",
      "iata": "PFO",
      "name": "Paphos International Airport",
      "updatedAt": "171230Z",
      "visibility_m": 10000,
      "taf_visibility_m": 5000,
      "worst_visibility_m": 5000,
      "ceiling_ft": null,
      "hazards": [
        "SHRA",
        "RA"
      ],
      "severityScore": 26,
      "metarRaw": "METAR LCPH 171230Z 33010KT 9999 FEW025 17/10 Q1015 NOSIG",
      "tafRaw": "TAF LCPH 171130Z 1712/1812 29012KT 9999 SCT025 \n  PROB30 \n  TEMPO 1712/1812 5000 SHRA SCT020TCU \n  BECMG 1715/1719 02009KT"
    },
    {
      "icao": "LEAL",
      "iata": "ALC",
      "name": "Alicante-Elche Miguel Hernández Airport",
      "updatedAt": "171230Z",
      "visibility_m": 10000,
      "taf_visibility_m": 3000,
      "worst_visibility_m": 3000,
      "ceiling_ft": null,
      "hazards": [
        "RA",
        "SHRA"
      ],
      "severityScore": 26,
      "metarRaw": "METAR LEAL 171230Z 29009KT 260V320 CAVOK 15/07 Q1008 NOSIG",
      "tafRaw": "TAF LEAL 171100Z 1712/1812 30008KT 9999 FEW020 TX15/1712Z TN07/1806Z \n  TEMPO 1712/1722 VRB04KT 3000 RA SHRA FEW040TCU"
    },
    {
      "icao": "LEXJ",
      "iata": "SDR",
      "name": "Seve Ballesteros-Santander Airport",
      "updatedAt": "171230Z",
      "visibility_m": 10000,
      "taf_visibility_m": 3000,
      "worst_visibility_m": 3000,
      "ceiling_ft": 4200,
      "hazards": [
        "SHRA",
        "RA"
      ],
      "severityScore": 26,
      "metarRaw": "METAR LEXJ 171230Z 24003KT 210V280 9999 FEW030 BKN042 10/07 Q1011",
      "tafRaw": "TAF LEXJ 170800Z 1709/1809 22007KT 9999 BKN040 TX10/1712Z TN07/1724Z \n  TEMPO 1714/1802 3000 SHRA BKN010 SCT020TCU \n  PROB40 \n  TEMPO 1802/1807 3000 SHRA SCT020TCU \n  PROB40 1715/1717 31010KT"
    },
    {
      "icao": "LPFR",
      "iata": "FAO",
      "name": "Faro Airport",
      "updatedAt": "171230Z",
      "visibility_m": 10000,
      "taf_visibility_m": 8000,
      "worst_visibility_m": 8000,
      "ceiling_ft": 3500,
      "hazards": [
        "SHRA",
        "RA"
      ],
      "severityScore": 26,
      "metarRaw": "METAR LPFR 171230Z 26010KT 9999 FEW015 FEW025TCU 13/08 Q1013",
      "tafRaw": "TAF LPFR 171100Z 1712/1812 29005KT 9999 SCT030 \n  TEMPO 1712/1810 8000 SHRA SCT015 FEW025CB BKN035 \n  BECMG 1713/1715 25010KT \n  BECMG 1717/1719 30008KT \n  BECMG 1723/1801 VRB02KT \n  BECMG 1809/1811 03010KT"
    },
    {
      "icao": "UBBB",
      "iata": "GYD",
      "name": "Heydar Aliyev International Airport",
      "updatedAt": "171230Z",
      "visibility_m": 10000,
      "taf_visibility_m": 5000,
      "worst_visibility_m": 5000,
      "ceiling_ft": 3700,
      "hazards": [
        "SHRA",
        "RA"
      ],
      "severityScore": 26,
      "metarRaw": "METAR UBBB 171230Z 31010KT 9999 OVC037 06/03 Q1024 NOSIG",
      "tafRaw": "TAF UBBB 171049Z 1712/1812 33010KT 9999 SCT012 BKN025 TX06/1712Z TN02/1801Z \n  TEMPO 1712/1715 01012KT BKN018 \n  TEMPO 1718/1804 36008KT 5000 -SHRA SCT012 SCT030CB OVC030 \n  BECMG 1804/1806 08005KT \n  TEMPO 1806/1812 06012KT BKN030"
    },
    {
      "icao": "BKPR",
      "iata": "PRN",
      "name": "Priština Adem Jashari International Airport",
      "updatedAt": null,
      "visibility_m": null,
      "taf_visibility_m": 10000,
      "worst_visibility_m": 10000,
      "ceiling_ft": 600,
      "hazards": [],
      "severityScore": 25,
      "metarRaw": null,
      "tafRaw": "TAF BKPR 171130Z 1712/1812 35008KT 9999 SCT015 BKN030 \n  TEMPO 1712/1718 BKN006 BKN020"
    },
    {
      "icao": "GCTS",
      "iata": "TFS",
      "name": "Tenerife Sur Airport",
      "updatedAt": "171230Z",
      "visibility_m": 10000,
      "taf_visibility_m": 10000,
      "worst_visibility_m": 10000,
      "ceiling_ft": 5000,
      "hazards": [
        "TS"
      ],
      "severityScore": 25,
      "metarRaw": "METAR GCTS 171230Z 24012KT 210V280 9999 FEW035 BKN050 21/12 Q1023 NOSIG",
      "tafRaw": "TAF GCTS 170800Z 1709/1809 VRB04KT 9999 FEW035 TX22/1714Z TN15/1806Z \n  PROB40 \n  TEMPO 1710/1719 24010KT \n  PROB40 \n  TEMPO 1713/1717 10010KT"
    },
    {
      "icao": "EDDN",
      "iata": "NUE",
      "name": "Nuremberg Airport",
      "updatedAt": "171250Z",
      "visibility_m": 10000,
      "taf_visibility_m": 10000,
      "worst_visibility_m": 10000,
      "ceiling_ft": 900,
      "hazards": [],
      "severityScore": 25,
      "metarRaw": "METAR EDDN 171250Z AUTO 09008KT 060V130 9999 OVC010 01/M01 Q1021 TEMPO OVC009",
      "tafRaw": "TAF EDDN 171100Z 1712/1812 13005KT 9999 OVC009 \n  TEMPO 1712/1718 OVC012 \n  TEMPO 1810/1812 FEW009"
    },
    {
      "icao": "EYPA",
      "iata": "PLQ",
      "name": "Palanga International Airport",
      "updatedAt": "171250Z",
      "visibility_m": 9000,
      "taf_visibility_m": 9000,
      "worst_visibility_m": 9000,
      "ceiling_ft": 600,
      "hazards": [],
      "severityScore": 25,
      "metarRaw": "METAR EYPA 171250Z 15009KT 9000 OVC006 M06/M08 Q1034",
      "tafRaw": "TAF EYPA 171101Z 1712/1812 15011KT 9000 BKN010 \n  BECMG 1712/1714 NSC"
    },
    {
      "icao": "LHDC",
      "iata": "DEB",
      "name": "Debrecen International Airport",
      "updatedAt": "171215Z",
      "visibility_m": 10000,
      "taf_visibility_m": 10000,
      "worst_visibility_m": 10000,
      "ceiling_ft": 500,
      "hazards": [],
      "severityScore": 25,
      "metarRaw": "METAR LHDC 171215Z AUTO 05007KT 020V080 CAVOK 03/M05 Q1030 NOSIG",
      "tafRaw": "TAF LHDC 171115Z 1712/1721 06005KT 9999 BKN005 \n  BECMG 1712/1715 CAVOK"
    },
    {
      "icao": "LUKK",
      "iata": "RMO",
      "name": "Chişinău International Airport",
      "updatedAt": "171230Z",
      "visibility_m": 10000,
      "taf_visibility_m": 10000,
      "worst_visibility_m": 10000,
      "ceiling_ft": 800,
      "hazards": [],
      "severityScore": 25,
      "metarRaw": "METAR LUKK 171230Z 01008KT 330V060 9999 FEW031 M10/M15 Q1035 NOSIG",
      "tafRaw": "TAF LUKK 171108Z 1712/1812 01009KT 9999 BKN020 \n  TEMPO 1803/1809 BKN008"
    },
    {
      "icao": "ENZV",
      "iata": "SVG",
      "name": "Stavanger Airport, Sola",
      "updatedAt": "171250Z",
      "visibility_m": 10000,
      "taf_visibility_m": 10000,
      "worst_visibility_m": 10000,
      "ceiling_ft": 1400,
      "hazards": [
        "RA"
      ],
      "severityScore": 24,
      "metarRaw": "METAR ENZV 171250Z 00000KT CAVOK 03/01 Q1024 NOSIG",
      "tafRaw": "TAF ENZV 171100Z 1712/1812 12008KT 9999 FEW020 BKN040 \n  PROB30 \n  TEMPO 1717/1724 RA BKN014"
    },
    {
      "icao": "BIKF",
      "iata": "KEF",
      "name": "Keflavik International Airport",
      "updatedAt": "171230Z",
      "visibility_m": 10000,
      "taf_visibility_m": 4000,
      "worst_visibility_m": 4000,
      "ceiling_ft": 27000,
      "hazards": [
        "RA",
        "DZ"
      ],
      "severityScore": 22,
      "metarRaw": "METAR BIKF 171230Z 10013KT 9999 SCT021 BKN270 03/00 Q1011",
      "tafRaw": "TAF BIKF 171053Z 1712/1812 12012KT 9999 BKN020 TX07/1801Z TN01/1712Z \n  TEMPO 1712/1721 BKN008 \n  BECMG 1713/1715 12022G32KT \n  BECMG 1717/1719 13030G52KT \n  BECMG 1800/1802 4000 RADZ BKN008 OVC012"
    },
    {
      "icao": "LOWW",
      "iata": "VIE",
      "name": "Vienna International Airport",
      "updatedAt": "171250Z",
      "visibility_m": 10000,
      "taf_visibility_m": 4000,
      "worst_visibility_m": 4000,
      "ceiling_ft": 1500,
      "hazards": [
        "BR"
      ],
      "severityScore": 22,
      "metarRaw": "METAR LOWW 171250Z 13019KT 9999 FEW011 BKN015 02/M01 Q1027 NOSIG",
      "tafRaw": "TAF LOWW 171115Z 1712/1818 13012KT 9000 BKN020 TX01/1712Z TNM03/1818Z \n  PROB30 1712/1713 BKN012 \n  TEMPO 1712/1716 12016G26KT \n  TEMPO 1808/1812 4000 BR FEW006 BKN012"
    },
    {
      "icao": "LQTZ",
      "iata": "TZL",
      "name": "Tuzla International Airport",
      "updatedAt": "171230Z",
      "visibility_m": 10000,
      "taf_visibility_m": 4000,
      "worst_visibility_m": 4000,
      "ceiling_ft": 1000,
      "hazards": [
        "BR"
      ],
      "severityScore": 22,
      "metarRaw": "METAR LQTZ 171230Z 12004KT 100V160 CAVOK 05/02 Q1025",
      "tafRaw": "TAF LQTZ 171100Z 1712/1812 12005KT 9999 SCT015 BKN025 TX06/1713Z TNM03/1805Z \n  PROB40 1723/1807 4000 BR BKN010"
    },
    {
      "icao": "LRSV",
      "iata": "SCV",
      "name": "Suceava Stefan cel Mare Airport",
      "updatedAt": "171230Z",
      "visibility_m": 10000,
      "taf_visibility_m": 5000,
      "worst_visibility_m": 5000,
      "ceiling_ft": 1500,
      "hazards": [
        "BR"
      ],
      "severityScore": 22,
      "metarRaw": "METAR LRSV 171230Z 05009KT CAVOK M10/M13 Q1033",
      "tafRaw": "TAF LRSV 171100Z 1712/1721 36008KT CAVOK \n  BECMG 1718/1720 5000 BR BKN015 BKN030"
    },
    {
      "icao": "EHBK",
      "iata": "MST",
      "name": "Maastricht Aachen Airport",
      "updatedAt": "171225Z",
      "visibility_m": 10000,
      "taf_visibility_m": 7000,
      "worst_visibility_m": 7000,
      "ceiling_ft": null,
      "hazards": [
        "FG"
      ],
      "severityScore": 20,
      "metarRaw": "METAR EHBK 171225Z AUTO 11006KT 9999 NSC 12/07 Q1017 NOSIG",
      "tafRaw": "TAF EHBK 171113Z 1712/1818 12006KT CAVOK \n  PROB30 1718/1805 7000 MIFG"
    },
    {
      "icao": "LIRP",
      "iata": "PSA",
      "name": "Pisa International Airport",
      "updatedAt": "171245Z",
      "visibility_m": 10000,
      "taf_visibility_m": 5000,
      "worst_visibility_m": 5000,
      "ceiling_ft": null,
      "hazards": [
        "FG"
      ],
      "severityScore": 20,
      "metarRaw": "METAR LIRP 171245Z 11008KT CAVOK 15/08 Q1018 NOSIG",
      "tafRaw": "TAF LIRP 171100Z 1712/1812 12011KT CAVOK \n  PROB30 \n  TEMPO 1805/1807 10006KT 5000 MIFG NSC"
    },
    {
      "icao": "LTAC",
      "iata": "ESB",
      "name": "Esenboğa International Airport",
      "updatedAt": "171250Z",
      "visibility_m": 10000,
      "taf_visibility_m": 10000,
      "worst_visibility_m": 10000,
      "ceiling_ft": 3000,
      "hazards": [
        "SN"
      ],
      "severityScore": 18,
      "metarRaw": "METAR LTAC 171250Z 33006KT 290V350 9999 SCT040 01/M09 Q1020 NOSIG",
      "tafRaw": "TAF LTAC 171040Z 1712/1812 VRB02KT 9999 SCT040 SCT100 \n  TEMPO 1712/1716 34012KT \n  TEMPO 1800/1804 -SN BKN030 BKN080"
    },
    {
      "icao": "EGPF",
      "iata": "GLA",
      "name": "Glasgow Airport",
      "updatedAt": "171250Z",
      "visibility_m": 10000,
      "taf_visibility_m": null,
      "worst_visibility_m": 10000,
      "ceiling_ft": 4500,
      "hazards": [
        "RA"
      ],
      "severityScore": 17,
      "metarRaw": "METAR EGPF 171250Z AUTO 05003KT 020V110 9999 -RA OVC045 06/05 Q1015",
      "tafRaw": null
    },
    {
      "icao": "GCLP",
      "iata": "LPA",
      "name": "Gran Canaria Airport",
      "updatedAt": "171230Z",
      "visibility_m": 10000,
      "taf_visibility_m": 10000,
      "worst_visibility_m": 10000,
      "ceiling_ft": null,
      "hazards": [
        "RA"
      ],
      "severityScore": 12,
      "metarRaw": "METAR GCLP 171230Z 33017KT 300V010 9999 SCT030 20/12 Q1022 NOSIG",
      "tafRaw": "TAF GCLP 170800Z 1709/1809 36017KT 9999 SCT030 TX20/1714Z TN15/1806Z \n  PROB30 \n  TEMPO 1709/1711 35007KT \n  PROB40 \n  TEMPO 1710/1719 35020G30KT \n  PROB30 \n  TEMPO 1710/1719 RA \n  PROB40 \n  TEMPO 1807/1809 34020G30KT"
    },
    {
      "icao": "GMMN",
      "iata": "CMN",
      "name": "Mohammed V International Airport",
      "updatedAt": "171230Z",
      "visibility_m": 10000,
      "taf_visibility_m": 4000,
      "worst_visibility_m": 4000,
      "ceiling_ft": 2300,
      "hazards": [
        "RA"
      ],
      "severityScore": 12,
      "metarRaw": "METAR GMMN 171230Z 23006KT 170V280 9999 BKN023 13/09 Q1016 NOSIG",
      "tafRaw": "TAF GMMN 171100Z 1712/1818 25010KT 8000 BKN023 \n  TEMPO 1712/1806 4000 RA SCT006 SCT016TCU BKN020"
    },
    {
      "icao": "EPRA",
      "iata": "RDO",
      "name": "Warsaw Radom Airport",
      "updatedAt": "171230Z",
      "visibility_m": 10000,
      "taf_visibility_m": 10000,
      "worst_visibility_m": 10000,
      "ceiling_ft": null,
      "hazards": [
        "RA"
      ],
      "severityScore": 12,
      "metarRaw": "METAR EPRA 171230Z 12011KT 090V150 CAVOK M02/M11 Q1032",
      "tafRaw": "TAF EPRA 171130Z 1712/1721 13010KT CAVOK"
    },
    {
      "icao": "LEVC",
      "iata": "VLC",
      "name": "Valencia Airport",
      "updatedAt": "171230Z",
      "visibility_m": 10000,
      "taf_visibility_m": 3000,
      "worst_visibility_m": 3000,
      "ceiling_ft": 4100,
      "hazards": [
        "RA"
      ],
      "severityScore": 12,
      "metarRaw": "METAR LEVC 171230Z 29004KT 9999 FEW025 OVC041 12/08 Q1008 NOSIG",
      "tafRaw": "TAF LEVC 171100Z 1712/1812 27008KT 9999 FEW020 TX13/1712Z TN04/1806Z \n  TEMPO 1712/1715 3000 RA BKN020"
    },
    {
      "icao": "LEZL",
      "iata": "SVQ",
      "name": "Sevilla Airport",
      "updatedAt": "171230Z",
      "visibility_m": 10000,
      "taf_visibility_m": 10000,
      "worst_visibility_m": 10000,
      "ceiling_ft": 2000,
      "hazards": [
        "RA"
      ],
      "severityScore": 12,
      "metarRaw": "METAR LEZL 171230Z VRB01KT 9999 SCT020 12/05 Q1013 NOSIG",
      "tafRaw": "TAF LEZL 170800Z 1709/1809 23005KT CAVOK TX14/1715Z TN04/1807Z \n  PROB30 \n  TEMPO 1801/1806 RA BKN020"
    },
    {
      "icao": "LFLS",
      "iata": "GNB",
      "name": "Grenoble Alpes Isère Airport",
      "updatedAt": "171230Z",
      "visibility_m": 4000,
      "taf_visibility_m": 4000,
      "worst_visibility_m": 4000,
      "ceiling_ft": 6000,
      "hazards": [
        "RA"
      ],
      "severityScore": 12,
      "metarRaw": "METAR LFLS 171230Z AUTO 09005KT 9999 -RA FEW052/// OVC062/// ///TCU 07/06 Q1016 TEMPO 4000 RA BECMG BKN060",
      "tafRaw": "TAF LFLS 170800Z 1709/1809 09009KT 9999 BKN060 \n  TEMPO 1709/1714 4000 RA"
    },
    {
      "icao": "LFMN",
      "iata": "NCE",
      "name": "Nice-Côte d'Azur Airport",
      "updatedAt": "171230Z",
      "visibility_m": 10000,
      "taf_visibility_m": 10000,
      "worst_visibility_m": 10000,
      "ceiling_ft": 8600,
      "hazards": [
        "RA"
      ],
      "severityScore": 12,
      "metarRaw": "METAR LFMN 171230Z 33008KT 9999 OVC086 13/09 Q1017 NOSIG",
      "tafRaw": "TAF LFMN 170800Z 1709/1815 35010KT 9999 BKN080 \n  TEMPO 1709/1713 RA \n  BECMG 1715/1718 09020G30KT \n  TEMPO 1718/1803 09025G35KT \n  TEMPO 1807/1815 RA"
    },
    {
      "icao": "LIBG",
      "iata": "TAR",
      "name": "Taranto-Grottaglie Marcello Arlotta Airport",
      "updatedAt": "171150Z",
      "visibility_m": 10000,
      "taf_visibility_m": 10000,
      "worst_visibility_m": 10000,
      "ceiling_ft": null,
      "hazards": [
        "RA"
      ],
      "severityScore": 12,
      "metarRaw": "METAR LIBG 171150Z 09007KT 9999 SCT025 16/15 Q1020",
      "tafRaw": "TAF LIBG 171100Z 1712/1721 08009KT 9999 FEW025 \n  TEMPO 1712/1715 RA"
    },
    {
      "icao": "LICC",
      "iata": "CTA",
      "name": "Catania-Fontanarossa Airport",
      "updatedAt": "171250Z",
      "visibility_m": 10000,
      "taf_visibility_m": 4000,
      "worst_visibility_m": 4000,
      "ceiling_ft": 7000,
      "hazards": [
        "RA"
      ],
      "severityScore": 12,
      "metarRaw": "METAR LICC 171250Z 07011KT 9999 SCT015 BKN070 15/14 Q1016",
      "tafRaw": "TAF LICC 171100Z 1712/1812 06012KT 8000 SCT020 BKN040 \n  TEMPO 1712/1812 4000 RA"
    },
    {
      "icao": "LIMF",
      "iata": "TRN",
      "name": "Turin Airport",
      "updatedAt": "171250Z",
      "visibility_m": 7000,
      "taf_visibility_m": 10000,
      "worst_visibility_m": 7000,
      "ceiling_ft": 3500,
      "hazards": [
        "RA"
      ],
      "severityScore": 12,
      "metarRaw": "METAR LIMF 171250Z 30003KT 7000 -RA OVC035 07/05 Q1023",
      "tafRaw": "TAF LIMF 171100Z 1712/1812 VRB03KT 9999 -RA BKN012 BKN040"
    },
    {
      "icao": "LRIA",
      "iata": "IAS",
      "name": "Iaşi Airport",
      "updatedAt": "171230Z",
      "visibility_m": 10000,
      "taf_visibility_m": 10000,
      "worst_visibility_m": 10000,
      "ceiling_ft": 1000,
      "hazards": [],
      "severityScore": 12,
      "metarRaw": "METAR LRIA 171230Z 32008KT CAVOK M10/M14 Q1036",
      "tafRaw": "TAF LRIA 171100Z 1712/1721 34008KT 9999 SCT020 \n  BECMG 1715/1717 OVC015 \n  TEMPO 1718/1721 BKN010 OVC020"
    },
    {
      "icao": "LRBC",
      "iata": "BCM",
      "name": "Bacău George Enescu International  Airport",
      "updatedAt": "171230Z",
      "visibility_m": 10000,
      "taf_visibility_m": 10000,
      "worst_visibility_m": 10000,
      "ceiling_ft": 1000,
      "hazards": [],
      "severityScore": 12,
      "metarRaw": "METAR LRBC 171230Z 36013KT CAVOK M06/M13 Q1035",
      "tafRaw": "TAF LRBC 171100Z 1712/1721 36008KT CAVOK \n  TEMPO 1717/1719 BKN015 \n  BECMG 1719/1721 BKN010 BKN025"
    },
    {
      "icao": "LRBS",
      "iata": "BBU",
      "name": "Bucharest Băneasa Aurel Vlaicu International Airport",
      "updatedAt": "171230Z",
      "visibility_m": 10000,
      "taf_visibility_m": 10000,
      "worst_visibility_m": 10000,
      "ceiling_ft": 1500,
      "hazards": [],
      "severityScore": 12,
      "metarRaw": "METAR LRBS 171230Z 25003KT 190V310 CAVOK M02/M09 Q1033 NOSIG",
      "tafRaw": "TAF LRBS 171100Z 1712/1812 VRB04KT CAVOK \n  BECMG 1716/1718 06010KT \n  PROB30 \n  TEMPO 1717/1720 BKN015 \n  TEMPO 1805/1810 BKN015 BKN030"
    },
    {
      "icao": "LROP",
      "iata": "OTP",
      "name": "Bucharest Henri Coandă International Airport",
      "updatedAt": "171230Z",
      "visibility_m": 10000,
      "taf_visibility_m": 10000,
      "worst_visibility_m": 10000,
      "ceiling_ft": 1500,
      "hazards": [],
      "severityScore": 12,
      "metarRaw": "METAR LROP 171230Z 28005KT CAVOK M02/M12 Q1033 NOSIG",
      "tafRaw": "TAF LROP 171100Z 1712/1812 VRB04KT CAVOK \n  BECMG 1716/1718 07011KT \n  PROB30 \n  TEMPO 1717/1720 BKN015 \n  TEMPO 1805/1810 BKN015 BKN030"
    },
    {
      "icao": "LWOH",
      "iata": "OHD",
      "name": "Ohrid St. Paul the Apostle Airport",
      "updatedAt": "171250Z",
      "visibility_m": 10000,
      "taf_visibility_m": 5000,
      "worst_visibility_m": 5000,
      "ceiling_ft": 3500,
      "hazards": [
        "RA"
      ],
      "severityScore": 12,
      "metarRaw": "METAR LWOH 171250Z 06009KT 9999 BKN035 08/03 Q1022",
      "tafRaw": "TAF LWOH 171120Z 1712/1812 VRB02KT 9999 BKN030 \n  PROB40 \n  TEMPO 1712/1716 5000 RA SCT010 OVC035"
    },
    {
      "icao": "GCFV",
      "iata": "FUE",
      "name": "Fuerteventura Airport",
      "updatedAt": "171230Z",
      "visibility_m": 10000,
      "taf_visibility_m": 10000,
      "worst_visibility_m": 10000,
      "ceiling_ft": null,
      "hazards": [
        "DZ"
      ],
      "severityScore": 10,
      "metarRaw": "METAR GCFV 171230Z 31014KT 280V340 9999 FEW035 20/10 Q1021",
      "tafRaw": "TAF GCFV 170800Z 1709/1809 34009KT 9999 SCT035 TX20/1714Z TN15/1806Z \n  PROB30 \n  TEMPO 1715/1718 DZ \n  BECMG 1805/1807 28017KT"
    },
    {
      "icao": "EHEH",
      "iata": "EIN",
      "name": "Eindhoven Airport",
      "updatedAt": "171225Z",
      "visibility_m": 10000,
      "taf_visibility_m": 4000,
      "worst_visibility_m": 4000,
      "ceiling_ft": 35000,
      "hazards": [
        "BR"
      ],
      "severityScore": 10,
      "metarRaw": "METAR EHEH 171225Z AUTO 14006KT 100V190 9999 SCT290 OVC350 12/07 Q1018 BLU NOSIG RMK TREND REMOTE BY EHWX",
      "tafRaw": "TAF EHEH 171122Z 1712/1818 14006KT CAVOK \n  BECMG 1714/1716 10004KT \n  PROB40 1717/1806 4000 BR"
    },
    {
      "icao": "HESX",
      "iata": "SPX",
      "name": "Sphinx International Airport",
      "updatedAt": "171200Z",
      "visibility_m": 10000,
      "taf_visibility_m": 2000,
      "worst_visibility_m": 2000,
      "ceiling_ft": null,
      "hazards": [
        "BR"
      ],
      "severityScore": 10,
      "metarRaw": "METAR HESX 171200Z 36007KT 9999 SCT020 19/08 Q1017 NOSIG",
      "tafRaw": "TAF HESX 171100Z 1712/1818 36010KT 9999 FEW025 \n  TEMPO 1800/1808 VRB03KT 2000 BR NSC"
    },
    {
      "icao": "LIBR",
      "iata": "BDS",
      "name": "Brindisi Airport",
      "updatedAt": "171250Z",
      "visibility_m": 10000,
      "taf_visibility_m": 7000,
      "worst_visibility_m": 7000,
      "ceiling_ft": null,
      "hazards": [
        "BR"
      ],
      "severityScore": 10,
      "metarRaw": "METAR LIBR 171250Z 04005KT CAVOK 14/12 Q1020",
      "tafRaw": "TAF LIBR 171100Z 1712/1812 12008KT 7000 SCT030 \n  BECMG 1806/1808 22010KT"
    },
    {
      "icao": "LIME",
      "iata": "BGY",
      "name": "Milan Bergamo Airport / Antonio Locatelli Air Base",
      "updatedAt": "171250Z",
      "visibility_m": 4500,
      "taf_visibility_m": 6000,
      "worst_visibility_m": 4500,
      "ceiling_ft": 7000,
      "hazards": [
        "BR"
      ],
      "severityScore": 10,
      "metarRaw": "METAR LIME 171250Z 25005KT 4500 BR FEW020 BKN070 09/07 Q1022 NOSIG",
      "tafRaw": "TAF LIME 171100Z 1712/1812 VRB04KT 6000 SCT050"
    },
    {
      "icao": "LIPX",
      "iata": "VRN",
      "name": "Verona Villafranca Valerio Catullo Airport",
      "updatedAt": "171250Z",
      "visibility_m": 5000,
      "taf_visibility_m": 6000,
      "worst_visibility_m": 5000,
      "ceiling_ft": null,
      "hazards": [
        "BR"
      ],
      "severityScore": 10,
      "metarRaw": "METAR LIPX 171250Z VRB02KT 5000 BR SCT060 10/07 Q1022",
      "tafRaw": "TAF LIPX 171100Z 1712/1812 VRB05KT 6000 SCT020"
    },
    {
      "icao": "LRTM",
      "iata": "TGM",
      "name": "Târgu Mureş Transilvania International Airport",
      "updatedAt": "171230Z",
      "visibility_m": 9000,
      "taf_visibility_m": 5000,
      "worst_visibility_m": 5000,
      "ceiling_ft": null,
      "hazards": [
        "BR"
      ],
      "severityScore": 10,
      "metarRaw": "METAR LRTM 171230Z 22004KT 9000 NSC M04/M09 Q1030",
      "tafRaw": "TAF LRTM 171100Z 1712/1721 VRB04KT CAVOK \n  BECMG 1718/1720 5000 BR"
    },
    {
      "icao": "LZTT",
      "iata": "TAT",
      "name": "Poprad-Tatry Airport",
      "updatedAt": "171230Z",
      "visibility_m": 10000,
      "taf_visibility_m": 4000,
      "worst_visibility_m": 4000,
      "ceiling_ft": null,
      "hazards": [
        "BR"
      ],
      "severityScore": 10,
      "metarRaw": "METAR LZTT 171230Z 17003KT 9999 FEW010 02/M02 Q1028 NOSIG",
      "tafRaw": "TAF LZTT 171115Z 1712/1812 VRB02KT 9999 FEW007 SCT013 \n  PROB30 \n  TEMPO 1712/1718 4000 BR SCT007"
    },
    {
      "icao": "LBPD",
      "iata": "PDV",
      "name": "Plovdiv International Airport",
      "updatedAt": "171230Z",
      "visibility_m": 10000,
      "taf_visibility_m": null,
      "worst_visibility_m": 10000,
      "ceiling_ft": null,
      "hazards": [],
      "severityScore": 5,
      "metarRaw": "METAR LBPD 171230Z AUTO 32004KT 250V040 9999 SCT025/// 01/M04 Q1030 NOSIG",
      "tafRaw": null
    },
    {
      "icao": "LFPO",
      "iata": "ORY",
      "name": "Paris-Orly Airport",
      "updatedAt": "171230Z",
      "visibility_m": 10000,
      "taf_visibility_m": null,
      "worst_visibility_m": 10000,
      "ceiling_ft": null,
      "hazards": [],
      "severityScore": 5,
      "metarRaw": "METAR LFPO 171230Z AUTO VRB02KT 9999 FEW008 SCT034 11/09 Q1015",
      "tafRaw": null
    },
    {
      "icao": "LQBK",
      "iata": "BNX",
      "name": "Banja Luka International Airport",
      "updatedAt": "171230Z",
      "visibility_m": 10000,
      "taf_visibility_m": null,
      "worst_visibility_m": 10000,
      "ceiling_ft": null,
      "hazards": [],
      "severityScore": 5,
      "metarRaw": "METAR LQBK 171230Z 33005KT 300V010 9999 FEW017 05/02 Q1026 NOSIG",
      "tafRaw": null
    },
    {
      "icao": "LRSM",
      "iata": "SUJ",
      "name": "Satu Mare International Airport",
      "updatedAt": "171230Z",
      "visibility_m": 10000,
      "taf_visibility_m": null,
      "worst_visibility_m": 10000,
      "ceiling_ft": null,
      "hazards": [],
      "severityScore": 5,
      "metarRaw": "METAR LRSM 171230Z AUTO 06008KT 9999 NCD 01/M06 Q1031",
      "tafRaw": null
    },
    {
      "icao": "LZIB",
      "iata": "BTS",
      "name": "M. R. Štefánik Airport",
      "updatedAt": "171230Z",
      "visibility_m": 10000,
      "taf_visibility_m": null,
      "worst_visibility_m": 10000,
      "ceiling_ft": 3700,
      "hazards": [],
      "severityScore": 5,
      "metarRaw": "METAR LZIB 171230Z 06009KT 9999 FEW010 BKN037 02/00 Q1029 NOSIG",
      "tafRaw": null
    },
    {
      "icao": "EBCI",
      "iata": "CRL",
      "name": "Brussels South Charleroi Airport",
      "updatedAt": "171250Z",
      "visibility_m": 10000,
      "taf_visibility_m": 10000,
      "worst_visibility_m": 10000,
      "ceiling_ft": null,
      "hazards": [],
      "severityScore": 0,
      "metarRaw": "METAR EBCI 171250Z 17007KT 130V190 9999 FEW022 12/06 Q1017 NOSIG",
      "tafRaw": "TAF EBCI 171103Z 1712/1818 11004KT 9999 FEW030"
    },
    {
      "icao": "EDDK",
      "iata": "CGN",
      "name": "Cologne Bonn Airport",
      "updatedAt": "171250Z",
      "visibility_m": 10000,
      "taf_visibility_m": 10000,
      "worst_visibility_m": 10000,
      "ceiling_ft": null,
      "hazards": [],
      "severityScore": 0,
      "metarRaw": "METAR EDDK 171250Z AUTO 12005KT 080V160 CAVOK 11/04 Q1019 NOSIG",
      "tafRaw": "TAF EDDK 171100Z 1712/1818 12007KT CAVOK"
    },
    {
      "icao": "ENAL",
      "iata": "AES",
      "name": "Ålesund Airport, Vigra",
      "updatedAt": "171220Z",
      "visibility_m": 10000,
      "taf_visibility_m": 10000,
      "worst_visibility_m": 10000,
      "ceiling_ft": null,
      "hazards": [],
      "severityScore": 0,
      "metarRaw": "METAR ENAL 171220Z 14007KT CAVOK 06/02 Q1025",
      "tafRaw": "TAF ENAL 171100Z 1712/1721 16008KT 9999 SCT050"
    },
    {
      "icao": "ENHD",
      "iata": "HAU",
      "name": "Haugesund Airport, Karmøy",
      "updatedAt": "171250Z",
      "visibility_m": 10000,
      "taf_visibility_m": 10000,
      "worst_visibility_m": 10000,
      "ceiling_ft": 4000,
      "hazards": [],
      "severityScore": 0,
      "metarRaw": "METAR ENHD 171250Z 09006KT CAVOK 05/01 Q1024",
      "tafRaw": "TAF ENHD 171100Z 1712/1721 11008KT 9999 FEW025 BKN040"
    },
    {
      "icao": "ENVA",
      "iata": "TRD",
      "name": "Trondheim Airport, Værnes",
      "updatedAt": "171250Z",
      "visibility_m": 10000,
      "taf_visibility_m": 10000,
      "worst_visibility_m": 10000,
      "ceiling_ft": 4000,
      "hazards": [],
      "severityScore": 0,
      "metarRaw": "METAR ENVA 171250Z 08004KT 9999 SCT051 03/02 Q1026 NOSIG RMK WIND 670FT 22005KT",
      "tafRaw": "TAF ENVA 171100Z 1712/1812 12008KT 9999 FEW020 BKN040"
    },
    {
      "icao": "EPLB",
      "iata": "LUZ",
      "name": "Lublin Airport",
      "updatedAt": "171230Z",
      "visibility_m": 10000,
      "taf_visibility_m": 10000,
      "worst_visibility_m": 10000,
      "ceiling_ft": null,
      "hazards": [],
      "severityScore": 0,
      "metarRaw": "METAR EPLB 171230Z 11010KT CAVOK M05/M12 Q1034",
      "tafRaw": "TAF EPLB 171130Z 1712/1812 12010KT CAVOK \n  PROB40 \n  TEMPO 1712/1722 13015G25KT"
    },
    {
      "icao": "EPMO",
      "iata": "WMI",
      "name": "Modlin Airport",
      "updatedAt": "171230Z",
      "visibility_m": 10000,
      "taf_visibility_m": 10000,
      "worst_visibility_m": 10000,
      "ceiling_ft": null,
      "hazards": [],
      "severityScore": 0,
      "metarRaw": "METAR EPMO 171230Z 10008KT CAVOK M02/M08 Q1033",
      "tafRaw": "TAF EPMO 171130Z 1712/1812 12010KT CAVOK \n  PROB40 \n  TEMPO 1712/1722 13015G25KT"
    },
    {
      "icao": "EPRZ",
      "iata": "RZE",
      "name": "Rzeszów-Jasionka Airport",
      "updatedAt": "171230Z",
      "visibility_m": 10000,
      "taf_visibility_m": 10000,
      "worst_visibility_m": 10000,
      "ceiling_ft": null,
      "hazards": [],
      "severityScore": 0,
      "metarRaw": "METAR EPRZ 171230Z 09015KT CAVOK M05/M11 Q1032",
      "tafRaw": "TAF EPRZ 171130Z 1712/1812 09012KT CAVOK"
    },
    {
      "icao": "EPSY",
      "iata": "SZY",
      "name": "Olsztyn-Mazury Airport",
      "updatedAt": "171230Z",
      "visibility_m": 10000,
      "taf_visibility_m": 10000,
      "worst_visibility_m": 10000,
      "ceiling_ft": null,
      "hazards": [],
      "severityScore": 0,
      "metarRaw": "METAR EPSY 171230Z 13005KT 070V170 CAVOK M05/M12 Q1034",
      "tafRaw": "TAF EPSY 171130Z 1712/1721 12008KT CAVOK"
    },
    {
      "icao": "EPWA",
      "iata": "WAW",
      "name": "Warsaw Chopin Airport",
      "updatedAt": "171230Z",
      "visibility_m": 10000,
      "taf_visibility_m": 10000,
      "worst_visibility_m": 10000,
      "ceiling_ft": null,
      "hazards": [],
      "severityScore": 0,
      "metarRaw": "METAR EPWA 171230Z 12012KT CAVOK M03/M10 Q1033 NOSIG",
      "tafRaw": "TAF EPWA 171130Z 1712/1812 12010KT CAVOK \n  PROB40 \n  TEMPO 1712/1722 13015G25KT"
    },
    {
      "icao": "HEGN",
      "iata": "HRG",
      "name": "Hurghada International Airport",
      "updatedAt": "171200Z",
      "visibility_m": 10000,
      "taf_visibility_m": 10000,
      "worst_visibility_m": 10000,
      "ceiling_ft": null,
      "hazards": [],
      "severityScore": 0,
      "metarRaw": "METAR HEGN 171200Z 36010KT CAVOK 21/06 Q1014 NOSIG",
      "tafRaw": "TAF HEGN 171100Z 1712/1818 02010KT CAVOK"
    },
    {
      "icao": "HEMA",
      "iata": "RMF",
      "name": "Marsa Alam International Airport",
      "updatedAt": "171200Z",
      "visibility_m": 10000,
      "taf_visibility_m": 10000,
      "worst_visibility_m": 10000,
      "ceiling_ft": null,
      "hazards": [],
      "severityScore": 0,
      "metarRaw": "METAR HEMA 171200Z 36012KT CAVOK 22/10 Q1014 NOSIG",
      "tafRaw": "TAF HEMA 171100Z 1712/1818 03010KT CAVOK"
    },
    {
      "icao": "HESH",
      "iata": "SSH",
      "name": "Sharm El Sheikh International Airport",
      "updatedAt": "171200Z",
      "visibility_m": 10000,
      "taf_visibility_m": 10000,
      "worst_visibility_m": 10000,
      "ceiling_ft": null,
      "hazards": [],
      "severityScore": 0,
      "metarRaw": "METAR HESH 171200Z 01008KT CAVOK 22/09 Q1014 NOSIG",
      "tafRaw": "TAF HESH 171100Z 1712/1818 04010KT CAVOK"
    },
    {
      "icao": "LATI",
      "iata": "TIA",
      "name": "Tirana International Airport Mother Teresa",
      "updatedAt": "171250Z",
      "visibility_m": 10000,
      "taf_visibility_m": 10000,
      "worst_visibility_m": 10000,
      "ceiling_ft": null,
      "hazards": [],
      "severityScore": 0,
      "metarRaw": "METAR LATI 171250Z VRB02KT CAVOK 18/00 Q1020 NOSIG",
      "tafRaw": "TAF LATI 171100Z 1712/1812 VRB05KT CAVOK TX17/1712Z TN00/1805Z"
    },
    {
      "icao": "LBSF",
      "iata": "SOF",
      "name": "Sofia Airport",
      "updatedAt": "171230Z",
      "visibility_m": 10000,
      "taf_visibility_m": 10000,
      "worst_visibility_m": 10000,
      "ceiling_ft": null,
      "hazards": [],
      "severityScore": 0,
      "metarRaw": "METAR LBSF 171230Z 10015KT 9999 FEW038 02/M05 Q1027 NOSIG",
      "tafRaw": "TAF LBSF 171100Z 1712/1812 10012KT 9999 SCT018 SCT030 \n  BECMG 1721/1723 VRB04KT"
    },
    {
      "icao": "LBWN",
      "iata": "VAR",
      "name": "Varna Airport",
      "updatedAt": "171230Z",
      "visibility_m": 10000,
      "taf_visibility_m": 10000,
      "worst_visibility_m": 10000,
      "ceiling_ft": 2000,
      "hazards": [],
      "severityScore": 0,
      "metarRaw": "METAR LBWN 171230Z 31010KT CAVOK M01/M07 Q1031 NOSIG",
      "tafRaw": "TAF LBWN 171100Z 1712/1812 35012KT 9999 BKN020 \n  BECMG 1719/1720 01022KT \n  TEMPO 1722/1804 36024G34KT \n  BECMG 1808/1810 34012KT"
    },
    {
      "icao": "LEMG",
      "iata": "AGP",
      "name": "Málaga-Costa del Sol Airport",
      "updatedAt": "171230Z",
      "visibility_m": 10000,
      "taf_visibility_m": 10000,
      "worst_visibility_m": 10000,
      "ceiling_ft": null,
      "hazards": [],
      "severityScore": 0,
      "metarRaw": "METAR LEMG 171230Z 32007KT 300V360 9999 FEW040 13/04 Q1011 NOSIG",
      "tafRaw": "TAF LEMG 171100Z 1712/1812 33011KT 9999 FEW030 TX15/1714Z TN06/1806Z \n  BECMG 1717/1719 27005KT"
    },
    {
      "icao": "LGAV",
      "iata": "ATH",
      "name": "Athens Eleftherios Venizelos International Airport",
      "updatedAt": "171250Z",
      "visibility_m": 10000,
      "taf_visibility_m": 10000,
      "worst_visibility_m": 10000,
      "ceiling_ft": null,
      "hazards": [],
      "severityScore": 0,
      "metarRaw": "METAR LGAV 171250Z 01024KT 9999 FEW020 SCT025 09/02 Q1023 NOSIG",
      "tafRaw": "TAF LGAV 171100Z 1712/1812 03016KT 9999 FEW015 SCT025 \n  TEMPO 1712/1718 03017G27KT \n  TEMPO 1806/1812 03018G28KT"
    },
    {
      "icao": "LIBD",
      "iata": "BRI",
      "name": "Bari Karol Wojtyła International Airport",
      "updatedAt": "171250Z",
      "visibility_m": 10000,
      "taf_visibility_m": 10000,
      "worst_visibility_m": 10000,
      "ceiling_ft": null,
      "hazards": [],
      "severityScore": 0,
      "metarRaw": "METAR LIBD 171250Z AUTO 35005KT 310V020 9999 NCD 13/11 Q1020",
      "tafRaw": "TAF LIBD 171100Z 1712/1812 VRB05KT 9999 FEW030"
    },
    {
      "icao": "LICA",
      "iata": "SUF",
      "name": "Lamezia Terme Sant'Eufemia International Airport",
      "updatedAt": "171250Z",
      "visibility_m": 10000,
      "taf_visibility_m": 10000,
      "worst_visibility_m": 10000,
      "ceiling_ft": 4000,
      "hazards": [],
      "severityScore": 0,
      "metarRaw": "METAR LICA 171250Z AUTO 07014KT 9999 BKN067/// 14/10 Q1017",
      "tafRaw": "TAF LICA 171100Z 1712/1812 08013KT 9999 BKN040"
    },
    {
      "icao": "LICJ",
      "iata": "PMO",
      "name": "Falcone–Borsellino Airport",
      "updatedAt": "171250Z",
      "visibility_m": 10000,
      "taf_visibility_m": 10000,
      "worst_visibility_m": 10000,
      "ceiling_ft": null,
      "hazards": [],
      "severityScore": 0,
      "metarRaw": "METAR LICJ 171250Z 28004KT 9999 FEW035 16/09 Q1015",
      "tafRaw": "TAF LICJ 171100Z 1712/1812 20008KT 9999 SCT060"
    },
    {
      "icao": "LIMJ",
      "iata": "GOA",
      "name": "Genoa Cristoforo Colombo Airport",
      "updatedAt": "171250Z",
      "visibility_m": 10000,
      "taf_visibility_m": 8000,
      "worst_visibility_m": 8000,
      "ceiling_ft": null,
      "hazards": [],
      "severityScore": 0,
      "metarRaw": "METAR LIMJ 171250Z 03017KT CAVOK 10/05 Q1020 WS R10",
      "tafRaw": "TAF LIMJ 171100Z 1712/1812 03017KT 8000 SCT030"
    },
    {
      "icao": "LIPH",
      "iata": "TSF",
      "name": "Treviso Antonio Canova Airport",
      "updatedAt": "171250Z",
      "visibility_m": 10000,
      "taf_visibility_m": 7000,
      "worst_visibility_m": 7000,
      "ceiling_ft": null,
      "hazards": [],
      "severityScore": 0,
      "metarRaw": "METAR LIPH 171250Z 06006KT 020V090 9999 FEW070 15/06 Q1022",
      "tafRaw": "TAF LIPH 171100Z 1712/1812 03007KT 7000 SCT040"
    },
    {
      "icao": "LIPQ",
      "iata": "TRS",
      "name": "Trieste–Friuli Venezia Giulia Airport",
      "updatedAt": "171250Z",
      "visibility_m": 10000,
      "taf_visibility_m": 10000,
      "worst_visibility_m": 10000,
      "ceiling_ft": null,
      "hazards": [],
      "severityScore": 0,
      "metarRaw": "METAR LIPQ 171250Z AUTO 02006KT 9999 NCD 16/07 Q1021",
      "tafRaw": "TAF LIPQ 171100Z 1712/1812 03007KT 9999 FEW025 \n  BECMG 1808/1810 06015KT"
    },
    {
      "icao": "LIPZ",
      "iata": "VCE",
      "name": "Venice Marco Polo Airport",
      "updatedAt": "171250Z",
      "visibility_m": 10000,
      "taf_visibility_m": 10000,
      "worst_visibility_m": 10000,
      "ceiling_ft": null,
      "hazards": [],
      "severityScore": 0,
      "metarRaw": "METAR LIPZ 171250Z 10004KT CAVOK 13/07 Q1022 NOSIG",
      "tafRaw": "TAF LIPZ 171100Z 1712/1818 04007KT 9999 FEW025 \n  BECMG 1718/1720 04015KT"
    },
    {
      "icao": "LIRF",
      "iata": "FCO",
      "name": "Rome–Fiumicino Leonardo da Vinci International Airport",
      "updatedAt": "171250Z",
      "visibility_m": 10000,
      "taf_visibility_m": 10000,
      "worst_visibility_m": 10000,
      "ceiling_ft": null,
      "hazards": [],
      "severityScore": 0,
      "metarRaw": "METAR LIRF 171250Z VRB01KT CAVOK 16/05 Q1018 NOSIG",
      "tafRaw": "TAF LIRF 171100Z 1712/1818 05010KT CAVOK \n  BECMG 1714/1716 10006KT"
    },
    {
      "icao": "LIRN",
      "iata": "NAP",
      "name": "Naples International Airport",
      "updatedAt": "171250Z",
      "visibility_m": 10000,
      "taf_visibility_m": 10000,
      "worst_visibility_m": 10000,
      "ceiling_ft": null,
      "hazards": [],
      "severityScore": 0,
      "metarRaw": "METAR LIRN 171250Z 04009KT CAVOK 17/07 Q1017 NOSIG",
      "tafRaw": "TAF LIRN 171100Z 1712/1812 05010KT CAVOK"
    },
    {
      "icao": "LIRZ",
      "iata": "PEG",
      "name": "Perugia San Francesco d'Assisi – Umbria International Airport",
      "updatedAt": "171250Z",
      "visibility_m": 10000,
      "taf_visibility_m": 8000,
      "worst_visibility_m": 8000,
      "ceiling_ft": null,
      "hazards": [],
      "severityScore": 0,
      "metarRaw": "METAR LIRZ 171250Z AUTO VRB02KT 9999 NCD 14/06 Q1018",
      "tafRaw": "TAF LIRZ 171100Z 1712/1812 VRB05KT 8000 NSC"
    },
    {
      "icao": "LMML",
      "iata": "MLA",
      "name": "Malta International Airport",
      "updatedAt": "171245Z",
      "visibility_m": 10000,
      "taf_visibility_m": 10000,
      "worst_visibility_m": 10000,
      "ceiling_ft": null,
      "hazards": [],
      "severityScore": 0,
      "metarRaw": "METAR LMML 171245Z 06009KT 9999 FEW017 17/11 Q1015 NOSIG",
      "tafRaw": "TAF LMML 171100Z 1712/1812 09006KT 9999 FEW017"
    },
    {
      "icao": "LRBV",
      "iata": "GHV",
      "name": "Brașov-Ghimbav International Airport",
      "updatedAt": "171230Z",
      "visibility_m": 10000,
      "taf_visibility_m": 10000,
      "worst_visibility_m": 10000,
      "ceiling_ft": null,
      "hazards": [],
      "severityScore": 0,
      "metarRaw": "METAR LRBV 171230Z 19004KT CAVOK M02/M06 Q1029",
      "tafRaw": "TAF LRBV 171100Z 1712/1721 VRB04KT CAVOK"
    },
    {
      "icao": "LRCL",
      "iata": "CLJ",
      "name": "Cluj Avram Iancu International Airport",
      "updatedAt": "171230Z",
      "visibility_m": 10000,
      "taf_visibility_m": 10000,
      "worst_visibility_m": 10000,
      "ceiling_ft": null,
      "hazards": [],
      "severityScore": 0,
      "metarRaw": "METAR LRCL 171230Z 07006KT CAVOK M01/M08 Q1030",
      "tafRaw": "TAF LRCL 171100Z 1712/1721 09004KT CAVOK"
    },
    {
      "icao": "LRCV",
      "iata": "CRA",
      "name": "Craiova International Airport",
      "updatedAt": "171230Z",
      "visibility_m": 10000,
      "taf_visibility_m": 10000,
      "worst_visibility_m": 10000,
      "ceiling_ft": null,
      "hazards": [],
      "severityScore": 0,
      "metarRaw": "METAR LRCV 171230Z VRB02KT CAVOK M01/M07 Q1032",
      "tafRaw": "TAF LRCV 171100Z 1712/1721 10008KT CAVOK"
    },
    {
      "icao": "LRSB",
      "iata": "SBZ",
      "name": "Sibiu International Airport",
      "updatedAt": "171230Z",
      "visibility_m": 10000,
      "taf_visibility_m": 10000,
      "worst_visibility_m": 10000,
      "ceiling_ft": null,
      "hazards": [],
      "severityScore": 0,
      "metarRaw": "METAR LRSB 171230Z 26002KT CAVOK M01/M05 Q1029",
      "tafRaw": "TAF LRSB 171100Z 1712/1812 VRB04KT CAVOK"
    },
    {
      "icao": "LYBE",
      "iata": "BEG",
      "name": "Belgrade Nikola Tesla Airport",
      "updatedAt": "171230Z",
      "visibility_m": 10000,
      "taf_visibility_m": 10000,
      "worst_visibility_m": 10000,
      "ceiling_ft": null,
      "hazards": [],
      "severityScore": 0,
      "metarRaw": "METAR LYBE 171230Z 10013KT CAVOK 03/M05 Q1028 NOSIG",
      "tafRaw": "TAF LYBE 171100Z 1712/1812 12016KT CAVOK TX04/1713ZZ TNM05/1806Z"
    },
    {
      "icao": "LYNI",
      "iata": "INI",
      "name": "Niš Constantine the Great Airport",
      "updatedAt": "171230Z",
      "visibility_m": 10000,
      "taf_visibility_m": 10000,
      "worst_visibility_m": 10000,
      "ceiling_ft": 4300,
      "hazards": [],
      "severityScore": 0,
      "metarRaw": "METAR LYNI 171230Z 05007KT 9999 FEW025 BKN043 03/M03 Q1028 NOSIG",
      "tafRaw": "TAF LYNI 171100Z 1712/1812 05008KT CAVOK TX05/1713Z TNM04/1805Z"
    },
    {
      "icao": "LZKZ",
      "iata": "KSC",
      "name": "Košice International Airport",
      "updatedAt": "171230Z",
      "visibility_m": 10000,
      "taf_visibility_m": 10000,
      "worst_visibility_m": 10000,
      "ceiling_ft": null,
      "hazards": [],
      "severityScore": 0,
      "metarRaw": "METAR LZKZ 171230Z 31003KT CAVOK 06/M07 Q1030 NOSIG",
      "tafRaw": "TAF LZKZ 171115Z 1712/1812 35006KT CAVOK \n  BECMG 1720/1722 VRB02KT"
    },
    {
      "icao": "OEJN",
      "iata": "JED",
      "name": "King Abdulaziz International Airport",
      "updatedAt": "171200Z",
      "visibility_m": 10000,
      "taf_visibility_m": 3000,
      "worst_visibility_m": 3000,
      "ceiling_ft": null,
      "hazards": [],
      "severityScore": 0,
      "metarRaw": "METAR OEJN 171200Z 24010KT 9999 FEW040 28/15 Q1011 NOSIG",
      "tafRaw": "TAF OEJN 171100Z 1712/1818 30010KT 7000 FEW040 \n  BECMG 1720/1722 03006KT \n  PROB30 \n  TEMPO 1723/1806 3000 HZ \n  BECMG 1810/1812 30010KT"
    },
    {
      "icao": "OEMA",
      "iata": "MED",
      "name": "Prince Mohammad Bin Abdulaziz Airport",
      "updatedAt": "171200Z",
      "visibility_m": 8000,
      "taf_visibility_m": 7000,
      "worst_visibility_m": 7000,
      "ceiling_ft": null,
      "hazards": [],
      "severityScore": 0,
      "metarRaw": "METAR OEMA 171200Z VRB03KT 8000 NSC 25/04 Q1016 NOSIG",
      "tafRaw": "TAF OEMA 171100Z 1712/1818 12012KT 7000 NSC \n  BECMG 1716/1718 25006KT \n  BECMG 1810/1812 25016KT"
    },
    {
      "icao": "OMAA",
      "iata": "AUH",
      "name": "Zayed International Airport",
      "updatedAt": "171200Z",
      "visibility_m": 10000,
      "taf_visibility_m": 10000,
      "worst_visibility_m": 10000,
      "ceiling_ft": 3500,
      "hazards": [],
      "severityScore": 0,
      "metarRaw": "METAR OMAA 171200Z 30013KT 9999 BKN035 21/11 Q1016 NOSIG",
      "tafRaw": "TAF OMAA 171100Z 1712/1818 30011KT 9999 SCT040 \n  BECMG 1814/1816 23005KT"
    },
    {
      "icao": "OMDB",
      "iata": "DXB",
      "name": "Dubai International Airport",
      "updatedAt": "171230Z",
      "visibility_m": 10000,
      "taf_visibility_m": 8000,
      "worst_visibility_m": 8000,
      "ceiling_ft": null,
      "hazards": [],
      "severityScore": 0,
      "metarRaw": "METAR OMDB 171230Z 29012KT 220V310 9999 SCT040 22/11 Q1016 NOSIG",
      "tafRaw": "TAF OMDB 171100Z 1712/1818 28012KT 8000 SCT040 \n  BECMG 1718/1720 22006KT \n  BECMG 1806/1808 29012KT \n  BECMG 1816/1818 22005KT"
    }
  ],
  "stats": {
    "icaoCount": 159,
    "metarReturned": 158,
    "tafReturned": 146,
    "stationsWritten": 159,
    "missingMetar": 1,
    "missingTaf": 13
  },
  "errors": []
}