{
  "generatedAt": "2026-01-21T07:45:34.546Z",
  "stations": [
    {
      "icao": "EDDS",
      "iata": "STR",
      "name": "Stuttgart Airport",
      "lat": 48.689899,
      "lon": 9.22196,
      "updatedAt": "210720Z",
      "visibility_m": 10000,
      "taf_visibility_m": 300,
      "worst_visibility_m": 300,
      "ceiling_ft": 200,
      "hazards": [
        "FZFG",
        "BR",
        "FG"
      ],
      "severityScore": 100,
      "metarRaw": "METAR EDDS 210720Z AUTO VRB02KT CAVOK M05/M05 Q1008 NOSIG",
      "tafRaw": "TAF EDDS 210500Z 2106/2206 VRB03KT 3500 BR NSC \n  PROB40 \n  TEMPO 2106/2110 0300 FZFG VV002 \n  BECMG 2109/2112 9000"
    },
    {
      "icao": "EDFH",
      "iata": "HHN",
      "name": "Frankfurt-Hahn Airport",
      "lat": 49.946353,
      "lon": 7.261734,
      "updatedAt": "210720Z",
      "visibility_m": 2000,
      "taf_visibility_m": 500,
      "worst_visibility_m": 500,
      "ceiling_ft": 100,
      "hazards": [
        "BR",
        "FZFG",
        "FG"
      ],
      "severityScore": 100,
      "metarRaw": "METAR EDFH 210720Z 14012KT 2000 BR NSC M04/M04 Q1007",
      "tafRaw": "TAF EDFH 210500Z 2106/2206 14013KT 6000 NSC \n  PROB40 \n  TEMPO 2106/2110 0500 FZFG VV001"
    },
    {
      "icao": "EDNY",
      "iata": "FDH",
      "name": "Bodensee Airport Friedrichshafen",
      "lat": 47.671299,
      "lon": 9.51149,
      "updatedAt": "210720Z",
      "visibility_m": 750,
      "taf_visibility_m": 500,
      "worst_visibility_m": 500,
      "ceiling_ft": 100,
      "hazards": [
        "FZFG",
        "FG"
      ],
      "severityScore": 100,
      "metarRaw": "METAR EDNY 210720Z 02004KT 330V060 0750 R24/1000N FZFG VV/// M03/M04 Q1010",
      "tafRaw": "TAF EDNY 210500Z 2106/2115 VRB02KT 0500 FZFG VV001 \n  TEMPO 2106/2110 1200 BCFG OVC002 \n  BECMG 2111/2115 6000 NSW FEW003"
    },
    {
      "icao": "EDSB",
      "iata": "FKB",
      "name": "Karlsruhe Baden-Baden Airport",
      "lat": 48.7794,
      "lon": 8.0805,
      "updatedAt": "210720Z",
      "visibility_m": 900,
      "taf_visibility_m": 100,
      "worst_visibility_m": 100,
      "ceiling_ft": 0,
      "hazards": [
        "FZFG",
        "FG",
        "BR"
      ],
      "severityScore": 100,
      "metarRaw": "METAR EDSB 210720Z VRB01KT 0900 R21/1200N FZFG VV/// M01/M02 Q1010",
      "tafRaw": "TAF EDSB 210500Z 2106/2206 VRB03KT 0600 FZFG VV003 \n  TEMPO 2106/2110 0100 FZFG VV000 \n  BECMG 2110/2113 2000 BR BKN005 \n  BECMG 2116/2119 03005KT SCT005 \n  TEMPO 2121/2206 1200 BCFG BKN002"
    },
    {
      "icao": "EGNM",
      "iata": "LBA",
      "name": "Leeds Bradford Airport",
      "lat": 53.865898,
      "lon": -1.66057,
      "updatedAt": "210720Z",
      "visibility_m": 5000,
      "taf_visibility_m": 300,
      "worst_visibility_m": 300,
      "ceiling_ft": 800,
      "hazards": [
        "BR",
        "FG",
        "RA",
        "DZ"
      ],
      "severityScore": 100,
      "metarRaw": "METAR EGNM 210720Z 13007KT 5000 BR SCT002 BKN008 03/03 Q0991",
      "tafRaw": "TAF EGNM 210525Z 2106/2206 15009KT 9999 SCT012 \n  BECMG 2106/2109 BKN010 \n  TEMPO 2106/2206 4000 -RADZ RA BKN004 \n  BECMG 2112/2115 13016G26KT \n  PROB30 \n  TEMPO 2112/2206 0300 FG BKN000 \n  BECMG 2121/2124 13010KT"
    },
    {
      "icao": "EPMO",
      "iata": "WMI",
      "name": "Modlin Airport",
      "lat": 52.451099,
      "lon": 20.6518,
      "updatedAt": "210730Z",
      "visibility_m": 4400,
      "taf_visibility_m": 300,
      "worst_visibility_m": 300,
      "ceiling_ft": 100,
      "hazards": [
        "BR",
        "FZFG",
        "FG"
      ],
      "severityScore": 100,
      "metarRaw": "METAR EPMO 210730Z 14006KT 4400 BR NSC M09/M09 Q1017",
      "tafRaw": "TAF EPMO 210530Z 2106/2206 13005KT 7000 NSC \n  TEMPO 2106/2108 2000 BR \n  TEMPO 2121/2206 2000 BR \n  PROB40 2123/2206 0300 FZFG VV001"
    },
    {
      "icao": "LBPD",
      "iata": "PDV",
      "name": "Plovdiv International Airport",
      "lat": 42.067799,
      "lon": 24.8508,
      "updatedAt": "210730Z",
      "visibility_m": 10000,
      "taf_visibility_m": 1200,
      "worst_visibility_m": 1200,
      "ceiling_ft": 300,
      "hazards": [
        "BR",
        "FZRA",
        "SN",
        "RA"
      ],
      "severityScore": 100,
      "metarRaw": "METAR LBPD 210730Z AUTO 27004KT 9999 OVC025/// M04/M04 Q1025 NOSIG",
      "tafRaw": "TAF LBPD 210500Z 2106/2206 VRB03KT 9999 SCT040 BKN070 \n  TEMPO 2106/2108 3000 BR BKN010 \n  BECMG 2109/2111 5000 BR BKN015 OVC040 \n  BECMG 2115/2116 3000 SN BKN007 OVC015 \n  PROB40 \n  TEMPO 2116/2119 FZRA \n  TEMPO 2120/2201 1200 +SN BKN003 OVC010"
    },
    {
      "icao": "LFSB",
      "iata": "BSL",
      "name": "EuroAirport Basel–Mulhouse–Freiburg",
      "lat": 47.60068,
      "lon": 7.521117,
      "updatedAt": "210730Z",
      "visibility_m": 10000,
      "taf_visibility_m": 300,
      "worst_visibility_m": 300,
      "ceiling_ft": 100,
      "hazards": [
        "FZFG",
        "BR",
        "FG"
      ],
      "severityScore": 100,
      "metarRaw": "METAR LFSB 210730Z AUTO 17005KT CAVOK M01/M02 Q1008 NOSIG",
      "tafRaw": "TAF LFSB 210500Z 2106/2206 16005KT CAVOK \n  BECMG 2118/2120 3000 BR \n  TEMPO 2120/2206 0800 BCFG BKN001 \n  PROB40 \n  TEMPO 2202/2206 0300 FZFG VV///"
    },
    {
      "icao": "LIMC",
      "iata": "MXP",
      "name": "Milan Malpensa International Airport",
      "lat": 45.6306,
      "lon": 8.72811,
      "updatedAt": "210720Z",
      "visibility_m": 100,
      "taf_visibility_m": null,
      "worst_visibility_m": 100,
      "ceiling_ft": 100,
      "hazards": [
        "FZFG",
        "FG"
      ],
      "severityScore": 100,
      "metarRaw": "METAR LIMC 210720Z 03004KT 0100 R35R/0250N R17L/0275N R35L/0250N FZFG OVC001 M00/M00 Q1012 NOSIG",
      "tafRaw": null
    },
    {
      "icao": "LMML",
      "iata": "MLA",
      "name": "Malta International Airport",
      "lat": 35.857498,
      "lon": 14.4775,
      "updatedAt": "210715Z",
      "visibility_m": 10000,
      "taf_visibility_m": 4000,
      "worst_visibility_m": 4000,
      "ceiling_ft": 800,
      "hazards": [
        "TSRA",
        "SHRA",
        "TS",
        "RA"
      ],
      "severityScore": 100,
      "metarRaw": "METAR LMML 210715Z 19006KT 160V230 9999 FEW018CB 13/11 Q1001 NOSIG",
      "tafRaw": "TAF LMML 210500Z 2106/2206 23015KT 9999 SCT015 \n  TEMPO 2106/2206 6000 SHRA BKN015TCU \n  PROB40 \n  TEMPO 2106/2203 VRB20G30KT 4000 TSRA TSRAGS BKN008 BKN012CB \n  BECMG 2200/2203 33010KT"
    },
    {
      "icao": "LQTZ",
      "iata": "TZL",
      "name": "Tuzla International Airport",
      "lat": 44.459858,
      "lon": 18.723627,
      "updatedAt": "210730Z",
      "visibility_m": 2500,
      "taf_visibility_m": 500,
      "worst_visibility_m": 500,
      "ceiling_ft": 700,
      "hazards": [
        "BR",
        "FZFG",
        "FG"
      ],
      "severityScore": 100,
      "metarRaw": "METAR LQTZ 210730Z VRB02KT 2500 BR OVC007 M05/M05 Q1018",
      "tafRaw": "TAF LQTZ 210500Z 2106/2206 VRB02KT 3000 BR BKN010 TXM00/2114Z TNM06/2205Z \n  TEMPO 2106/2110 1500 OVC004 \n  TEMPO 2111/2117 7000 NSW SCT015 \n  PROB30 \n  TEMPO 2118/2124 0500 FZFG BKN002"
    },
    {
      "icao": "LRIA",
      "iata": "IAS",
      "name": "Iaşi Airport",
      "lat": 47.180278,
      "lon": 27.620833,
      "updatedAt": "210730Z",
      "visibility_m": 300,
      "taf_visibility_m": 300,
      "worst_visibility_m": 300,
      "ceiling_ft": 100,
      "hazards": [
        "FZFG",
        "FG",
        "BR"
      ],
      "severityScore": 100,
      "metarRaw": "METAR LRIA 210730Z 11005KT 0300 R14/0600N FZFG VV001 M08/M10 Q1023",
      "tafRaw": "TAF LRIA 210500Z 2106/2115 11006KT 0300 FZFG VV001 \n  BECMG 2106/2108 0800 OVC002 \n  BECMG 2108/2110 3000 BR SCT010 \n  BECMG 2110/2111 CAVOK"
    },
    {
      "icao": "LRBC",
      "iata": "BCM",
      "name": "Bacău George Enescu International  Airport",
      "lat": 46.5219,
      "lon": 26.910299,
      "updatedAt": "210730Z",
      "visibility_m": 100,
      "taf_visibility_m": null,
      "worst_visibility_m": 100,
      "ceiling_ft": 100,
      "hazards": [
        "FZFG",
        "FG"
      ],
      "severityScore": 100,
      "metarRaw": "METAR LRBC 210730Z 17010KT 0100 R16/0450N FZFG VV001 M07/M09 Q1023",
      "tafRaw": null
    },
    {
      "icao": "LRBV",
      "iata": "GHV",
      "name": "Brașov-Ghimbav International Airport",
      "lat": 45.70558,
      "lon": 25.522871,
      "updatedAt": "210730Z",
      "visibility_m": 600,
      "taf_visibility_m": 350,
      "worst_visibility_m": 350,
      "ceiling_ft": 200,
      "hazards": [
        "FZFG",
        "FG",
        "BR"
      ],
      "severityScore": 100,
      "metarRaw": "METAR LRBV 210730Z VRB03KT 0600 R21/P2000N FZFG VV002 M10/M11 Q1021",
      "tafRaw": "TAF LRBV 210500Z 2106/2115 VRB04KT 0350 FZFG VV001 \n  BECMG 2106/2108 0800 BKN002 \n  BECMG 2108/2109 3000 BR SCT005 \n  BECMG 2109/2110 9999 NSW"
    },
    {
      "icao": "LRCL",
      "iata": "CLJ",
      "name": "Cluj Avram Iancu International Airport",
      "lat": 46.787425,
      "lon": 23.684292,
      "updatedAt": "210730Z",
      "visibility_m": 600,
      "taf_visibility_m": 150,
      "worst_visibility_m": 150,
      "ceiling_ft": 100,
      "hazards": [
        "FZFG",
        "SN",
        "FG",
        "BR"
      ],
      "severityScore": 100,
      "metarRaw": "METAR LRCL 210730Z 08003KT 0600 R25/0400N -SN FZFG BKN001 BKN003 M15/M17 Q1022",
      "tafRaw": "TAF LRCL 210500Z 2106/2115 VRB04KT 0600 FZFG VV002 \n  TEMPO 2106/2107 0150 FZFG VV001 \n  BECMG 2107/2108 1500 BR SCT005 \n  BECMG 2108/2110 5000 \n  BECMG 2110/2112 9999 NSW"
    },
    {
      "icao": "LROP",
      "iata": "OTP",
      "name": "Bucharest Henri Coandă International Airport",
      "lat": 44.571792,
      "lon": 26.103285,
      "updatedAt": "210730Z",
      "visibility_m": 200,
      "taf_visibility_m": null,
      "worst_visibility_m": 200,
      "ceiling_ft": 200,
      "hazards": [
        "FZFG",
        "FG"
      ],
      "severityScore": 100,
      "metarRaw": "METAR LROP 210730Z VRB02KT 0200 R08R/0350N R08L/0900U FZFG VV002 M09/M11 Q1025 BECMG 0350 BKN002",
      "tafRaw": null
    },
    {
      "icao": "LRSB",
      "iata": "SBZ",
      "name": "Sibiu International Airport",
      "lat": 45.785841,
      "lon": 24.086666,
      "updatedAt": "210730Z",
      "visibility_m": 150,
      "taf_visibility_m": null,
      "worst_visibility_m": 150,
      "ceiling_ft": null,
      "hazards": [
        "FZFG",
        "FG"
      ],
      "severityScore": 100,
      "metarRaw": "METAR LRSB 210730Z 23002KT 0150 R27/0200N FZFG FEW002 M14/M16 Q1021",
      "tafRaw": null
    },
    {
      "icao": "LRTM",
      "iata": "TGM",
      "name": "Târgu Mureş Transilvania International Airport",
      "lat": 46.467701,
      "lon": 24.4125,
      "updatedAt": "210730Z",
      "visibility_m": 150,
      "taf_visibility_m": 150,
      "worst_visibility_m": 150,
      "ceiling_ft": 100,
      "hazards": [
        "FZFG",
        "SN",
        "FG",
        "BR"
      ],
      "severityScore": 100,
      "metarRaw": "METAR LRTM 210730Z 06002KT 0150 R07/0400U FZFG -SN VV001 M15/M17 Q1023",
      "tafRaw": "TAF LRTM 210500Z 2106/2115 VRB04KT 0150 FZFG VV001 \n  BECMG 2106/2108 0600 BKN002 \n  BECMG 2108/2110 3000 BR SCT005 \n  BECMG 2110/2112 9999 NSW"
    },
    {
      "icao": "LUKK",
      "iata": "RMO",
      "name": "Chişinău International Airport",
      "lat": 46.9277,
      "lon": 28.931,
      "updatedAt": "210730Z",
      "visibility_m": 1500,
      "taf_visibility_m": 800,
      "worst_visibility_m": 800,
      "ceiling_ft": 300,
      "hazards": [
        "BR",
        "FZFG",
        "FG"
      ],
      "severityScore": 100,
      "metarRaw": "METAR LUKK 210730Z VRB02KT 3700 BR NSC M11/M12 Q1025 TEMPO 1500 BR",
      "tafRaw": "TAF LUKK 210518Z 2106/2206 VRB04KT 3000 BR NSC \n  TEMPO 2106/2108 1200 BKN003 \n  BECMG 2108/2110 16009KT CAVOK \n  BECMG 2119/2121 3000 BR BKN006 \n  TEMPO 2121/2206 0800 FZFG VV///"
    },
    {
      "icao": "LYBE",
      "iata": "BEG",
      "name": "Belgrade Nikola Tesla Airport",
      "lat": 44.818401,
      "lon": 20.309099,
      "updatedAt": "210730Z",
      "visibility_m": 400,
      "taf_visibility_m": 500,
      "worst_visibility_m": 400,
      "ceiling_ft": 100,
      "hazards": [
        "FZFG",
        "FG",
        "BR"
      ],
      "severityScore": 100,
      "metarRaw": "METAR LYBE 210730Z 26003KT 230V330 0400 R12L/0650D R30R/0550U FZFG VV001 M06/M07 Q1019 NOSIG",
      "tafRaw": "TAF LYBE 210500Z 2106/2206 27005KT 0500 FZFG BKN001 TX05/2113Z TNM07/2106Z \n  BECMG 2110/2112 3000 BR SCT040 \n  TEMPO 2113/2116 6000 NSW"
    },
    {
      "icao": "UAAA",
      "iata": "ALA",
      "name": "Almaty International Airport",
      "lat": 43.354267,
      "lon": 77.042828,
      "updatedAt": "210730Z",
      "visibility_m": 2900,
      "taf_visibility_m": 200,
      "worst_visibility_m": 200,
      "ceiling_ft": 20000,
      "hazards": [
        "BR",
        "FZFG",
        "FG"
      ],
      "severityScore": 100,
      "metarRaw": "METAR UAAA 210730Z VRB01MPS 2900 BR SCT007 BKN200 M08/M10 Q1017 NOSIG",
      "tafRaw": "TAF UAAA 210502Z 2106/2206 04003MPS 3100 BR SCT011 BKN050 TXM06/2108Z TNM14/2202Z \n  TEMPO 2106/2109 1500 OVC004 \n  BECMG 2112/2113 27002MPS 1100 \n  TEMPO 2114/2118 0400 FZFG VV001 \n  TEMPO 2118/2206 0200 FZFG VV001"
    },
    {
      "icao": "LKPR",
      "iata": "PRG",
      "name": "Václav Havel Airport Prague",
      "lat": 50.100874,
      "lon": 14.259911,
      "updatedAt": "210730Z",
      "visibility_m": 9000,
      "taf_visibility_m": 700,
      "worst_visibility_m": 700,
      "ceiling_ft": 1100,
      "hazards": [
        "FZFG",
        "BR",
        "FG"
      ],
      "severityScore": 97,
      "metarRaw": "METAR LKPR 210730Z 11007KT 9000 BKN011 M07/M09 Q1014 NOSIG",
      "tafRaw": "TAF LKPR 210500Z 2106/2212 13005KT 9999 OVC010 \n  TEMPO 2106/2107 OVC008 \n  BECMG 2107/2109 CAVOK \n  BECMG 2122/2124 3000 BR SCT005 BKN015 \n  TEMPO 2200/2209 1700 BR BKN005 \n  PROB30 \n  TEMPO 2204/2208 VRB02KT 0700 FZFG OVC004 \n  BECMG 2209/2211 VRB02KT 9999 BKN017"
    },
    {
      "icao": "EETN",
      "iata": "TLL",
      "name": "Lennart Meri Tallinn Airport",
      "lat": 59.413246,
      "lon": 24.83264,
      "updatedAt": "210720Z",
      "visibility_m": 1300,
      "taf_visibility_m": 1500,
      "worst_visibility_m": 1300,
      "ceiling_ft": 200,
      "hazards": [
        "BR",
        "FZDZ",
        "DZ"
      ],
      "severityScore": 93,
      "metarRaw": "METAR EETN 210720Z 08008KT 1300 R08/P2000N BR OVC002 M02/M02 Q1022 TEMPO 3000",
      "tafRaw": "TAF EETN 210530Z 2106/2206 09010KT 6000 BKN003 OVC005 \n  TEMPO 2106/2112 1500 BR OVC002 \n  PROB40 \n  TEMPO 2106/2109 -FZDZ \n  BECMG 2112/2114 9000 SCT008 OVC015 \n  TEMPO 2118/2124 BKN007 \n  PROB40 \n  TEMPO 2200/2206 3000 BR OVC003"
    },
    {
      "icao": "EFTU",
      "iata": "TKU",
      "name": "Turku Airport",
      "lat": 60.514099,
      "lon": 22.2628,
      "updatedAt": "210720Z",
      "visibility_m": 10000,
      "taf_visibility_m": 4000,
      "worst_visibility_m": 4000,
      "ceiling_ft": 700,
      "hazards": [
        "SHSN",
        "SN",
        "FZDZ",
        "DZ"
      ],
      "severityScore": 91,
      "metarRaw": "METAR EFTU 210720Z AUTO 09008KT 9999 -SHSN OVC007 M03/M04 Q1023",
      "tafRaw": "TAF EFTU 210530Z 2106/2206 07005KT 9999 -SN FEW005 OVC007 \n  TEMPO 2106/2109 4000 -FZDZSN BKN010 \n  TEMPO 2109/2118 SCT006 OVC015 \n  BECMG 2118/2120 SCT012 OVC020"
    },
    {
      "icao": "LPPT",
      "iata": "LIS",
      "name": "Lisbon Humberto Delgado Airport",
      "lat": 38.7813,
      "lon": -9.13592,
      "updatedAt": "210730Z",
      "visibility_m": 7000,
      "taf_visibility_m": 1200,
      "worst_visibility_m": 1200,
      "ceiling_ft": 400,
      "hazards": [
        "RA",
        "BR",
        "SHRA",
        "DZ"
      ],
      "severityScore": 91,
      "metarRaw": "METAR LPPT 210730Z 23013KT 7000 RA BKN004 14/14 Q1008",
      "tafRaw": "TAF LPPT 210500Z 2106/2212 21013KT 9999 SCT008 BKN015 \n  TEMPO 2106/2111 21015G25KT 3000 RA BR SCT002 BKN004 \n  PROB30 \n  TEMPO 2106/2111 1200 RADZ BR BKN002 \n  BECMG 2111/2113 29015KT SCT020 \n  TEMPO 2113/2121 29015G25KT 8000 SHRA SCT006 BKN012 FEW020CB \n  BECMG 2200/2202 32008KT \n  BECMG 2204/2206 25008KT \n  BECMG 2208/2210 21012KT BKN020"
    },
    {
      "icao": "EPGD",
      "iata": "GDN",
      "name": "Gdańsk Lech Wałęsa Airport",
      "lat": 54.377602,
      "lon": 18.4662,
      "updatedAt": "210730Z",
      "visibility_m": 400,
      "taf_visibility_m": null,
      "worst_visibility_m": 400,
      "ceiling_ft": null,
      "hazards": [
        "FZFG",
        "FG"
      ],
      "severityScore": 90,
      "metarRaw": "METAR EPGD 210730Z 30001KT 0400 R29/0450D FZFG NSC M15/M17 Q1014",
      "tafRaw": null
    },
    {
      "icao": "LFBD",
      "iata": "BOD",
      "name": "Bordeaux–Mérignac Airport",
      "lat": 44.82865,
      "lon": -0.715356,
      "updatedAt": "210730Z",
      "visibility_m": 10000,
      "taf_visibility_m": 3000,
      "worst_visibility_m": 3000,
      "ceiling_ft": 1000,
      "hazards": [
        "TSRA",
        "SHRA",
        "TS",
        "RA"
      ],
      "severityScore": 88,
      "metarRaw": "METAR LFBD 210730Z AUTO 14013KT CAVOK 06/04 Q1001 NOSIG",
      "tafRaw": "TAF LFBD 210500Z 2106/2212 16010KT CAVOK TX13/2114Z TN06/2106Z \n  TEMPO 2113/2212 3000 SHRA BKN030TCU \n  PROB30 \n  TEMPO 2123/2212 -TSRA BKN010 SCT030CB \n  BECMG 2123/2201 24010KT \n  PROB30 \n  TEMPO 2201/2204 24015G25KT"
    },
    {
      "icao": "LICC",
      "iata": "CTA",
      "name": "Catania-Fontanarossa Airport",
      "lat": 37.466801,
      "lon": 15.0664,
      "updatedAt": "210720Z",
      "visibility_m": 10000,
      "taf_visibility_m": 4000,
      "worst_visibility_m": 4000,
      "ceiling_ft": 1000,
      "hazards": [
        "TSRA",
        "RA",
        "SHRA",
        "TS"
      ],
      "severityScore": 88,
      "metarRaw": "METAR LICC 210720Z 31004KT 9999 SCT040 SCT080 12/10 Q1001",
      "tafRaw": "TAF LICC 210500Z 2106/2206 VRB06KT 7000 RA BKN030 \n  TEMPO 2106/2109 TSRA BKN010 \n  BECMG 2110/2112 NSW \n  TEMPO 2110/2118 4000 SHRA \n  BECMG 2204/2206 26012KT"
    },
    {
      "icao": "LJLJ",
      "iata": "LJU",
      "name": "Ljubljana Jože Pučnik Airport",
      "lat": 46.223701,
      "lon": 14.4576,
      "updatedAt": "210730Z",
      "visibility_m": 10000,
      "taf_visibility_m": 600,
      "worst_visibility_m": 600,
      "ceiling_ft": 1500,
      "hazards": [
        "FZFG",
        "FG"
      ],
      "severityScore": 87,
      "metarRaw": "METAR LJLJ 210730Z 15003KT 110V210 9999 OVC015 M05/M08 Q1017 NOSIG",
      "tafRaw": "TAF LJLJ 210500Z 2106/2206 12003KT 9999 OVC015 \n  BECMG 2112/2114 SCT020 \n  PROB40 \n  TEMPO 2200/2206 0600 FZFG VV001"
    },
    {
      "icao": "LEXJ",
      "iata": "SDR",
      "name": "Seve Ballesteros-Santander Airport",
      "lat": 43.427101,
      "lon": -3.82001,
      "updatedAt": "210730Z",
      "visibility_m": 10000,
      "taf_visibility_m": 1500,
      "worst_visibility_m": 1500,
      "ceiling_ft": null,
      "hazards": [
        "TSRA",
        "SHRA",
        "TS",
        "RA"
      ],
      "severityScore": 86,
      "metarRaw": "METAR LEXJ 210730Z 20017G32KT 160V250 9999 FEW060 15/04 Q0997",
      "tafRaw": "TAF LEXJ 210200Z 2103/2203 22009KT 9999 SCT040 TX15/2115Z TN09/2103Z \n  TEMPO 2103/2117 20018G33KT \n  TEMPO 2104/2115 20024G43KT \n  TEMPO 2116/2120 29010KT 3000 SHRA SCT030TCU \n  PROB30 \n  TEMPO 2117/2120 1500 +TSRA SCT030CB"
    },
    {
      "icao": "LICA",
      "iata": "SUF",
      "name": "Lamezia Terme Sant'Eufemia International Airport",
      "lat": 38.906214,
      "lon": 16.246007,
      "updatedAt": "210650Z",
      "visibility_m": 10000,
      "taf_visibility_m": 4000,
      "worst_visibility_m": 4000,
      "ceiling_ft": 4000,
      "hazards": [
        "RA",
        "DZ",
        "TSRA",
        "SHRA",
        "TS"
      ],
      "severityScore": 86,
      "metarRaw": "METAR LICA 210650Z AUTO 07022KT 9999 -DZRA BKN047/// 12/07 Q1001",
      "tafRaw": "TAF LICA 210500Z 2106/2206 08022G35KT 8000 RA BKN040 \n  PROB40 \n  TEMPO 2106/2109 4000 TSRA \n  BECMG 2114/2116 NSW \n  TEMPO 2114/2118 SHRA \n  BECMG 2119/2121 08007KT"
    },
    {
      "icao": "LEBB",
      "iata": "BIO",
      "name": "Bilbao Airport",
      "lat": 43.301102,
      "lon": -2.91061,
      "updatedAt": "210730Z",
      "visibility_m": 10000,
      "taf_visibility_m": 1500,
      "worst_visibility_m": 1500,
      "ceiling_ft": 1000,
      "hazards": [
        "TSRA",
        "RA",
        "TS"
      ],
      "severityScore": 84,
      "metarRaw": "METAR LEBB 210730Z 16015G28KT 120V230 9999 FEW045 15/05 Q0999 NOSIG",
      "tafRaw": "TAF LEBB 210500Z 2106/2206 20009KT 9999 FEW060 TX14/2115Z TN07/2206Z \n  TEMPO 2106/2117 20018G33KT \n  TEMPO 2106/2116 20026G45KT \n  TEMPO 2117/2206 3000 RA BKN010 \n  PROB30 \n  TEMPO 2118/2120 1500 +TSRA SCT030CB"
    },
    {
      "icao": "LIMF",
      "iata": "TRN",
      "name": "Turin Airport",
      "lat": 45.200802,
      "lon": 7.64963,
      "updatedAt": "210720Z",
      "visibility_m": 7000,
      "taf_visibility_m": 800,
      "worst_visibility_m": 800,
      "ceiling_ft": 600,
      "hazards": [
        "BR",
        "FG"
      ],
      "severityScore": 80,
      "metarRaw": "METAR LIMF 210720Z 29003KT 260V360 7000 NSC M00/M03 Q1012",
      "tafRaw": "TAF LIMF 210500Z 2106/2206 VRB04KT 9999 SCT060 \n  TEMPO 2106/2110 4000 BR \n  BECMG 2120/2122 3000 BR \n  TEMPO 2122/2206 0800 BCFG BKN006"
    },
    {
      "icao": "EDJA",
      "iata": "FMM",
      "name": "Memmingen Allgau Airport",
      "lat": 47.988092,
      "lon": 10.238248,
      "updatedAt": "210720Z",
      "visibility_m": 10000,
      "taf_visibility_m": 700,
      "worst_visibility_m": 700,
      "ceiling_ft": null,
      "hazards": [
        "FZFG",
        "FG"
      ],
      "severityScore": 75,
      "metarRaw": "METAR EDJA 210720Z 08001KT CAVOK M05/M06 Q1008",
      "tafRaw": "TAF EDJA 210500Z 2106/2115 VRB02KT CAVOK \n  PROB40 \n  TEMPO 2106/2109 0700 FZFG \n  BECMG 2112/2114 05005KT"
    },
    {
      "icao": "LPPR",
      "iata": "OPO",
      "name": "Francisco de Sá Carneiro Airport",
      "lat": 41.2481002808,
      "lon": -8.68138980865,
      "updatedAt": "210730Z",
      "visibility_m": 2500,
      "taf_visibility_m": 1200,
      "worst_visibility_m": 1200,
      "ceiling_ft": 600,
      "hazards": [
        "BR",
        "RA",
        "DZ"
      ],
      "severityScore": 67,
      "metarRaw": "METAR LPPR 210730Z 18021KT 2500 RA BR BKN006 BKN014 12/12 Q1002",
      "tafRaw": "TAF LPPR 210500Z 2106/2206 19015KT 8000 -RA SCT008 BKN025 \n  TEMPO 2106/2110 2000 RADZ BR SCT002 BKN004 \n  PROB30 \n  TEMPO 2106/2110 20020G33KT 1200 RA BR BKN002 \n  BECMG 2110/2112 26015KT 9999 NSW SCT020 \n  TEMPO 2112/2206 8000 SHRAGS SCT008 BKN012 FEW020CB \n  TEMPO 2112/2124 27018G30KT \n  BECMG 2200/2202 31012KT"
    },
    {
      "icao": "UGKO",
      "iata": "KUT",
      "name": "David the Builder Kutaisi International Airport",
      "lat": 42.177448,
      "lon": 42.485353,
      "updatedAt": "210730Z",
      "visibility_m": 2900,
      "taf_visibility_m": 4000,
      "worst_visibility_m": 2900,
      "ceiling_ft": 700,
      "hazards": [
        "BR",
        "RA",
        "SN"
      ],
      "severityScore": 65,
      "metarRaw": "METAR UGKO 210730Z 26011KT 2900 RA BR SCT006 BKN007 OVC010 02/01 Q1031 NOSIG",
      "tafRaw": "TAF UGKO 210500Z 2106/2206 26007KT 9999 SCT020 BKN050 TX06/2111Z TNM01/2206Z \n  TEMPO 2106/2110 4000 SHSNRA BKN017CB OVC040 \n  BECMG 2114/2117 09010KT \n  TEMPO 2200/2206 CAVOK"
    },
    {
      "icao": "LGAV",
      "iata": "ATH",
      "name": "Athens Eleftherios Venizelos International Airport",
      "lat": 37.936401,
      "lon": 23.9445,
      "updatedAt": "210720Z",
      "visibility_m": 7000,
      "taf_visibility_m": 2000,
      "worst_visibility_m": 2000,
      "ceiling_ft": 2500,
      "hazards": [
        "RA",
        "TSRA",
        "TS"
      ],
      "severityScore": 62,
      "metarRaw": "METAR LGAV 210720Z 10005KT 060V160 7000 -RA SCT018 BKN025 10/07 Q1017 RERA NOSIG",
      "tafRaw": "TAF LGAV 210500Z 2106/2206 10012KT 9999 FEW018 BKN025 \n  BECMG 2110/2112 15018G30KT \n  PROB40 \n  TEMPO 2106/2206 3000 RA SCT010 FEW018TCU BKN020 \n  PROB40 \n  TEMPO 2106/2121 2000 TSRA SCT008 SCT018CB BKN020 OVC050 \n  PROB30 \n  TEMPO 2121/2124 4000 TSRA SCT008 FEW018CB BKN020 \n  BECMG 2118/2120 20010KT \n  BECMG 2122/2124 VRB05KT"
    },
    {
      "icao": "EGGP",
      "iata": "LPL",
      "name": "Liverpool John Lennon Airport",
      "lat": 53.334863,
      "lon": -2.849637,
      "updatedAt": "210720Z",
      "visibility_m": 10000,
      "taf_visibility_m": 3000,
      "worst_visibility_m": 3000,
      "ceiling_ft": 800,
      "hazards": [
        "RA",
        "SHRA",
        "DZ"
      ],
      "severityScore": 61,
      "metarRaw": "METAR EGGP 210720Z 14012KT 9999 SCT025 04/03 Q0990",
      "tafRaw": "TAF EGGP 210500Z 2106/2206 17011KT 9999 SCT012 \n  PROB40 \n  TEMPO 2106/2112 BKN008 \n  BECMG 2109/2112 11018G30KT \n  TEMPO 2110/2206 7000 RA -RADZ \n  PROB30 \n  TEMPO 2110/2118 3000 +SHRA RADZ \n  TEMPO 2112/2206 BKN008 \n  BECMG 2203/2206 12009KT \n  PROB30 \n  TEMPO 2203/2206 3000 RADZ"
    },
    {
      "icao": "EYKA",
      "iata": "KUN",
      "name": "Kaunas International Airport",
      "lat": 54.963965,
      "lon": 24.08582,
      "updatedAt": "210720Z",
      "visibility_m": 4800,
      "taf_visibility_m": 1500,
      "worst_visibility_m": 1500,
      "ceiling_ft": 200,
      "hazards": [
        "BR"
      ],
      "severityScore": 55,
      "metarRaw": "METAR EYKA 210720Z VRB01KT 4800 BR NSC M17/M19 Q1018",
      "tafRaw": "TAF EYKA 210500Z 2106/2206 VRB04KT 5000 BR NSC \n  TEMPO 2106/2109 3000 BKN002 \n  TEMPO 2118/2124 1500 SCT002"
    },
    {
      "icao": "LIME",
      "iata": "BGY",
      "name": "Milan Bergamo Airport / Antonio Locatelli Air Base",
      "lat": 45.670725,
      "lon": 9.709223,
      "updatedAt": "210720Z",
      "visibility_m": 10000,
      "taf_visibility_m": 1500,
      "worst_visibility_m": 1500,
      "ceiling_ft": 800,
      "hazards": [
        "FG"
      ],
      "severityScore": 55,
      "metarRaw": "METAR LIME 210720Z 02003KT CAVOK M00/M02 Q1012 NOSIG",
      "tafRaw": "TAF LIME 210500Z 2106/2206 VRB04KT CAVOK \n  TEMPO 2121/2206 1500 BCFG BKN008"
    },
    {
      "icao": "LIPX",
      "iata": "VRN",
      "name": "Verona Villafranca Valerio Catullo Airport",
      "lat": 45.394955,
      "lon": 10.887303,
      "updatedAt": "210720Z",
      "visibility_m": 9000,
      "taf_visibility_m": 1200,
      "worst_visibility_m": 1200,
      "ceiling_ft": 800,
      "hazards": [
        "FG"
      ],
      "severityScore": 55,
      "metarRaw": "METAR LIPX 210720Z 36002KT 9000 NSC M04/M05 Q1013",
      "tafRaw": "TAF LIPX 210500Z 2106/2206 VRB04KT CAVOK \n  TEMPO 2106/2110 3000 BCFG BKN010 \n  TEMPO 2121/2124 1200 BCFG BKN008"
    },
    {
      "icao": "EGPD",
      "iata": "ABZ",
      "name": "Aberdeen International Airport",
      "lat": 57.2019,
      "lon": -2.19778,
      "updatedAt": "210720Z",
      "visibility_m": 4000,
      "taf_visibility_m": null,
      "worst_visibility_m": 4000,
      "ceiling_ft": 400,
      "hazards": [
        "RA"
      ],
      "severityScore": 52,
      "metarRaw": "METAR EGPD 210720Z 12015KT 5000 RA BKN006 07/05 Q0994 RERA TEMPO 4000 BKN004",
      "tafRaw": null
    },
    {
      "icao": "LEMD",
      "iata": "MAD",
      "name": "Adolfo Suárez Madrid–Barajas Airport",
      "lat": 40.471926,
      "lon": -3.56264,
      "updatedAt": "210744Z",
      "visibility_m": 4500,
      "taf_visibility_m": null,
      "worst_visibility_m": 4500,
      "ceiling_ft": 600,
      "hazards": [
        "BR",
        "DZ"
      ],
      "severityScore": 50,
      "metarRaw": "SPECI LEMD 210744Z 33005KT 4500 -DZ BR BKN006 OVC018 00/00 Q1011 NOSIG",
      "tafRaw": null
    },
    {
      "icao": "LRBS",
      "iata": "BBU",
      "name": "Bucharest Băneasa Aurel Vlaicu International Airport",
      "lat": 44.503133,
      "lon": 26.102944,
      "updatedAt": "210730Z",
      "visibility_m": 2000,
      "taf_visibility_m": null,
      "worst_visibility_m": 2000,
      "ceiling_ft": 200,
      "hazards": [
        "BR"
      ],
      "severityScore": 50,
      "metarRaw": "METAR LRBS 210730Z 05003KT 2000 BR BKN002 M09/M10 Q1025 TEMPO 3000 BKN005",
      "tafRaw": null
    },
    {
      "icao": "LZIB",
      "iata": "BTS",
      "name": "M. R. Štefánik Airport",
      "lat": 48.1702,
      "lon": 17.2127,
      "updatedAt": "210730Z",
      "visibility_m": 2100,
      "taf_visibility_m": null,
      "worst_visibility_m": 2100,
      "ceiling_ft": 300,
      "hazards": [
        "BR"
      ],
      "severityScore": 50,
      "metarRaw": "METAR LZIB 210730Z 08005KT 2100 BR SCT002 OVC003 M08/M09 Q1020 NOSIG",
      "tafRaw": null
    },
    {
      "icao": "EGBB",
      "iata": "BHX",
      "name": "Birmingham Airport",
      "lat": 52.453899,
      "lon": -1.74803,
      "updatedAt": "210720Z",
      "visibility_m": 10000,
      "taf_visibility_m": 3000,
      "worst_visibility_m": 3000,
      "ceiling_ft": 600,
      "hazards": [
        "RA",
        "DZ"
      ],
      "severityScore": 47,
      "metarRaw": "METAR EGBB 210720Z 13011KT 9999 BKN006 05/04 Q0991",
      "tafRaw": "TAF EGBB 210455Z 2106/2206 16008KT 9999 BKN020 \n  PROB30 \n  TEMPO 2106/2108 BKN005 \n  BECMG 2107/2110 14018G28KT \n  TEMPO 2108/2206 6000 RA -RADZ BKN012 \n  PROB30 \n  TEMPO 2110/2113 3000 +RA RADZ BKN009 \n  PROB30 \n  TEMPO 2113/2202 4000 RADZ BKN009 \n  BECMG 2121/2124 16010KT \n  PROB30 \n  TEMPO 2202/2206 4000 RADZ BKN004"
    },
    {
      "icao": "GMMX",
      "iata": "RAK",
      "name": "Marrakesh Menara Airport",
      "lat": 31.604807,
      "lon": -8.035788,
      "updatedAt": "210730Z",
      "visibility_m": 10000,
      "taf_visibility_m": 3000,
      "worst_visibility_m": 3000,
      "ceiling_ft": 300,
      "hazards": [
        "BR"
      ],
      "severityScore": 45,
      "metarRaw": "METAR GMMX 210730Z VRB02KT CAVOK 05/04 Q1020 NOSIG",
      "tafRaw": "TAF GMMX 210500Z 2106/2212 28006KT 8000 SCT026 \n  PROB40 \n  TEMPO 2106/2109 3000 BR BKN003 \n  TEMPO 2115/2121 34016KT"
    },
    {
      "icao": "LOWW",
      "iata": "VIE",
      "name": "Vienna International Airport",
      "lat": 48.110298,
      "lon": 16.5697,
      "updatedAt": "210720Z",
      "visibility_m": 4000,
      "taf_visibility_m": 4500,
      "worst_visibility_m": 4000,
      "ceiling_ft": 400,
      "hazards": [
        "BR"
      ],
      "severityScore": 45,
      "metarRaw": "METAR LOWW 210720Z 14013KT 5000 BR FEW004 OVC005 M06/M07 Q1018 TEMPO 4000 BR OVC004",
      "tafRaw": "TAF LOWW 210515Z 2106/2212 14013KT 8000 FEW008 BKN010 TXM04/2212Z TNM07/2204Z \n  TEMPO 2106/2111 BKN006 \n  PROB30 \n  TEMPO 2106/2109 4500 BR BKN004 \n  PROB30 \n  TEMPO 2112/2118 SCT012 \n  TEMPO 2118/2211 BKN007"
    },
    {
      "icao": "ENGM",
      "iata": "OSL",
      "name": "Oslo-Gardermoen International Airport",
      "lat": 60.193901,
      "lon": 11.1004,
      "updatedAt": "210720Z",
      "visibility_m": 10000,
      "taf_visibility_m": 10000,
      "worst_visibility_m": 10000,
      "ceiling_ft": 1700,
      "hazards": [
        "SHSN",
        "SN"
      ],
      "severityScore": 40,
      "metarRaw": "METAR ENGM 210720Z 02007KT 9999 -SHSN OVC017 M03/M05 Q1021 NOSIG",
      "tafRaw": "TAF ENGM 210500Z 2106/2206 02008KT 9999 OVC018 \n  TEMPO 2106/2206 BKN014"
    },
    {
      "icao": "ESKN",
      "iata": "NYO",
      "name": "Stockholm Skavsta Airport",
      "lat": 58.789656,
      "lon": 16.911479,
      "updatedAt": "210720Z",
      "visibility_m": 10000,
      "taf_visibility_m": 3000,
      "worst_visibility_m": 3000,
      "ceiling_ft": 1800,
      "hazards": [
        "SN",
        "SHSN"
      ],
      "severityScore": 40,
      "metarRaw": "METAR ESKN 210720Z 05005KT 020V080 9999 BKN018 M00/M02 Q1019",
      "tafRaw": "TAF ESKN 210530Z 2106/2206 04010KT 9999 OVC020 \n  PROB40 2106/2113 4000 -SN SG BKN009 \n  PROB40 2113/2206 3000 -SHSN BKN014 BKN020TCU"
    },
    {
      "icao": "LGTS",
      "iata": "SKG",
      "name": "Thessaloniki Macedonia International Airport",
      "lat": 40.51928,
      "lon": 22.970009,
      "updatedAt": "210720Z",
      "visibility_m": 10000,
      "taf_visibility_m": 5000,
      "worst_visibility_m": 5000,
      "ceiling_ft": 4000,
      "hazards": [
        "TS",
        "RA"
      ],
      "severityScore": 37,
      "metarRaw": "METAR LGTS 210720Z VRB02KT 9999 FEW005 BKN040 05/02 Q1022 NOSIG",
      "tafRaw": "TAF LGTS 210500Z 2106/2206 11010KT 9999 FEW010 BKN025 \n  TEMPO 2106/2122 5000 RA \n  BECMG 2110/2112 34013KT"
    },
    {
      "icao": "EGKK",
      "iata": "LGW",
      "name": "London Gatwick Airport",
      "lat": 51.148771,
      "lon": -0.192089,
      "updatedAt": "210720Z",
      "visibility_m": 7000,
      "taf_visibility_m": 3000,
      "worst_visibility_m": 3000,
      "ceiling_ft": 4100,
      "hazards": [
        "RA",
        "SHRA",
        "DZ"
      ],
      "severityScore": 36,
      "metarRaw": "METAR EGKK 210720Z 13008KT 110V170 7000 -RA SCT007 BKN041 07/06 Q0994",
      "tafRaw": "TAF EGKK 210455Z 2106/2212 17009KT 9999 SCT016 \n  TEMPO 2106/2210 7000 RA BKN010 \n  BECMG 2108/2111 15015G26KT \n  PROB40 \n  TEMPO 2108/2118 3000 +RA RADZ BKN008 \n  PROB30 \n  TEMPO 2118/2201 4000 RADZ BKN008 \n  BECMG 2121/2124 15013KT \n  PROB40 \n  TEMPO 2201/2210 3000 +RA RADZ BKN006 \n  TEMPO 2210/2212 5000 SHRA BKN009"
    },
    {
      "icao": "ESGG",
      "iata": "GOT",
      "name": "Göteborg Landvetter Airport",
      "lat": 57.6628,
      "lon": 12.2798,
      "updatedAt": "210720Z",
      "visibility_m": 10000,
      "taf_visibility_m": 4000,
      "worst_visibility_m": 4000,
      "ceiling_ft": 800,
      "hazards": [
        "BR"
      ],
      "severityScore": 35,
      "metarRaw": "METAR ESGG 210720Z 06010KT 9999 OVC008 M02/M04 Q1016",
      "tafRaw": "TAF ESGG 210530Z 2106/2206 07010KT 9000 OVC006 \n  PROB40 2106/2109 4000 BR BKN004 \n  TEMPO 2106/2206 BKN013"
    },
    {
      "icao": "LQBK",
      "iata": "BNX",
      "name": "Banja Luka International Airport",
      "lat": 44.941399,
      "lon": 17.297501,
      "updatedAt": "210730Z",
      "visibility_m": 5000,
      "taf_visibility_m": 10000,
      "worst_visibility_m": 5000,
      "ceiling_ft": 700,
      "hazards": [
        "BR"
      ],
      "severityScore": 35,
      "metarRaw": "METAR LQBK 210730Z VRB02KT 5000 BR BKN007 OVC015 M03/M05 Q1019 NOSIG",
      "tafRaw": "TAF LQBK 210500Z 2106/2206 VRB02KT 9999 BKN020 TXM00/2113Z TNM04/2205Z \n  PROB40 \n  TEMPO 2106/2110 OVC012"
    },
    {
      "icao": "LQSA",
      "iata": "SJJ",
      "name": "Sarajevo International Airport",
      "lat": 43.8246,
      "lon": 18.331499,
      "updatedAt": "210730Z",
      "visibility_m": 3000,
      "taf_visibility_m": 2000,
      "worst_visibility_m": 2000,
      "ceiling_ft": 600,
      "hazards": [
        "BR"
      ],
      "severityScore": 35,
      "metarRaw": "METAR LQSA 210730Z 00000KT 3000 BR BKN006 OVC015 M06/M06 Q1016 NOSIG",
      "tafRaw": "TAF LQSA 210500Z 2106/2206 VRB02KT 4000 BR BKN008 TX00/2113Z TNM07/2106Z \n  BECMG 2107/2109 7000 NSW SCT012 \n  PROB40 2121/2202 4000 BR BKN008 \n  PROB40 2202/2206 2000 BR BKN004"
    },
    {
      "icao": "GCLP",
      "iata": "LPA",
      "name": "Gran Canaria Airport",
      "lat": 27.9319,
      "lon": -15.3866,
      "updatedAt": "210730Z",
      "visibility_m": 10000,
      "taf_visibility_m": 3000,
      "worst_visibility_m": 3000,
      "ceiling_ft": 1400,
      "hazards": [
        "DZ",
        "RA"
      ],
      "severityScore": 34,
      "metarRaw": "METAR GCLP 210730Z 34006KT 9999 SCT040 17/11 Q1022 NOSIG",
      "tafRaw": "TAF GCLP 210200Z 2103/2203 33008KT 9999 BKN025 TX21/2114Z TN14/2106Z \n  TEMPO 2105/2112 RADZ \n  PROB30 \n  TEMPO 2105/2112 3000 DZ BKN014 \n  PROB40 \n  TEMPO 2111/2118 36018KT"
    },
    {
      "icao": "EGGW",
      "iata": "LTN",
      "name": "London Luton Airport",
      "lat": 51.874699,
      "lon": -0.368333,
      "updatedAt": "210720Z",
      "visibility_m": 10000,
      "taf_visibility_m": 3000,
      "worst_visibility_m": 3000,
      "ceiling_ft": 1100,
      "hazards": [
        "RA",
        "DZ"
      ],
      "severityScore": 34,
      "metarRaw": "METAR EGGW 210720Z AUTO 14009KT 9999 SCT006 BKN011 05/04 Q0993",
      "tafRaw": "TAF EGGW 210455Z 2106/2206 16012KT 9999 SCT020 \n  TEMPO 2106/2206 6000 RA BKN007 \n  PROB40 \n  TEMPO 2108/2112 BKN003 \n  BECMG 2109/2112 15018G28KT \n  PROB40 \n  TEMPO 2110/2118 3000 +RA RADZ \n  BECMG 2121/2124 13012KT \n  PROB40 \n  TEMPO 2200/2206 BKN003 \n  PROB40 \n  TEMPO 2203/2206 3000 +RA RADZ"
    },
    {
      "icao": "LPPS",
      "iata": "PXO",
      "name": "Porto Santo Airport",
      "lat": 33.0733985901,
      "lon": -16.3500003815,
      "updatedAt": "210730Z",
      "visibility_m": 10000,
      "taf_visibility_m": 6000,
      "worst_visibility_m": 6000,
      "ceiling_ft": 1200,
      "hazards": [
        "DZ",
        "RA"
      ],
      "severityScore": 34,
      "metarRaw": "METAR LPPS 210730Z 29014KT 9999 -DZ SCT014 SCT030 16/15 Q1020 RERA",
      "tafRaw": "TAF LPPS 210500Z 2106/2212 29015KT 9999 SCT015 \n  TEMPO 2109/2212 30017G27KT 6000 -RA SCT006 BKN012"
    },
    {
      "icao": "LATI",
      "iata": "TIA",
      "name": "Tirana International Airport Mother Teresa",
      "lat": 41.4147,
      "lon": 19.7206,
      "updatedAt": "210720Z",
      "visibility_m": 10000,
      "taf_visibility_m": 2500,
      "worst_visibility_m": 2500,
      "ceiling_ft": 6000,
      "hazards": [
        "RA",
        "FG"
      ],
      "severityScore": 32,
      "metarRaw": "METAR LATI 210720Z 32004KT 9999 -RA FEW020 SCT043 OVC060 05/03 Q1012 NOSIG",
      "tafRaw": "TAF LATI 210500Z 2106/2206 VRB05KT 9999 -RA SCT035 BKN060 TX10/2112Z TN05/2204Z \n  TEMPO 2107/2119 34010KT 4000 RA OVC040 \n  PROB30 \n  TEMPO 2120/2205 2500 BCFG NSC"
    },
    {
      "icao": "LPFR",
      "iata": "FAO",
      "name": "Faro - Gago Coutinho International Airport",
      "lat": 37.015909,
      "lon": -7.970939,
      "updatedAt": "210730Z",
      "visibility_m": 5000,
      "taf_visibility_m": 2000,
      "worst_visibility_m": 2000,
      "ceiling_ft": 3000,
      "hazards": [
        "BR",
        "RA",
        "DZ"
      ],
      "severityScore": 32,
      "metarRaw": "METAR LPFR 210730Z 22015KT 5000 -RADZ BR SCT004 SCT010 BKN030 13/12 Q1014",
      "tafRaw": "TAF LPFR 210500Z 2106/2206 24015KT 9999 SCT012 BKN025 \n  TEMPO 2106/2116 2000 RADZ BR SCT004 BKN008 \n  PROB30 \n  TEMPO 2110/2116 24020G32KT \n  BECMG 2116/2118 29012KT SCT020 \n  BECMG 2203/2205 VRB02KT"
    },
    {
      "icao": "LBSF",
      "iata": "SOF",
      "name": "Sofia Airport",
      "lat": 42.696357,
      "lon": 23.417671,
      "updatedAt": "210730Z",
      "visibility_m": 10000,
      "taf_visibility_m": 5000,
      "worst_visibility_m": 5000,
      "ceiling_ft": 1500,
      "hazards": [
        "SN"
      ],
      "severityScore": 30,
      "metarRaw": "METAR LBSF 210730Z 09008KT 9999 FEW027 SCT088 M03/M07 Q1022 NOSIG",
      "tafRaw": "TAF LBSF 210500Z 2106/2206 11012KT 9999 BKN060 \n  TEMPO 2117/2202 5000 SN BKN015 OVC030"
    },
    {
      "icao": "LWOH",
      "iata": "OHD",
      "name": "Ohrid St. Paul the Apostle Airport",
      "lat": 41.18,
      "lon": 20.7423,
      "updatedAt": null,
      "visibility_m": null,
      "taf_visibility_m": 3000,
      "worst_visibility_m": 3000,
      "ceiling_ft": 1000,
      "hazards": [
        "SN"
      ],
      "severityScore": 30,
      "metarRaw": null,
      "tafRaw": "TAF LWOH 210555Z 2106/2206 03010KT 9999 SCT035 BKN070 \n  TEMPO 2106/2115 3000 SN BKN010 OVC030"
    },
    {
      "icao": "LZKZ",
      "iata": "KSC",
      "name": "Košice International Airport",
      "lat": 48.663101,
      "lon": 21.2411,
      "updatedAt": "210730Z",
      "visibility_m": 10000,
      "taf_visibility_m": 2500,
      "worst_visibility_m": 2500,
      "ceiling_ft": null,
      "hazards": [
        "BR",
        "FG"
      ],
      "severityScore": 30,
      "metarRaw": "METAR LZKZ 210730Z VRB01KT 9999 FEW001 M11/M12 Q1021 NOSIG",
      "tafRaw": "TAF LZKZ 210515Z 2106/2206 VRB02KT CAVOK \n  PROB30 \n  TEMPO 2106/2108 2500 BR BCFG FEW001 \n  PROB30 \n  TEMPO 2120/2206 2500 BR SCT001"
    },
    {
      "icao": "LWSK",
      "iata": "SKP",
      "name": "Skopje International Airport",
      "lat": 41.958087,
      "lon": 21.622581,
      "updatedAt": "210720Z",
      "visibility_m": 1000,
      "taf_visibility_m": 1200,
      "worst_visibility_m": 1000,
      "ceiling_ft": 2000,
      "hazards": [
        "SN"
      ],
      "severityScore": 28,
      "metarRaw": "METAR LWSK 210720Z 03004KT 1000 R34/P2000N -SN SCT010 BKN020 OVC030 M01/M02 Q1022 NOSIG",
      "tafRaw": "TAF LWSK 210555Z 2106/2206 VRB02KT 5000 SCT040 OVC070 \n  TEMPO 2106/2112 1200 SN SCT010 OVC030"
    },
    {
      "icao": "LEZG",
      "iata": "ZAZ",
      "name": "Zaragoza Airport",
      "lat": 41.666199,
      "lon": -1.04155,
      "updatedAt": "210730Z",
      "visibility_m": 10000,
      "taf_visibility_m": 4000,
      "worst_visibility_m": 4000,
      "ceiling_ft": 3000,
      "hazards": [
        "RA",
        "SHRA"
      ],
      "severityScore": 26,
      "metarRaw": "METAR LEZG 210730Z 08003KT CAVOK 02/02 Q1010 NOSIG",
      "tafRaw": "TAF LEZG 210500Z 2106/2206 VRB04KT 9999 FEW040 TX14/2115Z TN05/2106Z \n  BECMG 2109/2111 13010KT \n  TEMPO 2110/2124 4000 RA SHRA FEW020TCU BKN030"
    },
    {
      "icao": "LICJ",
      "iata": "PMO",
      "name": "Falcone–Borsellino Airport",
      "lat": 38.175999,
      "lon": 13.091,
      "updatedAt": "210720Z",
      "visibility_m": 10000,
      "taf_visibility_m": 4000,
      "worst_visibility_m": 4000,
      "ceiling_ft": 7000,
      "hazards": [
        "RA",
        "SHRA"
      ],
      "severityScore": 26,
      "metarRaw": "METAR LICJ 210720Z 08016KT 9999 -RA FEW020 SCT030 BKN070 12/10 Q0999",
      "tafRaw": "TAF LICJ 210500Z 2106/2206 07020G40KT 9999 BKN030 \n  TEMPO 2106/2206 4000 SHRA \n  BECMG 2110/2112 07014KT \n  BECMG 2122/2124 33012KT"
    },
    {
      "icao": "LTFM",
      "iata": "IST",
      "name": "İstanbul Airport",
      "lat": 41.261297,
      "lon": 28.741951,
      "updatedAt": "210720Z",
      "visibility_m": 10000,
      "taf_visibility_m": 4000,
      "worst_visibility_m": 4000,
      "ceiling_ft": 2500,
      "hazards": [
        "RA",
        "SHRA"
      ],
      "severityScore": 26,
      "metarRaw": "METAR LTFM 210720Z 09011KT CAVOK 04/M04 Q1024 NOSIG RMK RWY17L 09014KT RWY34L 07010KT RWY16R 09014KT RWY36 08012KT RWY18 11012KT",
      "tafRaw": "TAF LTFM 210440Z 2106/2212 09015KT 9999 FEW040 \n  BECMG 2106/2109 CAVOK \n  BECMG 2115/2118 12005KT \n  BECMG 2119/2122 SCT035 BKN100 \n  BECMG 2200/2203 -RA BKN032 BKN080 \n  BECMG 2206/2208 16018KT -SHRA \n  PROB40 \n  TEMPO 2209/2212 18022G32KT 4000 SHRA BKN025"
    },
    {
      "icao": "GCTS",
      "iata": "TFS",
      "name": "Tenerife Sur Airport",
      "lat": 28.0445,
      "lon": -16.5725,
      "updatedAt": "210730Z",
      "visibility_m": 10000,
      "taf_visibility_m": 10000,
      "worst_visibility_m": 10000,
      "ceiling_ft": null,
      "hazards": [
        "TS"
      ],
      "severityScore": 25,
      "metarRaw": "METAR GCTS 210730Z 36008KT 9999 FEW030 15/08 Q1022 NOSIG",
      "tafRaw": "TAF GCTS 210200Z 2103/2203 36005KT 9999 FEW035 TX22/2114Z TN14/2106Z \n  TEMPO 2110/2116 21010KT \n  BECMG 2115/2118 12010KT \n  BECMG 2120/2122 33005KT"
    },
    {
      "icao": "EKBI",
      "iata": "BLL",
      "name": "Billund Airport",
      "lat": 55.740335,
      "lon": 9.157019,
      "updatedAt": "210720Z",
      "visibility_m": 10000,
      "taf_visibility_m": 7000,
      "worst_visibility_m": 7000,
      "ceiling_ft": 800,
      "hazards": [],
      "severityScore": 25,
      "metarRaw": "METAR EKBI 210720Z AUTO 09018KT 9999 OVC011/// M01/M03 Q1012",
      "tafRaw": "TAF EKBI 210527Z 2106/2206 08010KT 7000 BKN010 \n  TEMPO 2106/2122 BKN008 \n  BECMG 2122/2124 BKN018"
    },
    {
      "icao": "LEZL",
      "iata": "SVQ",
      "name": "Sevilla Airport",
      "lat": 37.417999,
      "lon": -5.89311,
      "updatedAt": "210730Z",
      "visibility_m": 10000,
      "taf_visibility_m": 4000,
      "worst_visibility_m": 4000,
      "ceiling_ft": 1000,
      "hazards": [
        "RA"
      ],
      "severityScore": 24,
      "metarRaw": "METAR LEZL 210730Z 32003KT 9999 SCT028 SCT036 07/07 Q1015 NOSIG",
      "tafRaw": "TAF LEZL 210200Z 2103/2203 VRB03KT CAVOK TX15/2115Z TN05/2107Z \n  PROB30 \n  TEMPO 2109/2114 RA BKN014 \n  BECMG 2112/2114 20010KT \n  TEMPO 2114/2119 4000 RA BKN010 \n  PROB30 2115/2118 20015G25KT"
    },
    {
      "icao": "LFLL",
      "iata": "LYS",
      "name": "Lyon Saint-Exupéry Airport",
      "lat": 45.725996,
      "lon": 5.090139,
      "updatedAt": "210730Z",
      "visibility_m": 10000,
      "taf_visibility_m": 4500,
      "worst_visibility_m": 4500,
      "ceiling_ft": 1200,
      "hazards": [
        "RA"
      ],
      "severityScore": 24,
      "metarRaw": "METAR LFLL 210730Z 14011KT CAVOK 04/02 Q1007 NOSIG",
      "tafRaw": "TAF LFLL 210500Z 2106/2212 13009KT CAVOK \n  TEMPO 2112/2116 18015G30KT \n  FM220400 14005KT 9999 BKN045 OVC085 \n  TEMPO 2204/2212 4500 -RA BKN012 OVC045"
    },
    {
      "icao": "LIBD",
      "iata": "BRI",
      "name": "Bari Karol Wojtyła International Airport",
      "lat": 41.138901,
      "lon": 16.760599,
      "updatedAt": "210720Z",
      "visibility_m": 5000,
      "taf_visibility_m": 8000,
      "worst_visibility_m": 5000,
      "ceiling_ft": 1000,
      "hazards": [
        "RA"
      ],
      "severityScore": 24,
      "metarRaw": "METAR LIBD 210720Z VRB01KT 5000 -RA OVC010 06/06 Q1010",
      "tafRaw": "TAF LIBD 210500Z 2106/2206 12008KT 8000 BKN020 \n  TEMPO 2106/2124 RA"
    },
    {
      "icao": "LPMA",
      "iata": "FNC",
      "name": "Cristiano Ronaldo International Airport",
      "lat": 32.697812,
      "lon": -16.774613,
      "updatedAt": "210730Z",
      "visibility_m": 10000,
      "taf_visibility_m": 6000,
      "worst_visibility_m": 6000,
      "ceiling_ft": 1300,
      "hazards": [
        "RA"
      ],
      "severityScore": 24,
      "metarRaw": "METAR LPMA 210730Z 27006KT 9999 SCT015 15/09 Q1021",
      "tafRaw": "TAF LPMA 210500Z 2106/2206 VRB05KT 9999 SCT015 \n  TEMPO 2106/2109 BKN014 \n  TEMPO 2109/2206 VRB07G17KT 6000 -RA SCT008 BKN013"
    },
    {
      "icao": "GCFV",
      "iata": "FUE",
      "name": "Fuerteventura Airport",
      "lat": 28.4527,
      "lon": -13.8638,
      "updatedAt": "210730Z",
      "visibility_m": 10000,
      "taf_visibility_m": 10000,
      "worst_visibility_m": 10000,
      "ceiling_ft": null,
      "hazards": [
        "RA",
        "DZ"
      ],
      "severityScore": 22,
      "metarRaw": "METAR GCFV 210730Z 31008KT 9999 FEW035 14/08 Q1021",
      "tafRaw": "TAF GCFV 210200Z 2103/2203 30005KT 9999 SCT035 TX21/2114Z TN14/2106Z \n  PROB30 \n  TEMPO 2103/2111 DZRA \n  BECMG 2109/2111 36012KT \n  BECMG 2120/2122 29008KT"
    },
    {
      "icao": "EGPF",
      "iata": "GLA",
      "name": "Glasgow Airport",
      "lat": 55.871899,
      "lon": -4.43306,
      "updatedAt": "210720Z",
      "visibility_m": 10000,
      "taf_visibility_m": 4000,
      "worst_visibility_m": 4000,
      "ceiling_ft": 2200,
      "hazards": [
        "RA",
        "DZ"
      ],
      "severityScore": 22,
      "metarRaw": "METAR EGPF 210720Z AUTO 05003KT 020V090 9999 -RA OVC022 05/04 Q0990",
      "tafRaw": "TAF EGPF 210456Z 2106/2206 10008KT 9999 FEW015 SCT035 \n  BECMG 2114/2117 08018G28KT \n  TEMPO 2115/2206 6000 RA -RADZ BKN012 \n  PROB30 \n  TEMPO 2116/2206 4000 +RA RADZ BKN008 \n  BECMG 2203/2206 10011KT"
    },
    {
      "icao": "EPRA",
      "iata": "RDO",
      "name": "Warsaw Radom Airport",
      "lat": 51.38937,
      "lon": 21.214742,
      "updatedAt": "210730Z",
      "visibility_m": 10000,
      "taf_visibility_m": 5000,
      "worst_visibility_m": 5000,
      "ceiling_ft": null,
      "hazards": [
        "RA",
        "BR"
      ],
      "severityScore": 22,
      "metarRaw": "METAR EPRA 210730Z 15004KT CAVOK M10/M13 Q1017",
      "tafRaw": "TAF EPRA 210530Z 2106/2115 15006KT 8000 NSC \n  PROB40 2107/2110 5000 BR"
    },
    {
      "icao": "LIBR",
      "iata": "BDS",
      "name": "Brindisi Airport",
      "lat": 40.6576,
      "lon": 17.947001,
      "updatedAt": "210720Z",
      "visibility_m": 10000,
      "taf_visibility_m": 8000,
      "worst_visibility_m": 8000,
      "ceiling_ft": 2000,
      "hazards": [
        "BR",
        "RA"
      ],
      "severityScore": 22,
      "metarRaw": "METAR LIBR 210720Z 08018KT 9999 SCT015 10/06 Q1009",
      "tafRaw": "TAF LIBR 210500Z 2106/2206 06015KT 8000 RA BKN020 \n  TEMPO 2106/2115 07018G28KT \n  BECMG 2120/2122 12010KT NSW"
    },
    {
      "icao": "EPKK",
      "iata": "KRK",
      "name": "Kraków John Paul II International Airport",
      "lat": 50.077702,
      "lon": 19.7848,
      "updatedAt": "210730Z",
      "visibility_m": 2800,
      "taf_visibility_m": 1200,
      "worst_visibility_m": 1200,
      "ceiling_ft": null,
      "hazards": [
        "BR"
      ],
      "severityScore": 20,
      "metarRaw": "METAR EPKK 210730Z VRB01KT 2800 BR NSC M13/M16 Q1017",
      "tafRaw": "TAF EPKK 210530Z 2106/2206 VRB02KT 2500 BR NSC \n  TEMPO 2106/2107 1200 BR \n  BECMG 2107/2110 7000 \n  TEMPO 2110/2115 4500 HZ \n  BECMG 2118/2121 3000 BR \n  TEMPO 2121/2206 1200 BR"
    },
    {
      "icao": "EPSY",
      "iata": "SZY",
      "name": "Olsztyn-Mazury Airport",
      "lat": 53.481899,
      "lon": 20.9377,
      "updatedAt": "210730Z",
      "visibility_m": 1500,
      "taf_visibility_m": 2000,
      "worst_visibility_m": 1500,
      "ceiling_ft": null,
      "hazards": [
        "BR"
      ],
      "severityScore": 20,
      "metarRaw": "METAR EPSY 210730Z 00000KT 1500 BR NSC M19/M21 Q1016",
      "tafRaw": "TAF EPSY 210530Z 2106/2115 VRB02KT 4000 BR NSC \n  TEMPO 2106/2110 2000 BR \n  BECMG 2110/2112 7000"
    },
    {
      "icao": "EYVI",
      "iata": "VNO",
      "name": "Vilnius International Airport",
      "lat": 54.634102,
      "lon": 25.285801,
      "updatedAt": "210720Z",
      "visibility_m": 3100,
      "taf_visibility_m": null,
      "worst_visibility_m": 3100,
      "ceiling_ft": null,
      "hazards": [
        "BR"
      ],
      "severityScore": 15,
      "metarRaw": "METAR EYVI 210720Z 16005KT 3100 BR NSC M14/M16 Q1017 NOSIG",
      "tafRaw": null
    },
    {
      "icao": "EBCI",
      "iata": "CRL",
      "name": "Brussels South Charleroi Airport",
      "lat": 50.461963,
      "lon": 4.459562,
      "updatedAt": "210720Z",
      "visibility_m": 10000,
      "taf_visibility_m": 10000,
      "worst_visibility_m": 10000,
      "ceiling_ft": 1200,
      "hazards": [],
      "severityScore": 12,
      "metarRaw": "METAR EBCI 210720Z 17007KT 140V200 CAVOK 05/00 Q1004 NOSIG",
      "tafRaw": "TAF EBCI 210510Z 2106/2212 15009KT 9999 SCT040 \n  PROB30 \n  TEMPO 2211/2212 BKN012"
    },
    {
      "icao": "EKCH",
      "iata": "CPH",
      "name": "Copenhagen Kastrup Airport",
      "lat": 55.617900848389,
      "lon": 12.656000137329,
      "updatedAt": "210720Z",
      "visibility_m": 6000,
      "taf_visibility_m": 8000,
      "worst_visibility_m": 6000,
      "ceiling_ft": 1200,
      "hazards": [],
      "severityScore": 12,
      "metarRaw": "METAR EKCH 210720Z AUTO 07006KT 6000 BKN020/// M00/M01 Q1015 NOSIG",
      "tafRaw": "TAF EKCH 210527Z 2106/2206 07010KT 8000 NSC \n  TEMPO 2109/2118 BKN012"
    },
    {
      "icao": "ENTO",
      "iata": "TRF",
      "name": "Sandefjord Airport, Torp",
      "lat": 59.186699,
      "lon": 10.2586,
      "updatedAt": "210720Z",
      "visibility_m": 10000,
      "taf_visibility_m": 10000,
      "worst_visibility_m": 10000,
      "ceiling_ft": 1600,
      "hazards": [],
      "severityScore": 12,
      "metarRaw": "METAR ENTO 210720Z 04010KT 010V070 9999 OVC016 M03/M06 Q1020 NOSIG",
      "tafRaw": "TAF ENTO 210500Z 2106/2206 03012KT 9999 OVC012 \n  TEMPO 2106/2206 BKN016"
    },
    {
      "icao": "ESMS",
      "iata": "MMX",
      "name": "Malmö Sturup Airport",
      "lat": 55.535564,
      "lon": 13.376327,
      "updatedAt": "210720Z",
      "visibility_m": 10000,
      "taf_visibility_m": 8000,
      "worst_visibility_m": 8000,
      "ceiling_ft": 1900,
      "hazards": [],
      "severityScore": 12,
      "metarRaw": "METAR ESMS 210720Z 09005KT 9999 BKN019 M01/M03 Q1014",
      "tafRaw": "TAF ESMS 210527Z 2106/2206 07008KT 8000 NSC \n  TEMPO 2109/2206 BKN012"
    },
    {
      "icao": "HESX",
      "iata": "SPX",
      "name": "Sphinx International Airport",
      "lat": 30.108179,
      "lon": 30.895728,
      "updatedAt": "210700Z",
      "visibility_m": 10000,
      "taf_visibility_m": 3000,
      "worst_visibility_m": 3000,
      "ceiling_ft": 10000,
      "hazards": [
        "RA"
      ],
      "severityScore": 12,
      "metarRaw": "METAR HESX 210700Z 07021KT 9999 SCT020 12/02 Q1017 NOSIG",
      "tafRaw": "TAF HESX 210500Z 2106/2212 08015KT 6000 NSC \n  PROB30 2106/2118 3000 -RA SA FEW030 BKN100 BKN200"
    },
    {
      "icao": "LBWN",
      "iata": "VAR",
      "name": "Varna Airport",
      "lat": 43.232101,
      "lon": 27.8251,
      "updatedAt": "210730Z",
      "visibility_m": 7000,
      "taf_visibility_m": 5000,
      "worst_visibility_m": 5000,
      "ceiling_ft": 2100,
      "hazards": [
        "RA"
      ],
      "severityScore": 12,
      "metarRaw": "METAR LBWN 210730Z 11002KT 7000 OVC021 M00/M00 Q1026 NOSIG",
      "tafRaw": "TAF LBWN 210500Z 2106/2206 VRB03KT 9999 BKN020 \n  BECMG 2108/2110 11010KT \n  TEMPO 2200/2206 5000 RA BKN015 OVC030"
    },
    {
      "icao": "LEAL",
      "iata": "ALC",
      "name": "Alicante-Elche Miguel Hernández Airport",
      "lat": 38.2822,
      "lon": -0.558156,
      "updatedAt": "210730Z",
      "visibility_m": 10000,
      "taf_visibility_m": 4000,
      "worst_visibility_m": 4000,
      "ceiling_ft": 4200,
      "hazards": [
        "RA"
      ],
      "severityScore": 12,
      "metarRaw": "METAR LEAL 210730Z 30016KT 9999 BKN042 12/04 Q1011 NOSIG",
      "tafRaw": "TAF LEAL 210500Z 2106/2206 30012KT 9999 BKN050 TX19/2113Z TN12/2106Z \n  TEMPO 2114/2117 21009KT \n  BECMG 2118/2120 VRB04KT \n  PROB40 \n  TEMPO 2118/2120 4000 RA FEW020TCU BKN030"
    },
    {
      "icao": "LEMG",
      "iata": "AGP",
      "name": "Málaga-Costa del Sol Airport",
      "lat": 36.6749,
      "lon": -4.49911,
      "updatedAt": "210730Z",
      "visibility_m": 10000,
      "taf_visibility_m": 10000,
      "worst_visibility_m": 10000,
      "ceiling_ft": 2000,
      "hazards": [
        "RA"
      ],
      "severityScore": 12,
      "metarRaw": "METAR LEMG 210730Z 26007KT 230V290 CAVOK 10/04 Q1015 NOSIG",
      "tafRaw": "TAF LEMG 210500Z 2106/2206 30010KT CAVOK TX17/2114Z TN08/2107Z \n  BECMG 2109/2111 VRB03KT \n  PROB40 \n  TEMPO 2113/2121 RA BKN020 \n  PROB30 \n  TEMPO 2117/2120 22010KT \n  BECMG 2200/2202 30010KT"
    },
    {
      "icao": "LFOB",
      "iata": "BVA",
      "name": "Beauvais Tillé airport",
      "lat": 49.454399,
      "lon": 2.11278,
      "updatedAt": "210730Z",
      "visibility_m": 10000,
      "taf_visibility_m": 10000,
      "worst_visibility_m": 10000,
      "ceiling_ft": 10000,
      "hazards": [
        "RA"
      ],
      "severityScore": 12,
      "metarRaw": "METAR LFOB 210730Z AUTO 16012KT 9999 FEW048 OVC100 08/06 Q1000 NOSIG",
      "tafRaw": "TAF LFOB 210500Z 2106/2206 16012KT 9999 BKN045 \n  TEMPO 2106/2108 -RA BKN025TCU"
    },
    {
      "icao": "LFPO",
      "iata": "ORY",
      "name": "Paris-Orly Airport",
      "lat": 48.72333,
      "lon": 2.37944,
      "updatedAt": "210730Z",
      "visibility_m": 10000,
      "taf_visibility_m": 10000,
      "worst_visibility_m": 10000,
      "ceiling_ft": 1200,
      "hazards": [],
      "severityScore": 12,
      "metarRaw": "METAR LFPO 210730Z AUTO 18011KT CAVOK 09/05 Q1001",
      "tafRaw": "TAF LFPO 210500Z 2106/2212 17010KT CAVOK \n  BECMG 2207/2209 BKN012"
    },
    {
      "icao": "LIBG",
      "iata": "TAR",
      "name": "Taranto-Grottaglie Marcello Arlotta Airport",
      "lat": 40.517502,
      "lon": 17.4032,
      "updatedAt": "210655Z",
      "visibility_m": 10000,
      "taf_visibility_m": 10000,
      "worst_visibility_m": 10000,
      "ceiling_ft": null,
      "hazards": [
        "RA"
      ],
      "severityScore": 12,
      "metarRaw": "SPECI LIBG 210655Z 05014KT 9999 -RA FEW015 SCT045 08/08 Q1008",
      "tafRaw": "TAF LIBG 210731Z 2108/2115 05015KT 9999 RA FEW015 SCT040 \n  TEMPO 2108/2110 05015G25KT"
    },
    {
      "icao": "LIBP",
      "iata": "PSR",
      "name": "Abruzzo Airport",
      "lat": 42.431079,
      "lon": 14.182981,
      "updatedAt": "210650Z",
      "visibility_m": 9000,
      "taf_visibility_m": 10000,
      "worst_visibility_m": 9000,
      "ceiling_ft": null,
      "hazards": [
        "RA"
      ],
      "severityScore": 12,
      "metarRaw": "METAR LIBP 210650Z AUTO 20002KT 9000 OVC053/// 06/06 Q1012",
      "tafRaw": "TAF LIBP 210500Z 2106/2206 VRB05KT 9999 FEW050 \n  TEMPO 2106/2124 RA"
    },
    {
      "icao": "LIPY",
      "iata": "AOI",
      "name": "Marche Airport",
      "lat": 43.616299,
      "lon": 13.3623,
      "updatedAt": "210650Z",
      "visibility_m": 10000,
      "taf_visibility_m": 10000,
      "worst_visibility_m": 10000,
      "ceiling_ft": 2000,
      "hazards": [
        "RA"
      ],
      "severityScore": 12,
      "metarRaw": "METAR LIPY 210650Z AUTO 24003KT 210V270 9999 OVC046/// 04/02 Q1013",
      "tafRaw": "TAF LIPY 210500Z 2106/2206 32008KT 9999 BKN020 \n  TEMPO 2108/2124 RA"
    },
    {
      "icao": "LIRN",
      "iata": "NAP",
      "name": "Naples International Airport",
      "lat": 40.886002,
      "lon": 14.2908,
      "updatedAt": "210720Z",
      "visibility_m": 10000,
      "taf_visibility_m": 4000,
      "worst_visibility_m": 4000,
      "ceiling_ft": 8000,
      "hazards": [
        "RA"
      ],
      "severityScore": 12,
      "metarRaw": "METAR LIRN 210720Z 03011KT 9999 FEW020 BKN080 07/03 Q1006 NOSIG",
      "tafRaw": "TAF LIRN 210500Z 2106/2206 05015G28KT 9999 BKN060 \n  TEMPO 2106/2108 4000 RA \n  BECMG 2116/2118 05010KT \n  BECMG 2120/2122 VRB05KT"
    },
    {
      "icao": "LYPG",
      "iata": "TGD",
      "name": "Podgorica Airport / Podgorica Golubovci Airbase",
      "lat": 42.359402,
      "lon": 19.2519,
      "updatedAt": "210730Z",
      "visibility_m": 8000,
      "taf_visibility_m": 5000,
      "worst_visibility_m": 5000,
      "ceiling_ft": 4000,
      "hazards": [
        "RA"
      ],
      "severityScore": 12,
      "metarRaw": "METAR LYPG 210730Z 33005KT 8000 -RA FEW030 BKN040 OVC070 03/M01 Q1015 NOSIG",
      "tafRaw": "TAF LYPG 210500Z 2106/2206 16005KT 9999 SCT040 OVC070 TX08/2113Z TN02/2106Z \n  PROB40 \n  TEMPO 2108/2206 5000 RA"
    },
    {
      "icao": "ENBR",
      "iata": "BGO",
      "name": "Bergen Airport, Flesland",
      "lat": 60.2934,
      "lon": 5.21814,
      "updatedAt": "210720Z",
      "visibility_m": 10000,
      "taf_visibility_m": 10000,
      "worst_visibility_m": 10000,
      "ceiling_ft": null,
      "hazards": [
        "BR"
      ],
      "severityScore": 10,
      "metarRaw": "METAR ENBR 210720Z 00000KT CAVOK M01/M01 Q1011 NOSIG RMK WIND 1200FT 14007KT",
      "tafRaw": "TAF ENBR 210500Z 2106/2206 08005KT CAVOK"
    },
    {
      "icao": "EPKT",
      "iata": "KTW",
      "name": "Katowice Wojciech Korfanty International Airport",
      "lat": 50.476015,
      "lon": 19.080705,
      "updatedAt": "210730Z",
      "visibility_m": 4300,
      "taf_visibility_m": 3000,
      "worst_visibility_m": 3000,
      "ceiling_ft": null,
      "hazards": [
        "BR"
      ],
      "severityScore": 10,
      "metarRaw": "METAR EPKT 210730Z 07003KT 050V120 4300 BR NSC M11/M13 Q1016",
      "tafRaw": "TAF EPKT 210530Z 2106/2206 VRB02KT 3500 BR NSC \n  BECMG 2106/2109 CAVOK \n  TEMPO 2118/2206 3000 BR"
    },
    {
      "icao": "EPLB",
      "iata": "LUZ",
      "name": "Lublin Airport",
      "lat": 51.240157,
      "lon": 22.713461,
      "updatedAt": "210730Z",
      "visibility_m": 2800,
      "taf_visibility_m": 2000,
      "worst_visibility_m": 2000,
      "ceiling_ft": null,
      "hazards": [
        "BR"
      ],
      "severityScore": 10,
      "metarRaw": "METAR EPLB 210730Z 08002KT 2800 BR NSC M15/M16 Q1018",
      "tafRaw": "TAF EPLB 210530Z 2106/2206 VRB03KT 7000 NSC \n  TEMPO 2106/2108 2000 BR \n  TEMPO 2120/2206 2000 BR"
    },
    {
      "icao": "EPRZ",
      "iata": "RZE",
      "name": "Rzeszów-Jasionka Airport",
      "lat": 50.109791,
      "lon": 22.024155,
      "updatedAt": "210730Z",
      "visibility_m": 4800,
      "taf_visibility_m": 2500,
      "worst_visibility_m": 2500,
      "ceiling_ft": null,
      "hazards": [
        "BR"
      ],
      "severityScore": 10,
      "metarRaw": "METAR EPRZ 210730Z 06003KT 020V080 4800 BR NSC M11/M14 Q1018",
      "tafRaw": "TAF EPRZ 210530Z 2106/2206 10005KT 8000 NSC \n  TEMPO 2106/2108 2500 BR \n  TEMPO 2108/2114 4000 HZ"
    },
    {
      "icao": "EPSC",
      "iata": "SZZ",
      "name": "Solidarity Szczecin–Goleniów Airport",
      "lat": 53.584702,
      "lon": 14.9022,
      "updatedAt": "210730Z",
      "visibility_m": 10000,
      "taf_visibility_m": 3000,
      "worst_visibility_m": 3000,
      "ceiling_ft": null,
      "hazards": [
        "BR"
      ],
      "severityScore": 10,
      "metarRaw": "METAR EPSC 210730Z 12005KT CAVOK M08/M09 Q1013",
      "tafRaw": "TAF EPSC 210530Z 2106/2206 12007KT CAVOK \n  PROB30 2106/2107 4000 BR \n  PROB40 2200/2206 3000 BR"
    },
    {
      "icao": "EPWA",
      "iata": "WAW",
      "name": "Warsaw Chopin Airport",
      "lat": 52.165699,
      "lon": 20.9671,
      "updatedAt": "210730Z",
      "visibility_m": 5000,
      "taf_visibility_m": 2000,
      "worst_visibility_m": 2000,
      "ceiling_ft": null,
      "hazards": [
        "BR"
      ],
      "severityScore": 10,
      "metarRaw": "METAR EPWA 210730Z 11005KT 070V150 5000 BR NSC M11/M12 Q1017 NOSIG",
      "tafRaw": "TAF EPWA 210530Z 2106/2206 13005KT 7000 NSC \n  PROB40 2106/2108 3000 BR \n  PROB40 2121/2206 2000 BR"
    },
    {
      "icao": "LHBP",
      "iata": "BUD",
      "name": "Budapest Liszt Ferenc International Airport",
      "lat": 47.43018,
      "lon": 19.262393,
      "updatedAt": "210730Z",
      "visibility_m": 4500,
      "taf_visibility_m": 2500,
      "worst_visibility_m": 2500,
      "ceiling_ft": null,
      "hazards": [
        "BR"
      ],
      "severityScore": 10,
      "metarRaw": "METAR LHBP 210730Z VRB01KT 4500 BR NSC M10/M12 Q1021 BECMG 6000 NSW",
      "tafRaw": "TAF LHBP 210515Z 2106/2206 VRB03KT 2500 BR NSC \n  BECMG 2106/2110 08006KT CAVOK \n  TEMPO 2122/2206 VRB02KT 4000 BR"
    },
    {
      "icao": "LHDC",
      "iata": "DEB",
      "name": "Debrecen International Airport",
      "lat": 47.488899,
      "lon": 21.615299,
      "updatedAt": "210715Z",
      "visibility_m": 4000,
      "taf_visibility_m": 2500,
      "worst_visibility_m": 2500,
      "ceiling_ft": null,
      "hazards": [
        "BR"
      ],
      "severityScore": 10,
      "metarRaw": "METAR LHDC 210715Z AUTO 04004KT 4000 BR NCD M10/M12 Q1021 NOSIG",
      "tafRaw": "TAF LHDC 210515Z 2106/2115 04006KT 2500 BR NSC \n  BECMG 2106/2109 CAVOK"
    },
    {
      "icao": "LRCV",
      "iata": "CRA",
      "name": "Craiova International Airport",
      "lat": 44.3181,
      "lon": 23.888599,
      "updatedAt": "210730Z",
      "visibility_m": 8000,
      "taf_visibility_m": 3000,
      "worst_visibility_m": 3000,
      "ceiling_ft": null,
      "hazards": [
        "BR"
      ],
      "severityScore": 10,
      "metarRaw": "METAR LRCV 210730Z 08001KT 8000 NSC M06/M07 Q1023",
      "tafRaw": "TAF LRCV 210500Z 2106/2115 VRB04KT 3000 BR NSC \n  BECMG 2107/2109 9999 NSW \n  BECMG 2109/2111 09010KT"
    },
    {
      "icao": "LRSM",
      "iata": "SUJ",
      "name": "Satu Mare International Airport",
      "lat": 47.7033,
      "lon": 22.8857,
      "updatedAt": "210730Z",
      "visibility_m": 10000,
      "taf_visibility_m": 5000,
      "worst_visibility_m": 5000,
      "ceiling_ft": null,
      "hazards": [
        "BR"
      ],
      "severityScore": 10,
      "metarRaw": "METAR LRSM 210730Z 09004KT CAVOK M11/M13 Q1021",
      "tafRaw": "TAF LRSM 210500Z 2106/2115 VRB04KT 5000 BR NSC \n  BECMG 2107/2108 9999 NSW"
    },
    {
      "icao": "LRSV",
      "iata": "SCV",
      "name": "Suceava Stefan cel Mare Airport",
      "lat": 47.6875,
      "lon": 26.35409927368164,
      "updatedAt": "210730Z",
      "visibility_m": 10000,
      "taf_visibility_m": 3000,
      "worst_visibility_m": 3000,
      "ceiling_ft": null,
      "hazards": [
        "BR"
      ],
      "severityScore": 10,
      "metarRaw": "METAR LRSV 210730Z 22005KT CAVOK M08/M10 Q1019",
      "tafRaw": "TAF LRSV 210500Z 2106/2115 VRB04KT CAVOK \n  TEMPO 2106/2108 3000 BR"
    },
    {
      "icao": "LTAC",
      "iata": "ESB",
      "name": "Esenboğa International Airport",
      "lat": 40.128101,
      "lon": 32.995098,
      "updatedAt": "210720Z",
      "visibility_m": 10000,
      "taf_visibility_m": 4000,
      "worst_visibility_m": 4000,
      "ceiling_ft": 10000,
      "hazards": [
        "BR"
      ],
      "severityScore": 10,
      "metarRaw": "METAR LTAC 210720Z 03002KT CAVOK M07/M11 Q1027 NOSIG RMK RWY21C 05002KT RWY03L VRB02KT RWY21R VRB02KT RWY03R 03003KT RWY21L 05003KT",
      "tafRaw": "TAF LTAC 210440Z 2106/2206 VRB02KT CAVOK \n  BECMG 2108/2110 SCT040 BKN100 \n  PROB30 2203/2206 4000 BR"
    },
    {
      "icao": "UDSG",
      "iata": "LWN",
      "name": "Shirak International Airport",
      "lat": 40.750401,
      "lon": 43.859299,
      "updatedAt": "210730Z",
      "visibility_m": 10000,
      "taf_visibility_m": 5000,
      "worst_visibility_m": 5000,
      "ceiling_ft": null,
      "hazards": [
        "BR"
      ],
      "severityScore": 10,
      "metarRaw": "METAR UDSG 210730Z 07003KT 030V140 9999 NSC M08/M13 Q1024 NOSIG",
      "tafRaw": "TAF UDSG 210500Z 2106/2206 VRB06KT 9999 FEW050 \n  TEMPO 2106/2109 5000 BR"
    },
    {
      "icao": "BKPR",
      "iata": "PRN",
      "name": "Priština Adem Jashari International Airport",
      "lat": 42.5728,
      "lon": 21.035801,
      "updatedAt": "210730Z",
      "visibility_m": 10000,
      "taf_visibility_m": null,
      "worst_visibility_m": 10000,
      "ceiling_ft": 4000,
      "hazards": [],
      "severityScore": 5,
      "metarRaw": "METAR BKPR 210730Z 16004KT 9999 SCT015 BKN040 M00/M02 Q1017 NOSIG",
      "tafRaw": null
    },
    {
      "icao": "ENTC",
      "iata": "TOS",
      "name": "Tromsø Airport, Langnes",
      "lat": 69.683296,
      "lon": 18.9189,
      "updatedAt": "210720Z",
      "visibility_m": 10000,
      "taf_visibility_m": null,
      "worst_visibility_m": 10000,
      "ceiling_ft": null,
      "hazards": [],
      "severityScore": 5,
      "metarRaw": "METAR ENTC 210720Z VRB02KT CAVOK M08/M09 Q1026 NOSIG RMK WIND 2600FT 10004KT",
      "tafRaw": null
    },
    {
      "icao": "EPWR",
      "iata": "WRO",
      "name": "Copernicus Wrocław Airport",
      "lat": 51.103719,
      "lon": 16.882096,
      "updatedAt": "210730Z",
      "visibility_m": 10000,
      "taf_visibility_m": null,
      "worst_visibility_m": 10000,
      "ceiling_ft": null,
      "hazards": [],
      "severityScore": 5,
      "metarRaw": "METAR EPWR 210730Z 19008KT CAVOK M01/M07 Q1014",
      "tafRaw": null
    },
    {
      "icao": "ESSA",
      "iata": "ARN",
      "name": "Stockholm-Arlanda Airport",
      "lat": 59.64849,
      "lon": 17.928829,
      "updatedAt": "210720Z",
      "visibility_m": 10000,
      "taf_visibility_m": null,
      "worst_visibility_m": 10000,
      "ceiling_ft": 2000,
      "hazards": [],
      "severityScore": 5,
      "metarRaw": "METAR ESSA 210720Z 05008KT 9999 FEW010 SCT016 BKN023 M02/M04 Q1021 TEMPO OVC020",
      "tafRaw": null
    },
    {
      "icao": "EYPA",
      "iata": "PLQ",
      "name": "Palanga International Airport",
      "lat": 55.973202,
      "lon": 21.093901,
      "updatedAt": "210720Z",
      "visibility_m": 8000,
      "taf_visibility_m": null,
      "worst_visibility_m": 8000,
      "ceiling_ft": null,
      "hazards": [],
      "severityScore": 5,
      "metarRaw": "METAR EYPA 210720Z 09004KT 8000 FEW002 M12/M14 Q1017",
      "tafRaw": null
    },
    {
      "icao": "LEBL",
      "iata": "BCN",
      "name": "Josep Tarradellas Barcelona-El Prat Airport",
      "lat": 41.2971,
      "lon": 2.07846,
      "updatedAt": "210730Z",
      "visibility_m": 10000,
      "taf_visibility_m": null,
      "worst_visibility_m": 10000,
      "ceiling_ft": null,
      "hazards": [],
      "severityScore": 5,
      "metarRaw": "METAR LEBL 210730Z 33006KT 240V010 9999 FEW025 10/10 Q1010 NOSIG",
      "tafRaw": null
    },
    {
      "icao": "LECH",
      "iata": "CDT",
      "name": "Castellón-Costa Azahar Airport",
      "lat": 40.213889,
      "lon": 0.073333,
      "updatedAt": "210730Z",
      "visibility_m": 7000,
      "taf_visibility_m": null,
      "worst_visibility_m": 7000,
      "ceiling_ft": 3200,
      "hazards": [],
      "severityScore": 5,
      "metarRaw": "METAR LECH 210730Z AUTO VRB02KT 7000 FEW021 OVC032 08/07 Q1011",
      "tafRaw": null
    },
    {
      "icao": "BIKF",
      "iata": "KEF",
      "name": "Keflavik International Airport",
      "lat": 63.985001,
      "lon": -22.6056,
      "updatedAt": "210730Z",
      "visibility_m": 10000,
      "taf_visibility_m": 10000,
      "worst_visibility_m": 10000,
      "ceiling_ft": 4500,
      "hazards": [],
      "severityScore": 0,
      "metarRaw": "METAR BIKF 210730Z 06009KT CAVOK 03/00 Q0999",
      "tafRaw": "TAF BIKF 210745Z 2109/2209 05012KT 9999 FEW020 BKN045 TX09/2209Z TN04/2109Z \n  BECMG 2120/2122 07015G25KT"
    },
    {
      "icao": "GMAD",
      "iata": "AGA",
      "name": "Al Massira Airport",
      "lat": 30.322478,
      "lon": -9.412003,
      "updatedAt": "210730Z",
      "visibility_m": 10000,
      "taf_visibility_m": null,
      "worst_visibility_m": 10000,
      "ceiling_ft": null,
      "hazards": [],
      "severityScore": 0,
      "metarRaw": "METAR GMAD 210730Z 06006KT 9999 FEW030 07/07 Q1019 NOSIG",
      "tafRaw": "TAF GMAD 210500Z 2106/2212 06008KT \n  BECMG 2114/2116 28010KT"
    },
    {
      "icao": "GMMN",
      "iata": "CMN",
      "name": "Mohammed V International Airport",
      "lat": 33.3675,
      "lon": -7.58997,
      "updatedAt": "210730Z",
      "visibility_m": 10000,
      "taf_visibility_m": 10000,
      "worst_visibility_m": 10000,
      "ceiling_ft": 4000,
      "hazards": [],
      "severityScore": 0,
      "metarRaw": "METAR GMMN 210730Z 21006KT 9999 BKN040 09/08 Q1019 NOSIG",
      "tafRaw": "TAF GMMN 210500Z 2106/2212 18006KT 9999 BKN034 \n  BECMG 2110/2112 19016KT"
    },
    {
      "icao": "EDDB",
      "iata": "BER",
      "name": "Berlin Brandenburg Willy Brandt Airport",
      "lat": 52.361738,
      "lon": 13.502341,
      "updatedAt": "210720Z",
      "visibility_m": 10000,
      "taf_visibility_m": 10000,
      "worst_visibility_m": 10000,
      "ceiling_ft": null,
      "hazards": [],
      "severityScore": 0,
      "metarRaw": "METAR EDDB 210720Z AUTO 12007KT CAVOK M07/M09 Q1012 NOSIG",
      "tafRaw": "TAF EDDB 210500Z 2106/2206 12005KT CAVOK \n  BECMG 2122/2201 06007KT"
    },
    {
      "icao": "EDDH",
      "iata": "HAM",
      "name": "Hamburg Helmut Schmidt Airport",
      "lat": 53.630402,
      "lon": 9.98823,
      "updatedAt": "210720Z",
      "visibility_m": 10000,
      "taf_visibility_m": 10000,
      "worst_visibility_m": 10000,
      "ceiling_ft": null,
      "hazards": [],
      "severityScore": 0,
      "metarRaw": "METAR EDDH 210720Z AUTO 09005KT CAVOK M04/M07 Q1010 NOSIG",
      "tafRaw": "TAF EDDH 210500Z 2106/2212 09005KT CAVOK \n  BECMG 2110/2112 09010KT"
    },
    {
      "icao": "EDDK",
      "iata": "CGN",
      "name": "Cologne Bonn Airport",
      "lat": 50.865898,
      "lon": 7.14274,
      "updatedAt": "210720Z",
      "visibility_m": 10000,
      "taf_visibility_m": 10000,
      "worst_visibility_m": 10000,
      "ceiling_ft": null,
      "hazards": [],
      "severityScore": 0,
      "metarRaw": "METAR EDDK 210720Z AUTO 12012KT CAVOK 02/M03 Q1007 NOSIG",
      "tafRaw": "TAF EDDK 210500Z 2106/2212 12009KT CAVOK"
    },
    {
      "icao": "EDDN",
      "iata": "NUE",
      "name": "Nuremberg Airport",
      "lat": 49.498699,
      "lon": 11.078056,
      "updatedAt": "210720Z",
      "visibility_m": 9000,
      "taf_visibility_m": 10000,
      "worst_visibility_m": 9000,
      "ceiling_ft": null,
      "hazards": [],
      "severityScore": 0,
      "metarRaw": "METAR EDDN 210720Z AUTO 11006KT 9000 NCD M08/M10 Q1011 NOSIG",
      "tafRaw": "TAF EDDN 210500Z 2106/2206 11007KT CAVOK"
    },
    {
      "icao": "EDLW",
      "iata": "DTM",
      "name": "Dortmund Airport",
      "lat": 51.518299,
      "lon": 7.61224,
      "updatedAt": "210720Z",
      "visibility_m": 10000,
      "taf_visibility_m": 10000,
      "worst_visibility_m": 10000,
      "ceiling_ft": null,
      "hazards": [],
      "severityScore": 0,
      "metarRaw": "METAR EDLW 210720Z VRB02KT CAVOK 05/M04 Q1006",
      "tafRaw": "TAF EDLW 210500Z 2106/2206 14006KT CAVOK \n  BECMG 2122/2201 08005KT"
    },
    {
      "icao": "EHBK",
      "iata": "MST",
      "name": "Maastricht Aachen Airport",
      "lat": 50.911701,
      "lon": 5.77014,
      "updatedAt": "210725Z",
      "visibility_m": 10000,
      "taf_visibility_m": 10000,
      "worst_visibility_m": 10000,
      "ceiling_ft": null,
      "hazards": [],
      "severityScore": 0,
      "metarRaw": "METAR EHBK 210725Z AUTO 15009KT 9999 NSC 06/01 Q1005 NOSIG",
      "tafRaw": "TAF EHBK 210518Z 2106/2212 17010KT CAVOK \n  BECMG 2110/2113 13007KT"
    },
    {
      "icao": "EHEH",
      "iata": "EIN",
      "name": "Eindhoven Airport",
      "lat": 51.4500999451,
      "lon": 5.37452983856,
      "updatedAt": "210725Z",
      "visibility_m": 10000,
      "taf_visibility_m": 10000,
      "worst_visibility_m": 10000,
      "ceiling_ft": 8100,
      "hazards": [],
      "severityScore": 0,
      "metarRaw": "METAR EHEH 210725Z AUTO 13005KT 110V190 9999 FEW068 SCT075 BKN081 03/M00 Q1005 BLU NOSIG RMK TREND REMOTE BY EHWX",
      "tafRaw": "TAF EHEH 210543Z 2106/2212 13006KT 9999 BKN045 \n  BECMG 2203/2205 10007KT"
    },
    {
      "icao": "ENAL",
      "iata": "AES",
      "name": "Ålesund Airport, Vigra",
      "lat": 62.5625,
      "lon": 6.1197,
      "updatedAt": "210720Z",
      "visibility_m": 10000,
      "taf_visibility_m": 10000,
      "worst_visibility_m": 10000,
      "ceiling_ft": null,
      "hazards": [],
      "severityScore": 0,
      "metarRaw": "METAR ENAL 210720Z 13006KT 090V150 CAVOK 00/M01 Q1013",
      "tafRaw": "TAF ENAL 210500Z 2106/2115 13010KT CAVOK"
    },
    {
      "icao": "ENHD",
      "iata": "HAU",
      "name": "Haugesund Airport, Karmøy",
      "lat": 59.345299,
      "lon": 5.20836,
      "updatedAt": "210720Z",
      "visibility_m": 10000,
      "taf_visibility_m": 10000,
      "worst_visibility_m": 10000,
      "ceiling_ft": null,
      "hazards": [],
      "severityScore": 0,
      "metarRaw": "METAR ENHD 210720Z 08003KT CAVOK M02/M03 Q1010",
      "tafRaw": "TAF ENHD 210500Z 2106/2115 17005KT CAVOK \n  BECMG 2110/2112 11015KT \n  TEMPO 2112/2115 11018G28KT"
    },
    {
      "icao": "ENVA",
      "iata": "TRD",
      "name": "Trondheim Airport, Værnes",
      "lat": 63.457802,
      "lon": 10.924,
      "updatedAt": "210720Z",
      "visibility_m": 10000,
      "taf_visibility_m": 10000,
      "worst_visibility_m": 10000,
      "ceiling_ft": null,
      "hazards": [],
      "severityScore": 0,
      "metarRaw": "METAR ENVA 210720Z 05005KT 010V080 CAVOK M03/M08 Q1020 NOSIG RMK WIND 670FT 13013KT",
      "tafRaw": "TAF ENVA 210500Z 2106/2206 09008KT CAVOK \n  PROB30 \n  TEMPO 2110/2206 16015G25KT"
    },
    {
      "icao": "ENZV",
      "iata": "SVG",
      "name": "Stavanger Airport, Sola",
      "lat": 58.876701,
      "lon": 5.63778,
      "updatedAt": "210720Z",
      "visibility_m": 10000,
      "taf_visibility_m": 10000,
      "worst_visibility_m": 10000,
      "ceiling_ft": null,
      "hazards": [],
      "severityScore": 0,
      "metarRaw": "METAR ENZV 210720Z 00000KT CAVOK M03/M04 Q1010 NOSIG",
      "tafRaw": "TAF ENZV 210500Z 2106/2206 10005KT CAVOK \n  PROB30 \n  TEMPO 2109/2119 13015G25KT"
    },
    {
      "icao": "EPPO",
      "iata": "POZ",
      "name": "Poznań-Ławica Airport",
      "lat": 52.421598,
      "lon": 16.823359,
      "updatedAt": "210730Z",
      "visibility_m": 10000,
      "taf_visibility_m": 10000,
      "worst_visibility_m": 10000,
      "ceiling_ft": null,
      "hazards": [],
      "severityScore": 0,
      "metarRaw": "METAR EPPO 210730Z 13003KT CAVOK M07/M10 Q1014",
      "tafRaw": "TAF EPPO 210530Z 2106/2206 13005KT CAVOK"
    },
    {
      "icao": "HEGN",
      "iata": "HRG",
      "name": "Hurghada International Airport",
      "lat": 27.176776,
      "lon": 33.796692,
      "updatedAt": "210700Z",
      "visibility_m": 10000,
      "taf_visibility_m": 10000,
      "worst_visibility_m": 10000,
      "ceiling_ft": null,
      "hazards": [],
      "severityScore": 0,
      "metarRaw": "METAR HEGN 210700Z 30008KT CAVOK 17/05 Q1020 NOSIG",
      "tafRaw": "TAF HEGN 210500Z 2106/2212 01013KT CAVOK \n  BECMG 2112/2114 11010KT"
    },
    {
      "icao": "HEMA",
      "iata": "RMF",
      "name": "Marsa Alam International Airport",
      "lat": 25.555548,
      "lon": 34.59245,
      "updatedAt": "210700Z",
      "visibility_m": 10000,
      "taf_visibility_m": 10000,
      "worst_visibility_m": 10000,
      "ceiling_ft": null,
      "hazards": [],
      "severityScore": 0,
      "metarRaw": "METAR HEMA 210700Z 31012KT CAVOK 20/12 Q1018 NOSIG",
      "tafRaw": "TAF HEMA 210500Z 2106/2212 01015KT CAVOK"
    },
    {
      "icao": "HESH",
      "iata": "SSH",
      "name": "Sharm El Sheikh International Airport",
      "lat": 27.977272,
      "lon": 34.394717,
      "updatedAt": "210700Z",
      "visibility_m": 10000,
      "taf_visibility_m": 10000,
      "worst_visibility_m": 10000,
      "ceiling_ft": null,
      "hazards": [],
      "severityScore": 0,
      "metarRaw": "METAR HESH 210700Z 34010KT CAVOK 19/07 Q1019 NOSIG",
      "tafRaw": "TAF HESH 210500Z 2106/2212 15012KT CAVOK"
    },
    {
      "icao": "LCLK",
      "iata": "LCA",
      "name": "Larnaca International Airport",
      "lat": 34.875099,
      "lon": 33.624901,
      "updatedAt": "210730Z",
      "visibility_m": 10000,
      "taf_visibility_m": 10000,
      "worst_visibility_m": 10000,
      "ceiling_ft": null,
      "hazards": [],
      "severityScore": 0,
      "metarRaw": "METAR LCLK 210730Z 02010KT 9999 FEW018 11/04 Q1025 NOSIG",
      "tafRaw": "TAF LCLK 210530Z 2106/2206 32009KT CAVOK \n  BECMG 2106/2109 05016KT \n  PROB30 \n  TEMPO 2115/2121 35009KT \n  PROB30 \n  TEMPO 2202/2206 05017G27KT"
    },
    {
      "icao": "LCPH",
      "iata": "PFO",
      "name": "Paphos International Airport",
      "lat": 34.717999,
      "lon": 32.485699,
      "updatedAt": "210730Z",
      "visibility_m": 10000,
      "taf_visibility_m": 10000,
      "worst_visibility_m": 10000,
      "ceiling_ft": null,
      "hazards": [],
      "severityScore": 0,
      "metarRaw": "METAR LCPH 210730Z AUTO 11004KT 070V160 9999 NCD 11/M04 Q1023 NOSIG",
      "tafRaw": "TAF LCPH 210530Z 2106/2206 06008KT CAVOK \n  BECMG 2106/2109 12020KT \n  PROB30 \n  TEMPO 2109/2206 12023G33KT"
    },
    {
      "icao": "LEVC",
      "iata": "VLC",
      "name": "Valencia Airport",
      "lat": 39.4893,
      "lon": -0.481625,
      "updatedAt": "210730Z",
      "visibility_m": 10000,
      "taf_visibility_m": 10000,
      "worst_visibility_m": 10000,
      "ceiling_ft": 4200,
      "hazards": [],
      "severityScore": 0,
      "metarRaw": "METAR LEVC 210730Z 24007KT 9999 FEW020 OVC042 08/07 Q1012 NOSIG",
      "tafRaw": "TAF LEVC 210500Z 2106/2206 30007KT 9999 OVC025 TX15/2113Z TN10/2106Z \n  BECMG 2109/2111 27012KT \n  BECMG 2116/2118 VRB04KT"
    },
    {
      "icao": "LFLS",
      "iata": "GNB",
      "name": "Grenoble Alpes Isère Airport",
      "lat": 45.3629,
      "lon": 5.32937,
      "updatedAt": "210730Z",
      "visibility_m": 10000,
      "taf_visibility_m": 10000,
      "worst_visibility_m": 10000,
      "ceiling_ft": null,
      "hazards": [],
      "severityScore": 0,
      "metarRaw": "METAR LFLS 210730Z AUTO 08006KT 060V120 CAVOK 01/M02 Q1008 NOSIG",
      "tafRaw": "TAF LFLS 210200Z 2103/2203 09005KT CAVOK \n  BECMG 2108/2110 23008KT \n  BECMG 2120/2122 VRB02KT"
    },
    {
      "icao": "LFMN",
      "iata": "NCE",
      "name": "Nice-Côte d'Azur Airport",
      "lat": 43.658401,
      "lon": 7.21587,
      "updatedAt": "210730Z",
      "visibility_m": 10000,
      "taf_visibility_m": 10000,
      "worst_visibility_m": 10000,
      "ceiling_ft": null,
      "hazards": [],
      "severityScore": 0,
      "metarRaw": "METAR LFMN 210730Z 34009KT 320V020 CAVOK 06/M01 Q1009 NOSIG",
      "tafRaw": "TAF LFMN 210200Z 2103/2209 33010KT CAVOK \n  BECMG 2110/2113 14010KT \n  BECMG 2118/2120 34010KT"
    },
    {
      "icao": "LIMJ",
      "iata": "GOA",
      "name": "Genoa Cristoforo Colombo Airport",
      "lat": 44.412039,
      "lon": 8.840732,
      "updatedAt": "210720Z",
      "visibility_m": 10000,
      "taf_visibility_m": 10000,
      "worst_visibility_m": 10000,
      "ceiling_ft": null,
      "hazards": [],
      "severityScore": 0,
      "metarRaw": "METAR LIMJ 210720Z 05015KT CAVOK 06/M04 Q1010",
      "tafRaw": "TAF LIMJ 210500Z 2106/2206 02015KT CAVOK"
    },
    {
      "icao": "LIPE",
      "iata": "BLQ",
      "name": "Bologna Guglielmo Marconi Airport",
      "lat": 44.5354,
      "lon": 11.2887,
      "updatedAt": "210720Z",
      "visibility_m": 7000,
      "taf_visibility_m": 10000,
      "worst_visibility_m": 7000,
      "ceiling_ft": null,
      "hazards": [],
      "severityScore": 0,
      "metarRaw": "METAR LIPE 210720Z 18003KT 7000 NSC M01/M02 Q1014",
      "tafRaw": "TAF LIPE 210500Z 2106/2206 VRB05KT 9999 FEW040"
    },
    {
      "icao": "LIPH",
      "iata": "TSF",
      "name": "Treviso Antonio Canova Airport",
      "lat": 45.648399,
      "lon": 12.1944,
      "updatedAt": "210720Z",
      "visibility_m": 10000,
      "taf_visibility_m": 10000,
      "worst_visibility_m": 10000,
      "ceiling_ft": null,
      "hazards": [],
      "severityScore": 0,
      "metarRaw": "METAR LIPH 210720Z 04003KT CAVOK M03/M07 Q1014",
      "tafRaw": "TAF LIPH 210500Z 2106/2206 VRB05KT CAVOK"
    },
    {
      "icao": "LIPQ",
      "iata": "TRS",
      "name": "Trieste–Friuli Venezia Giulia Airport",
      "lat": 45.827499,
      "lon": 13.4722,
      "updatedAt": "210720Z",
      "visibility_m": 10000,
      "taf_visibility_m": 10000,
      "worst_visibility_m": 10000,
      "ceiling_ft": null,
      "hazards": [],
      "severityScore": 0,
      "metarRaw": "METAR LIPQ 210720Z AUTO 05004KT 9999 NCD M02/M09 Q1014",
      "tafRaw": "TAF LIPQ 210500Z 2106/2206 VRB05KT CAVOK"
    },
    {
      "icao": "LIPR",
      "iata": "RMI",
      "name": "Federico Fellini International Airport",
      "lat": 44.020024,
      "lon": 12.612198,
      "updatedAt": "210720Z",
      "visibility_m": 10000,
      "taf_visibility_m": 10000,
      "worst_visibility_m": 10000,
      "ceiling_ft": 2000,
      "hazards": [],
      "severityScore": 0,
      "metarRaw": "METAR LIPR 210720Z 29009KT 9999 BKN020 03/M02 Q1014",
      "tafRaw": "TAF LIPR 210500Z 2106/2206 30010KT 9999 SCT040"
    },
    {
      "icao": "LIPZ",
      "iata": "VCE",
      "name": "Venice Marco Polo Airport",
      "lat": 45.505299,
      "lon": 12.3519,
      "updatedAt": "210720Z",
      "visibility_m": 10000,
      "taf_visibility_m": 10000,
      "worst_visibility_m": 10000,
      "ceiling_ft": null,
      "hazards": [],
      "severityScore": 0,
      "metarRaw": "METAR LIPZ 210720Z 03008KT CAVOK M03/M08 Q1014 NOSIG",
      "tafRaw": "TAF LIPZ 210500Z 2106/2212 02007KT CAVOK"
    },
    {
      "icao": "LIRF",
      "iata": "FCO",
      "name": "Rome–Fiumicino Leonardo da Vinci International Airport",
      "lat": 41.804532,
      "lon": 12.251998,
      "updatedAt": "210720Z",
      "visibility_m": 10000,
      "taf_visibility_m": 10000,
      "worst_visibility_m": 10000,
      "ceiling_ft": null,
      "hazards": [],
      "severityScore": 0,
      "metarRaw": "METAR LIRF 210720Z 01005KT CAVOK 07/01 Q1007 NOSIG",
      "tafRaw": "TAF LIRF 210500Z 2106/2212 04010KT 9999 SCT055 \n  BECMG 2109/2111 VRB05KT \n  BECMG 2200/2202 05010KT \n  BECMG 2209/2211 VRB05KT"
    },
    {
      "icao": "LIRP",
      "iata": "PSA",
      "name": "Pisa International Airport",
      "lat": 43.683899,
      "lon": 10.3927,
      "updatedAt": "210715Z",
      "visibility_m": 10000,
      "taf_visibility_m": 10000,
      "worst_visibility_m": 10000,
      "ceiling_ft": null,
      "hazards": [],
      "severityScore": 0,
      "metarRaw": "METAR LIRP 210715Z 15005KT 9999 FEW070 04/M02 Q1010 NOSIG",
      "tafRaw": "TAF LIRP 210500Z 2106/2206 06008KT CAVOK"
    },
    {
      "icao": "LIRZ",
      "iata": "PEG",
      "name": "Perugia San Francesco d'Assisi – Umbria International Airport",
      "lat": 43.095901,
      "lon": 12.5132,
      "updatedAt": "210650Z",
      "visibility_m": 10000,
      "taf_visibility_m": 10000,
      "worst_visibility_m": 10000,
      "ceiling_ft": null,
      "hazards": [],
      "severityScore": 0,
      "metarRaw": "METAR LIRZ 210650Z AUTO 02014KT 9999 NCD 06/01 Q1009",
      "tafRaw": "TAF LIRZ 202300Z 2100/2124 06013KT 9999 FEW070 \n  BECMG 2121/2123 VRB05KT"
    },
    {
      "icao": "LKMT",
      "iata": "OSR",
      "name": "Leoš Janáček Airport Ostrava",
      "lat": 49.696301,
      "lon": 18.111099,
      "updatedAt": "210730Z",
      "visibility_m": 10000,
      "taf_visibility_m": 10000,
      "worst_visibility_m": 10000,
      "ceiling_ft": null,
      "hazards": [],
      "severityScore": 0,
      "metarRaw": "METAR LKMT 210730Z 24012KT CAVOK M04/M08 Q1016 NOSIG",
      "tafRaw": "TAF LKMT 210500Z 2106/2206 23014KT CAVOK"
    },
    {
      "icao": "LLBG",
      "iata": "TLV",
      "name": "Ben Gurion International Airport",
      "lat": 32.011398,
      "lon": 34.8867,
      "updatedAt": "210720Z",
      "visibility_m": 10000,
      "taf_visibility_m": 10000,
      "worst_visibility_m": 10000,
      "ceiling_ft": null,
      "hazards": [],
      "severityScore": 0,
      "metarRaw": "METAR LLBG 210720Z 09004KT CAVOK 13/M01 Q1023 BECMG 10020G30KT RMK SCT140",
      "tafRaw": "TAF LLBG 210505Z 2106/2206 11010KT CAVOK \n  TEMPO 2106/2109 11016KT \n  BECMG 2109/2111 11016KT \n  PROB40 \n  TEMPO 2111/2115 11018G28KT \n  PROB40 \n  TEMPO 2122/2206 11020G35KT TX16/2111Z TN13/2204Z"
    },
    {
      "icao": "LRTR",
      "iata": "TSR",
      "name": "Timişoara Traian Vuia Airport",
      "lat": 45.809898,
      "lon": 21.3379,
      "updatedAt": "210730Z",
      "visibility_m": 8000,
      "taf_visibility_m": 10000,
      "worst_visibility_m": 8000,
      "ceiling_ft": null,
      "hazards": [],
      "severityScore": 0,
      "metarRaw": "METAR LRTR 210730Z 12005KT 8000 NSC M07/M09 Q1020 NOSIG",
      "tafRaw": "TAF LRTR 210500Z 2106/2206 10008KT CAVOK"
    },
    {
      "icao": "LYNI",
      "iata": "INI",
      "name": "Niš Constantine the Great Airport",
      "lat": 43.336538,
      "lon": 21.856242,
      "updatedAt": "210730Z",
      "visibility_m": 10000,
      "taf_visibility_m": 10000,
      "worst_visibility_m": 10000,
      "ceiling_ft": null,
      "hazards": [],
      "severityScore": 0,
      "metarRaw": "METAR LYNI 210730Z 11013KT 9999 SCT090 01/M09 Q1020 NOSIG",
      "tafRaw": "TAF LYNI 210500Z 2106/2206 10008KT CAVOK TX05/2113Z TNM04/2106Z"
    },
    {
      "icao": "LZTT",
      "iata": "TAT",
      "name": "Poprad-Tatry Airport",
      "lat": 49.073601,
      "lon": 20.2411,
      "updatedAt": "210730Z",
      "visibility_m": 10000,
      "taf_visibility_m": 10000,
      "worst_visibility_m": 10000,
      "ceiling_ft": null,
      "hazards": [],
      "severityScore": 0,
      "metarRaw": "METAR LZTT 210730Z 18006KT CAVOK M08/M12 Q1016 NOSIG",
      "tafRaw": "TAF LZTT 210515Z 2106/2206 20005KT CAVOK"
    },
    {
      "icao": "OEJN",
      "iata": "JED",
      "name": "King Abdulaziz International Airport",
      "lat": 21.6796,
      "lon": 39.156502,
      "updatedAt": "210700Z",
      "visibility_m": 10000,
      "taf_visibility_m": 4000,
      "worst_visibility_m": 4000,
      "ceiling_ft": null,
      "hazards": [],
      "severityScore": 0,
      "metarRaw": "METAR OEJN 210700Z 35008KT CAVOK 26/09 Q1015 NOSIG",
      "tafRaw": "TAF OEJN 210500Z 2106/2212 01005KT 7000 NSC \n  BECMG 2110/2112 31010KT \n  BECMG 2122/2200 08014KT \n  TEMPO 2122/2206 4000 BLDU \n  BECMG 2208/2210 21012KT FEW040"
    },
    {
      "icao": "OEMA",
      "iata": "MED",
      "name": "Prince Mohammad Bin Abdulaziz Airport",
      "lat": 24.5534,
      "lon": 39.705101,
      "updatedAt": "210700Z",
      "visibility_m": 10000,
      "taf_visibility_m": 3000,
      "worst_visibility_m": 3000,
      "ceiling_ft": null,
      "hazards": [],
      "severityScore": 0,
      "metarRaw": "METAR OEMA 210700Z 09008KT CAVOK 16/M01 Q1024 NOSIG",
      "tafRaw": "TAF OEMA 210500Z 2106/2212 08012KT 7000 NSC \n  PROB30 \n  TEMPO 2108/2114 3000 DU \n  BECMG 2118/2120 09006KT \n  BECMG 2208/2210 12014KT"
    },
    {
      "icao": "OJAI",
      "iata": "AMM",
      "name": "Queen Alia International Airport",
      "lat": 31.7226009369,
      "lon": 35.9931983948,
      "updatedAt": "210700Z",
      "visibility_m": 4000,
      "taf_visibility_m": 3000,
      "worst_visibility_m": 3000,
      "ceiling_ft": null,
      "hazards": [],
      "severityScore": 0,
      "metarRaw": "METAR OJAI 210700Z 07016KT 4000 BLDU NSC 03/M06 Q1025 NOSIG",
      "tafRaw": "TAF OJAI 210447Z 2106/2212 08010KT 5000 HZ FEW030 \n  PROB40 \n  TEMPO 2109/2118 12022KT 3000 BLDU"
    },
    {
      "icao": "OMAA",
      "iata": "AUH",
      "name": "Zayed International Airport",
      "lat": 24.440966,
      "lon": 54.649237,
      "updatedAt": "210700Z",
      "visibility_m": 10000,
      "taf_visibility_m": 8000,
      "worst_visibility_m": 8000,
      "ceiling_ft": null,
      "hazards": [],
      "severityScore": 0,
      "metarRaw": "METAR OMAA 210700Z 32008KT 270V350 9999 FEW040 23/11 Q1017 NOSIG",
      "tafRaw": "TAF OMAA 210500Z 2106/2212 20006KT 8000 NSC \n  BECMG 2106/2108 33013KT \n  PROB30 \n  TEMPO 2108/2114 32015G25KT"
    },
    {
      "icao": "OMDB",
      "iata": "DXB",
      "name": "Dubai International Airport",
      "lat": 25.2527999878,
      "lon": 55.3643989563,
      "updatedAt": "210730Z",
      "visibility_m": 10000,
      "taf_visibility_m": 8000,
      "worst_visibility_m": 8000,
      "ceiling_ft": null,
      "hazards": [],
      "severityScore": 0,
      "metarRaw": "METAR OMDB 210730Z 30013KT CAVOK 23/10 Q1017 NOSIG",
      "tafRaw": "TAF OMDB 210500Z 2106/2212 29014KT 8000 NSC \n  PROB40 \n  TEMPO 2107/2118 29020G30KT \n  BECMG 2204/2206 35014KT \n  PROB30 \n  TEMPO 2207/2212 35017G27KT"
    },
    {
      "icao": "UBBB",
      "iata": "GYD",
      "name": "Heydar Aliyev International Airport",
      "lat": 40.467498779296875,
      "lon": 50.04669952392578,
      "updatedAt": "210730Z",
      "visibility_m": 10000,
      "taf_visibility_m": 10000,
      "worst_visibility_m": 10000,
      "ceiling_ft": 2300,
      "hazards": [],
      "severityScore": 0,
      "metarRaw": "METAR UBBB 210730Z 32022G34KT 9999 BKN023 03/M02 Q1026 NOSIG",
      "tafRaw": "TAF UBBB 210502Z 2106/2206 31016G26KT 9999 SCT025 TX04/2110Z TN00/2201Z \n  TEMPO 2108/2115 33014KT BKN020 \n  BECMG 2115/2117 29005KT \n  TEMPO 2117/2119 VRB04KT \n  BECMG 2119/2121 21008KT \n  TEMPO 2200/2206 24014KT"
    },
    {
      "icao": "UDYZ",
      "iata": "EVN",
      "name": "Zvartnots International Airport",
      "lat": 40.148941,
      "lon": 44.397887,
      "updatedAt": "210730Z",
      "visibility_m": 10000,
      "taf_visibility_m": 10000,
      "worst_visibility_m": 10000,
      "ceiling_ft": null,
      "hazards": [],
      "severityScore": 0,
      "metarRaw": "METAR UDYZ 210730Z 13002KT 9999 NSC M04/M08 Q1026 NOSIG",
      "tafRaw": "TAF UDYZ 210500Z 2106/2206 VRB06KT 9999 NSC"
    }
  ],
  "stats": {
    "icaoCount": 159,
    "metarReturned": 158,
    "tafReturned": 142,
    "stationsWritten": 159,
    "missingMetar": 1,
    "missingTaf": 17
  },
  "errors": []
}