{
  "generatedAt": "2026-01-23T02:51:28.222Z",
  "stations": [
    {
      "icao": "EDFH",
      "iata": "HHN",
      "name": "Frankfurt-Hahn Airport",
      "lat": 49.946353,
      "lon": 7.261734,
      "updatedAt": "230220Z",
      "visibility_m": 6000,
      "taf_visibility_m": 200,
      "worst_visibility_m": 200,
      "ceiling_ft": 100,
      "hazards": [
        "FZFG",
        "BR",
        "FG"
      ],
      "severityScore": 100,
      "metarRaw": "METAR EDFH 230220Z 14015KT 6000 FEW007 SCT032 M02/M03 Q0995",
      "tafRaw": "TAF EDFH 222300Z 2300/2324 14015KT 6000 BKN015 \n  TEMPO 2300/2311 1500 BR OVC003 \n  PROB30 \n  TEMPO 2300/2311 0200 FZFG VV001"
    },
    {
      "icao": "EDJA",
      "iata": "FMM",
      "name": "Memmingen Allgau Airport",
      "lat": 47.988092,
      "lon": 10.238248,
      "updatedAt": "230220Z",
      "visibility_m": 3600,
      "taf_visibility_m": 350,
      "worst_visibility_m": 350,
      "ceiling_ft": 100,
      "hazards": [
        "FZFG",
        "FG"
      ],
      "severityScore": 100,
      "metarRaw": "METAR EDJA 230220Z AUTO 04003KT 3600 // SCT003/// BKN140/// BKN190/// M06/M07 Q0997",
      "tafRaw": "TAF EDJA 230200Z 2303/2312 VRB03KT 0350 FZFG VV001 \n  BECMG 2307/2309 05005KT \n  BECMG 2309/2311 CAVOK"
    },
    {
      "icao": "EDNY",
      "iata": "FDH",
      "name": "Bodensee Airport Friedrichshafen",
      "lat": 47.671299,
      "lon": 9.51149,
      "updatedAt": "230220Z",
      "visibility_m": 2200,
      "taf_visibility_m": 500,
      "worst_visibility_m": 500,
      "ceiling_ft": 100,
      "hazards": [
        "FZFG",
        "BR",
        "FG"
      ],
      "severityScore": 100,
      "metarRaw": "METAR EDNY 230220Z AUTO VRB02KT 2200 // OVC001/// M02/M02 Q0999",
      "tafRaw": "TAF EDNY 230200Z 2303/2312 04003KT 2000 BR BKN002 \n  TEMPO 2303/2308 0500 FZFG OVC001 \n  BECMG 2309/2311 CAVOK"
    },
    {
      "icao": "EDSB",
      "iata": "FKB",
      "name": "Karlsruhe Baden-Baden Airport",
      "lat": 48.7794,
      "lon": 8.0805,
      "updatedAt": "230220Z",
      "visibility_m": 5000,
      "taf_visibility_m": 200,
      "worst_visibility_m": 200,
      "ceiling_ft": 100,
      "hazards": [
        "FZFG",
        "BR",
        "FG"
      ],
      "severityScore": 100,
      "metarRaw": "METAR EDSB 230220Z AUTO 07003KT 5000 // BKN053/// M00/M01 Q0998",
      "tafRaw": "TAF EDSB 222300Z 2300/2324 02004KT 3000 BR OVC005 \n  TEMPO 2300/2309 0200 FZFG VV001 \n  BECMG 2309/2312 6000 SCT010"
    },
    {
      "icao": "EGNM",
      "iata": "LBA",
      "name": "Leeds Bradford Airport",
      "lat": 53.865898,
      "lon": -1.66057,
      "updatedAt": null,
      "visibility_m": null,
      "taf_visibility_m": 300,
      "worst_visibility_m": 300,
      "ceiling_ft": 100,
      "hazards": [
        "FG",
        "BR",
        "RA",
        "DZ"
      ],
      "severityScore": 100,
      "metarRaw": null,
      "tafRaw": "TAF EGNM 222301Z 2300/2324 10012KT 1500 BR OVC002 \n  TEMPO 2300/2303 0800 RADZ FG BKN001 \n  PROB30 \n  TEMPO 2300/2303 0300 FG \n  BECMG 2303/2306 9999 NSW BKN008 \n  TEMPO 2306/2317 3000 BR RADZ BKN004 \n  BECMG 2317/2320 SCT018"
    },
    {
      "icao": "EPGD",
      "iata": "GDN",
      "name": "Gdańsk Lech Wałęsa Airport",
      "lat": 54.377602,
      "lon": 18.4662,
      "updatedAt": "230230Z",
      "visibility_m": 4500,
      "taf_visibility_m": 600,
      "worst_visibility_m": 600,
      "ceiling_ft": 500,
      "hazards": [
        "BR",
        "FZFG",
        "FG"
      ],
      "severityScore": 100,
      "metarRaw": "METAR EPGD 230230Z 09005KT 4500 BR OVC005 M13/M14 Q1011",
      "tafRaw": "TAF EPGD 222330Z 2300/2324 09010KT 5000 BR BKN009 \n  TEMPO 2300/2324 2500 -SG BR OVC004 \n  PROB40 \n  TEMPO 2300/2309 0600 FZFG OVC001"
    },
    {
      "icao": "EPKK",
      "iata": "KRK",
      "name": "Kraków John Paul II International Airport",
      "lat": 50.077702,
      "lon": 19.7848,
      "updatedAt": "230230Z",
      "visibility_m": 5000,
      "taf_visibility_m": 800,
      "worst_visibility_m": 800,
      "ceiling_ft": 300,
      "hazards": [
        "BR",
        "FZFG",
        "SN",
        "FZDZ",
        "FG",
        "DZ"
      ],
      "severityScore": 100,
      "metarRaw": "METAR EPKK 230230Z 06007KT 5000 BR NSC M08/M11 Q1005",
      "tafRaw": "TAF EPKK 230230Z 2303/2403 07008KT 6000 BKN040 \n  TEMPO 2303/2307 2500 BR BKN006 \n  TEMPO 2310/2318 4000 -SN BR BKN012 \n  PROB30 \n  TEMPO 2315/2318 -FZDZ \n  BECMG 2315/2318 2000 BR OVC007 \n  TEMPO 2318/2403 0800 -FZDZ FZFG OVC003"
    },
    {
      "icao": "LBPD",
      "iata": "PDV",
      "name": "Plovdiv International Airport",
      "lat": 42.067799,
      "lon": 24.8508,
      "updatedAt": "230230Z",
      "visibility_m": 10000,
      "taf_visibility_m": 350,
      "worst_visibility_m": 350,
      "ceiling_ft": 200,
      "hazards": [
        "FZFG",
        "FG",
        "BR"
      ],
      "severityScore": 100,
      "metarRaw": "METAR LBPD 230230Z AUTO 00000KT 9999 OVC011/// M01/M01 Q1005",
      "tafRaw": "TAF LBPD 222300Z 2300/2324 VRB04KT 2000 BR BKN015 \n  TEMPO 2301/2307 0500 FZFG OVC002 \n  BECMG 2307/2309 6000 BKN010 \n  TEMPO 2315/2318 3000 BR BKN007 \n  BECMG 2318/2320 1500 BR BKN005 \n  TEMPO 2321/2324 0350 FG OVC002"
    },
    {
      "icao": "LBSF",
      "iata": "SOF",
      "name": "Sofia Airport",
      "lat": 42.696357,
      "lon": 23.417671,
      "updatedAt": "230230Z",
      "visibility_m": 8000,
      "taf_visibility_m": 350,
      "worst_visibility_m": 350,
      "ceiling_ft": 200,
      "hazards": [
        "FZFG",
        "BR",
        "FG"
      ],
      "severityScore": 100,
      "metarRaw": "METAR LBSF 230230Z AUTO 18001KT 8000 SCT008/// OVC010/// 00/M01 Q1004 NOSIG",
      "tafRaw": "TAF LBSF 222300Z 2300/2324 VRB04KT 3000 BR SCT010 OVC015 \n  BECMG 2301/2302 1500 BR BKN005 OVC010 \n  PROB40 \n  TEMPO 2302/2307 0500 FZFG OVC002 \n  BECMG 2308/2310 6000 SCT015 BKN040 \n  BECMG 2317/2319 2000 BR BKN007 \n  TEMPO 2319/2324 0350 FZFG OVC002"
    },
    {
      "icao": "LBWN",
      "iata": "VAR",
      "name": "Varna Airport",
      "lat": 43.232101,
      "lon": 27.8251,
      "updatedAt": "230230Z",
      "visibility_m": 7000,
      "taf_visibility_m": 500,
      "worst_visibility_m": 500,
      "ceiling_ft": 200,
      "hazards": [
        "BR",
        "FG"
      ],
      "severityScore": 100,
      "metarRaw": "METAR LBWN 230230Z AUTO VRB02KT 7000 OVC026/// 03/03 Q1004 NOSIG",
      "tafRaw": "TAF LBWN 222300Z 2300/2324 VRB04KT 3000 BR SCT015 BKN040 \n  TEMPO 2300/2306 0500 BCFG BKN002 OVC010 \n  BECMG 2306/2308 5000 BR SCT007 OVC015 \n  BECMG 2308/2310 8000 NSW SCT020 \n  BECMG 2316/2318 5000 BR BKN010"
    },
    {
      "icao": "LFLS",
      "iata": "GNB",
      "name": "Grenoble Alpes Isère Airport",
      "lat": 45.3629,
      "lon": 5.32937,
      "updatedAt": "230230Z",
      "visibility_m": 300,
      "taf_visibility_m": 300,
      "worst_visibility_m": 300,
      "ceiling_ft": 500,
      "hazards": [
        "FG",
        "FZFG",
        "BR",
        "SN",
        "RA"
      ],
      "severityScore": 100,
      "metarRaw": "METAR LFLS 230230Z AUTO 06005KT 1700 0550 R09/2400U R27/0650N BCFG VV/// 01/01 Q0997 TEMPO 0300",
      "tafRaw": "TAF LFLS 230200Z 2303/2403 09005KT 0800 FG VV/// \n  TEMPO 2303/2309 0300 \n  PROB30 \n  TEMPO 2303/2308 FZFG \n  BECMG 2309/2311 CAVOK \n  BECMG 2312/2314 25010KT \n  FM231500 25010KT 6000 RA SCT012 OVC025 \n  TEMPO 2315/2317 27015G25KT 3000 RA BKN012 \n  TEMPO 2317/2320 3000 RASN BKN011 \n  PROB40 \n  TEMPO 2317/2320 1500 SN BR OVC007 \n  FM232000 09008KT 7000 SCT005 \n  PROB40 \n  TEMPO 2320/2323 3000 BR BKN005 \n  FM232300 09005KT CAVOK"
    },
    {
      "icao": "LGTS",
      "iata": "SKG",
      "name": "Thessaloniki Macedonia International Airport",
      "lat": 40.51928,
      "lon": 22.970009,
      "updatedAt": "230220Z",
      "visibility_m": 1000,
      "taf_visibility_m": 200,
      "worst_visibility_m": 200,
      "ceiling_ft": 100,
      "hazards": [
        "FG",
        "TS",
        "BR"
      ],
      "severityScore": 100,
      "metarRaw": "METAR LGTS 230220Z 00000KT 1000 0500SE R28/500 R16/650 FG FG SCT010 SCT025 05/05 Q1004 NOSIG",
      "tafRaw": "TAF LGTS 222300Z 2300/2324 VRB03KT 4000 BR SCT008 \n  PROB40 \n  TEMPO 2300/2306 0200 FG BKN001 \n  BECMG 2308/2310 9999 FEW010 SCT030"
    },
    {
      "icao": "LIMF",
      "iata": "TRN",
      "name": "Turin Airport",
      "lat": 45.200802,
      "lon": 7.64963,
      "updatedAt": "230220Z",
      "visibility_m": 100,
      "taf_visibility_m": 400,
      "worst_visibility_m": 100,
      "ceiling_ft": 100,
      "hazards": [
        "FZFG",
        "FG",
        "BR",
        "SN",
        "RA"
      ],
      "severityScore": 100,
      "metarRaw": "METAR LIMF 230220Z VRB01KT 0100 R36/0350N FZFG VV001 M02/M03 Q1001",
      "tafRaw": "TAF LIMF 222300Z 2300/2324 VRB03KT 0400 FZFG OVC001 \n  BECMG 2308/2310 4000 BR FEW010 BKN060 \n  BECMG 2318/2320 1000 -RASN OVC004"
    },
    {
      "icao": "LIPX",
      "iata": "VRN",
      "name": "Verona Villafranca Valerio Catullo Airport",
      "lat": 45.394955,
      "lon": 10.887303,
      "updatedAt": "230220Z",
      "visibility_m": 4000,
      "taf_visibility_m": 400,
      "worst_visibility_m": 400,
      "ceiling_ft": 6000,
      "hazards": [
        "BR",
        "FZFG",
        "RA",
        "FG"
      ],
      "severityScore": 100,
      "metarRaw": "METAR LIPX 230220Z 22003KT 4000 BR BKN060 00/M00 Q1002",
      "tafRaw": "TAF LIPX 222300Z 2300/2324 VRB03KT 2000 BR FEW080 \n  TEMPO 2300/2308 0400 FZFG OVC001 \n  BECMG 2308/2310 4000 SCT010 BKN050 \n  BECMG 2316/2318 2000 -RA BKN010"
    },
    {
      "icao": "LPFR",
      "iata": "FAO",
      "name": "Faro - Gago Coutinho International Airport",
      "lat": 37.015909,
      "lon": -7.970939,
      "updatedAt": "230230Z",
      "visibility_m": 10000,
      "taf_visibility_m": 3000,
      "worst_visibility_m": 3000,
      "ceiling_ft": 800,
      "hazards": [
        "BR",
        "TSRA",
        "SHRA",
        "TS",
        "RA",
        "DZ"
      ],
      "severityScore": 100,
      "metarRaw": "METAR LPFR 230230Z 31015KT 9999 FEW008 SCT015 14/12 Q1005",
      "tafRaw": "TAF LPFR 222300Z 2300/2324 24020G33KT 3000 -RADZ BR SCT004 BKN008 \n  BECMG 2300/2303 30012KT 9999 NSW SCT025 \n  BECMG 2309/2311 27018KT \n  TEMPO 2311/2324 27023G35KT 8000 SHRA SCT012 FEW020CB BKN030 \n  PROB30 2312/2324 VRB30G45KT 3000 TSRA SCT015CB"
    },
    {
      "icao": "LQSA",
      "iata": "SJJ",
      "name": "Sarajevo International Airport",
      "lat": 43.8246,
      "lon": 18.331499,
      "updatedAt": "230230Z",
      "visibility_m": 1000,
      "taf_visibility_m": 700,
      "worst_visibility_m": 700,
      "ceiling_ft": 400,
      "hazards": [
        "BR",
        "FZFG",
        "FZDZ",
        "FG",
        "DZ"
      ],
      "severityScore": 100,
      "metarRaw": "METAR LQSA 230230Z 10001KT 1000 R11/0225N BR FEW010 M03/M03 Q1002",
      "tafRaw": "TAF LQSA 222300Z 2300/2324 VRB02KT 2000 BR FEW010 SCT045 TX04/2314Z TNM02/2305Z \n  PROB30 \n  TEMPO 2300/2308 0700 FZDZ FZFG OVC004 \n  BECMG 2309/2312 6000 NSW"
    },
    {
      "icao": "LQTZ",
      "iata": "TZL",
      "name": "Tuzla International Airport",
      "lat": 44.459858,
      "lon": 18.723627,
      "updatedAt": "230230Z",
      "visibility_m": 2800,
      "taf_visibility_m": 300,
      "worst_visibility_m": 300,
      "ceiling_ft": 5000,
      "hazards": [
        "BR",
        "FZFG",
        "FG"
      ],
      "severityScore": 100,
      "metarRaw": "METAR LQTZ 230230Z 28002KT 2800 BR SCT040 BKN050 M01/M01 Q1003",
      "tafRaw": "TAF LQTZ 222300Z 2300/2324 VRB02KT 6000 FEW005 BKN040 TX05/2313Z TNM03/2303Z \n  TEMPO 2300/2311 1500 BR BKN005 \n  PROB30 \n  TEMPO 2300/2309 0300 FZFG BKN002 \n  BECMG 2316/2318 2000 BR \n  TEMPO 2319/2324 0400 FG BKN001"
    },
    {
      "icao": "LRBS",
      "iata": "BBU",
      "name": "Bucharest Băneasa Aurel Vlaicu International Airport",
      "lat": 44.503133,
      "lon": 26.102944,
      "updatedAt": "230230Z",
      "visibility_m": 400,
      "taf_visibility_m": 150,
      "worst_visibility_m": 150,
      "ceiling_ft": 100,
      "hazards": [
        "FG",
        "FZFG",
        "BR",
        "FZDZ",
        "DZ"
      ],
      "severityScore": 100,
      "metarRaw": "METAR LRBS 230230Z 24001KT 0400 R07/0600N FG VV001 00/M00 Q1005 NOSIG",
      "tafRaw": "TAF LRBS 222300Z 2300/2324 VRB04KT 0600 FG OVC002 \n  PROB30 \n  TEMPO 2301/2306 0150 -FZDZ FZFG OVC001 \n  BECMG 2306/2308 0800 \n  BECMG 2308/2310 1500 BR OVC005 \n  TEMPO 2311/2316 5000 OVC010"
    },
    {
      "icao": "LRCL",
      "iata": "CLJ",
      "name": "Cluj Avram Iancu International Airport",
      "lat": 46.787425,
      "lon": 23.684292,
      "updatedAt": "230230Z",
      "visibility_m": 1500,
      "taf_visibility_m": 600,
      "worst_visibility_m": 600,
      "ceiling_ft": 2500,
      "hazards": [
        "BR",
        "FZRA",
        "RA",
        "FZFG",
        "SN",
        "FG"
      ],
      "severityScore": 100,
      "metarRaw": "METAR LRCL 230230Z 00000KT 1500 -FZRA BR OVC025 M01/M02 Q1004",
      "tafRaw": "TAF LRCL 230200Z 2303/2312 VRB04KT 3000 -SN BR BKN010 OVC030 \n  TEMPO 2303/2304 1500 -FZRA BKN005 OVC010 \n  TEMPO 2304/2306 0600 -SN FZFG OVC002 \n  BECMG 2308/2310 7000 NSW SCT010 SCT030"
    },
    {
      "icao": "LRCV",
      "iata": "CRA",
      "name": "Craiova International Airport",
      "lat": 44.3181,
      "lon": 23.888599,
      "updatedAt": "230230Z",
      "visibility_m": 150,
      "taf_visibility_m": 150,
      "worst_visibility_m": 150,
      "ceiling_ft": 100,
      "hazards": [
        "FZFG",
        "FG",
        "BR"
      ],
      "severityScore": 100,
      "metarRaw": "METAR LRCV 230230Z 23001KT 0150 R26/0175N FZFG VV001 M00/M00 Q1005",
      "tafRaw": "TAF LRCV 230200Z 2303/2312 VRB04KT 0350 FZFG VV002 \n  TEMPO 2303/2306 0150 FZFG VV001 \n  BECMG 2306/2308 0800 \n  BECMG 2308/2310 1500 BR OVC005"
    },
    {
      "icao": "LROP",
      "iata": "OTP",
      "name": "Bucharest Henri Coandă International Airport",
      "lat": 44.571792,
      "lon": 26.103285,
      "updatedAt": "230230Z",
      "visibility_m": 200,
      "taf_visibility_m": 150,
      "worst_visibility_m": 150,
      "ceiling_ft": 200,
      "hazards": [
        "FG",
        "FZFG",
        "BR",
        "FZDZ",
        "DZ"
      ],
      "severityScore": 100,
      "metarRaw": "METAR LROP 230230Z 25002KT 0200 R08R/0300N R08L/0350N FG VV002 00/00 Q1005 NOSIG",
      "tafRaw": "TAF LROP 222300Z 2300/2324 VRB04KT 0600 FG OVC002 \n  PROB30 \n  TEMPO 2301/2306 0150 -FZDZ FZFG OVC001 \n  BECMG 2306/2308 0800 \n  BECMG 2308/2310 1500 BR OVC005 \n  TEMPO 2311/2316 5000 OVC010"
    },
    {
      "icao": "LRSV",
      "iata": "SCV",
      "name": "Suceava Stefan cel Mare Airport",
      "lat": 47.6875,
      "lon": 26.35409927368164,
      "updatedAt": "230230Z",
      "visibility_m": 100,
      "taf_visibility_m": 200,
      "worst_visibility_m": 100,
      "ceiling_ft": 100,
      "hazards": [
        "FZFG",
        "FG",
        "SN"
      ],
      "severityScore": 100,
      "metarRaw": "METAR LRSV 230230Z 09007KT 0100 R34/0350N FZFG VV001 M01/M01 Q1004",
      "tafRaw": "TAF LRSV 230200Z 2303/2312 12006KT 0200 -SN FZFG VV001 \n  PROB40 \n  TEMPO 2306/2312 0800 FG BKN002 OVC010"
    },
    {
      "icao": "LWSK",
      "iata": "SKP",
      "name": "Skopje International Airport",
      "lat": 41.958087,
      "lon": 21.622581,
      "updatedAt": "230250Z",
      "visibility_m": 150,
      "taf_visibility_m": 600,
      "worst_visibility_m": 150,
      "ceiling_ft": 400,
      "hazards": [
        "FZFG",
        "FG",
        "BR"
      ],
      "severityScore": 100,
      "metarRaw": "METAR LWSK 230250Z 11002KT 0150 R34/0350N FZFG SCT003 M01/M01 Q1005 NOSIG",
      "tafRaw": "TAF LWSK 222340Z 2300/2324 VRB02KT 4000 BR BKN030 \n  TEMPO 2300/2308 1300 SCT008 BKN015 \n  PROB30 \n  TEMPO 2302/2306 0600 FZFG BKN004 OVC010 \n  BECMG 2310/2312 6000 SCT020"
    },
    {
      "icao": "LYBE",
      "iata": "BEG",
      "name": "Belgrade Nikola Tesla Airport",
      "lat": 44.818401,
      "lon": 20.309099,
      "updatedAt": "230230Z",
      "visibility_m": 2500,
      "taf_visibility_m": 300,
      "worst_visibility_m": 300,
      "ceiling_ft": 100,
      "hazards": [
        "BR",
        "FZFG",
        "FG"
      ],
      "severityScore": 100,
      "metarRaw": "METAR LYBE 230230Z 25002KT 4000 BR NSC M02/M04 Q1004 BECMG 2500",
      "tafRaw": "TAF LYBE 222300Z 2300/2324 25004KT 5000 BR NSC TX04/2313Z TNM03/2306Z \n  BECMG 2300/2302 2500 \n  PROB40 2303/2310 0300 FZFG VV001 \n  BECMG 2311/2313 6000 NSW"
    },
    {
      "icao": "LZIB",
      "iata": "BTS",
      "name": "M. R. Štefánik Airport",
      "lat": 48.1702,
      "lon": 17.2127,
      "updatedAt": "230230Z",
      "visibility_m": 2500,
      "taf_visibility_m": 500,
      "worst_visibility_m": 500,
      "ceiling_ft": 900,
      "hazards": [
        "BR",
        "FZFG",
        "SN",
        "FZDZ",
        "FG",
        "DZ"
      ],
      "severityScore": 100,
      "metarRaw": "METAR LZIB 230230Z VRB02KT 4500 BR FEW006 BKN009 BKN017 M02/M03 Q1004 TEMPO 2500 BR",
      "tafRaw": "TAF LZIB 222315Z 2300/2400 08005KT 6000 FEW008 BKN017 \n  TEMPO 2300/2306 2500 BR SCT004 BKN008 \n  PROB30 \n  TEMPO 2301/2306 0500 FZFG BKN003 \n  TEMPO 2306/2400 2500 -FZDZ BR BKN007 \n  PROB30 \n  TEMPO 2308/2400 -SN BR"
    },
    {
      "icao": "LZKZ",
      "iata": "KSC",
      "name": "Košice International Airport",
      "lat": 48.663101,
      "lon": 21.2411,
      "updatedAt": "230230Z",
      "visibility_m": 3800,
      "taf_visibility_m": 500,
      "worst_visibility_m": 500,
      "ceiling_ft": 4400,
      "hazards": [
        "BR",
        "FZFG",
        "SN",
        "FG"
      ],
      "severityScore": 100,
      "metarRaw": "METAR LZKZ 230230Z 00000KT 3800 BR FEW013 SCT018 OVC044 M02/M02 Q1004 NOSIG",
      "tafRaw": "TAF LZKZ 222315Z 2300/2400 VRB02KT 6000 FEW007 SCT010 OVC030 \n  TEMPO 2300/2310 2500 BR BKN007 \n  PROB30 \n  TEMPO 2302/2308 0500 FZFG FEW001 BKN003 \n  TEMPO 2318/2400 2500 -SN BR BKN007 \n  PROB30 \n  TEMPO 2322/2400 1500 SN BR"
    },
    {
      "icao": "LZTT",
      "iata": "TAT",
      "name": "Poprad-Tatry Airport",
      "lat": 49.073601,
      "lon": 20.2411,
      "updatedAt": "230230Z",
      "visibility_m": 6000,
      "taf_visibility_m": 500,
      "worst_visibility_m": 500,
      "ceiling_ft": 400,
      "hazards": [
        "FZFG",
        "BR",
        "SN",
        "FG"
      ],
      "severityScore": 100,
      "metarRaw": "METAR LZTT 230230Z 32001KT 6000 OVC004 M03/M03 Q1001",
      "tafRaw": "TAF LZTT 222315Z 2300/2400 VRB02KT 8000 SCT009 BKN016 \n  TEMPO 2300/2309 1400 BR BKN005 \n  PROB30 \n  TEMPO 2301/2307 0500 FZFG BKN003 \n  TEMPO 2321/2400 2500 -SN BR BKN008"
    },
    {
      "icao": "UAAA",
      "iata": "ALA",
      "name": "Almaty International Airport",
      "lat": 43.354267,
      "lon": 77.042828,
      "updatedAt": "230230Z",
      "visibility_m": 10000,
      "taf_visibility_m": 500,
      "worst_visibility_m": 500,
      "ceiling_ft": 10000,
      "hazards": [
        "SHSN",
        "SN",
        "FZFG",
        "BR",
        "FG"
      ],
      "severityScore": 100,
      "metarRaw": "METAR UAAA 230230Z 06004MPS 9999 -SHSN BKN045CB OVC100 M03/M07 Q1021 NOSIG",
      "tafRaw": "TAF UAAA 222305Z 2300/2324 32003MPS 3100 -SHSN BR BKN011CB OVC050 TXM03/2308Z TNM10/2302Z \n  TEMPO 2300/2308 24005G10MPS 0500 SHSN DRSN FZFG BKN003 BKN011CB \n  TEMPO 2308/2318 35003G08MPS 1200 SN BR OVC003 \n  TEMPO 2318/2324 0500 FZFG VV002"
    },
    {
      "icao": "EPRZ",
      "iata": "RZE",
      "name": "Rzeszów-Jasionka Airport",
      "lat": 50.109791,
      "lon": 22.024155,
      "updatedAt": "230230Z",
      "visibility_m": 2500,
      "taf_visibility_m": 1200,
      "worst_visibility_m": 1200,
      "ceiling_ft": 1400,
      "hazards": [
        "BR",
        "SN",
        "FZDZ",
        "DZ"
      ],
      "severityScore": 88,
      "metarRaw": "METAR EPRZ 230230Z 07008KT 2500 -SN BR OVC014 M07/M08 Q1006",
      "tafRaw": "TAF EPRZ 222330Z 2300/2324 09009KT 4000 BR BKN007 \n  TEMPO 2300/2310 1200 -SN BR OVC002 \n  TEMPO 2310/2324 2500 -SN BR OVC004 \n  PROB30 \n  TEMPO 2315/2324 -FZDZ"
    },
    {
      "icao": "LIRF",
      "iata": "FCO",
      "name": "Rome–Fiumicino Leonardo da Vinci International Airport",
      "lat": 41.804532,
      "lon": 12.251998,
      "updatedAt": "230220Z",
      "visibility_m": 10000,
      "taf_visibility_m": 4000,
      "worst_visibility_m": 4000,
      "ceiling_ft": 1000,
      "hazards": [
        "TSRA",
        "RA",
        "SHRA",
        "TS"
      ],
      "severityScore": 88,
      "metarRaw": "METAR LIRF 230220Z 07004KT CAVOK 04/03 Q1001 NOSIG",
      "tafRaw": "TAF LIRF 222300Z 2300/2406 07010KT 9999 FEW040 \n  BECMG 2309/2311 14012KT \n  TEMPO 2312/2318 4000 RA BKN014 \n  TEMPO 2318/2402 4000 SHRA BKN010 \n  TEMPO 2402/2406 4000 TSRA"
    },
    {
      "icao": "LIPE",
      "iata": "BLQ",
      "name": "Bologna Guglielmo Marconi Airport",
      "lat": 44.5354,
      "lon": 11.2887,
      "updatedAt": "230220Z",
      "visibility_m": 5000,
      "taf_visibility_m": 1200,
      "worst_visibility_m": 1200,
      "ceiling_ft": 300,
      "hazards": [
        "BR",
        "RA",
        "FG"
      ],
      "severityScore": 87,
      "metarRaw": "METAR LIPE 230220Z 27003KT 5000 BR FEW060 02/01 Q1002",
      "tafRaw": "TAF LIPE 222300Z 2300/2324 VRB05KT 6000 SCT040 \n  TEMPO 2300/2307 1200 BCFG BKN003 \n  BECMG 2310/2312 4000 RA BKN012"
    },
    {
      "icao": "LJLJ",
      "iata": "LJU",
      "name": "Ljubljana Jože Pučnik Airport",
      "lat": 46.223701,
      "lon": 14.4576,
      "updatedAt": "230230Z",
      "visibility_m": 10000,
      "taf_visibility_m": 4000,
      "worst_visibility_m": 4000,
      "ceiling_ft": 800,
      "hazards": [
        "BR",
        "FZRA",
        "RA"
      ],
      "severityScore": 82,
      "metarRaw": "METAR LJLJ 230230Z VRB02KT 9999 SCT045 M07/M08 Q1002 NOSIG",
      "tafRaw": "TAF LJLJ 222300Z 2300/2400 12003KT 9999 SCT045 \n  PROB40 \n  TEMPO 2302/2310 BKN014 \n  TEMPO 2315/2400 4000 -FZRA BR BKN008 OVC025"
    },
    {
      "icao": "LIBR",
      "iata": "BDS",
      "name": "Brindisi Airport",
      "lat": 40.6576,
      "lon": 17.947001,
      "updatedAt": "230220Z",
      "visibility_m": 10000,
      "taf_visibility_m": 800,
      "worst_visibility_m": 800,
      "ceiling_ft": null,
      "hazards": [
        "RA",
        "BR",
        "FG",
        "SHRA"
      ],
      "severityScore": 81,
      "metarRaw": "METAR LIBR 230220Z 19003KT 9999 -RA NSC 10/09 Q1001",
      "tafRaw": "TAF LIBR 222300Z 2300/2324 VRB05KT 7000 SCT020 \n  TEMPO 2300/2306 0800 FG \n  TEMPO 2312/2316 SHRA \n  BECMG 2318/2320 17010KT"
    },
    {
      "icao": "LHBP",
      "iata": "BUD",
      "name": "Budapest Liszt Ferenc International Airport",
      "lat": 47.43018,
      "lon": 19.262393,
      "updatedAt": "230230Z",
      "visibility_m": 7000,
      "taf_visibility_m": 3500,
      "worst_visibility_m": 3500,
      "ceiling_ft": 4600,
      "hazards": [
        "FZRA",
        "PL",
        "SN",
        "RA"
      ],
      "severityScore": 80,
      "metarRaw": "METAR LHBP 230230Z VRB01KT 7000 FEW030 BKN046 M01/M02 Q1004 NOSIG",
      "tafRaw": "TAF LHBP 222315Z 2300/2324 08005KT 7000 SCT030 BKN060 \n  TEMPO 2300/2306 VRB02KT 3500 -SN BKN008 OVC030 \n  PROB30 \n  TEMPO 2303/2306 -PL -FZRA \n  TEMPO 2306/2311 4000 -PLSN -FZRA BKN025 OVC060 \n  TEMPO 2311/2324 4500 -SNRA -RA BKN025 OVC060"
    },
    {
      "icao": "LUKK",
      "iata": "RMO",
      "name": "Chişinău International Airport",
      "lat": 46.9277,
      "lon": 28.931,
      "updatedAt": "230230Z",
      "visibility_m": 1000,
      "taf_visibility_m": 1000,
      "worst_visibility_m": 1000,
      "ceiling_ft": 200,
      "hazards": [
        "BR",
        "SN"
      ],
      "severityScore": 73,
      "metarRaw": "METAR LUKK 230230Z 08009KT 5000 BR OVC002 M02/M02 Q1008 TEMPO 1000 BR",
      "tafRaw": "TAF LUKK 222328Z 2300/2324 07009KT 9999 OVC004 \n  BECMG 2301/2303 4000 -SN BR OVC002 \n  TEMPO 2304/2323 1000 SN BR OVC001"
    },
    {
      "icao": "LFPO",
      "iata": "ORY",
      "name": "Paris-Orly Airport",
      "lat": 48.72333,
      "lon": 2.37944,
      "updatedAt": "230230Z",
      "visibility_m": 4000,
      "taf_visibility_m": 4000,
      "worst_visibility_m": 4000,
      "ceiling_ft": 300,
      "hazards": [
        "BR",
        "RA",
        "SHRA"
      ],
      "severityScore": 71,
      "metarRaw": "METAR LFPO 230230Z AUTO 12004KT 9999 BKN006 BKN160 BKN190 05/04 Q0991 TEMPO 4000 BR BKN003",
      "tafRaw": "TAF LFPO 222300Z 2300/2406 17008KT 9999 FEW006 \n  PROB40 \n  TEMPO 2300/2304 BKN006 \n  PROB30 \n  TEMPO 2300/2303 4000 BR BKN003 \n  TEMPO 2306/2311 4500 -RA BKN012 \n  TEMPO 2312/2317 18015G25KT \n  PROB30 \n  TEMPO 2315/2317 4500 -SHRA BKN020TCU"
    },
    {
      "icao": "LQBK",
      "iata": "BNX",
      "name": "Banja Luka International Airport",
      "lat": 44.941399,
      "lon": 17.297501,
      "updatedAt": "230230Z",
      "visibility_m": 7000,
      "taf_visibility_m": 1500,
      "worst_visibility_m": 1500,
      "ceiling_ft": 4500,
      "hazards": [
        "BR",
        "FZRA",
        "RA"
      ],
      "severityScore": 67,
      "metarRaw": "METAR LQBK 230230Z 00000KT 7000 BKN045 M01/M02 Q1004 NOSIG",
      "tafRaw": "TAF LQBK 222300Z 2300/2324 VRB02KT 7000 SCT045 TX03/2313Z TNM01/2306Z \n  PROB30 \n  TEMPO 2300/2303 1500 -FZRA BR BKN004 OVC045 \n  PROB40 \n  TEMPO 2303/2312 2500 BR BKN008 OVC020 \n  PROB30 \n  TEMPO 2312/2318 BKN013 \n  TEMPO 2318/2324 3000 BR"
    },
    {
      "icao": "EPRA",
      "iata": "RDO",
      "name": "Warsaw Radom Airport",
      "lat": 51.38937,
      "lon": 21.214742,
      "updatedAt": "230230Z",
      "visibility_m": 7000,
      "taf_visibility_m": 4000,
      "worst_visibility_m": 4000,
      "ceiling_ft": 600,
      "hazards": [
        "RA",
        "BR",
        "SN"
      ],
      "severityScore": 65,
      "metarRaw": "METAR EPRA 230230Z 07009KT 7000 OVC006 M08/M10 Q1007",
      "tafRaw": "TAF EPRA 230230Z 2303/2312 08008KT 7000 OVC007 \n  TEMPO 2303/2312 4000 -SN BR OVC004"
    },
    {
      "icao": "LOWW",
      "iata": "VIE",
      "name": "Vienna International Airport",
      "lat": 48.110298,
      "lon": 16.5697,
      "updatedAt": "230220Z",
      "visibility_m": 6000,
      "taf_visibility_m": 1200,
      "worst_visibility_m": 1200,
      "ceiling_ft": 800,
      "hazards": [
        "BR",
        "FG"
      ],
      "severityScore": 65,
      "metarRaw": "METAR LOWW 230220Z 15006KT 6000 FEW006 BKN008 M04/M05 Q1003 NOSIG",
      "tafRaw": "TAF LOWW 230215Z 2303/2409 13005KT 6000 OVC010 TXM01/2400Z TNM06/2306Z \n  TEMPO 2303/2310 4000 BR OVC007 \n  PROB30 \n  TEMPO 2305/2309 1200 BCFG BKN004 \n  TEMPO 2312/2322 12010KT \n  BECMG 2322/2324 2000 BCFG OVC004"
    },
    {
      "icao": "LPPT",
      "iata": "LIS",
      "name": "Lisbon Humberto Delgado Airport",
      "lat": 38.7813,
      "lon": -9.13592,
      "updatedAt": "230230Z",
      "visibility_m": 10000,
      "taf_visibility_m": 3000,
      "worst_visibility_m": 3000,
      "ceiling_ft": 1500,
      "hazards": [
        "SHRA",
        "TS",
        "RA"
      ],
      "severityScore": 63,
      "metarRaw": "METAR LPPT 230230Z 28008KT 240V320 9999 FEW020 12/07 Q1005",
      "tafRaw": "TAF LPPT 222300Z 2300/2406 29015KT 9999 SCT020 \n  TEMPO 2302/2406 29018G30KT 8000 SHRA SCT015 FEW025CB BKN030 \n  PROB30 \n  TEMPO 2306/2406 3000 TSRAGS BKN015 SCT020CB"
    },
    {
      "icao": "LRBC",
      "iata": "BCM",
      "name": "Bacău George Enescu International  Airport",
      "lat": 46.5219,
      "lon": 26.910299,
      "updatedAt": "230230Z",
      "visibility_m": 5000,
      "taf_visibility_m": 1500,
      "worst_visibility_m": 1500,
      "ceiling_ft": 800,
      "hazards": [
        "SN",
        "BR"
      ],
      "severityScore": 63,
      "metarRaw": "METAR LRBC 230230Z 18005KT 5000 SN OVC008 01/01 Q1006",
      "tafRaw": "TAF LRBC 230200Z 2303/2312 16006KT 5000 -SN BR BKN010 OVC015 \n  TEMPO 2305/2309 1500 -SN BR BKN002 OVC010 \n  BECMG 2310/2312 7000 NSW BKN015 OVC020"
    },
    {
      "icao": "LRBV",
      "iata": "GHV",
      "name": "Brașov-Ghimbav International Airport",
      "lat": 45.70558,
      "lon": 25.522871,
      "updatedAt": "230230Z",
      "visibility_m": 2400,
      "taf_visibility_m": 1500,
      "worst_visibility_m": 1500,
      "ceiling_ft": 500,
      "hazards": [
        "SN",
        "BR"
      ],
      "severityScore": 63,
      "metarRaw": "METAR LRBV 230230Z AUTO 23002KT 2400 SN FEW005/// BKN007/// OVC029/// 00/M00 Q1003",
      "tafRaw": "TAF LRBV 230200Z 2303/2312 VRB04KT 5000 BR BKN010 BKN045 \n  PROB40 \n  TEMPO 2303/2306 1500 -SN BR BKN005 BKN020 \n  BECMG 2309/2311 7000 NSW SCT010 BKN045"
    },
    {
      "icao": "LCLK",
      "iata": "LCA",
      "name": "Larnaca International Airport",
      "lat": 34.875099,
      "lon": 33.624901,
      "updatedAt": "230230Z",
      "visibility_m": 10000,
      "taf_visibility_m": 3000,
      "worst_visibility_m": 3000,
      "ceiling_ft": 3000,
      "hazards": [
        "TSRA",
        "RA",
        "TS"
      ],
      "severityScore": 62,
      "metarRaw": "METAR LCLK 230230Z 03019KT 9999 FEW004 SCT015 BKN030 12/10 Q1010 NOSIG",
      "tafRaw": "TAF LCLK 222330Z 2300/2400 04015KT 9999 SCT020 \n  PROB40 \n  TEMPO 2300/2301 5000 RA \n  PROB30 \n  TEMPO 2300/2306 VRB20G30KT 3000 TSRA SCT020CB \n  BECMG 2316/2318 34008KT"
    },
    {
      "icao": "LIRP",
      "iata": "PSA",
      "name": "Pisa International Airport",
      "lat": 43.683899,
      "lon": 10.3927,
      "updatedAt": "230215Z",
      "visibility_m": 10000,
      "taf_visibility_m": 3000,
      "worst_visibility_m": 3000,
      "ceiling_ft": 2500,
      "hazards": [
        "TSRA",
        "RA",
        "TS"
      ],
      "severityScore": 62,
      "metarRaw": "METAR LIRP 230215Z 09004KT CAVOK 05/04 Q1000 NOSIG",
      "tafRaw": "TAF LIRP 222300Z 2300/2324 11005KT 9999 SCT040 SCT080 \n  BECMG 2304/2306 22005KT 6000 -RA SCT015 BKN040 \n  PROB40 \n  TEMPO 2316/2318 15010KT 3000 TSRA SCT015CB BKN025"
    },
    {
      "icao": "OEMA",
      "iata": "MED",
      "name": "Prince Mohammad Bin Abdulaziz Airport",
      "lat": 24.5534,
      "lon": 39.705101,
      "updatedAt": "230200Z",
      "visibility_m": 6000,
      "taf_visibility_m": 2000,
      "worst_visibility_m": 2000,
      "ceiling_ft": 4000,
      "hazards": [
        "TSRA",
        "TS",
        "RA"
      ],
      "severityScore": 62,
      "metarRaw": "METAR OEMA 230200Z 04006KT 6000 NSC 16/M06 Q1018 NOSIG",
      "tafRaw": "TAF OEMA 222300Z 2300/2406 09010KT 7000 NSC \n  BECMG 2306/2308 24016KT FEW030 \n  TEMPO 2306/2316 VRB25KT 2000 BLDU TSRA FEW030CB BKN040 \n  BECMG 2318/2320 VRB03KT"
    },
    {
      "icao": "LEMD",
      "iata": "MAD",
      "name": "Adolfo Suárez Madrid–Barajas Airport",
      "lat": 40.471926,
      "lon": -3.56264,
      "updatedAt": "230230Z",
      "visibility_m": 3000,
      "taf_visibility_m": null,
      "worst_visibility_m": 3000,
      "ceiling_ft": 400,
      "hazards": [
        "BR",
        "DZ"
      ],
      "severityScore": 60,
      "metarRaw": "METAR LEMD 230230Z VRB02KT 3000 -DZ BR FEW002 BKN004 05/05 Q0998 NOSIG",
      "tafRaw": null
    },
    {
      "icao": "LRSM",
      "iata": "SUJ",
      "name": "Satu Mare International Airport",
      "lat": 47.7033,
      "lon": 22.8857,
      "updatedAt": "230230Z",
      "visibility_m": 5000,
      "taf_visibility_m": 1500,
      "worst_visibility_m": 1500,
      "ceiling_ft": 1000,
      "hazards": [
        "SHSN",
        "SN",
        "BR"
      ],
      "severityScore": 60,
      "metarRaw": "METAR LRSM 230230Z AUTO 00000KT 5000 -SHSN BKN050/// M00/M03 Q1004",
      "tafRaw": "TAF LRSM 230200Z 2303/2312 VRB04KT 5000 BR BKN040 \n  TEMPO 2303/2306 1500 -SN BR BKN010 OVC035 \n  BECMG 2309/2310 9999 NSW"
    },
    {
      "icao": "GMAD",
      "iata": "AGA",
      "name": "Al Massira Airport",
      "lat": 30.322478,
      "lon": -9.412003,
      "updatedAt": "230230Z",
      "visibility_m": 8000,
      "taf_visibility_m": 1500,
      "worst_visibility_m": 1500,
      "ceiling_ft": 600,
      "hazards": [
        "RA",
        "DZ"
      ],
      "severityScore": 57,
      "metarRaw": "METAR GMAD 230230Z 13004KT 8000 OVC006 13/13 Q1016 NOSIG",
      "tafRaw": "TAF GMAD 222300Z 2300/2406 18004KT 8000 SCT008 BKN016 \n  TEMPO 2305/2312 1500 DZ OVC006 \n  TEMPO 2312/2318 4000 RA BKN013"
    },
    {
      "icao": "LPPS",
      "iata": "PXO",
      "name": "Porto Santo Airport",
      "lat": 33.0733985901,
      "lon": -16.3500003815,
      "updatedAt": "230230Z",
      "visibility_m": 10000,
      "taf_visibility_m": 3000,
      "worst_visibility_m": 3000,
      "ceiling_ft": 800,
      "hazards": [
        "BR",
        "RA",
        "DZ"
      ],
      "severityScore": 57,
      "metarRaw": "METAR LPPS 230230Z 27016KT 9999 SCT014 17/16 Q1016",
      "tafRaw": "TAF LPPS 222300Z 2300/2406 29015KT 9999 SCT015 SCT030 \n  TEMPO 2300/2307 3000 -RADZ BR SCT004 BKN008 \n  PROB40 \n  TEMPO 2307/2406 30020G33KT"
    },
    {
      "icao": "LYPG",
      "iata": "TGD",
      "name": "Podgorica Airport / Podgorica Golubovci Airbase",
      "lat": 42.359402,
      "lon": 19.2519,
      "updatedAt": "230230Z",
      "visibility_m": 3600,
      "taf_visibility_m": 600,
      "worst_visibility_m": 600,
      "ceiling_ft": 3400,
      "hazards": [
        "BR",
        "FG"
      ],
      "severityScore": 55,
      "metarRaw": "METAR LYPG 230230Z 35001KT 3600 BR FEW014 BKN034 OVC070 06/06 Q1003 NOSIG",
      "tafRaw": "TAF LYPG 222300Z 2300/2324 36005KT 6000 FEW010 BKN035 OVC070 TX12/2313Z TN05/2305Z \n  TEMPO 2300/2308 2000 BR \n  PROB30 \n  TEMPO 2302/2307 0600 FG \n  TEMPO 2320/2324 5000 BR"
    },
    {
      "icao": "EPLB",
      "iata": "LUZ",
      "name": "Lublin Airport",
      "lat": 51.240157,
      "lon": 22.713461,
      "updatedAt": "230230Z",
      "visibility_m": 5000,
      "taf_visibility_m": 2000,
      "worst_visibility_m": 2000,
      "ceiling_ft": 600,
      "hazards": [
        "BR",
        "SN"
      ],
      "severityScore": 53,
      "metarRaw": "METAR EPLB 230230Z 06008KT 5000 BR OVC006 M08/M08 Q1008",
      "tafRaw": "TAF EPLB 222330Z 2300/2324 08012KT 6000 OVC007 \n  PROB40 \n  TEMPO 2300/2310 2500 -SN BR BKN003 \n  TEMPO 2310/2324 2000 SN BR BKN002"
    },
    {
      "icao": "EPMO",
      "iata": "WMI",
      "name": "Modlin Airport",
      "lat": 52.451099,
      "lon": 20.6518,
      "updatedAt": "230230Z",
      "visibility_m": 5000,
      "taf_visibility_m": 2000,
      "worst_visibility_m": 2000,
      "ceiling_ft": 800,
      "hazards": [
        "BR",
        "SN"
      ],
      "severityScore": 53,
      "metarRaw": "METAR EPMO 230230Z 07012KT 5000 BR OVC008 M10/M10 Q1009",
      "tafRaw": "TAF EPMO 222330Z 2300/2324 08012KT 6000 OVC006 \n  TEMPO 2300/2314 2500 -SG BR BKN003 \n  TEMPO 2314/2324 2000 SN BR BKN003"
    },
    {
      "icao": "EPPO",
      "iata": "POZ",
      "name": "Poznań-Ławica Airport",
      "lat": 52.421598,
      "lon": 16.823359,
      "updatedAt": "230230Z",
      "visibility_m": 4800,
      "taf_visibility_m": 4000,
      "worst_visibility_m": 4000,
      "ceiling_ft": 800,
      "hazards": [
        "BR",
        "SN"
      ],
      "severityScore": 53,
      "metarRaw": "METAR EPPO 230230Z 09010KT 4800 BR BKN008 M10/M12 Q1007",
      "tafRaw": "TAF EPPO 222330Z 2300/2324 09010KT 7000 NSC \n  PROB40 \n  TEMPO 2300/2303 4000 -SN BR BKN007 \n  BECMG 2303/2306 BKN007 \n  PROB40 \n  TEMPO 2303/2308 4000 -SN BR \n  TEMPO 2310/2314 BKN011 \n  TEMPO 2318/2324 4000 -SN BR BKN003"
    },
    {
      "icao": "EPSY",
      "iata": "SZY",
      "name": "Olsztyn-Mazury Airport",
      "lat": 53.481899,
      "lon": 20.9377,
      "updatedAt": "230230Z",
      "visibility_m": 7000,
      "taf_visibility_m": 2000,
      "worst_visibility_m": 2000,
      "ceiling_ft": 700,
      "hazards": [
        "BR",
        "SN"
      ],
      "severityScore": 53,
      "metarRaw": "METAR EPSY 230230Z 08005KT 030V140 7000 OVC007 M11/M12 Q1011",
      "tafRaw": "TAF EPSY 230230Z 2303/2312 08008KT 8000 BKN010 \n  TEMPO 2303/2312 4000 -SN BR BKN005 OVC007 \n  PROB40 \n  TEMPO 2303/2309 2000 BR BKN003 \n  BECMG 2309/2312 BKN016"
    },
    {
      "icao": "EPWA",
      "iata": "WAW",
      "name": "Warsaw Chopin Airport",
      "lat": 52.165699,
      "lon": 20.9671,
      "updatedAt": "230230Z",
      "visibility_m": 7000,
      "taf_visibility_m": 2000,
      "worst_visibility_m": 2000,
      "ceiling_ft": 900,
      "hazards": [
        "SN",
        "BR"
      ],
      "severityScore": 53,
      "metarRaw": "METAR EPWA 230230Z 08008KT 7000 -SN FEW010 OVC016 M08/M10 Q1009 TEMPO BKN009",
      "tafRaw": "TAF EPWA 230230Z 2303/2403 08010KT 7000 SCT009 BKN015 \n  TEMPO 2303/2322 4000 -SN BR BKN004 OVC010 \n  PROB40 \n  TEMPO 2314/2322 2000 SN BR BKN003"
    },
    {
      "icao": "UDYZ",
      "iata": "EVN",
      "name": "Zvartnots International Airport",
      "lat": 40.148941,
      "lon": 44.397887,
      "updatedAt": "230230Z",
      "visibility_m": 5000,
      "taf_visibility_m": 2300,
      "worst_visibility_m": 2300,
      "ceiling_ft": 700,
      "hazards": [
        "BR",
        "SN"
      ],
      "severityScore": 53,
      "metarRaw": "METAR UDYZ 230230Z 00000KT 5000 BR SCT046 M06/M08 Q1017 NOSIG",
      "tafRaw": "TAF UDYZ 222300Z 2300/2324 23006KT 6000 SCT030 \n  TEMPO 2303/2315 2300 -SN BR BKN007"
    },
    {
      "icao": "LFMN",
      "iata": "NCE",
      "name": "Nice-Côte d'Azur Airport",
      "lat": 43.658401,
      "lon": 7.21587,
      "updatedAt": "230230Z",
      "visibility_m": 10000,
      "taf_visibility_m": 3000,
      "worst_visibility_m": 3000,
      "ceiling_ft": 5000,
      "hazards": [
        "SHRA",
        "TS",
        "RA"
      ],
      "severityScore": 51,
      "metarRaw": "METAR LFMN 230230Z 33008KT 9999 OVC050 08/05 Q1000 NOSIG",
      "tafRaw": "TAF LFMN 230200Z 2303/2409 34010KT 9999 OVC050 \n  TEMPO 2310/2403 6000 SHRA BKN020TCU \n  BECMG 2312/2314 09012KT \n  PROB30 \n  TEMPO 2320/2401 VRB15G25KT 3000 TSRAGR BKN012 BKN020CB \n  BECMG 2321/2323 34012KT \n  TEMPO 2408/2409 -SHRA BKN020TCU"
    },
    {
      "icao": "LMML",
      "iata": "MLA",
      "name": "Malta International Airport",
      "lat": 35.857498,
      "lon": 14.4775,
      "updatedAt": "230245Z",
      "visibility_m": 7000,
      "taf_visibility_m": 5000,
      "worst_visibility_m": 5000,
      "ceiling_ft": null,
      "hazards": [
        "SHRA",
        "RA",
        "TS"
      ],
      "severityScore": 51,
      "metarRaw": "METAR LMML 230245Z 24007KT 9999 FEW015CB SCT018TCU 14/11 Q1000 TEMPO 7000 SHRA",
      "tafRaw": "TAF LMML 222300Z 2300/2324 24012KT 9999 SCT020 \n  TEMPO 2300/2309 8000 SHRA SCT018TCU \n  PROB40 \n  TEMPO 2300/2307 5000 TSRAGS BKN015CB \n  BECMG 2303/2306 30014KT \n  PROB40 \n  TEMPO 2310/2317 28018G28KT"
    },
    {
      "icao": "LRTM",
      "iata": "TGM",
      "name": "Târgu Mureş Transilvania International Airport",
      "lat": 46.467701,
      "lon": 24.4125,
      "updatedAt": "230230Z",
      "visibility_m": 1300,
      "taf_visibility_m": 1500,
      "worst_visibility_m": 1300,
      "ceiling_ft": 1000,
      "hazards": [
        "SN",
        "BR"
      ],
      "severityScore": 50,
      "metarRaw": "METAR LRTM 230230Z AUTO 00000KT 1300 R07/P2000N SN FEW017/// SCT031/// M02/M02 Q1004",
      "tafRaw": "TAF LRTM 230200Z 2303/2312 VRB04KT 1500 -SN BR BKN010 OVC030 \n  BECMG 2304/2306 3000 BR \n  BECMG 2308/2310 7000 NSW SCT010 SCT030"
    },
    {
      "icao": "EGBB",
      "iata": "BHX",
      "name": "Birmingham Airport",
      "lat": 52.453899,
      "lon": -1.74803,
      "updatedAt": "230220Z",
      "visibility_m": 10000,
      "taf_visibility_m": 6000,
      "worst_visibility_m": 6000,
      "ceiling_ft": 1000,
      "hazards": [
        "RA",
        "SHRA",
        "DZ"
      ],
      "severityScore": 48,
      "metarRaw": "METAR EGBB 230220Z 15008KT 9999 BKN010 05/04 Q0985",
      "tafRaw": "TAF EGBB 222304Z 2300/2324 13008KT 9999 BKN006 \n  BECMG 2300/2303 FEW010 SCT020 \n  TEMPO 2300/2303 6000 -DZ \n  PROB30 \n  TEMPO 2303/2307 8000 BKN006 \n  TEMPO 2307/2313 6000 RA -RADZ BKN010 \n  PROB30 \n  TEMPO 2307/2313 12015G25KT RADZ BKN008 \n  PROB30 \n  TEMPO 2313/2318 8000 -SHRA \n  BECMG 2318/2321 11015G29KT \n  PROB30 \n  TEMPO 2321/2324 8000 -SHRA"
    },
    {
      "icao": "LFOB",
      "iata": "BVA",
      "name": "Beauvais Tillé airport",
      "lat": 49.454399,
      "lon": 2.11278,
      "updatedAt": "230230Z",
      "visibility_m": 8000,
      "taf_visibility_m": 2500,
      "worst_visibility_m": 2500,
      "ceiling_ft": 400,
      "hazards": [
        "RA"
      ],
      "severityScore": 47,
      "metarRaw": "METAR LFOB 230230Z AUTO 12008KT 8000 OVC008 05/05 Q0990 TEMPO BKN004",
      "tafRaw": "TAF LFOB 222300Z 2300/2324 14010KT 9999 SCT025 \n  BECMG 2300/2302 BKN007 OVC012 \n  TEMPO 2302/2306 BKN004 \n  BECMG 2306/2308 BKN020 \n  TEMPO 2309/2312 4000 -RA BKN012 \n  PROB40 \n  TEMPO 2309/2311 2500 RA BKN008 \n  PROB40 \n  TEMPO 2312/2314 BKN014"
    },
    {
      "icao": "LTFM",
      "iata": "IST",
      "name": "İstanbul Airport",
      "lat": 41.261297,
      "lon": 28.741951,
      "updatedAt": "230220Z",
      "visibility_m": 10000,
      "taf_visibility_m": 1600,
      "worst_visibility_m": 1600,
      "ceiling_ft": 10000,
      "hazards": [
        "RA",
        "SHRA",
        "FG"
      ],
      "severityScore": 46,
      "metarRaw": "METAR LTFM 230220Z 32003KT 260V010 9999 SCT040 BKN100 08/07 Q1004 NOSIG RMK RWY17L 31003KT RWY34L 34003KT RWY16R 00000KT RWY36 VRB02KT RWY18 35003KT 330V030",
      "tafRaw": "TAF LTFM 222240Z 2300/2406 20010KT 9999 SCT040 BKN100 \n  TEMPO 2300/2303 -SHRA SCT006 BKN025 BKN070 \n  BECMG 2303/2305 30005KT BKN004 BKN022 \n  PROB30 \n  TEMPO 2303/2307 1600 -RA BCFG \n  BECMG 2308/2312 01010KT -RA"
    },
    {
      "icao": "LIBD",
      "iata": "BRI",
      "name": "Bari Karol Wojtyła International Airport",
      "lat": 41.138901,
      "lon": 16.760599,
      "updatedAt": "230220Z",
      "visibility_m": 10000,
      "taf_visibility_m": 800,
      "worst_visibility_m": 800,
      "ceiling_ft": null,
      "hazards": [
        "FG"
      ],
      "severityScore": 45,
      "metarRaw": "METAR LIBD 230220Z 23005KT 9999 FEW040 05/05 Q1001",
      "tafRaw": "TAF LIBD 222300Z 2300/2324 VRB05KT 7000 SCT040 \n  TEMPO 2300/2306 0800 FG \n  BECMG 2320/2322 18010KT"
    },
    {
      "icao": "LIBP",
      "iata": "PSR",
      "name": "Abruzzo Airport",
      "lat": 42.431079,
      "lon": 14.182981,
      "updatedAt": "230220Z",
      "visibility_m": 6000,
      "taf_visibility_m": 800,
      "worst_visibility_m": 800,
      "ceiling_ft": 2000,
      "hazards": [
        "FG"
      ],
      "severityScore": 45,
      "metarRaw": "METAR LIBP 230220Z AUTO 27001KT 6000 OVC027/// 08/08 Q1002",
      "tafRaw": "TAF LIBP 222300Z 2300/2324 VRB05KT 6000 BKN020 \n  TEMPO 2300/2307 0800 FG"
    },
    {
      "icao": "LIPR",
      "iata": "RMI",
      "name": "Federico Fellini International Airport",
      "lat": 44.020024,
      "lon": 12.612198,
      "updatedAt": "230220Z",
      "visibility_m": 10000,
      "taf_visibility_m": 2000,
      "worst_visibility_m": 2000,
      "ceiling_ft": 1400,
      "hazards": [
        "RA",
        "FG"
      ],
      "severityScore": 44,
      "metarRaw": "METAR LIPR 230220Z AUTO 27004KT 9999 OVC016/// 06/04 Q1002",
      "tafRaw": "TAF LIPR 222300Z 2300/2324 VRB05KT 7000 SCT030 \n  TEMPO 2300/2307 2000 BCFG BKN014 \n  BECMG 2316/2318 13010KT \n  TEMPO 2318/2324 RA"
    },
    {
      "icao": "LIPY",
      "iata": "AOI",
      "name": "Marche Airport",
      "lat": 43.616299,
      "lon": 13.3623,
      "updatedAt": "230220Z",
      "visibility_m": 9000,
      "taf_visibility_m": 2000,
      "worst_visibility_m": 2000,
      "ceiling_ft": 1400,
      "hazards": [
        "RA",
        "FG"
      ],
      "severityScore": 44,
      "metarRaw": "METAR LIPY 230220Z AUTO 18002KT 9000 OVC020/// 06/03 Q1002",
      "tafRaw": "TAF LIPY 222300Z 2300/2324 28006KT 9999 BKN030 \n  TEMPO 2300/2308 2000 BCFG BKN014 \n  BECMG 2312/2314 12010KT \n  TEMPO 2318/2324 RA"
    },
    {
      "icao": "LIRZ",
      "iata": "PEG",
      "name": "Perugia San Francesco d'Assisi – Umbria International Airport",
      "lat": 43.095901,
      "lon": 12.5132,
      "updatedAt": "230220Z",
      "visibility_m": 10000,
      "taf_visibility_m": 1200,
      "worst_visibility_m": 1200,
      "ceiling_ft": 4500,
      "hazards": [
        "RA",
        "FG"
      ],
      "severityScore": 42,
      "metarRaw": "METAR LIRZ 230220Z AUTO VRB02KT 9999 NCD 02/02 Q1001",
      "tafRaw": "TAF LIRZ 222300Z 2300/2324 VRB05KT 9999 BKN045 \n  TEMPO 2300/2309 1200 BCFG \n  TEMPO 2312/2324 4000 RA"
    },
    {
      "icao": "EFTU",
      "iata": "TKU",
      "name": "Turku Airport",
      "lat": 60.514099,
      "lon": 22.2628,
      "updatedAt": "230250Z",
      "visibility_m": 10000,
      "taf_visibility_m": 4000,
      "worst_visibility_m": 4000,
      "ceiling_ft": 1900,
      "hazards": [
        "SHSN",
        "SN"
      ],
      "severityScore": 40,
      "metarRaw": "METAR EFTU 230250Z AUTO 09007KT 9999 -SHSN OVC019 M08/M10 Q1024",
      "tafRaw": "TAF EFTU 230236Z 2303/2403 08007KT 9999 BKN020 \n  BECMG 2303/2305 4000 -SN BKN012 \n  BECMG 2305/2307 9999 NSW BKN015 \n  TEMPO 2307/2319 BKN009 \n  PROB30 \n  TEMPO 2307/2319 5000 -SN \n  BECMG 2319/2321 BKN008 \n  BECMG 2322/2324 BKN015 \n  BECMG 2401/2403 BKN008"
    },
    {
      "icao": "EYVI",
      "iata": "VNO",
      "name": "Vilnius International Airport",
      "lat": 54.634102,
      "lon": 25.285801,
      "updatedAt": "230250Z",
      "visibility_m": 10000,
      "taf_visibility_m": 5000,
      "worst_visibility_m": 5000,
      "ceiling_ft": 1900,
      "hazards": [
        "SN",
        "BR"
      ],
      "severityScore": 40,
      "metarRaw": "METAR EYVI 230250Z 11009KT 080V150 9999 -SN OVC019 M10/M13 Q1016 NOSIG",
      "tafRaw": "TAF EYVI 222300Z 2300/2324 10011KT 9000 BKN015 \n  TEMPO 2300/2306 5000 -SN BR SCT010 \n  TEMPO 2306/2314 11015G25KT"
    },
    {
      "icao": "LTAC",
      "iata": "ESB",
      "name": "Esenboğa International Airport",
      "lat": 40.128101,
      "lon": 32.995098,
      "updatedAt": "230220Z",
      "visibility_m": 4800,
      "taf_visibility_m": 2500,
      "worst_visibility_m": 2500,
      "ceiling_ft": 2500,
      "hazards": [
        "BR",
        "SN",
        "RA"
      ],
      "severityScore": 40,
      "metarRaw": "METAR LTAC 230220Z 00000KT 4800 BR SCT011 BKN025 BKN080 M00/M01 Q1007 NOSIG RMK RWY21C 00000KT RWY03L 00000KT RWY21R 00000KT RWY03R 00000KT RWY21L 00000KT",
      "tafRaw": "TAF LTAC 222240Z 2300/2324 VRB02KT 9999 SCT035 BKN090 \n  TEMPO 2300/2303 4000 -SN BR SCT010 BKN025 BKN080 \n  TEMPO 2303/2307 2500 BR \n  TEMPO 2314/2318 -RA FEW010 BKN030 BKN080 \n  TEMPO 2318/2322 -RASN FEW010 BKN030 BKN080"
    },
    {
      "icao": "LRIA",
      "iata": "IAS",
      "name": "Iaşi Airport",
      "lat": 47.180278,
      "lon": 27.620833,
      "updatedAt": "230230Z",
      "visibility_m": 4700,
      "taf_visibility_m": 1500,
      "worst_visibility_m": 1500,
      "ceiling_ft": 2300,
      "hazards": [
        "BR",
        "SN"
      ],
      "severityScore": 38,
      "metarRaw": "METAR LRIA 230230Z COR 09008KT 4700 -SN BR FEW003 SCT009 BKN023 M00/M01 Q1007",
      "tafRaw": "TAF LRIA 230200Z 2303/2312 11007KT 5000 -SN BR BKN010 OVC020 \n  TEMPO 2303/2307 1500 -SN BR BKN002 OVC010"
    },
    {
      "icao": "UDSG",
      "iata": "LWN",
      "name": "Shirak International Airport",
      "lat": 40.750401,
      "lon": 43.859299,
      "updatedAt": "230230Z",
      "visibility_m": 9000,
      "taf_visibility_m": 1000,
      "worst_visibility_m": 1000,
      "ceiling_ft": 4600,
      "hazards": [
        "BR",
        "SN"
      ],
      "severityScore": 38,
      "metarRaw": "METAR UDSG 230230Z 03002KT 9000 BKN046 M10/M12 Q1014 NOSIG",
      "tafRaw": "TAF UDSG 222258Z 2300/2324 VRB06KT 9999 BKN040 \n  TEMPO 2300/2305 5000 BR \n  TEMPO 2305/2318 24016KT 1000 SN BR OVC020"
    },
    {
      "icao": "LPPR",
      "iata": "OPO",
      "name": "Francisco de Sá Carneiro Airport",
      "lat": 41.2481002808,
      "lon": -8.68138980865,
      "updatedAt": "230230Z",
      "visibility_m": 10000,
      "taf_visibility_m": 2000,
      "worst_visibility_m": 2000,
      "ceiling_ft": 3800,
      "hazards": [
        "TS",
        "RA"
      ],
      "severityScore": 37,
      "metarRaw": "METAR LPPR 230230Z 27014G26KT 220V310 9999 FEW020 FEW025CB BKN038 11/05 Q1000",
      "tafRaw": "TAF LPPR 222300Z 2300/2324 26015KT 9999 SCT020 \n  TEMPO 2300/2324 26020G35KT 5000 SHRAGS SCT015 FEW020CB BKN030 \n  PROB30 \n  TEMPO 2304/2324 26028G43KT 2000 +TSRAGR BKN012 SCT018CB"
    },
    {
      "icao": "EGGW",
      "iata": "LTN",
      "name": "London Luton Airport",
      "lat": 51.874699,
      "lon": -0.368333,
      "updatedAt": "230220Z",
      "visibility_m": 10000,
      "taf_visibility_m": 3000,
      "worst_visibility_m": 3000,
      "ceiling_ft": 3200,
      "hazards": [
        "BR",
        "RA",
        "SHRA"
      ],
      "severityScore": 36,
      "metarRaw": "METAR EGGW 230220Z AUTO 15008KT 9999 SCT025 BKN032 06/05 Q0987",
      "tafRaw": "TAF EGGW 222304Z 2300/2324 18010KT 9999 SCT012 \n  PROB30 \n  TEMPO 2300/2306 3000 +SHRA BR BKN004 \n  BECMG 2303/2306 12012KT \n  TEMPO 2306/2314 7000 RA BKN008 \n  PROB40 \n  TEMPO 2306/2311 13016G26KT \n  TEMPO 2317/2324 13016G26KT \n  PROB30 \n  TEMPO 2318/2324 9000 -RA BKN012"
    },
    {
      "icao": "EBCI",
      "iata": "CRL",
      "name": "Brussels South Charleroi Airport",
      "lat": 50.461963,
      "lon": 4.459562,
      "updatedAt": "230220Z",
      "visibility_m": 10000,
      "taf_visibility_m": 4000,
      "worst_visibility_m": 4000,
      "ceiling_ft": 500,
      "hazards": [
        "BR"
      ],
      "severityScore": 35,
      "metarRaw": "METAR EBCI 230220Z 16008KT CAVOK 07/05 Q0993 NOSIG",
      "tafRaw": "TAF EBCI 222302Z 2300/2406 16007KT 9999 BKN030 \n  PROB30 \n  TEMPO 2300/2310 4000 BR BKN005 \n  TEMPO 2313/2318 BKN014"
    },
    {
      "icao": "LKPR",
      "iata": "PRG",
      "name": "Václav Havel Airport Prague",
      "lat": 50.100874,
      "lon": 14.259911,
      "updatedAt": "230230Z",
      "visibility_m": 5000,
      "taf_visibility_m": 3000,
      "worst_visibility_m": 3000,
      "ceiling_ft": 600,
      "hazards": [
        "BR"
      ],
      "severityScore": 35,
      "metarRaw": "METAR LKPR 230230Z 08004KT 060V120 8000 OVC010 M07/M09 Q1002 BECMG 5000 BR BKN006",
      "tafRaw": "TAF LKPR 230200Z 2303/2409 14005KT 7000 BKN015 \n  TEMPO 2303/2308 SCT012 \n  PROB30 \n  TEMPO 2303/2308 3000 BR SCT005 \n  BECMG 2310/2312 06006KT CAVOK \n  PROB30 \n  TEMPO 2323/2409 5000 BR SCT010"
    },
    {
      "icao": "OEJN",
      "iata": "JED",
      "name": "King Abdulaziz International Airport",
      "lat": 21.6796,
      "lon": 39.156502,
      "updatedAt": "230200Z",
      "visibility_m": 10000,
      "taf_visibility_m": 400,
      "worst_visibility_m": 400,
      "ceiling_ft": null,
      "hazards": [],
      "severityScore": 35,
      "metarRaw": "METAR OEJN 230200Z 00000KT CAVOK 25/19 Q1011 NOSIG",
      "tafRaw": "TAF OEJN 222300Z 2300/2406 VRB03KT 7000 NSC \n  BECMG 2306/2308 19020KT \n  TEMPO 2306/2316 2000 BLDU \n  PROB30 \n  TEMPO 2307/2315 0400 \n  BECMG 2318/2320 19008KT"
    },
    {
      "icao": "GCLP",
      "iata": "LPA",
      "name": "Gran Canaria Airport",
      "lat": 27.9319,
      "lon": -15.3866,
      "updatedAt": "230230Z",
      "visibility_m": 10000,
      "taf_visibility_m": 3000,
      "worst_visibility_m": 3000,
      "ceiling_ft": 1400,
      "hazards": [
        "RA",
        "DZ"
      ],
      "severityScore": 34,
      "metarRaw": "METAR GCLP 230230Z 33004KT 290V350 9999 SCT025 16/13 Q1019 NOSIG",
      "tafRaw": "TAF GCLP 230200Z 2303/2403 28005KT 9999 SCT020 TX23/2314Z TN15/2306Z \n  TEMPO 2310/2318 34010KT \n  TEMPO 2311/2318 17010KT \n  BECMG 2318/2320 36020KT \n  TEMPO 2318/2403 36020G30KT \n  PROB30 \n  TEMPO 2318/2322 3000 RADZ BKN014"
    },
    {
      "icao": "EGPF",
      "iata": "GLA",
      "name": "Glasgow Airport",
      "lat": 55.871899,
      "lon": -4.43306,
      "updatedAt": "230220Z",
      "visibility_m": 10000,
      "taf_visibility_m": 3000,
      "worst_visibility_m": 3000,
      "ceiling_ft": 1500,
      "hazards": [
        "RA",
        "DZ"
      ],
      "severityScore": 34,
      "metarRaw": "METAR EGPF 230220Z AUTO 08020KT 9999 OVC015 05/02 Q0987",
      "tafRaw": "TAF EGPF 222254Z 2300/2324 08011KT 9999 FEW012 BKN025 \n  TEMPO 2300/2312 6000 RA -RADZ BKN014 \n  PROB30 \n  TEMPO 2300/2306 08015G25KT 3000 +RA RADZ BKN009 \n  PROB30 \n  TEMPO 2306/2312 3000 +RA RADZ BKN009 \n  TEMPO 2312/2318 BKN014"
    },
    {
      "icao": "ESKN",
      "iata": "NYO",
      "name": "Stockholm Skavsta Airport",
      "lat": 58.789656,
      "lon": 16.911479,
      "updatedAt": "230220Z",
      "visibility_m": 10000,
      "taf_visibility_m": 2000,
      "worst_visibility_m": 2000,
      "ceiling_ft": 1800,
      "hazards": [
        "SN"
      ],
      "severityScore": 30,
      "metarRaw": "METAR ESKN 230220Z 07011KT 030V100 9999 OVC018 M03/M06 Q1019",
      "tafRaw": "TAF ESKN 230230Z 2303/2403 08012KT 9999 -SN OVC015 \n  TEMPO 2303/2403 2000 SN SG OVC012"
    },
    {
      "icao": "ESSA",
      "iata": "ARN",
      "name": "Stockholm-Arlanda Airport",
      "lat": 59.64849,
      "lon": 17.928829,
      "updatedAt": "230220Z",
      "visibility_m": 10000,
      "taf_visibility_m": 4000,
      "worst_visibility_m": 4000,
      "ceiling_ft": 1700,
      "hazards": [
        "SN"
      ],
      "severityScore": 30,
      "metarRaw": "METAR ESSA 230220Z 08010KT 9999 BKN017 M04/M07 Q1021 NOSIG",
      "tafRaw": "TAF ESSA 230230Z 2303/2403 08012KT 9999 OVC018 \n  PROB40 2303/2315 4000 -SN SG BKN012 \n  TEMPO 2318/2403 BKN010"
    },
    {
      "icao": "UBBB",
      "iata": "GYD",
      "name": "Heydar Aliyev International Airport",
      "lat": 40.467498779296875,
      "lon": 50.04669952392578,
      "updatedAt": "230230Z",
      "visibility_m": 10000,
      "taf_visibility_m": 4000,
      "worst_visibility_m": 4000,
      "ceiling_ft": 2500,
      "hazards": [
        "BR",
        "FG"
      ],
      "severityScore": 30,
      "metarRaw": "METAR UBBB 230230Z 28006KT CAVOK 00/M01 Q1013 NOSIG",
      "tafRaw": "TAF UBBB 222301Z 2300/2324 31005KT CAVOK TX07/2310Z TNM00/2301Z \n  TEMPO 2300/2304 34008KT 4000 BR BCFG SCT006 \n  BECMG 2304/2306 34006KT SCT030 \n  TEMPO 2306/2315 36008KT \n  BECMG 2315/2317 33014KT BKN025"
    },
    {
      "icao": "LFBD",
      "iata": "BOD",
      "name": "Bordeaux–Mérignac Airport",
      "lat": 44.82865,
      "lon": -0.715356,
      "updatedAt": "230230Z",
      "visibility_m": 4000,
      "taf_visibility_m": null,
      "worst_visibility_m": 4000,
      "ceiling_ft": 1000,
      "hazards": [
        "RA"
      ],
      "severityScore": 29,
      "metarRaw": "METAR LFBD 230230Z AUTO 18011KT 9999 -RA BKN042/// BKN049/// BKN056/// ///TCU 08/05 Q0990 TEMPO 4000 -RA BKN010 BKN020",
      "tafRaw": null
    },
    {
      "icao": "EPKT",
      "iata": "KTW",
      "name": "Katowice Wojciech Korfanty International Airport",
      "lat": 50.476015,
      "lon": 19.080705,
      "updatedAt": "230230Z",
      "visibility_m": 4500,
      "taf_visibility_m": 2000,
      "worst_visibility_m": 2000,
      "ceiling_ft": 4100,
      "hazards": [
        "BR",
        "SN"
      ],
      "severityScore": 28,
      "metarRaw": "METAR EPKT 230230Z 08005KT 4500 BR BKN041 M05/M08 Q1004",
      "tafRaw": "TAF EPKT 222330Z 2300/2324 09004KT 4000 BR BKN040 \n  TEMPO 2300/2308 2000 BR BKN008 \n  BECMG 2308/2311 7000 \n  PROB30 \n  TEMPO 2311/2324 4000 -SN BR OVC008"
    },
    {
      "icao": "EPWR",
      "iata": "WRO",
      "name": "Copernicus Wrocław Airport",
      "lat": 51.103719,
      "lon": 16.882096,
      "updatedAt": "230230Z",
      "visibility_m": 7000,
      "taf_visibility_m": 4000,
      "worst_visibility_m": 4000,
      "ceiling_ft": 4700,
      "hazards": [
        "BR",
        "SN"
      ],
      "severityScore": 28,
      "metarRaw": "METAR EPWR 230230Z 09007KT 7000 BKN047 M03/M07 Q1004",
      "tafRaw": "TAF EPWR 230230Z 2303/2403 09005KT 6000 NSC \n  PROB40 \n  TEMPO 2303/2307 4000 BR \n  BECMG 2309/2312 BKN012 \n  BECMG 2316/2319 BKN007 \n  TEMPO 2319/2403 4000 -SN BR OVC003"
    },
    {
      "icao": "EYKA",
      "iata": "KUN",
      "name": "Kaunas International Airport",
      "lat": 54.963965,
      "lon": 24.08582,
      "updatedAt": "230250Z",
      "visibility_m": 10000,
      "taf_visibility_m": 5000,
      "worst_visibility_m": 5000,
      "ceiling_ft": 2000,
      "hazards": [
        "SN",
        "BR"
      ],
      "severityScore": 28,
      "metarRaw": "METAR EYKA 230250Z 10013KT 9999 -SN OVC020 M08/M12 Q1017",
      "tafRaw": "TAF EYKA 222300Z 2300/2324 10008KT 9000 BKN015 \n  TEMPO 2300/2306 5000 -SN BR SCT015 \n  TEMPO 2307/2314 10015G25KT"
    },
    {
      "icao": "LKMT",
      "iata": "OSR",
      "name": "Leoš Janáček Airport Ostrava",
      "lat": 49.696301,
      "lon": 18.111099,
      "updatedAt": "230230Z",
      "visibility_m": 7000,
      "taf_visibility_m": 3000,
      "worst_visibility_m": 3000,
      "ceiling_ft": 3000,
      "hazards": [
        "BR",
        "SN"
      ],
      "severityScore": 28,
      "metarRaw": "METAR LKMT 230230Z 07002KT 7000 OVC030 M01/M03 Q1003 NOSIG",
      "tafRaw": "TAF LKMT 222300Z 2300/2324 VRB02KT CAVOK \n  TEMPO 2301/2310 7000 BKN015 \n  PROB30 \n  TEMPO 2301/2309 3000 -SN BR BKN007 \n  BECMG 2310/2312 01006KT 9999 BKN018 OVC025"
    },
    {
      "icao": "GMMX",
      "iata": "RAK",
      "name": "Marrakesh Menara Airport",
      "lat": 31.604807,
      "lon": -8.035788,
      "updatedAt": "230230Z",
      "visibility_m": 10000,
      "taf_visibility_m": 4000,
      "worst_visibility_m": 4000,
      "ceiling_ft": 2600,
      "hazards": [
        "SHRA",
        "RA"
      ],
      "severityScore": 26,
      "metarRaw": "METAR GMMX 230230Z 22006KT 9999 SCT010 BKN026 12/11 Q1016 NOSIG",
      "tafRaw": "TAF GMMX 222300Z 2300/2406 24014KT 8000 SCT020 SCT080 \n  TEMPO 2315/2324 32018KT 4000 SHRA SCT010 BKN020 FEW026CB"
    },
    {
      "icao": "EGGP",
      "iata": "LPL",
      "name": "Liverpool John Lennon Airport",
      "lat": 53.334863,
      "lon": -2.849637,
      "updatedAt": "230220Z",
      "visibility_m": 10000,
      "taf_visibility_m": 6000,
      "worst_visibility_m": 6000,
      "ceiling_ft": 3500,
      "hazards": [
        "RA",
        "SHRA"
      ],
      "severityScore": 26,
      "metarRaw": "METAR EGGP 230220Z 14011KT 9999 FEW011 BKN035 06/05 Q0983",
      "tafRaw": "TAF EGGP 222302Z 2300/2324 11012KT 9999 SCT022 \n  TEMPO 2300/2303 6000 SHRA RA BKN008 \n  PROB30 \n  TEMPO 2303/2306 6000 BKN008 \n  BECMG 2306/2309 11015G25KT \n  PROB30 \n  TEMPO 2306/2310 BKN014 \n  TEMPO 2310/2315 6000 RA BKN014"
    },
    {
      "icao": "LEAL",
      "iata": "ALC",
      "name": "Alicante-Elche Miguel Hernández Airport",
      "lat": 38.2822,
      "lon": -0.558156,
      "updatedAt": "230230Z",
      "visibility_m": 10000,
      "taf_visibility_m": 3000,
      "worst_visibility_m": 3000,
      "ceiling_ft": null,
      "hazards": [
        "SHRA",
        "RA"
      ],
      "severityScore": 26,
      "metarRaw": "METAR LEAL 230230Z 00000KT 9999 SCT060 08/07 Q1003 NOSIG",
      "tafRaw": "TAF LEAL 222300Z 2300/2324 VRB04KT 9999 SCT040 TX19/2313Z TN09/2306Z \n  PROB30 \n  TEMPO 2302/2306 3000 SHRA FEW030TCU \n  BECMG 2310/2312 27010KT \n  TEMPO 2312/2316 27015G25KT"
    },
    {
      "icao": "UGKO",
      "iata": "KUT",
      "name": "David the Builder Kutaisi International Airport",
      "lat": 42.177448,
      "lon": 42.485353,
      "updatedAt": "230230Z",
      "visibility_m": 10000,
      "taf_visibility_m": 10000,
      "worst_visibility_m": 10000,
      "ceiling_ft": 8000,
      "hazards": [
        "SHRA",
        "RA"
      ],
      "severityScore": 26,
      "metarRaw": "METAR UGKO 230230Z 09014KT 9999 OVC080 08/M06 Q1007 NOSIG",
      "tafRaw": "TAF UGKO 222300Z 2300/2324 08017KT 9999 OVC060 TX08/2311Z TN05/2303Z \n  BECMG 2306/2308 09007KT \n  TEMPO 2310/2316 SHRA BKN033CB"
    },
    {
      "icao": "GCTS",
      "iata": "TFS",
      "name": "Tenerife Sur Airport",
      "lat": 28.0445,
      "lon": -16.5725,
      "updatedAt": "230230Z",
      "visibility_m": 10000,
      "taf_visibility_m": 10000,
      "worst_visibility_m": 10000,
      "ceiling_ft": 3000,
      "hazards": [
        "TS"
      ],
      "severityScore": 25,
      "metarRaw": "METAR GCTS 230230Z 01005KT 9999 BKN030 17/12 Q1020 NOSIG",
      "tafRaw": "TAF GCTS 230200Z 2303/2403 34005KT 9999 BKN025 TX23/2314Z TN15/2306Z \n  PROB30 \n  TEMPO 2310/2318 20010KT \n  PROB40 \n  TEMPO 2318/2322 07010KT"
    },
    {
      "icao": "EETN",
      "iata": "TLL",
      "name": "Lennart Meri Tallinn Airport",
      "lat": 59.413246,
      "lon": 24.83264,
      "updatedAt": "230250Z",
      "visibility_m": 10000,
      "taf_visibility_m": 10000,
      "worst_visibility_m": 10000,
      "ceiling_ft": 900,
      "hazards": [],
      "severityScore": 25,
      "metarRaw": "METAR EETN 230250Z 09011KT 9999 OVC009 M08/M10 Q1024",
      "tafRaw": "TAF EETN 222330Z 2300/2324 10010KT 9999 OVC012 \n  TEMPO 2300/2308 OVC008 \n  TEMPO 2308/2316 BKN005 OVC010"
    },
    {
      "icao": "EPSC",
      "iata": "SZZ",
      "name": "Solidarity Szczecin–Goleniów Airport",
      "lat": 53.584702,
      "lon": 14.9022,
      "updatedAt": "230230Z",
      "visibility_m": 6000,
      "taf_visibility_m": 7000,
      "worst_visibility_m": 6000,
      "ceiling_ft": 500,
      "hazards": [],
      "severityScore": 25,
      "metarRaw": "METAR EPSC 230230Z 08007KT 6000 NSC M08/M11 Q1006",
      "tafRaw": "TAF EPSC 222330Z 2300/2324 09010KT 7000 NSC \n  PROB40 2306/2314 BKN006 \n  BECMG 2314/2317 BKN010 OVC020 \n  PROB40 2314/2324 BKN005"
    },
    {
      "icao": "LIMC",
      "iata": "MXP",
      "name": "Milan Malpensa International Airport",
      "lat": 45.6306,
      "lon": 8.72811,
      "updatedAt": "230220Z",
      "visibility_m": 3000,
      "taf_visibility_m": null,
      "worst_visibility_m": 3000,
      "ceiling_ft": null,
      "hazards": [
        "FG"
      ],
      "severityScore": 25,
      "metarRaw": "METAR LIMC 230220Z 30002KT 3000 0300SW R35R/1300U R17L/P2000N R35L/1000N PRFG SCT001 SCT070 M01/M01 Q1002 NOSIG",
      "tafRaw": null
    },
    {
      "icao": "LEZL",
      "iata": "SVQ",
      "name": "Sevilla Airport",
      "lat": 37.417999,
      "lon": -5.89311,
      "updatedAt": "230230Z",
      "visibility_m": 10000,
      "taf_visibility_m": 4000,
      "worst_visibility_m": 4000,
      "ceiling_ft": 1600,
      "hazards": [
        "RA"
      ],
      "severityScore": 24,
      "metarRaw": "METAR LEZL 230230Z AUTO 25010KT 220V280 9999 -RA FEW005 BKN016 BKN023 16/15 Q1004 RERA",
      "tafRaw": "TAF LEZL 230200Z 2303/2403 25007KT 9999 BKN025 TX15/2315Z TN08/2307Z \n  TEMPO 2303/2306 4000 RA BKN010 \n  PROB30 \n  TEMPO 2314/2320 24015G25KT 4000 RA BKN014"
    },
    {
      "icao": "LPMA",
      "iata": "FNC",
      "name": "Cristiano Ronaldo International Airport",
      "lat": 32.697812,
      "lon": -16.774613,
      "updatedAt": "230230Z",
      "visibility_m": 10000,
      "taf_visibility_m": 6000,
      "worst_visibility_m": 6000,
      "ceiling_ft": 1300,
      "hazards": [
        "RA"
      ],
      "severityScore": 24,
      "metarRaw": "METAR LPMA 230230Z 26003KT 9999 FEW015 16/11 Q1017",
      "tafRaw": "TAF LPMA 222300Z 2300/2324 VRB05KT 9999 SCT015 \n  TEMPO 2300/2307 6000 -RA BKN013 \n  BECMG 2305/2307 33012KT \n  PROB40 \n  TEMPO 2307/2324 34015G27KT"
    },
    {
      "icao": "BIKF",
      "iata": "KEF",
      "name": "Keflavik International Airport",
      "lat": 63.985001,
      "lon": -22.6056,
      "updatedAt": "230230Z",
      "visibility_m": 10000,
      "taf_visibility_m": 8000,
      "worst_visibility_m": 8000,
      "ceiling_ft": 2200,
      "hazards": [
        "RA",
        "DZ"
      ],
      "severityScore": 22,
      "metarRaw": "METAR BIKF 230230Z 09012KT 9999 -RA OVC022 07/05 Q0995",
      "tafRaw": "TAF BIKF 230151Z 2303/2403 13012G22KT 9999 BKN017 TX06/2303Z TN01/2324Z \n  TEMPO 2303/2307 8000 RADZ OVC013 \n  TEMPO 2303/2307 13022G32KT"
    },
    {
      "icao": "GCFV",
      "iata": "FUE",
      "name": "Fuerteventura Airport",
      "lat": 28.4527,
      "lon": -13.8638,
      "updatedAt": "230230Z",
      "visibility_m": 10000,
      "taf_visibility_m": 4000,
      "worst_visibility_m": 4000,
      "ceiling_ft": 2900,
      "hazards": [
        "RA",
        "DZ"
      ],
      "severityScore": 22,
      "metarRaw": "METAR GCFV 230230Z AUTO 29006KT 9999 FEW021 BKN029 BKN039 17/15 Q1018",
      "tafRaw": "TAF GCFV 230200Z 2303/2403 30005KT 9999 SCT020 TX22/2314Z TN16/2306Z \n  TEMPO 2312/2320 33015KT \n  TEMPO 2315/2320 30015G25KT \n  PROB40 \n  TEMPO 2316/2320 RA \n  PROB30 \n  TEMPO 2316/2320 4000 DZ BKN014 \n  BECMG 2318/2320 36013KT"
    },
    {
      "icao": "EDDB",
      "iata": "BER",
      "name": "Berlin Brandenburg Willy Brandt Airport",
      "lat": 52.361738,
      "lon": 13.502341,
      "updatedAt": "230220Z",
      "visibility_m": 3700,
      "taf_visibility_m": 4000,
      "worst_visibility_m": 3700,
      "ceiling_ft": 1300,
      "hazards": [
        "BR"
      ],
      "severityScore": 22,
      "metarRaw": "METAR EDDB 230220Z AUTO 07007KT 3700 BR NSC M08/M09 Q1004 NOSIG",
      "tafRaw": "TAF EDDB 222300Z 2300/2324 08008KT 5000 BR NSC \n  TEMPO 2300/2310 4000 BR \n  PROB40 \n  TEMPO 2305/2312 BKN013"
    },
    {
      "icao": "LATI",
      "iata": "TIA",
      "name": "Tirana International Airport Mother Teresa",
      "lat": 41.4147,
      "lon": 19.7206,
      "updatedAt": "230250Z",
      "visibility_m": 10000,
      "taf_visibility_m": 4000,
      "worst_visibility_m": 4000,
      "ceiling_ft": 6600,
      "hazards": [
        "BR",
        "RA"
      ],
      "severityScore": 22,
      "metarRaw": "METAR LATI 230250Z 15004KT 9999 FEW037 OVC066 07/06 Q1002 NOSIG",
      "tafRaw": "TAF LATI 222300Z 2300/2324 VRB05KT 9999 SCT030 BKN060 TX14/2313Z TN03/2322Z \n  TEMPO 2300/2311 RA BKN025 \n  PROB40 2302/2309 4000 RA BR"
    },
    {
      "icao": "EDDS",
      "iata": "STR",
      "name": "Stuttgart Airport",
      "lat": 48.689899,
      "lon": 9.22196,
      "updatedAt": "230220Z",
      "visibility_m": 7000,
      "taf_visibility_m": 1800,
      "worst_visibility_m": 1800,
      "ceiling_ft": null,
      "hazards": [
        "FG"
      ],
      "severityScore": 20,
      "metarRaw": "METAR EDDS 230220Z AUTO 17003KT 7000 NSC M02/M04 Q0997",
      "tafRaw": "TAF EDDS 222300Z 2300/2324 07004KT CAVOK \n  TEMPO 2300/2310 1800 BCFG"
    },
    {
      "icao": "LIBG",
      "iata": "TAR",
      "name": "Taranto-Grottaglie Marcello Arlotta Airport",
      "lat": 40.517502,
      "lon": 17.4032,
      "updatedAt": null,
      "visibility_m": null,
      "taf_visibility_m": 2000,
      "worst_visibility_m": 2000,
      "ceiling_ft": null,
      "hazards": [
        "FG"
      ],
      "severityScore": 20,
      "metarRaw": null,
      "tafRaw": "TAF LIBG 221700Z 2218/2303 VRB05KT 9999 SCT020 \n  TEMPO 2220/2303 2000 BCFG"
    },
    {
      "icao": "ENGM",
      "iata": "OSL",
      "name": "Oslo-Gardermoen International Airport",
      "lat": 60.193901,
      "lon": 11.1004,
      "updatedAt": "230220Z",
      "visibility_m": 10000,
      "taf_visibility_m": 10000,
      "worst_visibility_m": 10000,
      "ceiling_ft": 3400,
      "hazards": [
        "SN"
      ],
      "severityScore": 18,
      "metarRaw": "METAR ENGM 230220Z 02009KT 9999 -SN FEW030 OVC034 M06/M08 Q1019",
      "tafRaw": "TAF ENGM 222300Z 2300/2324 04010KT 9999 -SN BKN025"
    },
    {
      "icao": "ENTO",
      "iata": "TRF",
      "name": "Sandefjord Airport, Torp",
      "lat": 59.186699,
      "lon": 10.2586,
      "updatedAt": "230220Z",
      "visibility_m": 10000,
      "taf_visibility_m": 10000,
      "worst_visibility_m": 10000,
      "ceiling_ft": 2000,
      "hazards": [
        "SN"
      ],
      "severityScore": 18,
      "metarRaw": "METAR ENTO 230220Z AUTO 04009KT 9999 -SN OVC019/// M03/M07 Q1017",
      "tafRaw": "TAF ENTO 222300Z 2300/2324 04012KT 9999 -SN BKN020 \n  TEMPO 2300/2309 03015G25KT"
    },
    {
      "icao": "LEBB",
      "iata": "BIO",
      "name": "Bilbao Airport",
      "lat": 43.301102,
      "lon": -2.91061,
      "updatedAt": "230230Z",
      "visibility_m": 7000,
      "taf_visibility_m": null,
      "worst_visibility_m": 7000,
      "ceiling_ft": 3000,
      "hazards": [
        "RA"
      ],
      "severityScore": 17,
      "metarRaw": "METAR LEBB 230230Z AUTO 32008KT 7000 RA SCT015 BKN030 OVC039 10/10 Q0992",
      "tafRaw": null
    },
    {
      "icao": "BKPR",
      "iata": "PRN",
      "name": "Priština Adem Jashari International Airport",
      "lat": 42.5728,
      "lon": 21.035801,
      "updatedAt": "230230Z",
      "visibility_m": 2000,
      "taf_visibility_m": null,
      "worst_visibility_m": 2000,
      "ceiling_ft": 8000,
      "hazards": [
        "BR"
      ],
      "severityScore": 15,
      "metarRaw": "METAR BKPR 230230Z 04001KT 2000 BR FEW035 BKN080 M01/M01 Q1003 NOSIG",
      "tafRaw": null
    },
    {
      "icao": "GMMN",
      "iata": "CMN",
      "name": "Mohammed V International Airport",
      "lat": 33.3675,
      "lon": -7.58997,
      "updatedAt": "230230Z",
      "visibility_m": 10000,
      "taf_visibility_m": 4000,
      "worst_visibility_m": 4000,
      "ceiling_ft": 10000,
      "hazards": [
        "RA"
      ],
      "severityScore": 12,
      "metarRaw": "METAR GMMN 230230Z 21012KT 9999 FEW008 BKN100 12/11 Q1014 NOSIG",
      "tafRaw": "TAF GMMN 222300Z 2300/2406 22013KT 8000 SCT030 BKN100 \n  BECMG 2303/2305 BKN016 \n  TEMPO 2307/2406 26016G26KT 4000 RA BKN016 SCT020TCU"
    },
    {
      "icao": "EDDH",
      "iata": "HAM",
      "name": "Hamburg Helmut Schmidt Airport",
      "lat": 53.630402,
      "lon": 9.98823,
      "updatedAt": "230220Z",
      "visibility_m": 7000,
      "taf_visibility_m": 10000,
      "worst_visibility_m": 7000,
      "ceiling_ft": 1200,
      "hazards": [],
      "severityScore": 12,
      "metarRaw": "METAR EDDH 230220Z AUTO 09009KT 7000 NCD M04/M07 Q1002 NOSIG",
      "tafRaw": "TAF EDDH 222300Z 2300/2406 09011KT CAVOK \n  TEMPO 2319/2406 BKN012"
    },
    {
      "icao": "EDDK",
      "iata": "CGN",
      "name": "Cologne Bonn Airport",
      "lat": 50.865898,
      "lon": 7.14274,
      "updatedAt": "230220Z",
      "visibility_m": 10000,
      "taf_visibility_m": 10000,
      "worst_visibility_m": 10000,
      "ceiling_ft": 4700,
      "hazards": [
        "RA"
      ],
      "severityScore": 12,
      "metarRaw": "METAR EDDK 230220Z AUTO 12010KT 9999 OVC047 03/M01 Q0996 NOSIG",
      "tafRaw": "TAF EDDK 222300Z 2300/2406 12009KT 9999 BKN030 \n  PROB30 \n  TEMPO 2403/2406 RA"
    },
    {
      "icao": "EDDN",
      "iata": "NUE",
      "name": "Nuremberg Airport",
      "lat": 49.498699,
      "lon": 11.078056,
      "updatedAt": "230220Z",
      "visibility_m": 7000,
      "taf_visibility_m": 7000,
      "worst_visibility_m": 7000,
      "ceiling_ft": 1000,
      "hazards": [],
      "severityScore": 12,
      "metarRaw": "METAR EDDN 230220Z AUTO 14007KT 7000 OVC010 M07/M10 Q1001",
      "tafRaw": "TAF EDDN 222300Z 2300/2324 11007KT 7000 OVC009 \n  BECMG 2310/2313 SCT011 \n  PROB30 \n  TEMPO 2321/2324 OVC010"
    },
    {
      "icao": "EGPD",
      "iata": "ABZ",
      "name": "Aberdeen International Airport",
      "lat": 57.2019,
      "lon": -2.19778,
      "updatedAt": "230220Z",
      "visibility_m": 10000,
      "taf_visibility_m": 4000,
      "worst_visibility_m": 4000,
      "ceiling_ft": 2000,
      "hazards": [
        "RA"
      ],
      "severityScore": 12,
      "metarRaw": "METAR EGPD 230220Z COR AUTO 10017KT 9999 OVC020 04/01 Q0995 NOSIG",
      "tafRaw": "TAF EGPD 222255Z 2300/2324 12018G34KT 9999 BKN016 \n  TEMPO 2300/2324 6000 -RA BKN010 \n  PROB40 \n  TEMPO 2302/2318 4000 RA BKN008 \n  BECMG 2310/2313 11015KT \n  TEMPO 2313/2324 12018G30KT"
    },
    {
      "icao": "EKBI",
      "iata": "BLL",
      "name": "Billund Airport",
      "lat": 55.740335,
      "lon": 9.157019,
      "updatedAt": "230220Z",
      "visibility_m": 10000,
      "taf_visibility_m": 10000,
      "worst_visibility_m": 10000,
      "ceiling_ft": 1800,
      "hazards": [],
      "severityScore": 12,
      "metarRaw": "METAR EKBI 230220Z AUTO 09019KT 9999 OVC018/// 01/M03 Q1004",
      "tafRaw": "TAF EKBI 230227Z 2303/2403 09018G32KT 9999 OVC018 \n  BECMG 2321/2324 10015KT \n  TEMPO 2400/2403 10015G28KT"
    },
    {
      "icao": "ESMS",
      "iata": "MMX",
      "name": "Malmö Sturup Airport",
      "lat": 55.535564,
      "lon": 13.376327,
      "updatedAt": "230220Z",
      "visibility_m": 10000,
      "taf_visibility_m": 10000,
      "worst_visibility_m": 10000,
      "ceiling_ft": 1500,
      "hazards": [],
      "severityScore": 12,
      "metarRaw": "METAR ESMS 230220Z 09022KT 9999 BKN015 M00/M03 Q1008",
      "tafRaw": "TAF ESMS 230227Z 2303/2403 09018G32KT 9999 OVC015 \n  BECMG 2318/2321 09012KT"
    },
    {
      "icao": "LCPH",
      "iata": "PFO",
      "name": "Paphos International Airport",
      "lat": 34.717999,
      "lon": 32.485699,
      "updatedAt": "230230Z",
      "visibility_m": 8000,
      "taf_visibility_m": 5000,
      "worst_visibility_m": 5000,
      "ceiling_ft": null,
      "hazards": [
        "RA"
      ],
      "severityScore": 12,
      "metarRaw": "METAR LCPH 230230Z AUTO 07007KT 8000 NCD 11/09 Q1009 NOSIG",
      "tafRaw": "TAF LCPH 222330Z 2300/2400 03009KT 9999 SCT020 \n  PROB40 \n  TEMPO 2300/2311 5000 RA \n  BECMG 2305/2307 12018KT \n  BECMG 2316/2318 06010KT"
    },
    {
      "icao": "LEBL",
      "iata": "BCN",
      "name": "Josep Tarradellas Barcelona-El Prat Airport",
      "lat": 41.2971,
      "lon": 2.07846,
      "updatedAt": "230230Z",
      "visibility_m": 10000,
      "taf_visibility_m": 10000,
      "worst_visibility_m": 10000,
      "ceiling_ft": null,
      "hazards": [
        "RA"
      ],
      "severityScore": 12,
      "metarRaw": "METAR LEBL 230230Z 32003KT 250V340 9999 FEW035 06/04 Q0999 NOSIG",
      "tafRaw": "TAF LEBL 222300Z 2300/2324 34006KT 9999 FEW030 TX15/2313Z TN07/2303Z \n  PROB30 \n  TEMPO 2304/2307 -RA \n  BECMG 2307/2309 26010KT \n  BECMG 2315/2317 34005KT"
    },
    {
      "icao": "LEMG",
      "iata": "AGP",
      "name": "Málaga-Costa del Sol Airport",
      "lat": 36.6749,
      "lon": -4.49911,
      "updatedAt": "230230Z",
      "visibility_m": 10000,
      "taf_visibility_m": 4000,
      "worst_visibility_m": 4000,
      "ceiling_ft": 3500,
      "hazards": [
        "RA"
      ],
      "severityScore": 12,
      "metarRaw": "METAR LEMG 230230Z 26004KT 220V310 9999 SCT025 BKN035 12/09 Q1005 NOSIG",
      "tafRaw": "TAF LEMG 222300Z 2300/2324 VRB03KT 9999 SCT040 TX18/2314Z TN10/2307Z \n  PROB40 \n  TEMPO 2300/2305 4000 RA BKN014 \n  BECMG 2302/2304 30010KT \n  PROB30 \n  TEMPO 2317/2323 4000 RA BKN014"
    },
    {
      "icao": "LEXJ",
      "iata": "SDR",
      "name": "Seve Ballesteros-Santander Airport",
      "lat": 43.427101,
      "lon": -3.82001,
      "updatedAt": "230230Z",
      "visibility_m": 5000,
      "taf_visibility_m": 10000,
      "worst_visibility_m": 5000,
      "ceiling_ft": 4400,
      "hazards": [
        "RA"
      ],
      "severityScore": 12,
      "metarRaw": "METAR LEXJ 230230Z AUTO 24007KT 200V280 5000 -RA SCT038 BKN044 BKN050 10/05 Q0991",
      "tafRaw": "TAF LEXJ 230200Z 2303/2403 24009KT 9999 FEW030 TX14/2313Z TN07/2403Z \n  TEMPO 2307/2318 20018G30KT"
    },
    {
      "icao": "LICC",
      "iata": "CTA",
      "name": "Catania-Fontanarossa Airport",
      "lat": 37.466801,
      "lon": 15.0664,
      "updatedAt": "230220Z",
      "visibility_m": 10000,
      "taf_visibility_m": 7000,
      "worst_visibility_m": 7000,
      "ceiling_ft": null,
      "hazards": [
        "RA"
      ],
      "severityScore": 12,
      "metarRaw": "METAR LICC 230220Z 24004KT 9999 SCT050 08/06 Q1001",
      "tafRaw": "TAF LICC 222300Z 2300/2324 26008KT 7000 SCT030 \n  PROB30 \n  TEMPO 2306/2310 RA"
    },
    {
      "icao": "LIMJ",
      "iata": "GOA",
      "name": "Genoa Cristoforo Colombo Airport",
      "lat": 44.412039,
      "lon": 8.840732,
      "updatedAt": "230220Z",
      "visibility_m": 10000,
      "taf_visibility_m": 10000,
      "worst_visibility_m": 10000,
      "ceiling_ft": 3500,
      "hazards": [
        "RA"
      ],
      "severityScore": 12,
      "metarRaw": "METAR LIMJ 230220Z 04010KT 9999 BKN035 08/M00 Q1001",
      "tafRaw": "TAF LIMJ 222300Z 2300/2324 03014KT 9999 FEW030 SCT060 \n  BECMG 2306/2308 RA"
    },
    {
      "icao": "LIPH",
      "iata": "TSF",
      "name": "Treviso Antonio Canova Airport",
      "lat": 45.648399,
      "lon": 12.1944,
      "updatedAt": "230220Z",
      "visibility_m": 10000,
      "taf_visibility_m": 4000,
      "worst_visibility_m": 4000,
      "ceiling_ft": null,
      "hazards": [
        "RA"
      ],
      "severityScore": 12,
      "metarRaw": "METAR LIPH 230220Z AUTO VRB01KT 9999 FEW082/// BKN100/// M00/M03 Q1002",
      "tafRaw": "TAF LIPH 222300Z 2300/2324 VRB05KT 9999 SCT050 \n  BECMG 2318/2320 4000 RA"
    },
    {
      "icao": "LIPQ",
      "iata": "TRS",
      "name": "Trieste–Friuli Venezia Giulia Airport",
      "lat": 45.827499,
      "lon": 13.4722,
      "updatedAt": "230220Z",
      "visibility_m": 10000,
      "taf_visibility_m": 4000,
      "worst_visibility_m": 4000,
      "ceiling_ft": 4000,
      "hazards": [
        "RA"
      ],
      "severityScore": 12,
      "metarRaw": "METAR LIPQ 230220Z AUTO VRB02KT 9999 BKN050/// 03/M01 Q1001",
      "tafRaw": "TAF LIPQ 222300Z 2300/2324 VRB05KT 9999 BKN040 \n  BECMG 2320/2322 4000 RA"
    },
    {
      "icao": "LIPZ",
      "iata": "VCE",
      "name": "Venice Marco Polo Airport",
      "lat": 45.505299,
      "lon": 12.3519,
      "updatedAt": "230220Z",
      "visibility_m": 10000,
      "taf_visibility_m": 4000,
      "worst_visibility_m": 4000,
      "ceiling_ft": 4000,
      "hazards": [
        "RA"
      ],
      "severityScore": 12,
      "metarRaw": "METAR LIPZ 230220Z 35003KT 9999 FEW045 02/M02 Q1002 NOSIG",
      "tafRaw": "TAF LIPZ 222300Z 2300/2406 VRB05KT 9999 BKN040 \n  BECMG 2316/2318 4000 RA \n  BECMG 2320/2322 03010KT \n  TEMPO 2400/2406 7000 NSW"
    },
    {
      "icao": "EHEH",
      "iata": "EIN",
      "name": "Eindhoven Airport",
      "lat": 51.4500999451,
      "lon": 5.37452983856,
      "updatedAt": "230225Z",
      "visibility_m": 10000,
      "taf_visibility_m": 4000,
      "worst_visibility_m": 4000,
      "ceiling_ft": 5100,
      "hazards": [
        "BR"
      ],
      "severityScore": 10,
      "metarRaw": "METAR EHEH 230225Z AUTO 14006KT 100V170 9999 OVC051 06/04 Q0994 BLU NOSIG RMK TREND REMOTE BY EHWX",
      "tafRaw": "TAF EHEH 222349Z 2300/2406 13005KT 9999 BKN040 \n  PROB40 \n  TEMPO 2301/2307 4000 BR SCT008 BKN012"
    },
    {
      "icao": "ENBR",
      "iata": "BGO",
      "name": "Bergen Airport, Flesland",
      "lat": 60.2934,
      "lon": 5.21814,
      "updatedAt": "230220Z",
      "visibility_m": 10000,
      "taf_visibility_m": 10000,
      "worst_visibility_m": 10000,
      "ceiling_ft": null,
      "hazards": [
        "BR"
      ],
      "severityScore": 10,
      "metarRaw": "METAR ENBR 230220Z AUTO VRB02KT 9999 NCD M02/M12 Q1010 RMK WIND 1200FT 12009KT",
      "tafRaw": "TAF ENBR 222300Z 2300/2324 07005KT CAVOK"
    },
    {
      "icao": "LFSB",
      "iata": "BSL",
      "name": "EuroAirport Basel–Mulhouse–Freiburg",
      "lat": 47.60068,
      "lon": 7.521117,
      "updatedAt": "230230Z",
      "visibility_m": 4500,
      "taf_visibility_m": 4500,
      "worst_visibility_m": 4500,
      "ceiling_ft": null,
      "hazards": [
        "BR"
      ],
      "severityScore": 10,
      "metarRaw": "METAR LFSB 230230Z AUTO 15006KT CAVOK 01/M00 Q0997 TEMPO 4500 BR",
      "tafRaw": "TAF LFSB 222300Z 2300/2324 16005KT 9999 FEW050 \n  PROB30 \n  TEMPO 2300/2306 4500 BR \n  BECMG 2308/2311 34005KT"
    },
    {
      "icao": "LRSB",
      "iata": "SBZ",
      "name": "Sibiu International Airport",
      "lat": 45.785841,
      "lon": 24.086666,
      "updatedAt": "230230Z",
      "visibility_m": 7000,
      "taf_visibility_m": 3000,
      "worst_visibility_m": 3000,
      "ceiling_ft": 5000,
      "hazards": [
        "BR"
      ],
      "severityScore": 10,
      "metarRaw": "METAR LRSB 230230Z 33003KT 7000 OVC050 M01/M03 Q1003",
      "tafRaw": "TAF LRSB 222300Z 2300/2324 VRB04KT 9999 BKN030 BKN070 \n  PROB40 \n  TEMPO 2300/2306 3000 BR \n  BECMG 2322/2324 3000 BR BKN010"
    },
    {
      "icao": "LRTR",
      "iata": "TSR",
      "name": "Timişoara Traian Vuia Airport",
      "lat": 45.809898,
      "lon": 21.3379,
      "updatedAt": "230230Z",
      "visibility_m": 3000,
      "taf_visibility_m": 3000,
      "worst_visibility_m": 3000,
      "ceiling_ft": 4000,
      "hazards": [
        "BR"
      ],
      "severityScore": 10,
      "metarRaw": "METAR LRTR 230230Z 10003KT 3000 BR NSC M00/M00 Q1004 NOSIG",
      "tafRaw": "TAF LRTR 222300Z 2300/2324 VRB04KT 5000 BR BKN040 \n  TEMPO 2300/2306 3000 BR \n  BECMG 2306/2308 9999 NSW"
    },
    {
      "icao": "LYNI",
      "iata": "INI",
      "name": "Niš Constantine the Great Airport",
      "lat": 43.336538,
      "lon": 21.856242,
      "updatedAt": "230230Z",
      "visibility_m": 10000,
      "taf_visibility_m": 4000,
      "worst_visibility_m": 4000,
      "ceiling_ft": null,
      "hazards": [
        "BR"
      ],
      "severityScore": 10,
      "metarRaw": "METAR LYNI 230230Z 16002KT CAVOK M01/M02 Q1004 NOSIG",
      "tafRaw": "TAF LYNI 222300Z 2300/2324 08004KT 9999 SCT090 TX10/2313Z TNM01/2305Z \n  TEMPO 2304/2307 4000 BR"
    },
    {
      "icao": "EGKK",
      "iata": "LGW",
      "name": "London Gatwick Airport",
      "lat": 51.148771,
      "lon": -0.192089,
      "updatedAt": "230220Z",
      "visibility_m": 10000,
      "taf_visibility_m": null,
      "worst_visibility_m": 10000,
      "ceiling_ft": null,
      "hazards": [],
      "severityScore": 5,
      "metarRaw": "METAR EGKK 230220Z 13006KT 9999 FEW010 SCT015 07/06 Q0987",
      "tafRaw": null
    },
    {
      "icao": "LECH",
      "iata": "CDT",
      "name": "Castellón-Costa Azahar Airport",
      "lat": 40.213889,
      "lon": 0.073333,
      "updatedAt": "230230Z",
      "visibility_m": 8000,
      "taf_visibility_m": null,
      "worst_visibility_m": 8000,
      "ceiling_ft": null,
      "hazards": [],
      "severityScore": 5,
      "metarRaw": "METAR LECH 230230Z AUTO VRB01KT 8000 NSC 05/05 Q0999",
      "tafRaw": null
    },
    {
      "icao": "LFLL",
      "iata": "LYS",
      "name": "Lyon Saint-Exupéry Airport",
      "lat": 45.725996,
      "lon": 5.090139,
      "updatedAt": "230230Z",
      "visibility_m": 10000,
      "taf_visibility_m": null,
      "worst_visibility_m": 10000,
      "ceiling_ft": null,
      "hazards": [],
      "severityScore": 5,
      "metarRaw": "METAR LFLL 230230Z 17011KT 9999 FEW015 05/03 Q0996 NOSIG",
      "tafRaw": null
    },
    {
      "icao": "LHDC",
      "iata": "DEB",
      "name": "Debrecen International Airport",
      "lat": 47.488899,
      "lon": 21.615299,
      "updatedAt": "230215Z",
      "visibility_m": 6000,
      "taf_visibility_m": null,
      "worst_visibility_m": 6000,
      "ceiling_ft": 3600,
      "hazards": [],
      "severityScore": 5,
      "metarRaw": "METAR LHDC 230215Z AUTO VRB03KT 6000 FEW020 BKN036 BKN072 M01/M03 Q1004",
      "tafRaw": null
    },
    {
      "icao": "LIME",
      "iata": "BGY",
      "name": "Milan Bergamo Airport / Antonio Locatelli Air Base",
      "lat": 45.670725,
      "lon": 9.709223,
      "updatedAt": "230220Z",
      "visibility_m": 10000,
      "taf_visibility_m": null,
      "worst_visibility_m": 10000,
      "ceiling_ft": null,
      "hazards": [],
      "severityScore": 5,
      "metarRaw": "METAR LIME 230220Z 03004KT 9999 FEW070 02/M01 Q1001 NOSIG",
      "tafRaw": null
    },
    {
      "icao": "OJAI",
      "iata": "AMM",
      "name": "Queen Alia International Airport",
      "lat": 31.7226009369,
      "lon": 35.9931983948,
      "updatedAt": "230200Z",
      "visibility_m": 3000,
      "taf_visibility_m": null,
      "worst_visibility_m": 3000,
      "ceiling_ft": null,
      "hazards": [],
      "severityScore": 5,
      "metarRaw": "METAR OJAI 230200Z 14003KT 3000 HZ NSC 07/03 Q1012 NOSIG",
      "tafRaw": null
    },
    {
      "icao": "EDLW",
      "iata": "DTM",
      "name": "Dortmund Airport",
      "lat": 51.518299,
      "lon": 7.61224,
      "updatedAt": "230220Z",
      "visibility_m": 10000,
      "taf_visibility_m": 10000,
      "worst_visibility_m": 10000,
      "ceiling_ft": null,
      "hazards": [],
      "severityScore": 0,
      "metarRaw": "METAR EDLW 230220Z AUTO 12006KT 9999 // BKN053/// OVC084/// 04/02 Q0995",
      "tafRaw": "TAF EDLW 221700Z 2218/2318 11006KT 9999 SCT040 \n  TEMPO 2218/2222 03005KT"
    },
    {
      "icao": "EHBK",
      "iata": "MST",
      "name": "Maastricht Aachen Airport",
      "lat": 50.911701,
      "lon": 5.77014,
      "updatedAt": "230225Z",
      "visibility_m": 10000,
      "taf_visibility_m": 10000,
      "worst_visibility_m": 10000,
      "ceiling_ft": 4700,
      "hazards": [],
      "severityScore": 0,
      "metarRaw": "METAR EHBK 230225Z AUTO 17006KT 9999 OVC047 06/04 Q0994",
      "tafRaw": "TAF EHBK 222323Z 2300/2406 16006KT 9999 BKN045"
    },
    {
      "icao": "EKCH",
      "iata": "CPH",
      "name": "Copenhagen Kastrup Airport",
      "lat": 55.617900848389,
      "lon": 12.656000137329,
      "updatedAt": "230220Z",
      "visibility_m": 10000,
      "taf_visibility_m": 10000,
      "worst_visibility_m": 10000,
      "ceiling_ft": 2000,
      "hazards": [],
      "severityScore": 0,
      "metarRaw": "METAR EKCH 230220Z AUTO 09020KT 9999 BKN021/// 01/M04 Q1008 NOSIG",
      "tafRaw": "TAF EKCH 230227Z 2303/2403 09020G30KT 9999 BKN020 \n  BECMG 2316/2318 09018KT"
    },
    {
      "icao": "ENAL",
      "iata": "AES",
      "name": "Ålesund Airport, Vigra",
      "lat": 62.5625,
      "lon": 6.1197,
      "updatedAt": "230220Z",
      "visibility_m": 10000,
      "taf_visibility_m": 10000,
      "worst_visibility_m": 10000,
      "ceiling_ft": null,
      "hazards": [],
      "severityScore": 0,
      "metarRaw": "METAR ENAL 230220Z AUTO 13016KT 9999 NCD 03/M12 Q1011",
      "tafRaw": "TAF ENAL 230200Z 2303/2312 12009KT CAVOK"
    },
    {
      "icao": "ENHD",
      "iata": "HAU",
      "name": "Haugesund Airport, Karmøy",
      "lat": 59.345299,
      "lon": 5.20836,
      "updatedAt": "230220Z",
      "visibility_m": 10000,
      "taf_visibility_m": 10000,
      "worst_visibility_m": 10000,
      "ceiling_ft": null,
      "hazards": [],
      "severityScore": 0,
      "metarRaw": "METAR ENHD 230220Z AUTO 06005KT 9999 NCD M02/M10 Q1010",
      "tafRaw": "TAF ENHD 230200Z 2303/2312 08012KT CAVOK"
    },
    {
      "icao": "ENTC",
      "iata": "TOS",
      "name": "Tromsø Airport, Langnes",
      "lat": 69.683296,
      "lon": 18.9189,
      "updatedAt": "230220Z",
      "visibility_m": 10000,
      "taf_visibility_m": 10000,
      "worst_visibility_m": 10000,
      "ceiling_ft": null,
      "hazards": [],
      "severityScore": 0,
      "metarRaw": "METAR ENTC 230220Z AUTO VRB02KT 9999 NCD M09/M10 Q1023 RMK WIND 2600FT 21006KT",
      "tafRaw": "TAF ENTC 222300Z 2300/2324 VRB02KT 9999 FEW003"
    },
    {
      "icao": "ENVA",
      "iata": "TRD",
      "name": "Trondheim Airport, Værnes",
      "lat": 63.457802,
      "lon": 10.924,
      "updatedAt": "230220Z",
      "visibility_m": 10000,
      "taf_visibility_m": 10000,
      "worst_visibility_m": 10000,
      "ceiling_ft": null,
      "hazards": [],
      "severityScore": 0,
      "metarRaw": "METAR ENVA 230220Z AUTO 11011KT 9999 NCD M05/M11 Q1020 RMK WIND 670FT 13015KT",
      "tafRaw": "TAF ENVA 222300Z 2300/2324 11010KT CAVOK \n  PROB40 \n  TEMPO 2308/2324 14015G25KT"
    },
    {
      "icao": "ENZV",
      "iata": "SVG",
      "name": "Stavanger Airport, Sola",
      "lat": 58.876701,
      "lon": 5.63778,
      "updatedAt": "230220Z",
      "visibility_m": 10000,
      "taf_visibility_m": 10000,
      "worst_visibility_m": 10000,
      "ceiling_ft": null,
      "hazards": [],
      "severityScore": 0,
      "metarRaw": "METAR ENZV 230220Z AUTO 10015KT 9999 NCD M01/M10 Q1010",
      "tafRaw": "TAF ENZV 222300Z 2300/2324 10012KT CAVOK \n  TEMPO 2300/2318 10018G28KT"
    },
    {
      "icao": "ESGG",
      "iata": "GOT",
      "name": "Göteborg Landvetter Airport",
      "lat": 57.6628,
      "lon": 12.2798,
      "updatedAt": "230220Z",
      "visibility_m": 10000,
      "taf_visibility_m": 10000,
      "worst_visibility_m": 10000,
      "ceiling_ft": 2000,
      "hazards": [],
      "severityScore": 0,
      "metarRaw": "METAR ESGG 230220Z 08011KT 060V120 9999 OVC020 M02/M06 Q1012",
      "tafRaw": "TAF ESGG 230230Z 2303/2403 09015G25KT 9999 OVC020"
    },
    {
      "icao": "EYPA",
      "iata": "PLQ",
      "name": "Palanga International Airport",
      "lat": 55.973202,
      "lon": 21.093901,
      "updatedAt": "230250Z",
      "visibility_m": 10000,
      "taf_visibility_m": 9000,
      "worst_visibility_m": 9000,
      "ceiling_ft": 2000,
      "hazards": [],
      "severityScore": 0,
      "metarRaw": "METAR EYPA 230250Z 11011KT 9999 OVC020 M06/M10 Q1017",
      "tafRaw": "TAF EYPA 222300Z 2300/2324 10011KT 9000 OVC015 \n  TEMPO 2303/2307 VRB05KT \n  TEMPO 2308/2315 10015G25KT"
    },
    {
      "icao": "HEGN",
      "iata": "HRG",
      "name": "Hurghada International Airport",
      "lat": 27.176776,
      "lon": 33.796692,
      "updatedAt": "230200Z",
      "visibility_m": 10000,
      "taf_visibility_m": 6000,
      "worst_visibility_m": 6000,
      "ceiling_ft": null,
      "hazards": [],
      "severityScore": 0,
      "metarRaw": "METAR HEGN 230200Z 00000KT CAVOK 19/18 Q1010 NOSIG",
      "tafRaw": "TAF HEGN 222300Z 2300/2406 12012KT CAVOK \n  BECMG 2309/2311 32012G25KT 6000 NSC"
    },
    {
      "icao": "HEMA",
      "iata": "RMF",
      "name": "Marsa Alam International Airport",
      "lat": 25.555548,
      "lon": 34.59245,
      "updatedAt": "230200Z",
      "visibility_m": 10000,
      "taf_visibility_m": 10000,
      "worst_visibility_m": 10000,
      "ceiling_ft": null,
      "hazards": [],
      "severityScore": 0,
      "metarRaw": "METAR HEMA 230200Z 18002KT CAVOK 18/15 Q1009 NOSIG",
      "tafRaw": "TAF HEMA 222300Z 2300/2406 15012KT CAVOK"
    },
    {
      "icao": "HESH",
      "iata": "SSH",
      "name": "Sharm El Sheikh International Airport",
      "lat": 27.977272,
      "lon": 34.394717,
      "updatedAt": null,
      "visibility_m": null,
      "taf_visibility_m": 10000,
      "worst_visibility_m": 10000,
      "ceiling_ft": null,
      "hazards": [],
      "severityScore": 0,
      "metarRaw": null,
      "tafRaw": "TAF HESH 222300Z 2300/2406 35012KT CAVOK"
    },
    {
      "icao": "HESX",
      "iata": "SPX",
      "name": "Sphinx International Airport",
      "lat": 30.108179,
      "lon": 30.895728,
      "updatedAt": "230200Z",
      "visibility_m": 10000,
      "taf_visibility_m": 2000,
      "worst_visibility_m": 2000,
      "ceiling_ft": null,
      "hazards": [],
      "severityScore": 0,
      "metarRaw": "METAR HESX 230200Z 23004KT CAVOK 10/07 Q1012 NOSIG",
      "tafRaw": "TAF HESX 222300Z 2300/2406 22008KT 8000 NSC \n  TEMPO 2300/2310 4000 HZ \n  PROB40 \n  TEMPO 2302/2306 2000"
    },
    {
      "icao": "LEVC",
      "iata": "VLC",
      "name": "Valencia Airport",
      "lat": 39.4893,
      "lon": -0.481625,
      "updatedAt": "230230Z",
      "visibility_m": 10000,
      "taf_visibility_m": 10000,
      "worst_visibility_m": 10000,
      "ceiling_ft": 4200,
      "hazards": [],
      "severityScore": 0,
      "metarRaw": "METAR LEVC 230230Z 20009KT 9999 BKN042 10/05 Q1001 NOSIG",
      "tafRaw": "TAF LEVC 222300Z 2300/2324 18007KT 9999 SCT040 TX16/2313Z TN07/2305Z \n  TEMPO 2302/2304 BKN020 \n  BECMG 2307/2310 27012KT \n  PROB40 \n  TEMPO 2310/2316 27015G25KT \n  TEMPO 2318/2322 VRB04KT"
    },
    {
      "icao": "LEZG",
      "iata": "ZAZ",
      "name": "Zaragoza Airport",
      "lat": 41.666199,
      "lon": -1.04155,
      "updatedAt": "230230Z",
      "visibility_m": 10000,
      "taf_visibility_m": 10000,
      "worst_visibility_m": 10000,
      "ceiling_ft": 7000,
      "hazards": [],
      "severityScore": 0,
      "metarRaw": "METAR LEZG 230230Z 11007KT 9999 FEW050 BKN070 09/04 Q0997 NOSIG",
      "tafRaw": "TAF LEZG 222300Z 2300/2324 VRB04KT 9999 FEW040 TX13/2315Z TN05/2306Z \n  BECMG 2306/2308 27015KT \n  TEMPO 2310/2316 27020G30KT \n  TEMPO 2318/2324 VRB04KT"
    },
    {
      "icao": "LGAV",
      "iata": "ATH",
      "name": "Athens Eleftherios Venizelos International Airport",
      "lat": 37.936401,
      "lon": 23.9445,
      "updatedAt": "230220Z",
      "visibility_m": 10000,
      "taf_visibility_m": 10000,
      "worst_visibility_m": 10000,
      "ceiling_ft": 7000,
      "hazards": [],
      "severityScore": 0,
      "metarRaw": "METAR LGAV 230220Z 29003KT 9999 FEW018 07/06 Q1003 NOSIG",
      "tafRaw": "TAF LGAV 222300Z 2300/2324 35008KT 9999 FEW015 SCT025 \n  BECMG 2305/2307 SCT025 \n  BECMG 2313/2315 SCT020 BKN070"
    },
    {
      "icao": "LICA",
      "iata": "SUF",
      "name": "Lamezia Terme Sant'Eufemia International Airport",
      "lat": 38.906214,
      "lon": 16.246007,
      "updatedAt": "230220Z",
      "visibility_m": 10000,
      "taf_visibility_m": 10000,
      "worst_visibility_m": 10000,
      "ceiling_ft": 2000,
      "hazards": [],
      "severityScore": 0,
      "metarRaw": "METAR LICA 230220Z AUTO 08007KT 9999 NCD 06/05 Q1001",
      "tafRaw": "TAF LICA 222300Z 2300/2324 07010KT 9999 BKN020 \n  BECMG 2312/2314 VRB05KT"
    },
    {
      "icao": "LICJ",
      "iata": "PMO",
      "name": "Falcone–Borsellino Airport",
      "lat": 38.175999,
      "lon": 13.091,
      "updatedAt": "230220Z",
      "visibility_m": 10000,
      "taf_visibility_m": 10000,
      "worst_visibility_m": 10000,
      "ceiling_ft": null,
      "hazards": [],
      "severityScore": 0,
      "metarRaw": "METAR LICJ 230220Z 04006KT 9999 SCT040 12/08 Q1000",
      "tafRaw": "TAF LICJ 222300Z 2300/2324 16008KT 9999 FEW030 \n  BECMG 2308/2310 22012KT"
    },
    {
      "icao": "LIRN",
      "iata": "NAP",
      "name": "Naples International Airport",
      "lat": 40.886002,
      "lon": 14.2908,
      "updatedAt": "230220Z",
      "visibility_m": 10000,
      "taf_visibility_m": 10000,
      "worst_visibility_m": 10000,
      "ceiling_ft": null,
      "hazards": [],
      "severityScore": 0,
      "metarRaw": "METAR LIRN 230220Z VRB01KT CAVOK 06/04 Q1001 NOSIG",
      "tafRaw": "TAF LIRN 222300Z 2300/2324 VRB05KT 9999 SCT050"
    },
    {
      "icao": "LLBG",
      "iata": "TLV",
      "name": "Ben Gurion International Airport",
      "lat": 32.011398,
      "lon": 34.8867,
      "updatedAt": "230250Z",
      "visibility_m": 10000,
      "taf_visibility_m": 10000,
      "worst_visibility_m": 10000,
      "ceiling_ft": 11000,
      "hazards": [],
      "severityScore": 0,
      "metarRaw": "METAR LLBG 230250Z VRB03KT CAVOK 14/09 Q1010 NOSIG RMK BKN110",
      "tafRaw": "TAF LLBG 222312Z 2300/2324 VRB04KT CAVOK \n  PROB40 \n  TEMPO 2300/2307 18005KT 9999 SCT030 \n  BECMG 2307/2309 26010KT FEW045 \n  BECMG 2313/2315 VRB03KT TX21/2312Z TN14/2304Z"
    },
    {
      "icao": "LWOH",
      "iata": "OHD",
      "name": "Ohrid St. Paul the Apostle Airport",
      "lat": 41.18,
      "lon": 20.7423,
      "updatedAt": null,
      "visibility_m": null,
      "taf_visibility_m": 10000,
      "worst_visibility_m": 10000,
      "ceiling_ft": 4000,
      "hazards": [],
      "severityScore": 0,
      "metarRaw": null,
      "tafRaw": "TAF LWOH 222340Z 2300/2324 VRB02KT 9999 BKN040"
    },
    {
      "icao": "OMAA",
      "iata": "AUH",
      "name": "Zayed International Airport",
      "lat": 24.440966,
      "lon": 54.649237,
      "updatedAt": "230230Z",
      "visibility_m": 10000,
      "taf_visibility_m": 8000,
      "worst_visibility_m": 8000,
      "ceiling_ft": null,
      "hazards": [],
      "severityScore": 0,
      "metarRaw": "METAR OMAA 230230Z 04005KT CAVOK 13/01 Q1021 NOSIG",
      "tafRaw": "TAF OMAA 222300Z 2300/2406 06006KT 8000 NSC \n  BECMG 2309/2311 34010KT \n  BECMG 2317/2319 08005KT"
    },
    {
      "icao": "OMDB",
      "iata": "DXB",
      "name": "Dubai International Airport",
      "lat": 25.2527999878,
      "lon": 55.3643989563,
      "updatedAt": "230230Z",
      "visibility_m": 10000,
      "taf_visibility_m": 4000,
      "worst_visibility_m": 4000,
      "ceiling_ft": null,
      "hazards": [],
      "severityScore": 0,
      "metarRaw": "METAR OMDB 230230Z 05005KT 020V090 CAVOK 16/02 Q1021 NOSIG",
      "tafRaw": "TAF OMDB 222300Z 2300/2406 06006KT 8000 NSC \n  PROB30 \n  TEMPO 2300/2305 4000 DU \n  BECMG 2310/2312 35012KT \n  BECMG 2316/2318 10005KT"
    }
  ],
  "stats": {
    "icaoCount": 159,
    "metarReturned": 155,
    "tafReturned": 148,
    "stationsWritten": 159,
    "missingMetar": 4,
    "missingTaf": 11
  },
  "errors": []
}