{
  "generatedAt": "2026-01-16T20:33:07.940Z",
  "stations": [
    {
      "icao": "EDDB",
      "iata": "BER",
      "name": "Berlin Brandenburg Airport",
      "updatedAt": "162020Z",
      "visibility_m": 10000,
      "taf_visibility_m": 400,
      "worst_visibility_m": 400,
      "ceiling_ft": 300,
      "hazards": [
        "FZFG",
        "BR",
        "FG"
      ],
      "severityScore": 100,
      "metarRaw": "METAR EDDB 162020Z AUTO 12004KT 100V160 CAVOK 02/01 Q1021 NOSIG",
      "tafRaw": "TAF EDDB 161700Z 1618/1718 11008KT CAVOK \n  BECMG 1701/1703 BKN008 \n  BECMG 1703/1705 3000 BR BKN003 \n  PROB30 \n  TEMPO 1704/1709 0400 FZFG \n  TEMPO 1712/1718 5000 BR BKN005"
    },
    {
      "icao": "EFTU",
      "iata": "TKU",
      "name": "Turku Airport",
      "updatedAt": "162020Z",
      "visibility_m": 10000,
      "taf_visibility_m": 300,
      "worst_visibility_m": 300,
      "ceiling_ft": 800,
      "hazards": [
        "FG",
        "BR",
        "FZRA",
        "SN",
        "RA",
        "DZ"
      ],
      "severityScore": 100,
      "metarRaw": "METAR EFTU 162020Z AUTO 17012KT 120V200 9999 OVC008 M01/M02 Q1025",
      "tafRaw": "TAF EFTU 161737Z 1618/1718 17009KT 9999 OVC006 \n  PROB30 1618/1621 BKN010 \n  TEMPO 1621/1702 7000 -FZRA \n  BECMG 1702/1704 2000 -FZRASN BKN004 \n  BECMG 1704/1706 4000 -DZRA BR \n  BECMG 1708/1710 0300 FG VV001 \n  TEMPO 1710/1718 0800 PRFG VV002"
    },
    {
      "icao": "EGNM",
      "iata": "LBA",
      "name": "Leeds Bradford Airport",
      "updatedAt": "162020Z",
      "visibility_m": 3000,
      "taf_visibility_m": 300,
      "worst_visibility_m": 300,
      "ceiling_ft": 200,
      "hazards": [
        "BR",
        "FG",
        "RA",
        "DZ"
      ],
      "severityScore": 100,
      "metarRaw": "METAR EGNM 162020Z 11006KT 3000 BR BKN002 05/04 Q1008",
      "tafRaw": "TAF EGNM 161655Z 1618/1718 13006KT 9999 SCT012 \n  BECMG 1618/1621 6000 BKN006 \n  TEMPO 1618/1623 3000 BR BKN003 \n  PROB40 1619/1623 0300 FG VV/// \n  BECMG 1623/1702 0300 FG VV/// \n  PROB40 \n  TEMPO 1623/1714 RA -RADZ"
    },
    {
      "icao": "ENGM",
      "iata": "OSL",
      "name": "Oslo-Gardermoen International Airport",
      "updatedAt": "162020Z",
      "visibility_m": 2000,
      "taf_visibility_m": 300,
      "worst_visibility_m": 300,
      "ceiling_ft": 200,
      "hazards": [
        "DZ",
        "FG",
        "FZFG",
        "BR",
        "RA"
      ],
      "severityScore": 100,
      "metarRaw": "METAR ENGM 162020Z 17008KT 8000 1100SW R19R/P2000N R01R/P2000N R19L/P2000N R01L/1300D -DZ BCFG BKN002 02/02 Q1011 TEMPO 2000",
      "tafRaw": "TAF ENGM 161700Z 1618/1718 17010KT 8000 -RA SCT003 BKN005 \n  TEMPO 1618/1622 2000 DZ BR OVC003 \n  PROB40 1622/1702 0700 FG VV002 \n  PROB40 1702/1718 0300 FZFG VV001 \n  BECMG 1704/1706 VRB03KT"
    },
    {
      "icao": "ENTO",
      "iata": "TRF",
      "name": "Sandefjord Airport, Torp",
      "updatedAt": "162020Z",
      "visibility_m": 10000,
      "taf_visibility_m": 300,
      "worst_visibility_m": 300,
      "ceiling_ft": 400,
      "hazards": [
        "FZFG",
        "FG",
        "RA",
        "DZ"
      ],
      "severityScore": 100,
      "metarRaw": "METAR ENTO 162020Z 21014KT 9999 BKN004 05/05 Q1011 NOSIG",
      "tafRaw": "TAF ENTO 161700Z 1618/1718 17015KT 6000 -RA SCT003 BKN006 \n  TEMPO 1618/1620 18018G28KT 0300 RADZ FG OVC001 \n  BECMG 1620/1622 VRB05KT FEW008 SCT060 \n  PROB30 1706/1718 0700 FZFG VV002"
    },
    {
      "icao": "EPGD",
      "iata": "GDN",
      "name": "Gdańsk Lech Wałęsa Airport",
      "updatedAt": "162030Z",
      "visibility_m": 450,
      "taf_visibility_m": 200,
      "worst_visibility_m": 200,
      "ceiling_ft": 100,
      "hazards": [
        "FZFG",
        "FG",
        "BR"
      ],
      "severityScore": 100,
      "metarRaw": "METAR EPGD 162030Z 17012KT 0450 R29/1300N FZFG OVC001 M03/M03 Q1025",
      "tafRaw": "TAF EPGD 161730Z 1618/1718 16010KT 0600 FZFG OVC002 \n  PROB40 1618/1704 0200 FZFG OVC001 \n  BECMG 1709/1712 3000 BR BKN005 \n  BECMG 1712/1714 CAVOK"
    },
    {
      "icao": "EPKK",
      "iata": "KRK",
      "name": "Kraków John Paul II International Airport",
      "updatedAt": "162030Z",
      "visibility_m": 3000,
      "taf_visibility_m": 600,
      "worst_visibility_m": 600,
      "ceiling_ft": 300,
      "hazards": [
        "BR",
        "FZFG",
        "FG"
      ],
      "severityScore": 100,
      "metarRaw": "METAR EPKK 162030Z 06008KT 3000 BR OVC003 M01/M02 Q1026",
      "tafRaw": "TAF EPKK 162030Z 1621/1721 06008KT 2500 BR OVC003 \n  TEMPO 1621/1709 1200 BR OVC001 \n  PROB40 \n  TEMPO 1621/1708 0600 FZFG \n  BECMG 1709/1712 CAVOK \n  TEMPO 1717/1721 4000 BR"
    },
    {
      "icao": "EPKT",
      "iata": "KTW",
      "name": "Katowice Wojciech Korfanty International Airport",
      "updatedAt": "162030Z",
      "visibility_m": 400,
      "taf_visibility_m": null,
      "worst_visibility_m": 400,
      "ceiling_ft": 200,
      "hazards": [
        "FZFG",
        "FG"
      ],
      "severityScore": 100,
      "metarRaw": "METAR EPKT 162030Z 11007KT 0400 R26/1100D FZFG OVC002 M00/M00 Q1025",
      "tafRaw": null
    },
    {
      "icao": "EPWR",
      "iata": "WRO",
      "name": "Copernicus Wrocław Airport",
      "updatedAt": "162030Z",
      "visibility_m": 2400,
      "taf_visibility_m": 300,
      "worst_visibility_m": 300,
      "ceiling_ft": 100,
      "hazards": [
        "BR",
        "FG",
        "FZFG"
      ],
      "severityScore": 100,
      "metarRaw": "METAR EPWR 162030Z 10005KT 2400 MIFG BR NSC 01/00 Q1023",
      "tafRaw": "TAF EPWR 162030Z 1621/1721 10005KT 1900 BR NSC \n  BECMG 1621/1623 0500 FG \n  TEMPO 1621/1709 0300 FZFG OVC001 \n  BECMG 1709/1711 CAVOK \n  BECMG 1717/1720 4000 BR \n  TEMPO 1719/1721 1200 BR"
    },
    {
      "icao": "ESGG",
      "iata": "GOT",
      "name": "Göteborg Landvetter Airport",
      "updatedAt": "162020Z",
      "visibility_m": 7000,
      "taf_visibility_m": 200,
      "worst_visibility_m": 200,
      "ceiling_ft": 300,
      "hazards": [
        "FG",
        "BR"
      ],
      "severityScore": 100,
      "metarRaw": "METAR ESGG 162020Z 21010KT 7000 OVC003 03/03 Q1017",
      "tafRaw": "TAF ESGG 162030Z 1621/1721 18012KT 7000 OVC005 \n  PROB40 1621/1624 1200 BR OVC003 \n  TEMPO 1700/1710 0200 FG VV002 \n  BECMG 1705/1707 12005KT \n  PROB40 1710/1714 1200 BR SCT008 \n  PROB40 1714/1721 0300 FG VV002"
    },
    {
      "icao": "ESKN",
      "iata": "NYO",
      "name": "Stockholm Skavsta Airport",
      "updatedAt": "162020Z",
      "visibility_m": 2000,
      "taf_visibility_m": 300,
      "worst_visibility_m": 300,
      "ceiling_ft": 300,
      "hazards": [
        "BR",
        "FG"
      ],
      "severityScore": 100,
      "metarRaw": "METAR ESKN 162020Z 17007KT 140V210 2000 BR OVC003 03/03 Q1020",
      "tafRaw": "TAF ESKN 162030Z 1621/1721 17010KT 5000 OVC003 \n  TEMPO 1621/1711 1800 BR SCT003 BKN006 \n  TEMPO 1703/1710 23006KT \n  PROB40 1711/1721 0300 FG VV002"
    },
    {
      "icao": "ESMS",
      "iata": "MMX",
      "name": "Malmö Sturup Airport",
      "updatedAt": "162020Z",
      "visibility_m": 100,
      "taf_visibility_m": 200,
      "worst_visibility_m": 100,
      "ceiling_ft": 200,
      "hazards": [
        "FG",
        "BR"
      ],
      "severityScore": 100,
      "metarRaw": "METAR ESMS 162020Z 09003KT 0100 R17/0375U R35/0375N FG VV002 01/01 Q1020",
      "tafRaw": "TAF ESMS 162027Z 1621/1721 15010KT 0200 FG NSC \n  TEMPO 1621/1701 2000 BR BKN004 \n  BECMG 1701/1703 0500 OVC002 \n  TEMPO 1703/1710 3000 BR BKN006 \n  BECMG 1710/1712 2000 BR \n  TEMPO 1712/1721 6000 NSW BKN010"
    },
    {
      "icao": "LHBP",
      "iata": "BUD",
      "name": "Budapest Liszt Ferenc International Airport",
      "updatedAt": "162030Z",
      "visibility_m": 3200,
      "taf_visibility_m": 300,
      "worst_visibility_m": 300,
      "ceiling_ft": 200,
      "hazards": [
        "BR",
        "DZ",
        "FZFG",
        "FG",
        "FZDZ"
      ],
      "severityScore": 100,
      "metarRaw": "METAR LHBP 162030Z 07005KT 020V100 3200 -DZ BR OVC002 02/01 Q1027 NOSIG",
      "tafRaw": "TAF LHBP 161715Z 1618/1718 08005KT 5000 BR SCT004 OVC010 \n  TEMPO 1618/1706 0700 -DZ FG OVC002 \n  PROB40 1620/1706 0300 -FZDZ FZFG VV001 \n  BECMG 1706/1709 8000 NSW BKN030 \n  TEMPO 1712/1718 5000 BR BKN008"
    },
    {
      "icao": "LIBP",
      "iata": "PSR",
      "name": "Abruzzo Airport",
      "updatedAt": "162020Z",
      "visibility_m": 300,
      "taf_visibility_m": null,
      "worst_visibility_m": 300,
      "ceiling_ft": 200,
      "hazards": [
        "FG"
      ],
      "severityScore": 100,
      "metarRaw": "METAR LIBP 162020Z AUTO 25003KT 0300 R22/0900U FG VV002 06/06 Q1022",
      "tafRaw": null
    },
    {
      "icao": "LIPR",
      "iata": "RMI",
      "name": "Federico Fellini International Airport",
      "updatedAt": "162020Z",
      "visibility_m": 2800,
      "taf_visibility_m": 300,
      "worst_visibility_m": 300,
      "ceiling_ft": 300,
      "hazards": [
        "BR",
        "FG"
      ],
      "severityScore": 100,
      "metarRaw": "METAR LIPR 162020Z AUTO 30002KT 2800 BR OVC008/// 07/06 Q1022",
      "tafRaw": "TAF LIPR 161700Z 1618/1718 VRB04KT 2000 BR BKN020 \n  BECMG 1621/1623 0300 FG OVC003 \n  BECMG 1706/1708 6000 SCT020"
    },
    {
      "icao": "LIPY",
      "iata": "AOI",
      "name": "Marche Airport",
      "updatedAt": "162020Z",
      "visibility_m": 2500,
      "taf_visibility_m": 300,
      "worst_visibility_m": 300,
      "ceiling_ft": 100,
      "hazards": [
        "BR",
        "FG"
      ],
      "severityScore": 100,
      "metarRaw": "METAR LIPY 162020Z AUTO VRB01KT 2500 BR OVC004/// 08/08 Q1022",
      "tafRaw": "TAF LIPY 161700Z 1618/1718 VRB05KT 1500 BR OVC010 \n  BECMG 1621/1623 0300 FG OVC001 \n  BECMG 1708/1710 3000 BR BKN006"
    },
    {
      "icao": "LKMT",
      "iata": "OSR",
      "name": "Ostrava Leos Janáček Airport",
      "updatedAt": "162030Z",
      "visibility_m": 300,
      "taf_visibility_m": 300,
      "worst_visibility_m": 300,
      "ceiling_ft": 200,
      "hazards": [
        "FZFG",
        "FG",
        "BR"
      ],
      "severityScore": 100,
      "metarRaw": "METAR LKMT 162030Z 00000KT 0300 R22/0375N R04/0450N FZFG VV002 M00/M00 Q1025 NOSIG",
      "tafRaw": "TAF LKMT 161700Z 1618/1718 VRB02KT 1500 BR NSC \n  TEMPO 1618/1620 0400 FZFG OVC010 \n  BECMG 1619/1621 1000 BR OVC008 \n  PROB40 1621/1708 0300 FZFG VV002 \n  BECMG 1709/1711 5000 BR BKN015 \n  TEMPO 1712/1718 NSC"
    },
    {
      "icao": "LKPR",
      "iata": "PRG",
      "name": "Václav Havel Airport Prague",
      "updatedAt": "162030Z",
      "visibility_m": 8000,
      "taf_visibility_m": 500,
      "worst_visibility_m": 500,
      "ceiling_ft": 800,
      "hazards": [
        "FG",
        "BR",
        "DZ"
      ],
      "severityScore": 100,
      "metarRaw": "METAR LKPR 162030Z 08003KT 8000 OVC008 01/01 Q1023 NOSIG",
      "tafRaw": "TAF LKPR 162000Z 1621/1803 11005KT 4000 BR OVC007 \n  TEMPO 1621/1703 1500 BR BKN004 \n  BECMG 1703/1705 0900 FG BKN003 \n  TEMPO 1705/1708 0500 -DZ FG BKN002 \n  BECMG 1708/1710 5000 BR SCT003 BKN008 \n  BECMG 1711/1713 8000 BKN012 \n  BECMG 1716/1718 13010KT 9999 SCT012 \n  BECMG 1720/1722 CAVOK"
    },
    {
      "icao": "LMML",
      "iata": "MLA",
      "name": "Malta International Airport",
      "updatedAt": "162015Z",
      "visibility_m": 10000,
      "taf_visibility_m": 1000,
      "worst_visibility_m": 1000,
      "ceiling_ft": 500,
      "hazards": [
        "TS",
        "TSRA",
        "RA",
        "SHRA"
      ],
      "severityScore": 100,
      "metarRaw": "METAR LMML 162015Z 11007KT 9999 VCTS FEW020CB 15/14 Q1016 BECMG FEW020",
      "tafRaw": "TAF LMML 161700Z 1618/1718 12010KT 9999 SCT014 \n  TEMPO 1618/1705 6000 RA BKN014 \n  PROB40 \n  TEMPO 1618/1705 2000 +RA BKN005 \n  PROB30 \n  TEMPO 1618/1709 VRB15G25KT 1000 +TSRA TSRAGS BKN012CB \n  TEMPO 1702/1709 5000 SHRA SHRAGS BKN013TCU \n  BECMG 1706/1709 VRB07KT"
    },
    {
      "icao": "LOWW",
      "iata": "VIE",
      "name": "Vienna International Airport",
      "updatedAt": "162020Z",
      "visibility_m": 1200,
      "taf_visibility_m": 500,
      "worst_visibility_m": 500,
      "ceiling_ft": 100,
      "hazards": [
        "BR",
        "FZDZ",
        "DZ",
        "FZFG",
        "FG"
      ],
      "severityScore": 100,
      "metarRaw": "METAR LOWW 162020Z 19004KT 1800 -FZDZ BR SCT001 BKN002 M00/M01 Q1025 TEMPO 1200 BR -FZDZ OVC001",
      "tafRaw": "TAF LOWW 162015Z 1621/1803 14005KT 1500 BR SCT001 OVC002 TX01/1703Z TNM02/1803Z \n  TEMPO 1621/1701 0500 -FZDZ FZFG OVC001 \n  TEMPO 1701/1706 14010KT 0500 -DZ FG OVC001 \n  BECMG 1706/1708 14015KT 3000 \n  BECMG 1708/1710 OVC005 \n  BECMG 1710/1712 9999 BKN010 \n  TEMPO 1714/1718 SCT012 BKN040 \n  FM171800 14010KT 9999 FEW010 SCT030"
    },
    {
      "icao": "LQSA",
      "iata": "SJJ",
      "name": "Sarajevo International Airport",
      "updatedAt": "162000Z",
      "visibility_m": 1500,
      "taf_visibility_m": 300,
      "worst_visibility_m": 300,
      "ceiling_ft": 200,
      "hazards": [
        "BR",
        "FZFG",
        "FG"
      ],
      "severityScore": 100,
      "metarRaw": "METAR LQSA 162000Z 12001KT 3500 BR NSC M01/M01 Q1024 BECMG 1500",
      "tafRaw": "TAF LQSA 161700Z 1618/1718 VRB02KT 8000 NSC TX03/1714Z TNM03/1705Z \n  BECMG 1618/1620 2000 BR BKN005 \n  TEMPO 1620/1709 0300 FZFG BKN002 \n  BECMG 1709/1711 6000 NSW"
    },
    {
      "icao": "LQTZ",
      "iata": "TZL",
      "name": "Tuzla International Airport",
      "updatedAt": "162000Z",
      "visibility_m": 10000,
      "taf_visibility_m": 300,
      "worst_visibility_m": 300,
      "ceiling_ft": 200,
      "hazards": [
        "FZFG",
        "BR",
        "FG"
      ],
      "severityScore": 100,
      "metarRaw": "METAR LQTZ 162000Z 00000KT CAVOK 01/01 Q1024",
      "tafRaw": "TAF LQTZ 161700Z 1618/1718 12005KT 6000 NSC TX06/1713Z TNM02/1705Z \n  TEMPO 1619/1710 2000 BR \n  PROB30 \n  TEMPO 1622/1709 0300 FZFG BKN002 \n  PROB40 1709/1718 BKN008"
    },
    {
      "icao": "LZIB",
      "iata": "BTS",
      "name": "M. R. Štefánik Airport",
      "updatedAt": "162030Z",
      "visibility_m": 2800,
      "taf_visibility_m": 500,
      "worst_visibility_m": 500,
      "ceiling_ft": 300,
      "hazards": [
        "BR",
        "DZ",
        "FZFG",
        "FZRA",
        "FZDZ",
        "FG",
        "RA"
      ],
      "severityScore": 100,
      "metarRaw": "METAR LZIB 162030Z 06005KT 2800 BR OVC003 01/01 Q1025 BECMG 3000 DZ BR OVC005",
      "tafRaw": "TAF LZIB 161715Z 1618/1718 05005KT 2500 BR BKN014 \n  TEMPO 1618/1621 1400 DZ BR OVC003 \n  PROB40 \n  TEMPO 1618/1700 0500 FZDZ FZFG OVC001 \n  TEMPO 1623/1706 2500 FZRA BKN009 BKN014 \n  BECMG 1708/1710 10007KT 6000 SCT014 BKN025"
    },
    {
      "icao": "LZTT",
      "iata": "TAT",
      "name": "Poprad-Tatry Airport",
      "updatedAt": "162030Z",
      "visibility_m": 4000,
      "taf_visibility_m": 300,
      "worst_visibility_m": 300,
      "ceiling_ft": 3000,
      "hazards": [
        "BR",
        "FZFG",
        "FG"
      ],
      "severityScore": 100,
      "metarRaw": "METAR LZTT 162030Z 27002KT 4000 BR FEW002 SCT009 OVC030 01/00 Q1025",
      "tafRaw": "TAF LZTT 161715Z 1618/1718 VRB02KT 2500 BR OVC006 \n  TEMPO 1618/1712 1400 BR OVC003 \n  PROB40 \n  TEMPO 1618/1712 0300 FZFG OVC001 \n  BECMG 1712/1714 6000 BKN025"
    },
    {
      "icao": "UAAA",
      "iata": "ALA",
      "name": "Almaty International Airport",
      "updatedAt": "162000Z",
      "visibility_m": 4200,
      "taf_visibility_m": 700,
      "worst_visibility_m": 700,
      "ceiling_ft": 3300,
      "hazards": [
        "BR",
        "SN",
        "FZFG",
        "SHSN",
        "FG"
      ],
      "severityScore": 100,
      "metarRaw": "METAR UAAA 162000Z 27004MPS 4200 -SN BR OVC033 M16/M18 Q1024 NOSIG",
      "tafRaw": "TAF UAAA 161705Z 1618/1718 26004MPS 1500 -SHSN BR BKN007 OVC015CB TXM15/1708Z TNM18/1703Z \n  TEMPO 1618/1705 32005G10MPS 0700 SHSN FZFG BKN003 OVC011CB \n  FM170500 28003MPS 3100 BR BKN011CB OVC030 \n  TEMPO 1705/1715 33003G08MPS 1500 -SHSN BR BKN005 OVC011CB \n  TEMPO 1715/1718 35003MPS 0800 FZFG VV003"
    },
    {
      "icao": "EGPD",
      "iata": "ABZ",
      "name": "Aberdeen International Airport",
      "updatedAt": "162020Z",
      "visibility_m": 10000,
      "taf_visibility_m": 300,
      "worst_visibility_m": 300,
      "ceiling_ft": 3300,
      "hazards": [
        "FG",
        "BR",
        "RA",
        "DZ"
      ],
      "severityScore": 97,
      "metarRaw": "METAR EGPD 162020Z COR AUTO 21004KT 160V230 9999 BKN033 00/M00 Q1008 NOSIG",
      "tafRaw": "TAF EGPD 161655Z 1618/1718 VRB03KT 9999 FEW040 \n  TEMPO 1618/1706 3000 BR BKN010 \n  PROB30 1620/1701 0300 FG VV/// \n  BECMG 1621/1624 15010KT \n  PROB30 \n  TEMPO 1701/1706 BKN006 \n  TEMPO 1706/1718 6000 -RADZ BKN006 \n  PROB30 \n  TEMPO 1706/1718 3000 BR RADZ BKN004"
    },
    {
      "icao": "EDNY",
      "iata": "FDH",
      "name": "Friedrichshafen Airport",
      "updatedAt": "162020Z",
      "visibility_m": 400,
      "taf_visibility_m": null,
      "worst_visibility_m": 400,
      "ceiling_ft": null,
      "hazards": [
        "FZFG",
        "FG"
      ],
      "severityScore": 90,
      "metarRaw": "METAR EDNY 162020Z 28003KT 240V310 0400 R24/1300U FZFG VV/// M00/M00 Q1016",
      "tafRaw": null
    },
    {
      "icao": "EKCH",
      "iata": "CPH",
      "name": "Copenhagen Kastrup Airport",
      "updatedAt": "162020Z",
      "visibility_m": 8000,
      "taf_visibility_m": 600,
      "worst_visibility_m": 600,
      "ceiling_ft": 200,
      "hazards": [
        "FG",
        "BR"
      ],
      "severityScore": 90,
      "metarRaw": "METAR EKCH 162020Z AUTO 19004KT 8000 BKN027/// 03/02 Q1021 NOSIG",
      "tafRaw": "TAF EKCH 162027Z 1621/1721 15010KT 9999 BKN030 \n  BECMG 1702/1705 3000 BR BKN006 \n  BECMG 1705/1707 0600 FG BKN002 \n  BECMG 1707/1709 2000 BR BKN006 \n  TEMPO 1709/1721 6000 NSW BKN003"
    },
    {
      "icao": "LHDC",
      "iata": "DEB",
      "name": "Debrecen International Airport",
      "updatedAt": "162015Z",
      "visibility_m": 10000,
      "taf_visibility_m": 700,
      "worst_visibility_m": 700,
      "ceiling_ft": 600,
      "hazards": [
        "FG",
        "BR",
        "DZ"
      ],
      "severityScore": 90,
      "metarRaw": "METAR LHDC 162015Z AUTO 07005KT 9999 OVC006 02/01 Q1027",
      "tafRaw": "TAF LHDC 161415Z 1615/1624 07005KT 8000 OVC035 \n  TEMPO 1615/1617 2500 -DZ BR OVC008 \n  PROB40 \n  TEMPO 1617/1624 0700 -DZ FG VV002"
    },
    {
      "icao": "LIPE",
      "iata": "BLQ",
      "name": "Bologna Guglielmo Marconi Airport",
      "updatedAt": "162020Z",
      "visibility_m": 2000,
      "taf_visibility_m": 300,
      "worst_visibility_m": 300,
      "ceiling_ft": 1000,
      "hazards": [
        "BR",
        "FG"
      ],
      "severityScore": 87,
      "metarRaw": "METAR LIPE 162020Z 07004KT 2000 BR OVC010 07/07 Q1022",
      "tafRaw": "TAF LIPE 161700Z 1618/1718 VRB04KT 2000 BR BKN020 \n  TEMPO 1622/1709 0300 FG OVC003"
    },
    {
      "icao": "EGKK",
      "iata": "LGW",
      "name": "London Gatwick Airport",
      "updatedAt": "162020Z",
      "visibility_m": 10000,
      "taf_visibility_m": 3000,
      "worst_visibility_m": 3000,
      "ceiling_ft": 200,
      "hazards": [
        "BR",
        "SHRA",
        "DZ",
        "RA"
      ],
      "severityScore": 81,
      "metarRaw": "METAR EGKK 162020Z 13007KT CAVOK 08/07 Q1010",
      "tafRaw": "TAF EGKK 161655Z 1618/1724 16004KT 9999 SCT010 BKN045 \n  PROB30 \n  TEMPO 1618/1623 BKN008 \n  TEMPO 1623/1712 6000 -RADZ BKN006 \n  PROB30 \n  TEMPO 1702/1711 4000 RADZ BR BKN004 \n  TEMPO 1712/1714 6000 SHRA BKN007 \n  PROB30 \n  TEMPO 1714/1718 BKN010 \n  PROB30 \n  TEMPO 1718/1720 BKN005 \n  TEMPO 1720/1724 6000 -DZ BKN005 \n  PROB30 \n  TEMPO 1721/1724 3000 DZ BR BKN002"
    },
    {
      "icao": "LTFM",
      "iata": "IST",
      "name": "İstanbul Airport",
      "updatedAt": "162020Z",
      "visibility_m": 10000,
      "taf_visibility_m": 4000,
      "worst_visibility_m": 4000,
      "ceiling_ft": 900,
      "hazards": [
        "SHRA",
        "SN",
        "RA",
        "SHSN"
      ],
      "severityScore": 79,
      "metarRaw": "METAR LTFM 162020Z 04015KT 9999 -SHRA BKN009 BKN022 03/M00 Q1028 RESHRASN NOSIG RMK RWY17L 04014KT RWY34L 03012KT RWY16R 03014KT RWY36 04014KT RWY18 04013KT",
      "tafRaw": "TAF LTFM 161640Z 1618/1724 02017KT 9999 -SHRA SCT007 BKN022 \n  TEMPO 1618/1622 -SHSNRA BKN006 BKN020 \n  TEMPO 1623/1703 -SHRASN BKN006 BKN020 \n  BECMG 1713/1716 -SHRASN \n  PROB40 \n  TEMPO 1717/1720 4000 -SHSN BKN006 BKN020"
    },
    {
      "icao": "LIBR",
      "iata": "BDS",
      "name": "Brindisi Airport",
      "updatedAt": "162020Z",
      "visibility_m": 7000,
      "taf_visibility_m": 400,
      "worst_visibility_m": 400,
      "ceiling_ft": 1500,
      "hazards": [
        "BR",
        "FG"
      ],
      "severityScore": 77,
      "metarRaw": "METAR LIBR 162020Z 29005KT 7000 BKN015 11/11 Q1021",
      "tafRaw": "TAF LIBR 161700Z 1618/1718 VRB05KT 9999 FEW025 \n  BECMG 1621/1623 3000 BR BKN010 \n  TEMPO 1700/1707 0400 BCFG \n  BECMG 1707/1709 14010KT 8000 SCT020"
    },
    {
      "icao": "LEBL",
      "iata": "BCN",
      "name": "Josep Tarradellas Barcelona-El Prat Airport",
      "updatedAt": "162000Z",
      "visibility_m": 10000,
      "taf_visibility_m": 2000,
      "worst_visibility_m": 2000,
      "ceiling_ft": 6000,
      "hazards": [
        "TSRA",
        "SHRA",
        "TS",
        "RA"
      ],
      "severityScore": 76,
      "metarRaw": "METAR LEBL 162000Z 18003KT 140V210 9999 FEW025 BKN060 14/11 Q1014 NOSIG",
      "tafRaw": "TAF LEBL 161700Z 1618/1718 VRB04KT 9000 SCT015 BKN050 TX13/1712Z TN09/1706Z \n  TEMPO 1622/1704 34009KT \n  BECMG 1704/1706 11014KT \n  TEMPO 1621/1718 3000 SHRA SCT010TCU BKN015 \n  PROB40 \n  TEMPO 1621/1718 2000 TSRA SCT010CB BKN015"
    },
    {
      "icao": "EGBB",
      "iata": "BHX",
      "name": "Birmingham Airport",
      "updatedAt": "162020Z",
      "visibility_m": 10000,
      "taf_visibility_m": 4000,
      "worst_visibility_m": 4000,
      "ceiling_ft": 400,
      "hazards": [
        "BR",
        "RA",
        "SHRA"
      ],
      "severityScore": 71,
      "metarRaw": "METAR EGBB 162020Z 14007KT 9999 SCT011 05/04 Q1008",
      "tafRaw": "TAF EGBB 161654Z 1618/1718 14007KT 9999 FEW012 SCT025 \n  PROB30 \n  TEMPO 1618/1621 8000 -SHRA BKN008 \n  TEMPO 1621/1706 7000 RA BKN008 \n  PROB40 \n  TEMPO 1621/1707 4000 BR BKN004 \n  PROB30 \n  TEMPO 1707/1716 8000 -SHRA \n  PROB30 \n  TEMPO 1707/1711 BKN004 \n  PROB30 \n  TEMPO 1711/1716 BKN012"
    },
    {
      "icao": "LFPO",
      "iata": "ORY",
      "name": "Paris-Orly Airport",
      "updatedAt": "162030Z",
      "visibility_m": 4000,
      "taf_visibility_m": 3500,
      "worst_visibility_m": 3500,
      "ceiling_ft": 200,
      "hazards": [
        "RA",
        "SHRA",
        "BR"
      ],
      "severityScore": 71,
      "metarRaw": "METAR LFPO 162030Z AUTO 15004KT 120V180 9999 -RA FEW016/// BKN056/// OVC074/// ///TCU 09/08 Q1012 TEMPO 4000 -SHRA",
      "tafRaw": "TAF LFPO 161700Z 1618/1724 13004KT 9999 BKN025 \n  PROB40 \n  TEMPO 1618/1623 4000 -SHRA BKN025TCU \n  TEMPO 1703/1711 BKN004 \n  PROB40 \n  TEMPO 1704/1710 3500 BR BKN002"
    },
    {
      "icao": "LIMC",
      "iata": "MXP",
      "name": "Milan Malpensa International Airport",
      "updatedAt": "162020Z",
      "visibility_m": 2000,
      "taf_visibility_m": 1000,
      "worst_visibility_m": 1000,
      "ceiling_ft": 300,
      "hazards": [
        "BR",
        "RA"
      ],
      "severityScore": 67,
      "metarRaw": "METAR LIMC 162020Z 11003KT 2000 -RA BR OVC003 07/06 Q1022 NOSIG",
      "tafRaw": "TAF LIMC 161700Z 1618/1724 VRB03KT 5000 BR OVC020 \n  TEMPO 1618/1724 1000 -RA BKN005"
    },
    {
      "icao": "LIPQ",
      "iata": "TRS",
      "name": "Trieste–Friuli Venezia Giulia Airport",
      "updatedAt": "162020Z",
      "visibility_m": 2200,
      "taf_visibility_m": 800,
      "worst_visibility_m": 800,
      "ceiling_ft": 1000,
      "hazards": [
        "BR",
        "FG"
      ],
      "severityScore": 67,
      "metarRaw": "METAR LIPQ 162020Z AUTO 36003KT 2200 BR BKN016/// OVC067/// 08/08 Q1022",
      "tafRaw": "TAF LIPQ 161700Z 1618/1718 VRB04KT 2500 BR BKN020 \n  TEMPO 1700/1706 0800 FG OVC010 \n  BECMG 1707/1709 6000"
    },
    {
      "icao": "LBPD",
      "iata": "PDV",
      "name": "Plovdiv International Airport",
      "updatedAt": "162030Z",
      "visibility_m": 8000,
      "taf_visibility_m": 3000,
      "worst_visibility_m": 3000,
      "ceiling_ft": 400,
      "hazards": [
        "SN",
        "RA"
      ],
      "severityScore": 65,
      "metarRaw": "METAR LBPD 162030Z AUTO 10014KT 8000 -SN FEW006/// BKN023/// OVC042/// M01/M01 Q1030",
      "tafRaw": "TAF LBPD 161700Z 1618/1718 10010KT 7000 RASN SCT007 OVC020 \n  TEMPO 1618/1620 5000 SNRA SCT004 OVC015 \n  BECMG 1620/1621 3000 SN BKN004 OVC010 \n  BECMG 1701/1703 9999 NSW SCT010 BKN030"
    },
    {
      "icao": "LIPX",
      "iata": "VRN",
      "name": "Verona Villafranca Valerio Catullo Airport",
      "updatedAt": "162020Z",
      "visibility_m": 1100,
      "taf_visibility_m": 500,
      "worst_visibility_m": 500,
      "ceiling_ft": 6500,
      "hazards": [
        "BR",
        "FG"
      ],
      "severityScore": 65,
      "metarRaw": "METAR LIPX 162020Z 36003KT 1100 R04/P2000N BR FEW009 BKN065 06/06 Q1023",
      "tafRaw": "TAF LIPX 161700Z 1618/1718 VRB04KT 2000 BR BKN003 \n  TEMPO 1701/1706 0500 FG \n  BECMG 1707/1709 6000 SCT025 \n  TEMPO 1716/1718 2500 BR"
    },
    {
      "icao": "OJAI",
      "iata": "AMM",
      "name": "Queen Alia International Airport",
      "updatedAt": "162000Z",
      "visibility_m": 2500,
      "taf_visibility_m": 500,
      "worst_visibility_m": 500,
      "ceiling_ft": null,
      "hazards": [
        "BR",
        "FG"
      ],
      "severityScore": 65,
      "metarRaw": "METAR OJAI 162000Z 04005KT 2500 BR NSC 06/05 Q1021 NOSIG",
      "tafRaw": "TAF OJAI 161647Z 1618/1724 16006KT 4000 BR FEW035 \n  PROB30 1623/1707 VRB02KT 0500 FG \n  BECMG 1707/1709 27012KT 5000 HZ"
    },
    {
      "icao": "EETN",
      "iata": "TLL",
      "name": "Lennart Meri Tallinn Airport",
      "updatedAt": "162020Z",
      "visibility_m": 10000,
      "taf_visibility_m": 5000,
      "worst_visibility_m": 5000,
      "ceiling_ft": 800,
      "hazards": [
        "FZDZ",
        "DZ"
      ],
      "severityScore": 63,
      "metarRaw": "METAR EETN 162020Z 17009KT 140V200 9999 OVC008 M07/M09 Q1030 NOSIG",
      "tafRaw": "TAF EETN 161730Z 1618/1718 16012KT 9999 BKN015 \n  TEMPO 1618/1620 OVC008 \n  PROB40 \n  TEMPO 1620/1702 BKN007 \n  BECMG 1702/1704 OVC010 \n  PROB40 \n  TEMPO 1706/1711 -FZDZ BKN005 \n  TEMPO 1711/1718 5000 SG FZDZ BKN005"
    },
    {
      "icao": "LPFR",
      "iata": "FAO",
      "name": "Faro Airport",
      "updatedAt": "162000Z",
      "visibility_m": 10000,
      "taf_visibility_m": 3000,
      "worst_visibility_m": 3000,
      "ceiling_ft": 1500,
      "hazards": [
        "SHRA",
        "TS",
        "RA"
      ],
      "severityScore": 63,
      "metarRaw": "METAR LPFR 162000Z 30006KT 9999 FEW018 SCT040 11/09 Q1015",
      "tafRaw": "TAF LPFR 161700Z 1618/1718 32007KT 9999 SCT030 \n  TEMPO 1618/1718 8000 SHRA BKN015 FEW025CB \n  PROB30 \n  TEMPO 1618/1624 VRB15G27KT 3000 TSRAGS SCT020CB \n  BECMG 1711/1713 25012KT"
    },
    {
      "icao": "LPPT",
      "iata": "LIS",
      "name": "Lisbon Humberto Delgado Airport",
      "updatedAt": "162000Z",
      "visibility_m": 10000,
      "taf_visibility_m": 3000,
      "worst_visibility_m": 3000,
      "ceiling_ft": 1500,
      "hazards": [
        "SHRA",
        "RA",
        "TS"
      ],
      "severityScore": 63,
      "metarRaw": "METAR LPPT 162000Z 30004KT 260V340 9999 -SHRA FEW020 FEW025TCU 09/07 Q1015",
      "tafRaw": "TAF LPPT 161700Z 1618/1724 30007KT 9999 FEW018 SCT030 \n  TEMPO 1618/1724 8000 SHRA BKN015 FEW025CB \n  PROB30 \n  TEMPO 1618/1624 VRB15G27KT 3000 TSRAGS SCT020CB \n  BECMG 1708/1710 VRB05KT \n  BECMG 1717/1719 34007KT"
    },
    {
      "icao": "LUKK",
      "iata": "RMO",
      "name": "Chişinău International Airport",
      "updatedAt": "162000Z",
      "visibility_m": 10000,
      "taf_visibility_m": 3000,
      "worst_visibility_m": 3000,
      "ceiling_ft": 400,
      "hazards": [
        "BR",
        "SN"
      ],
      "severityScore": 63,
      "metarRaw": "METAR LUKK 162000Z 34005KT 300V020 CAVOK M10/M14 Q1035 NOSIG",
      "tafRaw": "TAF LUKK 161728Z 1618/1718 36009KT CAVOK \n  BECMG 1701/1703 BKN008 \n  TEMPO 1702/1707 3000 -SN BR OVC004 \n  BECMG 1709/1711 BKN012"
    },
    {
      "icao": "EHEH",
      "iata": "EIN",
      "name": "Eindhoven Airport",
      "updatedAt": "162025Z",
      "visibility_m": 1200,
      "taf_visibility_m": 4500,
      "worst_visibility_m": 1200,
      "ceiling_ft": 14000,
      "hazards": [
        "BR",
        "FG",
        "RA",
        "DZ"
      ],
      "severityScore": 62,
      "metarRaw": "METAR EHEH 162025Z AUTO 13003KT 5000 BR BKN140 OVC300 07/06 Q1015 WHT TEMPO 1200 BCFG",
      "tafRaw": "TAF EHEH 161744Z 1618/1724 19003KT 9999 FEW030 BKN035 \n  PROB40 \n  TEMPO 1623/1706 4500 -RADZ SCT018 BKN025 \n  BECMG 1715/1717 11004KT"
    },
    {
      "icao": "ENBR",
      "iata": "BGO",
      "name": "Bergen Airport, Flesland",
      "updatedAt": "162020Z",
      "visibility_m": 4000,
      "taf_visibility_m": 4000,
      "worst_visibility_m": 4000,
      "ceiling_ft": 600,
      "hazards": [
        "BR",
        "RA",
        "DZ"
      ],
      "severityScore": 57,
      "metarRaw": "METAR ENBR 162020Z 13006KT 9999 -RADZ BKN006 03/03 Q1012 TEMPO 4000 -RADZ SCT006 BKN012 RMK WIND 1200FT 19008KT",
      "tafRaw": "TAF ENBR 161700Z 1618/1718 VRB05KT 9999 -RA FEW008 BKN015 \n  PROB40 \n  TEMPO 1618/1621 4000 RADZ BKN008 \n  TEMPO 1703/1718 14010KT"
    },
    {
      "icao": "ENHD",
      "iata": "HAU",
      "name": "Haugesund Airport, Karmøy",
      "updatedAt": "162020Z",
      "visibility_m": 10000,
      "taf_visibility_m": 4000,
      "worst_visibility_m": 4000,
      "ceiling_ft": 700,
      "hazards": [
        "BR",
        "RA",
        "DZ"
      ],
      "severityScore": 57,
      "metarRaw": "METAR ENHD 162020Z AUTO 16005KT 140V200 9999 OVC019/// 05/03 Q1013",
      "tafRaw": "TAF ENHD 161400Z 1615/1623 34012KT 8000 -RA SCT010 BKN018 \n  TEMPO 1615/1618 4000 RADZ BR BKN007 \n  BECMG 1619/1621 VRB05KT"
    },
    {
      "icao": "LIME",
      "iata": "BGY",
      "name": "Milan Bergamo Airport / Antonio Locatelli Air Base",
      "updatedAt": "162020Z",
      "visibility_m": 1900,
      "taf_visibility_m": 1000,
      "worst_visibility_m": 1000,
      "ceiling_ft": 800,
      "hazards": [
        "BR",
        "RA"
      ],
      "severityScore": 57,
      "metarRaw": "METAR LIME 162020Z AUTO 05002KT 1900 BR NCD 07/07 Q1022",
      "tafRaw": "TAF LIME 161700Z 1618/1718 VRB04KT 1000 BR BKN008 \n  TEMPO 1621/1703 -RA \n  BECMG 1707/1709 5000 SCT050"
    },
    {
      "icao": "LFBD",
      "iata": "BOD",
      "name": "Bordeaux–Mérignac Airport",
      "updatedAt": "162030Z",
      "visibility_m": 8000,
      "taf_visibility_m": 1200,
      "worst_visibility_m": 1200,
      "ceiling_ft": 20000,
      "hazards": [
        "RA",
        "SHRA",
        "FG"
      ],
      "severityScore": 56,
      "metarRaw": "METAR LFBD 162030Z AUTO 14006KT 8000 FEW049 BKN200 08/08 Q1011 NOSIG",
      "tafRaw": "TAF LFBD 161700Z 1618/1724 12006KT 9999 BKN030 TX09/1713Z TN05/1704Z \n  PROB30 \n  TEMPO 1618/1620 -SHRA BKN013 \n  TEMPO 1700/1709 1500 MIFG \n  PROB40 1710/1724 3000 RA BKN007 \n  PROB40 \n  TEMPO 1720/1724 1200 OVC003"
    },
    {
      "icao": "EKBI",
      "iata": "BLL",
      "name": "Billund Airport",
      "updatedAt": "162020Z",
      "visibility_m": 10000,
      "taf_visibility_m": 1200,
      "worst_visibility_m": 1200,
      "ceiling_ft": 200,
      "hazards": [
        "BR"
      ],
      "severityScore": 55,
      "metarRaw": "METAR EKBI 162020Z AUTO 18003KT 9999 OVC020/// 05/04 Q1018",
      "tafRaw": "TAF EKBI 162023Z 1621/1721 12006KT 8000 BKN020 \n  TEMPO 1621/1706 BKN012 \n  BECMG 1706/1708 1200 BR VV002 \n  TEMPO 1708/1721 6000 NSW BKN006"
    },
    {
      "icao": "LFLL",
      "iata": "LYS",
      "name": "Lyon Saint-Exupéry Airport",
      "updatedAt": "162030Z",
      "visibility_m": 10000,
      "taf_visibility_m": 400,
      "worst_visibility_m": 400,
      "ceiling_ft": null,
      "hazards": [
        "FG"
      ],
      "severityScore": 55,
      "metarRaw": "METAR LFLL 162030Z 23001KT CAVOK 11/04 Q1015 NOSIG",
      "tafRaw": "TAF LFLL 161700Z 1618/1724 14008KT CAVOK \n  BECMG 1716/1718 VRB02KT \n  PROB40 \n  TEMPO 1721/1724 0400 FG VV///"
    },
    {
      "icao": "LFOB",
      "iata": "BVA",
      "name": "Beauvais Tillé airport",
      "updatedAt": "162030Z",
      "visibility_m": 10000,
      "taf_visibility_m": 600,
      "worst_visibility_m": 600,
      "ceiling_ft": 9200,
      "hazards": [
        "FG",
        "BR"
      ],
      "severityScore": 55,
      "metarRaw": "METAR LFOB 162030Z AUTO 11005KT 9999 SCT021 SCT056 OVC092 07/06 Q1012 NOSIG",
      "tafRaw": "TAF LFOB 161700Z 1618/1718 11005KT CAVOK \n  PROB40 1623/1702 4000 BR \n  BECMG 1702/1704 4000 BR \n  PROB40 1703/1711 0600 FG VV/// \n  BECMG 1712/1716 9999 NSW NSC \n  PROB40 \n  TEMPO 1712/1716 OVC012"
    },
    {
      "icao": "LYPG",
      "iata": "TGD",
      "name": "Podgorica Airport / Podgorica Golubovci Airbase",
      "updatedAt": "162000Z",
      "visibility_m": 3000,
      "taf_visibility_m": 600,
      "worst_visibility_m": 600,
      "ceiling_ft": null,
      "hazards": [
        "BR",
        "FG"
      ],
      "severityScore": 55,
      "metarRaw": "METAR LYPG 162000Z 00000KT 6000 NSC 05/05 Q1023 BECMG 3000 BR",
      "tafRaw": "TAF LYPG 161700Z 1618/1718 34005KT 9999 FEW080 TX14/1713Z TN02/1706Z \n  BECMG 1619/1621 3000 BR \n  TEMPO 1621/1707 0600 FG \n  BECMG 1707/1709 9999 NSW"
    },
    {
      "icao": "EGPF",
      "iata": "GLA",
      "name": "Glasgow Airport",
      "updatedAt": "162020Z",
      "visibility_m": 10000,
      "taf_visibility_m": 4000,
      "worst_visibility_m": 4000,
      "ceiling_ft": 700,
      "hazards": [
        "RA",
        "SHRA"
      ],
      "severityScore": 51,
      "metarRaw": "METAR EGPF 162020Z AUTO 06007KT 9999 NCD 03/02 Q1006",
      "tafRaw": "TAF EGPF 161654Z 1618/1718 07009KT 9999 SCT025 \n  TEMPO 1618/1624 4000 SHRA RA \n  PROB30 \n  TEMPO 1618/1624 BKN012 \n  PROB30 \n  TEMPO 1705/1712 4000 RA SHRA BKN007 \n  PROB40 \n  TEMPO 1712/1718 8000"
    },
    {
      "icao": "LPPR",
      "iata": "OPO",
      "name": "Francisco de Sá Carneiro Airport",
      "updatedAt": "162000Z",
      "visibility_m": 8000,
      "taf_visibility_m": 3000,
      "worst_visibility_m": 3000,
      "ceiling_ft": 4700,
      "hazards": [
        "SHRA",
        "RA",
        "TS"
      ],
      "severityScore": 51,
      "metarRaw": "METAR LPPR 162000Z 12003KT 080V140 8000 -SHRA FEW006 FEW020CB SCT022 BKN047 07/07 Q1014",
      "tafRaw": "TAF LPPR 161700Z 1618/1718 VRB05KT 9999 FEW015 SCT030 \n  TEMPO 1618/1718 5000 SHRA BKN012 FEW020CB \n  PROB30 \n  TEMPO 1618/1624 VRB15G30KT 3000 TSRAGS SCT015CB"
    },
    {
      "icao": "EPPO",
      "iata": "POZ",
      "name": "Poznań-Ławica Airport",
      "updatedAt": "162030Z",
      "visibility_m": 2300,
      "taf_visibility_m": null,
      "worst_visibility_m": 2300,
      "ceiling_ft": 300,
      "hazards": [
        "BR"
      ],
      "severityScore": 50,
      "metarRaw": "METAR EPPO 162030Z 13009KT 2300 BR OVC003 01/01 Q1024",
      "tafRaw": null
    },
    {
      "icao": "EPSC",
      "iata": "SZZ",
      "name": "Solidarity Szczecin–Goleniów Airport",
      "updatedAt": "162030Z",
      "visibility_m": 1900,
      "taf_visibility_m": null,
      "worst_visibility_m": 1900,
      "ceiling_ft": 300,
      "hazards": [
        "BR"
      ],
      "severityScore": 50,
      "metarRaw": "METAR EPSC 162030Z 13012KT 1900 BR OVC003 02/02 Q1022",
      "tafRaw": null
    },
    {
      "icao": "EGGP",
      "iata": "LPL",
      "name": "Liverpool John Lennon Airport",
      "updatedAt": "162020Z",
      "visibility_m": 10000,
      "taf_visibility_m": 4000,
      "worst_visibility_m": 4000,
      "ceiling_ft": 700,
      "hazards": [
        "RA",
        "DZ"
      ],
      "severityScore": 47,
      "metarRaw": "METAR EGGP 162020Z 12011KT CAVOK 06/04 Q1006",
      "tafRaw": "TAF EGGP 161655Z 1618/1718 13007KT 9999 FEW025 \n  PROB30 \n  TEMPO 1621/1701 8000 -RADZ BKN014 \n  TEMPO 1701/1707 6000 RA BKN012 \n  PROB30 \n  TEMPO 1702/1706 4000 +RA BKN007 \n  PROB30 \n  TEMPO 1707/1712 8000 BKN008"
    },
    {
      "icao": "EBCI",
      "iata": "CRL",
      "name": "Brussels South Charleroi Airport",
      "updatedAt": "162020Z",
      "visibility_m": 10000,
      "taf_visibility_m": 4500,
      "worst_visibility_m": 4500,
      "ceiling_ft": 500,
      "hazards": [
        "BR",
        "DZ"
      ],
      "severityScore": 45,
      "metarRaw": "METAR EBCI 162020Z 15005KT CAVOK 08/06 Q1014 NOSIG",
      "tafRaw": "TAF EBCI 161715Z 1618/1724 15005KT 9999 FEW020 SCT030 \n  TEMPO 1622/1706 SCT005 BKN009 \n  PROB30 1700/1704 4500 -DZ BR BKN005"
    },
    {
      "icao": "EDJA",
      "iata": "FMM",
      "name": "Memmingen Allgau Airport",
      "updatedAt": "162020Z",
      "visibility_m": 10000,
      "taf_visibility_m": 2000,
      "worst_visibility_m": 2000,
      "ceiling_ft": 200,
      "hazards": [
        "BR"
      ],
      "severityScore": 45,
      "metarRaw": "METAR EDJA 162020Z 04007KT CAVOK M00/M02 Q1016",
      "tafRaw": "TAF EDJA 161700Z 1618/1703 06005KT CAVOK \n  BECMG 1701/1703 2000 BR BKN002"
    },
    {
      "icao": "EPRZ",
      "iata": "RZE",
      "name": "Rzeszów-Jasionka Airport",
      "updatedAt": "162030Z",
      "visibility_m": 5000,
      "taf_visibility_m": 8000,
      "worst_visibility_m": 5000,
      "ceiling_ft": 400,
      "hazards": [
        "BR"
      ],
      "severityScore": 45,
      "metarRaw": "METAR EPRZ 162030Z 10013KT 5000 BR OVC004 M06/M08 Q1029",
      "tafRaw": "TAF EPRZ 161730Z 1618/1718 09010KT 8000 SCT035 \n  TEMPO 1618/1706 OVC009"
    },
    {
      "icao": "ESSA",
      "iata": "ARN",
      "name": "Stockholm-Arlanda Airport",
      "updatedAt": "162020Z",
      "visibility_m": 2500,
      "taf_visibility_m": 2000,
      "worst_visibility_m": 2000,
      "ceiling_ft": 300,
      "hazards": [
        "BR"
      ],
      "severityScore": 45,
      "metarRaw": "METAR ESSA 162020Z 17014KT 3100 BR OVC003 02/02 Q1020 TEMPO 2500",
      "tafRaw": "TAF ESSA 162030Z 1621/1721 17012KT 6000 OVC005 \n  TEMPO 1621/1721 2000 BR OVC003 \n  BECMG 1708/1710 23007KT"
    },
    {
      "icao": "LRTR",
      "iata": "TSR",
      "name": "Timişoara Traian Vuia Airport",
      "updatedAt": "162000Z",
      "visibility_m": 10000,
      "taf_visibility_m": 5000,
      "worst_visibility_m": 5000,
      "ceiling_ft": 900,
      "hazards": [
        "BR",
        "DZ"
      ],
      "severityScore": 45,
      "metarRaw": "METAR LRTR 162000Z 10012KT 9999 BKN009 OVC021 02/M01 Q1027",
      "tafRaw": "TAF LRTR 161700Z 1618/1718 10008KT 9999 SCT010 BKN030 \n  TEMPO 1618/1622 5000 -DZ BR BKN010 OVC025"
    },
    {
      "icao": "LWSK",
      "iata": "SKP",
      "name": "Skopje International Airport",
      "updatedAt": "162020Z",
      "visibility_m": 10000,
      "taf_visibility_m": 1500,
      "worst_visibility_m": 1500,
      "ceiling_ft": 1000,
      "hazards": [
        "BR",
        "RA"
      ],
      "severityScore": 44,
      "metarRaw": "METAR LWSK 162020Z 07003KT 040V110 9999 FEW080 01/M00 Q1024 NOSIG",
      "tafRaw": "TAF LWSK 161730Z 1618/1718 VRB02KT 9999 SCT050 BKN090 \n  TEMPO 1702/1710 5000 BR SCT020 BKN040 \n  PROB40 \n  TEMPO 1705/1709 1500 RA BKN010 OVC030"
    },
    {
      "icao": "LTAC",
      "iata": "ESB",
      "name": "Esenboğa International Airport",
      "updatedAt": "162020Z",
      "visibility_m": 10000,
      "taf_visibility_m": 2500,
      "worst_visibility_m": 2500,
      "ceiling_ft": 2500,
      "hazards": [
        "SN",
        "RA",
        "BR"
      ],
      "severityScore": 40,
      "metarRaw": "METAR LTAC 162020Z 28004KT 220V320 9999 -RASN FEW015 BKN025 BKN080 02/M03 Q1019 NOSIG RMK RWY21C 29003KT 230V350 RWY03L 26003KT 180V290 RWY21R 30004KT 230V340 RWY03R 29004KT 240V310 RWY21L 28004KT 240V320",
      "tafRaw": "TAF LTAC 161640Z 1618/1718 26008KT 9999 SCT025 BKN080 \n  TEMPO 1622/1702 -RASN FEW010 BKN025 BKN080 \n  TEMPO 1703/1707 2500 -RASN BR FEW010 BKN025 BKN080"
    },
    {
      "icao": "UGKO",
      "iata": "KUT",
      "name": "David the Builder Kutaisi International Airport",
      "updatedAt": "162000Z",
      "visibility_m": 10000,
      "taf_visibility_m": 3000,
      "worst_visibility_m": 3000,
      "ceiling_ft": 7600,
      "hazards": [
        "BR",
        "SN",
        "RA"
      ],
      "severityScore": 40,
      "metarRaw": "METAR UGKO 162000Z 11002KT 9999 BKN076 01/01 Q1020 NOSIG",
      "tafRaw": "TAF UGKO 161700Z 1618/1718 09007KT 9000 SCT020 BKN070 TX04/1711Z TN00/1706Z \n  TEMPO 1618/1622 4000 SNRA BR BKN015 OVC040 \n  TEMPO 1700/1708 3000 SHSNRA BKN012CB OVC030 \n  TEMPO 1710/1714 26010KT \n  TEMPO 1712/1718 4000 SNRA BR BKN015 OVC035"
    },
    {
      "icao": "LPMA",
      "iata": "FNC",
      "name": "Madeira International Airport Cristiano Ronaldo",
      "updatedAt": "162000Z",
      "visibility_m": 10000,
      "taf_visibility_m": 8000,
      "worst_visibility_m": 8000,
      "ceiling_ft": 1500,
      "hazards": [
        "SHRA",
        "RA"
      ],
      "severityScore": 38,
      "metarRaw": "METAR LPMA 162000Z VRB07KT 9999 BKN015 16/10 Q1026",
      "tafRaw": "TAF LPMA 161700Z 1618/1718 VRB05KT 9999 SCT015 \n  TEMPO 1618/1718 35013G25KT \n  PROB40 \n  TEMPO 1618/1718 8000 SHRA BKN013"
    },
    {
      "icao": "LPPS",
      "iata": "PXO",
      "name": "Porto Santo Airport",
      "updatedAt": "162000Z",
      "visibility_m": 10000,
      "taf_visibility_m": 8000,
      "worst_visibility_m": 8000,
      "ceiling_ft": 1200,
      "hazards": [
        "SHRA",
        "RA"
      ],
      "severityScore": 38,
      "metarRaw": "METAR LPPS 162000Z 34017KT 9999 SCT015 SCT030 15/09 Q1025",
      "tafRaw": "TAF LPPS 161700Z 1618/1724 33015KT 9999 SCT014 SCT030 \n  PROB40 \n  TEMPO 1618/1724 33018G30KT 8000 SHRA BKN012"
    },
    {
      "icao": "UDSG",
      "iata": "LWN",
      "name": "Shirak International Airport",
      "updatedAt": "162000Z",
      "visibility_m": 10000,
      "taf_visibility_m": 1500,
      "worst_visibility_m": 1500,
      "ceiling_ft": 2000,
      "hazards": [
        "BR",
        "SN"
      ],
      "severityScore": 38,
      "metarRaw": "METAR UDSG 162000Z 04002KT 9999 FEW049 M17/M20 Q1020 NOSIG",
      "tafRaw": "TAF UDSG 161658Z 1618/1718 VRB06KT 9999 BKN040 \n  TEMPO 1621/1708 5000 BR OVC030 \n  TEMPO 1708/1718 1500 SN BR OVC020"
    },
    {
      "icao": "EPRA",
      "iata": "RDO",
      "name": "Warsaw Radom Airport",
      "updatedAt": "162030Z",
      "visibility_m": 10000,
      "taf_visibility_m": 10000,
      "worst_visibility_m": 10000,
      "ceiling_ft": 700,
      "hazards": [
        "RA"
      ],
      "severityScore": 37,
      "metarRaw": "METAR EPRA 162030Z 12007KT 9999 BKN007 M07/M09 Q1029",
      "tafRaw": "TAF EPRA 162030Z 1621/1706 12010KT 9999 BKN007 \n  BECMG 1622/1624 CAVOK"
    },
    {
      "icao": "LGTS",
      "iata": "SKG",
      "name": "Thessaloniki Macedonia International Airport",
      "updatedAt": "162020Z",
      "visibility_m": 10000,
      "taf_visibility_m": 5000,
      "worst_visibility_m": 5000,
      "ceiling_ft": 2500,
      "hazards": [
        "TS",
        "RA"
      ],
      "severityScore": 37,
      "metarRaw": "METAR LGTS 162020Z VRB02KT 9999 SCT025 06/03 Q1023 NOSIG",
      "tafRaw": "TAF LGTS 161700Z 1618/1718 08013KT 9999 FEW012 BKN025 \n  PROB30 1700/1712 5000 RA \n  BECMG 1710/1712 VRB03KT"
    },
    {
      "icao": "UBBB",
      "iata": "GYD",
      "name": "Heydar Aliyev International Airport",
      "updatedAt": "162030Z",
      "visibility_m": 10000,
      "taf_visibility_m": 10000,
      "worst_visibility_m": 10000,
      "ceiling_ft": 600,
      "hazards": [
        "RA"
      ],
      "severityScore": 37,
      "metarRaw": "METAR UBBB 162030Z 30008KT CAVOK 03/02 Q1023 NOSIG",
      "tafRaw": "TAF UBBB 161705Z 1618/1718 30005KT 9999 SCT025 TX06/1710Z TN00/1700Z \n  TEMPO 1618/1702 VRB04KT BKN006 \n  BECMG 1702/1704 35005KT BKN020 \n  TEMPO 1704/1708 02010KT SCT010 \n  TEMPO 1708/1718 03012KT -RA BKN007 OVC017"
    },
    {
      "icao": "EDDN",
      "iata": "NUE",
      "name": "Nuremberg Airport",
      "updatedAt": "162020Z",
      "visibility_m": 10000,
      "taf_visibility_m": 3000,
      "worst_visibility_m": 3000,
      "ceiling_ft": 500,
      "hazards": [
        "BR"
      ],
      "severityScore": 35,
      "metarRaw": "METAR EDDN 162020Z AUTO 11006KT 9999 SCT006 M01/M02 Q1020 BECMG OVC005",
      "tafRaw": "TAF EDDN 161700Z 1618/1718 11006KT CAVOK \n  BECMG 1619/1622 OVC005 \n  TEMPO 1619/1710 3000 BR OVC003 \n  PROB30 \n  TEMPO 1712/1716 SCT008"
    },
    {
      "icao": "EDSB",
      "iata": "FKB",
      "name": "Karlsruhe Baden-Baden Airport",
      "updatedAt": "162020Z",
      "visibility_m": 10000,
      "taf_visibility_m": 2000,
      "worst_visibility_m": 2000,
      "ceiling_ft": 500,
      "hazards": [
        "BR"
      ],
      "severityScore": 35,
      "metarRaw": "METAR EDSB 162020Z VRB01KT CAVOK 04/04 Q1016",
      "tafRaw": "TAF EDSB 161700Z 1618/1718 03004KT CAVOK \n  PROB30 \n  TEMPO 1623/1705 3000 BR \n  TEMPO 1705/1713 2000 BR BKN005"
    },
    {
      "icao": "EPWA",
      "iata": "WAW",
      "name": "Warsaw Chopin Airport",
      "updatedAt": "162030Z",
      "visibility_m": 10000,
      "taf_visibility_m": 3000,
      "worst_visibility_m": 3000,
      "ceiling_ft": 800,
      "hazards": [
        "BR"
      ],
      "severityScore": 35,
      "metarRaw": "METAR EPWA 162030Z 12011KT CAVOK M08/M10 Q1029 TEMPO BKN008",
      "tafRaw": "TAF EPWA 162030Z 1621/1721 12010KT 8000 NSC \n  TEMPO 1621/1704 BKN008 \n  PROB40 \n  TEMPO 1621/1703 3000 BR BKN004"
    },
    {
      "icao": "EYPA",
      "iata": "PLQ",
      "name": "Palanga International Airport",
      "updatedAt": "162020Z",
      "visibility_m": 6000,
      "taf_visibility_m": 5000,
      "worst_visibility_m": 5000,
      "ceiling_ft": 500,
      "hazards": [
        "BR"
      ],
      "severityScore": 35,
      "metarRaw": "METAR EYPA 162020Z 16013KT 6000 OVC005 M06/M07 Q1029",
      "tafRaw": "TAF EYPA 161700Z 1618/1718 15012KT 5000 BR OVC005 \n  TEMPO 1618/1624 14015G25KT 8000 NSW OVC010 \n  PROB40 \n  TEMPO 1618/1624 SCT010 \n  BECMG 1700/1703 BKN010 \n  BECMG 1703/1706 8000 NSW NSC"
    },
    {
      "icao": "LRIA",
      "iata": "IAS",
      "name": "Iaşi Airport",
      "updatedAt": "162000Z",
      "visibility_m": 6000,
      "taf_visibility_m": 3000,
      "worst_visibility_m": 3000,
      "ceiling_ft": 500,
      "hazards": [
        "BR"
      ],
      "severityScore": 35,
      "metarRaw": "METAR LRIA 162000Z 27004KT 6000 NSC M13/M15 Q1036",
      "tafRaw": "TAF LRIA 162000Z 1621/1706 VRB04KT 5000 BR NSC \n  PROB30 \n  TEMPO 1621/1703 3000 BR \n  BECMG 1703/1705 3000 BR BKN005"
    },
    {
      "icao": "LRSV",
      "iata": "SCV",
      "name": "Suceava Stefan cel Mare Airport",
      "updatedAt": "162000Z",
      "visibility_m": 10000,
      "taf_visibility_m": 3000,
      "worst_visibility_m": 3000,
      "ceiling_ft": 500,
      "hazards": [
        "BR"
      ],
      "severityScore": 35,
      "metarRaw": "METAR LRSV 162000Z 08004KT CAVOK M12/M14 Q1033",
      "tafRaw": "TAF LRSV 162000Z 1621/1706 06006KT CAVOK \n  TEMPO 1621/1706 3000 BR \n  PROB40 \n  TEMPO 1700/1706 BKN005"
    },
    {
      "icao": "ENZV",
      "iata": "SVG",
      "name": "Stavanger Airport, Sola",
      "updatedAt": "162020Z",
      "visibility_m": 10000,
      "taf_visibility_m": 10000,
      "worst_visibility_m": 10000,
      "ceiling_ft": 1900,
      "hazards": [
        "RA",
        "DZ"
      ],
      "severityScore": 34,
      "metarRaw": "METAR ENZV 162020Z 16003KT 9999 FEW013 BKN019 05/04 Q1013 NOSIG",
      "tafRaw": "TAF ENZV 161700Z 1618/1718 24012KT 9999 SCT010 BKN018 \n  PROB30 \n  TEMPO 1618/1619 -RADZ BKN008 \n  BECMG 1618/1620 15005KT"
    },
    {
      "icao": "LEMD",
      "iata": "MAD",
      "name": "Adolfo Suárez Madrid–Barajas Airport",
      "updatedAt": "162000Z",
      "visibility_m": 10000,
      "taf_visibility_m": 3000,
      "worst_visibility_m": 3000,
      "ceiling_ft": 4000,
      "hazards": [
        "BR",
        "RA",
        "DZ"
      ],
      "severityScore": 32,
      "metarRaw": "METAR LEMD 162000Z 22005KT 150V260 9999 SCT020 BKN040 07/04 Q1011 NOSIG",
      "tafRaw": "TAF LEMD 161700Z 1618/1724 VRB04KT 9999 SCT025 TX07/1714Z TN02/1708Z \n  TEMPO 1621/1714 DZRA \n  TEMPO 1700/1711 3000 BR BKN004 BKN010 \n  PROB40 \n  TEMPO 1715/1719 DZRA \n  PROB40 \n  TEMPO 1717/1724 BKN010"
    },
    {
      "icao": "LBSF",
      "iata": "SOF",
      "name": "Sofia Airport",
      "updatedAt": "162030Z",
      "visibility_m": 9000,
      "taf_visibility_m": null,
      "worst_visibility_m": 9000,
      "ceiling_ft": null,
      "hazards": [
        "SHRA",
        "RA"
      ],
      "severityScore": 31,
      "metarRaw": "METAR LBSF 162030Z AUTO 03004KT 340V070 9000 -SHRA FEW010/// OVC014/// 01/M02 Q1027 NOSIG",
      "tafRaw": null
    },
    {
      "icao": "EGGW",
      "iata": "LTN",
      "name": "London Luton Airport",
      "updatedAt": "162020Z",
      "visibility_m": 10000,
      "taf_visibility_m": null,
      "worst_visibility_m": 10000,
      "ceiling_ft": 900,
      "hazards": [],
      "severityScore": 30,
      "metarRaw": "METAR EGGW 162020Z AUTO 14008KT 9999 BKN009 07/06 Q1009",
      "tafRaw": null
    },
    {
      "icao": "LECH",
      "iata": "CDT",
      "name": "Castellón-Costa Azahar Airport",
      "updatedAt": "162000Z",
      "visibility_m": 6000,
      "taf_visibility_m": null,
      "worst_visibility_m": 6000,
      "ceiling_ft": 900,
      "hazards": [],
      "severityScore": 30,
      "metarRaw": "METAR LECH 162000Z AUTO 04003KT 010V070 6000 BKN009 BKN017 OVC060 09/09 Q1012",
      "tafRaw": null
    },
    {
      "icao": "LIRZ",
      "iata": "PEG",
      "name": "Perugia San Francesco d'Assisi – Umbria International Airport",
      "updatedAt": "162020Z",
      "visibility_m": 10000,
      "taf_visibility_m": 1500,
      "worst_visibility_m": 1500,
      "ceiling_ft": null,
      "hazards": [
        "FG"
      ],
      "severityScore": 30,
      "metarRaw": "METAR LIRZ 162020Z AUTO 29003KT 260V330 9999 NCD 04/04 Q1019",
      "tafRaw": "TAF LIRZ 161700Z 1618/1718 03005KT CAVOK \n  PROB40 \n  TEMPO 1703/1708 1500 BCFG"
    },
    {
      "icao": "GMMX",
      "iata": "RAK",
      "name": "Menara Airport",
      "updatedAt": "162030Z",
      "visibility_m": 8000,
      "taf_visibility_m": 3000,
      "worst_visibility_m": 3000,
      "ceiling_ft": 2000,
      "hazards": [
        "SHRA",
        "RA"
      ],
      "severityScore": 26,
      "metarRaw": "METAR GMMX 162030Z 25009KT 8000 SCT013 BKN020 12/10 Q1020 NOSIG",
      "tafRaw": "TAF GMMX 161700Z 1618/1724 26010KT 8000 SCT016 BKN023 \n  TEMPO 1618/1712 34017KT 3000 SHRA SCT013 BKN020 FEW030TCU \n  BECMG 1712/1716 04008KT 6000 NSW BKN023 SCT080"
    },
    {
      "icao": "ENVA",
      "iata": "TRD",
      "name": "Trondheim Airport, Værnes",
      "updatedAt": "162020Z",
      "visibility_m": 10000,
      "taf_visibility_m": 10000,
      "worst_visibility_m": 10000,
      "ceiling_ft": 2500,
      "hazards": [
        "SHRA",
        "RA"
      ],
      "severityScore": 26,
      "metarRaw": "METAR ENVA 162020Z 17010G21KT 120V210 CAVOK 06/M00 Q1006 NOSIG RMK WIND 670FT 18024KT",
      "tafRaw": "TAF ENVA 161700Z 1618/1718 13008KT 9999 FEW012 BKN050 \n  PROB30 \n  TEMPO 1618/1622 17015G25KT \n  TEMPO 1622/1709 21012KT SHRA SCT018CB BKN025"
    },
    {
      "icao": "LEMG",
      "iata": "AGP",
      "name": "Málaga-Costa del Sol Airport",
      "updatedAt": "162000Z",
      "visibility_m": 10000,
      "taf_visibility_m": 4000,
      "worst_visibility_m": 4000,
      "ceiling_ft": 5800,
      "hazards": [
        "SHRA",
        "RA"
      ],
      "severityScore": 26,
      "metarRaw": "METAR LEMG 162000Z 29003KT 240V330 9999 FEW038 BKN058 11/08 Q1013 NOSIG",
      "tafRaw": "TAF LEMG 161700Z 1618/1718 27006KT 9999 FEW030 SCT050 TX15/1714Z TN07/1707Z \n  PROB30 \n  TEMPO 1619/1623 4000 SHRA FEW030CB \n  BECMG 1710/1712 33010KT"
    },
    {
      "icao": "LICC",
      "iata": "CTA",
      "name": "Catania-Fontanarossa Airport",
      "updatedAt": "162020Z",
      "visibility_m": 6000,
      "taf_visibility_m": 4000,
      "worst_visibility_m": 4000,
      "ceiling_ft": 5000,
      "hazards": [
        "RA",
        "SHRA"
      ],
      "severityScore": 26,
      "metarRaw": "METAR LICC 162020Z 12004KT 6000 RA SCT020 BKN050 16/13 Q1018",
      "tafRaw": "TAF LICC 161700Z 1618/1718 06010KT 9999 SCT020 \n  TEMPO 1618/1703 4000 SHRA"
    },
    {
      "icao": "BIKF",
      "iata": "KEF",
      "name": "Keflavik International Airport",
      "updatedAt": "162000Z",
      "visibility_m": 10000,
      "taf_visibility_m": 10000,
      "worst_visibility_m": 10000,
      "ceiling_ft": 800,
      "hazards": [],
      "severityScore": 25,
      "metarRaw": "METAR BIKF 162000Z 03012KT CAVOK 01/M01 Q1007",
      "tafRaw": "TAF BIKF 161952Z 1621/1721 02015KT CAVOK TX06/1721Z TNM02/1706Z \n  BECMG 1623/1701 VRB02KT \n  BECMG 1709/1711 12012KT BKN020 \n  TEMPO 1711/1721 BKN008 \n  BECMG 1713/1715 12022G32KT"
    },
    {
      "icao": "GCTS",
      "iata": "TFS",
      "name": "Tenerife Sur Airport",
      "updatedAt": "162000Z",
      "visibility_m": 10000,
      "taf_visibility_m": 10000,
      "worst_visibility_m": 10000,
      "ceiling_ft": 3500,
      "hazards": [
        "TS"
      ],
      "severityScore": 25,
      "metarRaw": "METAR GCTS 162000Z 05004KT 010V080 9999 FEW030 18/12 Q1024 NOSIG",
      "tafRaw": "TAF GCTS 162000Z 1621/1721 05012KT 9999 BKN035 TX22/1714Z TN14/1706Z \n  TEMPO 1621/1703 VRB05KT \n  BECMG 1703/1705 30006KT"
    },
    {
      "icao": "LEAL",
      "iata": "ALC",
      "name": "Alicante-Elche Miguel Hernández Airport",
      "updatedAt": "162000Z",
      "visibility_m": 10000,
      "taf_visibility_m": 4000,
      "worst_visibility_m": 4000,
      "ceiling_ft": 1000,
      "hazards": [
        "RA"
      ],
      "severityScore": 24,
      "metarRaw": "METAR LEAL 162000Z 01006KT 330V060 CAVOK 14/09 Q1012 NOSIG",
      "tafRaw": "TAF LEAL 161700Z 1618/1718 VRB04KT 9999 FEW060 TX14/1713Z TN07/1706Z \n  PROB40 \n  TEMPO 1618/1624 4000 RA BKN010 \n  PROB30 \n  TEMPO 1702/1718 27009KT \n  PROB40 \n  TEMPO 1706/1718 RA BKN020"
    },
    {
      "icao": "LEZG",
      "iata": "ZAZ",
      "name": "Zaragoza Airport",
      "updatedAt": "162000Z",
      "visibility_m": 6000,
      "taf_visibility_m": 4000,
      "worst_visibility_m": 4000,
      "ceiling_ft": 1000,
      "hazards": [
        "RA"
      ],
      "severityScore": 24,
      "metarRaw": "METAR LEZG 162000Z 09002KT 6000 FEW008 SCT080 08/08 Q1012 NOSIG",
      "tafRaw": "TAF LEZG 161700Z 1618/1718 VRB04KT 9999 FEW040 TX09/1714Z TN04/1706Z \n  TEMPO 1618/1718 4000 RA BKN010 \n  BECMG 1706/1708 27007KT"
    },
    {
      "icao": "HESX",
      "iata": "SPX",
      "name": "Sphinx International Airport",
      "updatedAt": "162000Z",
      "visibility_m": 10000,
      "taf_visibility_m": 3000,
      "worst_visibility_m": 3000,
      "ceiling_ft": 2000,
      "hazards": [
        "BR",
        "RA"
      ],
      "severityScore": 22,
      "metarRaw": "METAR HESX 162000Z 02004KT CAVOK 12/08 Q1021 NOSIG",
      "tafRaw": "TAF HESX 161700Z 1618/1724 02010KT 9999 SCT025 SCT070 \n  TEMPO 1700/1708 3000 BR \n  PROB30 \n  TEMPO 1703/1706 4000 -RA BKN020"
    },
    {
      "icao": "LIMF",
      "iata": "TRN",
      "name": "Turin Airport",
      "updatedAt": "162020Z",
      "visibility_m": 2500,
      "taf_visibility_m": 2500,
      "worst_visibility_m": 2500,
      "ceiling_ft": 4000,
      "hazards": [
        "BR",
        "RA"
      ],
      "severityScore": 22,
      "metarRaw": "METAR LIMF 162020Z 28003KT 2500 -RA BR OVC040 07/05 Q1021",
      "tafRaw": "TAF LIMF 161700Z 1618/1718 VRB03KT 2500 -RA OVC040"
    },
    {
      "icao": "LIMJ",
      "iata": "GOA",
      "name": "Genoa Cristoforo Colombo Airport",
      "updatedAt": "162020Z",
      "visibility_m": 10000,
      "taf_visibility_m": 8000,
      "worst_visibility_m": 8000,
      "ceiling_ft": 7000,
      "hazards": [
        "RA",
        "DZ"
      ],
      "severityScore": 22,
      "metarRaw": "METAR LIMJ 162020Z 04015KT 9999 FEW030 SCT050 BKN070 10/07 Q1020",
      "tafRaw": "TAF LIMJ 161700Z 1618/1718 02014KT 8000 SCT030 \n  TEMPO 1618/1703 RA \n  TEMPO 1711/1715 DZ \n  TEMPO 1715/1718 02015G25KT"
    },
    {
      "icao": "LIPZ",
      "iata": "VCE",
      "name": "Venice Marco Polo Airport",
      "updatedAt": "162020Z",
      "visibility_m": 4500,
      "taf_visibility_m": 3000,
      "worst_visibility_m": 3000,
      "ceiling_ft": 1800,
      "hazards": [
        "BR"
      ],
      "severityScore": 22,
      "metarRaw": "METAR LIPZ 162020Z 21003KT 4500 BR BKN018 07/06 Q1023 NOSIG",
      "tafRaw": "TAF LIPZ 161700Z 1618/1724 VRB04KT 6000 SCT030 \n  TEMPO 1621/1706 3000 BR BKN010 \n  BECMG 1718/1720 04010KT"
    },
    {
      "icao": "LJLJ",
      "iata": "LJU",
      "name": "Ljubljana Jože Pučnik Airport",
      "updatedAt": "162000Z",
      "visibility_m": 10000,
      "taf_visibility_m": 2000,
      "worst_visibility_m": 2000,
      "ceiling_ft": 4000,
      "hazards": [
        "BR",
        "RA"
      ],
      "severityScore": 22,
      "metarRaw": "METAR LJLJ 162000Z VRB01KT 9999 OVC040 03/03 Q1022 NOSIG",
      "tafRaw": "TAF LJLJ 161700Z 1618/1718 30004KT 9999 FEW020 BKN040 \n  TEMPO 1621/1718 4000 BR \n  PROB40 \n  TEMPO 1621/1718 2000 -RA BR BKN013 OVC025"
    },
    {
      "icao": "LATI",
      "iata": "TIA",
      "name": "Tirana International Airport Mother Teresa",
      "updatedAt": "162020Z",
      "visibility_m": 10000,
      "taf_visibility_m": 2000,
      "worst_visibility_m": 2000,
      "ceiling_ft": 9400,
      "hazards": [
        "FG"
      ],
      "severityScore": 20,
      "metarRaw": "METAR LATI 162020Z VRB01KT 9999 BKN094 10/06 Q1022 NOSIG",
      "tafRaw": "TAF LATI 161700Z 1618/1718 VRB05KT CAVOK TX17/1712Z TN05/1705Z \n  PROB40 1621/1705 2000 BCFG NSC"
    },
    {
      "icao": "LIRP",
      "iata": "PSA",
      "name": "Pisa International Airport",
      "updatedAt": "162015Z",
      "visibility_m": 6000,
      "taf_visibility_m": 10000,
      "worst_visibility_m": 6000,
      "ceiling_ft": null,
      "hazards": [
        "FG"
      ],
      "severityScore": 20,
      "metarRaw": "METAR LIRP 162015Z COR 12003KT 6000 MIFG SCT003 08/08 Q1019 NOSIG",
      "tafRaw": "TAF LIRP 161700Z 1618/1718 12005KT CAVOK"
    },
    {
      "icao": "EPMO",
      "iata": "WMI",
      "name": "Modlin Airport",
      "updatedAt": "162030Z",
      "visibility_m": 5000,
      "taf_visibility_m": null,
      "worst_visibility_m": 5000,
      "ceiling_ft": null,
      "hazards": [
        "BR"
      ],
      "severityScore": 15,
      "metarRaw": "METAR EPMO 162030Z 11007KT 5000 BR NSC M07/M09 Q1029",
      "tafRaw": null
    },
    {
      "icao": "GCFV",
      "iata": "FUE",
      "name": "Fuerteventura Airport",
      "updatedAt": "162000Z",
      "visibility_m": 10000,
      "taf_visibility_m": 4500,
      "worst_visibility_m": 4500,
      "ceiling_ft": 2500,
      "hazards": [
        "RA"
      ],
      "severityScore": 12,
      "metarRaw": "METAR GCFV 162000Z 35013KT 9999 BKN025 17/14 Q1023",
      "tafRaw": "TAF GCFV 162000Z 1621/1721 36010KT 9999 SCT035 TX20/1714Z TN15/1706Z \n  PROB30 \n  TEMPO 1715/1718 4500 RA"
    },
    {
      "icao": "GMMN",
      "iata": "CMN",
      "name": "Mohammed V International Airport",
      "updatedAt": "162000Z",
      "visibility_m": 5000,
      "taf_visibility_m": 3000,
      "worst_visibility_m": 3000,
      "ceiling_ft": 2000,
      "hazards": [
        "RA"
      ],
      "severityScore": 12,
      "metarRaw": "METAR GMMN 162000Z 27016KT 220V300 6000 -RA SCT008 BKN020 11/10 Q1018 TEMPO 5000 RA",
      "tafRaw": "TAF GMMN 161700Z 1618/1724 24010KT 9999 BKN009 BKN020 \n  TEMPO 1618/1718 3000 RA BKN003 BKN015TCU"
    },
    {
      "icao": "EHBK",
      "iata": "MST",
      "name": "Maastricht Aachen Airport",
      "updatedAt": "162025Z",
      "visibility_m": 10000,
      "taf_visibility_m": 7000,
      "worst_visibility_m": 7000,
      "ceiling_ft": 3500,
      "hazards": [
        "RA"
      ],
      "severityScore": 12,
      "metarRaw": "METAR EHBK 162025Z AUTO 14004KT 9999 NSC 08/07 Q1015 NOSIG",
      "tafRaw": "TAF EHBK 161706Z 1618/1724 16005KT 9999 BKN035 \n  PROB30 \n  TEMPO 1622/1702 7000 RA"
    },
    {
      "icao": "ENAL",
      "iata": "AES",
      "name": "Ålesund Airport, Vigra",
      "updatedAt": "162020Z",
      "visibility_m": 10000,
      "taf_visibility_m": 10000,
      "worst_visibility_m": 10000,
      "ceiling_ft": 2800,
      "hazards": [
        "RA"
      ],
      "severityScore": 12,
      "metarRaw": "METAR ENAL 162020Z 21008KT 9999 -RA FEW004 SCT021 BKN028 05/03 Q1009",
      "tafRaw": "TAF ENAL 161700Z 1618/1703 19010KT 9999 FEW020 BKN040 \n  TEMPO 1619/1622 RA BKN012"
    },
    {
      "icao": "EPSY",
      "iata": "SZY",
      "name": "Olsztyn-Mazury Airport",
      "updatedAt": "162030Z",
      "visibility_m": 6000,
      "taf_visibility_m": 6000,
      "worst_visibility_m": 6000,
      "ceiling_ft": 1200,
      "hazards": [],
      "severityScore": 12,
      "metarRaw": "METAR EPSY 162030Z 15005KT 110V180 6000 BKN012 M11/M13 Q1030",
      "tafRaw": "TAF EPSY 162030Z 1621/1706 14008KT 6000 BKN010"
    },
    {
      "icao": "LEBB",
      "iata": "BIO",
      "name": "Bilbao Airport",
      "updatedAt": "162000Z",
      "visibility_m": 10000,
      "taf_visibility_m": 3000,
      "worst_visibility_m": 3000,
      "ceiling_ft": 6700,
      "hazards": [
        "RA"
      ],
      "severityScore": 12,
      "metarRaw": "METAR LEBB 162000Z VRB01KT 9999 SCT055 BKN067 10/06 Q1011 NOSIG",
      "tafRaw": "TAF LEBB 161700Z 1618/1718 12006KT 9999 FEW045 TX11/1714Z TN06/1707Z \n  PROB30 \n  TEMPO 1619/1704 3000 RA \n  PROB40 1712/1718 31010KT"
    },
    {
      "icao": "LEVC",
      "iata": "VLC",
      "name": "Valencia Airport",
      "updatedAt": "162000Z",
      "visibility_m": 10000,
      "taf_visibility_m": 4000,
      "worst_visibility_m": 4000,
      "ceiling_ft": 5000,
      "hazards": [
        "RA"
      ],
      "severityScore": 12,
      "metarRaw": "METAR LEVC 162000Z 31005KT 9999 FEW015 SCT042 BKN050 11/09 Q1012 NOSIG",
      "tafRaw": "TAF LEVC 161700Z 1618/1718 VRB04KT 9999 FEW030 TX13/1712Z TN04/1706Z \n  TEMPO 1618/1706 4000 RA BKN015 \n  TEMPO 1706/1717 27009KT"
    },
    {
      "icao": "LEXJ",
      "iata": "SDR",
      "name": "Seve Ballesteros-Santander Airport",
      "updatedAt": "162000Z",
      "visibility_m": 10000,
      "taf_visibility_m": 3000,
      "worst_visibility_m": 3000,
      "ceiling_ft": 5000,
      "hazards": [
        "RA"
      ],
      "severityScore": 12,
      "metarRaw": "METAR LEXJ 162000Z 25006KT 200V280 9999 RA BKN050 OVC055 09/07 Q1012",
      "tafRaw": "TAF LEXJ 162000Z 1621/1721 22007KT 9999 FEW030 BKN040 TX11/1714Z TN06/1705Z \n  PROB40 \n  TEMPO 1621/1701 RA \n  PROB30 \n  TEMPO 1709/1715 RA \n  PROB40 \n  TEMPO 1715/1721 3000 RA BKN010"
    },
    {
      "icao": "LFLS",
      "iata": "GNB",
      "name": "Grenoble Alpes Isère Airport",
      "updatedAt": "162030Z",
      "visibility_m": 10000,
      "taf_visibility_m": 10000,
      "worst_visibility_m": 10000,
      "ceiling_ft": 5000,
      "hazards": [
        "RA"
      ],
      "severityScore": 12,
      "metarRaw": "METAR LFLS 162030Z AUTO 15004KT CAVOK 10/03 Q1015",
      "tafRaw": "TAF LFLS 161400Z 1615/1715 16008KT CAVOK \n  PROB30 \n  TEMPO 1621/1623 23008KT -RA BKN060 \n  BECMG 1704/1706 07008KT RA BKN050"
    },
    {
      "icao": "LFMN",
      "iata": "NCE",
      "name": "Nice-Côte d'Azur Airport",
      "updatedAt": "162030Z",
      "visibility_m": 10000,
      "taf_visibility_m": 10000,
      "worst_visibility_m": 10000,
      "ceiling_ft": 3200,
      "hazards": [
        "RA"
      ],
      "severityScore": 12,
      "metarRaw": "METAR LFMN 162030Z 35007KT 310V070 9999 -RA FEW019 SCT025 BKN032 11/07 Q1018 TEMPO 07010KT RA",
      "tafRaw": "TAF LFMN 162000Z 1621/1803 01012KT 9999 SCT040 BKN100 \n  TEMPO 1621/1704 08017KT \n  TEMPO 1621/1710 RA BKN020 \n  BECMG 1712/1714 08015KT \n  TEMPO 1716/1802 09025KT NSC"
    },
    {
      "icao": "LGAV",
      "iata": "ATH",
      "name": "Athens Eleftherios Venizelos International Airport",
      "updatedAt": "162020Z",
      "visibility_m": 10000,
      "taf_visibility_m": 5000,
      "worst_visibility_m": 5000,
      "ceiling_ft": 4000,
      "hazards": [
        "RA"
      ],
      "severityScore": 12,
      "metarRaw": "METAR LGAV 162020Z 26003KT 9999 FEW025 BKN040 10/06 Q1022 NOSIG",
      "tafRaw": "TAF LGAV 161700Z 1618/1718 04012KT 9999 FEW018 BKN025 \n  BECMG 1703/1705 03018G28KT \n  PROB30 \n  TEMPO 1703/1712 5000 RA SCT010 BKN020"
    },
    {
      "icao": "LICA",
      "iata": "SUF",
      "name": "Lamezia Terme Sant'Eufemia International Airport",
      "updatedAt": "162020Z",
      "visibility_m": 10000,
      "taf_visibility_m": 10000,
      "worst_visibility_m": 10000,
      "ceiling_ft": null,
      "hazards": [
        "RA"
      ],
      "severityScore": 12,
      "metarRaw": "METAR LICA 162020Z AUTO 07010KT 9999 NCD 14/11 Q1019",
      "tafRaw": "TAF LICA 161700Z 1618/1718 08012KT 9999 SCT040 \n  TEMPO 1700/1705 RA \n  TEMPO 1712/1718 08015G25KT"
    },
    {
      "icao": "LICJ",
      "iata": "PMO",
      "name": "Falcone–Borsellino Airport",
      "updatedAt": "162020Z",
      "visibility_m": 10000,
      "taf_visibility_m": 10000,
      "worst_visibility_m": 10000,
      "ceiling_ft": null,
      "hazards": [
        "RA"
      ],
      "severityScore": 12,
      "metarRaw": "METAR LICJ 162020Z 11019KT 9999 -RA SCT065 16/07 Q1016",
      "tafRaw": "TAF LICJ 161700Z 1618/1718 VRB06KT 9999 SCT040 \n  TEMPO 1621/1701 RA \n  BECMG 1709/1711 03010KT"
    },
    {
      "icao": "LLBG",
      "iata": "TLV",
      "name": "Ben Gurion International Airport",
      "updatedAt": "162020Z",
      "visibility_m": 10000,
      "taf_visibility_m": 8000,
      "worst_visibility_m": 8000,
      "ceiling_ft": 3000,
      "hazards": [
        "RA"
      ],
      "severityScore": 12,
      "metarRaw": "METAR LLBG 162020Z VRB02KT CAVOK 12/08 Q1020 NOSIG",
      "tafRaw": "TAF LLBG 161714Z 1618/1718 VRB04KT 9999 SCT040 \n  BECMG 1708/1710 25010KT SCT035 \n  PROB30 \n  TEMPO 1712/1718 8000 RA BKN030 TX19/1711Z TN08/1704Z"
    },
    {
      "icao": "LWOH",
      "iata": "OHD",
      "name": "Ohrid St. Paul the Apostle Airport",
      "updatedAt": "161950Z",
      "visibility_m": 10000,
      "taf_visibility_m": 5000,
      "worst_visibility_m": 5000,
      "ceiling_ft": 8000,
      "hazards": [
        "RA"
      ],
      "severityScore": 12,
      "metarRaw": "METAR LWOH 161950Z 33008KT 9999 SCT033 BKN080 06/03 Q1022",
      "tafRaw": "TAF LWOH 161730Z 1618/1718 VRB02KT 9999 SCT030 BKN080 \n  TEMPO 1705/1714 5000 RA SCT010 OVC030"
    },
    {
      "icao": "LYNI",
      "iata": "INI",
      "name": "Niš Constantine the Great Airport",
      "updatedAt": "162000Z",
      "visibility_m": 10000,
      "taf_visibility_m": 10000,
      "worst_visibility_m": 10000,
      "ceiling_ft": 1300,
      "hazards": [],
      "severityScore": 12,
      "metarRaw": "METAR LYNI 162000Z VRB02KT CAVOK M01/M03 Q1028 NOSIG",
      "tafRaw": "TAF LYNI 161700Z 1618/1718 05007KT 9999 FEW017 SCT050 TX03/1712Z TNM01/1706Z \n  PROB30 \n  TEMPO 1618/1702 BKN013 BKN040"
    },
    {
      "icao": "GCLP",
      "iata": "LPA",
      "name": "Gran Canaria Airport",
      "updatedAt": "162000Z",
      "visibility_m": 10000,
      "taf_visibility_m": 4500,
      "worst_visibility_m": 4500,
      "ceiling_ft": 3000,
      "hazards": [
        "DZ"
      ],
      "severityScore": 10,
      "metarRaw": "METAR GCLP 162000Z 02020KT 9999 FEW020 BKN030 18/15 Q1024 REDZ NOSIG",
      "tafRaw": "TAF GCLP 162000Z 1621/1721 01018KT 9999 SCT030 TX21/1714Z TN15/1706Z \n  PROB40 \n  TEMPO 1621/1706 01020G30KT \n  PROB40 \n  TEMPO 1710/1719 36020G30KT \n  PROB30 \n  TEMPO 1714/1717 4500 DZ"
    },
    {
      "icao": "EPLB",
      "iata": "LUZ",
      "name": "Lublin Airport",
      "updatedAt": "162030Z",
      "visibility_m": 10000,
      "taf_visibility_m": 4000,
      "worst_visibility_m": 4000,
      "ceiling_ft": null,
      "hazards": [
        "BR"
      ],
      "severityScore": 10,
      "metarRaw": "METAR EPLB 162030Z 10007KT CAVOK M12/M15 Q1031",
      "tafRaw": "TAF EPLB 161730Z 1618/1718 11008KT 8000 NSC \n  PROB40 1618/1707 4000 BR"
    },
    {
      "icao": "LEZL",
      "iata": "SVQ",
      "name": "Sevilla Airport",
      "updatedAt": "162000Z",
      "visibility_m": 10000,
      "taf_visibility_m": 3000,
      "worst_visibility_m": 3000,
      "ceiling_ft": null,
      "hazards": [
        "BR"
      ],
      "severityScore": 10,
      "metarRaw": "METAR LEZL 162000Z 00000KT CAVOK 10/10 Q1014 NOSIG",
      "tafRaw": "TAF LEZL 162000Z 1621/1721 VRB03KT CAVOK TX14/1715Z TN04/1707Z \n  PROB30 \n  TEMPO 1703/1709 3000 BR"
    },
    {
      "icao": "LIPH",
      "iata": "TSF",
      "name": "Treviso Antonio Canova Airport",
      "updatedAt": "162020Z",
      "visibility_m": 5000,
      "taf_visibility_m": 7000,
      "worst_visibility_m": 5000,
      "ceiling_ft": null,
      "hazards": [
        "BR"
      ],
      "severityScore": 10,
      "metarRaw": "METAR LIPH 162020Z VRB01KT 5000 BR SCT015 06/05 Q1023",
      "tafRaw": "TAF LIPH 161700Z 1618/1718 VRB04KT 7000 SCT040"
    },
    {
      "icao": "LRBS",
      "iata": "BBU",
      "name": "Bucharest Băneasa Aurel Vlaicu International Airport",
      "updatedAt": "162000Z",
      "visibility_m": 10000,
      "taf_visibility_m": 3000,
      "worst_visibility_m": 3000,
      "ceiling_ft": null,
      "hazards": [
        "BR"
      ],
      "severityScore": 10,
      "metarRaw": "METAR LRBS 162000Z 00000KT CAVOK M05/M08 Q1034 NOSIG",
      "tafRaw": "TAF LRBS 161700Z 1618/1718 VRB04KT CAVOK \n  PROB40 \n  TEMPO 1623/1707 3000 BR \n  BECMG 1709/1711 07012KT"
    },
    {
      "icao": "LROP",
      "iata": "OTP",
      "name": "Bucharest Henri Coandă International Airport",
      "updatedAt": "162000Z",
      "visibility_m": 10000,
      "taf_visibility_m": 3000,
      "worst_visibility_m": 3000,
      "ceiling_ft": null,
      "hazards": [
        "BR"
      ],
      "severityScore": 10,
      "metarRaw": "METAR LROP 162000Z 00000KT CAVOK M05/M09 Q1034 NOSIG",
      "tafRaw": "TAF LROP 161700Z 1618/1718 VRB04KT CAVOK \n  PROB40 \n  TEMPO 1623/1707 3000 BR \n  BECMG 1709/1711 07012KT"
    },
    {
      "icao": "LRSB",
      "iata": "SBZ",
      "name": "Sibiu International Airport",
      "updatedAt": "162000Z",
      "visibility_m": 10000,
      "taf_visibility_m": 3000,
      "worst_visibility_m": 3000,
      "ceiling_ft": 3400,
      "hazards": [
        "BR"
      ],
      "severityScore": 10,
      "metarRaw": "METAR LRSB 162000Z 13009KT 9999 BKN034 OVC039 00/M03 Q1027",
      "tafRaw": "TAF LRSB 161700Z 1618/1718 10010KT 9999 SCT020 OVC035 \n  BECMG 1622/1624 VRB04KT \n  PROB40 \n  TEMPO 1702/1707 3000 BR"
    },
    {
      "icao": "LZKZ",
      "iata": "KSC",
      "name": "Košice International Airport",
      "updatedAt": "162030Z",
      "visibility_m": 10000,
      "taf_visibility_m": 2500,
      "worst_visibility_m": 2500,
      "ceiling_ft": 4600,
      "hazards": [
        "BR"
      ],
      "severityScore": 10,
      "metarRaw": "METAR LZKZ 162030Z 31005KT 240V350 9999 SCT035 BKN046 03/M01 Q1028 NOSIG",
      "tafRaw": "TAF LZKZ 161715Z 1618/1718 01005KT 9999 BKN015 OVC030 \n  TEMPO 1703/1709 2500 BR BKN009 OVC014 \n  BECMG 1709/1711 SCT020"
    },
    {
      "icao": "UDYZ",
      "iata": "EVN",
      "name": "Zvartnots International Airport",
      "updatedAt": "162000Z",
      "visibility_m": 10000,
      "taf_visibility_m": 2300,
      "worst_visibility_m": 2300,
      "ceiling_ft": null,
      "hazards": [
        "BR"
      ],
      "severityScore": 10,
      "metarRaw": "METAR UDYZ 162000Z 05003KT 9999 NSC M04/M10 Q1022 NOSIG",
      "tafRaw": "TAF UDYZ 161700Z 1618/1718 VRB06KT 9999 FEW040 \n  TEMPO 1700/1706 2300 BR"
    },
    {
      "icao": "BKPR",
      "iata": "PRN",
      "name": "Priština Adem Jashari International Airport",
      "updatedAt": "162030Z",
      "visibility_m": 10000,
      "taf_visibility_m": null,
      "worst_visibility_m": 10000,
      "ceiling_ft": null,
      "hazards": [],
      "severityScore": 5,
      "metarRaw": "METAR BKPR 162030Z 35014KT CAVOK 02/01 Q1024 NOSIG",
      "tafRaw": null
    },
    {
      "icao": "LQBK",
      "iata": "BNX",
      "name": "Banja Luka International Airport",
      "updatedAt": "162000Z",
      "visibility_m": 10000,
      "taf_visibility_m": null,
      "worst_visibility_m": 10000,
      "ceiling_ft": null,
      "hazards": [],
      "severityScore": 5,
      "metarRaw": "METAR LQBK 162000Z 00000KT CAVOK 03/03 Q1023 NOSIG",
      "tafRaw": null
    },
    {
      "icao": "GMAD",
      "iata": "AGA",
      "name": "Al Massira Airport",
      "updatedAt": "162030Z",
      "visibility_m": 10000,
      "taf_visibility_m": 6000,
      "worst_visibility_m": 6000,
      "ceiling_ft": 2000,
      "hazards": [],
      "severityScore": 0,
      "metarRaw": "METAR GMAD 162030Z 19010KT 9999 SCT006 SCT023 14/14 Q1020 NOSIG",
      "tafRaw": "TAF GMAD 161800Z 1618/1724 20010KT 6000 SCT008 BKN020"
    },
    {
      "icao": "EDDH",
      "iata": "HAM",
      "name": "Hamburg Helmut Schmidt Airport",
      "updatedAt": "162020Z",
      "visibility_m": 10000,
      "taf_visibility_m": 10000,
      "worst_visibility_m": 10000,
      "ceiling_ft": 4800,
      "hazards": [],
      "severityScore": 0,
      "metarRaw": "METAR EDDH 162020Z AUTO 10003KT 9999 BKN048 08/06 Q1018 NOSIG",
      "tafRaw": "TAF EDDH 161700Z 1618/1724 06003KT 9999 SCT030 \n  BECMG 1705/1708 12008KT \n  BECMG 1714/1717 BKN007"
    },
    {
      "icao": "EDDK",
      "iata": "CGN",
      "name": "Cologne Bonn Airport",
      "updatedAt": "162020Z",
      "visibility_m": 10000,
      "taf_visibility_m": 10000,
      "worst_visibility_m": 10000,
      "ceiling_ft": 3000,
      "hazards": [],
      "severityScore": 0,
      "metarRaw": "METAR EDDK 162020Z AUTO 10003KT 070V190 9999 FEW043 07/05 Q1016 NOSIG",
      "tafRaw": "TAF EDDK 161700Z 1618/1724 12008KT 9999 BKN030 \n  TEMPO 1618/1621 VRB03KT"
    },
    {
      "icao": "EDDS",
      "iata": "STR",
      "name": "Stuttgart Airport",
      "updatedAt": "162020Z",
      "visibility_m": 10000,
      "taf_visibility_m": 10000,
      "worst_visibility_m": 10000,
      "ceiling_ft": null,
      "hazards": [],
      "severityScore": 0,
      "metarRaw": "METAR EDDS 162020Z AUTO VRB02KT CAVOK 03/00 Q1016 NOSIG",
      "tafRaw": "TAF EDDS 161700Z 1618/1718 VRB03KT CAVOK"
    },
    {
      "icao": "EDFH",
      "iata": "HHN",
      "name": "Frankfurt-Hahn Airport",
      "updatedAt": "162020Z",
      "visibility_m": 10000,
      "taf_visibility_m": 10000,
      "worst_visibility_m": 10000,
      "ceiling_ft": null,
      "hazards": [],
      "severityScore": 0,
      "metarRaw": "METAR EDFH 162020Z 13009KT CAVOK 06/04 Q1015",
      "tafRaw": "TAF EDFH 161700Z 1618/1718 16009KT CAVOK \n  BECMG 1622/1624 14014KT"
    },
    {
      "icao": "EDLW",
      "iata": "DTM",
      "name": "Dortmund Airport",
      "updatedAt": "162020Z",
      "visibility_m": 10000,
      "taf_visibility_m": 10000,
      "worst_visibility_m": 10000,
      "ceiling_ft": 3000,
      "hazards": [],
      "severityScore": 0,
      "metarRaw": "METAR EDLW 162020Z 13004KT 9999 SCT045 09/07 Q1016",
      "tafRaw": "TAF EDLW 161700Z 1618/1718 22005KT 9999 BKN030 \n  BECMG 1618/1620 14005KT"
    },
    {
      "icao": "ENTC",
      "iata": "TOS",
      "name": "Tromsø Airport, Langnes",
      "updatedAt": "162020Z",
      "visibility_m": 10000,
      "taf_visibility_m": 10000,
      "worst_visibility_m": 10000,
      "ceiling_ft": null,
      "hazards": [],
      "severityScore": 0,
      "metarRaw": "METAR ENTC 162020Z VRB01KT CAVOK M06/M08 Q1013 NOSIG RMK WIND 2600FT 13004KT",
      "tafRaw": "TAF ENTC 161700Z 1618/1718 02005KT CAVOK"
    },
    {
      "icao": "EYKA",
      "iata": "KUN",
      "name": "Kaunas International Airport",
      "updatedAt": "162020Z",
      "visibility_m": 10000,
      "taf_visibility_m": 6000,
      "worst_visibility_m": 6000,
      "ceiling_ft": null,
      "hazards": [],
      "severityScore": 0,
      "metarRaw": "METAR EYKA 162020Z 18009KT 120V240 CAVOK M11/M15 Q1034",
      "tafRaw": "TAF EYKA 161700Z 1618/1718 15010KT 6000 NSC \n  TEMPO 1618/1706 VRB04KT \n  PROB40 \n  TEMPO 1621/1706 SCT002 \n  BECMG 1715/1718 VRB04KT"
    },
    {
      "icao": "EYVI",
      "iata": "VNO",
      "name": "Vilnius International Airport",
      "updatedAt": "162020Z",
      "visibility_m": 10000,
      "taf_visibility_m": 6000,
      "worst_visibility_m": 6000,
      "ceiling_ft": null,
      "hazards": [],
      "severityScore": 0,
      "metarRaw": "METAR EYVI 162020Z 17008KT CAVOK M14/M17 Q1035 NOSIG",
      "tafRaw": "TAF EYVI 161700Z 1618/1718 15010KT 6000 NSC \n  TEMPO 1618/1708 VRB04KT \n  PROB40 \n  TEMPO 1621/1708 SCT002 \n  BECMG 1712/1714 VRB04KT \n  TEMPO 1715/1718 15010KT"
    },
    {
      "icao": "HEGN",
      "iata": "HRG",
      "name": "Hurghada International Airport",
      "updatedAt": "162000Z",
      "visibility_m": 10000,
      "taf_visibility_m": 10000,
      "worst_visibility_m": 10000,
      "ceiling_ft": null,
      "hazards": [],
      "severityScore": 0,
      "metarRaw": "METAR HEGN 162000Z 29009KT CAVOK 16/06 Q1019 NOSIG",
      "tafRaw": "TAF HEGN 161700Z 1618/1724 31010KT CAVOK"
    },
    {
      "icao": "HEMA",
      "iata": "RMF",
      "name": "Marsa Alam International Airport",
      "updatedAt": "162000Z",
      "visibility_m": 10000,
      "taf_visibility_m": 10000,
      "worst_visibility_m": 10000,
      "ceiling_ft": null,
      "hazards": [],
      "severityScore": 0,
      "metarRaw": "METAR HEMA 162000Z 29007KT CAVOK 16/09 Q1019 NOSIG",
      "tafRaw": "TAF HEMA 161700Z 1618/1724 33012KT 9999 SCT025"
    },
    {
      "icao": "HESH",
      "iata": "SSH",
      "name": "Sharm El Sheikh International Airport",
      "updatedAt": "162000Z",
      "visibility_m": 10000,
      "taf_visibility_m": 10000,
      "worst_visibility_m": 10000,
      "ceiling_ft": null,
      "hazards": [],
      "severityScore": 0,
      "metarRaw": "METAR HESH 162000Z 33006KT CAVOK 17/06 Q1017 NOSIG",
      "tafRaw": "TAF HESH 161700Z 1618/1724 33010KT CAVOK"
    },
    {
      "icao": "LBWN",
      "iata": "VAR",
      "name": "Varna Airport",
      "updatedAt": "162030Z",
      "visibility_m": 10000,
      "taf_visibility_m": 10000,
      "worst_visibility_m": 10000,
      "ceiling_ft": null,
      "hazards": [],
      "severityScore": 0,
      "metarRaw": "METAR LBWN 162030Z AUTO 33004KT 290V070 9999 FEW017/// M06/M09 Q1033 NOSIG",
      "tafRaw": "TAF LBWN 161700Z 1618/1718 35010KT 9999 SCT030"
    },
    {
      "icao": "LCLK",
      "iata": "LCA",
      "name": "Larnaca International Airport",
      "updatedAt": "162030Z",
      "visibility_m": 10000,
      "taf_visibility_m": 10000,
      "worst_visibility_m": 10000,
      "ceiling_ft": 7000,
      "hazards": [],
      "severityScore": 0,
      "metarRaw": "METAR LCLK 162030Z 31005KT 9999 FEW030 SCT045 BKN070 12/10 Q1020 NOSIG",
      "tafRaw": "TAF LCLK 161730Z 1618/1718 33006KT 9999 FEW025 \n  BECMG 1712/1714 03012KT"
    },
    {
      "icao": "LCPH",
      "iata": "PFO",
      "name": "Paphos International Airport",
      "updatedAt": "162030Z",
      "visibility_m": 10000,
      "taf_visibility_m": 10000,
      "worst_visibility_m": 10000,
      "ceiling_ft": 8000,
      "hazards": [],
      "severityScore": 0,
      "metarRaw": "METAR LCPH 162030Z VRB02KT 9999 SCT030 SCT037 BKN080 14/10 Q1020 NOSIG",
      "tafRaw": "TAF LCPH 161730Z 1618/1718 03007KT 9999 FEW025 \n  BECMG 1710/1712 15010KT"
    },
    {
      "icao": "LFSB",
      "iata": "BSL",
      "name": "EuroAirport Basel–Mulhouse–Freiburg",
      "updatedAt": "162030Z",
      "visibility_m": 10000,
      "taf_visibility_m": 10000,
      "worst_visibility_m": 10000,
      "ceiling_ft": null,
      "hazards": [],
      "severityScore": 0,
      "metarRaw": "METAR LFSB 162030Z AUTO 17003KT CAVOK 06/03 Q1016 NOSIG",
      "tafRaw": "TAF LFSB 161700Z 1618/1718 16005KT CAVOK"
    },
    {
      "icao": "LIBD",
      "iata": "BRI",
      "name": "Bari Karol Wojtyła International Airport",
      "updatedAt": "162020Z",
      "visibility_m": 8000,
      "taf_visibility_m": 10000,
      "worst_visibility_m": 8000,
      "ceiling_ft": null,
      "hazards": [],
      "severityScore": 0,
      "metarRaw": "METAR LIBD 162020Z 24004KT 8000 FEW015 SCT035 08/08 Q1021",
      "tafRaw": "TAF LIBD 161700Z 1618/1718 VRB05KT 9999 FEW030"
    },
    {
      "icao": "LIBG",
      "iata": "TAR",
      "name": "Taranto-Grottaglie Marcello Arlotta Airport",
      "updatedAt": null,
      "visibility_m": null,
      "taf_visibility_m": 8000,
      "worst_visibility_m": 8000,
      "ceiling_ft": null,
      "hazards": [],
      "severityScore": 0,
      "metarRaw": null,
      "tafRaw": "TAF LIBG 161700Z 1618/1703 VRB05KT 8000 FEW025"
    },
    {
      "icao": "LIRF",
      "iata": "FCO",
      "name": "Rome–Fiumicino Leonardo da Vinci International Airport",
      "updatedAt": "162020Z",
      "visibility_m": 10000,
      "taf_visibility_m": 10000,
      "worst_visibility_m": 10000,
      "ceiling_ft": null,
      "hazards": [],
      "severityScore": 0,
      "metarRaw": "METAR LIRF 162020Z 06003KT CAVOK 09/07 Q1018 NOSIG",
      "tafRaw": "TAF LIRF 161700Z 1618/1724 06007KT CAVOK \n  BECMG 1717/1719 12010KT"
    },
    {
      "icao": "LIRN",
      "iata": "NAP",
      "name": "Naples International Airport",
      "updatedAt": "162020Z",
      "visibility_m": 10000,
      "taf_visibility_m": 10000,
      "worst_visibility_m": 10000,
      "ceiling_ft": null,
      "hazards": [],
      "severityScore": 0,
      "metarRaw": "METAR LIRN 162020Z 33003KT CAVOK 09/04 Q1018 NOSIG",
      "tafRaw": "TAF LIRN 161700Z 1618/1718 05010KT CAVOK"
    },
    {
      "icao": "LRBC",
      "iata": "BCM",
      "name": "Bacău George Enescu International  Airport",
      "updatedAt": "162000Z",
      "visibility_m": 10000,
      "taf_visibility_m": 10000,
      "worst_visibility_m": 10000,
      "ceiling_ft": null,
      "hazards": [],
      "severityScore": 0,
      "metarRaw": "METAR LRBC 162000Z 04005KT CAVOK M10/M13 Q1035",
      "tafRaw": "TAF LRBC 162000Z 1621/1706 01005KT CAVOK"
    },
    {
      "icao": "LRBV",
      "iata": "GHV",
      "name": "Brașov-Ghimbav International Airport",
      "updatedAt": "162000Z",
      "visibility_m": 10000,
      "taf_visibility_m": 10000,
      "worst_visibility_m": 10000,
      "ceiling_ft": 2900,
      "hazards": [],
      "severityScore": 0,
      "metarRaw": "METAR LRBV 162000Z VRB03KT 9999 BKN029 BKN039 M05/M09 Q1030",
      "tafRaw": "TAF LRBV 162000Z 1621/1706 VRB04KT 9999 BKN030"
    },
    {
      "icao": "LRCL",
      "iata": "CLJ",
      "name": "Cluj Avram Iancu International Airport",
      "updatedAt": "162000Z",
      "visibility_m": 10000,
      "taf_visibility_m": 10000,
      "worst_visibility_m": 10000,
      "ceiling_ft": null,
      "hazards": [],
      "severityScore": 0,
      "metarRaw": "METAR LRCL 162000Z 12006KT 9999 FEW050 00/M07 Q1030",
      "tafRaw": "TAF LRCL 162000Z 1621/1706 12006KT 9999 SCT045"
    },
    {
      "icao": "LRCV",
      "iata": "CRA",
      "name": "Craiova International Airport",
      "updatedAt": "162000Z",
      "visibility_m": 10000,
      "taf_visibility_m": 10000,
      "worst_visibility_m": 10000,
      "ceiling_ft": 4800,
      "hazards": [],
      "severityScore": 0,
      "metarRaw": "METAR LRCV 162000Z 07004KT 9999 OVC048 M03/M06 Q1033",
      "tafRaw": "TAF LRCV 162000Z 1621/1706 08006KT 9999 OVC045"
    },
    {
      "icao": "LRSM",
      "iata": "SUJ",
      "name": "Satu Mare International Airport",
      "updatedAt": "162000Z",
      "visibility_m": 10000,
      "taf_visibility_m": 10000,
      "worst_visibility_m": 10000,
      "ceiling_ft": null,
      "hazards": [],
      "severityScore": 0,
      "metarRaw": "METAR LRSM 162000Z AUTO 11007KT 9999 OVC046/// 03/M03 Q1029",
      "tafRaw": "TAF LRSM 161400Z 1615/1624 10006KT CAVOK"
    },
    {
      "icao": "LRTM",
      "iata": "TGM",
      "name": "Târgu Mureş Transilvania International Airport",
      "updatedAt": "162000Z",
      "visibility_m": 10000,
      "taf_visibility_m": 10000,
      "worst_visibility_m": 10000,
      "ceiling_ft": null,
      "hazards": [],
      "severityScore": 0,
      "metarRaw": "METAR LRTM 162000Z AUTO 09005KT 9999 NCD M07/M10 Q1030",
      "tafRaw": "TAF LRTM 161400Z 1615/1624 VRB04KT 9999 SCT045"
    },
    {
      "icao": "LYBE",
      "iata": "BEG",
      "name": "Belgrade Nikola Tesla Airport",
      "updatedAt": "162000Z",
      "visibility_m": 10000,
      "taf_visibility_m": 10000,
      "worst_visibility_m": 10000,
      "ceiling_ft": null,
      "hazards": [],
      "severityScore": 0,
      "metarRaw": "METAR LYBE 162000Z 14012KT CAVOK 03/M02 Q1026 NOSIG",
      "tafRaw": "TAF LYBE 161700Z 1618/1718 12015KT CAVOK TX04/1712Z TNM00/1706Z \n  TEMPO 1700/1712 12015G28KT"
    },
    {
      "icao": "OEJN",
      "iata": "JED",
      "name": "King Abdulaziz International Airport",
      "updatedAt": "162000Z",
      "visibility_m": 10000,
      "taf_visibility_m": 4000,
      "worst_visibility_m": 4000,
      "ceiling_ft": null,
      "hazards": [],
      "severityScore": 0,
      "metarRaw": "METAR OEJN 162000Z 34004KT 9999 SCT040 24/13 Q1014 NOSIG",
      "tafRaw": "TAF OEJN 161700Z 1618/1724 34006KT 7000 FEW040 \n  PROB30 \n  TEMPO 1618/1704 4000 DU \n  BECMG 1708/1710 27012KT \n  BECMG 1718/1720 VRB03KT"
    },
    {
      "icao": "OEMA",
      "iata": "MED",
      "name": "Prince Mohammad Bin Abdulaziz Airport",
      "updatedAt": "162000Z",
      "visibility_m": 9000,
      "taf_visibility_m": 7000,
      "worst_visibility_m": 7000,
      "ceiling_ft": null,
      "hazards": [],
      "severityScore": 0,
      "metarRaw": "METAR OEMA 162000Z 36005KT 9000 NSC 18/02 Q1020 NOSIG",
      "tafRaw": "TAF OEMA 161700Z 1618/1724 08010KT 7000 NSC \n  BECMG 1710/1712 27006KT CAVOK"
    },
    {
      "icao": "OMAA",
      "iata": "AUH",
      "name": "Zayed International Airport",
      "updatedAt": "162000Z",
      "visibility_m": 10000,
      "taf_visibility_m": 8000,
      "worst_visibility_m": 8000,
      "ceiling_ft": null,
      "hazards": [],
      "severityScore": 0,
      "metarRaw": "METAR OMAA 162000Z 30010KT 9999 FEW040 19/10 Q1018 NOSIG",
      "tafRaw": "TAF OMAA 161700Z 1618/1800 32014KT 8000 FEW040 \n  PROB30 \n  TEMPO 1704/1713 32015G25KT"
    },
    {
      "icao": "OMDB",
      "iata": "DXB",
      "name": "Dubai International Airport",
      "updatedAt": "162030Z",
      "visibility_m": 10000,
      "taf_visibility_m": 8000,
      "worst_visibility_m": 8000,
      "ceiling_ft": null,
      "hazards": [],
      "severityScore": 0,
      "metarRaw": "METAR OMDB 162030Z 27011KT 230V300 9999 SCT040 20/10 Q1017 NOSIG",
      "tafRaw": "TAF OMDB 161700Z 1618/1800 28012KT 8000 SCT040 \n  PROB30 1701/1705 22007KT \n  BECMG 1716/1718 22006KT"
    }
  ],
  "stats": {
    "icaoCount": 159,
    "metarReturned": 158,
    "tafReturned": 148,
    "stationsWritten": 159,
    "missingMetar": 1,
    "missingTaf": 11
  },
  "errors": []
}