{
  "generatedAt": "2026-01-15T13:05:15.944Z",
  "stations": [
    {
      "icao": "BKPR",
      "iata": "PRN",
      "name": "Priština Adem Jashari International Airport",
      "updatedAt": "151300Z",
      "visibility_m": 10000,
      "taf_visibility_m": 150,
      "worst_visibility_m": 150,
      "ceiling_ft": 6000,
      "hazards": [
        "FZFG",
        "BR",
        "FG"
      ],
      "severityScore": 100,
      "metarRaw": "METAR BKPR 151300Z 01005KT 340V060 9999 FEW035 BKN060 12/05 Q1023 NOSIG",
      "tafRaw": "TAF BKPR 151130Z 1512/1612 30006KT 9999 BKN060 \n  BECMG 1520/1524 3000 BR \n  PROB30 1600/1608 0150 FZFG BKN002 \n  BECMG 1609/1611 9999 NSW"
    },
    {
      "icao": "EDDB",
      "iata": "BER",
      "name": "Berlin Brandenburg Airport",
      "updatedAt": "151250Z",
      "visibility_m": 1600,
      "taf_visibility_m": 500,
      "worst_visibility_m": 500,
      "ceiling_ft": 200,
      "hazards": [
        "BR",
        "FG"
      ],
      "severityScore": 100,
      "metarRaw": "METAR EDDB 151250Z AUTO 13006KT 5000 1600 BR BKN002 04/04 Q1014 BECMG SCT003",
      "tafRaw": "TAF EDDB 151100Z 1512/1612 14007KT 4000 BR BKN002 \n  PROB40 \n  TEMPO 1512/1514 0500 FG OVC001 \n  BECMG 1513/1515 CAVOK \n  PROB30 \n  TEMPO 1517/1524 0700 FG"
    },
    {
      "icao": "EGGP",
      "iata": "LPL",
      "name": "Liverpool John Lennon Airport",
      "updatedAt": "151220Z",
      "visibility_m": 10000,
      "taf_visibility_m": 300,
      "worst_visibility_m": 300,
      "ceiling_ft": 300,
      "hazards": [
        "FG",
        "BR"
      ],
      "severityScore": 100,
      "metarRaw": "METAR EGGP 151220Z 15004KT 110V210 9999 FEW038 05/04 Q0999",
      "tafRaw": "TAF EGGP 151056Z 1512/1612 16005KT 9999 FEW035 \n  BECMG 1512/1515 6000 \n  PROB30 1512/1515 4000 BR \n  TEMPO 1515/1606 3000 BR MIFG BKN003 \n  PROB30 1519/1606 0300 FG VV/// \n  BECMG 1606/1609 9999"
    },
    {
      "icao": "EGGW",
      "iata": "LTN",
      "name": "London Luton Airport",
      "updatedAt": "151250Z",
      "visibility_m": 10000,
      "taf_visibility_m": 300,
      "worst_visibility_m": 300,
      "ceiling_ft": 500,
      "hazards": [
        "RA",
        "FG",
        "SHRA"
      ],
      "severityScore": 100,
      "metarRaw": "METAR EGGW 151250Z AUTO 17007KT 130V200 9999 -RA OVC005 07/07 Q1000",
      "tafRaw": "TAF EGGW 151102Z 1512/1612 16010KT 9999 SCT004 BKN020 \n  TEMPO 1512/1522 6000 RA BKN003 \n  PROB30 \n  TEMPO 1512/1520 3000 +RA \n  TEMPO 1515/1520 17018G30KT \n  BECMG 1519/1522 26010KT \n  PROB40 \n  TEMPO 1522/1606 0300 FG BKN001 \n  BECMG 1602/1605 17008KT \n  PROB30 \n  TEMPO 1606/1610 0800 FG BKN001 \n  PROB30 \n  TEMPO 1610/1612 6000 SHRA BKN005"
    },
    {
      "icao": "EPKK",
      "iata": "KRK",
      "name": "Kraków John Paul II International Airport",
      "updatedAt": "151300Z",
      "visibility_m": 8000,
      "taf_visibility_m": 700,
      "worst_visibility_m": 700,
      "ceiling_ft": 200,
      "hazards": [
        "FG",
        "BR",
        "RA",
        "DZ"
      ],
      "severityScore": 100,
      "metarRaw": "METAR EPKK 151300Z 06006KT 8000 NSC 03/00 Q1019",
      "tafRaw": "TAF EPKK 151130Z 1512/1612 07005KT 5000 BR NSC \n  PROB30 \n  TEMPO 1512/1515 4500 BR \n  BECMG 1515/1518 4500 BR BKN012 \n  TEMPO 1515/1607 2000 -RADZ BR BKN004 \n  TEMPO 1606/1609 0700 FG BKN002 \n  TEMPO 1609/1612 1500 BR BKN004"
    },
    {
      "icao": "ESMS",
      "iata": "MMX",
      "name": "Malmö Sturup Airport",
      "updatedAt": "151250Z",
      "visibility_m": 8000,
      "taf_visibility_m": 600,
      "worst_visibility_m": 600,
      "ceiling_ft": 900,
      "hazards": [
        "FG",
        "BR",
        "RA",
        "DZ"
      ],
      "severityScore": 100,
      "metarRaw": "METAR ESMS 151250Z 14010KT 8000 OVC009 03/02 Q1013",
      "tafRaw": "TAF ESMS 151148Z 1512/1612 16010KT 9999 BKN010 \n  BECMG 1512/1514 2000 -RADZ BR BKN005 \n  TEMPO 1514/1517 1000 BKN003 \n  TEMPO 1517/1607 0600 FG BKN001 \n  BECMG 1607/1609 9999 NSW FEW020"
    },
    {
      "icao": "LBSF",
      "iata": "SOF",
      "name": "Sofia Airport",
      "updatedAt": "151300Z",
      "visibility_m": 10000,
      "taf_visibility_m": 600,
      "worst_visibility_m": 600,
      "ceiling_ft": 200,
      "hazards": [
        "FZFG",
        "BR",
        "FG"
      ],
      "severityScore": 100,
      "metarRaw": "METAR LBSF 151300Z 29014KT CAVOK 12/02 Q1022 NOSIG",
      "tafRaw": "TAF LBSF 151100Z 1512/1612 31010KT 9999 SCT060 \n  BECMG 1517/1519 VRB03KT \n  TEMPO 1600/1606 4000 BR SCT010 \n  PROB30 \n  TEMPO 1602/1607 0600 FZFG VV002"
    },
    {
      "icao": "LEZL",
      "iata": "SVQ",
      "name": "Sevilla Airport",
      "updatedAt": "151300Z",
      "visibility_m": 8000,
      "taf_visibility_m": 500,
      "worst_visibility_m": 500,
      "ceiling_ft": 400,
      "hazards": [
        "FG",
        "BR",
        "RA"
      ],
      "severityScore": 100,
      "metarRaw": "METAR LEZL 151300Z 33001KT 8000 OVC004 11/10 Q1021 NOSIG",
      "tafRaw": "TAF LEZL 150800Z 1509/1609 07003KT 0500 FG VV001 TX14/1515Z TN08/1607Z \n  BECMG 1509/1511 4000 BR BKN006 \n  BECMG 1511/1513 9999 NSW SCT020 \n  BECMG 1514/1516 22010KT \n  PROB30 \n  TEMPO 1521/1609 4000 RA BR BKN010"
    },
    {
      "icao": "LHBP",
      "iata": "BUD",
      "name": "Budapest Liszt Ferenc International Airport",
      "updatedAt": "151300Z",
      "visibility_m": 3200,
      "taf_visibility_m": 300,
      "worst_visibility_m": 300,
      "ceiling_ft": 10000,
      "hazards": [
        "BR",
        "FZFG",
        "FZRA",
        "FG",
        "RA",
        "DZ"
      ],
      "severityScore": 100,
      "metarRaw": "METAR LHBP 151300Z 08004KT 3200 BR SCT007 BKN100 M01/M03 Q1022 NOSIG",
      "tafRaw": "TAF LHBP 151115Z 1512/1612 09005KT 2500 BR OVC005 \n  TEMPO 1512/1516 5000 SCT008 BKN060 \n  TEMPO 1516/1612 0800 -FZRADZ FZFG OVC002 \n  PROB40 \n  TEMPO 1522/1609 0300 FZFG VV001"
    },
    {
      "icao": "LHDC",
      "iata": "DEB",
      "name": "Debrecen International Airport",
      "updatedAt": "151245Z",
      "visibility_m": 2800,
      "taf_visibility_m": 500,
      "worst_visibility_m": 500,
      "ceiling_ft": 800,
      "hazards": [
        "BR",
        "FZFG",
        "FZRA",
        "FG",
        "RA"
      ],
      "severityScore": 100,
      "metarRaw": "METAR LHDC 151245Z AUTO VRB02KT 2800 BR OVC008 01/00 Q1022 NOSIG",
      "tafRaw": "TAF LHDC 151115Z 1512/1521 VRB03KT 5000 BR SCT004 OVC035 \n  TEMPO 1512/1515 2000 BR BKN004 OVC035 \n  BECMG 1515/1518 0700 FZFG BKN002 OVC010 \n  TEMPO 1518/1521 0500 FZFG VV001 \n  PROB30 \n  TEMPO 1520/1521 -FZRA"
    },
    {
      "icao": "LIMC",
      "iata": "MXP",
      "name": "Milan Malpensa International Airport",
      "updatedAt": "151250Z",
      "visibility_m": 2000,
      "taf_visibility_m": 800,
      "worst_visibility_m": 800,
      "ceiling_ft": 600,
      "hazards": [
        "BR",
        "DZ",
        "FG",
        "RA"
      ],
      "severityScore": 100,
      "metarRaw": "METAR LIMC 151250Z VRB02KT 2000 -DZ BR BKN006 07/06 Q1021 NOSIG",
      "tafRaw": "TAF LIMC 151100Z 1512/1618 VRB05KT 0800 -RA FG BKN003 \n  TEMPO 1512/1520 4000 BR BKN050 \n  BECMG 1608/1610 3000 BR BKN050"
    },
    {
      "icao": "LIPR",
      "iata": "RMI",
      "name": "Federico Fellini International Airport",
      "updatedAt": "151250Z",
      "visibility_m": 4000,
      "taf_visibility_m": 300,
      "worst_visibility_m": 300,
      "ceiling_ft": 900,
      "hazards": [
        "BR",
        "FG"
      ],
      "severityScore": 100,
      "metarRaw": "METAR LIPR 151250Z 01005KT 4000 BR BKN009 08/06 Q1021",
      "tafRaw": "TAF LIPR 151100Z 1512/1612 VRB04KT 3000 BR SCT020 \n  TEMPO 1516/1609 0300 FG BKN001"
    },
    {
      "icao": "LKPR",
      "iata": "PRG",
      "name": "Václav Havel Airport Prague",
      "updatedAt": "151300Z",
      "visibility_m": 2800,
      "taf_visibility_m": 300,
      "worst_visibility_m": 300,
      "ceiling_ft": 2500,
      "hazards": [
        "BR",
        "FZFG",
        "RA",
        "FG"
      ],
      "severityScore": 100,
      "metarRaw": "METAR LKPR 151300Z 18003KT 2800 BR BKN025 04/04 Q1017 NOSIG",
      "tafRaw": "TAF LKPR 151100Z 1512/1618 12004KT 3000 BR BKN022 \n  TEMPO 1512/1516 2500 -RA BR SCT004 BKN012 \n  BECMG 1516/1518 1500 BR SCT002 \n  TEMPO 1518/1609 VRB02KT 0300 FZFG OVC002 \n  BECMG 1610/1612 4000 BR OVC005 \n  TEMPO 1612/1618 1800 BR OVC002"
    },
    {
      "icao": "LOWW",
      "iata": "VIE",
      "name": "Vienna International Airport",
      "updatedAt": "151250Z",
      "visibility_m": 3000,
      "taf_visibility_m": 300,
      "worst_visibility_m": 300,
      "ceiling_ft": 400,
      "hazards": [
        "BR",
        "FZFG",
        "FZDZ",
        "DZ",
        "FG"
      ],
      "severityScore": 100,
      "metarRaw": "METAR LOWW 151250Z VRB02KT 3000 BR FEW003 BKN004 M01/M02 Q1020 NOSIG",
      "tafRaw": "TAF LOWW 151115Z 1512/1618 15004KT 0800 FZFG FEW001 BKN002 TX00/1615Z TNM02/1512Z \n  TEMPO 1512/1516 1500 BR \n  PROB30 \n  TEMPO 1512/1516 -FZDZ \n  TEMPO 1516/1612 0500 VV001 \n  PROB40 \n  TEMPO 1523/1609 13008KT 0300 -FZDZ FZFG \n  PROB40 \n  TEMPO 1609/1618 -DZ \n  BECMG 1609/1611 13010KT 1200 BCFG"
    },
    {
      "icao": "LPPR",
      "iata": "OPO",
      "name": "Francisco de Sá Carneiro Airport",
      "updatedAt": "151300Z",
      "visibility_m": 3800,
      "taf_visibility_m": 1500,
      "worst_visibility_m": 1500,
      "ceiling_ft": 700,
      "hazards": [
        "BR",
        "RA",
        "SHRA",
        "TS",
        "DZ"
      ],
      "severityScore": 100,
      "metarRaw": "METAR LPPR 151300Z COR 18021KT 3800 RA BR BKN007 SCT013TCU OVC022 11/10 Q1012 WS RWY 17",
      "tafRaw": "TAF LPPR 151100Z 1512/1612 17020KT 8000 -RA SCT008 BKN015 \n  TEMPO 1512/1515 17023G35KT 3000 RADZ BR SCT002 BKN004 FEW018CB \n  PROB40 \n  TEMPO 1512/1515 17028G40KT 1500 +RA BKN002 \n  BECMG 1516/1518 31012KT 9999 NSW SCT018 \n  BECMG 1521/1523 VRB02KT \n  TEMPO 1522/1612 5000 SHRA BKN012 FEW018CB \n  PROB40 \n  TEMPO 1600/1612 VRB15G25KT 2000 +TSRAGS SCT016CB \n  BECMG 1608/1610 21010KT"
    },
    {
      "icao": "LRSB",
      "iata": "SBZ",
      "name": "Sibiu International Airport",
      "updatedAt": "151300Z",
      "visibility_m": 3000,
      "taf_visibility_m": 1500,
      "worst_visibility_m": 1500,
      "ceiling_ft": 800,
      "hazards": [
        "BR",
        "DZ",
        "FZRA",
        "RA"
      ],
      "severityScore": 100,
      "metarRaw": "METAR LRSB 151300Z VRB02KT 3000 -DZ BR OVC008 02/02 Q1021",
      "tafRaw": "TAF LRSB 151100Z 1512/1612 VRB04KT 5000 BR BKN010 OVC020 \n  TEMPO 1512/1518 3000 -RADZ BR BKN005 OVC015 \n  BECMG 1518/1520 3000 BR \n  TEMPO 1600/1606 1500 -FZRADZ BKN005 OVC010"
    },
    {
      "icao": "LRSV",
      "iata": "SCV",
      "name": "Suceava Stefan cel Mare Airport",
      "updatedAt": "151300Z",
      "visibility_m": 4000,
      "taf_visibility_m": 600,
      "worst_visibility_m": 600,
      "ceiling_ft": 500,
      "hazards": [
        "BR",
        "FZFG",
        "SN",
        "FG"
      ],
      "severityScore": 100,
      "metarRaw": "METAR LRSV 151300Z 00000KT 4000 BR OVC005 M05/M07 Q1020",
      "tafRaw": "TAF LRSV 151100Z 1512/1521 07005KT 5000 BR OVC010 \n  BECMG 1513/1515 3000 -SN BR OVC005 \n  TEMPO 1515/1521 0600 -SN FZFG BKN002 OVC005"
    },
    {
      "icao": "LRTR",
      "iata": "TSR",
      "name": "Timişoara Traian Vuia Airport",
      "updatedAt": "151300Z",
      "visibility_m": 7000,
      "taf_visibility_m": 800,
      "worst_visibility_m": 800,
      "ceiling_ft": 100,
      "hazards": [
        "FG",
        "BR",
        "RA",
        "DZ"
      ],
      "severityScore": 100,
      "metarRaw": "METAR LRTR 151300Z 08005KT 7000 NSC 04/02 Q1022",
      "tafRaw": "TAF LRTR 151100Z 1512/1612 VRB04KT 5000 BR BKN020 \n  BECMG 1519/1521 3000 -RA BR BKN010 OVC030 \n  TEMPO 1600/1606 1500 RA BR BKN002 OVC010 \n  PROB40 \n  TEMPO 1607/1612 0800 -DZRA FG OVC001"
    },
    {
      "icao": "LZTT",
      "iata": "TAT",
      "name": "Poprad-Tatry Airport",
      "updatedAt": "151300Z",
      "visibility_m": 10000,
      "taf_visibility_m": 500,
      "worst_visibility_m": 500,
      "ceiling_ft": 2000,
      "hazards": [
        "FZFG",
        "BR",
        "FZRA",
        "FG",
        "RA"
      ],
      "severityScore": 100,
      "metarRaw": "METAR LZTT 151300Z 07003KT 9999 FEW010 BKN020 02/M00 Q1018 NOSIG",
      "tafRaw": "TAF LZTT 151115Z 1512/1612 VRB02KT 9999 FEW009 SCT014 BKN025 \n  TEMPO 1512/1518 2800 BR BKN008 \n  PROB40 \n  TEMPO 1518/1600 1500 -FZRA BR OVC008 \n  TEMPO 1600/1608 0500 FZFG OVC002"
    },
    {
      "icao": "UAAA",
      "iata": "ALA",
      "name": "Almaty International Airport",
      "updatedAt": "151300Z",
      "visibility_m": 5000,
      "taf_visibility_m": 300,
      "worst_visibility_m": 300,
      "ceiling_ft": 800,
      "hazards": [
        "BR",
        "FZFG",
        "SN",
        "BLSN",
        "SHSN",
        "FG"
      ],
      "severityScore": 100,
      "metarRaw": "METAR UAAA 151300Z 35002MPS 5000 BR OVC008 M07/M08 Q1021 NOSIG",
      "tafRaw": "TAF UAAA 151110Z 1512/1612 34003G08MPS 1600 BR FU BKN011CB OVC020 TXM07/1608Z TNM10/1603Z \n  TEMPO 1512/1524 0500 -SN FZFG VV002 \n  TEMPO 1600/1605 0300 -SN FZFG VV001 \n  BECMG 1606/1607 3100 \n  BECMG 1609/1611 1500 -SHSN BR \n  TEMPO 1609/1612 28006G12MPS 0500 SHSN FZFG BLSN BKN004 OVC011CB"
    },
    {
      "icao": "EPSC",
      "iata": "SZZ",
      "name": "Solidarity Szczecin–Goleniów Airport",
      "updatedAt": "151300Z",
      "visibility_m": 10000,
      "taf_visibility_m": 500,
      "worst_visibility_m": 500,
      "ceiling_ft": 1800,
      "hazards": [
        "FG",
        "BR",
        "RA",
        "DZ"
      ],
      "severityScore": 99,
      "metarRaw": "METAR EPSC 151300Z 13012KT 9999 OVC018 02/01 Q1015",
      "tafRaw": "TAF EPSC 151130Z 1512/1612 14010KT 8000 OVC012 \n  BECMG 1512/1515 OVC005 \n  TEMPO 1515/1518 2500 -RADZ BR BKN002 \n  TEMPO 1518/1612 2000 BR BKN002 \n  PROB40 1523/1609 0500 FG"
    },
    {
      "icao": "EGNM",
      "iata": "LBA",
      "name": "Leeds Bradford Airport",
      "updatedAt": "151250Z",
      "visibility_m": 10000,
      "taf_visibility_m": 1200,
      "worst_visibility_m": 1200,
      "ceiling_ft": 100,
      "hazards": [
        "BR",
        "FG",
        "RA",
        "DZ"
      ],
      "severityScore": 97,
      "metarRaw": "METAR EGNM 151250Z 16004KT 9999 FEW015 06/04 Q0999",
      "tafRaw": "TAF EGNM 151056Z 1512/1612 17010KT 9999 FEW012 \n  BECMG 1512/1515 VRB04KT \n  TEMPO 1512/1610 7000 BKN008 \n  PROB30 \n  TEMPO 1512/1515 4000 BR \n  TEMPO 1515/1521 3000 RADZ BR BKN004 \n  PROB30 \n  TEMPO 1515/1521 1200 MIFG BKN001 \n  PROB30 \n  TEMPO 1521/1609 4000 BR BKN004 \n  BECMG 1610/1612 16010KT \n  PROB30 \n  TEMPO 1610/1612 8000 BKN006"
    },
    {
      "icao": "EKCH",
      "iata": "CPH",
      "name": "Copenhagen Kastrup Airport",
      "updatedAt": "151250Z",
      "visibility_m": 2500,
      "taf_visibility_m": 1200,
      "worst_visibility_m": 1200,
      "ceiling_ft": 400,
      "hazards": [
        "BR",
        "FG",
        "RA",
        "DZ"
      ],
      "severityScore": 97,
      "metarRaw": "METAR EKCH 151250Z 15014KT 8000 OVC004 04/03 Q1012 BECMG 2500 BR",
      "tafRaw": "TAF EKCH 151127Z 1512/1612 16017KT 9999 BKN008 \n  BECMG 1512/1514 1200 -RADZ BR BKN003 \n  TEMPO 1514/1522 5000 NSW BKN005 \n  BECMG 1600/1602 9999 NSW SCT005 \n  TEMPO 1602/1607 1500 BCFG BKN003"
    },
    {
      "icao": "EPWR",
      "iata": "WRO",
      "name": "Copernicus Wrocław Airport",
      "updatedAt": "151300Z",
      "visibility_m": 4000,
      "taf_visibility_m": 300,
      "worst_visibility_m": 300,
      "ceiling_ft": 4000,
      "hazards": [
        "BR",
        "FG",
        "RA",
        "DZ"
      ],
      "severityScore": 97,
      "metarRaw": "METAR EPWR 151300Z 13007KT 4000 BR BKN040 03/02 Q1017",
      "tafRaw": "TAF EPWR 151130Z 1512/1612 12007KT 5000 BR SCT045 \n  TEMPO 1512/1518 4000 -RA BR \n  PROB40 \n  TEMPO 1512/1518 2500 -DZRA BR BKN005 \n  TEMPO 1518/1521 1200 BR \n  BECMG 1521/1524 0800 FG BKN002 \n  TEMPO 1521/1609 0300 FG BKN001 \n  BECMG 1609/1612 8000 SCT012"
    },
    {
      "icao": "LPPT",
      "iata": "LIS",
      "name": "Lisbon Humberto Delgado Airport",
      "updatedAt": "151300Z",
      "visibility_m": 10000,
      "taf_visibility_m": 2000,
      "worst_visibility_m": 2000,
      "ceiling_ft": 1600,
      "hazards": [
        "RA",
        "BR",
        "SHRA",
        "TS",
        "DZ"
      ],
      "severityScore": 83,
      "metarRaw": "METAR LPPT 151300Z 21015KT 9999 -RA BKN016 13/11 Q1017",
      "tafRaw": "TAF LPPT 151100Z 1512/1618 22015KT 9999 FEW025 BKN035 \n  BECMG 1512/1514 8000 -RA SCT012 BKN018 \n  TEMPO 1514/1518 22018G30KT 3000 RADZ BR SCT002 BKN004 FEW020TCU \n  BECMG 1518/1520 33010KT 9999 NSW SCT015 \n  BECMG 1523/1601 28010KT \n  TEMPO 1601/1618 5000 SHRA BKN012 FEW018CB \n  PROB30 \n  TEMPO 1601/1618 VRB15G25KT 2000 +TSRAGS SCT015CB"
    },
    {
      "icao": "ENGM",
      "iata": "OSL",
      "name": "Oslo-Gardermoen International Airport",
      "updatedAt": "151250Z",
      "visibility_m": 1200,
      "taf_visibility_m": null,
      "worst_visibility_m": 1200,
      "ceiling_ft": 400,
      "hazards": [
        "BR",
        "SN"
      ],
      "severityScore": 78,
      "metarRaw": "METAR ENGM 151250Z VRB02KT 8000 1500NE -SN BKN005 M06/M07 Q1008 TEMPO 1200 -SN BR BKN004",
      "tafRaw": null
    },
    {
      "icao": "EKBI",
      "iata": "BLL",
      "name": "Billund Airport",
      "updatedAt": "151250Z",
      "visibility_m": 3600,
      "taf_visibility_m": 1200,
      "worst_visibility_m": 1200,
      "ceiling_ft": 200,
      "hazards": [
        "BR",
        "RA",
        "DZ"
      ],
      "severityScore": 77,
      "metarRaw": "METAR EKBI 151250Z AUTO 15009KT 3600 -RA BR OVC003/// 04/04 Q1007",
      "tafRaw": "TAF EKBI 151127Z 1512/1612 14010KT 1200 -RADZ BR OVC002 \n  TEMPO 1512/1523 5000 BKN005 \n  BECMG 1523/1601 9999 NSW SCT005 \n  TEMPO 1601/1609 4000 -RADZ BR BKN004 \n  TEMPO 1609/1612 BKN008"
    },
    {
      "icao": "EPKT",
      "iata": "KTW",
      "name": "Katowice Wojciech Korfanty International Airport",
      "updatedAt": "151300Z",
      "visibility_m": 8000,
      "taf_visibility_m": 700,
      "worst_visibility_m": 700,
      "ceiling_ft": 1400,
      "hazards": [
        "FG",
        "BR",
        "DZ"
      ],
      "severityScore": 77,
      "metarRaw": "METAR EPKT 151300Z 12003KT 8000 FEW011 BKN014 03/01 Q1018",
      "tafRaw": "TAF EPKT 151130Z 1512/1612 15004KT 7000 NSC \n  BECMG 1515/1518 4000 BR BKN008 \n  TEMPO 1515/1606 2000 -DZ BR BKN004 \n  TEMPO 1606/1609 0700 FG BKN002 \n  TEMPO 1609/1612 1500 BR BKN004"
    },
    {
      "icao": "EYPA",
      "iata": "PLQ",
      "name": "Palanga International Airport",
      "updatedAt": "151250Z",
      "visibility_m": 5000,
      "taf_visibility_m": 1500,
      "worst_visibility_m": 1500,
      "ceiling_ft": 3000,
      "hazards": [
        "BR",
        "SN",
        "FZDZ",
        "DZ"
      ],
      "severityScore": 76,
      "metarRaw": "METAR EYPA 151250Z 14007KT 5000 BR OVC030 M04/M06 Q1020",
      "tafRaw": "TAF EYPA 151109Z 1512/1612 15009KT 5000 BR SCT005 BKN015 \n  BECMG 1512/1514 BKN005 OVC010 \n  TEMPO 1514/1518 3000 SN -FZDZ BKN002 \n  PROB40 \n  TEMPO 1514/1518 1500 \n  BECMG 1518/1521 8000 NSW BKN020 \n  BECMG 1600/1603 SCT015 \n  TEMPO 1603/1609 FEW005"
    },
    {
      "icao": "LIBR",
      "iata": "BDS",
      "name": "Brindisi Airport",
      "updatedAt": "151250Z",
      "visibility_m": 10000,
      "taf_visibility_m": 1500,
      "worst_visibility_m": 1500,
      "ceiling_ft": 100,
      "hazards": [
        "BR",
        "FG"
      ],
      "severityScore": 75,
      "metarRaw": "METAR LIBR 151250Z 18006KT 140V220 9999 SCT030 15/09 Q1022",
      "tafRaw": "TAF LIBR 151100Z 1512/1612 VRB06KT 9999 FEW025 \n  TEMPO 1521/1607 1500 BCFG BKN001"
    },
    {
      "icao": "LIPE",
      "iata": "BLQ",
      "name": "Bologna Guglielmo Marconi Airport",
      "updatedAt": "151250Z",
      "visibility_m": 3000,
      "taf_visibility_m": 300,
      "worst_visibility_m": 300,
      "ceiling_ft": 5500,
      "hazards": [
        "BR",
        "FG"
      ],
      "severityScore": 75,
      "metarRaw": "METAR LIPE 151250Z VRB02KT 3000 BR FEW005 BKN055 06/05 Q1022",
      "tafRaw": "TAF LIPE 151100Z 1512/1612 VRB04KT 3000 BR BKN040 \n  TEMPO 1516/1609 0300 FG BKN001"
    },
    {
      "icao": "LIPQ",
      "iata": "TRS",
      "name": "Trieste–Friuli Venezia Giulia Airport",
      "updatedAt": "151250Z",
      "visibility_m": 9000,
      "taf_visibility_m": 1200,
      "worst_visibility_m": 1200,
      "ceiling_ft": 200,
      "hazards": [
        "BR",
        "FG"
      ],
      "severityScore": 75,
      "metarRaw": "METAR LIPQ 151250Z AUTO VRB02KT 9000 OVC014/// 10/07 Q1022",
      "tafRaw": "TAF LIPQ 151100Z 1512/1612 VRB04KT 7000 BKN035 \n  BECMG 1516/1518 3000 BR \n  TEMPO 1602/1606 1200 BCFG BKN002 \n  BECMG 1608/1610 8000"
    },
    {
      "icao": "EGKK",
      "iata": "LGW",
      "name": "London Gatwick Airport",
      "updatedAt": "151250Z",
      "visibility_m": 6000,
      "taf_visibility_m": 3000,
      "worst_visibility_m": 3000,
      "ceiling_ft": 700,
      "hazards": [
        "RA",
        "BR",
        "SHRA",
        "DZ"
      ],
      "severityScore": 71,
      "metarRaw": "METAR EGKK 151250Z 16008KT 6000 -RA BKN007 09/08 Q1001",
      "tafRaw": "TAF EGKK 151056Z 1512/1618 17012KT 9999 BKN015 \n  TEMPO 1512/1522 6000 -RADZ RA BKN010 \n  PROB40 \n  TEMPO 1512/1522 3000 RADZ +RA BKN006 \n  PROB40 \n  TEMPO 1513/1519 19020G32KT \n  BECMG 1517/1520 25010KT \n  PROB40 \n  TEMPO 1522/1604 5000 BR BKN005 \n  BECMG 1600/1603 19006KT \n  PROB40 \n  TEMPO 1604/1615 6000 SHRA BKN008 \n  BECMG 1614/1617 13010KT"
    },
    {
      "icao": "LZKZ",
      "iata": "KSC",
      "name": "Košice International Airport",
      "updatedAt": "151300Z",
      "visibility_m": 6000,
      "taf_visibility_m": 1000,
      "worst_visibility_m": 1000,
      "ceiling_ft": 1400,
      "hazards": [
        "BR",
        "FZDZ",
        "DZ"
      ],
      "severityScore": 70,
      "metarRaw": "METAR LZKZ 151300Z 00000KT 6000 OVC015 M00/M03 Q1022 TEMPO OVC014",
      "tafRaw": "TAF LZKZ 151115Z 1512/1612 VRB02KT 9999 SCT010 BKN025 \n  TEMPO 1512/1518 2800 BR BKN010 \n  TEMPO 1518/1606 1000 -FZDZ BR BKN005 \n  BECMG 1606/1607 03006KT 6000 FEW007 BKN018 \n  TEMPO 1606/1612 4000 BR BKN014"
    },
    {
      "icao": "EETN",
      "iata": "TLL",
      "name": "Lennart Meri Tallinn Airport",
      "updatedAt": "151250Z",
      "visibility_m": 10000,
      "taf_visibility_m": 3000,
      "worst_visibility_m": 3000,
      "ceiling_ft": 3800,
      "hazards": [
        "SN",
        "BR",
        "FZDZ",
        "DZ"
      ],
      "severityScore": 66,
      "metarRaw": "METAR EETN 151250Z 17012KT 9999 DRSN SCT008 OVC038 M09/M10 Q1019 NOSIG",
      "tafRaw": "TAF EETN 151130Z 1512/1612 17012KT 9999 BKN007 BKN035 \n  PROB30 \n  TEMPO 1512/1517 3000 SG \n  TEMPO 1517/1604 3000 -FZDZ BR BKN004 OVC025 \n  BECMG 1604/1606 OVC020 \n  TEMPO 1606/1612 BKN005 BKN015"
    },
    {
      "icao": "EGBB",
      "iata": "BHX",
      "name": "Birmingham Airport",
      "updatedAt": "151250Z",
      "visibility_m": 3000,
      "taf_visibility_m": null,
      "worst_visibility_m": 3000,
      "ceiling_ft": 200,
      "hazards": [
        "BR",
        "DZ"
      ],
      "severityScore": 60,
      "metarRaw": "METAR EGBB 151250Z 16002KT 3000 DZ BR BKN002 07/07 Q0999 REDZ",
      "tafRaw": null
    },
    {
      "icao": "LKMT",
      "iata": "OSR",
      "name": "Ostrava Leos Janáček Airport",
      "updatedAt": "151300Z",
      "visibility_m": 4500,
      "taf_visibility_m": 2500,
      "worst_visibility_m": 2500,
      "ceiling_ft": 1400,
      "hazards": [
        "BR",
        "FZDZ",
        "DZ"
      ],
      "severityScore": 60,
      "metarRaw": "METAR LKMT 151300Z 22007KT 4500 BR BKN014 OVC033 01/M00 Q1019 NOSIG",
      "tafRaw": "TAF LKMT 151100Z 1512/1612 22008KT 6000 BKN025 \n  TEMPO 1512/1518 4500 BR BKN018 \n  PROB30 \n  TEMPO 1512/1518 2500 -FZDZ BR BKN006 OVC014"
    },
    {
      "icao": "LRCL",
      "iata": "CLJ",
      "name": "Cluj Avram Iancu International Airport",
      "updatedAt": "151300Z",
      "visibility_m": 1500,
      "taf_visibility_m": 1500,
      "worst_visibility_m": 1500,
      "ceiling_ft": 1400,
      "hazards": [
        "BR",
        "DZ",
        "SN"
      ],
      "severityScore": 60,
      "metarRaw": "METAR LRCL 151300Z 00000KT 1500 R25/P2000 -DZ BR OVC014 01/M01 Q1022",
      "tafRaw": "TAF LRCL 151100Z 1512/1521 VRB04KT 1500 -SN BR BKN005 OVC015 \n  BECMG 1512/1514 3000 BR BKN010 OVC020"
    },
    {
      "icao": "LZIB",
      "iata": "BTS",
      "name": "M. R. Štefánik Airport",
      "updatedAt": "151300Z",
      "visibility_m": 1500,
      "taf_visibility_m": null,
      "worst_visibility_m": 1500,
      "ceiling_ft": 200,
      "hazards": [
        "BR"
      ],
      "severityScore": 60,
      "metarRaw": "METAR LZIB 151300Z 08005KT 2400 BR BKN003 BKN005 M01/M01 Q1021 TEMPO 1500 BR BKN002",
      "tafRaw": null
    },
    {
      "icao": "EFTU",
      "iata": "TKU",
      "name": "Turku Airport",
      "updatedAt": "151250Z",
      "visibility_m": 3600,
      "taf_visibility_m": null,
      "worst_visibility_m": 3600,
      "ceiling_ft": 300,
      "hazards": [
        "SN"
      ],
      "severityScore": 58,
      "metarRaw": "METAR EFTU 151250Z AUTO VRB04KT 3600 -SN OVC003 M02/M02 Q1015",
      "tafRaw": null
    },
    {
      "icao": "ENTO",
      "iata": "TRF",
      "name": "Sandefjord Airport, Torp",
      "updatedAt": "151250Z",
      "visibility_m": 2000,
      "taf_visibility_m": null,
      "worst_visibility_m": 2000,
      "ceiling_ft": 600,
      "hazards": [
        "BR",
        "SN"
      ],
      "severityScore": 58,
      "metarRaw": "METAR ENTO 151250Z 36002KT 5000 BR BKN010 OVC013 01/01 Q1007 TEMPO 2000 -SN BKN006",
      "tafRaw": null
    },
    {
      "icao": "LPMA",
      "iata": "FNC",
      "name": "Madeira International Airport Cristiano Ronaldo",
      "updatedAt": "151300Z",
      "visibility_m": 10000,
      "taf_visibility_m": 5000,
      "worst_visibility_m": 5000,
      "ceiling_ft": 1300,
      "hazards": [
        "BR",
        "SHRA",
        "RA",
        "DZ"
      ],
      "severityScore": 58,
      "metarRaw": "METAR LPMA 151300Z 21007KT 180V240 9999 FEW015 SCT030 18/11 Q1025",
      "tafRaw": "TAF LPMA 151100Z 1512/1612 VRB05KT 9999 SCT015 \n  TEMPO 1512/1522 BKN015 \n  TEMPO 1522/1603 5000 RADZ BR SCT008 BKN013 \n  BECMG 1601/1603 35013KT \n  PROB30 \n  TEMPO 1603/1612 35017G27KT 8000 SHRA BKN013 FEW020TCU"
    },
    {
      "icao": "LPPS",
      "iata": "PXO",
      "name": "Porto Santo Airport",
      "updatedAt": "151300Z",
      "visibility_m": 10000,
      "taf_visibility_m": 5000,
      "worst_visibility_m": 5000,
      "ceiling_ft": 1200,
      "hazards": [
        "BR",
        "SHRA",
        "RA",
        "DZ"
      ],
      "severityScore": 58,
      "metarRaw": "METAR LPPS 151300Z 29012KT 9999 FEW014 SCT030 17/12 Q1025",
      "tafRaw": "TAF LPPS 151100Z 1512/1618 30010KT 9999 SCT015 BKN030 \n  TEMPO 1519/1601 5000 RADZ BR SCT006 BKN012 \n  BECMG 1601/1603 34013KT SCT015 \n  PROB30 \n  TEMPO 1603/1618 8000 SHRA BKN012 FEW018CB"
    },
    {
      "icao": "LBWN",
      "iata": "VAR",
      "name": "Varna Airport",
      "updatedAt": "151300Z",
      "visibility_m": 10000,
      "taf_visibility_m": 3000,
      "worst_visibility_m": 3000,
      "ceiling_ft": 500,
      "hazards": [
        "SN",
        "RA"
      ],
      "severityScore": 55,
      "metarRaw": "METAR LBWN 151300Z 33010KT 9999 FEW030 SCT040 11/04 Q1019 NOSIG",
      "tafRaw": "TAF LBWN 151100Z 1512/1612 28012KT 9999 SCT040 \n  BECMG 1516/1518 VRB03KT \n  BECMG 1602/1604 04010KT BKN015 OVC030 \n  TEMPO 1602/1605 5000 RASN \n  TEMPO 1605/1611 3000 SN BKN005 OVC020"
    },
    {
      "icao": "LQSA",
      "iata": "SJJ",
      "name": "Sarajevo International Airport",
      "updatedAt": "151300Z",
      "visibility_m": 10000,
      "taf_visibility_m": 700,
      "worst_visibility_m": 700,
      "ceiling_ft": 5000,
      "hazards": [
        "FG",
        "BR"
      ],
      "severityScore": 55,
      "metarRaw": "METAR LQSA 151300Z 00000KT 9999 BKN050 08/02 Q1022 NOSIG",
      "tafRaw": "TAF LQSA 151100Z 1512/1612 VRB02KT 8000 FEW012 SCT050 TX08/1514Z TN00/1605Z \n  TEMPO 1521/1609 2500 BR BKN008 \n  PROB30 1604/1608 0700 FG BKN004"
    },
    {
      "icao": "LQTZ",
      "iata": "TZL",
      "name": "Tuzla International Airport",
      "updatedAt": "151300Z",
      "visibility_m": 10000,
      "taf_visibility_m": 700,
      "worst_visibility_m": 700,
      "ceiling_ft": 6200,
      "hazards": [
        "FG",
        "BR"
      ],
      "severityScore": 55,
      "metarRaw": "METAR LQTZ 151300Z 11002KT 9999 BKN062 06/04 Q1022",
      "tafRaw": "TAF LQTZ 151100Z 1512/1612 VRB02KT 7000 BKN045 TX07/1513Z TN00/1605Z \n  TEMPO 1521/1608 3000 BR \n  PROB30 1603/1607 0700 FG BKN004"
    },
    {
      "icao": "LRSM",
      "iata": "SUJ",
      "name": "Satu Mare International Airport",
      "updatedAt": "151300Z",
      "visibility_m": 5000,
      "taf_visibility_m": 1500,
      "worst_visibility_m": 1500,
      "ceiling_ft": 200,
      "hazards": [
        "BR"
      ],
      "severityScore": 55,
      "metarRaw": "METAR LRSM 151300Z 08002KT 5000 BR FEW005 01/M01 Q1023",
      "tafRaw": "TAF LRSM 151100Z 1512/1521 VRB04KT 3000 BR BKN002 \n  TEMPO 1512/1515 5000 BKN005 \n  PROB40 \n  TEMPO 1515/1520 1500 BR"
    },
    {
      "icao": "LYNI",
      "iata": "INI",
      "name": "Niš Constantine the Great Airport",
      "updatedAt": "151300Z",
      "visibility_m": 10000,
      "taf_visibility_m": 800,
      "worst_visibility_m": 800,
      "ceiling_ft": 7000,
      "hazards": [
        "FG",
        "BR"
      ],
      "severityScore": 55,
      "metarRaw": "METAR LYNI 151300Z 10003KT 9999 FEW050 BKN070 10/05 Q1023 NOSIG",
      "tafRaw": "TAF LYNI 151100Z 1512/1612 11004KT 9999 SCT060 TX10/1513Z TN00/1606Z \n  BECMG 1516/1518 3000 BR \n  TEMPO 1600/1607 0800 FG \n  BECMG 1609/1611 05010KT 9999 NSW"
    },
    {
      "icao": "OJAI",
      "iata": "AMM",
      "name": "Queen Alia International Airport",
      "updatedAt": "151200Z",
      "visibility_m": 5000,
      "taf_visibility_m": 800,
      "worst_visibility_m": 800,
      "ceiling_ft": null,
      "hazards": [
        "FG",
        "BR"
      ],
      "severityScore": 55,
      "metarRaw": "METAR OJAI 151200Z 30010KT 5000 HZ FEW030 12/04 Q1023 NOSIG",
      "tafRaw": "TAF OJAI 151100Z 1512/1618 29008KT 5000 HZ FEW030 \n  PROB30 \n  TEMPO 1512/1518 27016KT 4000 BLDU SCT030 \n  PROB30 1600/1607 VRB02KT 1500 BR \n  PROB40 1602/1607 0800 FG"
    },
    {
      "icao": "LRIA",
      "iata": "IAS",
      "name": "Iaşi Airport",
      "updatedAt": "151300Z",
      "visibility_m": 10000,
      "taf_visibility_m": 3000,
      "worst_visibility_m": 3000,
      "ceiling_ft": 900,
      "hazards": [
        "BR",
        "SN"
      ],
      "severityScore": 53,
      "metarRaw": "METAR LRIA 151300Z VRB02KT 9999 OVC009 M04/M06 Q1023",
      "tafRaw": "TAF LRIA 151100Z 1512/1521 32006KT 9999 SCT005 BKN035 \n  PROB40 \n  TEMPO 1512/1514 5000 -SN BKN005 BKN030 \n  TEMPO 1515/1521 3000 -SN BR BKN005 OVC020"
    },
    {
      "icao": "LRBS",
      "iata": "BBU",
      "name": "Bucharest Băneasa Aurel Vlaicu International Airport",
      "updatedAt": "151300Z",
      "visibility_m": 7000,
      "taf_visibility_m": 3000,
      "worst_visibility_m": 3000,
      "ceiling_ft": 500,
      "hazards": [
        "BR",
        "SN"
      ],
      "severityScore": 53,
      "metarRaw": "METAR LRBS 151300Z 07008KT 7000 NSC 02/M02 Q1021 NOSIG",
      "tafRaw": "TAF LRBS 151100Z 1512/1612 09010KT 5000 BR NSC \n  TEMPO 1512/1515 9999 NSW \n  BECMG 1518/1520 5000 BR BKN010 \n  TEMPO 1604/1612 07020KT \n  PROB40 \n  TEMPO 1605/1609 3000 -SN BR BKN005 OVC035 \n  BECMG 1609/1611 9999 NSW SCT025"
    },
    {
      "icao": "LROP",
      "iata": "OTP",
      "name": "Bucharest Henri Coandă International Airport",
      "updatedAt": "151300Z",
      "visibility_m": 5000,
      "taf_visibility_m": 3000,
      "worst_visibility_m": 3000,
      "ceiling_ft": 500,
      "hazards": [
        "BR",
        "SN"
      ],
      "severityScore": 53,
      "metarRaw": "METAR LROP 151300Z 08009KT 5000 HZ NSC 02/M03 Q1021 NOSIG",
      "tafRaw": "TAF LROP 151100Z 1512/1612 09010KT 5000 BR NSC \n  TEMPO 1512/1515 9999 NSW \n  BECMG 1518/1520 5000 BR BKN010 \n  TEMPO 1604/1612 07020KT \n  PROB40 \n  TEMPO 1605/1609 3000 -SN BR BKN005 OVC035 \n  BECMG 1609/1611 9999 NSW SCT025"
    },
    {
      "icao": "EPPO",
      "iata": "POZ",
      "name": "Poznań-Ławica Airport",
      "updatedAt": "151300Z",
      "visibility_m": 2200,
      "taf_visibility_m": null,
      "worst_visibility_m": 2200,
      "ceiling_ft": 100,
      "hazards": [
        "BR"
      ],
      "severityScore": 50,
      "metarRaw": "METAR EPPO 151300Z 11007KT 2200 BR OVC001 00/M00 Q1018",
      "tafRaw": null
    },
    {
      "icao": "LRTM",
      "iata": "TGM",
      "name": "Târgu Mureş Transilvania International Airport",
      "updatedAt": "151300Z",
      "visibility_m": 2500,
      "taf_visibility_m": 1500,
      "worst_visibility_m": 1500,
      "ceiling_ft": 1700,
      "hazards": [
        "BR",
        "SN"
      ],
      "severityScore": 50,
      "metarRaw": "METAR LRTM 151300Z 25003KT 2500 -SN BR FEW006 BKN017 BKN032 01/M00 Q1022",
      "tafRaw": "TAF LRTM 151100Z 1512/1521 VRB04KT 1500 -SN BR BKN005 OVC020 \n  BECMG 1513/1515 3000 BR BKN010 OVC025"
    },
    {
      "icao": "EGPF",
      "iata": "GLA",
      "name": "Glasgow Airport",
      "updatedAt": "151250Z",
      "visibility_m": 10000,
      "taf_visibility_m": 4000,
      "worst_visibility_m": 4000,
      "ceiling_ft": 1800,
      "hazards": [
        "BR",
        "SHRA",
        "RA"
      ],
      "severityScore": 48,
      "metarRaw": "METAR EGPF 151250Z AUTO 22013KT 9999 BKN018 BKN032 07/05 Q0996",
      "tafRaw": "TAF EGPF 151054Z 1512/1612 21014KT 9999 FEW045 \n  BECMG 1519/1522 VRB03KT \n  PROB30 \n  TEMPO 1522/1604 4000 BR \n  PROB30 \n  TEMPO 1604/1609 4000 BR BKN006 \n  TEMPO 1609/1612 6000 SHRA BKN012"
    },
    {
      "icao": "ENBR",
      "iata": "BGO",
      "name": "Bergen Airport, Flesland",
      "updatedAt": "151250Z",
      "visibility_m": 4000,
      "taf_visibility_m": 4000,
      "worst_visibility_m": 4000,
      "ceiling_ft": 1200,
      "hazards": [
        "SHRA",
        "BR",
        "RA"
      ],
      "severityScore": 48,
      "metarRaw": "METAR ENBR 151250Z 13012KT 9999 -SHRA SCT018 BKN032 04/01 Q0998 TEMPO 4000 SHRA BKN012 SCT020CB RMK WIND 1200FT 13029KT",
      "tafRaw": "TAF ENBR 151100Z 1512/1612 14012KT 9999 -SHRA FEW020 BKN040 \n  TEMPO 1512/1522 15018G28KT 4000 SHRA BKN012 SCT020CB \n  BECMG 1601/1603 08005KT"
    },
    {
      "icao": "LPFR",
      "iata": "FAO",
      "name": "Faro Airport",
      "updatedAt": "151300Z",
      "visibility_m": 10000,
      "taf_visibility_m": 5000,
      "worst_visibility_m": 5000,
      "ceiling_ft": 4500,
      "hazards": [
        "BR",
        "SHRA",
        "RA",
        "DZ"
      ],
      "severityScore": 46,
      "metarRaw": "METAR LPFR 151300Z 24004KT 210V270 9999 FEW014 BKN045 14/11 Q1020",
      "tafRaw": "TAF LPFR 151100Z 1512/1612 27005KT 9999 FEW015 \n  BECMG 1512/1514 21007KT BKN040 \n  BECMG 1517/1519 23017KT SCT015 BKN030 \n  TEMPO 1519/1602 5000 RADZ BR SCT008 BKN012 \n  BECMG 1602/1604 31012KT SCT012 \n  TEMPO 1609/1612 5000 SHRA BKN015 FEW020CB"
    },
    {
      "icao": "EPLB",
      "iata": "LUZ",
      "name": "Lublin Airport",
      "updatedAt": "151300Z",
      "visibility_m": 2300,
      "taf_visibility_m": 2500,
      "worst_visibility_m": 2300,
      "ceiling_ft": 400,
      "hazards": [
        "BR"
      ],
      "severityScore": 45,
      "metarRaw": "METAR EPLB 151300Z 09002KT 2300 BR OVC004 M03/M03 Q1021",
      "tafRaw": "TAF EPLB 151130Z 1512/1612 VRB02KT 2500 BR BKN004 \n  BECMG 1512/1515 13010KT 7000 BKN006 \n  PROB40 1513/1518 BKN010 \n  TEMPO 1518/1523 4000 BR"
    },
    {
      "icao": "EPMO",
      "iata": "WMI",
      "name": "Modlin Airport",
      "updatedAt": "151300Z",
      "visibility_m": 1000,
      "taf_visibility_m": null,
      "worst_visibility_m": 1000,
      "ceiling_ft": 3000,
      "hazards": [
        "BR",
        "FG"
      ],
      "severityScore": 45,
      "metarRaw": "METAR EPMO 151300Z VRB02KT 1000 0900E R08/1100N BCFG BR SCT002 BKN030 M00/M00 Q1020",
      "tafRaw": null
    },
    {
      "icao": "LIME",
      "iata": "BGY",
      "name": "Milan Bergamo Airport / Antonio Locatelli Air Base",
      "updatedAt": "151250Z",
      "visibility_m": 1700,
      "taf_visibility_m": 1200,
      "worst_visibility_m": 1200,
      "ceiling_ft": 1000,
      "hazards": [
        "RA",
        "BR"
      ],
      "severityScore": 44,
      "metarRaw": "METAR LIME 151250Z 18003KT 150V220 1700 -RA BKN010 07/05 Q1021 NOSIG",
      "tafRaw": "TAF LIME 151100Z 1512/1612 VRB04KT 3000 BR SCT010 BKN040 \n  TEMPO 1512/1518 6000 \n  TEMPO 1518/1606 1200 BKN005"
    },
    {
      "icao": "LRBV",
      "iata": "GHV",
      "name": "Brașov-Ghimbav International Airport",
      "updatedAt": "151300Z",
      "visibility_m": 8000,
      "taf_visibility_m": 3000,
      "worst_visibility_m": 3000,
      "ceiling_ft": 1100,
      "hazards": [
        "RA",
        "DZ",
        "BR"
      ],
      "severityScore": 44,
      "metarRaw": "METAR LRBV 151300Z VRB03KT 8000 -RADZ FEW006 BKN011 BKN014 02/01 Q1020",
      "tafRaw": "TAF LRBV 151100Z 1512/1521 29006KT 5000 -RADZ BR BKN010 OVC015 \n  BECMG 1516/1518 3000 BR BKN005 OVC010"
    },
    {
      "icao": "LRBC",
      "iata": "BCM",
      "name": "Bacău George Enescu International  Airport",
      "updatedAt": "151300Z",
      "visibility_m": 8000,
      "taf_visibility_m": 3000,
      "worst_visibility_m": 3000,
      "ceiling_ft": 1500,
      "hazards": [
        "BR",
        "SN"
      ],
      "severityScore": 40,
      "metarRaw": "METAR LRBC 151300Z 35005KT 8000 OVC015 M02/M06 Q1022",
      "tafRaw": "TAF LRBC 151100Z 1512/1521 36007KT 8000 BKN015 OVC025 \n  TEMPO 1512/1514 5000 -SN \n  TEMPO 1516/1521 3000 -SN BR BKN010 OVC020"
    },
    {
      "icao": "LUKK",
      "iata": "RMO",
      "name": "Chişinău International Airport",
      "updatedAt": "151300Z",
      "visibility_m": 5000,
      "taf_visibility_m": 4000,
      "worst_visibility_m": 4000,
      "ceiling_ft": 1000,
      "hazards": [
        "SN",
        "BR"
      ],
      "severityScore": 40,
      "metarRaw": "METAR LUKK 151300Z 05008KT 9999 -SN BKN014 OVC020 M06/M08 Q1023 TEMPO 5000 -SN OVC010",
      "tafRaw": "TAF LUKK 151105Z 1512/1612 03008KT 9999 BKN012 \n  TEMPO 1512/1515 4000 SN BR OVC008 \n  BECMG 1515/1517 CAVOK"
    },
    {
      "icao": "LFBD",
      "iata": "BOD",
      "name": "Bordeaux–Mérignac Airport",
      "updatedAt": "151300Z",
      "visibility_m": 10000,
      "taf_visibility_m": 4000,
      "worst_visibility_m": 4000,
      "ceiling_ft": 500,
      "hazards": [
        "RA"
      ],
      "severityScore": 37,
      "metarRaw": "METAR LFBD 151300Z AUTO 20010KT CAVOK 14/08 Q1009 NOSIG",
      "tafRaw": "TAF LFBD 151100Z 1512/1618 15010KT CAVOK TX13/1514Z TN08/1608Z \n  BECMG 1516/1518 23010KT BKN040 \n  TEMPO 1518/1607 4000 -RA BKN010 BKN040TCU \n  PROB40 \n  TEMPO 1523/1605 BKN005 \n  BECMG 1607/1609 15005KT"
    },
    {
      "icao": "LFPO",
      "iata": "ORY",
      "name": "Paris-Orly Airport",
      "updatedAt": "151300Z",
      "visibility_m": 10000,
      "taf_visibility_m": 4000,
      "worst_visibility_m": 4000,
      "ceiling_ft": 800,
      "hazards": [
        "RA"
      ],
      "severityScore": 37,
      "metarRaw": "METAR LFPO 151300Z 18010KT 150V220 CAVOK 13/07 Q1007 NOSIG",
      "tafRaw": "TAF LFPO 151100Z 1512/1618 18010KT 9999 BKN012 \n  BECMG 1512/1515 BKN030 \n  TEMPO 1520/1602 21015G25KT 4000 -RA BKN012 \n  PROB40 \n  TEMPO 1521/1523 21015G30KT \n  BECMG 1602/1604 BKN008 \n  BECMG 1610/1612 BKN020 \n  PROB40 \n  TEMPO 1612/1614 BKN012 \n  BECMG 1616/1618 15004KT"
    },
    {
      "icao": "LTFM",
      "iata": "IST",
      "name": "İstanbul Airport",
      "updatedAt": "151250Z",
      "visibility_m": 10000,
      "taf_visibility_m": 2500,
      "worst_visibility_m": 2500,
      "ceiling_ft": 7000,
      "hazards": [
        "BR",
        "SHRA",
        "RA"
      ],
      "severityScore": 36,
      "metarRaw": "METAR LTFM 151250Z 21017KT 9999 FEW025 BKN070 11/06 Q1021 NOSIG RMK RWY17L 21013KT RWY34L 20017KT RWY16R 21013KT RWY36 22017KT RWY18 22017KT",
      "tafRaw": "TAF LTFM 151040Z 1512/1618 23017G27KT 9999 FEW025 BKN070 \n  BECMG 1513/1516 24012KT \n  BECMG 1518/1520 VRB02KT \n  PROB30 1522/1602 2500 BR \n  BECMG 1606/1609 03017G27KT -SHRA SCT012 BKN022"
    },
    {
      "icao": "EPSY",
      "iata": "SZY",
      "name": "Olsztyn-Mazury Airport",
      "updatedAt": "151300Z",
      "visibility_m": 3500,
      "taf_visibility_m": 4000,
      "worst_visibility_m": 3500,
      "ceiling_ft": 500,
      "hazards": [
        "BR"
      ],
      "severityScore": 35,
      "metarRaw": "METAR EPSY 151300Z VRB02KT 3500 BR OVC005 M04/M04 Q1021",
      "tafRaw": "TAF EPSY 151130Z 1512/1521 14006KT 4000 BR BKN004 \n  PROB40 1512/1516 8000 BKN035"
    },
    {
      "icao": "ESKN",
      "iata": "NYO",
      "name": "Stockholm Skavsta Airport",
      "updatedAt": "151250Z",
      "visibility_m": 10000,
      "taf_visibility_m": 2500,
      "worst_visibility_m": 2500,
      "ceiling_ft": 600,
      "hazards": [
        "BR"
      ],
      "severityScore": 35,
      "metarRaw": "METAR ESKN 151250Z 20007KT 9999 BKN006 02/01 Q1014",
      "tafRaw": "TAF ESKN 151130Z 1512/1612 19006KT 9999 OVC015 \n  TEMPO 1512/1515 BKN007 \n  TEMPO 1515/1520 2500 BR BKN003 \n  TEMPO 1520/1609 BKN006"
    },
    {
      "icao": "LGTS",
      "iata": "SKG",
      "name": "Thessaloniki Macedonia International Airport",
      "updatedAt": "151250Z",
      "visibility_m": 10000,
      "taf_visibility_m": 4000,
      "worst_visibility_m": 4000,
      "ceiling_ft": null,
      "hazards": [
        "TS",
        "BR"
      ],
      "severityScore": 35,
      "metarRaw": "METAR LGTS 151250Z 25004KT CAVOK 13/04 Q1023 NOSIG",
      "tafRaw": "TAF LGTS 151100Z 1512/1612 VRB03KT 9999 FEW030 \n  PROB30 1603/1607 4000 BR SCT008"
    },
    {
      "icao": "EDDN",
      "iata": "NUE",
      "name": "Nuremberg Airport",
      "updatedAt": "151250Z",
      "visibility_m": 10000,
      "taf_visibility_m": 1200,
      "worst_visibility_m": 1200,
      "ceiling_ft": 4000,
      "hazards": [
        "FG"
      ],
      "severityScore": 30,
      "metarRaw": "METAR EDDN 151250Z AUTO 12008KT CAVOK 08/05 Q1015 NOSIG",
      "tafRaw": "TAF EDDN 151100Z 1512/1612 12007KT 9999 FEW030 BKN040 \n  TEMPO 1518/1524 1200 BCFG"
    },
    {
      "icao": "EDNY",
      "iata": "FDH",
      "name": "Friedrichshafen Airport",
      "updatedAt": "151250Z",
      "visibility_m": 10000,
      "taf_visibility_m": 1200,
      "worst_visibility_m": 1200,
      "ceiling_ft": null,
      "hazards": [
        "FG"
      ],
      "severityScore": 30,
      "metarRaw": "METAR EDNY 151250Z VRB02KT CAVOK 11/05 Q1015",
      "tafRaw": "TAF EDNY 151100Z 1512/1521 VRB03KT CAVOK \n  PROB30 \n  TEMPO 1518/1521 1200 BCFG"
    },
    {
      "icao": "EDSB",
      "iata": "FKB",
      "name": "Karlsruhe Baden-Baden Airport",
      "updatedAt": "151250Z",
      "visibility_m": 10000,
      "taf_visibility_m": 1200,
      "worst_visibility_m": 1200,
      "ceiling_ft": null,
      "hazards": [
        "FG"
      ],
      "severityScore": 30,
      "metarRaw": "METAR EDSB 151250Z 20010KT CAVOK 14/06 Q1013",
      "tafRaw": "TAF EDSB 151100Z 1512/1612 19010KT CAVOK \n  BECMG 1515/1518 VRB02KT \n  PROB40 \n  TEMPO 1523/1608 1200 BCFG"
    },
    {
      "icao": "EYVI",
      "iata": "VNO",
      "name": "Vilnius International Airport",
      "updatedAt": "151250Z",
      "visibility_m": 10000,
      "taf_visibility_m": null,
      "worst_visibility_m": 10000,
      "ceiling_ft": 800,
      "hazards": [],
      "severityScore": 30,
      "metarRaw": "METAR EYVI 151250Z 16010KT 9999 OVC008 M12/M14 Q1023 NOSIG",
      "tafRaw": null
    },
    {
      "icao": "LIPX",
      "iata": "VRN",
      "name": "Verona Villafranca Valerio Catullo Airport",
      "updatedAt": "151250Z",
      "visibility_m": 6000,
      "taf_visibility_m": 1200,
      "worst_visibility_m": 1200,
      "ceiling_ft": 8000,
      "hazards": [
        "FG"
      ],
      "severityScore": 30,
      "metarRaw": "METAR LIPX 151250Z VRB02KT 6000 FEW045 BKN080 08/05 Q1022",
      "tafRaw": "TAF LIPX 151100Z 1512/1612 VRB04KT 6000 BKN050 \n  TEMPO 1522/1608 1200 BCFG BKN010"
    },
    {
      "icao": "LIRZ",
      "iata": "PEG",
      "name": "Perugia San Francesco d'Assisi – Umbria International Airport",
      "updatedAt": "151250Z",
      "visibility_m": 10000,
      "taf_visibility_m": 1500,
      "worst_visibility_m": 1500,
      "ceiling_ft": null,
      "hazards": [
        "FG"
      ],
      "severityScore": 30,
      "metarRaw": "METAR LIRZ 151250Z AUTO 12004KT 080V190 9999 BKN043/// BKN075/// 14/07 Q1021",
      "tafRaw": "TAF LIRZ 151100Z 1512/1612 VRB05KT 9999 SCT040 \n  TEMPO 1604/1609 1500 BCFG"
    },
    {
      "icao": "UGKO",
      "iata": "KUT",
      "name": "David the Builder Kutaisi International Airport",
      "updatedAt": "151300Z",
      "visibility_m": 10000,
      "taf_visibility_m": 3000,
      "worst_visibility_m": 3000,
      "ceiling_ft": 2000,
      "hazards": [
        "SN",
        "RA"
      ],
      "severityScore": 30,
      "metarRaw": "METAR UGKO 151300Z 09004KT 050V130 9999 BKN020 04/00 Q1024 NOSIG",
      "tafRaw": "TAF UGKO 151100Z 1512/1612 VRB02KT 9999 SCT020 BKN050 TX05/1512Z TNM01/1601Z \n  TEMPO 1512/1520 08012KT CAVOK \n  TEMPO 1601/1612 08012KT 3000 SHSNRA SCT008 BKN017CB OVC030"
    },
    {
      "icao": "EYKA",
      "iata": "KUN",
      "name": "Kaunas International Airport",
      "updatedAt": "151250Z",
      "visibility_m": 10000,
      "taf_visibility_m": 3000,
      "worst_visibility_m": 3000,
      "ceiling_ft": 2600,
      "hazards": [
        "BR",
        "SN"
      ],
      "severityScore": 28,
      "metarRaw": "METAR EYKA 151250Z 15008KT 9999 OVC026 M09/M12 Q1022",
      "tafRaw": "TAF EYKA 151100Z 1512/1612 VRB04KT 8000 SCT015 BKN020 \n  TEMPO 1512/1520 15010KT 5000 BR BKN010 OVC015 \n  PROB40 \n  TEMPO 1512/1520 3000 SN \n  BECMG 1520/1522 14010KT BKN010 BKN030 \n  TEMPO 1522/1609 BKN005 \n  BECMG 1609/1612 NSC"
    },
    {
      "icao": "LTAC",
      "iata": "ESB",
      "name": "Esenboğa International Airport",
      "updatedAt": "151250Z",
      "visibility_m": 10000,
      "taf_visibility_m": 2000,
      "worst_visibility_m": 2000,
      "ceiling_ft": 9000,
      "hazards": [
        "BR",
        "SN"
      ],
      "severityScore": 28,
      "metarRaw": "METAR LTAC 151250Z 24006KT 200V270 9999 SCT010 SCT035 BKN090 02/M01 Q1021 NOSIG RMK RWY21C 23009KT RWY03L 23006KT 190V260 RWY21R 23007KT RWY03R 24009KT 210V270 RWY21L 25007KT 210V270",
      "tafRaw": "TAF LTAC 151040Z 1512/1612 22008KT 9999 SCT010 SCT040 BKN100 \n  TEMPO 1602/1606 2000 -SN BR SCT008 BKN030 BKN080"
    },
    {
      "icao": "EHBK",
      "iata": "MST",
      "name": "Maastricht Aachen Airport",
      "updatedAt": "151255Z",
      "visibility_m": 10000,
      "taf_visibility_m": 7000,
      "worst_visibility_m": 7000,
      "ceiling_ft": 2400,
      "hazards": [
        "RA",
        "SHRA"
      ],
      "severityScore": 26,
      "metarRaw": "METAR EHBK 151255Z AUTO 20010KT 9999 SCT021 BKN024 OVC034 10/07 Q1009 NOSIG",
      "tafRaw": "TAF EHBK 151054Z 1512/1618 20012KT 9999 BKN020 \n  BECMG 1514/1517 16010KT \n  BECMG 1600/1603 21014KT \n  PROB30 \n  TEMPO 1602/1611 7000 -SHRA -RA BKN014 FEW020TCU \n  BECMG 1609/1612 18008KT"
    },
    {
      "icao": "ENHD",
      "iata": "HAU",
      "name": "Haugesund Airport, Karmøy",
      "updatedAt": "151250Z",
      "visibility_m": 9000,
      "taf_visibility_m": 4000,
      "worst_visibility_m": 4000,
      "ceiling_ft": 2200,
      "hazards": [
        "RA",
        "SHRA"
      ],
      "severityScore": 26,
      "metarRaw": "METAR ENHD 151250Z 12022KT 9000 -RA FEW010 BKN022 04/02 Q0998",
      "tafRaw": "TAF ENHD 151100Z 1512/1521 14018KT 9999 -SHRA FEW015 BKN030 \n  TEMPO 1512/1518 14022G35KT 4000 SHRA BKN009 SCT018CB"
    },
    {
      "icao": "ENZV",
      "iata": "SVG",
      "name": "Stavanger Airport, Sola",
      "updatedAt": "151250Z",
      "visibility_m": 10000,
      "taf_visibility_m": 4000,
      "worst_visibility_m": 4000,
      "ceiling_ft": 2400,
      "hazards": [
        "SHRA",
        "RA"
      ],
      "severityScore": 26,
      "metarRaw": "METAR ENZV 151250Z 14020KT 9999 -SHRA BKN024 04/01 Q0999 NOSIG",
      "tafRaw": "TAF ENZV 151100Z 1512/1612 13015KT 9999 -SHRA FEW015 BKN030 \n  TEMPO 1512/1516 15020G35KT 4000 SHRA BKN009 SCT018CB \n  TEMPO 1600/1612 RA BKN012"
    },
    {
      "icao": "GCTS",
      "iata": "TFS",
      "name": "Tenerife Sur Airport",
      "updatedAt": "151300Z",
      "visibility_m": 10000,
      "taf_visibility_m": 10000,
      "worst_visibility_m": 10000,
      "ceiling_ft": 4000,
      "hazards": [
        "TS"
      ],
      "severityScore": 25,
      "metarRaw": "METAR GCTS 151300Z 10016KT 9999 BKN040 20/10 Q1024 NOSIG",
      "tafRaw": "TAF GCTS 150800Z 1509/1609 06015KT 9999 SCT040 TX22/1514Z TN14/1606Z \n  BECMG 1520/1522 03005KT"
    },
    {
      "icao": "UBBB",
      "iata": "GYD",
      "name": "Heydar Aliyev International Airport",
      "updatedAt": "151300Z",
      "visibility_m": 10000,
      "taf_visibility_m": 10000,
      "worst_visibility_m": 10000,
      "ceiling_ft": 600,
      "hazards": [],
      "severityScore": 25,
      "metarRaw": "METAR UBBB 151300Z 01012KT CAVOK 04/M03 Q1023 NOSIG",
      "tafRaw": "TAF UBBB 151051Z 1512/1612 01010KT 9999 SCT030 TX05/1512Z TN01/1601Z \n  BECMG 1513/1515 VRB04KT \n  TEMPO 1515/1518 04005KT \n  TEMPO 1518/1602 23005KT BKN006 \n  BECMG 1602/1604 19008KT \n  TEMPO 1606/1612 22014KT"
    },
    {
      "icao": "LEMG",
      "iata": "AGP",
      "name": "Málaga-Costa del Sol Airport",
      "updatedAt": "151300Z",
      "visibility_m": 10000,
      "taf_visibility_m": 4000,
      "worst_visibility_m": 4000,
      "ceiling_ft": 1200,
      "hazards": [
        "RA"
      ],
      "severityScore": 24,
      "metarRaw": "METAR LEMG 151300Z 16006KT 130V190 9999 FEW025 SCT070 15/11 Q1019 NOSIG",
      "tafRaw": "TAF LEMG 151100Z 1512/1612 29006KT 9999 SCT040 TX18/1514Z TN11/1607Z \n  TEMPO 1604/1612 4000 RA BKN012"
    },
    {
      "icao": "LFOB",
      "iata": "BVA",
      "name": "Beauvais Tillé airport",
      "updatedAt": "151300Z",
      "visibility_m": 10000,
      "taf_visibility_m": 4500,
      "worst_visibility_m": 4500,
      "ceiling_ft": 1900,
      "hazards": [
        "RA"
      ],
      "severityScore": 24,
      "metarRaw": "METAR LFOB 151300Z AUTO 17013KT 9999 BKN019 OVC047 10/07 Q1007 NOSIG",
      "tafRaw": "TAF LFOB 151100Z 1512/1612 22010G20KT 9999 BKN025 \n  TEMPO 1520/1601 19020G30KT 4500 -RA BKN014 OVC025 \n  BECMG 1605/1609 19008KT OVC010"
    },
    {
      "icao": "EBCI",
      "iata": "CRL",
      "name": "Brussels South Charleroi Airport",
      "updatedAt": "151250Z",
      "visibility_m": 10000,
      "taf_visibility_m": 4000,
      "worst_visibility_m": 4000,
      "ceiling_ft": 4700,
      "hazards": [
        "RA",
        "DZ"
      ],
      "severityScore": 22,
      "metarRaw": "METAR EBCI 151250Z 20012KT 9999 FEW020 BKN047 09/05 Q1009 NOSIG",
      "tafRaw": "TAF EBCI 151110Z 1512/1618 19012KT 9999 SCT020 \n  TEMPO 1523/1603 19017G28KT 4000 RA RADZ BKN008"
    },
    {
      "icao": "EPGD",
      "iata": "GDN",
      "name": "Gdańsk Lech Wałęsa Airport",
      "updatedAt": "151300Z",
      "visibility_m": 10000,
      "taf_visibility_m": 2500,
      "worst_visibility_m": 2500,
      "ceiling_ft": 1200,
      "hazards": [
        "BR"
      ],
      "severityScore": 22,
      "metarRaw": "METAR EPGD 151300Z 20008KT 170V230 9999 BKN012 02/M00 Q1018",
      "tafRaw": "TAF EPGD 151130Z 1512/1612 16010KT 8000 NSC \n  TEMPO 1512/1517 BKN008 \n  BECMG 1517/1519 BKN005 \n  TEMPO 1519/1612 2500 BR BKN003"
    },
    {
      "icao": "EPRA",
      "iata": "RDO",
      "name": "Warsaw Radom Airport",
      "updatedAt": "151300Z",
      "visibility_m": 10000,
      "taf_visibility_m": 4000,
      "worst_visibility_m": 4000,
      "ceiling_ft": 2400,
      "hazards": [
        "RA",
        "BR"
      ],
      "severityScore": 22,
      "metarRaw": "METAR EPRA 151300Z 04003KT 9999 BKN024 02/M02 Q1020",
      "tafRaw": "TAF EPRA 151130Z 1512/1521 27005KT 9999 BKN023 \n  BECMG 1514/1517 15010KT \n  PROB40 \n  TEMPO 1516/1521 4000 BR BKN012"
    },
    {
      "icao": "ESSA",
      "iata": "ARN",
      "name": "Stockholm-Arlanda Airport",
      "updatedAt": "151250Z",
      "visibility_m": 10000,
      "taf_visibility_m": 2000,
      "worst_visibility_m": 2000,
      "ceiling_ft": 1100,
      "hazards": [
        "BR"
      ],
      "severityScore": 22,
      "metarRaw": "METAR ESSA 151250Z 21006KT 9999 SCT009 BKN011 01/00 Q1013 NOSIG",
      "tafRaw": "TAF ESSA 151130Z 1512/1612 20007KT 9999 SCT010 BKN015 \n  TEMPO 1512/1518 BKN008 \n  PROB40 1518/1524 2000 BR BKN003 \n  TEMPO 1600/1612 BKN010"
    },
    {
      "icao": "LEBB",
      "iata": "BIO",
      "name": "Bilbao Airport",
      "updatedAt": "151300Z",
      "visibility_m": 10000,
      "taf_visibility_m": 3000,
      "worst_visibility_m": 3000,
      "ceiling_ft": null,
      "hazards": [
        "RA",
        "BR"
      ],
      "severityScore": 22,
      "metarRaw": "METAR LEBB 151300Z 18012G27KT 130V240 9999 -RA FEW035 14/05 Q1009 NOSIG",
      "tafRaw": "TAF LEBB 151100Z 1512/1612 20009KT 9999 FEW025 SCT060 TX16/1512Z TN05/1607Z \n  TEMPO 1512/1517 20018G29KT \n  TEMPO 1512/1515 20024G44KT \n  PROB40 \n  TEMPO 1515/1520 3000 RA \n  PROB30 \n  TEMPO 1603/1607 3000 BR \n  PROB40 \n  TEMPO 1600/1612 12010KT"
    },
    {
      "icao": "LEBL",
      "iata": "BCN",
      "name": "Josep Tarradellas Barcelona-El Prat Airport",
      "updatedAt": "151300Z",
      "visibility_m": 10000,
      "taf_visibility_m": 3000,
      "worst_visibility_m": 3000,
      "ceiling_ft": 1000,
      "hazards": [
        "BR"
      ],
      "severityScore": 22,
      "metarRaw": "METAR LEBL 151300Z 21008KT 170V240 CAVOK 14/11 Q1017 NOSIG",
      "tafRaw": "TAF LEBL 151100Z 1512/1612 21010KT 9999 FEW015 TX15/1512Z TN06/1606Z \n  BECMG 1520/1522 34007KT \n  PROB30 \n  TEMPO 1600/1606 3000 BR BKN010"
    },
    {
      "icao": "LIPY",
      "iata": "AOI",
      "name": "Marche Airport",
      "updatedAt": "151250Z",
      "visibility_m": 5000,
      "taf_visibility_m": 2000,
      "worst_visibility_m": 2000,
      "ceiling_ft": 1000,
      "hazards": [
        "BR"
      ],
      "severityScore": 22,
      "metarRaw": "METAR LIPY 151250Z AUTO 01005KT 5000 BR OVC080/// 11/09 Q1021",
      "tafRaw": "TAF LIPY 151100Z 1512/1612 VRB05KT 7000 SCT060 \n  TEMPO 1519/1607 2000 BR BKN010"
    },
    {
      "icao": "LRCV",
      "iata": "CRA",
      "name": "Craiova International Airport",
      "updatedAt": "151300Z",
      "visibility_m": 10000,
      "taf_visibility_m": 3000,
      "worst_visibility_m": 3000,
      "ceiling_ft": 1000,
      "hazards": [
        "BR"
      ],
      "severityScore": 22,
      "metarRaw": "METAR LRCV 151300Z 29010KT CAVOK 10/05 Q1020",
      "tafRaw": "TAF LRCV 151100Z 1512/1521 29012KT CAVOK \n  BECMG 1516/1518 08010KT 3000 BR BKN010"
    },
    {
      "icao": "LYBE",
      "iata": "BEG",
      "name": "Belgrade Nikola Tesla Airport",
      "updatedAt": "151300Z",
      "visibility_m": 10000,
      "taf_visibility_m": 4000,
      "worst_visibility_m": 4000,
      "ceiling_ft": null,
      "hazards": [
        "BR",
        "RA"
      ],
      "severityScore": 22,
      "metarRaw": "METAR LYBE 151300Z VRB01KT CAVOK 09/02 Q1022 NOSIG",
      "tafRaw": "TAF LYBE 151100Z 1512/1612 18005KT 9999 SCT045 TX08/1513Z TN02/1606Z \n  PROB40 \n  TEMPO 1603/1607 4000 -RA BR"
    },
    {
      "icao": "EDDS",
      "iata": "STR",
      "name": "Stuttgart Airport",
      "updatedAt": "151250Z",
      "visibility_m": 10000,
      "taf_visibility_m": 1800,
      "worst_visibility_m": 1800,
      "ceiling_ft": null,
      "hazards": [
        "FG"
      ],
      "severityScore": 20,
      "metarRaw": "METAR EDDS 151250Z AUTO 23007KT 180V270 CAVOK 12/05 Q1013 NOSIG",
      "tafRaw": "TAF EDDS 151100Z 1512/1612 VRB03KT CAVOK \n  PROB30 \n  TEMPO 1602/1609 1800 BCFG"
    },
    {
      "icao": "EPRZ",
      "iata": "RZE",
      "name": "Rzeszów-Jasionka Airport",
      "updatedAt": "151300Z",
      "visibility_m": 10000,
      "taf_visibility_m": 1000,
      "worst_visibility_m": 1000,
      "ceiling_ft": 2400,
      "hazards": [
        "BR"
      ],
      "severityScore": 20,
      "metarRaw": "METAR EPRZ 151300Z 13002KT 9999 FEW016 BKN024 03/00 Q1021",
      "tafRaw": "TAF EPRZ 151130Z 1512/1612 VRB02KT 9999 OVC009 \n  BECMG 1512/1514 27010KT BKN020 \n  TEMPO 1523/1612 2000 BR BKN004 \n  PROB40 \n  TEMPO 1600/1612 1000 BR BKN001"
    },
    {
      "icao": "GMMN",
      "iata": "CMN",
      "name": "Mohammed V International Airport",
      "updatedAt": "151300Z",
      "visibility_m": 10000,
      "taf_visibility_m": 5000,
      "worst_visibility_m": 5000,
      "ceiling_ft": 2000,
      "hazards": [
        "RA"
      ],
      "severityScore": 12,
      "metarRaw": "METAR GMMN 151300Z 24004KT 170V300 9999 SCT020 17/12 Q1022 NOSIG",
      "tafRaw": "TAF GMMN 151100Z 1512/1618 26006KT 9999 FEW020 \n  BECMG 1600/1602 20008KT 9999 BKN026 \n  TEMPO 1612/1618 22015KT 5000 RA SCT006 BKN020"
    },
    {
      "icao": "GMMX",
      "iata": "RAK",
      "name": "Menara Airport",
      "updatedAt": "151300Z",
      "visibility_m": 10000,
      "taf_visibility_m": 4000,
      "worst_visibility_m": 4000,
      "ceiling_ft": 2600,
      "hazards": [
        "RA"
      ],
      "severityScore": 12,
      "metarRaw": "METAR GMMX 151300Z 35004KT 300V080 CAVOK 15/08 Q1022 NOSIG",
      "tafRaw": "TAF GMMX 151100Z 1512/1618 06006KT 8000 SCT026 \n  TEMPO 1515/1521 34016KT \n  TEMPO 1616/1618 34016KT 4000 RA FEW010 BKN026 SCT090"
    },
    {
      "icao": "EDFH",
      "iata": "HHN",
      "name": "Frankfurt-Hahn Airport",
      "updatedAt": "151250Z",
      "visibility_m": 10000,
      "taf_visibility_m": 10000,
      "worst_visibility_m": 10000,
      "ceiling_ft": 1600,
      "hazards": [],
      "severityScore": 12,
      "metarRaw": "METAR EDFH 151250Z 21010KT 9999 BKN016 BKN025 08/06 Q1011",
      "tafRaw": "TAF EDFH 151100Z 1512/1612 19012KT 9999 BKN030 \n  PROB30 \n  TEMPO 1512/1515 20015G25KT BKN012 \n  PROB30 \n  TEMPO 1521/1605 14015G25KT \n  TEMPO 1606/1612 BKN010"
    },
    {
      "icao": "LIMJ",
      "iata": "GOA",
      "name": "Genoa Cristoforo Colombo Airport",
      "updatedAt": "151250Z",
      "visibility_m": 10000,
      "taf_visibility_m": 10000,
      "worst_visibility_m": 10000,
      "ceiling_ft": null,
      "hazards": [
        "RA"
      ],
      "severityScore": 12,
      "metarRaw": "METAR LIMJ 151250Z 07008KT 9999 FEW015 SCT027 13/08 Q1020",
      "tafRaw": "TAF LIMJ 151100Z 1512/1612 04008KT 9999 SCT020 SCT050 \n  TEMPO 1512/1612 RA"
    },
    {
      "icao": "LIRP",
      "iata": "PSA",
      "name": "Pisa International Airport",
      "updatedAt": "151245Z",
      "visibility_m": 10000,
      "taf_visibility_m": 10000,
      "worst_visibility_m": 10000,
      "ceiling_ft": 2500,
      "hazards": [
        "RA"
      ],
      "severityScore": 12,
      "metarRaw": "METAR LIRP 151245Z 10005KT 9999 FEW020 BKN025 15/11 Q1020 NOSIG",
      "tafRaw": "TAF LIRP 151100Z 1512/1612 12005KT 9999 SCT020 SCT040 \n  TEMPO 1512/1520 RA BKN015"
    },
    {
      "icao": "LJLJ",
      "iata": "LJU",
      "name": "Ljubljana Jože Pučnik Airport",
      "updatedAt": "151300Z",
      "visibility_m": 10000,
      "taf_visibility_m": 10000,
      "worst_visibility_m": 10000,
      "ceiling_ft": 5500,
      "hazards": [
        "RA"
      ],
      "severityScore": 12,
      "metarRaw": "METAR LJLJ 151300Z 07004KT 9999 SCT040 BKN055 03/01 Q1020 NOSIG",
      "tafRaw": "TAF LJLJ 151100Z 1512/1612 30003KT 9999 FEW040 BKN060 \n  PROB30 \n  TEMPO 1516/1612 -RA"
    },
    {
      "icao": "EDDH",
      "iata": "HAM",
      "name": "Hamburg Helmut Schmidt Airport",
      "updatedAt": "151250Z",
      "visibility_m": 10000,
      "taf_visibility_m": 4500,
      "worst_visibility_m": 4500,
      "ceiling_ft": 3200,
      "hazards": [
        "BR"
      ],
      "severityScore": 10,
      "metarRaw": "METAR EDDH 151250Z AUTO 15008KT 9999 SCT024 OVC032 07/06 Q1010 NOSIG",
      "tafRaw": "TAF EDDH 151100Z 1512/1618 15008KT 9999 SCT020 \n  PROB30 \n  TEMPO 1512/1514 4500 BR BKN004"
    },
    {
      "icao": "EGPD",
      "iata": "ABZ",
      "name": "Aberdeen International Airport",
      "updatedAt": "151250Z",
      "visibility_m": 10000,
      "taf_visibility_m": 5000,
      "worst_visibility_m": 5000,
      "ceiling_ft": null,
      "hazards": [
        "BR"
      ],
      "severityScore": 10,
      "metarRaw": "METAR EGPD 151250Z COR AUTO 22010KT 9999 NCD 07/02 Q0994 NOSIG",
      "tafRaw": "TAF EGPD 151102Z 1512/1612 20008KT 9999 FEW015 \n  PROB30 \n  TEMPO 1521/1610 5000 BR"
    },
    {
      "icao": "EPWA",
      "iata": "WAW",
      "name": "Warsaw Chopin Airport",
      "updatedAt": "151300Z",
      "visibility_m": 2000,
      "taf_visibility_m": 2000,
      "worst_visibility_m": 2000,
      "ceiling_ft": 3000,
      "hazards": [
        "BR"
      ],
      "severityScore": 10,
      "metarRaw": "METAR EPWA 151300Z 12005KT 2000 BR SCT002 BKN030 00/00 Q1020 NOSIG",
      "tafRaw": "TAF EPWA 151130Z 1512/1612 VRB04KT 2000 BR BKN020 \n  PROB40 1512/1516 3000 BR SCT004 BKN007 \n  BECMG 1513/1516 14010KT 6000 \n  TEMPO 1516/1522 2000 BR BKN004 \n  PROB40 1522/1607 BKN005"
    },
    {
      "icao": "HESX",
      "iata": "SPX",
      "name": "Sphinx International Airport",
      "updatedAt": "151200Z",
      "visibility_m": 10000,
      "taf_visibility_m": 4000,
      "worst_visibility_m": 4000,
      "ceiling_ft": 7000,
      "hazards": [
        "BR"
      ],
      "severityScore": 10,
      "metarRaw": "METAR HESX 151200Z 25004KT 9999 SCT030 18/08 Q1024 NOSIG",
      "tafRaw": "TAF HESX 151101Z 1512/1618 35010KT 9999 FEW020 BKN070 \n  TEMPO 1600/1606 VRB03KT 4000 BR NSC"
    },
    {
      "icao": "LBPD",
      "iata": "PDV",
      "name": "Plovdiv International Airport",
      "updatedAt": "151300Z",
      "visibility_m": 10000,
      "taf_visibility_m": 3000,
      "worst_visibility_m": 3000,
      "ceiling_ft": 7000,
      "hazards": [
        "BR"
      ],
      "severityScore": 10,
      "metarRaw": "METAR LBPD 151300Z AUTO 29014KT 9999 NCD 16/03 Q1020 NOSIG",
      "tafRaw": "TAF LBPD 151100Z 1512/1612 28010KT 9999 BKN070 \n  BECMG 1518/1520 VRB03KT \n  PROB40 \n  TEMPO 1600/1606 3000 BR SCT015 \n  BECMG 1606/1607 10010KT"
    },
    {
      "icao": "LEAL",
      "iata": "ALC",
      "name": "Alicante-Elche Miguel Hernández Airport",
      "updatedAt": "151300Z",
      "visibility_m": 10000,
      "taf_visibility_m": 3000,
      "worst_visibility_m": 3000,
      "ceiling_ft": null,
      "hazards": [
        "BR"
      ],
      "severityScore": 10,
      "metarRaw": "METAR LEAL 151300Z 22003KT 150V280 CAVOK 19/07 Q1018 NOSIG",
      "tafRaw": "TAF LEAL 151100Z 1512/1612 VRB04KT CAVOK TX17/1513Z TN07/1606Z \n  PROB40 \n  TEMPO 1518/1524 3000 BR"
    },
    {
      "icao": "LGAV",
      "iata": "ATH",
      "name": "Athens Eleftherios Venizelos International Airport",
      "updatedAt": "151250Z",
      "visibility_m": 10000,
      "taf_visibility_m": 4000,
      "worst_visibility_m": 4000,
      "ceiling_ft": null,
      "hazards": [
        "BR"
      ],
      "severityScore": 10,
      "metarRaw": "METAR LGAV 151250Z 09007KT 9999 FEW030 15/07 Q1023 NOSIG",
      "tafRaw": "TAF LGAV 151100Z 1512/1612 VRB05KT 9999 FEW016 SCT025 \n  PROB40 \n  TEMPO 1603/1606 4000 BR SCT008"
    },
    {
      "icao": "LIBP",
      "iata": "PSR",
      "name": "Abruzzo Airport",
      "updatedAt": "151250Z",
      "visibility_m": 10000,
      "taf_visibility_m": 4000,
      "worst_visibility_m": 4000,
      "ceiling_ft": null,
      "hazards": [
        "BR"
      ],
      "severityScore": 10,
      "metarRaw": "METAR LIBP 151250Z AUTO 03005KT 9999 NCD 14/06 Q1022",
      "tafRaw": "TAF LIBP 151100Z 1512/1612 VRB05KT CAVOK \n  TEMPO 1521/1607 4000 BR"
    },
    {
      "icao": "LIPH",
      "iata": "TSF",
      "name": "Treviso Antonio Canova Airport",
      "updatedAt": "151250Z",
      "visibility_m": 6000,
      "taf_visibility_m": 2000,
      "worst_visibility_m": 2000,
      "ceiling_ft": 8000,
      "hazards": [
        "BR"
      ],
      "severityScore": 10,
      "metarRaw": "METAR LIPH 151250Z VRB01KT 6000 BKN080 09/05 Q1022",
      "tafRaw": "TAF LIPH 151100Z 1512/1612 VRB04KT 6000 SCT040 \n  TEMPO 1519/1607 2000 BR BKN010"
    },
    {
      "icao": "LIPZ",
      "iata": "VCE",
      "name": "Venice Marco Polo Airport",
      "updatedAt": "151250Z",
      "visibility_m": 6000,
      "taf_visibility_m": 2000,
      "worst_visibility_m": 2000,
      "ceiling_ft": 3500,
      "hazards": [
        "BR"
      ],
      "severityScore": 10,
      "metarRaw": "METAR LIPZ 151250Z 16003KT 6000 BKN035 07/03 Q1022 NOSIG",
      "tafRaw": "TAF LIPZ 151100Z 1512/1618 VRB04KT 6000 SCT040 \n  TEMPO 1521/1607 2000 BR BKN010"
    },
    {
      "icao": "LWSK",
      "iata": "SKP",
      "name": "Skopje International Airport",
      "updatedAt": "151250Z",
      "visibility_m": 10000,
      "taf_visibility_m": 5000,
      "worst_visibility_m": 5000,
      "ceiling_ft": null,
      "hazards": [
        "BR"
      ],
      "severityScore": 10,
      "metarRaw": "METAR LWSK 151250Z VRB02KT CAVOK 10/02 Q1024 NOSIG",
      "tafRaw": "TAF LWSK 151120Z 1512/1612 VRB02KT CAVOK \n  PROB30 \n  TEMPO 1603/1609 5000 BR NSC"
    },
    {
      "icao": "UDSG",
      "iata": "LWN",
      "name": "Shirak International Airport",
      "updatedAt": "151300Z",
      "visibility_m": 10000,
      "taf_visibility_m": 5000,
      "worst_visibility_m": 5000,
      "ceiling_ft": null,
      "hazards": [
        "BR"
      ],
      "severityScore": 10,
      "metarRaw": "METAR UDSG 151300Z 14001KT 9999 NSC M08/M14 Q1019 NOSIG",
      "tafRaw": "TAF UDSG 151058Z 1512/1612 VRB06KT 9999 FEW040 \n  TEMPO 1514/1524 5000 BR"
    },
    {
      "icao": "UDYZ",
      "iata": "EVN",
      "name": "Zvartnots International Airport",
      "updatedAt": "151300Z",
      "visibility_m": 10000,
      "taf_visibility_m": 2300,
      "worst_visibility_m": 2300,
      "ceiling_ft": null,
      "hazards": [
        "BR"
      ],
      "severityScore": 10,
      "metarRaw": "METAR UDYZ 151300Z 03002KT 9999 FEW046 02/M09 Q1020 NOSIG",
      "tafRaw": "TAF UDYZ 151100Z 1512/1612 VRB06KT 6000 FEW040 \n  TEMPO 1520/1606 2300 BR"
    },
    {
      "icao": "ESGG",
      "iata": "GOT",
      "name": "Göteborg Landvetter Airport",
      "updatedAt": "151250Z",
      "visibility_m": 10000,
      "taf_visibility_m": null,
      "worst_visibility_m": 10000,
      "ceiling_ft": 4900,
      "hazards": [],
      "severityScore": 5,
      "metarRaw": "METAR ESGG 151250Z 16010KT 9999 FEW009 BKN049 02/00 Q1009",
      "tafRaw": null
    },
    {
      "icao": "LECH",
      "iata": "CDT",
      "name": "Castellón-Costa Azahar Airport",
      "updatedAt": "151300Z",
      "visibility_m": 10000,
      "taf_visibility_m": null,
      "worst_visibility_m": 10000,
      "ceiling_ft": null,
      "hazards": [],
      "severityScore": 5,
      "metarRaw": "METAR LECH 151300Z AUTO 14008KT 110V170 CAVOK 14/05 Q1017",
      "tafRaw": null
    },
    {
      "icao": "LEMD",
      "iata": "MAD",
      "name": "Adolfo Suárez Madrid–Barajas Airport",
      "updatedAt": "151300Z",
      "visibility_m": 10000,
      "taf_visibility_m": null,
      "worst_visibility_m": 10000,
      "ceiling_ft": 3900,
      "hazards": [],
      "severityScore": 5,
      "metarRaw": "METAR LEMD 151300Z 17006KT 130V210 9999 SCT008 SCT014 BKN039 07/06 Q1018 NOSIG",
      "tafRaw": null
    },
    {
      "icao": "LEXJ",
      "iata": "SDR",
      "name": "Seve Ballesteros-Santander Airport",
      "updatedAt": "151300Z",
      "visibility_m": 10000,
      "taf_visibility_m": null,
      "worst_visibility_m": 10000,
      "ceiling_ft": null,
      "hazards": [],
      "severityScore": 5,
      "metarRaw": "METAR LEXJ 151300Z 20021G43KT 160V250 9999 SCT077 15/03 Q1007",
      "tafRaw": null
    },
    {
      "icao": "LEZG",
      "iata": "ZAZ",
      "name": "Zaragoza Airport",
      "updatedAt": "151300Z",
      "visibility_m": 10000,
      "taf_visibility_m": null,
      "worst_visibility_m": 10000,
      "ceiling_ft": null,
      "hazards": [],
      "severityScore": 5,
      "metarRaw": "METAR LEZG 151300Z 08006KT 050V110 CAVOK 11/05 Q1016 NOSIG",
      "tafRaw": null
    },
    {
      "icao": "OMDB",
      "iata": "DXB",
      "name": "Dubai International Airport",
      "updatedAt": "151300Z",
      "visibility_m": 10000,
      "taf_visibility_m": null,
      "worst_visibility_m": 10000,
      "ceiling_ft": null,
      "hazards": [],
      "severityScore": 5,
      "metarRaw": "METAR OMDB 151300Z 29014KT 220V310 CAVOK 25/11 Q1016 NOSIG",
      "tafRaw": null
    },
    {
      "icao": "BIKF",
      "iata": "KEF",
      "name": "Keflavik International Airport",
      "updatedAt": "151300Z",
      "visibility_m": 10000,
      "taf_visibility_m": 10000,
      "worst_visibility_m": 10000,
      "ceiling_ft": 16000,
      "hazards": [],
      "severityScore": 0,
      "metarRaw": "METAR BIKF 151300Z 03016KT 9999 FEW020 SCT075 BKN160 00/M04 Q0987",
      "tafRaw": "TAF BIKF 151034Z 1512/1612 02018KT 9999 FEW025 SCT045 TX02/1606Z TN00/1512Z"
    },
    {
      "icao": "GCFV",
      "iata": "FUE",
      "name": "Fuerteventura Airport",
      "updatedAt": "151300Z",
      "visibility_m": 10000,
      "taf_visibility_m": 10000,
      "worst_visibility_m": 10000,
      "ceiling_ft": null,
      "hazards": [],
      "severityScore": 0,
      "metarRaw": "METAR GCFV 151300Z 03013KT 9999 SCT035 20/09 Q1024",
      "tafRaw": "TAF GCFV 150800Z 1509/1609 04011KT 9999 SCT040 TX20/1514Z TN15/1606Z \n  TEMPO 1521/1609 34006KT"
    },
    {
      "icao": "GCLP",
      "iata": "LPA",
      "name": "Gran Canaria Airport",
      "updatedAt": "151300Z",
      "visibility_m": 10000,
      "taf_visibility_m": 10000,
      "worst_visibility_m": 10000,
      "ceiling_ft": 3900,
      "hazards": [],
      "severityScore": 0,
      "metarRaw": "METAR GCLP 151300Z 01017KT 340V040 9999 BKN039 20/10 Q1024 NOSIG",
      "tafRaw": "TAF GCLP 150800Z 1509/1609 02016KT 9999 SCT040 TX20/1514Z TN15/1606Z"
    },
    {
      "icao": "GMAD",
      "iata": "AGA",
      "name": "Al Massira Airport",
      "updatedAt": "151300Z",
      "visibility_m": 10000,
      "taf_visibility_m": 8000,
      "worst_visibility_m": 8000,
      "ceiling_ft": null,
      "hazards": [],
      "severityScore": 0,
      "metarRaw": "METAR GMAD 151300Z 27004KT 220V320 9999 SCT030 SCT200 18/13 Q1022 NOSIG",
      "tafRaw": "TAF GMAD 151100Z 1512/1618 27010KT 8000 FEW030"
    },
    {
      "icao": "EDDK",
      "iata": "CGN",
      "name": "Cologne Bonn Airport",
      "updatedAt": "151250Z",
      "visibility_m": 10000,
      "taf_visibility_m": 10000,
      "worst_visibility_m": 10000,
      "ceiling_ft": 2500,
      "hazards": [],
      "severityScore": 0,
      "metarRaw": "METAR EDDK 151250Z AUTO 16008KT 9999 BKN025 BKN036 OVC043 11/08 Q1011 NOSIG",
      "tafRaw": "TAF EDDK 151100Z 1512/1618 15009KT 9999 BKN030"
    },
    {
      "icao": "EDJA",
      "iata": "FMM",
      "name": "Memmingen Allgau Airport",
      "updatedAt": "151250Z",
      "visibility_m": 10000,
      "taf_visibility_m": 10000,
      "worst_visibility_m": 10000,
      "ceiling_ft": null,
      "hazards": [],
      "severityScore": 0,
      "metarRaw": "METAR EDJA 151250Z 22005KT CAVOK 11/03 Q1015",
      "tafRaw": "TAF EDJA 151100Z 1512/1521 22007KT CAVOK \n  BECMG 1514/1516 09004KT"
    },
    {
      "icao": "EDLW",
      "iata": "DTM",
      "name": "Dortmund Airport",
      "updatedAt": "151250Z",
      "visibility_m": 10000,
      "taf_visibility_m": 10000,
      "worst_visibility_m": 10000,
      "ceiling_ft": null,
      "hazards": [],
      "severityScore": 0,
      "metarRaw": "METAR EDLW 151250Z 19012KT 9999 FEW019 11/07 Q1010",
      "tafRaw": "TAF EDLW 151100Z 1512/1612 18013KT 9999 SCT035 \n  PROB40 \n  TEMPO 1520/1606 17015G25KT \n  BECMG 1609/1612 18008KT"
    },
    {
      "icao": "EHEH",
      "iata": "EIN",
      "name": "Eindhoven Airport",
      "updatedAt": "151255Z",
      "visibility_m": 10000,
      "taf_visibility_m": 10000,
      "worst_visibility_m": 10000,
      "ceiling_ft": 13000,
      "hazards": [],
      "severityScore": 0,
      "metarRaw": "METAR EHEH 151255Z AUTO 20012KT 160V240 9999 FEW029 OVC130 11/05 Q1009 BLU NOSIG RMK TREND REMOTE BY EHWX",
      "tafRaw": "TAF EHEH 151106Z 1512/1618 19010KT 9999 BKN020 \n  TEMPO 1512/1513 SCT010 BKN012 \n  BECMG 1515/1517 16010KT \n  TEMPO 1600/1606 21012G25KT SCT012 BKN015 \n  BECMG 1601/1603 19007KT"
    },
    {
      "icao": "ENAL",
      "iata": "AES",
      "name": "Ålesund Airport, Vigra",
      "updatedAt": "151250Z",
      "visibility_m": 10000,
      "taf_visibility_m": 10000,
      "worst_visibility_m": 10000,
      "ceiling_ft": null,
      "hazards": [],
      "severityScore": 0,
      "metarRaw": "METAR ENAL 151250Z 12008KT CAVOK 07/M01 Q0997",
      "tafRaw": "TAF ENAL 151100Z 1512/1521 13008KT 9999 SCT060"
    },
    {
      "icao": "ENTC",
      "iata": "TOS",
      "name": "Tromsø Airport, Langnes",
      "updatedAt": "151250Z",
      "visibility_m": 10000,
      "taf_visibility_m": 10000,
      "worst_visibility_m": 10000,
      "ceiling_ft": null,
      "hazards": [],
      "severityScore": 0,
      "metarRaw": "METAR ENTC 151250Z 19012KT CAVOK M03/M08 Q1007 NOSIG RMK WIND 2600FT 18013KT",
      "tafRaw": "TAF ENTC 151100Z 1512/1612 20008KT CAVOK \n  TEMPO 1514/1521 20018KT"
    },
    {
      "icao": "ENVA",
      "iata": "TRD",
      "name": "Trondheim Airport, Værnes",
      "updatedAt": "151250Z",
      "visibility_m": 10000,
      "taf_visibility_m": 10000,
      "worst_visibility_m": 10000,
      "ceiling_ft": null,
      "hazards": [],
      "severityScore": 0,
      "metarRaw": "METAR ENVA 151250Z 07008KT CAVOK M01/M06 Q1003 NOSIG RMK WIND 670FT 11011KT",
      "tafRaw": "TAF ENVA 151100Z 1512/1612 09008KT CAVOK \n  TEMPO 1516/1524 16020G30KT"
    },
    {
      "icao": "HEGN",
      "iata": "HRG",
      "name": "Hurghada International Airport",
      "updatedAt": "151200Z",
      "visibility_m": 10000,
      "taf_visibility_m": 10000,
      "worst_visibility_m": 10000,
      "ceiling_ft": null,
      "hazards": [],
      "severityScore": 0,
      "metarRaw": "METAR HEGN 151200Z 36012KT CAVOK 20/07 Q1021 NOSIG",
      "tafRaw": "TAF HEGN 151100Z 1512/1618 35010G20KT CAVOK"
    },
    {
      "icao": "HEMA",
      "iata": "RMF",
      "name": "Marsa Alam International Airport",
      "updatedAt": "151200Z",
      "visibility_m": 10000,
      "taf_visibility_m": 6000,
      "worst_visibility_m": 6000,
      "ceiling_ft": null,
      "hazards": [],
      "severityScore": 0,
      "metarRaw": "METAR HEMA 151200Z 35020KT 9999 SCT020 SCT025 20/09 Q1020 NOSIG",
      "tafRaw": "TAF HEMA 151100Z 1512/1618 36015G25KT 6000 SCT025"
    },
    {
      "icao": "HESH",
      "iata": "SSH",
      "name": "Sharm El Sheikh International Airport",
      "updatedAt": "151200Z",
      "visibility_m": 10000,
      "taf_visibility_m": 10000,
      "worst_visibility_m": 10000,
      "ceiling_ft": null,
      "hazards": [],
      "severityScore": 0,
      "metarRaw": "METAR HESH 151200Z 34011KT CAVOK 21/07 Q1021 NOSIG",
      "tafRaw": "TAF HESH 151100Z 1512/1618 02010G20KT CAVOK"
    },
    {
      "icao": "LATI",
      "iata": "TIA",
      "name": "Tirana International Airport Mother Teresa",
      "updatedAt": "151250Z",
      "visibility_m": 10000,
      "taf_visibility_m": 10000,
      "worst_visibility_m": 10000,
      "ceiling_ft": 9000,
      "hazards": [],
      "severityScore": 0,
      "metarRaw": "METAR LATI 151250Z VRB01KT 9999 FEW050 BKN090 16/04 Q1024 NOSIG",
      "tafRaw": "TAF LATI 151100Z 1512/1612 VRB05KT CAVOK TX16/1512Z TN03/1605Z"
    },
    {
      "icao": "LCLK",
      "iata": "LCA",
      "name": "Larnaca International Airport",
      "updatedAt": "151300Z",
      "visibility_m": 10000,
      "taf_visibility_m": 10000,
      "worst_visibility_m": 10000,
      "ceiling_ft": 5000,
      "hazards": [],
      "severityScore": 0,
      "metarRaw": "METAR LCLK 151300Z 16005KT 120V200 9999 FEW040 BKN050 15/07 Q1023 NOSIG",
      "tafRaw": "TAF LCLK 151130Z 1512/1612 11010KT 9999 FEW040 \n  BECMG 1512/1516 31006KT \n  BECMG 1608/1611 18010KT"
    },
    {
      "icao": "LCPH",
      "iata": "PFO",
      "name": "Paphos International Airport",
      "updatedAt": "151300Z",
      "visibility_m": 10000,
      "taf_visibility_m": 10000,
      "worst_visibility_m": 10000,
      "ceiling_ft": null,
      "hazards": [],
      "severityScore": 0,
      "metarRaw": "METAR LCPH 151300Z 26004KT 230V320 9999 FEW040 SCT050 17/07 Q1023 NOSIG",
      "tafRaw": "TAF LCPH 151130Z 1512/1612 23010KT 9999 FEW035 SCT045 \n  BECMG 1513/1516 02007KT \n  BECMG 1608/1612 24010KT"
    },
    {
      "icao": "LEVC",
      "iata": "VLC",
      "name": "Valencia Airport",
      "updatedAt": "151300Z",
      "visibility_m": 10000,
      "taf_visibility_m": 10000,
      "worst_visibility_m": 10000,
      "ceiling_ft": null,
      "hazards": [],
      "severityScore": 0,
      "metarRaw": "METAR LEVC 151300Z 24006KT 160V320 CAVOK 18/06 Q1017 NOSIG",
      "tafRaw": "TAF LEVC 151100Z 1512/1612 26005KT CAVOK TX18/1512Z TN06/1606Z \n  TEMPO 1512/1520 20010KT"
    },
    {
      "icao": "LFLL",
      "iata": "LYS",
      "name": "Lyon Saint-Exupéry Airport",
      "updatedAt": "151300Z",
      "visibility_m": 10000,
      "taf_visibility_m": 10000,
      "worst_visibility_m": 10000,
      "ceiling_ft": null,
      "hazards": [],
      "severityScore": 0,
      "metarRaw": "METAR LFLL 151300Z 18015KT 9999 FEW038 SCT260 14/05 Q1013 NOSIG",
      "tafRaw": "TAF LFLL 151100Z 1512/1618 18015G25KT CAVOK \n  TEMPO 1518/1523 18020G35KT FEW030 \n  BECMG 1602/1604 16008KT"
    },
    {
      "icao": "LFLS",
      "iata": "GNB",
      "name": "Grenoble Alpes Isère Airport",
      "updatedAt": "151300Z",
      "visibility_m": 10000,
      "taf_visibility_m": 10000,
      "worst_visibility_m": 10000,
      "ceiling_ft": null,
      "hazards": [],
      "severityScore": 0,
      "metarRaw": "METAR LFLS 151300Z AUTO 21010KT 180V240 CAVOK 13/05 Q1014 NOSIG",
      "tafRaw": "TAF LFLS 150800Z 1509/1609 08006KT CAVOK \n  BECMG 1510/1512 22012KT \n  TEMPO 1517/1522 28010KT \n  FM152200 08005KT CAVOK \n  PROB40 \n  TEMPO 1522/1524 28010KT"
    },
    {
      "icao": "LFMN",
      "iata": "NCE",
      "name": "Nice-Côte d'Azur Airport",
      "updatedAt": "151300Z",
      "visibility_m": 10000,
      "taf_visibility_m": 10000,
      "worst_visibility_m": 10000,
      "ceiling_ft": null,
      "hazards": [],
      "severityScore": 0,
      "metarRaw": "METAR LFMN 151300Z 09004KT 060V120 9999 FEW026 15/09 Q1019 NOSIG",
      "tafRaw": "TAF LFMN 150800Z 1509/1615 33010KT CAVOK \n  BECMG 1511/1513 12005KT \n  BECMG 1518/1520 33010KT \n  BECMG 1611/1613 09015KT"
    },
    {
      "icao": "LFSB",
      "iata": "BSL",
      "name": "EuroAirport Basel–Mulhouse–Freiburg",
      "updatedAt": "151300Z",
      "visibility_m": 10000,
      "taf_visibility_m": 10000,
      "worst_visibility_m": 10000,
      "ceiling_ft": null,
      "hazards": [],
      "severityScore": 0,
      "metarRaw": "METAR LFSB 151300Z AUTO 12010KT CAVOK 13/05 Q1013 NOSIG",
      "tafRaw": "TAF LFSB 151100Z 1512/1612 15008KT CAVOK"
    },
    {
      "icao": "LIBD",
      "iata": "BRI",
      "name": "Bari Karol Wojtyła International Airport",
      "updatedAt": "151250Z",
      "visibility_m": 10000,
      "taf_visibility_m": 10000,
      "worst_visibility_m": 10000,
      "ceiling_ft": null,
      "hazards": [],
      "severityScore": 0,
      "metarRaw": "METAR LIBD 151250Z 01004KT 310V060 CAVOK 13/09 Q1022",
      "tafRaw": "TAF LIBD 151100Z 1512/1612 VRB06KT 9999 FEW030"
    },
    {
      "icao": "LIBG",
      "iata": "TAR",
      "name": "Taranto-Grottaglie Marcello Arlotta Airport",
      "updatedAt": "151150Z",
      "visibility_m": 10000,
      "taf_visibility_m": 8000,
      "worst_visibility_m": 8000,
      "ceiling_ft": null,
      "hazards": [],
      "severityScore": 0,
      "metarRaw": "METAR LIBG 151150Z 20004KT 160V240 9999 FEW020 15/15 Q1023",
      "tafRaw": "TAF LIBG 151100Z 1512/1521 VRB05KT 8000 FEW025"
    },
    {
      "icao": "LICA",
      "iata": "SUF",
      "name": "Lamezia Terme Sant'Eufemia International Airport",
      "updatedAt": "151250Z",
      "visibility_m": 10000,
      "taf_visibility_m": 10000,
      "worst_visibility_m": 10000,
      "ceiling_ft": null,
      "hazards": [],
      "severityScore": 0,
      "metarRaw": "METAR LICA 151250Z AUTO 28008KT 9999 NCD 16/08 Q1022",
      "tafRaw": "TAF LICA 151100Z 1512/1612 08010KT CAVOK"
    },
    {
      "icao": "LICC",
      "iata": "CTA",
      "name": "Catania-Fontanarossa Airport",
      "updatedAt": "151250Z",
      "visibility_m": 10000,
      "taf_visibility_m": 10000,
      "worst_visibility_m": 10000,
      "ceiling_ft": null,
      "hazards": [],
      "severityScore": 0,
      "metarRaw": "METAR LICC 151250Z 19003KT 130V250 9999 SCT040 19/15 Q1022",
      "tafRaw": "TAF LICC 151100Z 1512/1612 VRB05KT 9999 SCT040 \n  BECMG 1610/1612 08010KT"
    },
    {
      "icao": "LICJ",
      "iata": "PMO",
      "name": "Falcone–Borsellino Airport",
      "updatedAt": "151250Z",
      "visibility_m": 10000,
      "taf_visibility_m": 10000,
      "worst_visibility_m": 10000,
      "ceiling_ft": null,
      "hazards": [],
      "severityScore": 0,
      "metarRaw": "METAR LICJ 151250Z 05011KT CAVOK 17/07 Q1021",
      "tafRaw": "TAF LICJ 151100Z 1512/1612 05010KT CAVOK \n  BECMG 1516/1518 VRB05KT"
    },
    {
      "icao": "LIMF",
      "iata": "TRN",
      "name": "Turin Airport",
      "updatedAt": "151250Z",
      "visibility_m": 7000,
      "taf_visibility_m": 8000,
      "worst_visibility_m": 7000,
      "ceiling_ft": 5500,
      "hazards": [],
      "severityScore": 0,
      "metarRaw": "METAR LIMF 151250Z VRB02KT 7000 BKN055 08/01 Q1021",
      "tafRaw": "TAF LIMF 151100Z 1512/1612 VRB03KT 8000 SCT050"
    },
    {
      "icao": "LIRF",
      "iata": "FCO",
      "name": "Rome–Fiumicino Leonardo da Vinci International Airport",
      "updatedAt": "151250Z",
      "visibility_m": 10000,
      "taf_visibility_m": 10000,
      "worst_visibility_m": 10000,
      "ceiling_ft": null,
      "hazards": [],
      "severityScore": 0,
      "metarRaw": "METAR LIRF 151250Z 14012KT 120V180 9999 FEW030 16/11 Q1021 NOSIG",
      "tafRaw": "TAF LIRF 151100Z 1512/1618 15012KT 9999 SCT030 \n  BECMG 1519/1521 08007KT"
    },
    {
      "icao": "LIRN",
      "iata": "NAP",
      "name": "Naples International Airport",
      "updatedAt": "151250Z",
      "visibility_m": 10000,
      "taf_visibility_m": 10000,
      "worst_visibility_m": 10000,
      "ceiling_ft": null,
      "hazards": [],
      "severityScore": 0,
      "metarRaw": "METAR LIRN 151250Z VRB02KT 9999 FEW040 15/06 Q1022 NOSIG",
      "tafRaw": "TAF LIRN 151100Z 1512/1612 VRB05KT CAVOK"
    },
    {
      "icao": "LLBG",
      "iata": "TLV",
      "name": "Ben Gurion International Airport",
      "updatedAt": "151250Z",
      "visibility_m": 10000,
      "taf_visibility_m": 10000,
      "worst_visibility_m": 10000,
      "ceiling_ft": 3500,
      "hazards": [],
      "severityScore": 0,
      "metarRaw": "METAR LLBG 151250Z VRB02KT 9999 SCT050 18/06 Q1023 NOSIG",
      "tafRaw": "TAF LLBG 151112Z 1512/1612 32010KT 9999 FEW040 \n  BECMG 1515/1517 VRB04KT \n  PROB40 \n  TEMPO 1522/1607 16007KT BKN035 \n  BECMG 1607/1610 28008KT TX18/1512Z TN11/1604Z"
    },
    {
      "icao": "LMML",
      "iata": "MLA",
      "name": "Malta International Airport",
      "updatedAt": "151245Z",
      "visibility_m": 10000,
      "taf_visibility_m": 10000,
      "worst_visibility_m": 10000,
      "ceiling_ft": null,
      "hazards": [],
      "severityScore": 0,
      "metarRaw": "METAR LMML 151245Z 15012KT 9999 FEW019 18/13 Q1022 NOSIG",
      "tafRaw": "TAF LMML 151100Z 1512/1612 15012KT 9999 FEW018"
    },
    {
      "icao": "LQBK",
      "iata": "BNX",
      "name": "Banja Luka International Airport",
      "updatedAt": "151300Z",
      "visibility_m": 10000,
      "taf_visibility_m": 10000,
      "worst_visibility_m": 10000,
      "ceiling_ft": null,
      "hazards": [],
      "severityScore": 0,
      "metarRaw": "METAR LQBK 151300Z VRB03KT CAVOK 08/03 Q1021 NOSIG",
      "tafRaw": "TAF LQBK 151100Z 1512/1612 22005KT CAVOK TX08/1513Z TN02/1605Z"
    },
    {
      "icao": "LWOH",
      "iata": "OHD",
      "name": "Ohrid St. Paul the Apostle Airport",
      "updatedAt": "151250Z",
      "visibility_m": 10000,
      "taf_visibility_m": 10000,
      "worst_visibility_m": 10000,
      "ceiling_ft": null,
      "hazards": [],
      "severityScore": 0,
      "metarRaw": "METAR LWOH 151250Z 15004KT 9999 FEW033 09/03 Q1024",
      "tafRaw": "TAF LWOH 151120Z 1512/1612 VRB02KT 9999 FEW033"
    },
    {
      "icao": "LYPG",
      "iata": "TGD",
      "name": "Podgorica Airport / Podgorica Golubovci Airbase",
      "updatedAt": "151300Z",
      "visibility_m": 10000,
      "taf_visibility_m": 10000,
      "worst_visibility_m": 10000,
      "ceiling_ft": 7000,
      "hazards": [],
      "severityScore": 0,
      "metarRaw": "METAR LYPG 151300Z 22004KT 140V290 9999 FEW050 BKN070 13/05 Q1025 NOSIG",
      "tafRaw": "TAF LYPG 151100Z 1512/1612 17005KT 9999 FEW040 BKN080 TX13/1513Z TN05/1605Z"
    },
    {
      "icao": "OEJN",
      "iata": "JED",
      "name": "King Abdulaziz International Airport",
      "updatedAt": "151300Z",
      "visibility_m": 10000,
      "taf_visibility_m": 2000,
      "worst_visibility_m": 2000,
      "ceiling_ft": null,
      "hazards": [],
      "severityScore": 0,
      "metarRaw": "METAR OEJN 151300Z 31013KT CAVOK 28/08 Q1013 NOSIG",
      "tafRaw": "TAF OEJN 151100Z 1512/1618 33014KT 9999 FEW040 \n  BECMG 1522/1600 09012KT 7000 \n  TEMPO 1522/1608 2000 DU \n  BECMG 1610/1612 28010KT"
    },
    {
      "icao": "OEMA",
      "iata": "MED",
      "name": "Prince Mohammad Bin Abdulaziz Airport",
      "updatedAt": "151300Z",
      "visibility_m": 10000,
      "taf_visibility_m": 2000,
      "worst_visibility_m": 2000,
      "ceiling_ft": null,
      "hazards": [],
      "severityScore": 0,
      "metarRaw": "METAR OEMA 151300Z 05007KT CAVOK 22/M04 Q1020 NOSIG",
      "tafRaw": "TAF OEMA 151100Z 1512/1618 08012KT 7000 NSC \n  TEMPO 1518/1608 2000 DU"
    },
    {
      "icao": "OMAA",
      "iata": "AUH",
      "name": "Zayed International Airport",
      "updatedAt": "151300Z",
      "visibility_m": 10000,
      "taf_visibility_m": 8000,
      "worst_visibility_m": 8000,
      "ceiling_ft": null,
      "hazards": [],
      "severityScore": 0,
      "metarRaw": "METAR OMAA 151300Z 29014KT CAVOK 23/12 Q1016 NOSIG",
      "tafRaw": "TAF OMAA 151100Z 1512/1618 32015KT 8000 FEW045"
    }
  ],
  "stats": {
    "icaoCount": 159,
    "metarReturned": 159,
    "tafReturned": 145,
    "stationsWritten": 159,
    "missingMetar": 0,
    "missingTaf": 14
  },
  "errors": []
}