{
  "generatedAt": "2026-02-04T04:45:23.990Z",
  "stations": [
    {
      "icao": "EDDS",
      "iata": "STR",
      "name": "Stuttgart Airport",
      "lat": 48.689899,
      "lon": 9.22196,
      "updatedAt": "040420Z",
      "visibility_m": 800,
      "taf_visibility_m": 400,
      "worst_visibility_m": 400,
      "ceiling_ft": 100,
      "hazards": [
        "FG",
        "FZFG",
        "BR"
      ],
      "severityScore": 100,
      "metarRaw": "METAR EDDS 040420Z AUTO 30002KT 1700 0800 R25/P2000N BCFG NCD M03/M03 Q0999",
      "tafRaw": "TAF EDDS 032300Z 0400/0424 VRB02KT 3000 BR NSC \n  PROB40 \n  TEMPO 0400/0409 0400 FZFG BKN001 \n  BECMG 0409/0412 06007KT 9000",
      "minima": {
        "best": {
          "cig_ft": 0,
          "vis_m": 75
        },
        "alt": {
          "cig_ft": 100,
          "vis_m": 300
        },
        "wind": {
          "threshold_kt": 29,
          "use_gust": false,
          "apply": true
        },
        "approach_category": null
      }
    },
    {
      "icao": "EDFH",
      "iata": "HHN",
      "name": "Frankfurt-Hahn Airport",
      "lat": 49.946353,
      "lon": 7.261734,
      "updatedAt": "040420Z",
      "visibility_m": 250,
      "taf_visibility_m": 300,
      "worst_visibility_m": 250,
      "ceiling_ft": 0,
      "hazards": [
        "FZFG",
        "FG"
      ],
      "severityScore": 100,
      "metarRaw": "METAR EDFH 040420Z 13011KT 0250 R21/0300N FZFG VV/// M01/M01 Q0998",
      "tafRaw": "TAF EDFH 032300Z 0400/0424 14015KT 0700 FG OVC004 \n  TEMPO 0400/0410 0300 FZFG VV000 \n  BECMG 0408/0410 13015G25KT \n  BECMG 0410/0414 9999 SCT003 BKN007 \n  BECMG 0418/0421 0400 FG VV001",
      "minima": {
        "best": {
          "cig_ft": 0,
          "vis_m": 75
        },
        "alt": {
          "cig_ft": 100,
          "vis_m": 300
        },
        "wind": {
          "threshold_kt": 29,
          "use_gust": false,
          "apply": true
        },
        "approach_category": null
      }
    },
    {
      "icao": "EDJA",
      "iata": "FMM",
      "name": "Memmingen Allgau Airport",
      "lat": 47.988092,
      "lon": 10.238248,
      "updatedAt": "040420Z",
      "visibility_m": 10000,
      "taf_visibility_m": 600,
      "worst_visibility_m": 600,
      "ceiling_ft": 100,
      "hazards": [
        "FZFG",
        "FG"
      ],
      "severityScore": 100,
      "metarRaw": "METAR EDJA 040420Z AUTO 04002KT 9999 // SCT140/// M03/M03 Q0999",
      "tafRaw": "TAF EDJA 040200Z 0403/0412 VRB03KT 7000 NSC \n  BECMG 0403/0405 1200 BCFG \n  TEMPO 0405/0407 0600 FZFG VV001 \n  BECMG 0407/0409 9999",
      "minima": {
        "best": {
          "cig_ft": 200,
          "vis_m": 550
        },
        "alt": {
          "cig_ft": 270,
          "vis_m": 600
        },
        "wind": {
          "threshold_kt": 29,
          "use_gust": false,
          "apply": true
        },
        "approach_category": null
      }
    },
    {
      "icao": "EDSB",
      "iata": "FKB",
      "name": "Karlsruhe Baden-Baden Airport",
      "lat": 48.7794,
      "lon": 8.0805,
      "updatedAt": "040420Z",
      "visibility_m": 500,
      "taf_visibility_m": 300,
      "worst_visibility_m": 300,
      "ceiling_ft": 0,
      "hazards": [
        "FZFG",
        "FG"
      ],
      "severityScore": 100,
      "metarRaw": "METAR EDSB 040420Z 01004KT 0500 R21/0650U FZFG VV/// M01/M01 Q1000",
      "tafRaw": "TAF EDSB 032300Z 0400/0424 VRB03KT 0800 FG VV002 \n  TEMPO 0400/0412 0300 FZFG VV000 \n  BECMG 0409/0413 02009KT 9000 SCT010",
      "minima": {
        "best": {
          "cig_ft": 0,
          "vis_m": 75
        },
        "alt": {
          "cig_ft": 100,
          "vis_m": 300
        },
        "wind": {
          "threshold_kt": 29,
          "use_gust": false,
          "apply": true
        },
        "approach_category": null
      }
    },
    {
      "icao": "EGGW",
      "iata": "LTN",
      "name": "London Luton Airport",
      "lat": 51.874699,
      "lon": -0.368333,
      "updatedAt": "040420Z",
      "visibility_m": 200,
      "taf_visibility_m": 300,
      "worst_visibility_m": 200,
      "ceiling_ft": 200,
      "hazards": [
        "FG",
        "BR",
        "RA",
        "DZ"
      ],
      "severityScore": 100,
      "metarRaw": "METAR EGGW 040420Z AUTO 15005KT 0200 FG OVC002 03/03 Q0992",
      "tafRaw": "TAF EGGW 032256Z 0400/0424 13007KT 6000 SCT004 BKN020 \n  TEMPO 0400/0403 2000 RADZ BKN004 \n  PROB40 0400/0410 0300 FG OVC000 \n  TEMPO 0403/0410 2000 BR BKN004 \n  BECMG 0410/0413 9999 \n  TEMPO 0417/0422 BKN007 \n  PROB40 \n  TEMPO 0418/0424 09015G25KT",
      "minima": {
        "best": {
          "cig_ft": 0,
          "vis_m": 75
        },
        "alt": {
          "cig_ft": 100,
          "vis_m": 300
        },
        "wind": {
          "threshold_kt": 29,
          "use_gust": false,
          "apply": true
        },
        "approach_category": null
      }
    },
    {
      "icao": "EGKK",
      "iata": "LGW",
      "name": "London Gatwick Airport",
      "lat": 51.148771,
      "lon": -0.192089,
      "updatedAt": "040420Z",
      "visibility_m": 2000,
      "taf_visibility_m": 300,
      "worst_visibility_m": 300,
      "ceiling_ft": 1100,
      "hazards": [
        "FG",
        "BR",
        "RA",
        "DZ"
      ],
      "severityScore": 100,
      "metarRaw": "METAR EGKK 040420Z 11002KT 2000 BCFG BKN011 03/03 Q0992",
      "tafRaw": "TAF EGKK 032258Z 0400/0506 VRB04KT 9999 SCT010 \n  TEMPO 0400/0410 3000 BR BKN003 \n  PROB40 \n  TEMPO 0400/0410 0300 FG BKN001 \n  BECMG 0408/0411 10010KT \n  PROB30 \n  TEMPO 0410/0412 4000 BR BKN006 \n  TEMPO 0500/0506 6000 RA BKN012 \n  PROB30 \n  TEMPO 0501/0506 3000 RADZ +RA BKN006",
      "minima": {
        "best": {
          "cig_ft": 0,
          "vis_m": 75
        },
        "alt": {
          "cig_ft": 100,
          "vis_m": 300
        },
        "wind": {
          "threshold_kt": 29,
          "use_gust": false,
          "apply": true
        },
        "approach_category": null
      }
    },
    {
      "icao": "EPKK",
      "iata": "KRK",
      "name": "Kraków John Paul II International Airport",
      "lat": 50.077702,
      "lon": 19.7848,
      "updatedAt": "040430Z",
      "visibility_m": 5000,
      "taf_visibility_m": 700,
      "worst_visibility_m": 700,
      "ceiling_ft": 600,
      "hazards": [
        "BR",
        "FG",
        "FZRA",
        "FZDZ",
        "DZ",
        "RA"
      ],
      "severityScore": 100,
      "metarRaw": "METAR EPKK 040430Z 06006KT 5000 BR BKN006 OVC028 M03/M05 Q1009",
      "tafRaw": "TAF EPKK 040230Z 0403/0503 06005KT 4500 BR OVC007 \n  PROB40 \n  TEMPO 0403/0405 1400 -FZRA -FZDZ -SG OVC003 \n  PROB40 \n  TEMPO 0405/0408 1500 BR OVC003 \n  BECMG 0408/0410 8000 BKN020 \n  BECMG 0415/0418 2000 BR OVC008 \n  BECMG 0418/0421 1200 -DZ BR OVC004 \n  TEMPO 0421/0503 0700 -DZ FG OVC001",
      "minima": {
        "best": {
          "cig_ft": 230,
          "vis_m": 550
        },
        "alt": {
          "cig_ft": 350,
          "vis_m": 900
        },
        "wind": {
          "threshold_kt": 29,
          "use_gust": false,
          "apply": true
        },
        "approach_category": null
      }
    },
    {
      "icao": "EPKT",
      "iata": "KTW",
      "name": "Katowice Wojciech Korfanty International Airport",
      "lat": 50.476015,
      "lon": 19.080705,
      "updatedAt": "040430Z",
      "visibility_m": 3900,
      "taf_visibility_m": 1200,
      "worst_visibility_m": 1200,
      "ceiling_ft": 1100,
      "hazards": [
        "BR",
        "FZDZ",
        "RA",
        "DZ",
        "FZRA",
        "SN"
      ],
      "severityScore": 100,
      "metarRaw": "METAR EPKT 040430Z 08003KT 3900 -FZDZRA BR SCT009 BKN011 M03/M04 Q1008",
      "tafRaw": "TAF EPKT 032330Z 0400/0424 10006KT 4000 -SN BR SCT008 OVC020 \n  PROB40 \n  TEMPO 0400/0407 1400 -FZRA -FZDZ -SG OVC003 \n  BECMG 0407/0410 9999 \n  BECMG 0415/0418 2000 BR OVC007 \n  TEMPO 0418/0424 1200 -DZ BR OVC002",
      "minima": {
        "best": {
          "cig_ft": 109,
          "vis_m": 300
        },
        "alt": {
          "cig_ft": 220,
          "vis_m": 550
        },
        "wind": {
          "threshold_kt": 29,
          "use_gust": false,
          "apply": true
        },
        "approach_category": null
      }
    },
    {
      "icao": "EPLB",
      "iata": "LUZ",
      "name": "Lublin Airport",
      "lat": 51.240157,
      "lon": 22.713461,
      "updatedAt": "040430Z",
      "visibility_m": 2000,
      "taf_visibility_m": 1500,
      "worst_visibility_m": 1500,
      "ceiling_ft": 1200,
      "hazards": [
        "BR",
        "SN",
        "FZDZ",
        "RA",
        "DZ"
      ],
      "severityScore": 100,
      "metarRaw": "METAR EPLB 040430Z 08011KT 2000 1200W -SN BR SCT006 OVC012 M10/M10 Q1013",
      "tafRaw": "TAF EPLB 032330Z 0400/0424 10012KT 7000 BKN020 \n  BECMG 0400/0403 4500 -SN BKN007 \n  TEMPO 0402/0407 10015G25KT 1500 SN BKN004 \n  PROB40 \n  TEMPO 0407/0415 2000 -SN BR BKN004 \n  PROB40 \n  TEMPO 0415/0424 -FZDZRA BKN004",
      "minima": {
        "best": {
          "cig_ft": 100,
          "vis_m": 300
        },
        "alt": {
          "cig_ft": 250,
          "vis_m": 800
        },
        "wind": {
          "threshold_kt": 29,
          "use_gust": false,
          "apply": true
        },
        "approach_category": null
      }
    },
    {
      "icao": "EPRZ",
      "iata": "RZE",
      "name": "Rzeszów-Jasionka Airport",
      "lat": 50.109791,
      "lon": 22.024155,
      "updatedAt": "040430Z",
      "visibility_m": 10000,
      "taf_visibility_m": 1200,
      "worst_visibility_m": 1200,
      "ceiling_ft": 1600,
      "hazards": [
        "BR",
        "FZRA",
        "SN",
        "FZDZ",
        "RA",
        "DZ"
      ],
      "severityScore": 100,
      "metarRaw": "METAR EPRZ 040430Z 09012KT 9999 OVC016 M06/M08 Q1011",
      "tafRaw": "TAF EPRZ 032330Z 0400/0424 10012KT 4000 -SN BR SCT009 BKN020 \n  TEMPO 0400/0403 1500 SN BR OVC006 \n  PROB40 \n  TEMPO 0403/0409 1500 -FZRA -FZDZ BR BKN003 \n  BECMG 0409/0411 9999 \n  BECMG 0413/0415 3000 BR BKN007 \n  TEMPO 0415/0424 1200 -FZRA -FZDZ -SG OVC003",
      "minima": {
        "best": {
          "cig_ft": 112,
          "vis_m": 300
        },
        "alt": {
          "cig_ft": 200,
          "vis_m": 550
        },
        "wind": {
          "threshold_kt": 29,
          "use_gust": false,
          "apply": true
        },
        "approach_category": null
      }
    },
    {
      "icao": "EPWR",
      "iata": "WRO",
      "name": "Copernicus Wrocław Airport",
      "lat": 51.103719,
      "lon": 16.882096,
      "updatedAt": "040430Z",
      "visibility_m": 6000,
      "taf_visibility_m": 1200,
      "worst_visibility_m": 1200,
      "ceiling_ft": 600,
      "hazards": [
        "BR",
        "FZDZ",
        "SN",
        "FZRA",
        "RA",
        "DZ"
      ],
      "severityScore": 100,
      "metarRaw": "METAR EPWR 040430Z 10006KT 6000 OVC006 M04/M05 Q1008",
      "tafRaw": "TAF EPWR 040230Z 0403/0503 10008KT 7000 OVC007 \n  TEMPO 0403/0410 4000 -SNRA BR OVC004 \n  PROB30 \n  TEMPO 0403/0410 1200 -FZDZ BR \n  BECMG 0410/0412 BKN015 \n  BECMG 0417/0420 4500 -RADZ BR BKN007 \n  TEMPO 0419/0503 2000 -FZRADZ -RASN BR BKN004",
      "minima": {
        "best": {
          "cig_ft": 102,
          "vis_m": 300
        },
        "alt": {
          "cig_ft": 200,
          "vis_m": 550
        },
        "wind": {
          "threshold_kt": 29,
          "use_gust": false,
          "apply": true
        },
        "approach_category": null
      }
    },
    {
      "icao": "EYKA",
      "iata": "KUN",
      "name": "Kaunas International Airport",
      "lat": 54.963965,
      "lon": 24.08582,
      "updatedAt": "040420Z",
      "visibility_m": 10000,
      "taf_visibility_m": 600,
      "worst_visibility_m": 600,
      "ceiling_ft": 200,
      "hazards": [
        "FZFG",
        "BR",
        "FG"
      ],
      "severityScore": 100,
      "metarRaw": "METAR EYKA 040420Z 09006KT CAVOK M18/M20 Q1024",
      "tafRaw": "TAF EYKA 032300Z 0400/0424 VRB04KT 9000 NSC \n  TEMPO 0400/0408 5000 BR SCT005 \n  PROB40 \n  TEMPO 0402/0408 0600 FZFG VV002 \n  BECMG 0408/0410 10014KT",
      "minima": {
        "best": {
          "cig_ft": 178,
          "vis_m": 450
        },
        "alt": {
          "cig_ft": 260,
          "vis_m": 600
        },
        "wind": {
          "threshold_kt": 29,
          "use_gust": false,
          "apply": true
        },
        "approach_category": null
      }
    },
    {
      "icao": "EYVI",
      "iata": "VNO",
      "name": "Vilnius International Airport",
      "lat": 54.634102,
      "lon": 25.285801,
      "updatedAt": "040420Z",
      "visibility_m": 10000,
      "taf_visibility_m": 600,
      "worst_visibility_m": 600,
      "ceiling_ft": 200,
      "hazards": [
        "FZFG",
        "BR",
        "FG"
      ],
      "severityScore": 100,
      "metarRaw": "METAR EYVI 040420Z 11005KT CAVOK M16/M18 Q1022 NOSIG",
      "tafRaw": "TAF EYVI 032300Z 0400/0424 VRB04KT 9000 NSC \n  TEMPO 0400/0408 5000 BR SCT005 \n  PROB40 \n  TEMPO 0402/0408 0600 FZFG VV002 \n  BECMG 0408/0410 11014KT",
      "minima": {
        "best": {
          "cig_ft": 152,
          "vis_m": 450
        },
        "alt": {
          "cig_ft": 250,
          "vis_m": 550
        },
        "wind": {
          "threshold_kt": 29,
          "use_gust": false,
          "apply": true
        },
        "approach_category": null
      }
    },
    {
      "icao": "LBPD",
      "iata": "PDV",
      "name": "Plovdiv International Airport",
      "lat": 42.067799,
      "lon": 24.8508,
      "updatedAt": "040430Z",
      "visibility_m": 5000,
      "taf_visibility_m": 600,
      "worst_visibility_m": 600,
      "ceiling_ft": 300,
      "hazards": [
        "BR",
        "FZFG",
        "RA",
        "FG"
      ],
      "severityScore": 100,
      "metarRaw": "METAR LBPD 040430Z AUTO VRB01KT 9999 OVC012/// M00/M01 Q1020 TEMPO 5000 BR",
      "tafRaw": "TAF LBPD 032300Z 0400/0424 VRB03KT 3000 BR OVC010 \n  TEMPO 0400/0408 1500 BR BKN005 OVC008 \n  PROB30 \n  TEMPO 0402/0407 0600 FZFG BKN003 \n  BECMG 0409/0411 7000 NSW BKN012 \n  TEMPO 0419/0424 3000 RA SCT005 BKN010",
      "minima": {
        "best": {
          "cig_ft": 200,
          "vis_m": 550
        },
        "alt": {
          "cig_ft": 260,
          "vis_m": 800
        },
        "wind": {
          "threshold_kt": 29,
          "use_gust": false,
          "apply": true
        },
        "approach_category": null
      }
    },
    {
      "icao": "LBSF",
      "iata": "SOF",
      "name": "Sofia Airport",
      "lat": 42.696357,
      "lon": 23.417671,
      "updatedAt": "040430Z",
      "visibility_m": 4000,
      "taf_visibility_m": 800,
      "worst_visibility_m": 800,
      "ceiling_ft": 300,
      "hazards": [
        "BR",
        "FZFG",
        "DZ",
        "FG"
      ],
      "severityScore": 100,
      "metarRaw": "METAR LBSF 040430Z 06002KT 7000 NSC M03/M04 Q1017 TEMPO 4000 BR",
      "tafRaw": "TAF LBSF 032300Z 0400/0424 10010KT 9999 SCT050 \n  BECMG 0400/0402 VRB03KT 3000 BR SCT010 BKN015 \n  PROB30 \n  TEMPO 0403/0406 0800 FZFG BKN003 \n  BECMG 0406/0408 10010KT 9999 NSW SCT040 BKN060 \n  TEMPO 0421/0424 3000 DZ BR SCT005 OVC010",
      "minima": {
        "best": {
          "cig_ft": 0,
          "vis_m": 75
        },
        "alt": {
          "cig_ft": 100,
          "vis_m": 300
        },
        "wind": {
          "threshold_kt": 29,
          "use_gust": false,
          "apply": true
        },
        "approach_category": null
      }
    },
    {
      "icao": "LFOB",
      "iata": "BVA",
      "name": "Beauvais Tillé airport",
      "lat": 49.454399,
      "lon": 2.11278,
      "updatedAt": "040430Z",
      "visibility_m": 2000,
      "taf_visibility_m": 800,
      "worst_visibility_m": 800,
      "ceiling_ft": 200,
      "hazards": [
        "BR",
        "FG",
        "RA"
      ],
      "severityScore": 100,
      "metarRaw": "METAR LFOB 040430Z AUTO 09005KT 4400 BR NSC 02/02 Q0994 TEMPO 2000 BR VV///",
      "tafRaw": "TAF LFOB 032300Z 0400/0424 19010KT 9999 SCT020 \n  PROB40 \n  TEMPO 0401/0409 2000 BR OVC002 \n  PROB30 0401/0409 0800 FG VV/// \n  BECMG 0402/0406 12006KT \n  PROB40 \n  TEMPO 0423/0424 4500 -RA",
      "minima": {
        "best": {
          "cig_ft": 0,
          "vis_m": 75
        },
        "alt": {
          "cig_ft": 200,
          "vis_m": 550
        },
        "wind": {
          "threshold_kt": 29,
          "use_gust": false,
          "apply": true
        },
        "approach_category": null
      }
    },
    {
      "icao": "LFSB",
      "iata": "BSL",
      "name": "EuroAirport Basel–Mulhouse–Freiburg",
      "lat": 47.60068,
      "lon": 7.521117,
      "updatedAt": "040430Z",
      "visibility_m": 2400,
      "taf_visibility_m": 300,
      "worst_visibility_m": 300,
      "ceiling_ft": 300,
      "hazards": [
        "BR",
        "FZFG",
        "FG"
      ],
      "severityScore": 100,
      "metarRaw": "METAR LFSB 040430Z AUTO VRB01KT 5000 2400 BR NSC 01/00 Q0999 NOSIG",
      "tafRaw": "TAF LFSB 032300Z 0400/0424 19006KT CAVOK \n  BECMG 0417/0419 2000 BR OVC003 \n  TEMPO 0419/0424 0300 FG VV/// \n  PROB30 \n  TEMPO 0421/0424 FZFG",
      "minima": {
        "best": {
          "cig_ft": 0,
          "vis_m": 75
        },
        "alt": {
          "cig_ft": 100,
          "vis_m": 300
        },
        "wind": {
          "threshold_kt": 29,
          "use_gust": false,
          "apply": true
        },
        "approach_category": null
      }
    },
    {
      "icao": "LIME",
      "iata": "BGY",
      "name": "Milan Bergamo Airport / Antonio Locatelli Air Base",
      "lat": 45.670725,
      "lon": 9.709223,
      "updatedAt": "040420Z",
      "visibility_m": 600,
      "taf_visibility_m": 700,
      "worst_visibility_m": 600,
      "ceiling_ft": 200,
      "hazards": [
        "FG",
        "BR",
        "RA"
      ],
      "severityScore": 100,
      "metarRaw": "METAR LIME 040420Z VRB02KT 0600 R28/P2000N FG BKN002 05/05 Q1003 NOSIG",
      "tafRaw": "TAF LIME 031700Z 0318/0418 VRB05KT 6000 SCT006 BKN020 \n  BECMG 0318/0320 3000 BR \n  TEMPO 0322/0406 0700 FG OVC003 \n  BECMG 0406/0409 RA BKN007",
      "minima": {
        "best": {
          "cig_ft": 0,
          "vis_m": 75
        },
        "alt": {
          "cig_ft": 111,
          "vis_m": 300
        },
        "wind": {
          "threshold_kt": 29,
          "use_gust": false,
          "apply": true
        },
        "approach_category": null
      }
    },
    {
      "icao": "LOWW",
      "iata": "VIE",
      "name": "Vienna International Airport",
      "lat": 48.110298,
      "lon": 16.5697,
      "updatedAt": "040420Z",
      "visibility_m": 4000,
      "taf_visibility_m": 1500,
      "worst_visibility_m": 1500,
      "ceiling_ft": 400,
      "hazards": [
        "BR",
        "RA",
        "FZDZ",
        "DZ"
      ],
      "severityScore": 100,
      "metarRaw": "METAR LOWW 040420Z 12004KT 7000 OVC005 00/M01 Q1008 TEMPO 4000 BR BKN004",
      "tafRaw": "TAF LOWW 040215Z 0403/0509 12010KT 9999 OVC012 TX02/0509Z TN00/0405Z \n  BECMG 0403/0405 3000 BR OVC004 \n  PROB30 \n  TEMPO 0404/0406 1500 -FZDZ \n  TEMPO 0406/0412 2000 -RA BKN006 \n  TEMPO 0418/0422 1500 -RA \n  BECMG 0501/0503 BKN006 \n  BECMG 0505/0507 8000 BKN020",
      "minima": {
        "best": {
          "cig_ft": 0,
          "vis_m": 75
        },
        "alt": {
          "cig_ft": 100,
          "vis_m": 300
        },
        "wind": {
          "threshold_kt": 29,
          "use_gust": false,
          "apply": true
        },
        "approach_category": null
      }
    },
    {
      "icao": "LPPR",
      "iata": "OPO",
      "name": "Francisco de Sá Carneiro Airport",
      "lat": 41.2481002808,
      "lon": -8.68138980865,
      "updatedAt": "040430Z",
      "visibility_m": 6000,
      "taf_visibility_m": 2000,
      "worst_visibility_m": 2000,
      "ceiling_ft": 1500,
      "hazards": [
        "BR",
        "TSRA",
        "RA",
        "SHRA",
        "TS",
        "DZ"
      ],
      "severityScore": 100,
      "metarRaw": "METAR LPPR 040430Z 25008KT 210V300 6000 BKN015 OVC022 14/12 Q0990",
      "tafRaw": "TAF LPPR 032300Z 0400/0424 15017KT 3000 -RADZ BR SCT004 BKN008 \n  BECMG 0400/0402 26013KT 9999 NSW SCT012 BKN025 \n  TEMPO 0402/0417 26018G30KT 4000 SHRA BKN008 FEW018CB \n  PROB30 0412/0417 2000 TSRA BKN004 SCT015CB \n  BECMG 0417/0419 6000 -RA SCT005 BKN010 \n  TEMPO 0419/0424 2000 RADZ BR SCT002 BKN004 FEW018TCU",
      "minima": {
        "best": {
          "cig_ft": 100,
          "vis_m": 300
        },
        "alt": {
          "cig_ft": 200,
          "vis_m": 550
        },
        "wind": {
          "threshold_kt": 29,
          "use_gust": false,
          "apply": true
        },
        "approach_category": null
      }
    },
    {
      "icao": "LRBS",
      "iata": "BBU",
      "name": "Bucharest Băneasa Aurel Vlaicu International Airport",
      "lat": 44.503133,
      "lon": 26.102944,
      "updatedAt": "040430Z",
      "visibility_m": 10000,
      "taf_visibility_m": 300,
      "worst_visibility_m": 300,
      "ceiling_ft": 100,
      "hazards": [
        "FG",
        "BR"
      ],
      "severityScore": 100,
      "metarRaw": "METAR LRBS 040430Z VRB02KT CAVOK M03/M06 Q1019 NOSIG",
      "tafRaw": "TAF LRBS 032300Z 0400/0424 05006KT CAVOK \n  TEMPO 0402/0407 3000 BR BKN010 \n  BECMG 0415/0417 3000 BR \n  BECMG 0418/0420 0600 FG OVC001 \n  TEMPO 0420/0424 0300 FG",
      "minima": {
        "best": {
          "cig_ft": 100,
          "vis_m": 350
        },
        "alt": {
          "cig_ft": 200,
          "vis_m": 550
        },
        "wind": {
          "threshold_kt": 29,
          "use_gust": false,
          "apply": true
        },
        "approach_category": null
      }
    },
    {
      "icao": "LROP",
      "iata": "OTP",
      "name": "Bucharest Henri Coandă International Airport",
      "lat": 44.571792,
      "lon": 26.103285,
      "updatedAt": "040430Z",
      "visibility_m": 10000,
      "taf_visibility_m": 300,
      "worst_visibility_m": 300,
      "ceiling_ft": 100,
      "hazards": [
        "FG",
        "BR"
      ],
      "severityScore": 100,
      "metarRaw": "METAR LROP 040430Z 02005KT CAVOK M03/M07 Q1019 NOSIG",
      "tafRaw": "TAF LROP 032300Z 0400/0424 05006KT CAVOK \n  TEMPO 0402/0407 3000 BR BKN010 \n  BECMG 0415/0417 3000 BR \n  BECMG 0418/0420 0600 FG OVC001 \n  TEMPO 0420/0424 0300 FG",
      "minima": {
        "best": {
          "cig_ft": 50,
          "vis_m": 200
        },
        "alt": {
          "cig_ft": 100,
          "vis_m": 300
        },
        "wind": {
          "threshold_kt": 29,
          "use_gust": false,
          "apply": true
        },
        "approach_category": null
      }
    },
    {
      "icao": "UAAA",
      "iata": "ALA",
      "name": "Almaty International Airport",
      "lat": 43.354267,
      "lon": 77.042828,
      "updatedAt": "040430Z",
      "visibility_m": 100,
      "taf_visibility_m": null,
      "worst_visibility_m": 100,
      "ceiling_ft": 200,
      "hazards": [
        "FG"
      ],
      "severityScore": 100,
      "metarRaw": "METAR UAAA 040430Z 35002MPS 0100 R23L/0200N FG VV002 02/02 Q1025 NOSIG RMK QBB060",
      "tafRaw": null,
      "minima": {
        "best": {
          "cig_ft": 0,
          "vis_m": 75
        },
        "alt": {
          "cig_ft": 110,
          "vis_m": 300
        },
        "wind": {
          "threshold_kt": 29,
          "use_gust": false,
          "apply": true
        },
        "approach_category": null
      }
    },
    {
      "icao": "UDYZ",
      "iata": "EVN",
      "name": "Zvartnots International Airport",
      "lat": 40.148941,
      "lon": 44.397887,
      "updatedAt": "040430Z",
      "visibility_m": 10000,
      "taf_visibility_m": 400,
      "worst_visibility_m": 400,
      "ceiling_ft": 200,
      "hazards": [
        "FG",
        "BR",
        "RA"
      ],
      "severityScore": 100,
      "metarRaw": "METAR UDYZ 040430Z 08003KT 050V120 9999 FEW046 00/M01 Q1013 NOSIG",
      "tafRaw": "TAF UDYZ 032300Z 0400/0424 13006KT 2300 BR SCT020 \n  TEMPO 0400/0406 0400 RA FG VV002",
      "minima": {
        "best": {
          "cig_ft": 100,
          "vis_m": 300
        },
        "alt": {
          "cig_ft": 200,
          "vis_m": 550
        },
        "wind": {
          "threshold_kt": 29,
          "use_gust": false,
          "apply": true
        },
        "approach_category": null
      }
    },
    {
      "icao": "LIMC",
      "iata": "MXP",
      "name": "Milan Malpensa International Airport",
      "lat": 45.6306,
      "lon": 8.72811,
      "updatedAt": "040420Z",
      "visibility_m": 800,
      "taf_visibility_m": null,
      "worst_visibility_m": 800,
      "ceiling_ft": 100,
      "hazards": [
        "FG",
        "RA"
      ],
      "severityScore": 97,
      "metarRaw": "METAR LIMC 040420Z 25003KT 0800 R35R/P2000N R17L/1900U R35L/P2000N -RA FG OVC001 04/04 Q1003 NOSIG",
      "tafRaw": null,
      "minima": {
        "best": {
          "cig_ft": 0,
          "vis_m": 75
        },
        "alt": {
          "cig_ft": 100,
          "vis_m": 300
        },
        "wind": {
          "threshold_kt": 29,
          "use_gust": false,
          "apply": true
        },
        "approach_category": null
      }
    },
    {
      "icao": "LKMT",
      "iata": "OSR",
      "name": "Leoš Janáček Airport Ostrava",
      "lat": 49.696301,
      "lon": 18.111099,
      "updatedAt": "040430Z",
      "visibility_m": 4500,
      "taf_visibility_m": 600,
      "worst_visibility_m": 600,
      "ceiling_ft": 1300,
      "hazards": [
        "BR",
        "FG",
        "SN",
        "RA"
      ],
      "severityScore": 97,
      "metarRaw": "METAR LKMT 040430Z 05002KT 6000 OVC013 M03/M05 Q1008 TEMPO 4500 BR",
      "tafRaw": "TAF LKMT 032300Z 0400/0424 03006KT 8000 OVC023 \n  BECMG 0401/0403 22008KT \n  BECMG 0408/0410 03004KT BKN009 OVC016 \n  TEMPO 0414/0422 4000 -RASN BR BKN007 OVC014 \n  PROB40 \n  TEMPO 0416/0424 0600 FG VV002",
      "minima": null
    },
    {
      "icao": "LZKZ",
      "iata": "KSC",
      "name": "Košice International Airport",
      "lat": 48.663101,
      "lon": 21.2411,
      "updatedAt": "040430Z",
      "visibility_m": 5000,
      "taf_visibility_m": 1200,
      "worst_visibility_m": 1200,
      "ceiling_ft": 1100,
      "hazards": [
        "BR",
        "RA",
        "FZRA",
        "SN"
      ],
      "severityScore": 97,
      "metarRaw": "METAR LZKZ 040430Z VRB02KT 5000 -RA BR FEW005 OVC011 01/00 Q1010 NOSIG",
      "tafRaw": "TAF LZKZ 032315Z 0400/0500 34005KT 9999 OVC020 \n  TEMPO 0400/0405 1200 -SN BR BKN004 OVC012 \n  PROB30 \n  TEMPO 0400/0403 -FZRA \n  TEMPO 0405/0417 4000 RA OVC013 \n  TEMPO 0417/0500 1200 -RA BR BKN004 OVC008",
      "minima": {
        "best": {
          "cig_ft": 102,
          "vis_m": 350
        },
        "alt": {
          "cig_ft": 200,
          "vis_m": 550
        },
        "wind": {
          "threshold_kt": 29,
          "use_gust": false,
          "apply": true
        },
        "approach_category": null
      }
    },
    {
      "icao": "LFBD",
      "iata": "BOD",
      "name": "Bordeaux–Mérignac Airport",
      "lat": 44.82865,
      "lon": -0.715356,
      "updatedAt": "040430Z",
      "visibility_m": 10000,
      "taf_visibility_m": 2000,
      "worst_visibility_m": 2000,
      "ceiling_ft": null,
      "hazards": [
        "BR",
        "TSRA",
        "SHRA",
        "TS",
        "RA"
      ],
      "severityScore": 86,
      "metarRaw": "METAR LFBD 040430Z AUTO 14010KT CAVOK 07/05 Q0989 NOSIG",
      "tafRaw": "TAF LFBD 032300Z 0400/0506 18010KT CAVOK TX12/0416Z TN05/0406Z \n  TEMPO 0400/0404 -SHRA BKN045TCU \n  TEMPO 0407/0421 4000 SHRA BKN030TCU \n  PROB30 \n  TEMPO 0412/0419 22015G25KT 2000 TSRA BKN020CB BKN025TCU \n  PROB30 \n  TEMPO 0423/0502 4500 BR",
      "minima": {
        "best": {
          "cig_ft": 0,
          "vis_m": 75
        },
        "alt": {
          "cig_ft": 100,
          "vis_m": 300
        },
        "wind": {
          "threshold_kt": 29,
          "use_gust": false,
          "apply": true
        },
        "approach_category": null
      }
    },
    {
      "icao": "EGGP",
      "iata": "LPL",
      "name": "Liverpool John Lennon Airport",
      "lat": 53.334863,
      "lon": -2.849637,
      "updatedAt": "040420Z",
      "visibility_m": 9000,
      "taf_visibility_m": 3000,
      "worst_visibility_m": 3000,
      "ceiling_ft": 400,
      "hazards": [
        "RA",
        "BR",
        "DZ",
        "SN"
      ],
      "severityScore": 85,
      "metarRaw": "METAR EGGP 040420Z AUTO 10006KT 9000 -RA FEW041/// 01/00 Q0991",
      "tafRaw": "TAF EGGP 032300Z 0400/0424 11008KT 9999 BKN016 \n  TEMPO 0400/0407 6000 RA -RADZ BKN009 \n  PROB30 \n  TEMPO 0400/0404 3000 -RASN BKN005 \n  TEMPO 0407/0410 4000 -DZ BR BKN004 \n  TEMPO 0410/0412 6000 BKN006 \n  PROB30 \n  TEMPO 0412/0415 BKN012 \n  TEMPO 0422/0424 BKN010",
      "minima": {
        "best": {
          "cig_ft": 0,
          "vis_m": 75
        },
        "alt": {
          "cig_ft": 100,
          "vis_m": 300
        },
        "wind": {
          "threshold_kt": 29,
          "use_gust": false,
          "apply": true
        },
        "approach_category": null
      }
    },
    {
      "icao": "LHBP",
      "iata": "BUD",
      "name": "Budapest Liszt Ferenc International Airport",
      "lat": 47.43018,
      "lon": 19.262393,
      "updatedAt": "040430Z",
      "visibility_m": 3000,
      "taf_visibility_m": 4000,
      "worst_visibility_m": 3000,
      "ceiling_ft": 500,
      "hazards": [
        "RA",
        "BR",
        "FZRA"
      ],
      "severityScore": 82,
      "metarRaw": "METAR LHBP 040430Z 08005KT 9999 -RA BKN005 OVC012 01/00 Q1009 TEMPO 3000 RA",
      "tafRaw": "TAF LHBP 032315Z 0400/0424 08008KT 8000 -RA SCT008 OVC030 \n  TEMPO 0400/0418 4000 RA BR OVC004 \n  PROB30 \n  TEMPO 0400/0408 02004KT FZRA \n  BECMG 0418/0421 NSW SCT008 BKN100 \n  PROB40 \n  TEMPO 0418/0424 BKN004",
      "minima": {
        "best": {
          "cig_ft": 0,
          "vis_m": 75
        },
        "alt": {
          "cig_ft": 107,
          "vis_m": 300
        },
        "wind": {
          "threshold_kt": 29,
          "use_gust": false,
          "apply": true
        },
        "approach_category": null
      }
    },
    {
      "icao": "LYPG",
      "iata": "TGD",
      "name": "Podgorica Airport / Podgorica Golubovci Airbase",
      "lat": 42.359402,
      "lon": 19.2519,
      "updatedAt": "040430Z",
      "visibility_m": 700,
      "taf_visibility_m": 500,
      "worst_visibility_m": 500,
      "ceiling_ft": 8000,
      "hazards": [
        "FG",
        "BR",
        "RA"
      ],
      "severityScore": 77,
      "metarRaw": "METAR LYPG 040430Z VRB01KT 0700 R18/1200D R36/0900N FG FEW004 SCT040 BKN080 07/07 Q1012 BECMG 1000 BR",
      "tafRaw": "TAF LYPG 032300Z 0400/0424 32005KT 6000 SCT010 SCT040 OVC090 TX16/0416Z TN07/0403Z \n  TEMPO 0400/0407 1000 BR \n  PROB40 \n  TEMPO 0400/0406 0500 FG \n  TEMPO 0418/0424 16015KT 5000 RA",
      "minima": {
        "best": {
          "cig_ft": 200,
          "vis_m": 550
        },
        "alt": {
          "cig_ft": 260,
          "vis_m": 600
        },
        "wind": {
          "threshold_kt": 29,
          "use_gust": false,
          "apply": true
        },
        "approach_category": null
      }
    },
    {
      "icao": "LICA",
      "iata": "SUF",
      "name": "Lamezia Terme Sant'Eufemia International Airport",
      "lat": 38.906214,
      "lon": 16.246007,
      "updatedAt": "040420Z",
      "visibility_m": 10000,
      "taf_visibility_m": 10000,
      "worst_visibility_m": 10000,
      "ceiling_ft": null,
      "hazards": [
        "TSRA",
        "SHRA",
        "TS",
        "RA"
      ],
      "severityScore": 76,
      "metarRaw": "METAR LICA 040420Z AUTO 07024KT 9999 FEW028/// 16/11 Q1005",
      "tafRaw": "TAF LICA 032300Z 0400/0424 07020G30KT 9999 SCT025 \n  TEMPO 0409/0412 SHRA \n  BECMG 0412/0414 25018KT \n  TEMPO 0412/0424 TSRA",
      "minima": {
        "best": {
          "cig_ft": 210,
          "vis_m": 550
        },
        "alt": {
          "cig_ft": 340,
          "vis_m": 800
        },
        "wind": {
          "threshold_kt": 29,
          "use_gust": false,
          "apply": true
        },
        "approach_category": null
      }
    },
    {
      "icao": "LIRF",
      "iata": "FCO",
      "name": "Rome–Fiumicino Leonardo da Vinci International Airport",
      "lat": 41.804532,
      "lon": 12.251998,
      "updatedAt": "040420Z",
      "visibility_m": 9000,
      "taf_visibility_m": 4000,
      "worst_visibility_m": 4000,
      "ceiling_ft": null,
      "hazards": [
        "RA",
        "TSRA",
        "SHRA",
        "TS"
      ],
      "severityScore": 76,
      "metarRaw": "METAR LIRF 040420Z 11012KT 9000 -RA FEW055 12/10 Q1000 NOSIG",
      "tafRaw": "TAF LIRF 031700Z 0318/0424 15015KT 9999 SCT030 \n  TEMPO 0318/0410 4000 SHRA \n  BECMG 0404/0406 14018G30KT \n  TEMPO 0410/0418 TSRA \n  BECMG 0414/0416 26016KT \n  TEMPO 0418/0424 SHRA",
      "minima": {
        "best": {
          "cig_ft": 0,
          "vis_m": 75
        },
        "alt": {
          "cig_ft": 100,
          "vis_m": 300
        },
        "wind": {
          "threshold_kt": 29,
          "use_gust": false,
          "apply": true
        },
        "approach_category": null
      }
    },
    {
      "icao": "LIRN",
      "iata": "NAP",
      "name": "Naples International Airport",
      "lat": 40.886002,
      "lon": 14.2908,
      "updatedAt": "040420Z",
      "visibility_m": 10000,
      "taf_visibility_m": 4000,
      "worst_visibility_m": 4000,
      "ceiling_ft": null,
      "hazards": [
        "TSRA",
        "SHRA",
        "TS",
        "RA"
      ],
      "severityScore": 76,
      "metarRaw": "METAR LIRN 040420Z 10003KT 050V180 CAVOK 16/05 Q1002 NOSIG",
      "tafRaw": "TAF LIRN 031700Z 0318/0418 17015KT 9999 SCT030 \n  TEMPO 0406/0410 SHRA \n  TEMPO 0412/0418 4000 TSRA",
      "minima": {
        "best": {
          "cig_ft": 320,
          "vis_m": 1000
        },
        "alt": {
          "cig_ft": 470,
          "vis_m": 1800
        },
        "wind": {
          "threshold_kt": 29,
          "use_gust": false,
          "apply": true
        },
        "approach_category": null
      }
    },
    {
      "icao": "EGBB",
      "iata": "BHX",
      "name": "Birmingham Airport",
      "lat": 52.453899,
      "lon": -1.74803,
      "updatedAt": "040420Z",
      "visibility_m": 2200,
      "taf_visibility_m": null,
      "worst_visibility_m": 2200,
      "ceiling_ft": 300,
      "hazards": [
        "BR",
        "RA",
        "DZ"
      ],
      "severityScore": 72,
      "metarRaw": "METAR EGBB 040420Z 12004KT 2200 BR OVC003 01/01 Q0991 RERA REDZ",
      "tafRaw": null,
      "minima": {
        "best": {
          "cig_ft": 0,
          "vis_m": 75
        },
        "alt": {
          "cig_ft": 100,
          "vis_m": 300
        },
        "wind": {
          "threshold_kt": 29,
          "use_gust": false,
          "apply": true
        },
        "approach_category": null
      }
    },
    {
      "icao": "UBBB",
      "iata": "GYD",
      "name": "Heydar Aliyev International Airport",
      "lat": 40.467498779296875,
      "lon": 50.04669952392578,
      "updatedAt": "040430Z",
      "visibility_m": 10000,
      "taf_visibility_m": 3000,
      "worst_visibility_m": 3000,
      "ceiling_ft": 700,
      "hazards": [
        "RA",
        "SHRA",
        "SN"
      ],
      "severityScore": 69,
      "metarRaw": "METAR UBBB 040430Z 33038G50KT 9999 -RA BKN007 OVC021 04/02 Q1016 NOSIG",
      "tafRaw": "TAF UBBB 032303Z 0400/0424 32024G34KT 6000 BKN006 OVC020 TX04/0409Z TN03/0402Z \n  TEMPO 0400/0409 34030G40KT 3000 -SHRA BKN004 SCT020CB \n  TEMPO 0409/0415 34040G50KT 4000 -SHRASN BKN003 SCT020CB BKN020",
      "minima": {
        "best": {
          "cig_ft": 0,
          "vis_m": 175
        },
        "alt": {
          "cig_ft": 100,
          "vis_m": 300
        },
        "wind": {
          "threshold_kt": 29,
          "use_gust": false,
          "apply": true
        },
        "approach_category": null
      }
    },
    {
      "icao": "LIPQ",
      "iata": "TRS",
      "name": "Trieste–Friuli Venezia Giulia Airport",
      "lat": 45.827499,
      "lon": 13.4722,
      "updatedAt": "040420Z",
      "visibility_m": 10000,
      "taf_visibility_m": 500,
      "worst_visibility_m": 500,
      "ceiling_ft": null,
      "hazards": [
        "FG",
        "RA"
      ],
      "severityScore": 67,
      "metarRaw": "METAR LIPQ 040420Z AUTO 08004KT 9999 FEW020/// OVC066/// 09/07 Q1004",
      "tafRaw": "TAF LIPQ 032300Z 0400/0424 VRB05KT 9000 FEW010 \n  TEMPO 0400/0406 0500 FG \n  BECMG 0406/0408 03012KT RA \n  BECMG 0415/0417 09012KT",
      "minima": {
        "best": {
          "cig_ft": 100,
          "vis_m": 300
        },
        "alt": {
          "cig_ft": 200,
          "vis_m": 550
        },
        "wind": {
          "threshold_kt": 29,
          "use_gust": false,
          "apply": true
        },
        "approach_category": null
      }
    },
    {
      "icao": "LIPX",
      "iata": "VRN",
      "name": "Verona Villafranca Valerio Catullo Airport",
      "lat": 45.394955,
      "lon": 10.887303,
      "updatedAt": "040420Z",
      "visibility_m": 5000,
      "taf_visibility_m": 800,
      "worst_visibility_m": 800,
      "ceiling_ft": 7000,
      "hazards": [
        "BR",
        "FG",
        "RA"
      ],
      "severityScore": 67,
      "metarRaw": "METAR LIPX 040420Z VRB01KT 5000 BR BKN070 04/04 Q1004",
      "tafRaw": "TAF LIPX 032300Z 0400/0424 VRB05KT 4000 BR BKN010 \n  TEMPO 0400/0410 0800 FG OVC003 \n  BECMG 0406/0408 RA \n  BECMG 0422/0424 NSW",
      "minima": {
        "best": {
          "cig_ft": 0,
          "vis_m": 75
        },
        "alt": {
          "cig_ft": 133,
          "vis_m": 400
        },
        "wind": {
          "threshold_kt": 29,
          "use_gust": false,
          "apply": true
        },
        "approach_category": null
      }
    },
    {
      "icao": "LIPZ",
      "iata": "VCE",
      "name": "Venice Marco Polo Airport",
      "lat": 45.505299,
      "lon": 12.3519,
      "updatedAt": "040420Z",
      "visibility_m": 6000,
      "taf_visibility_m": 1500,
      "worst_visibility_m": 1500,
      "ceiling_ft": 300,
      "hazards": [
        "RA",
        "BR"
      ],
      "severityScore": 67,
      "metarRaw": "METAR LIPZ 040420Z 04003KT 6000 -RA BKN003 06/06 Q1004 NOSIG",
      "tafRaw": "TAF LIPZ 032300Z 0400/0506 VRB05KT 9000 BKN010 \n  TEMPO 0400/0408 1500 BR \n  BECMG 0406/0408 RA BKN003 \n  BECMG 0408/0410 04012KT \n  BECMG 0402/0404 30010KT",
      "minima": {
        "best": {
          "cig_ft": 0,
          "vis_m": 75
        },
        "alt": {
          "cig_ft": 100,
          "vis_m": 300
        },
        "wind": {
          "threshold_kt": 29,
          "use_gust": false,
          "apply": true
        },
        "approach_category": null
      }
    },
    {
      "icao": "LPPT",
      "iata": "LIS",
      "name": "Lisbon Humberto Delgado Airport",
      "lat": 38.7813,
      "lon": -9.13592,
      "updatedAt": "040430Z",
      "visibility_m": 10000,
      "taf_visibility_m": 2000,
      "worst_visibility_m": 2000,
      "ceiling_ft": 300,
      "hazards": [
        "RA",
        "DZ",
        "BR"
      ],
      "severityScore": 67,
      "metarRaw": "METAR LPPT 040430Z 26015G26KT 240V310 9999 -RADZ FEW008 SCT012 15/13 Q0996",
      "tafRaw": "TAF LPPT 032300Z 0400/0506 25018KT 6000 -RA SCT006 BKN012 \n  TEMPO 0400/0405 25022G35KT \n  TEMPO 0400/0409 2000 RADZ BR SCT002 BKN003 \n  BECMG 0405/0407 23012KT \n  TEMPO 0409/0411 9999 NSW SCT012 BKN025 \n  TEMPO 0411/0417 3000 RADZ BR SCT004 BKN008 \n  BECMG 0417/0419 23017KT 6000 -RA SCT006 BKN012 \n  TEMPO 0417/0506 2000 RADZ BR SCT001 BKN003 \n  TEMPO 0500/0506 23022G35KT \n  PROB40 \n  TEMPO 0502/0506 23028G43KT",
      "minima": {
        "best": {
          "cig_ft": 0,
          "vis_m": 75
        },
        "alt": {
          "cig_ft": 100,
          "vis_m": 300
        },
        "wind": {
          "threshold_kt": 29,
          "use_gust": false,
          "apply": true
        },
        "approach_category": null
      }
    },
    {
      "icao": "ENTC",
      "iata": "TOS",
      "name": "Tromsø Airport, Langnes",
      "lat": 69.683296,
      "lon": 18.9189,
      "updatedAt": "040420Z",
      "visibility_m": 10000,
      "taf_visibility_m": 1200,
      "worst_visibility_m": 1200,
      "ceiling_ft": 800,
      "hazards": [
        "SN",
        "RA"
      ],
      "severityScore": 65,
      "metarRaw": "METAR ENTC 040420Z AUTO 19017KT 9999 SCT023/// BKN028/// BKN033/// 00/M03 Q1020 RMK WIND 2600FT 25008KT",
      "tafRaw": "TAF ENTC 032300Z 0400/0424 19012KT 9999 SCT015 BKN030 \n  PROB40 \n  TEMPO 0400/0409 4000 -SHSNRA VV012 \n  TEMPO 0400/0424 SCT020TCU \n  TEMPO 0409/0420 1200 SHSNRA VV008",
      "minima": {
        "best": {
          "cig_ft": 300,
          "vis_m": 650
        },
        "alt": {
          "cig_ft": 310,
          "vis_m": 700
        },
        "wind": {
          "threshold_kt": 29,
          "use_gust": false,
          "apply": true
        },
        "approach_category": null
      }
    },
    {
      "icao": "HESX",
      "iata": "SPX",
      "name": "Sphinx International Airport",
      "lat": 30.108179,
      "lon": 30.895728,
      "updatedAt": "040400Z",
      "visibility_m": 10000,
      "taf_visibility_m": 500,
      "worst_visibility_m": 500,
      "ceiling_ft": null,
      "hazards": [
        "FG",
        "BR"
      ],
      "severityScore": 65,
      "metarRaw": "METAR HESX 040400Z 20002KT CAVOK 09/07 Q1021 NOSIG",
      "tafRaw": "TAF HESX 032300Z 0400/0506 VRB02KT 6000 NSC \n  TEMPO 0400/0408 3000 BR \n  PROB40 0401/0407 1000 SCT020 \n  PROB30 \n  TEMPO 0402/0406 0500 FG \n  BECMG 0408/0410 06007KT",
      "minima": {
        "best": {
          "cig_ft": 230,
          "vis_m": 550
        },
        "alt": {
          "cig_ft": 310,
          "vis_m": 750
        },
        "wind": {
          "threshold_kt": 29,
          "use_gust": false,
          "apply": true
        },
        "approach_category": null
      }
    },
    {
      "icao": "OJAI",
      "iata": "AMM",
      "name": "Queen Alia International Airport",
      "lat": 31.7226009369,
      "lon": 35.9931983948,
      "updatedAt": "040400Z",
      "visibility_m": 4000,
      "taf_visibility_m": 500,
      "worst_visibility_m": 500,
      "ceiling_ft": null,
      "hazards": [
        "BR",
        "FG"
      ],
      "severityScore": 65,
      "metarRaw": "METAR OJAI 040400Z 28005KT 4000 BR FEW035 07/05 Q1021 NOSIG",
      "tafRaw": "TAF OJAI 032239Z 0400/0506 26010KT 3000 BR SCT030 \n  TEMPO 0400/0407 0500 FG \n  BECMG 0407/0409 29012KT 5000 HZ FEW030",
      "minima": {
        "best": {
          "cig_ft": 119,
          "vis_m": 300
        },
        "alt": {
          "cig_ft": 200,
          "vis_m": 550
        },
        "wind": {
          "threshold_kt": 29,
          "use_gust": false,
          "apply": true
        },
        "approach_category": null
      }
    },
    {
      "icao": "EPGD",
      "iata": "GDN",
      "name": "Gdańsk Lech Wałęsa Airport",
      "lat": 54.377602,
      "lon": 18.4662,
      "updatedAt": "040430Z",
      "visibility_m": 10000,
      "taf_visibility_m": 3500,
      "worst_visibility_m": 3500,
      "ceiling_ft": 300,
      "hazards": [
        "BR",
        "SN"
      ],
      "severityScore": 63,
      "metarRaw": "METAR EPGD 040430Z 07008KT CAVOK M13/M17 Q1016",
      "tafRaw": "TAF EPGD 032330Z 0400/0424 09010KT CAVOK \n  BECMG 0403/0406 BKN012 \n  TEMPO 0410/0424 3500 -SN BR BKN006 \n  PROB40 \n  TEMPO 0417/0424 BKN003",
      "minima": {
        "best": {
          "cig_ft": 0,
          "vis_m": 75
        },
        "alt": {
          "cig_ft": 100,
          "vis_m": 300
        },
        "wind": {
          "threshold_kt": 29,
          "use_gust": false,
          "apply": true
        },
        "approach_category": null
      }
    },
    {
      "icao": "LICJ",
      "iata": "PMO",
      "name": "Falcone–Borsellino Airport",
      "lat": 38.175999,
      "lon": 13.091,
      "updatedAt": "040420Z",
      "visibility_m": 10000,
      "taf_visibility_m": 10000,
      "worst_visibility_m": 10000,
      "ceiling_ft": null,
      "hazards": [
        "TSRA",
        "RA",
        "TS"
      ],
      "severityScore": 62,
      "metarRaw": "METAR LICJ 040420Z 31010KT 280V340 CAVOK 18/07 Q0998",
      "tafRaw": "TAF LICJ 032300Z 0400/0424 18016G26KT 9999 SCT030 \n  TEMPO 0406/0412 TSRA \n  BECMG 0407/0409 24018KT \n  TEMPO 0408/0416 24018G28KT \n  TEMPO 0412/0416 RA",
      "minima": {
        "best": {
          "cig_ft": 350,
          "vis_m": 1200
        },
        "alt": {
          "cig_ft": 430,
          "vis_m": 1600
        },
        "wind": {
          "threshold_kt": 29,
          "use_gust": false,
          "apply": true
        },
        "approach_category": null
      }
    },
    {
      "icao": "LRSV",
      "iata": "SCV",
      "name": "Suceava Stefan cel Mare Airport",
      "lat": 47.6875,
      "lon": 26.35409927368164,
      "updatedAt": "040430Z",
      "visibility_m": 10000,
      "taf_visibility_m": 10000,
      "worst_visibility_m": 10000,
      "ceiling_ft": 1000,
      "hazards": [
        "FZRA",
        "RA"
      ],
      "severityScore": 59,
      "metarRaw": "METAR LRSV 040430Z 15008KT CAVOK M08/M10 Q1014",
      "tafRaw": "TAF LRSV 040200Z 0403/0412 14012KT CAVOK \n  BECMG 0404/0406 BKN010 \n  PROB30 \n  TEMPO 0406/0412 -FZRA",
      "minima": {
        "best": {
          "cig_ft": 100,
          "vis_m": 300
        },
        "alt": {
          "cig_ft": 200,
          "vis_m": 550
        },
        "wind": {
          "threshold_kt": 29,
          "use_gust": false,
          "apply": true
        },
        "approach_category": null
      }
    },
    {
      "icao": "LPFR",
      "iata": "FAO",
      "name": "Faro - Gago Coutinho International Airport",
      "lat": 37.015909,
      "lon": -7.970939,
      "updatedAt": "040430Z",
      "visibility_m": 6000,
      "taf_visibility_m": 2000,
      "worst_visibility_m": 2000,
      "ceiling_ft": 600,
      "hazards": [
        "RA",
        "BR",
        "DZ"
      ],
      "severityScore": 57,
      "metarRaw": "METAR LPFR 040430Z 25025KT 6000 1100E R28/1200N -RA FEW003 OVC006 16/15 Q0999",
      "tafRaw": "TAF LPFR 032300Z 0400/0424 24022KT 6000 -RA SCT005 BKN012 \n  TEMPO 0400/0424 25027G37KT 2000 DZRA BR SCT002 BKN003 \n  PROB30 \n  TEMPO 0400/0416 25030G45KT",
      "minima": {
        "best": {
          "cig_ft": 100,
          "vis_m": 300
        },
        "alt": {
          "cig_ft": 200,
          "vis_m": 750
        },
        "wind": {
          "threshold_kt": 29,
          "use_gust": false,
          "apply": true
        },
        "approach_category": null
      }
    },
    {
      "icao": "EETN",
      "iata": "TLL",
      "name": "Lennart Meri Tallinn Airport",
      "lat": 59.413246,
      "lon": 24.83264,
      "updatedAt": "040420Z",
      "visibility_m": 5000,
      "taf_visibility_m": 2000,
      "worst_visibility_m": 2000,
      "ceiling_ft": 900,
      "hazards": [
        "SN",
        "BR"
      ],
      "severityScore": 53,
      "metarRaw": "METAR EETN 040420Z 01007KT 340V050 5000 SN OVC009 M10/M12 Q1027 NOSIG",
      "tafRaw": "TAF EETN 032330Z 0400/0424 02006KT 9999 BKN012 \n  TEMPO 0400/0406 BKN003 \n  PROB40 \n  TEMPO 0400/0406 2000 -SN BR \n  TEMPO 0406/0413 3000 SN BR BKN006 \n  BECMG 0407/0409 08008KT",
      "minima": {
        "best": {
          "cig_ft": 111,
          "vis_m": 300
        },
        "alt": {
          "cig_ft": 200,
          "vis_m": 550
        },
        "wind": {
          "threshold_kt": 29,
          "use_gust": false,
          "apply": true
        },
        "approach_category": null
      }
    },
    {
      "icao": "LUKK",
      "iata": "RMO",
      "name": "Chişinău International Airport",
      "lat": 46.9277,
      "lon": 28.931,
      "updatedAt": "040430Z",
      "visibility_m": 10000,
      "taf_visibility_m": 1500,
      "worst_visibility_m": 1500,
      "ceiling_ft": 2100,
      "hazards": [
        "BR",
        "SN",
        "RA"
      ],
      "severityScore": 50,
      "metarRaw": "METAR LUKK 040430Z 12004KT 090V150 9999 OVC021 M06/M08 Q1021 NOSIG",
      "tafRaw": "TAF LUKK 032302Z 0400/0424 11008KT CAVOK \n  BECMG 0406/0408 13014KT 7000 OVC010 \n  TEMPO 0409/0415 1500 SN BR BKN005 \n  TEMPO 0415/0424 1500 SNRA OVC005",
      "minima": {
        "best": {
          "cig_ft": 0,
          "vis_m": 75
        },
        "alt": {
          "cig_ft": 100,
          "vis_m": 300
        },
        "wind": {
          "threshold_kt": 29,
          "use_gust": false,
          "apply": true
        },
        "approach_category": null
      }
    },
    {
      "icao": "LZTT",
      "iata": "TAT",
      "name": "Poprad-Tatry Airport",
      "lat": 49.073601,
      "lon": 20.2411,
      "updatedAt": "040430Z",
      "visibility_m": 10000,
      "taf_visibility_m": 1200,
      "worst_visibility_m": 1200,
      "ceiling_ft": 2500,
      "hazards": [
        "BR",
        "SN",
        "RA"
      ],
      "severityScore": 50,
      "metarRaw": "METAR LZTT 040430Z 01002KT 9999 SCT005 BKN025 M03/M04 Q1007",
      "tafRaw": "TAF LZTT 032315Z 0400/0500 17004KT 4000 -SN BKN030 \n  TEMPO 0400/0406 3500 -SN BR BKN009 OVC012 \n  TEMPO 0408/0419 2000 SNRA OVC009 \n  TEMPO 0419/0500 1200 -SN BR BKN004",
      "minima": {
        "best": {
          "cig_ft": 200,
          "vis_m": 650
        },
        "alt": {
          "cig_ft": 330,
          "vis_m": 800
        },
        "wind": {
          "threshold_kt": 29,
          "use_gust": false,
          "apply": true
        },
        "approach_category": null
      }
    },
    {
      "icao": "LRSM",
      "iata": "SUJ",
      "name": "Satu Mare International Airport",
      "lat": 47.7033,
      "lon": 22.8857,
      "updatedAt": "040430Z",
      "visibility_m": 10000,
      "taf_visibility_m": 5000,
      "worst_visibility_m": 5000,
      "ceiling_ft": 1500,
      "hazards": [
        "SHRA",
        "RA",
        "BR"
      ],
      "severityScore": 48,
      "metarRaw": "METAR LRSM 040430Z AUTO 13005KT 9999 -SHRA SCT027/// OVC031/// 04/02 Q1011",
      "tafRaw": "TAF LRSM 040200Z 0403/0412 13008KT 9999 BKN035 \n  TEMPO 0404/0410 5000 -RA BR BKN015 OVC030",
      "minima": {
        "best": {
          "cig_ft": 121,
          "vis_m": 400
        },
        "alt": {
          "cig_ft": 200,
          "vis_m": 550
        },
        "wind": {
          "threshold_kt": 29,
          "use_gust": false,
          "apply": true
        },
        "approach_category": null
      }
    },
    {
      "icao": "EHEH",
      "iata": "EIN",
      "name": "Eindhoven Airport",
      "lat": 51.4500999451,
      "lon": 5.37452983856,
      "updatedAt": null,
      "visibility_m": null,
      "taf_visibility_m": 3000,
      "worst_visibility_m": 3000,
      "ceiling_ft": 800,
      "hazards": [
        "BR",
        "RA"
      ],
      "severityScore": 47,
      "metarRaw": null,
      "tafRaw": "TAF EHEH 031755Z 0318/0424 11007KT 7000 SCT010 BKN012 \n  TEMPO 0318/0323 3000 RA BKN008 OVC012 \n  BECMG 0320/0322 14005KT \n  BECMG 0322/0324 SCT030 \n  PROB40 \n  TEMPO 0400/0407 4000 BR \n  TEMPO 0404/0408 BKN015 \n  BECMG 0412/0414 10005KT",
      "minima": {
        "best": {
          "cig_ft": 200,
          "vis_m": 550
        },
        "alt": {
          "cig_ft": 260,
          "vis_m": 600
        },
        "wind": {
          "threshold_kt": 29,
          "use_gust": false,
          "apply": true
        },
        "approach_category": null
      }
    },
    {
      "icao": "LEMD",
      "iata": "MAD",
      "name": "Adolfo Suárez Madrid–Barajas Airport",
      "lat": 40.471926,
      "lon": -3.56264,
      "updatedAt": "040430Z",
      "visibility_m": 4500,
      "taf_visibility_m": 3000,
      "worst_visibility_m": 3000,
      "ceiling_ft": 700,
      "hazards": [
        "DZ",
        "RA"
      ],
      "severityScore": 47,
      "metarRaw": "METAR LEMD 040430Z 17006KT 140V210 4500 DZ BKN007 OVC013 03/03 Q0992 NOSIG",
      "tafRaw": "TAF LEMD 032300Z 0400/0506 22010KT 9999 SCT020 TX08/0414Z TN04/0407Z \n  TEMPO 0400/0409 VRB05KT \n  TEMPO 0400/0406 3000 DZRA BKN005 BKN010 \n  TEMPO 0411/0419 24015G25KT \n  PROB30 \n  TEMPO 0418/0424 DZRA BKN010 \n  BECMG 0418/0420 VRB05KT",
      "minima": {
        "best": {
          "cig_ft": 0,
          "vis_m": 75
        },
        "alt": {
          "cig_ft": 110,
          "vis_m": 300
        },
        "wind": {
          "threshold_kt": 29,
          "use_gust": false,
          "apply": true
        },
        "approach_category": null
      }
    },
    {
      "icao": "LIPR",
      "iata": "RMI",
      "name": "Federico Fellini International Airport",
      "lat": 44.020024,
      "lon": 12.612198,
      "updatedAt": "040420Z",
      "visibility_m": 3800,
      "taf_visibility_m": 3000,
      "worst_visibility_m": 3000,
      "ceiling_ft": 500,
      "hazards": [
        "BR",
        "RA"
      ],
      "severityScore": 47,
      "metarRaw": "METAR LIPR 040420Z AUTO 29004KT 3800 -RA BR OVC005/// 06/06 Q1004",
      "tafRaw": "TAF LIPR 032300Z 0400/0424 VRB05KT 6000 BKN005 \n  BECMG 0400/0402 3000 RA \n  BECMG 0414/0416 28015KT",
      "minima": {
        "best": {
          "cig_ft": 250,
          "vis_m": 1300
        },
        "alt": {
          "cig_ft": 380,
          "vis_m": 1300
        },
        "wind": {
          "threshold_kt": 29,
          "use_gust": false,
          "apply": true
        },
        "approach_category": null
      }
    },
    {
      "icao": "EDNY",
      "iata": "FDH",
      "name": "Bodensee Airport Friedrichshafen",
      "lat": 47.671299,
      "lon": 9.51149,
      "updatedAt": "040420Z",
      "visibility_m": 10000,
      "taf_visibility_m": 2500,
      "worst_visibility_m": 2500,
      "ceiling_ft": 400,
      "hazards": [
        "BR"
      ],
      "severityScore": 45,
      "metarRaw": "METAR EDNY 040420Z AUTO 04005KT 010V080 9999 // NCD M01/M01 Q0999",
      "tafRaw": "TAF EDNY 040200Z 0403/0412 04005KT CAVOK \n  TEMPO 0403/0407 2500 BR BKN004",
      "minima": {
        "best": {
          "cig_ft": 0,
          "vis_m": 75
        },
        "alt": {
          "cig_ft": 100,
          "vis_m": 300
        },
        "wind": {
          "threshold_kt": 29,
          "use_gust": false,
          "apply": true
        },
        "approach_category": null
      }
    },
    {
      "icao": "EPWA",
      "iata": "WAW",
      "name": "Warsaw Chopin Airport",
      "lat": 52.165699,
      "lon": 20.9671,
      "updatedAt": "040430Z",
      "visibility_m": 2600,
      "taf_visibility_m": null,
      "worst_visibility_m": 2600,
      "ceiling_ft": 1200,
      "hazards": [
        "BR",
        "SN"
      ],
      "severityScore": 45,
      "metarRaw": "METAR EPWA 040430Z 08008KT 2600 -SN BR BKN012 BKN021 M10/M11 Q1013 BECMG 5000",
      "tafRaw": null,
      "minima": {
        "best": {
          "cig_ft": 0,
          "vis_m": 175
        },
        "alt": {
          "cig_ft": 101,
          "vis_m": 300
        },
        "wind": {
          "threshold_kt": 29,
          "use_gust": false,
          "apply": true
        },
        "approach_category": null
      }
    },
    {
      "icao": "OMDB",
      "iata": "DXB",
      "name": "Dubai International Airport",
      "lat": 25.2527999878,
      "lon": 55.3643989563,
      "updatedAt": "040430Z",
      "visibility_m": 7000,
      "taf_visibility_m": 3000,
      "worst_visibility_m": 3000,
      "ceiling_ft": 300,
      "hazards": [
        "BR"
      ],
      "severityScore": 45,
      "metarRaw": "METAR OMDB 040430Z 07006KT 360V130 7000 NSC 20/15 Q1017 NOSIG",
      "tafRaw": "TAF OMDB 032300Z 0400/0506 10005KT 8000 NSC \n  PROB30 0400/0405 3000 BR BKN003 \n  BECMG 0404/0406 17010KT \n  BECMG 0410/0412 33010KT \n  BECMG 0415/0417 19005KT \n  PROB30 0501/0505 4000 HZ",
      "minima": {
        "best": {
          "cig_ft": 0,
          "vis_m": 75
        },
        "alt": {
          "cig_ft": 100,
          "vis_m": 300
        },
        "wind": {
          "threshold_kt": 29,
          "use_gust": false,
          "apply": true
        },
        "approach_category": null
      }
    },
    {
      "icao": "EFTU",
      "iata": "TKU",
      "name": "Turku Airport",
      "lat": 60.514099,
      "lon": 22.2628,
      "updatedAt": "040420Z",
      "visibility_m": 10000,
      "taf_visibility_m": 6000,
      "worst_visibility_m": 6000,
      "ceiling_ft": 700,
      "hazards": [
        "SN"
      ],
      "severityScore": 43,
      "metarRaw": "METAR EFTU 040420Z AUTO 27001KT 9999 SCT023 M17/M19 Q1028",
      "tafRaw": "TAF EFTU 040233Z 0403/0503 VRB01KT 9999 BKN027 \n  PROB30 \n  TEMPO 0403/0404 6000 -SN \n  PROB30 0423/0503 BKN007",
      "minima": {
        "best": {
          "cig_ft": 200,
          "vis_m": 550
        },
        "alt": {
          "cig_ft": 300,
          "vis_m": 650
        },
        "wind": {
          "threshold_kt": 29,
          "use_gust": false,
          "apply": true
        },
        "approach_category": null
      }
    },
    {
      "icao": "EKBI",
      "iata": "BLL",
      "name": "Billund Airport",
      "lat": 55.740335,
      "lon": 9.157019,
      "updatedAt": "040420Z",
      "visibility_m": 10000,
      "taf_visibility_m": 4000,
      "worst_visibility_m": 4000,
      "ceiling_ft": 800,
      "hazards": [
        "SN"
      ],
      "severityScore": 43,
      "metarRaw": "METAR EKBI 040420Z AUTO 09019G30KT 9999 NCD M03/M08 Q1008",
      "tafRaw": "TAF EKBI 040227Z 0403/0503 09022G40KT 9999 SCT030 \n  TEMPO 0403/0414 10020KT \n  TEMPO 0414/0421 10020KT 4000 -SN DRSN BKN012 \n  TEMPO 0421/0503 09017KT 4000 -SN DRSN BKN008",
      "minima": {
        "best": {
          "cig_ft": 0,
          "vis_m": 75
        },
        "alt": {
          "cig_ft": 100,
          "vis_m": 300
        },
        "wind": {
          "threshold_kt": 29,
          "use_gust": false,
          "apply": true
        },
        "approach_category": null
      }
    },
    {
      "icao": "EGPD",
      "iata": "ABZ",
      "name": "Aberdeen International Airport",
      "lat": 57.2019,
      "lon": -2.19778,
      "updatedAt": "040420Z",
      "visibility_m": 4000,
      "taf_visibility_m": null,
      "worst_visibility_m": 4000,
      "ceiling_ft": 600,
      "hazards": [
        "RA"
      ],
      "severityScore": 42,
      "metarRaw": "METAR EGPD 040420Z AUTO 12016G26KT 5000 -RA BKN007 OVC021 03/01 Q0998 RERA TEMPO 4000 RA BKN006",
      "tafRaw": null,
      "minima": {
        "best": {
          "cig_ft": 200,
          "vis_m": 550
        },
        "alt": {
          "cig_ft": 500,
          "vis_m": 1500
        },
        "wind": {
          "threshold_kt": 29,
          "use_gust": false,
          "apply": true
        },
        "approach_category": null
      }
    },
    {
      "icao": "EPRA",
      "iata": "RDO",
      "name": "Warsaw Radom Airport",
      "lat": 51.38937,
      "lon": 21.214742,
      "updatedAt": "040430Z",
      "visibility_m": 10000,
      "taf_visibility_m": 3000,
      "worst_visibility_m": 3000,
      "ceiling_ft": 1000,
      "hazards": [
        "SN",
        "RA"
      ],
      "severityScore": 42,
      "metarRaw": "METAR EPRA 040430Z 09010KT 9999 -SN BKN010 OVC015 M07/M10 Q1011",
      "tafRaw": "TAF EPRA 040230Z 0403/0412 09010KT 8000 -SN BKN012 \n  TEMPO 0403/0406 3000 SN OVC006 \n  BECMG 0408/0410 9999 BKN020",
      "minima": {
        "best": {
          "cig_ft": 210,
          "vis_m": 550
        },
        "alt": {
          "cig_ft": 250,
          "vis_m": 550
        },
        "wind": {
          "threshold_kt": 29,
          "use_gust": false,
          "apply": true
        },
        "approach_category": null
      }
    },
    {
      "icao": "LRIA",
      "iata": "IAS",
      "name": "Iaşi Airport",
      "lat": 47.180278,
      "lon": 27.620833,
      "updatedAt": "040430Z",
      "visibility_m": 10000,
      "taf_visibility_m": 5000,
      "worst_visibility_m": 5000,
      "ceiling_ft": 1400,
      "hazards": [
        "BR",
        "SN"
      ],
      "severityScore": 40,
      "metarRaw": "METAR LRIA 040430Z 11014KT 9999 OVC014 M05/M08 Q1019",
      "tafRaw": "TAF LRIA 040200Z 0403/0412 11012KT 9999 BKN015 \n  PROB40 \n  TEMPO 0403/0408 5000 -SN BR BKN005 OVC020",
      "minima": {
        "best": {
          "cig_ft": 200,
          "vis_m": 550
        },
        "alt": {
          "cig_ft": 290,
          "vis_m": 750
        },
        "wind": {
          "threshold_kt": 29,
          "use_gust": false,
          "apply": true
        },
        "approach_category": null
      }
    },
    {
      "icao": "EPMO",
      "iata": "WMI",
      "name": "Modlin Airport",
      "lat": 52.451099,
      "lon": 20.6518,
      "updatedAt": "040430Z",
      "visibility_m": 10000,
      "taf_visibility_m": 1500,
      "worst_visibility_m": 1500,
      "ceiling_ft": 3700,
      "hazards": [
        "SN",
        "BR"
      ],
      "severityScore": 38,
      "metarRaw": "METAR EPMO 040430Z 07015KT 9999 -SN FEW016 BKN037 M10/M13 Q1013",
      "tafRaw": "TAF EPMO 032330Z 0400/0424 09010KT 9999 BKN020 \n  PROB40 0400/0403 BKN014 \n  BECMG 0403/0405 4500 -SN BKN010 \n  PROB40 \n  TEMPO 0403/0409 09015G25KT 1500 SN BKN004 OVC009 \n  BECMG 0408/0410 6000 \n  PROB40 \n  TEMPO 0408/0415 3000 -SN BR BKN004 \n  PROB40 0418/0424 2000 BR BKN004",
      "minima": null
    },
    {
      "icao": "LICC",
      "iata": "CTA",
      "name": "Catania-Fontanarossa Airport",
      "lat": 37.466801,
      "lon": 15.0664,
      "updatedAt": "040420Z",
      "visibility_m": 10000,
      "taf_visibility_m": 10000,
      "worst_visibility_m": 10000,
      "ceiling_ft": 1500,
      "hazards": [
        "SHRA",
        "RA"
      ],
      "severityScore": 38,
      "metarRaw": "METAR LICC 040420Z 05012KT 9999 BKN015 15/13 Q1002",
      "tafRaw": "TAF LICC 032300Z 0400/0424 VRB05KT 9999 SCT030 \n  BECMG 0402/0404 05012KT \n  TEMPO 0407/0411 SHRA \n  BECMG 0409/0411 24016G28KT \n  BECMG 0418/0420 25012KT",
      "minima": {
        "best": {
          "cig_ft": 250,
          "vis_m": 1000
        },
        "alt": {
          "cig_ft": 450,
          "vis_m": 1900
        },
        "wind": {
          "threshold_kt": 29,
          "use_gust": false,
          "apply": true
        },
        "approach_category": null
      }
    },
    {
      "icao": "LGTS",
      "iata": "SKG",
      "name": "Thessaloniki Macedonia International Airport",
      "lat": 40.51928,
      "lon": 22.970009,
      "updatedAt": "040420Z",
      "visibility_m": 10000,
      "taf_visibility_m": 5000,
      "worst_visibility_m": 5000,
      "ceiling_ft": 2500,
      "hazards": [
        "TS",
        "RA"
      ],
      "severityScore": 37,
      "metarRaw": "METAR LGTS 040420Z VRB02KT 9999 FEW015 BKN025 10/10 Q1018 NOSIG",
      "tafRaw": "TAF LGTS 032300Z 0400/0424 12013KT 9999 FEW010 BKN040 \n  PROB40 \n  TEMPO 0410/0424 5000 RA \n  TEMPO 0418/0424 14015G25KT",
      "minima": {
        "best": {
          "cig_ft": 100,
          "vis_m": 300
        },
        "alt": {
          "cig_ft": 200,
          "vis_m": 550
        },
        "wind": {
          "threshold_kt": 29,
          "use_gust": false,
          "apply": true
        },
        "approach_category": null
      }
    },
    {
      "icao": "LZIB",
      "iata": "BTS",
      "name": "M. R. Štefánik Airport",
      "lat": 48.1702,
      "lon": 17.2127,
      "updatedAt": "040430Z",
      "visibility_m": 9000,
      "taf_visibility_m": 2000,
      "worst_visibility_m": 2000,
      "ceiling_ft": 600,
      "hazards": [
        "RA"
      ],
      "severityScore": 37,
      "metarRaw": "METAR LZIB 040430Z 06008KT 9000 OVC006 01/00 Q1008 NOSIG",
      "tafRaw": "TAF LZIB 032315Z 0400/0500 06010KT 9999 OVC016 \n  TEMPO 0400/0407 BKN009 \n  TEMPO 0407/0414 2000 RA BKN012 \n  TEMPO 0419/0500 -RA BKN008",
      "minima": {
        "best": {
          "cig_ft": 0,
          "vis_m": 200
        },
        "alt": {
          "cig_ft": 103,
          "vis_m": 300
        },
        "wind": {
          "threshold_kt": 29,
          "use_gust": false,
          "apply": true
        },
        "approach_category": null
      }
    },
    {
      "icao": "LIRP",
      "iata": "PSA",
      "name": "Pisa International Airport",
      "lat": 43.683899,
      "lon": 10.3927,
      "updatedAt": "040415Z",
      "visibility_m": 10000,
      "taf_visibility_m": 4000,
      "worst_visibility_m": 4000,
      "ceiling_ft": 2500,
      "hazards": [
        "RA",
        "BR",
        "SHRA"
      ],
      "severityScore": 36,
      "metarRaw": "METAR LIRP 040415Z 06004KT 9999 -RA SCT030 SCT040 10/10 Q1000 NOSIG",
      "tafRaw": "TAF LIRP 031700Z 0318/0418 09010KT 9999 SCT040 \n  TEMPO 0400/0418 4000 RA BR SCT020 SCT030 \n  PROB40 \n  TEMPO 0406/0415 SHRA SCT015 BKN025",
      "minima": {
        "best": {
          "cig_ft": 140,
          "vis_m": 400
        },
        "alt": {
          "cig_ft": 230,
          "vis_m": 550
        },
        "wind": {
          "threshold_kt": 29,
          "use_gust": false,
          "apply": true
        },
        "approach_category": null
      }
    },
    {
      "icao": "EGPF",
      "iata": "GLA",
      "name": "Glasgow Airport",
      "lat": 55.871899,
      "lon": -4.43306,
      "updatedAt": "040420Z",
      "visibility_m": 10000,
      "taf_visibility_m": 4000,
      "worst_visibility_m": 4000,
      "ceiling_ft": 1100,
      "hazards": [
        "RA",
        "DZ"
      ],
      "severityScore": 34,
      "metarRaw": "METAR EGPF 040420Z AUTO 07012KT 9999 BKN011 OVC016 04/02 Q0994",
      "tafRaw": "TAF EGPF 032256Z 0400/0424 07012KT 9999 SCT020 \n  PROB30 \n  TEMPO 0400/0403 8000 -RADZ BKN014 \n  TEMPO 0403/0419 6000 -RADZ RA BKN012 \n  PROB30 \n  TEMPO 0403/0419 4000 RADZ BKN006 \n  PROB30 \n  TEMPO 0419/0424 8000 BKN012",
      "minima": {
        "best": {
          "cig_ft": 0,
          "vis_m": 75
        },
        "alt": {
          "cig_ft": 100,
          "vis_m": 300
        },
        "wind": {
          "threshold_kt": 29,
          "use_gust": false,
          "apply": true
        },
        "approach_category": null
      }
    },
    {
      "icao": "LIBR",
      "iata": "BDS",
      "name": "Brindisi Airport",
      "lat": 40.6576,
      "lon": 17.947001,
      "updatedAt": "040420Z",
      "visibility_m": 10000,
      "taf_visibility_m": 10000,
      "worst_visibility_m": 10000,
      "ceiling_ft": 1000,
      "hazards": [
        "BR",
        "RA"
      ],
      "severityScore": 34,
      "metarRaw": "METAR LIBR 040420Z 18013G23KT 9999 SCT020 15/11 Q1008",
      "tafRaw": "TAF LIBR 032300Z 0400/0424 16025G35KT CAVOK \n  TEMPO 0409/0418 16035G45KT \n  TEMPO 0415/0420 RA BKN010",
      "minima": {
        "best": {
          "cig_ft": 260,
          "vis_m": 1500
        },
        "alt": {
          "cig_ft": 580,
          "vis_m": 1900
        },
        "wind": {
          "threshold_kt": 29,
          "use_gust": false,
          "apply": true
        },
        "approach_category": null
      }
    },
    {
      "icao": "LIPE",
      "iata": "BLQ",
      "name": "Bologna Guglielmo Marconi Airport",
      "lat": 44.5354,
      "lon": 11.2887,
      "updatedAt": "040420Z",
      "visibility_m": 2200,
      "taf_visibility_m": 3000,
      "worst_visibility_m": 2200,
      "ceiling_ft": 1800,
      "hazards": [
        "BR",
        "RA"
      ],
      "severityScore": 34,
      "metarRaw": "METAR LIPE 040420Z 28004KT 2200 -RA BR SCT004 BKN018 04/04 Q1004",
      "tafRaw": "TAF LIPE 032300Z 0400/0424 VRB05KT 3000 BR FEW002 BKN010 \n  BECMG 0400/0402 RA \n  TEMPO 0415/0417 27010KT",
      "minima": {
        "best": {
          "cig_ft": 0,
          "vis_m": 75
        },
        "alt": {
          "cig_ft": 100,
          "vis_m": 300
        },
        "wind": {
          "threshold_kt": 29,
          "use_gust": false,
          "apply": true
        },
        "approach_category": null
      }
    },
    {
      "icao": "LJLJ",
      "iata": "LJU",
      "name": "Ljubljana Jože Pučnik Airport",
      "lat": 46.223701,
      "lon": 14.4576,
      "updatedAt": "040430Z",
      "visibility_m": 3000,
      "taf_visibility_m": 3000,
      "worst_visibility_m": 3000,
      "ceiling_ft": 1200,
      "hazards": [
        "BR",
        "RA"
      ],
      "severityScore": 34,
      "metarRaw": "METAR LJLJ 040430Z 29003KT 3000 -RA BR FEW001 OVC012 03/03 Q1005 NOSIG",
      "tafRaw": "TAF LJLJ 032300Z 0400/0500 VRB02KT 7000 FEW004 OVC020 \n  TEMPO 0400/0500 3000 BR BKN007 OVC045 \n  PROB30 \n  TEMPO 0400/0402 -RA \n  BECMG 0402/0404 RA",
      "minima": {
        "best": {
          "cig_ft": 0,
          "vis_m": 125
        },
        "alt": {
          "cig_ft": 100,
          "vis_m": 300
        },
        "wind": {
          "threshold_kt": 29,
          "use_gust": false,
          "apply": true
        },
        "approach_category": null
      }
    },
    {
      "icao": "LRTR",
      "iata": "TSR",
      "name": "Timişoara Traian Vuia Airport",
      "lat": 45.809898,
      "lon": 21.3379,
      "updatedAt": "040430Z",
      "visibility_m": 7000,
      "taf_visibility_m": 5000,
      "worst_visibility_m": 5000,
      "ceiling_ft": 1500,
      "hazards": [
        "RA",
        "BR"
      ],
      "severityScore": 34,
      "metarRaw": "METAR LRTR 040430Z 11012KT 7000 RA SCT038 03/03 Q1010",
      "tafRaw": "TAF LRTR 032300Z 0400/0424 11012KT 9999 SCT045 \n  TEMPO 0403/0409 5000 -RA BR BKN015 BKN040 \n  BECMG 0412/0414 VRB04KT \n  BECMG 0420/0422 09010KT",
      "minima": {
        "best": {
          "cig_ft": 0,
          "vis_m": 175
        },
        "alt": {
          "cig_ft": 128,
          "vis_m": 400
        },
        "wind": {
          "threshold_kt": 29,
          "use_gust": false,
          "apply": true
        },
        "approach_category": null
      }
    },
    {
      "icao": "EPPO",
      "iata": "POZ",
      "name": "Poznań-Ławica Airport",
      "lat": 52.421598,
      "lon": 16.823359,
      "updatedAt": "040430Z",
      "visibility_m": 2200,
      "taf_visibility_m": null,
      "worst_visibility_m": 2200,
      "ceiling_ft": 2000,
      "hazards": [
        "BR",
        "SN"
      ],
      "severityScore": 33,
      "metarRaw": "METAR EPPO 040430Z 08009KT 2200 -SN BR OVC020 M09/M11 Q1011",
      "tafRaw": null,
      "minima": {
        "best": {
          "cig_ft": 126,
          "vis_m": 400
        },
        "alt": {
          "cig_ft": 220,
          "vis_m": 800
        },
        "wind": {
          "threshold_kt": 29,
          "use_gust": false,
          "apply": true
        },
        "approach_category": null
      }
    },
    {
      "icao": "EDDB",
      "iata": "BER",
      "name": "Berlin Brandenburg Willy Brandt Airport",
      "lat": 52.361738,
      "lon": 13.502341,
      "updatedAt": "040420Z",
      "visibility_m": 4000,
      "taf_visibility_m": 2800,
      "worst_visibility_m": 2800,
      "ceiling_ft": 1400,
      "hazards": [
        "SN"
      ],
      "severityScore": 30,
      "metarRaw": "METAR EDDB 040420Z AUTO 08011KT 6000 -SN OVC014 M07/M09 Q1008 TEMPO 4000 -SN BKN014",
      "tafRaw": "TAF EDDB 032300Z 0400/0424 09010KT 9999 BKN020 \n  BECMG 0401/0404 BKN012 \n  TEMPO 0401/0406 2800 -SN BKN009 \n  BECMG 0409/0412 BKN015 \n  TEMPO 0418/0424 BKN010",
      "minima": {
        "best": {
          "cig_ft": 0,
          "vis_m": 75
        },
        "alt": {
          "cig_ft": 100,
          "vis_m": 300
        },
        "wind": {
          "threshold_kt": 29,
          "use_gust": false,
          "apply": true
        },
        "approach_category": null
      }
    },
    {
      "icao": "EDDH",
      "iata": "HAM",
      "name": "Hamburg Helmut Schmidt Airport",
      "lat": 53.630402,
      "lon": 9.98823,
      "updatedAt": "040420Z",
      "visibility_m": 3500,
      "taf_visibility_m": 2500,
      "worst_visibility_m": 2500,
      "ceiling_ft": 1900,
      "hazards": [
        "SN"
      ],
      "severityScore": 30,
      "metarRaw": "METAR EDDH 040420Z AUTO 10013KT 080V140 9999 BKN019 BKN039 BKN048 M05/M11 Q1006 TEMPO 3500 -SN",
      "tafRaw": "TAF EDDH 032300Z 0400/0506 09012KT 9999 OVC020 \n  PROB30 \n  TEMPO 0400/0403 10015G25KT \n  TEMPO 0405/0411 2500 -SN BKN012 \n  PROB40 \n  TEMPO 0405/0411 BKN008 \n  TEMPO 0411/0506 BKN012 \n  PROB40 \n  TEMPO 0500/0506 BKN008",
      "minima": {
        "best": {
          "cig_ft": 0,
          "vis_m": 75
        },
        "alt": {
          "cig_ft": 147,
          "vis_m": 450
        },
        "wind": {
          "threshold_kt": 29,
          "use_gust": false,
          "apply": true
        },
        "approach_category": null
      }
    },
    {
      "icao": "EDDK",
      "iata": "CGN",
      "name": "Cologne Bonn Airport",
      "lat": 50.865898,
      "lon": 7.14274,
      "updatedAt": "040420Z",
      "visibility_m": 10000,
      "taf_visibility_m": null,
      "worst_visibility_m": 10000,
      "ceiling_ft": 500,
      "hazards": [],
      "severityScore": 30,
      "metarRaw": "METAR EDDK 040420Z AUTO 13008KT 9999 OVC005 03/02 Q1000 BECMG SCT006 BKN025",
      "tafRaw": null,
      "minima": {
        "best": {
          "cig_ft": 0,
          "vis_m": 75
        },
        "alt": {
          "cig_ft": 100,
          "vis_m": 300
        },
        "wind": {
          "threshold_kt": 29,
          "use_gust": false,
          "apply": true
        },
        "approach_category": null
      }
    },
    {
      "icao": "EPSC",
      "iata": "SZZ",
      "name": "Solidarity Szczecin–Goleniów Airport",
      "lat": 53.584702,
      "lon": 14.9022,
      "updatedAt": "040430Z",
      "visibility_m": 10000,
      "taf_visibility_m": 4500,
      "worst_visibility_m": 4500,
      "ceiling_ft": 1600,
      "hazards": [
        "SN"
      ],
      "severityScore": 30,
      "metarRaw": "METAR EPSC 040430Z 08007KT 9999 OVC016 M08/M12 Q1011",
      "tafRaw": "TAF EPSC 032330Z 0400/0424 08010KT 9999 OVC012 \n  TEMPO 0400/0418 -SN BKN018 \n  PROB30 \n  TEMPO 0404/0410 4500 -SN BKN009",
      "minima": {
        "best": {
          "cig_ft": 210,
          "vis_m": 550
        },
        "alt": {
          "cig_ft": 280,
          "vis_m": 600
        },
        "wind": {
          "threshold_kt": 29,
          "use_gust": false,
          "apply": true
        },
        "approach_category": null
      }
    },
    {
      "icao": "ESKN",
      "iata": "NYO",
      "name": "Stockholm Skavsta Airport",
      "lat": 58.789656,
      "lon": 16.911479,
      "updatedAt": "040420Z",
      "visibility_m": 10000,
      "taf_visibility_m": 2500,
      "worst_visibility_m": 2500,
      "ceiling_ft": 2600,
      "hazards": [
        "SHSN",
        "SN"
      ],
      "severityScore": 28,
      "metarRaw": "METAR ESKN 040420Z 10015KT 9999 BKN026 M04/M09 Q1025",
      "tafRaw": "TAF ESKN 040230Z 0403/0503 05008KT 9999 BKN025 \n  PROB40 0408/0424 2500 -SHSN BKN014",
      "minima": {
        "best": {
          "cig_ft": 200,
          "vis_m": 550
        },
        "alt": {
          "cig_ft": 390,
          "vis_m": 1400
        },
        "wind": {
          "threshold_kt": 29,
          "use_gust": false,
          "apply": true
        },
        "approach_category": null
      }
    },
    {
      "icao": "LHDC",
      "iata": "DEB",
      "name": "Debrecen International Airport",
      "lat": 47.488899,
      "lon": 21.615299,
      "updatedAt": "040415Z",
      "visibility_m": 5000,
      "taf_visibility_m": null,
      "worst_visibility_m": 5000,
      "ceiling_ft": 2000,
      "hazards": [
        "BR",
        "RA"
      ],
      "severityScore": 27,
      "metarRaw": "METAR LHDC 040415Z AUTO 08006KT 5000 -RA BR OVC020 03/03 Q1011 NOSIG",
      "tafRaw": null,
      "minima": {
        "best": {
          "cig_ft": 210,
          "vis_m": 550
        },
        "alt": {
          "cig_ft": 260,
          "vis_m": 1300
        },
        "wind": {
          "threshold_kt": 29,
          "use_gust": false,
          "apply": true
        },
        "approach_category": null
      }
    },
    {
      "icao": "LFMN",
      "iata": "NCE",
      "name": "Nice-Côte d'Azur Airport",
      "lat": 43.658401,
      "lon": 7.21587,
      "updatedAt": "040430Z",
      "visibility_m": 10000,
      "taf_visibility_m": 10000,
      "worst_visibility_m": 10000,
      "ceiling_ft": 5600,
      "hazards": [
        "SHRA",
        "RA"
      ],
      "severityScore": 26,
      "metarRaw": "METAR LFMN 040430Z 33009KT 9999 FEW040 BKN056 09/06 Q0999 NOSIG",
      "tafRaw": "TAF LFMN 040200Z 0403/0509 34010KT 9999 BKN050 \n  PROB40 \n  TEMPO 0408/0411 SHRA FEW030TCU \n  BECMG 0410/0412 21012KT \n  TEMPO 0412/0417 NSC \n  BECMG 0417/0419 33010KT \n  TEMPO 0419/0422 SHRA FEW030TCU \n  BECMG 0422/0424 NSC",
      "minima": {
        "best": {
          "cig_ft": 200,
          "vis_m": 1200
        },
        "alt": {
          "cig_ft": 290,
          "vis_m": 1400
        },
        "wind": {
          "threshold_kt": 29,
          "use_gust": false,
          "apply": true
        },
        "approach_category": null
      }
    },
    {
      "icao": "LIBP",
      "iata": "PSR",
      "name": "Abruzzo Airport",
      "lat": 42.431079,
      "lon": 14.182981,
      "updatedAt": "040420Z",
      "visibility_m": 10000,
      "taf_visibility_m": 4000,
      "worst_visibility_m": 4000,
      "ceiling_ft": 8000,
      "hazards": [
        "RA",
        "SHRA"
      ],
      "severityScore": 26,
      "metarRaw": "METAR LIBP 040420Z AUTO VRB02KT 9999 OVC011/// 10/10 Q1004",
      "tafRaw": "TAF LIBP 032300Z 0400/0424 VRB05KT 9999 OVC080 \n  TEMPO 0400/0406 RA \n  TEMPO 0415/0424 4000 SHRA",
      "minima": {
        "best": {
          "cig_ft": 240,
          "vis_m": 800
        },
        "alt": {
          "cig_ft": 480,
          "vis_m": 1800
        },
        "wind": {
          "threshold_kt": 29,
          "use_gust": false,
          "apply": true
        },
        "approach_category": null
      }
    },
    {
      "icao": "LIRZ",
      "iata": "PEG",
      "name": "Perugia San Francesco d'Assisi – Umbria International Airport",
      "lat": 43.095901,
      "lon": 12.5132,
      "updatedAt": "040420Z",
      "visibility_m": 10000,
      "taf_visibility_m": 4000,
      "worst_visibility_m": 4000,
      "ceiling_ft": 2000,
      "hazards": [
        "RA",
        "SHRA"
      ],
      "severityScore": 26,
      "metarRaw": "METAR LIRZ 040420Z AUTO VRB01KT 9999 -RA OVC043/// 09/09 Q1002",
      "tafRaw": "TAF LIRZ 032300Z 0400/0424 VRB05KT 9999 BKN020 \n  TEMPO 0400/0409 4000 SHRA \n  TEMPO 0412/0416 4000 SHRA",
      "minima": {
        "best": {
          "cig_ft": 290,
          "vis_m": 900
        },
        "alt": {
          "cig_ft": 390,
          "vis_m": 1400
        },
        "wind": {
          "threshold_kt": 29,
          "use_gust": false,
          "apply": true
        },
        "approach_category": null
      }
    },
    {
      "icao": "LMML",
      "iata": "MLA",
      "name": "Malta International Airport",
      "lat": 35.857498,
      "lon": 14.4775,
      "updatedAt": "040445Z",
      "visibility_m": 10000,
      "taf_visibility_m": 8000,
      "worst_visibility_m": 8000,
      "ceiling_ft": null,
      "hazards": [
        "SHRA",
        "RA"
      ],
      "severityScore": 26,
      "metarRaw": "METAR LMML 040445Z 16012G23KT 140V200 9999 FEW012 17/13 Q1000 NOSIG",
      "tafRaw": "TAF LMML 032300Z 0400/0424 16020G30KT 9999 FEW020 \n  PROB40 \n  TEMPO 0404/0410 8000 SHRA BKN070TCU \n  BECMG 0406/0409 25023G35KT \n  TEMPO 0418/0424 8000 SHRA BKN015TCU",
      "minima": {
        "best": {
          "cig_ft": 200,
          "vis_m": 550
        },
        "alt": {
          "cig_ft": 300,
          "vis_m": 650
        },
        "wind": {
          "threshold_kt": 29,
          "use_gust": false,
          "apply": true
        },
        "approach_category": null
      }
    },
    {
      "icao": "UGKO",
      "iata": "KUT",
      "name": "David the Builder Kutaisi International Airport",
      "lat": 42.177448,
      "lon": 42.485353,
      "updatedAt": "040430Z",
      "visibility_m": 10000,
      "taf_visibility_m": 4500,
      "worst_visibility_m": 4500,
      "ceiling_ft": 2000,
      "hazards": [
        "RA",
        "SHRA"
      ],
      "severityScore": 26,
      "metarRaw": "METAR UGKO 040430Z 25008KT 9999 -RA SCT015 OVC020 04/02 Q1023 NOSIG",
      "tafRaw": "TAF UGKO 032300Z 0400/0424 25008KT 9999 SCT030 OVC050 TX06/0410Z TN00/0424Z \n  TEMPO 0400/0408 4500 SHRA SCT015 BKN025CB \n  BECMG 0418/0420 CAVOK",
      "minima": {
        "best": {
          "cig_ft": 200,
          "vis_m": 550
        },
        "alt": {
          "cig_ft": 340,
          "vis_m": 800
        },
        "wind": {
          "threshold_kt": 29,
          "use_gust": false,
          "apply": true
        },
        "approach_category": null
      }
    },
    {
      "icao": "GCTS",
      "iata": "TFS",
      "name": "Tenerife Sur Airport",
      "lat": 28.0445,
      "lon": -16.5725,
      "updatedAt": "040430Z",
      "visibility_m": 10000,
      "taf_visibility_m": 10000,
      "worst_visibility_m": 10000,
      "ceiling_ft": null,
      "hazards": [
        "TS"
      ],
      "severityScore": 25,
      "metarRaw": "METAR GCTS 040430Z 33006KT 9999 FEW035 15/10 Q1018 NOSIG",
      "tafRaw": "TAF GCTS 040200Z 0403/0503 36005KT 9999 FEW030 TX24/0414Z TN16/0406Z \n  BECMG 0410/0413 25012KT",
      "minima": {
        "best": {
          "cig_ft": 230,
          "vis_m": 550
        },
        "alt": {
          "cig_ft": 280,
          "vis_m": 600
        },
        "wind": {
          "threshold_kt": 29,
          "use_gust": false,
          "apply": true
        },
        "approach_category": null
      }
    },
    {
      "icao": "EDLW",
      "iata": "DTM",
      "name": "Dortmund Airport",
      "lat": 51.518299,
      "lon": 7.61224,
      "updatedAt": "040420Z",
      "visibility_m": 10000,
      "taf_visibility_m": 4500,
      "worst_visibility_m": 4500,
      "ceiling_ft": 1400,
      "hazards": [
        "RA"
      ],
      "severityScore": 24,
      "metarRaw": "METAR EDLW 040420Z 13011KT CAVOK 05/03 Q0999",
      "tafRaw": "TAF EDLW 031700Z 0318/0418 10007KT 9999 BKN025 \n  PROB30 \n  TEMPO 0318/0323 4500 RA BKN014",
      "minima": {
        "best": {
          "cig_ft": 100,
          "vis_m": 300
        },
        "alt": {
          "cig_ft": 200,
          "vis_m": 550
        },
        "wind": {
          "threshold_kt": 29,
          "use_gust": false,
          "apply": true
        },
        "approach_category": null
      }
    },
    {
      "icao": "LEAL",
      "iata": "ALC",
      "name": "Alicante-Elche Miguel Hernández Airport",
      "lat": 38.2822,
      "lon": -0.558156,
      "updatedAt": "040430Z",
      "visibility_m": 6000,
      "taf_visibility_m": 3000,
      "worst_visibility_m": 3000,
      "ceiling_ft": 1500,
      "hazards": [
        "RA"
      ],
      "severityScore": 24,
      "metarRaw": "METAR LEAL 040430Z 05003KT 6000 RA BKN015 BKN045 09/09 Q0997 NOSIG",
      "tafRaw": "TAF LEAL 032300Z 0400/0424 26007KT 9999 FEW030 TX18/0413Z TN07/0407Z \n  TEMPO 0401/0408 3000 RA BKN010 \n  BECMG 0408/0410 25014KT \n  TEMPO 0411/0419 25015G25KT",
      "minima": {
        "best": {
          "cig_ft": 270,
          "vis_m": 600
        },
        "alt": {
          "cig_ft": 360,
          "vis_m": 900
        },
        "wind": {
          "threshold_kt": 29,
          "use_gust": false,
          "apply": true
        },
        "approach_category": null
      }
    },
    {
      "icao": "LEZL",
      "iata": "SVQ",
      "name": "Sevilla Airport",
      "lat": 37.417999,
      "lon": -5.89311,
      "updatedAt": "040430Z",
      "visibility_m": 10000,
      "taf_visibility_m": 3000,
      "worst_visibility_m": 3000,
      "ceiling_ft": 1200,
      "hazards": [
        "RA"
      ],
      "severityScore": 24,
      "metarRaw": "METAR LEZL 040430Z 24019G32KT 9999 -RA BKN012 BKN021 17/16 Q0996 NOSIG",
      "tafRaw": "TAF LEZL 040200Z 0403/0503 24015KT 9999 BKN020 TX18/0415Z TN12/0407Z \n  TEMPO 0403/0501 24016G28KT 3000 +RA BKN005",
      "minima": {
        "best": {
          "cig_ft": 210,
          "vis_m": 550
        },
        "alt": {
          "cig_ft": 400,
          "vis_m": 1100
        },
        "wind": {
          "threshold_kt": 29,
          "use_gust": false,
          "apply": true
        },
        "approach_category": null
      }
    },
    {
      "icao": "LIPH",
      "iata": "TSF",
      "name": "Treviso Antonio Canova Airport",
      "lat": 45.648399,
      "lon": 12.1944,
      "updatedAt": "040420Z",
      "visibility_m": 10000,
      "taf_visibility_m": 10000,
      "worst_visibility_m": 10000,
      "ceiling_ft": 1000,
      "hazards": [
        "RA"
      ],
      "severityScore": 24,
      "metarRaw": "METAR LIPH 040420Z AUTO VRB02KT 9999 -RA OVC007/// 06/05 Q1004",
      "tafRaw": "TAF LIPH 032300Z 0400/0424 VRB06KT CAVOK \n  BECMG 0406/0408 04012KT RA BKN010",
      "minima": {
        "best": {
          "cig_ft": 135,
          "vis_m": 400
        },
        "alt": {
          "cig_ft": 230,
          "vis_m": 550
        },
        "wind": {
          "threshold_kt": 29,
          "use_gust": false,
          "apply": true
        },
        "approach_category": null
      }
    },
    {
      "icao": "LPPS",
      "iata": "PXO",
      "name": "Porto Santo Airport",
      "lat": 33.0733985901,
      "lon": -16.3500003815,
      "updatedAt": "040430Z",
      "visibility_m": 10000,
      "taf_visibility_m": 6000,
      "worst_visibility_m": 6000,
      "ceiling_ft": 1000,
      "hazards": [
        "RA"
      ],
      "severityScore": 24,
      "metarRaw": "METAR LPPS 040430Z 28020KT 9999 FEW008 17/16 Q1012",
      "tafRaw": "TAF LPPS 032300Z 0400/0506 27017KT 9999 SCT013 SCT030 \n  TEMPO 0400/0419 27020G33KT BKN010 \n  BECMG 0419/0421 23012KT \n  BECMG 0504/0506 27023KT 6000 -RA SCT008 BKN015",
      "minima": {
        "best": {
          "cig_ft": 790,
          "vis_m": 2400
        },
        "alt": {
          "cig_ft": 850,
          "vis_m": 2400
        },
        "wind": {
          "threshold_kt": 29,
          "use_gust": false,
          "apply": true
        },
        "approach_category": null
      }
    },
    {
      "icao": "LRTM",
      "iata": "TGM",
      "name": "Târgu Mureş Transilvania International Airport",
      "lat": 46.467701,
      "lon": 24.4125,
      "updatedAt": "040430Z",
      "visibility_m": 7000,
      "taf_visibility_m": 5000,
      "worst_visibility_m": 5000,
      "ceiling_ft": 1500,
      "hazards": [
        "RA"
      ],
      "severityScore": 24,
      "metarRaw": "METAR LRTM 040430Z AUTO 09004KT 7000 -RA NCD 02/00 Q1013",
      "tafRaw": "TAF LRTM 040200Z 0403/0412 VRB04KT CAVOK \n  PROB30 \n  TEMPO 0403/0406 5000 -RA BKN015 OVC040",
      "minima": {
        "best": {
          "cig_ft": 100,
          "vis_m": 300
        },
        "alt": {
          "cig_ft": 200,
          "vis_m": 550
        },
        "wind": {
          "threshold_kt": 29,
          "use_gust": false,
          "apply": true
        },
        "approach_category": null
      }
    },
    {
      "icao": "BKPR",
      "iata": "PRN",
      "name": "Priština Adem Jashari International Airport",
      "lat": 42.5728,
      "lon": 21.035801,
      "updatedAt": "040430Z",
      "visibility_m": 10000,
      "taf_visibility_m": 3000,
      "worst_visibility_m": 3000,
      "ceiling_ft": 1000,
      "hazards": [
        "BR"
      ],
      "severityScore": 22,
      "metarRaw": "METAR BKPR 040430Z 19011KT 9999 SCT070 05/04 Q1013 NOSIG",
      "tafRaw": "TAF BKPR 032330Z 0400/0424 17008KT 9999 SCT030 BKN080 \n  PROB40 \n  TEMPO 0403/0407 3000 BR BKN010 \n  TEMPO 0410/0420 17018G28KT",
      "minima": {
        "best": {
          "cig_ft": 0,
          "vis_m": 75
        },
        "alt": {
          "cig_ft": 100,
          "vis_m": 300
        },
        "wind": {
          "threshold_kt": 29,
          "use_gust": false,
          "apply": true
        },
        "approach_category": null
      }
    },
    {
      "icao": "LEZG",
      "iata": "ZAZ",
      "name": "Zaragoza Airport",
      "lat": 41.666199,
      "lon": -1.04155,
      "updatedAt": "040430Z",
      "visibility_m": 10000,
      "taf_visibility_m": 2000,
      "worst_visibility_m": 2000,
      "ceiling_ft": 7000,
      "hazards": [
        "RA",
        "BR"
      ],
      "severityScore": 22,
      "metarRaw": "METAR LEZG 040430Z 11007KT 9999 -RA SCT050 BKN070 06/05 Q0993 NOSIG",
      "tafRaw": "TAF LEZG 032300Z 0400/0424 23008KT 9999 FEW020 TX12/0414Z TN05/0406Z \n  TEMPO 0402/0409 2000 RA BR BKN020 FEW030TCU \n  TEMPO 0412/0418 25015G25KT",
      "minima": {
        "best": {
          "cig_ft": 0,
          "vis_m": 75
        },
        "alt": {
          "cig_ft": 100,
          "vis_m": 400
        },
        "wind": {
          "threshold_kt": 29,
          "use_gust": false,
          "apply": true
        },
        "approach_category": null
      }
    },
    {
      "icao": "LIMF",
      "iata": "TRN",
      "name": "Turin Airport",
      "lat": 45.200802,
      "lon": 7.64963,
      "updatedAt": "040420Z",
      "visibility_m": 2000,
      "taf_visibility_m": 4000,
      "worst_visibility_m": 2000,
      "ceiling_ft": 2500,
      "hazards": [
        "BR",
        "RA"
      ],
      "severityScore": 22,
      "metarRaw": "METAR LIMF 040420Z 25004KT 2000 BR SCT016 BKN025 03/02 Q1003",
      "tafRaw": "TAF LIMF 031700Z 0318/0418 VRB05KT 6000 SCT030 \n  BECMG 0408/0410 4000 RA \n  BECMG 0416/0418 6000 NSW",
      "minima": {
        "best": {
          "cig_ft": 0,
          "vis_m": 75
        },
        "alt": {
          "cig_ft": 100,
          "vis_m": 300
        },
        "wind": {
          "threshold_kt": 29,
          "use_gust": false,
          "apply": true
        },
        "approach_category": null
      }
    },
    {
      "icao": "LIPY",
      "iata": "AOI",
      "name": "Marche Airport",
      "lat": 43.616299,
      "lon": 13.3623,
      "updatedAt": "040420Z",
      "visibility_m": 3400,
      "taf_visibility_m": 4000,
      "worst_visibility_m": 3400,
      "ceiling_ft": 6000,
      "hazards": [
        "BR",
        "RA"
      ],
      "severityScore": 22,
      "metarRaw": "METAR LIPY 040420Z AUTO VRB02KT 3400 -RA BR OVC003/// 08/08 Q1003",
      "tafRaw": "TAF LIPY 032300Z 0400/0424 VRB05KT 4000 RA BR SCT004 OVC060 \n  TEMPO 0412/0414 30015KT",
      "minima": {
        "best": {
          "cig_ft": 250,
          "vis_m": 1000
        },
        "alt": {
          "cig_ft": 370,
          "vis_m": 1500
        },
        "wind": {
          "threshold_kt": 29,
          "use_gust": false,
          "apply": true
        },
        "approach_category": null
      }
    },
    {
      "icao": "LKPR",
      "iata": "PRG",
      "name": "Václav Havel Airport Prague",
      "lat": 50.100874,
      "lon": 14.259911,
      "updatedAt": "040430Z",
      "visibility_m": 8000,
      "taf_visibility_m": 2000,
      "worst_visibility_m": 2000,
      "ceiling_ft": 2600,
      "hazards": [
        "BR",
        "RA"
      ],
      "severityScore": 22,
      "metarRaw": "METAR LKPR 040430Z 08003KT 8000 FEW018 BKN026 M01/M01 Q1005 NOSIG",
      "tafRaw": "TAF LKPR 040200Z 0403/0509 11008KT 5000 BR OVC007 \n  PROB30 \n  TEMPO 0403/0408 2000 BR OVC004 \n  BECMG 0408/0410 09008KT 9999 BKN017 \n  TEMPO 0416/0509 2000 -RA BR BKN002",
      "minima": {
        "best": {
          "cig_ft": 0,
          "vis_m": 75
        },
        "alt": {
          "cig_ft": 100,
          "vis_m": 300
        },
        "wind": {
          "threshold_kt": 29,
          "use_gust": false,
          "apply": true
        },
        "approach_category": null
      }
    },
    {
      "icao": "LQBK",
      "iata": "BNX",
      "name": "Banja Luka International Airport",
      "lat": 44.941399,
      "lon": 17.297501,
      "updatedAt": "040430Z",
      "visibility_m": 3500,
      "taf_visibility_m": 4000,
      "worst_visibility_m": 3500,
      "ceiling_ft": null,
      "hazards": [
        "BR",
        "RA"
      ],
      "severityScore": 22,
      "metarRaw": "METAR LQBK 040430Z 00000KT 3500 BR FEW003 SCT045 05/05 Q1005 NOSIG",
      "tafRaw": "TAF LQBK 032300Z 0400/0424 VRB02KT 9999 SCT040 TX11/0414Z TN04/0406Z \n  TEMPO 0400/0409 4000 -RA BR \n  BECMG 0412/0414 15010KT \n  PROB30 \n  TEMPO 0417/0424 15015G25KT",
      "minima": {
        "best": {
          "cig_ft": 200,
          "vis_m": 550
        },
        "alt": {
          "cig_ft": 350,
          "vis_m": 900
        },
        "wind": {
          "threshold_kt": 29,
          "use_gust": false,
          "apply": true
        },
        "approach_category": null
      }
    },
    {
      "icao": "LRBC",
      "iata": "BCM",
      "name": "Bacău George Enescu International  Airport",
      "lat": 46.5219,
      "lon": 26.910299,
      "updatedAt": "040430Z",
      "visibility_m": 10000,
      "taf_visibility_m": 4000,
      "worst_visibility_m": 4000,
      "ceiling_ft": 1200,
      "hazards": [
        "BR"
      ],
      "severityScore": 22,
      "metarRaw": "METAR LRBC 040430Z 17011KT 9999 OVC012 M04/M06 Q1018",
      "tafRaw": "TAF LRBC 040200Z 0403/0412 16016KT 9999 BKN015 \n  TEMPO 0404/0412 4000 BR OVC005",
      "minima": {
        "best": {
          "cig_ft": 200,
          "vis_m": 550
        },
        "alt": {
          "cig_ft": 330,
          "vis_m": 800
        },
        "wind": {
          "threshold_kt": 29,
          "use_gust": false,
          "apply": true
        },
        "approach_category": null
      }
    },
    {
      "icao": "ENGM",
      "iata": "OSL",
      "name": "Oslo-Gardermoen International Airport",
      "lat": 60.193901,
      "lon": 11.1004,
      "updatedAt": "040420Z",
      "visibility_m": 10000,
      "taf_visibility_m": 10000,
      "worst_visibility_m": 10000,
      "ceiling_ft": 2400,
      "hazards": [
        "SN"
      ],
      "severityScore": 18,
      "metarRaw": "METAR ENGM 040420Z 03010KT 9999 -SN OVC024 M09/M12 Q1024",
      "tafRaw": "TAF ENGM 032300Z 0400/0424 02005KT 9999 -SN BKN020 \n  PROB40 \n  TEMPO 0400/0409 BKN014",
      "minima": {
        "best": {
          "cig_ft": 0,
          "vis_m": 75
        },
        "alt": {
          "cig_ft": 100,
          "vis_m": 300
        },
        "wind": {
          "threshold_kt": 29,
          "use_gust": false,
          "apply": true
        },
        "approach_category": null
      }
    },
    {
      "icao": "EPSY",
      "iata": "SZY",
      "name": "Olsztyn-Mazury Airport",
      "lat": 53.481899,
      "lon": 20.9377,
      "updatedAt": "040430Z",
      "visibility_m": 10000,
      "taf_visibility_m": 6000,
      "worst_visibility_m": 6000,
      "ceiling_ft": 3100,
      "hazards": [
        "SN"
      ],
      "severityScore": 18,
      "metarRaw": "METAR EPSY 040430Z 07007KT 040V110 9999 FEW023 BKN031 M14/M18 Q1016",
      "tafRaw": "TAF EPSY 040230Z 0403/0412 08008KT 9999 BKN025 \n  BECMG 0406/0409 6000 -SN BKN014",
      "minima": {
        "best": {
          "cig_ft": 116,
          "vis_m": 300
        },
        "alt": {
          "cig_ft": 200,
          "vis_m": 550
        },
        "wind": {
          "threshold_kt": 29,
          "use_gust": false,
          "apply": true
        },
        "approach_category": null
      }
    },
    {
      "icao": "ESSA",
      "iata": "ARN",
      "name": "Stockholm-Arlanda Airport",
      "lat": 59.64849,
      "lon": 17.928829,
      "updatedAt": "040420Z",
      "visibility_m": 10000,
      "taf_visibility_m": 4000,
      "worst_visibility_m": 4000,
      "ceiling_ft": 2600,
      "hazards": [
        "SN"
      ],
      "severityScore": 18,
      "metarRaw": "METAR ESSA 040420Z 06006KT 9999 BKN026 M07/M11 Q1027 NOSIG",
      "tafRaw": "TAF ESSA 040230Z 0403/0503 05008KT 9999 BKN025 \n  PROB40 0410/0414 4000 -SN",
      "minima": {
        "best": {
          "cig_ft": 0,
          "vis_m": 75
        },
        "alt": {
          "cig_ft": 100,
          "vis_m": 300
        },
        "wind": {
          "threshold_kt": 29,
          "use_gust": false,
          "apply": true
        },
        "approach_category": null
      }
    },
    {
      "icao": "LQSA",
      "iata": "SJJ",
      "name": "Sarajevo International Airport",
      "lat": 43.8246,
      "lon": 18.331499,
      "updatedAt": "040430Z",
      "visibility_m": 10000,
      "taf_visibility_m": null,
      "worst_visibility_m": 10000,
      "ceiling_ft": 5000,
      "hazards": [
        "RA"
      ],
      "severityScore": 17,
      "metarRaw": "METAR LQSA 040430Z 12005KT 080V170 9999 -RA BKN050 10/08 Q1006 NOSIG",
      "tafRaw": null,
      "minima": {
        "best": {
          "cig_ft": 230,
          "vis_m": 550
        },
        "alt": {
          "cig_ft": 660,
          "vis_m": 2300
        },
        "wind": {
          "threshold_kt": 29,
          "use_gust": false,
          "apply": true
        },
        "approach_category": null
      }
    },
    {
      "icao": "GMAD",
      "iata": "AGA",
      "name": "Al Massira Airport",
      "lat": 30.322478,
      "lon": -9.412003,
      "updatedAt": "040430Z",
      "visibility_m": 8000,
      "taf_visibility_m": 8000,
      "worst_visibility_m": 8000,
      "ceiling_ft": 1600,
      "hazards": [],
      "severityScore": 12,
      "metarRaw": "METAR GMAD 040430Z 19008KT 8000 SCT010 BKN016 14/14 Q1016 NOSIG",
      "tafRaw": "TAF GMAD 032300Z 0400/0506 26008KT 8000 SCT016 SCT080",
      "minima": {
        "best": {
          "cig_ft": 210,
          "vis_m": 550
        },
        "alt": {
          "cig_ft": 380,
          "vis_m": 1700
        },
        "wind": {
          "threshold_kt": 29,
          "use_gust": false,
          "apply": true
        },
        "approach_category": null
      }
    },
    {
      "icao": "GMMN",
      "iata": "CMN",
      "name": "Mohammed V International Airport",
      "lat": 33.3675,
      "lon": -7.58997,
      "updatedAt": "040430Z",
      "visibility_m": 8000,
      "taf_visibility_m": 3000,
      "worst_visibility_m": 3000,
      "ceiling_ft": 2000,
      "hazards": [
        "RA"
      ],
      "severityScore": 12,
      "metarRaw": "METAR GMMN 040430Z 22019KT 170V250 8000 SCT008 BKN020 14/12 Q1013 NOSIG",
      "tafRaw": "TAF GMMN 032300Z 0400/0506 22020G30KT 8000 BKN006 BKN016 \n  TEMPO 0400/0406 3000 RA BKN008 BKN016 SCT020TCU \n  BECMG 0412/0415 18017KT BKN020 SCT100",
      "minima": {
        "best": {
          "cig_ft": 0,
          "vis_m": 200
        },
        "alt": {
          "cig_ft": 135,
          "vis_m": 400
        },
        "wind": {
          "threshold_kt": 29,
          "use_gust": false,
          "apply": true
        },
        "approach_category": null
      }
    },
    {
      "icao": "EDDN",
      "iata": "NUE",
      "name": "Nuremberg Airport",
      "lat": 49.498699,
      "lon": 11.078056,
      "updatedAt": "040420Z",
      "visibility_m": 6000,
      "taf_visibility_m": 8000,
      "worst_visibility_m": 6000,
      "ceiling_ft": 1200,
      "hazards": [],
      "severityScore": 12,
      "metarRaw": "METAR EDDN 040420Z AUTO 12005KT 6000 NCD M02/M03 Q1002",
      "tafRaw": "TAF EDDN 032300Z 0400/0424 10006KT 8000 NSC \n  BECMG 0416/0418 BKN012",
      "minima": {
        "best": {
          "cig_ft": 0,
          "vis_m": 75
        },
        "alt": {
          "cig_ft": 100,
          "vis_m": 300
        },
        "wind": {
          "threshold_kt": 29,
          "use_gust": false,
          "apply": true
        },
        "approach_category": null
      }
    },
    {
      "icao": "EKCH",
      "iata": "CPH",
      "name": "Copenhagen Kastrup Airport",
      "lat": 55.617900848389,
      "lon": 12.656000137329,
      "updatedAt": "040420Z",
      "visibility_m": 10000,
      "taf_visibility_m": 10000,
      "worst_visibility_m": 10000,
      "ceiling_ft": 1400,
      "hazards": [],
      "severityScore": 12,
      "metarRaw": "METAR EKCH 040420Z AUTO 09023G33KT 9999 BKN019/// M02/M07 Q1014 TEMPO 10022G34KT",
      "tafRaw": "TAF EKCH 040227Z 0403/0503 09020KT 9999 BKN018 \n  TEMPO 0403/0417 10022G34KT \n  TEMPO 0417/0423 08020G30KT \n  TEMPO 0423/0503 07020G30KT BKN014",
      "minima": {
        "best": {
          "cig_ft": 0,
          "vis_m": 75
        },
        "alt": {
          "cig_ft": 100,
          "vis_m": 300
        },
        "wind": {
          "threshold_kt": 29,
          "use_gust": false,
          "apply": true
        },
        "approach_category": null
      }
    },
    {
      "icao": "ENTO",
      "iata": "TRF",
      "name": "Sandefjord Airport, Torp",
      "lat": 59.186699,
      "lon": 10.2586,
      "updatedAt": "040420Z",
      "visibility_m": 10000,
      "taf_visibility_m": 10000,
      "worst_visibility_m": 10000,
      "ceiling_ft": 1500,
      "hazards": [],
      "severityScore": 12,
      "metarRaw": "METAR ENTO 040420Z COR 03010KT 9999 OVC015 M07/M10 Q1022",
      "tafRaw": "TAF ENTO 032300Z 0400/0424 03012KT 9999 SCT012 BKN018 \n  TEMPO 0400/0424 BKN012",
      "minima": {
        "best": {
          "cig_ft": 100,
          "vis_m": 300
        },
        "alt": {
          "cig_ft": 200,
          "vis_m": 550
        },
        "wind": {
          "threshold_kt": 29,
          "use_gust": false,
          "apply": true
        },
        "approach_category": null
      }
    },
    {
      "icao": "ESMS",
      "iata": "MMX",
      "name": "Malmö Sturup Airport",
      "lat": 55.535564,
      "lon": 13.376327,
      "updatedAt": "040420Z",
      "visibility_m": 10000,
      "taf_visibility_m": 10000,
      "worst_visibility_m": 10000,
      "ceiling_ft": 1600,
      "hazards": [],
      "severityScore": 12,
      "metarRaw": "METAR ESMS 040420Z 09021KT 9999 OVC016 M03/M07 Q1014",
      "tafRaw": "TAF ESMS 040227Z 0403/0503 09020KT 9999 BKN016 \n  TEMPO 0403/0406 09022G34KT BKN014 \n  TEMPO 0406/0419 09022G34KT \n  TEMPO 0419/0421 08020G31KT BKN014",
      "minima": {
        "best": {
          "cig_ft": 100,
          "vis_m": 350
        },
        "alt": {
          "cig_ft": 200,
          "vis_m": 550
        },
        "wind": {
          "threshold_kt": 29,
          "use_gust": false,
          "apply": true
        },
        "approach_category": null
      }
    },
    {
      "icao": "LATI",
      "iata": "TIA",
      "name": "Tirana International Airport Mother Teresa",
      "lat": 41.4147,
      "lon": 19.7206,
      "updatedAt": "040420Z",
      "visibility_m": 10000,
      "taf_visibility_m": 10000,
      "worst_visibility_m": 10000,
      "ceiling_ft": 2500,
      "hazards": [
        "RA"
      ],
      "severityScore": 12,
      "metarRaw": "METAR LATI 040420Z 11003KT 080V140 9999 SCT100 09/05 Q1011 NOSIG",
      "tafRaw": "TAF LATI 032300Z 0400/0424 VRB05KT 9999 BKN090 TX20/0412Z TN08/0403Z \n  BECMG 0410/0412 16013KT \n  TEMPO 0416/0421 16013G25KT \n  PROB40 \n  TEMPO 0418/0424 RA BKN025 OVC070",
      "minima": {
        "best": {
          "cig_ft": 250,
          "vis_m": 550
        },
        "alt": {
          "cig_ft": 340,
          "vis_m": 800
        },
        "wind": {
          "threshold_kt": 29,
          "use_gust": false,
          "apply": true
        },
        "approach_category": null
      }
    },
    {
      "icao": "LEBB",
      "iata": "BIO",
      "name": "Bilbao Airport",
      "lat": 43.301102,
      "lon": -2.91061,
      "updatedAt": "040430Z",
      "visibility_m": 10000,
      "taf_visibility_m": 10000,
      "worst_visibility_m": 10000,
      "ceiling_ft": null,
      "hazards": [
        "RA"
      ],
      "severityScore": 12,
      "metarRaw": "METAR LEBB 040430Z 12005KT 080V150 9999 FEW053 10/04 Q0986 NOSIG",
      "tafRaw": "TAF LEBB 032300Z 0400/0424 17009KT 9999 SCT050 TX15/0412Z TN07/0405Z \n  PROB30 \n  TEMPO 0400/0406 11010KT \n  PROB30 \n  TEMPO 0403/0407 RA \n  TEMPO 0407/0415 20017G29KT \n  PROB30 \n  TEMPO 0413/0417 RA",
      "minima": {
        "best": {
          "cig_ft": 300,
          "vis_m": 650
        },
        "alt": {
          "cig_ft": 680,
          "vis_m": 2400
        },
        "wind": {
          "threshold_kt": 29,
          "use_gust": false,
          "apply": true
        },
        "approach_category": null
      }
    },
    {
      "icao": "LEBL",
      "iata": "BCN",
      "name": "Josep Tarradellas Barcelona-El Prat Airport",
      "lat": 41.2971,
      "lon": 2.07846,
      "updatedAt": "040430Z",
      "visibility_m": 10000,
      "taf_visibility_m": 4000,
      "worst_visibility_m": 4000,
      "ceiling_ft": null,
      "hazards": [
        "RA"
      ],
      "severityScore": 12,
      "metarRaw": "METAR LEBL 040430Z 33007KT 9999 FEW030 06/04 Q0995 NOSIG",
      "tafRaw": "TAF LEBL 032300Z 0400/0424 35005KT 9999 FEW020 TX14/0414Z TN05/0406Z \n  PROB30 \n  TEMPO 0406/0414 4000 RA \n  BECMG 0407/0409 25012KT \n  PROB30 \n  TEMPO 0408/0415 25015G25KT \n  BECMG 0420/0422 VRB04KT",
      "minima": {
        "best": {
          "cig_ft": 0,
          "vis_m": 75
        },
        "alt": {
          "cig_ft": 109,
          "vis_m": 300
        },
        "wind": {
          "threshold_kt": 29,
          "use_gust": false,
          "apply": true
        },
        "approach_category": null
      }
    },
    {
      "icao": "LEMG",
      "iata": "AGP",
      "name": "Málaga-Costa del Sol Airport",
      "lat": 36.6749,
      "lon": -4.49911,
      "updatedAt": "040430Z",
      "visibility_m": 9000,
      "taf_visibility_m": 2000,
      "worst_visibility_m": 2000,
      "ceiling_ft": 6500,
      "hazards": [
        "RA"
      ],
      "severityScore": 12,
      "metarRaw": "METAR LEMG 040430Z 28005KT 9000 RA SCT050 BKN065 12/11 Q0997 NOSIG",
      "tafRaw": "TAF LEMG 032300Z 0400/0424 VRB02KT 9999 SCT020 TX16/0414Z TN10/0407Z \n  TEMPO 0400/0423 2000 +RA",
      "minima": {
        "best": {
          "cig_ft": 220,
          "vis_m": 550
        },
        "alt": {
          "cig_ft": 480,
          "vis_m": 1500
        },
        "wind": {
          "threshold_kt": 29,
          "use_gust": false,
          "apply": true
        },
        "approach_category": null
      }
    },
    {
      "icao": "LEVC",
      "iata": "VLC",
      "name": "Valencia Airport",
      "lat": 39.4893,
      "lon": -0.481625,
      "updatedAt": "040430Z",
      "visibility_m": 10000,
      "taf_visibility_m": 10000,
      "worst_visibility_m": 10000,
      "ceiling_ft": 4000,
      "hazards": [
        "RA"
      ],
      "severityScore": 12,
      "metarRaw": "METAR LEVC 040430Z 20004KT 160V240 9999 -RA FEW030 OVC040 08/06 Q0996 NOSIG",
      "tafRaw": "TAF LEVC 032300Z 0400/0424 22007KT 9999 FEW030 TX19/0413Z TN08/0406Z \n  TEMPO 0402/0408 RA BKN030 \n  BECMG 0409/0411 29014KT \n  TEMPO 0411/0417 29020G30KT \n  BECMG 0420/0422 VRB04KT",
      "minima": {
        "best": {
          "cig_ft": 210,
          "vis_m": 550
        },
        "alt": {
          "cig_ft": 320,
          "vis_m": 700
        },
        "wind": {
          "threshold_kt": 29,
          "use_gust": false,
          "apply": true
        },
        "approach_category": null
      }
    },
    {
      "icao": "LEXJ",
      "iata": "SDR",
      "name": "Seve Ballesteros-Santander Airport",
      "lat": 43.427101,
      "lon": -3.82001,
      "updatedAt": "040430Z",
      "visibility_m": 8000,
      "taf_visibility_m": 10000,
      "worst_visibility_m": 8000,
      "ceiling_ft": null,
      "hazards": [
        "RA"
      ],
      "severityScore": 12,
      "metarRaw": "METAR LEXJ 040430Z 21016G30KT 130V260 8000 NSC 11/02 Q0984",
      "tafRaw": "TAF LEXJ 040200Z 0403/0503 20009KT 9999 SCT050 TX16/0413Z TN09/0404Z \n  PROB30 \n  TEMPO 0403/0406 RA \n  TEMPO 0404/0410 20019G32KT \n  PROB40 \n  TEMPO 0412/0415 20017G27KT RA \n  TEMPO 0500/0503 20019G29KT",
      "minima": {
        "best": {
          "cig_ft": 330,
          "vis_m": 1500
        },
        "alt": {
          "cig_ft": 360,
          "vis_m": 1500
        },
        "wind": {
          "threshold_kt": 29,
          "use_gust": false,
          "apply": true
        },
        "approach_category": null
      }
    },
    {
      "icao": "LFLL",
      "iata": "LYS",
      "name": "Lyon Saint-Exupéry Airport",
      "lat": 45.725996,
      "lon": 5.090139,
      "updatedAt": "040430Z",
      "visibility_m": 10000,
      "taf_visibility_m": 10000,
      "worst_visibility_m": 10000,
      "ceiling_ft": 4500,
      "hazards": [
        "RA"
      ],
      "severityScore": 12,
      "metarRaw": "METAR LFLL 040430Z 14006KT CAVOK 05/03 Q0996 NOSIG",
      "tafRaw": "TAF LFLL 032300Z 0400/0506 13007KT CAVOK \n  TEMPO 0421/0503 18015G25KT -RA FEW010 OVC045",
      "minima": {
        "best": {
          "cig_ft": 0,
          "vis_m": 75
        },
        "alt": {
          "cig_ft": 100,
          "vis_m": 300
        },
        "wind": {
          "threshold_kt": 29,
          "use_gust": false,
          "apply": true
        },
        "approach_category": null
      }
    },
    {
      "icao": "LFLS",
      "iata": "GNB",
      "name": "Grenoble Alpes Isère Airport",
      "lat": 45.3629,
      "lon": 5.32937,
      "updatedAt": "040430Z",
      "visibility_m": 10000,
      "taf_visibility_m": 10000,
      "worst_visibility_m": 10000,
      "ceiling_ft": 3500,
      "hazards": [
        "RA"
      ],
      "severityScore": 12,
      "metarRaw": "METAR LFLS 040430Z AUTO 08010KT CAVOK 02/01 Q0996 NOSIG",
      "tafRaw": "TAF LFLS 040200Z 0403/0503 09007KT CAVOK \n  BECMG 0412/0414 22010KT \n  BECMG 0421/0424 09005KT -RA BKN035",
      "minima": {
        "best": {
          "cig_ft": 210,
          "vis_m": 750
        },
        "alt": {
          "cig_ft": 290,
          "vis_m": 900
        },
        "wind": {
          "threshold_kt": 29,
          "use_gust": false,
          "apply": true
        },
        "approach_category": null
      }
    },
    {
      "icao": "LIBD",
      "iata": "BRI",
      "name": "Bari Karol Wojtyła International Airport",
      "lat": 41.138901,
      "lon": 16.760599,
      "updatedAt": "040420Z",
      "visibility_m": 10000,
      "taf_visibility_m": 10000,
      "worst_visibility_m": 10000,
      "ceiling_ft": null,
      "hazards": [
        "RA"
      ],
      "severityScore": 12,
      "metarRaw": "METAR LIBD 040420Z 15016KT 130V190 CAVOK 15/10 Q1005",
      "tafRaw": "TAF LIBD 032300Z 0400/0424 18012KT CAVOK \n  TEMPO 0400/0418 16035G45KT \n  TEMPO 0412/0424 RA",
      "minima": {
        "best": {
          "cig_ft": 200,
          "vis_m": 550
        },
        "alt": {
          "cig_ft": 280,
          "vis_m": 600
        },
        "wind": {
          "threshold_kt": 29,
          "use_gust": false,
          "apply": true
        },
        "approach_category": null
      }
    },
    {
      "icao": "LIMJ",
      "iata": "GOA",
      "name": "Genoa Cristoforo Colombo Airport",
      "lat": 44.412039,
      "lon": 8.840732,
      "updatedAt": "040420Z",
      "visibility_m": 10000,
      "taf_visibility_m": 4000,
      "worst_visibility_m": 4000,
      "ceiling_ft": 6000,
      "hazards": [
        "RA"
      ],
      "severityScore": 12,
      "metarRaw": "METAR LIMJ 040420Z 04020KT 9999 BKN060 06/02 Q1001",
      "tafRaw": "TAF LIMJ 031700Z 0318/0418 35015KT 9999 BKN030 \n  TEMPO 0400/0418 36015G25KT \n  BECMG 0405/0407 4000 RA",
      "minima": {
        "best": {
          "cig_ft": 880,
          "vis_m": 2400
        },
        "alt": {
          "cig_ft": 1040,
          "vis_m": 2400
        },
        "wind": {
          "threshold_kt": 29,
          "use_gust": false,
          "apply": true
        },
        "approach_category": null
      }
    },
    {
      "icao": "LPMA",
      "iata": "FNC",
      "name": "Cristiano Ronaldo International Airport",
      "lat": 32.697812,
      "lon": -16.774613,
      "updatedAt": "040430Z",
      "visibility_m": 10000,
      "taf_visibility_m": 10000,
      "worst_visibility_m": 10000,
      "ceiling_ft": 1300,
      "hazards": [],
      "severityScore": 12,
      "metarRaw": "METAR LPMA 040430Z VRB01KT 9999 FEW015 16/13 Q1013",
      "tafRaw": "TAF LPMA 032300Z 0400/0424 VRB05KT 9999 SCT015 \n  BECMG 0402/0405 24010KT \n  TEMPO 0405/0412 24015G25KT BKN013 \n  PROB30 \n  TEMPO 0412/0424 24022G35KT",
      "minima": {
        "best": {
          "cig_ft": 300,
          "vis_m": 1200
        },
        "alt": {
          "cig_ft": 770,
          "vis_m": 2400
        },
        "wind": {
          "threshold_kt": 29,
          "use_gust": false,
          "apply": true
        },
        "approach_category": null
      }
    },
    {
      "icao": "LRCL",
      "iata": "CLJ",
      "name": "Cluj Avram Iancu International Airport",
      "lat": 46.787425,
      "lon": 23.684292,
      "updatedAt": "040430Z",
      "visibility_m": 10000,
      "taf_visibility_m": 5000,
      "worst_visibility_m": 5000,
      "ceiling_ft": 5500,
      "hazards": [
        "RA"
      ],
      "severityScore": 12,
      "metarRaw": "METAR LRCL 040430Z 10006KT 9999 -RA OVC055 02/M00 Q1012",
      "tafRaw": "TAF LRCL 040200Z 0403/0412 07008KT 9999 BKN050 \n  PROB30 \n  TEMPO 0403/0406 5000 -RA BKN015 OVC040",
      "minima": {
        "best": {
          "cig_ft": 114,
          "vis_m": 300
        },
        "alt": {
          "cig_ft": 200,
          "vis_m": 550
        },
        "wind": {
          "threshold_kt": 29,
          "use_gust": false,
          "apply": true
        },
        "approach_category": null
      }
    },
    {
      "icao": "LWOH",
      "iata": "OHD",
      "name": "Ohrid St. Paul the Apostle Airport",
      "lat": 41.18,
      "lon": 20.7423,
      "updatedAt": null,
      "visibility_m": null,
      "taf_visibility_m": 10000,
      "worst_visibility_m": 10000,
      "ceiling_ft": 2500,
      "hazards": [
        "RA"
      ],
      "severityScore": 12,
      "metarRaw": null,
      "tafRaw": "TAF LWOH 040230Z 0403/0503 VRB02KT 9999 BKN040 \n  BECMG 0419/0421 RA SCT015 OVC025",
      "minima": {
        "best": {
          "cig_ft": 840,
          "vis_m": 2400
        },
        "alt": {
          "cig_ft": 1070,
          "vis_m": 2400
        },
        "wind": {
          "threshold_kt": 29,
          "use_gust": false,
          "apply": true
        },
        "approach_category": null
      }
    },
    {
      "icao": "LWSK",
      "iata": "SKP",
      "name": "Skopje International Airport",
      "lat": 41.958087,
      "lon": 21.622581,
      "updatedAt": "040420Z",
      "visibility_m": 10000,
      "taf_visibility_m": 10000,
      "worst_visibility_m": 10000,
      "ceiling_ft": 1700,
      "hazards": [],
      "severityScore": 12,
      "metarRaw": "METAR LWSK 040420Z VRB01KT 9999 SCT010 BKN017 05/03 Q1016 NOSIG",
      "tafRaw": "TAF LWSK 040230Z 0403/0503 VRB02KT 9999 SCT010 BKN017 \n  BECMG 0410/0412 14008KT BKN030 \n  PROB40 \n  TEMPO 0412/0420 16015KT \n  BECMG 0419/0421 SCT020 OVC030",
      "minima": {
        "best": {
          "cig_ft": 220,
          "vis_m": 550
        },
        "alt": {
          "cig_ft": 1320,
          "vis_m": 2400
        },
        "wind": {
          "threshold_kt": 29,
          "use_gust": false,
          "apply": true
        },
        "approach_category": null
      }
    },
    {
      "icao": "LYBE",
      "iata": "BEG",
      "name": "Belgrade Nikola Tesla Airport",
      "lat": 44.818401,
      "lon": 20.309099,
      "updatedAt": "040430Z",
      "visibility_m": 10000,
      "taf_visibility_m": 10000,
      "worst_visibility_m": 10000,
      "ceiling_ft": null,
      "hazards": [
        "RA"
      ],
      "severityScore": 12,
      "metarRaw": "METAR LYBE 040430Z 13019KT 9999 -RA SCT047 06/02 Q1008 NOSIG",
      "tafRaw": "TAF LYBE 032300Z 0400/0424 12014KT CAVOK TX10/0412Z TN03/0406Z \n  TEMPO 0400/0406 RA \n  TEMPO 0418/0424 12024KT",
      "minima": {
        "best": {
          "cig_ft": 0,
          "vis_m": 75
        },
        "alt": {
          "cig_ft": 100,
          "vis_m": 300
        },
        "wind": {
          "threshold_kt": 29,
          "use_gust": false,
          "apply": true
        },
        "approach_category": null
      }
    },
    {
      "icao": "LYNI",
      "iata": "INI",
      "name": "Niš Constantine the Great Airport",
      "lat": 43.336538,
      "lon": 21.856242,
      "updatedAt": "040430Z",
      "visibility_m": 10000,
      "taf_visibility_m": 10000,
      "worst_visibility_m": 10000,
      "ceiling_ft": 4000,
      "hazards": [
        "RA"
      ],
      "severityScore": 12,
      "metarRaw": "METAR LYNI 040430Z 11006KT CAVOK 05/01 Q1014 NOSIG",
      "tafRaw": "TAF LYNI 032300Z 0400/0424 11008KT 9999 BKN040 BKN090 TX11/0413Z TN03/0406Z \n  TEMPO 0414/0418 09018KT \n  TEMPO 0418/0424 RA",
      "minima": {
        "best": {
          "cig_ft": 310,
          "vis_m": 700
        },
        "alt": {
          "cig_ft": 360,
          "vis_m": 1200
        },
        "wind": {
          "threshold_kt": 29,
          "use_gust": false,
          "apply": true
        },
        "approach_category": null
      }
    },
    {
      "icao": "ENBR",
      "iata": "BGO",
      "name": "Bergen Airport, Flesland",
      "lat": 60.2934,
      "lon": 5.21814,
      "updatedAt": "040420Z",
      "visibility_m": 10000,
      "taf_visibility_m": 10000,
      "worst_visibility_m": 10000,
      "ceiling_ft": null,
      "hazards": [
        "BR"
      ],
      "severityScore": 10,
      "metarRaw": "METAR ENBR 040420Z 00000KT CAVOK M07/M15 Q1014 RMK WIND 1200FT 08004KT",
      "tafRaw": "TAF ENBR 032300Z 0400/0424 01005KT CAVOK",
      "minima": {
        "best": {
          "cig_ft": 110,
          "vis_m": 300
        },
        "alt": {
          "cig_ft": 200,
          "vis_m": 750
        },
        "wind": {
          "threshold_kt": 29,
          "use_gust": false,
          "apply": true
        },
        "approach_category": null
      }
    },
    {
      "icao": "LBWN",
      "iata": "VAR",
      "name": "Varna Airport",
      "lat": 43.232101,
      "lon": 27.8251,
      "updatedAt": "040430Z",
      "visibility_m": 10000,
      "taf_visibility_m": 3000,
      "worst_visibility_m": 3000,
      "ceiling_ft": 2000,
      "hazards": [
        "BR"
      ],
      "severityScore": 10,
      "metarRaw": "METAR LBWN 040430Z AUTO VRB08KT 9999 OVC023/// 04/03 Q1020 NOSIG",
      "tafRaw": "TAF LBWN 032300Z 0400/0424 12010KT 9999 BKN020 \n  BECMG 0400/0402 VRB04KT \n  TEMPO 0402/0406 3000 BR \n  BECMG 0406/0408 12010KT SCT020 OVC040",
      "minima": {
        "best": {
          "cig_ft": 200,
          "vis_m": 750
        },
        "alt": {
          "cig_ft": 260,
          "vis_m": 800
        },
        "wind": {
          "threshold_kt": 29,
          "use_gust": false,
          "apply": true
        },
        "approach_category": null
      }
    },
    {
      "icao": "LTAC",
      "iata": "ESB",
      "name": "Esenboğa International Airport",
      "lat": 40.128101,
      "lon": 32.995098,
      "updatedAt": "040420Z",
      "visibility_m": 10000,
      "taf_visibility_m": 2500,
      "worst_visibility_m": 2500,
      "ceiling_ft": null,
      "hazards": [
        "BR"
      ],
      "severityScore": 10,
      "metarRaw": "METAR LTAC 040420Z 05003KT CAVOK M04/M05 Q1021 NOSIG",
      "tafRaw": "TAF LTAC 032240Z 0400/0424 VRB02KT CAVOK \n  PROB30 \n  TEMPO 0403/0407 2500 BR SCT010 \n  BECMG 0408/0411 SCT040 SCT100",
      "minima": {
        "best": {
          "cig_ft": 0,
          "vis_m": 75
        },
        "alt": {
          "cig_ft": 100,
          "vis_m": 300
        },
        "wind": {
          "threshold_kt": 29,
          "use_gust": false,
          "apply": true
        },
        "approach_category": null
      }
    },
    {
      "icao": "EGNM",
      "iata": "LBA",
      "name": "Leeds Bradford Airport",
      "lat": 53.865898,
      "lon": -1.66057,
      "updatedAt": null,
      "visibility_m": null,
      "taf_visibility_m": null,
      "worst_visibility_m": null,
      "ceiling_ft": null,
      "hazards": [],
      "severityScore": 5,
      "metarRaw": null,
      "tafRaw": null,
      "minima": {
        "best": {
          "cig_ft": 0,
          "vis_m": 75
        },
        "alt": {
          "cig_ft": 100,
          "vis_m": 300
        },
        "wind": {
          "threshold_kt": 29,
          "use_gust": false,
          "apply": true
        },
        "approach_category": null
      }
    },
    {
      "icao": "LECH",
      "iata": "CDT",
      "name": "Castellón-Costa Azahar Airport",
      "lat": 40.213889,
      "lon": 0.073333,
      "updatedAt": "040430Z",
      "visibility_m": 10000,
      "taf_visibility_m": null,
      "worst_visibility_m": 10000,
      "ceiling_ft": 6900,
      "hazards": [],
      "severityScore": 5,
      "metarRaw": "METAR LECH 040430Z AUTO VRB02KT 9999 BKN069 05/03 Q0994",
      "tafRaw": null,
      "minima": {
        "best": {
          "cig_ft": 330,
          "vis_m": 1100
        },
        "alt": {
          "cig_ft": 380,
          "vis_m": 1100
        },
        "wind": {
          "threshold_kt": 29,
          "use_gust": false,
          "apply": true
        },
        "approach_category": null
      }
    },
    {
      "icao": "LFPO",
      "iata": "ORY",
      "name": "Paris-Orly Airport",
      "lat": 48.72333,
      "lon": 2.37944,
      "updatedAt": "040430Z",
      "visibility_m": 10000,
      "taf_visibility_m": null,
      "worst_visibility_m": 10000,
      "ceiling_ft": null,
      "hazards": [],
      "severityScore": 5,
      "metarRaw": "METAR LFPO 040430Z 06003KT CAVOK 04/04 Q0994 NOSIG",
      "tafRaw": null,
      "minima": {
        "best": {
          "cig_ft": 0,
          "vis_m": 75
        },
        "alt": {
          "cig_ft": 100,
          "vis_m": 300
        },
        "wind": {
          "threshold_kt": 29,
          "use_gust": false,
          "apply": true
        },
        "approach_category": null
      }
    },
    {
      "icao": "BIKF",
      "iata": "KEF",
      "name": "Keflavik International Airport",
      "lat": 63.985001,
      "lon": -22.6056,
      "updatedAt": "040430Z",
      "visibility_m": 10000,
      "taf_visibility_m": 10000,
      "worst_visibility_m": 10000,
      "ceiling_ft": null,
      "hazards": [],
      "severityScore": 0,
      "metarRaw": "METAR BIKF 040430Z 06014KT 9999 FEW044 03/M02 Q1008",
      "tafRaw": "TAF BIKF 040112Z 0403/0503 07015KT 9999 FEW030 TX03/0403Z TNM01/0503Z",
      "minima": {
        "best": {
          "cig_ft": 100,
          "vis_m": 300
        },
        "alt": {
          "cig_ft": 200,
          "vis_m": 550
        },
        "wind": {
          "threshold_kt": 29,
          "use_gust": false,
          "apply": true
        },
        "approach_category": null
      }
    },
    {
      "icao": "GCFV",
      "iata": "FUE",
      "name": "Fuerteventura Airport",
      "lat": 28.4527,
      "lon": -13.8638,
      "updatedAt": "040430Z",
      "visibility_m": 10000,
      "taf_visibility_m": 10000,
      "worst_visibility_m": 10000,
      "ceiling_ft": null,
      "hazards": [],
      "severityScore": 0,
      "metarRaw": "METAR GCFV 040430Z AUTO 30003KT 270V330 CAVOK 16/12 Q1017",
      "tafRaw": "TAF GCFV 040200Z 0403/0503 27004KT 9999 FEW025 TX22/0414Z TN16/0406Z \n  PROB40 \n  TEMPO 0415/0419 21010KT",
      "minima": {
        "best": {
          "cig_ft": 260,
          "vis_m": 600
        },
        "alt": {
          "cig_ft": 450,
          "vis_m": 1400
        },
        "wind": {
          "threshold_kt": 29,
          "use_gust": false,
          "apply": true
        },
        "approach_category": null
      }
    },
    {
      "icao": "GCLP",
      "iata": "LPA",
      "name": "Gran Canaria Airport",
      "lat": 27.9319,
      "lon": -15.3866,
      "updatedAt": "040430Z",
      "visibility_m": 10000,
      "taf_visibility_m": 10000,
      "worst_visibility_m": 10000,
      "ceiling_ft": null,
      "hazards": [],
      "severityScore": 0,
      "metarRaw": "METAR GCLP 040430Z 31005KT 9999 FEW023 16/12 Q1018 NOSIG",
      "tafRaw": "TAF GCLP 040200Z 0403/0503 27004KT 9999 FEW025 TX22/0414Z TN14/0406Z \n  PROB40 \n  TEMPO 0412/0417 16010KT",
      "minima": {
        "best": {
          "cig_ft": 300,
          "vis_m": 650
        },
        "alt": {
          "cig_ft": 330,
          "vis_m": 800
        },
        "wind": {
          "threshold_kt": 29,
          "use_gust": false,
          "apply": true
        },
        "approach_category": null
      }
    },
    {
      "icao": "GMMX",
      "iata": "RAK",
      "name": "Marrakesh Menara Airport",
      "lat": 31.604807,
      "lon": -8.035788,
      "updatedAt": "040430Z",
      "visibility_m": 10000,
      "taf_visibility_m": 8000,
      "worst_visibility_m": 8000,
      "ceiling_ft": 8000,
      "hazards": [],
      "severityScore": 0,
      "metarRaw": "METAR GMMX 040430Z VRB01KT 9999 FEW026 BKN080 11/08 Q1015 NOSIG",
      "tafRaw": "TAF GMMX 032300Z 0400/0506 20006KT 8000 SCT023 SCT080 \n  TEMPO 0415/0421 34016KT",
      "minima": {
        "best": {
          "cig_ft": 320,
          "vis_m": 1000
        },
        "alt": {
          "cig_ft": 380,
          "vis_m": 1300
        },
        "wind": {
          "threshold_kt": 29,
          "use_gust": false,
          "apply": true
        },
        "approach_category": null
      }
    },
    {
      "icao": "EBCI",
      "iata": "CRL",
      "name": "Brussels South Charleroi Airport",
      "lat": 50.461963,
      "lon": 4.459562,
      "updatedAt": "040420Z",
      "visibility_m": 10000,
      "taf_visibility_m": 10000,
      "worst_visibility_m": 10000,
      "ceiling_ft": null,
      "hazards": [],
      "severityScore": 0,
      "metarRaw": "METAR EBCI 040420Z 16004KT 9999 FEW025 SCT040 05/04 Q0996 NOSIG",
      "tafRaw": "TAF EBCI 032300Z 0400/0506 17007KT 9999 FEW040",
      "minima": {
        "best": {
          "cig_ft": 0,
          "vis_m": 150
        },
        "alt": {
          "cig_ft": 100,
          "vis_m": 300
        },
        "wind": {
          "threshold_kt": 29,
          "use_gust": false,
          "apply": true
        },
        "approach_category": null
      }
    },
    {
      "icao": "EHBK",
      "iata": "MST",
      "name": "Maastricht Aachen Airport",
      "lat": 50.911701,
      "lon": 5.77014,
      "updatedAt": "040425Z",
      "visibility_m": 10000,
      "taf_visibility_m": 10000,
      "worst_visibility_m": 10000,
      "ceiling_ft": 4500,
      "hazards": [],
      "severityScore": 0,
      "metarRaw": "METAR EHBK 040425Z AUTO 13008KT 9999 NCD 05/03 Q0998",
      "tafRaw": "TAF EHBK 032313Z 0400/0506 18008KT 9999 OVC045",
      "minima": {
        "best": {
          "cig_ft": 0,
          "vis_m": 75
        },
        "alt": {
          "cig_ft": 100,
          "vis_m": 300
        },
        "wind": {
          "threshold_kt": 29,
          "use_gust": false,
          "apply": true
        },
        "approach_category": null
      }
    },
    {
      "icao": "ENAL",
      "iata": "AES",
      "name": "Ålesund Airport, Vigra",
      "lat": 62.5625,
      "lon": 6.1197,
      "updatedAt": "040420Z",
      "visibility_m": 10000,
      "taf_visibility_m": 10000,
      "worst_visibility_m": 10000,
      "ceiling_ft": null,
      "hazards": [],
      "severityScore": 0,
      "metarRaw": "METAR ENAL 040420Z AUTO 13009KT 9999 NCD M02/M13 Q1017",
      "tafRaw": "TAF ENAL 040200Z 0403/0412 13014KT CAVOK",
      "minima": {
        "best": {
          "cig_ft": 230,
          "vis_m": 800
        },
        "alt": {
          "cig_ft": 250,
          "vis_m": 800
        },
        "wind": {
          "threshold_kt": 29,
          "use_gust": false,
          "apply": true
        },
        "approach_category": null
      }
    },
    {
      "icao": "ENHD",
      "iata": "HAU",
      "name": "Haugesund Airport, Karmøy",
      "lat": 59.345299,
      "lon": 5.20836,
      "updatedAt": "040420Z",
      "visibility_m": 10000,
      "taf_visibility_m": 10000,
      "worst_visibility_m": 10000,
      "ceiling_ft": null,
      "hazards": [],
      "severityScore": 0,
      "metarRaw": "METAR ENHD 040420Z AUTO 11016KT 9999 NCD M02/M14 Q1014",
      "tafRaw": "TAF ENHD 040200Z 0403/0412 09015KT CAVOK \n  PROB30 \n  TEMPO 0403/0412 10020G30KT",
      "minima": {
        "best": {
          "cig_ft": 200,
          "vis_m": 750
        },
        "alt": {
          "cig_ft": 280,
          "vis_m": 900
        },
        "wind": {
          "threshold_kt": 29,
          "use_gust": false,
          "apply": true
        },
        "approach_category": null
      }
    },
    {
      "icao": "ENVA",
      "iata": "TRD",
      "name": "Trondheim Airport, Værnes",
      "lat": 63.457802,
      "lon": 10.924,
      "updatedAt": "040420Z",
      "visibility_m": 10000,
      "taf_visibility_m": 10000,
      "worst_visibility_m": 10000,
      "ceiling_ft": null,
      "hazards": [],
      "severityScore": 0,
      "metarRaw": "METAR ENVA 040420Z 07007KT 040V110 CAVOK M07/M15 Q1021 RMK WIND 670FT 13012KT",
      "tafRaw": "TAF ENVA 032300Z 0400/0424 09006KT CAVOK",
      "minima": {
        "best": {
          "cig_ft": 220,
          "vis_m": 800
        },
        "alt": {
          "cig_ft": 430,
          "vis_m": 1600
        },
        "wind": {
          "threshold_kt": 29,
          "use_gust": false,
          "apply": true
        },
        "approach_category": null
      }
    },
    {
      "icao": "ENZV",
      "iata": "SVG",
      "name": "Stavanger Airport, Sola",
      "lat": 58.876701,
      "lon": 5.63778,
      "updatedAt": "040420Z",
      "visibility_m": 10000,
      "taf_visibility_m": 10000,
      "worst_visibility_m": 10000,
      "ceiling_ft": 4400,
      "hazards": [],
      "severityScore": 0,
      "metarRaw": "METAR ENZV 040420Z 09016KT 9999 BKN044 M02/M11 Q1014",
      "tafRaw": "TAF ENZV 032300Z 0400/0424 09014KT CAVOK \n  PROB40 \n  TEMPO 0400/0415 10018G28KT",
      "minima": {
        "best": {
          "cig_ft": 100,
          "vis_m": 300
        },
        "alt": {
          "cig_ft": 200,
          "vis_m": 750
        },
        "wind": {
          "threshold_kt": 29,
          "use_gust": false,
          "apply": true
        },
        "approach_category": null
      }
    },
    {
      "icao": "ESGG",
      "iata": "GOT",
      "name": "Göteborg Landvetter Airport",
      "lat": 57.6628,
      "lon": 12.2798,
      "updatedAt": "040420Z",
      "visibility_m": 10000,
      "taf_visibility_m": 10000,
      "worst_visibility_m": 10000,
      "ceiling_ft": 2400,
      "hazards": [],
      "severityScore": 0,
      "metarRaw": "METAR ESGG 040420Z 10012KT 070V140 9999 OVC024 M05/M10 Q1017",
      "tafRaw": "TAF ESGG 040230Z 0403/0503 09010KT CAVOK",
      "minima": {
        "best": {
          "cig_ft": 0,
          "vis_m": 75
        },
        "alt": {
          "cig_ft": 100,
          "vis_m": 300
        },
        "wind": {
          "threshold_kt": 29,
          "use_gust": false,
          "apply": true
        },
        "approach_category": null
      }
    },
    {
      "icao": "EYPA",
      "iata": "PLQ",
      "name": "Palanga International Airport",
      "lat": 55.973202,
      "lon": 21.093901,
      "updatedAt": "040420Z",
      "visibility_m": 10000,
      "taf_visibility_m": 9000,
      "worst_visibility_m": 9000,
      "ceiling_ft": null,
      "hazards": [],
      "severityScore": 0,
      "metarRaw": "METAR EYPA 040420Z 07007KT CAVOK M15/M18 Q1024",
      "tafRaw": "TAF EYPA 032300Z 0400/0424 VRB04KT 9000 NSC \n  TEMPO 0409/0418 09014KT",
      "minima": {
        "best": {
          "cig_ft": 240,
          "vis_m": 550
        },
        "alt": {
          "cig_ft": 270,
          "vis_m": 900
        },
        "wind": {
          "threshold_kt": 29,
          "use_gust": false,
          "apply": true
        },
        "approach_category": null
      }
    },
    {
      "icao": "HEGN",
      "iata": "HRG",
      "name": "Hurghada International Airport",
      "lat": 27.176776,
      "lon": 33.796692,
      "updatedAt": "040400Z",
      "visibility_m": 10000,
      "taf_visibility_m": 10000,
      "worst_visibility_m": 10000,
      "ceiling_ft": null,
      "hazards": [],
      "severityScore": 0,
      "metarRaw": "METAR HEGN 040400Z 29011KT CAVOK 15/09 Q1020 NOSIG",
      "tafRaw": "TAF HEGN 032300Z 0400/0506 29012KT CAVOK",
      "minima": {
        "best": {
          "cig_ft": 250,
          "vis_m": 550
        },
        "alt": {
          "cig_ft": 260,
          "vis_m": 750
        },
        "wind": {
          "threshold_kt": 29,
          "use_gust": false,
          "apply": true
        },
        "approach_category": null
      }
    },
    {
      "icao": "HEMA",
      "iata": "RMF",
      "name": "Marsa Alam International Airport",
      "lat": 25.555548,
      "lon": 34.59245,
      "updatedAt": "040400Z",
      "visibility_m": 10000,
      "taf_visibility_m": 4000,
      "worst_visibility_m": 4000,
      "ceiling_ft": null,
      "hazards": [],
      "severityScore": 0,
      "metarRaw": "METAR HEMA 040400Z 29010KT CAVOK 17/05 Q1018 NOSIG",
      "tafRaw": "TAF HEMA 032300Z 0400/0506 30012KT 6000 NSC \n  PROB30 \n  TEMPO 0400/0409 4000 SA",
      "minima": {
        "best": {
          "cig_ft": 350,
          "vis_m": 900
        },
        "alt": {
          "cig_ft": 390,
          "vis_m": 1400
        },
        "wind": {
          "threshold_kt": 29,
          "use_gust": false,
          "apply": true
        },
        "approach_category": null
      }
    },
    {
      "icao": "HESH",
      "iata": "SSH",
      "name": "Sharm El Sheikh International Airport",
      "lat": 27.977272,
      "lon": 34.394717,
      "updatedAt": "040400Z",
      "visibility_m": 10000,
      "taf_visibility_m": 10000,
      "worst_visibility_m": 10000,
      "ceiling_ft": null,
      "hazards": [],
      "severityScore": 0,
      "metarRaw": "METAR HESH 040400Z 36011KT CAVOK 17/06 Q1019 NOSIG",
      "tafRaw": "TAF HESH 032300Z 0400/0506 33013KT CAVOK",
      "minima": {
        "best": {
          "cig_ft": 250,
          "vis_m": 550
        },
        "alt": {
          "cig_ft": 270,
          "vis_m": 750
        },
        "wind": {
          "threshold_kt": 29,
          "use_gust": false,
          "apply": true
        },
        "approach_category": null
      }
    },
    {
      "icao": "LCLK",
      "iata": "LCA",
      "name": "Larnaca International Airport",
      "lat": 34.875099,
      "lon": 33.624901,
      "updatedAt": "040430Z",
      "visibility_m": 10000,
      "taf_visibility_m": 10000,
      "worst_visibility_m": 10000,
      "ceiling_ft": null,
      "hazards": [],
      "severityScore": 0,
      "metarRaw": "METAR LCLK 040430Z 33005KT 9999 FEW030 08/05 Q1019 NOSIG",
      "tafRaw": "TAF LCLK 032330Z 0400/0500 30008KT 9999 FEW020 \n  BECMG 0409/0411 21010KT \n  BECMG 0415/0417 31005KT",
      "minima": {
        "best": {
          "cig_ft": 210,
          "vis_m": 1000
        },
        "alt": {
          "cig_ft": 290,
          "vis_m": 1000
        },
        "wind": {
          "threshold_kt": 29,
          "use_gust": false,
          "apply": true
        },
        "approach_category": null
      }
    },
    {
      "icao": "LCPH",
      "iata": "PFO",
      "name": "Paphos International Airport",
      "lat": 34.717999,
      "lon": 32.485699,
      "updatedAt": "040430Z",
      "visibility_m": 10000,
      "taf_visibility_m": 10000,
      "worst_visibility_m": 10000,
      "ceiling_ft": null,
      "hazards": [],
      "severityScore": 0,
      "metarRaw": "METAR LCPH 040430Z 07007KT CAVOK 09/05 Q1019 NOSIG",
      "tafRaw": "TAF LCPH 032330Z 0400/0500 02009KT 9999 FEW020 \n  BECMG 0408/0410 30012KT \n  BECMG 0415/0417 02006KT",
      "minima": {
        "best": {
          "cig_ft": 200,
          "vis_m": 550
        },
        "alt": {
          "cig_ft": 310,
          "vis_m": 700
        },
        "wind": {
          "threshold_kt": 29,
          "use_gust": false,
          "apply": true
        },
        "approach_category": null
      }
    },
    {
      "icao": "LGAV",
      "iata": "ATH",
      "name": "Athens Eleftherios Venizelos International Airport",
      "lat": 37.936401,
      "lon": 23.9445,
      "updatedAt": "040420Z",
      "visibility_m": 10000,
      "taf_visibility_m": 10000,
      "worst_visibility_m": 10000,
      "ceiling_ft": 7000,
      "hazards": [],
      "severityScore": 0,
      "metarRaw": "METAR LGAV 040420Z 00000KT 9999 FEW025 07/05 Q1019 NOSIG",
      "tafRaw": "TAF LGAV 032300Z 0400/0424 VRB05KT 9999 FEW025 \n  BECMG 0404/0406 20012KT SCT025 \n  BECMG 0413/0415 15015KT FEW025 BKN070 \n  TEMPO 0409/0413 18012G22KT \n  TEMPO 0413/0424 15015G25KT",
      "minima": {
        "best": {
          "cig_ft": 100,
          "vis_m": 300
        },
        "alt": {
          "cig_ft": 200,
          "vis_m": 550
        },
        "wind": {
          "threshold_kt": 29,
          "use_gust": false,
          "apply": true
        },
        "approach_category": null
      }
    },
    {
      "icao": "LIBG",
      "iata": "TAR",
      "name": "Taranto-Grottaglie Marcello Arlotta Airport",
      "lat": 40.517502,
      "lon": 17.4032,
      "updatedAt": null,
      "visibility_m": null,
      "taf_visibility_m": 10000,
      "worst_visibility_m": 10000,
      "ceiling_ft": null,
      "hazards": [],
      "severityScore": 0,
      "metarRaw": null,
      "tafRaw": "TAF LIBG 031700Z 0318/0403 17020G30KT 9999 FEW010 SCT020",
      "minima": null
    },
    {
      "icao": "LLBG",
      "iata": "TLV",
      "name": "Ben Gurion International Airport",
      "lat": 32.011398,
      "lon": 34.8867,
      "updatedAt": "040420Z",
      "visibility_m": 10000,
      "taf_visibility_m": 10000,
      "worst_visibility_m": 10000,
      "ceiling_ft": 3000,
      "hazards": [],
      "severityScore": 0,
      "metarRaw": "METAR LLBG 040420Z 14004KT 9999 SCT050 13/10 Q1021 NOSIG",
      "tafRaw": "TAF LLBG 032301Z 0400/0424 VRB04KT 9999 SCT035 \n  PROB40 \n  TEMPO 0400/0407 14005KT BKN030 \n  BECMG 0407/0409 29010KT SCT040 \n  BECMG 0415/0417 VRB04KT CAVOK TX19/0412Z TN11/0404Z",
      "minima": {
        "best": {
          "cig_ft": 200,
          "vis_m": 550
        },
        "alt": {
          "cig_ft": 290,
          "vis_m": 650
        },
        "wind": {
          "threshold_kt": 29,
          "use_gust": false,
          "apply": true
        },
        "approach_category": null
      }
    },
    {
      "icao": "LQTZ",
      "iata": "TZL",
      "name": "Tuzla International Airport",
      "lat": 44.459858,
      "lon": 18.723627,
      "updatedAt": "040430Z",
      "visibility_m": 10000,
      "taf_visibility_m": 10000,
      "worst_visibility_m": 10000,
      "ceiling_ft": 6000,
      "hazards": [],
      "severityScore": 0,
      "metarRaw": "METAR LQTZ 040430Z 16006KT 120V200 9999 BKN060 12/06 Q1005",
      "tafRaw": "TAF LQTZ 032300Z 0400/0424 08007KT 9999 SCT050 TX14/0413Z TN06/0406Z \n  TEMPO 0412/0424 14012KT",
      "minima": {
        "best": {
          "cig_ft": 250,
          "vis_m": 550
        },
        "alt": {
          "cig_ft": 310,
          "vis_m": 700
        },
        "wind": {
          "threshold_kt": 29,
          "use_gust": false,
          "apply": true
        },
        "approach_category": null
      }
    },
    {
      "icao": "LRBV",
      "iata": "GHV",
      "name": "Brașov-Ghimbav International Airport",
      "lat": 45.70558,
      "lon": 25.522871,
      "updatedAt": "040430Z",
      "visibility_m": 10000,
      "taf_visibility_m": 10000,
      "worst_visibility_m": 10000,
      "ceiling_ft": 6000,
      "hazards": [],
      "severityScore": 0,
      "metarRaw": "METAR LRBV 040430Z AUTO 12008KT 9999 OVC098/// 01/M03 Q1013",
      "tafRaw": "TAF LRBV 040200Z 0403/0412 VRB04KT 9999 BKN060 \n  BECMG 0408/0410 21015KT",
      "minima": {
        "best": {
          "cig_ft": 200,
          "vis_m": 550
        },
        "alt": {
          "cig_ft": 440,
          "vis_m": 1300
        },
        "wind": {
          "threshold_kt": 29,
          "use_gust": false,
          "apply": true
        },
        "approach_category": null
      }
    },
    {
      "icao": "LRCV",
      "iata": "CRA",
      "name": "Craiova International Airport",
      "lat": 44.3181,
      "lon": 23.888599,
      "updatedAt": "040430Z",
      "visibility_m": 10000,
      "taf_visibility_m": 10000,
      "worst_visibility_m": 10000,
      "ceiling_ft": null,
      "hazards": [],
      "severityScore": 0,
      "metarRaw": "METAR LRCV 040430Z 05003KT CAVOK M04/M07 Q1018",
      "tafRaw": "TAF LRCV 040200Z 0403/0412 07006KT CAVOK",
      "minima": {
        "best": {
          "cig_ft": 100,
          "vis_m": 350
        },
        "alt": {
          "cig_ft": 200,
          "vis_m": 550
        },
        "wind": {
          "threshold_kt": 29,
          "use_gust": false,
          "apply": true
        },
        "approach_category": null
      }
    },
    {
      "icao": "LRSB",
      "iata": "SBZ",
      "name": "Sibiu International Airport",
      "lat": 45.785841,
      "lon": 24.086666,
      "updatedAt": "040430Z",
      "visibility_m": 10000,
      "taf_visibility_m": 10000,
      "worst_visibility_m": 10000,
      "ceiling_ft": 6500,
      "hazards": [],
      "severityScore": 0,
      "metarRaw": "METAR LRSB 040430Z 27003KT CAVOK 01/M01 Q1012",
      "tafRaw": "TAF LRSB 032300Z 0400/0424 VRB04KT 9999 BKN065 \n  BECMG 0410/0412 14010KT",
      "minima": {
        "best": {
          "cig_ft": 142,
          "vis_m": 450
        },
        "alt": {
          "cig_ft": 200,
          "vis_m": 750
        },
        "wind": {
          "threshold_kt": 29,
          "use_gust": false,
          "apply": true
        },
        "approach_category": null
      }
    },
    {
      "icao": "LTFM",
      "iata": "IST",
      "name": "İstanbul Airport",
      "lat": 41.261297,
      "lon": 28.741951,
      "updatedAt": "040420Z",
      "visibility_m": 10000,
      "taf_visibility_m": 10000,
      "worst_visibility_m": 10000,
      "ceiling_ft": 2000,
      "hazards": [],
      "severityScore": 0,
      "metarRaw": "METAR LTFM 040420Z 18004KT 150V210 9999 SCT035 04/01 Q1021 NOSIG",
      "tafRaw": "TAF LTFM 032240Z 0400/0506 15005KT 9999 BKN035 \n  TEMPO 0402/0405 BKN020 \n  BECMG 0407/0410 09010KT CAVOK \n  BECMG 0421/0424 18010KT SCT040",
      "minima": {
        "best": {
          "cig_ft": 0,
          "vis_m": 75
        },
        "alt": {
          "cig_ft": 100,
          "vis_m": 300
        },
        "wind": {
          "threshold_kt": 29,
          "use_gust": false,
          "apply": true
        },
        "approach_category": null
      }
    },
    {
      "icao": "OEJN",
      "iata": "JED",
      "name": "King Abdulaziz International Airport",
      "lat": 21.6796,
      "lon": 39.156502,
      "updatedAt": "040400Z",
      "visibility_m": 6000,
      "taf_visibility_m": 4000,
      "worst_visibility_m": 4000,
      "ceiling_ft": null,
      "hazards": [],
      "severityScore": 0,
      "metarRaw": "METAR OEJN 040400Z 01005KT 6000 NSC 22/16 Q1015 NOSIG",
      "tafRaw": "TAF OEJN 032300Z 0400/0506 VRB03KT 7000 NSC \n  PROB30 \n  TEMPO 0400/0405 4000 HZ \n  BECMG 0406/0408 33012KT CAVOK \n  BECMG 0418/0420 VRB03KT",
      "minima": {
        "best": {
          "cig_ft": 200,
          "vis_m": 550
        },
        "alt": {
          "cig_ft": 420,
          "vis_m": 1200
        },
        "wind": {
          "threshold_kt": 29,
          "use_gust": false,
          "apply": true
        },
        "approach_category": null
      }
    },
    {
      "icao": "OEMA",
      "iata": "MED",
      "name": "Prince Mohammad Bin Abdulaziz Airport",
      "lat": 24.5534,
      "lon": 39.705101,
      "updatedAt": "040400Z",
      "visibility_m": 10000,
      "taf_visibility_m": 10000,
      "worst_visibility_m": 10000,
      "ceiling_ft": null,
      "hazards": [],
      "severityScore": 0,
      "metarRaw": "METAR OEMA 040400Z 36005KT CAVOK 17/02 Q1020 NOSIG",
      "tafRaw": "TAF OEMA 032300Z 0400/0506 VRB03KT CAVOK \n  BECMG 0408/0410 09008KT \n  BECMG 0420/0422 VRB03KT",
      "minima": {
        "best": {
          "cig_ft": 210,
          "vis_m": 750
        },
        "alt": {
          "cig_ft": 660,
          "vis_m": 2300
        },
        "wind": {
          "threshold_kt": 29,
          "use_gust": false,
          "apply": true
        },
        "approach_category": null
      }
    },
    {
      "icao": "OMAA",
      "iata": "AUH",
      "name": "Zayed International Airport",
      "lat": 24.440966,
      "lon": 54.649237,
      "updatedAt": "040430Z",
      "visibility_m": 10000,
      "taf_visibility_m": 8000,
      "worst_visibility_m": 8000,
      "ceiling_ft": null,
      "hazards": [],
      "severityScore": 0,
      "metarRaw": "METAR OMAA 040430Z 14009KT CAVOK 20/07 Q1017 NOSIG",
      "tafRaw": "TAF OMAA 032300Z 0400/0506 09006KT 8000 NSC \n  BECMG 0403/0405 15012KT \n  BECMG 0416/0418 28008KT",
      "minima": {
        "best": {
          "cig_ft": 0,
          "vis_m": 75
        },
        "alt": {
          "cig_ft": 100,
          "vis_m": 300
        },
        "wind": {
          "threshold_kt": 29,
          "use_gust": false,
          "apply": true
        },
        "approach_category": null
      }
    },
    {
      "icao": "UDSG",
      "iata": "LWN",
      "name": "Shirak International Airport",
      "lat": 40.750401,
      "lon": 43.859299,
      "updatedAt": "040430Z",
      "visibility_m": 10000,
      "taf_visibility_m": 10000,
      "worst_visibility_m": 10000,
      "ceiling_ft": 3000,
      "hazards": [],
      "severityScore": 0,
      "metarRaw": "METAR UDSG 040430Z 03007KT 9999 SCT040 M03/M08 Q1015 NOSIG",
      "tafRaw": "TAF UDSG 032258Z 0400/0424 VRB06KT 9999 BKN030 \n  TEMPO 0400/0410 35016G26KT",
      "minima": {
        "best": {
          "cig_ft": 200,
          "vis_m": 550
        },
        "alt": {
          "cig_ft": 410,
          "vis_m": 1200
        },
        "wind": {
          "threshold_kt": 29,
          "use_gust": false,
          "apply": true
        },
        "approach_category": null
      }
    }
  ],
  "stats": {
    "icaoCount": 159,
    "metarReturned": 155,
    "tafReturned": 147,
    "stationsWritten": 159,
    "missingMetar": 4,
    "missingTaf": 12
  },
  "errors": []
}