{
  "generatedAt": "2026-01-13T15:00:25.611Z",
  "stations": [
    {
      "icao": "EDDB",
      "iata": "BER",
      "name": "Berlin Brandenburg Airport",
      "updatedAt": "131450Z",
      "visibility_m": 450,
      "taf_visibility_m": 600,
      "worst_visibility_m": 450,
      "ceiling_ft": 100,
      "hazards": [
        "FG",
        "BR",
        "RA"
      ],
      "severityScore": 100,
      "metarRaw": "METAR EDDB 131450Z AUTO 14006KT 0700 0450 R24R/1300D R24L/1100N FG BKN001 02/02 Q1013 BECMG 1500 BR",
      "tafRaw": "TAF EDDB 131100Z 1312/1412 17005KT 0800 FG BKN002 \n  PROB40 \n  TEMPO 1312/1314 0600 FG BKN001 \n  TEMPO 1313/1316 4000 BR \n  BECMG 1316/1319 7000 SCT005 BKN025 \n  PROB30 \n  TEMPO 1319/1406 2000 BR BKN004 \n  BECMG 1404/1407 23008KT \n  TEMPO 1409/1412 BKN010 \n  PROB30 \n  TEMPO 1410/1412 4000 -RA BR BKN007",
      "metarHtml": "METAR EDDB 131450Z AUTO 14006KT <span class=\"hl-vis\">0700</span> <span class=\"hl-vis\">0450</span> R24R/1300D R24L/1100N <span class=\"hl\">FG</span> BKN001 02/02 Q1013 BECMG 1500 <span class=\"hl\">BR</span>",
      "tafHtml": "TAF EDDB 131100Z 1312/1412 17005KT <span class=\"hl-vis\">0800</span> <span class=\"hl\">FG</span> BKN002 \n  PROB40 \n  TEMPO 1312/1314 <span class=\"hl-vis\">0600</span> <span class=\"hl\">FG</span> BKN001 \n  TEMPO 1313/1316 4000 <span class=\"hl\">BR</span> \n  BECMG 1316/1319 7000 SCT005 BKN025 \n  PROB30 \n  TEMPO 1319/1406 2000 <span class=\"hl\">BR</span> BKN004 \n  BECMG 1404/1407 23008KT \n  TEMPO 1409/1412 BKN010 \n  PROB30 \n  TEMPO 1410/1412 4000 -<span class=\"hl\">RA</span> <span class=\"hl\">BR</span> BKN007"
    },
    {
      "icao": "EDDH",
      "iata": "HAM",
      "name": "Hamburg Helmut Schmidt Airport",
      "updatedAt": "131450Z",
      "visibility_m": 300,
      "taf_visibility_m": 300,
      "worst_visibility_m": 300,
      "ceiling_ft": 900,
      "hazards": [
        "FG",
        "BR",
        "RA"
      ],
      "severityScore": 100,
      "metarRaw": "METAR EDDH 131450Z AUTO 15006KT 0650 0300 R23/P2000N R15/0500N FG SCT002 BKN009 OVC034 05/05 Q1009 TEMPO 3500 BR SCT004 OVC035",
      "tafRaw": "TAF EDDH 131100Z 1312/1418 16004KT 0300 FG OVC001 \n  TEMPO 1312/1321 1000 DZRA OVC003 \n  TEMPO 1321/1410 2500 RA BKN008 \n  BECMG 1410/1413 8000 SCT008",
      "metarHtml": "METAR EDDH 131450Z AUTO 15006KT <span class=\"hl-vis\">0650</span> <span class=\"hl-vis\">0300</span> R23/P2000N R15/0500N <span class=\"hl\">FG</span> SCT002 BKN009 OVC034 05/05 Q1009 TEMPO 3500 <span class=\"hl\">BR</span> SCT004 OVC035",
      "tafHtml": "TAF EDDH 131100Z 1312/1418 16004KT <span class=\"hl-vis\">0300</span> <span class=\"hl\">FG</span> OVC001 \n  TEMPO 1312/1321 1000 DZRA OVC003 \n  TEMPO 1321/1410 2500 <span class=\"hl\">RA</span> BKN008 \n  BECMG 1410/1413 8000 SCT008"
    },
    {
      "icao": "EKCH",
      "iata": "CPH",
      "name": "Copenhagen Kastrup Airport",
      "updatedAt": "131450Z",
      "visibility_m": 1400,
      "taf_visibility_m": 500,
      "worst_visibility_m": 500,
      "ceiling_ft": 200,
      "hazards": [
        "BR",
        "FG",
        "RA"
      ],
      "severityScore": 100,
      "metarRaw": "METAR EKCH 131450Z 15010KT 1400 R22L/P1500N R04L/P1500N R12/P1500N BR VV002 02/02 Q1011 TEMPO 2000",
      "tafRaw": "TAF EKCH 131427Z 1315/1415 15012KT 4000 BR OVC002 \n  TEMPO 1315/1323 0500 FG OVC005 \n  TEMPO 1323/1411 RA BR OVC010 \n  BECMG 1407/1409 21010KT \n  BECMG 1411/1413 27010KT BKN020",
      "metarHtml": "METAR EKCH 131450Z 15010KT 1400 R22L/P1500N R04L/P1500N R12/P1500N <span class=\"hl\">BR</span> VV002 02/02 Q1011 TEMPO 2000",
      "tafHtml": "TAF EKCH 131427Z 1315/1415 15012KT 4000 <span class=\"hl\">BR</span> OVC002 \n  TEMPO 1315/1323 <span class=\"hl-vis\">0500</span> <span class=\"hl\">FG</span> OVC005 \n  TEMPO 1323/1411 <span class=\"hl\">RA</span> <span class=\"hl\">BR</span> OVC010 \n  BECMG 1407/1409 21010KT \n  BECMG 1411/1413 27010KT BKN020"
    },
    {
      "icao": "EPKK",
      "iata": "KRK",
      "name": "Kraków John Paul II International Airport",
      "updatedAt": "131430Z",
      "visibility_m": 1400,
      "taf_visibility_m": 1400,
      "worst_visibility_m": 1400,
      "ceiling_ft": 700,
      "hazards": [
        "BR",
        "FZDZ",
        "FZRA"
      ],
      "severityScore": 100,
      "metarRaw": "METAR EPKK 131430Z 06003KT 1400 R25/1700U -FZDZ BR SCT003 OVC007 M04/M05 Q1016",
      "tafRaw": "TAF EPKK 131430Z 1315/1415 VRB02KT 2000 -RASN BR OVC008 \n  TEMPO 1315/1410 1400 -FZDZ BKN002 BKN008 \n  BECMG 1410/1412 BKN020 \n  TEMPO 1410/1415 -FZRA -FZDZ",
      "metarHtml": "METAR EPKK 131430Z 06003KT 1400 R25/1700U -<span class=\"hl\">FZDZ</span> <span class=\"hl\">BR</span> SCT003 OVC007 M04/M05 Q1016",
      "tafHtml": "TAF EPKK 131430Z 1315/1415 VRB02KT 2000 -RASN <span class=\"hl\">BR</span> OVC008 \n  TEMPO 1315/1410 1400 -<span class=\"hl\">FZDZ</span> BKN002 BKN008 \n  BECMG 1410/1412 BKN020 \n  TEMPO 1410/1415 -<span class=\"hl\">FZRA</span> -<span class=\"hl\">FZDZ</span>"
    },
    {
      "icao": "EPSC",
      "iata": "SZZ",
      "name": "Solidarity Szczecin–Goleniów Airport",
      "updatedAt": "131430Z",
      "visibility_m": 1500,
      "taf_visibility_m": 600,
      "worst_visibility_m": 600,
      "ceiling_ft": 200,
      "hazards": [
        "BR",
        "FG",
        "FZRA",
        "RA",
        "DZ"
      ],
      "severityScore": 100,
      "metarRaw": "METAR EPSC 131430Z 14009KT 1500 BR OVC002 M01/M01 Q1014",
      "tafRaw": "TAF EPSC 131130Z 1312/1412 14010KT 3000 BR OVC003 \n  TEMPO 1312/1317 1500 -FZRA BR \n  TEMPO 1317/1324 0600 DZ FG BKN001 \n  TEMPO 1400/1412 RA SCT003 BKN008 \n  BECMG 1410/1412 26010KT",
      "metarHtml": "METAR EPSC 131430Z 14009KT 1500 <span class=\"hl\">BR</span> OVC002 M01/M01 Q1014",
      "tafHtml": "TAF EPSC 131130Z 1312/1412 14010KT 3000 <span class=\"hl\">BR</span> OVC003 \n  TEMPO 1312/1317 1500 -<span class=\"hl\">FZRA</span> <span class=\"hl\">BR</span> \n  TEMPO 1317/1324 <span class=\"hl-vis\">0600</span> <span class=\"hl\">DZ</span> <span class=\"hl\">FG</span> BKN001 \n  TEMPO 1400/1412 <span class=\"hl\">RA</span> SCT003 BKN008 \n  BECMG 1410/1412 26010KT"
    },
    {
      "icao": "EPWR",
      "iata": "WRO",
      "name": "Copernicus Wrocław Airport",
      "updatedAt": "131430Z",
      "visibility_m": 6000,
      "taf_visibility_m": 500,
      "worst_visibility_m": 500,
      "ceiling_ft": 700,
      "hazards": [
        "FG",
        "BR",
        "RA",
        "FZDZ",
        "DZ"
      ],
      "severityScore": 100,
      "metarRaw": "METAR EPWR 131430Z VRB01KT 6000 OVC007 01/M00 Q1016",
      "tafRaw": "TAF EPWR 131430Z 1315/1415 VRB02KT 6000 SCT007 BKN012 \n  TEMPO 1315/1316 3000 -DZ BR BKN005 \n  BECMG 1316/1318 1200 -DZ BR OVC002 \n  TEMPO 1318/1324 0500 FG OVC001 \n  PROB30 \n  TEMPO 1320/1324 -FZDZ \n  BECMG 1400/1402 15010KT 4500 -RA BR BKN020 \n  BECMG 1409/1412 23010KT 9999 \n  TEMPO 1413/1415 4000 -RA BR",
      "metarHtml": "METAR EPWR 131430Z VRB01KT 6000 OVC007 01/M00 Q1016",
      "tafHtml": "TAF EPWR 131430Z 1315/1415 VRB02KT 6000 SCT007 BKN012 \n  TEMPO 1315/1316 3000 -<span class=\"hl\">DZ</span> <span class=\"hl\">BR</span> BKN005 \n  BECMG 1316/1318 1200 -<span class=\"hl\">DZ</span> <span class=\"hl\">BR</span> OVC002 \n  TEMPO 1318/1324 <span class=\"hl-vis\">0500</span> <span class=\"hl\">FG</span> OVC001 \n  PROB30 \n  TEMPO 1320/1324 -<span class=\"hl\">FZDZ</span> \n  BECMG 1400/1402 15010KT 4500 -<span class=\"hl\">RA</span> <span class=\"hl\">BR</span> BKN020 \n  BECMG 1409/1412 23010KT 9999 \n  TEMPO 1413/1415 4000 -<span class=\"hl\">RA</span> <span class=\"hl\">BR</span>"
    },
    {
      "icao": "ESGG",
      "iata": "GOT",
      "name": "Göteborg Landvetter Airport",
      "updatedAt": "131450Z",
      "visibility_m": 3500,
      "taf_visibility_m": 500,
      "worst_visibility_m": 500,
      "ceiling_ft": 400,
      "hazards": [
        "FZDZ",
        "FG",
        "SN"
      ],
      "severityScore": 100,
      "metarRaw": "METAR ESGG 131450Z 15010KT 3500 -FZDZ OVC004 M00/M01 Q1008",
      "tafRaw": "TAF ESGG 131430Z 1315/1415 13009KT 8000 -SN OVC002 \n  TEMPO 1315/1318 2000 -FZRADZ BKN005 \n  TEMPO 1318/1324 0500 FG \n  TEMPO 1400/1404 2000 RADZ BKN007 \n  TEMPO 1404/1409 1400 RASN BKN007 \n  BECMG 1409/1411 26010KT 0500 FG \n  BECMG 1413/1415 7000 NSW SCT005",
      "metarHtml": "METAR ESGG 131450Z 15010KT 3500 -<span class=\"hl\">FZDZ</span> OVC004 M00/M01 Q1008",
      "tafHtml": "TAF ESGG 131430Z 1315/1415 13009KT 8000 -<span class=\"hl\">SN</span> OVC002 \n  TEMPO 1315/1318 2000 -FZRADZ BKN005 \n  TEMPO 1318/1324 <span class=\"hl-vis\">0500</span> <span class=\"hl\">FG</span> \n  TEMPO 1400/1404 2000 RADZ BKN007 \n  TEMPO 1404/1409 1400 RASN BKN007 \n  BECMG 1409/1411 26010KT <span class=\"hl-vis\">0500</span> <span class=\"hl\">FG</span> \n  BECMG 1413/1415 7000 NSW SCT005"
    },
    {
      "icao": "ESMS",
      "iata": "MMX",
      "name": "Malmö Sturup Airport",
      "updatedAt": "131450Z",
      "visibility_m": 500,
      "taf_visibility_m": 800,
      "worst_visibility_m": 500,
      "ceiling_ft": 200,
      "hazards": [
        "FG",
        "BR",
        "RA"
      ],
      "severityScore": 100,
      "metarRaw": "METAR ESMS 131450Z 15008KT 0500 R17/1500D R35/1100D FG OVC002 01/01 Q1011",
      "tafRaw": "TAF ESMS 131427Z 1315/1415 13010KT 4000 -RADZ BR OVC006 \n  TEMPO 1315/1324 0800 FG OVC002 \n  BECMG 1400/1402 5000 -RA \n  TEMPO 1402/1413 2000 RADZ BKN002 \n  BECMG 1407/1410 27007KT \n  BECMG 1413/1415 BKN020",
      "metarHtml": "METAR ESMS 131450Z 15008KT <span class=\"hl-vis\">0500</span> R17/1500D R35/1100D <span class=\"hl\">FG</span> OVC002 01/01 Q1011",
      "tafHtml": "TAF ESMS 131427Z 1315/1415 13010KT 4000 -RADZ <span class=\"hl\">BR</span> OVC006 \n  TEMPO 1315/1324 <span class=\"hl-vis\">0800</span> <span class=\"hl\">FG</span> OVC002 \n  BECMG 1400/1402 5000 -<span class=\"hl\">RA</span> \n  TEMPO 1402/1413 2000 RADZ BKN002 \n  BECMG 1407/1410 27007KT \n  BECMG 1413/1415 BKN020"
    },
    {
      "icao": "LRTR",
      "iata": "TSR",
      "name": "Timişoara Traian Vuia Airport",
      "updatedAt": "131430Z",
      "visibility_m": 5000,
      "taf_visibility_m": 600,
      "worst_visibility_m": 600,
      "ceiling_ft": 400,
      "hazards": [
        "BR",
        "FZRA",
        "FZFG",
        "SN"
      ],
      "severityScore": 100,
      "metarRaw": "METAR LRTR 131430Z 10007KT 7000 -FZRA BKN004 OVC024 M02/M02 Q1018 BECMG 5000 -FZRA BR",
      "tafRaw": "TAF LRTR 131100Z 1312/1412 11010KT 3000 SN BKN005 OVC030 \n  TEMPO 1312/1314 0600 +SN BKN002 OVC015 \n  BECMG 1315/1317 VRB04KT 5000 BR BKN010 OVC035 \n  BECMG 1321/1323 1500 BR OVC005 \n  TEMPO 1400/1406 0600 FZFG OVC002 \n  BECMG 1407/1409 CAVOK",
      "metarHtml": "METAR LRTR 131430Z 10007KT 7000 -<span class=\"hl\">FZRA</span> BKN004 OVC024 M02/M02 Q1018 BECMG 5000 -<span class=\"hl\">FZRA</span> <span class=\"hl\">BR</span>",
      "tafHtml": "TAF LRTR 131100Z 1312/1412 11010KT 3000 <span class=\"hl\">SN</span> BKN005 OVC030 \n  TEMPO 1312/1314 <span class=\"hl-vis\">0600</span> +<span class=\"hl\">SN</span> BKN002 OVC015 \n  BECMG 1315/1317 VRB04KT 5000 <span class=\"hl\">BR</span> BKN010 OVC035 \n  BECMG 1321/1323 1500 <span class=\"hl\">BR</span> OVC005 \n  TEMPO 1400/1406 <span class=\"hl-vis\">0600</span> <span class=\"hl\">FZFG</span> OVC002 \n  BECMG 1407/1409 <span class=\"hl-vis\">CAVOK</span>"
    },
    {
      "icao": "UAAA",
      "iata": "ALA",
      "name": "Almaty International Airport",
      "updatedAt": "131430Z",
      "visibility_m": 100,
      "taf_visibility_m": null,
      "worst_visibility_m": 100,
      "ceiling_ft": 100,
      "hazards": [
        "FZFG"
      ],
      "severityScore": 100,
      "metarRaw": "METAR UAAA 131430Z VRB01MPS 0100 R23L/0400N FZFG VV001 M00/M01 Q1022 NOSIG RMK QBB050",
      "tafRaw": null,
      "metarHtml": "METAR UAAA 131430Z VRB01MPS <span class=\"hl-vis\">0100</span> R23L/0400N <span class=\"hl\">FZFG</span> VV001 M00/M01 Q1022 NOSIG RMK QBB050",
      "tafHtml": null
    },
    {
      "icao": "EKBI",
      "iata": "BLL",
      "name": "Billund Airport",
      "updatedAt": "131450Z",
      "visibility_m": 500,
      "taf_visibility_m": 200,
      "worst_visibility_m": 200,
      "ceiling_ft": null,
      "hazards": [
        "FG",
        "BR",
        "RA"
      ],
      "severityScore": 97,
      "metarRaw": "METAR EKBI 131450Z AUTO 15004KT 0500 R09/0900N R27/0800N FG OVC002/// 04/04 Q1007",
      "tafRaw": "TAF EKBI 131427Z 1315/1415 15007KT 0200 FG VV002 \n  TEMPO 1315/1322 2000 -RADZ BR OVC006 \n  BECMG 1322/1324 4000 -RA BKN006 \n  TEMPO 1400/1405 1000 RA BKN002 \n  BECMG 1405/1407 26010KT 9999 NSW SCT008",
      "metarHtml": "METAR EKBI 131450Z AUTO 15004KT <span class=\"hl-vis\">0500</span> R09/0900N R27/0800N <span class=\"hl\">FG</span> OVC002/// 04/04 Q1007",
      "tafHtml": "TAF EKBI 131427Z 1315/1415 15007KT <span class=\"hl-vis\">0200</span> <span class=\"hl\">FG</span> VV002 \n  TEMPO 1315/1322 2000 -RADZ <span class=\"hl\">BR</span> OVC006 \n  BECMG 1322/1324 4000 -<span class=\"hl\">RA</span> BKN006 \n  TEMPO 1400/1405 1000 <span class=\"hl\">RA</span> BKN002 \n  BECMG 1405/1407 26010KT 9999 NSW SCT008"
    },
    {
      "icao": "BKPR",
      "iata": "PRN",
      "name": "Priština Adem Jashari International Airport",
      "updatedAt": "131500Z",
      "visibility_m": 10000,
      "taf_visibility_m": 200,
      "worst_visibility_m": 200,
      "ceiling_ft": null,
      "hazards": [
        "FZFG",
        "BR"
      ],
      "severityScore": 95,
      "metarRaw": "METAR BKPR 131500Z 12003KT 9999 FEW085 02/M04 Q1021 NOSIG",
      "tafRaw": "TAF BKPR 131130Z 1312/1412 VRB03KT 9999 BKN060 \n  TEMPO 1314/1320 25014KT \n  BECMG 1401/1403 2000 BR \n  PROB30 1403/1409 0200 FZFG BKN002",
      "metarHtml": "METAR BKPR 131500Z 12003KT 9999 FEW085 02/M04 Q1021 NOSIG",
      "tafHtml": "TAF BKPR 131130Z 1312/1412 VRB03KT 9999 BKN060 \n  TEMPO 1314/1320 25014KT \n  BECMG 1401/1403 2000 <span class=\"hl\">BR</span> \n  PROB30 1403/1409 <span class=\"hl-vis\">0200</span> <span class=\"hl\">FZFG</span> BKN002"
    },
    {
      "icao": "EPPO",
      "iata": "POZ",
      "name": "Poznań-Ławica Airport",
      "updatedAt": "131430Z",
      "visibility_m": 5000,
      "taf_visibility_m": 800,
      "worst_visibility_m": 800,
      "ceiling_ft": 3000,
      "hazards": [
        "BR",
        "FG",
        "RA",
        "FZDZ"
      ],
      "severityScore": 95,
      "metarRaw": "METAR EPPO 131430Z 12005KT 5000 BR OVC030 M02/M05 Q1016 REFZRA",
      "tafRaw": "TAF EPPO 131130Z 1312/1412 13005KT 6000 BKN017 \n  TEMPO 1312/1318 3000 -FZDZ BR BKN007 \n  PROB40 \n  TEMPO 1312/1318 1300 -FZDZ BR BKN002 \n  BECMG 1318/1320 1500 BR BKN002 \n  TEMPO 1320/1324 0800 -FZDZ FG BKN001 \n  TEMPO 1400/1408 5000 -RA BR BKN010 \n  BECMG 1408/1411 22010KT 7000 BKN017",
      "metarHtml": "METAR EPPO 131430Z 12005KT 5000 <span class=\"hl\">BR</span> OVC030 M02/M05 Q1016 REFZRA",
      "tafHtml": "TAF EPPO 131130Z 1312/1412 13005KT 6000 BKN017 \n  TEMPO 1312/1318 3000 -<span class=\"hl\">FZDZ</span> <span class=\"hl\">BR</span> BKN007 \n  PROB40 \n  TEMPO 1312/1318 1300 -<span class=\"hl\">FZDZ</span> <span class=\"hl\">BR</span> BKN002 \n  BECMG 1318/1320 1500 <span class=\"hl\">BR</span> BKN002 \n  TEMPO 1320/1324 <span class=\"hl-vis\">0800</span> -<span class=\"hl\">FZDZ</span> <span class=\"hl\">FG</span> BKN001 \n  TEMPO 1400/1408 5000 -<span class=\"hl\">RA</span> <span class=\"hl\">BR</span> BKN010 \n  BECMG 1408/1411 22010KT 7000 BKN017"
    },
    {
      "icao": "EYKA",
      "iata": "KUN",
      "name": "Kaunas International Airport",
      "updatedAt": "131450Z",
      "visibility_m": 6000,
      "taf_visibility_m": 500,
      "worst_visibility_m": 500,
      "ceiling_ft": null,
      "hazards": [
        "SN",
        "FZFG",
        "BR"
      ],
      "severityScore": 93,
      "metarRaw": "METAR EYKA 131450Z 07001KT 6000 -SN NSC M10/M12 Q1019",
      "tafRaw": "TAF EYKA 131100Z 1312/1412 VRB04KT 5000 BR SCT010 BKN015 \n  TEMPO 1312/1318 3000 SN BKN005 OVC010 \n  PROB40 \n  TEMPO 1312/1318 1500 OVC002 \n  BECMG 1321/1324 OVC005 \n  TEMPO 1400/1409 0500 FZFG VV002 \n  BECMG 1409/1412 14010KT 8000 NSW BKN010",
      "metarHtml": "METAR EYKA 131450Z 07001KT 6000 -<span class=\"hl\">SN</span> NSC M10/M12 Q1019",
      "tafHtml": "TAF EYKA 131100Z 1312/1412 VRB04KT 5000 <span class=\"hl\">BR</span> SCT010 BKN015 \n  TEMPO 1312/1318 3000 <span class=\"hl\">SN</span> BKN005 OVC010 \n  PROB40 \n  TEMPO 1312/1318 1500 OVC002 \n  BECMG 1321/1324 OVC005 \n  TEMPO 1400/1409 <span class=\"hl-vis\">0500</span> <span class=\"hl\">FZFG</span> VV002 \n  BECMG 1409/1412 14010KT 8000 NSW BKN010"
    },
    {
      "icao": "EYVI",
      "iata": "VNO",
      "name": "Vilnius International Airport",
      "updatedAt": "131450Z",
      "visibility_m": 3000,
      "taf_visibility_m": 500,
      "worst_visibility_m": 500,
      "ceiling_ft": null,
      "hazards": [
        "BR",
        "FZFG",
        "SN"
      ],
      "severityScore": 93,
      "metarRaw": "METAR EYVI 131450Z VRB01KT 3300 BR NSC M11/M12 Q1018 TEMPO 3000 BR",
      "tafRaw": "TAF EYVI 131100Z 1312/1412 VRB04KT 5000 BR SCT005 BKN020 \n  TEMPO 1312/1320 1500 SN BKN002 OVC005 \n  BECMG 1320/1322 BKN005 \n  TEMPO 1322/1406 0500 FZFG VV002 \n  BECMG 1406/1408 15010KT 9000 NSW BKN020 \n  TEMPO 1410/1418 SCT030",
      "metarHtml": "METAR EYVI 131450Z VRB01KT 3300 <span class=\"hl\">BR</span> NSC M11/M12 Q1018 TEMPO 3000 <span class=\"hl\">BR</span>",
      "tafHtml": "TAF EYVI 131100Z 1312/1412 VRB04KT 5000 <span class=\"hl\">BR</span> SCT005 BKN020 \n  TEMPO 1312/1320 1500 <span class=\"hl\">SN</span> BKN002 OVC005 \n  BECMG 1320/1322 BKN005 \n  TEMPO 1322/1406 <span class=\"hl-vis\">0500</span> <span class=\"hl\">FZFG</span> VV002 \n  BECMG 1406/1408 15010KT 9000 NSW BKN020 \n  TEMPO 1410/1418 SCT030"
    },
    {
      "icao": "LZTT",
      "iata": "TAT",
      "name": "Poprad-Tatry Airport",
      "updatedAt": "131430Z",
      "visibility_m": 10000,
      "taf_visibility_m": 500,
      "worst_visibility_m": 500,
      "ceiling_ft": 4600,
      "hazards": [
        "FZFG",
        "BR",
        "SN"
      ],
      "severityScore": 93,
      "metarRaw": "METAR LZTT 131430Z VRB02KT 9999 SCT016 BKN046 M07/M09 Q1013 NOSIG",
      "tafRaw": "TAF LZTT 131115Z 1312/1412 VRB02KT 6000 -SN SCT012 BKN020 \n  TEMPO 1312/1316 1200 SN OVC004 \n  BECMG 1316/1318 NSW \n  BECMG 1318/1320 2000 BR OVC003 \n  TEMPO 1321/1408 0500 FZFG OVC001 \n  BECMG 1408/1410 5000 BR SCT004 OVC008",
      "metarHtml": "METAR LZTT 131430Z VRB02KT 9999 SCT016 BKN046 M07/M09 Q1013 NOSIG",
      "tafHtml": "TAF LZTT 131115Z 1312/1412 VRB02KT 6000 -<span class=\"hl\">SN</span> SCT012 BKN020 \n  TEMPO 1312/1316 1200 <span class=\"hl\">SN</span> OVC004 \n  BECMG 1316/1318 NSW \n  BECMG 1318/1320 2000 <span class=\"hl\">BR</span> OVC003 \n  TEMPO 1321/1408 <span class=\"hl-vis\">0500</span> <span class=\"hl\">FZFG</span> OVC001 \n  BECMG 1408/1410 5000 <span class=\"hl\">BR</span> SCT004 OVC008"
    },
    {
      "icao": "LEMD",
      "iata": "MAD",
      "name": "Adolfo Suárez Madrid–Barajas Airport",
      "updatedAt": "131430Z",
      "visibility_m": 10000,
      "taf_visibility_m": 300,
      "worst_visibility_m": 300,
      "ceiling_ft": 4800,
      "hazards": [
        "FG",
        "BR",
        "RA"
      ],
      "severityScore": 87,
      "metarRaw": "METAR LEMD 131430Z 16009KT 130V220 9999 BKN048 11/00 Q1012 NOSIG",
      "tafRaw": "TAF LEMD 131100Z 1312/1418 VRB03KT 9999 SCT030 TX12/1314Z TN00/1407Z \n  TEMPO 1312/1317 18010KT \n  PROB30 \n  TEMPO 1312/1318 18015G25KT \n  TEMPO 1318/1408 RA BKN012 \n  PROB40 \n  TEMPO 1402/1410 3000 BR BKN006 \n  PROB30 \n  TEMPO 1404/1410 0300 FG VV002",
      "metarHtml": "METAR LEMD 131430Z 16009KT 130V220 9999 BKN048 11/00 Q1012 NOSIG",
      "tafHtml": "TAF LEMD 131100Z 1312/1418 VRB03KT 9999 SCT030 TX12/1314Z TN00/1407Z \n  TEMPO 1312/1317 18010KT \n  PROB30 \n  TEMPO 1312/1318 18015G25KT \n  TEMPO 1318/1408 <span class=\"hl\">RA</span> BKN012 \n  PROB40 \n  TEMPO 1402/1410 3000 <span class=\"hl\">BR</span> BKN006 \n  PROB30 \n  TEMPO 1404/1410 <span class=\"hl-vis\">0300</span> <span class=\"hl\">FG</span> VV002"
    },
    {
      "icao": "LHDC",
      "iata": "DEB",
      "name": "Debrecen International Airport",
      "updatedAt": "131415Z",
      "visibility_m": 7000,
      "taf_visibility_m": 600,
      "worst_visibility_m": 600,
      "ceiling_ft": 1300,
      "hazards": [
        "SHSN",
        "FZFG",
        "BR"
      ],
      "severityScore": 87,
      "metarRaw": "METAR LHDC 131415Z AUTO 07006KT 7000 -SHSN OVC013 M04/M06 Q1018 NOSIG",
      "tafRaw": "TAF LHDC 131415Z 1315/1324 06005KT 8000 BKN010 OVC025 \n  BECMG 1315/1318 1500 BR OVC005 \n  TEMPO 1318/1324 0600 FZFG VV002",
      "metarHtml": "METAR LHDC 131415Z AUTO 07006KT 7000 -<span class=\"hl\">SHSN</span> OVC013 M04/M06 Q1018 NOSIG",
      "tafHtml": "TAF LHDC 131415Z 1315/1324 06005KT 8000 BKN010 OVC025 \n  BECMG 1315/1318 1500 <span class=\"hl\">BR</span> OVC005 \n  TEMPO 1318/1324 <span class=\"hl-vis\">0600</span> <span class=\"hl\">FZFG</span> VV002"
    },
    {
      "icao": "EPLB",
      "iata": "LUZ",
      "name": "Lublin Airport",
      "updatedAt": "131430Z",
      "visibility_m": 9000,
      "taf_visibility_m": 300,
      "worst_visibility_m": 300,
      "ceiling_ft": null,
      "hazards": [
        "FZFG",
        "BR"
      ],
      "severityScore": 85,
      "metarRaw": "METAR EPLB 131430Z 02001KT 9000 NSC M08/M10 Q1017",
      "tafRaw": "TAF EPLB 131130Z 1312/1412 VRB04KT 7000 NSC \n  BECMG 1315/1318 2500 BR BKN007 \n  PROB40 1321/1406 0300 FZFG BKN001 \n  BECMG 1406/1409 14010KT",
      "metarHtml": "METAR EPLB 131430Z 02001KT 9000 NSC M08/M10 Q1017",
      "tafHtml": "TAF EPLB 131130Z 1312/1412 VRB04KT 7000 NSC \n  BECMG 1315/1318 2500 <span class=\"hl\">BR</span> BKN007 \n  PROB40 1321/1406 <span class=\"hl-vis\">0300</span> <span class=\"hl\">FZFG</span> BKN001 \n  BECMG 1406/1409 14010KT"
    },
    {
      "icao": "ENGM",
      "iata": "OSL",
      "name": "Oslo-Gardermoen International Airport",
      "updatedAt": "131450Z",
      "visibility_m": 800,
      "taf_visibility_m": null,
      "worst_visibility_m": 800,
      "ceiling_ft": 800,
      "hazards": [
        "BR",
        "SN"
      ],
      "severityScore": 83,
      "metarRaw": "METAR ENGM 131450Z 04004KT 1200 R19R/1200U R01R/P2000N R19L/1600U R01L/1600U SN BR SCT010 BKN015 M04/M05 Q1010 TEMPO 0800 SN BKN008",
      "tafRaw": null,
      "metarHtml": "METAR ENGM 131450Z 04004KT 1200 R19R/1200U R01R/P2000N R19L/1600U R01L/1600U <span class=\"hl\">SN</span> <span class=\"hl\">BR</span> SCT010 BKN015 M04/M05 Q1010 TEMPO <span class=\"hl-vis\">0800</span> <span class=\"hl\">SN</span> BKN008",
      "tafHtml": null
    },
    {
      "icao": "EPKT",
      "iata": "KTW",
      "name": "Katowice Wojciech Korfanty International Airport",
      "updatedAt": "131430Z",
      "visibility_m": 1600,
      "taf_visibility_m": null,
      "worst_visibility_m": 1600,
      "ceiling_ft": 300,
      "hazards": [
        "BR",
        "FZDZ"
      ],
      "severityScore": 78,
      "metarRaw": "METAR EPKT 131430Z 08004KT 1600 -FZDZ BR SCT002 OVC003 M02/M03 Q1015",
      "tafRaw": null,
      "metarHtml": "METAR EPKT 131430Z 08004KT 1600 -<span class=\"hl\">FZDZ</span> <span class=\"hl\">BR</span> SCT002 OVC003 M02/M03 Q1015",
      "tafHtml": null
    },
    {
      "icao": "OJAI",
      "iata": "AMM",
      "name": "Queen Alia International Airport",
      "updatedAt": "131400Z",
      "visibility_m": 3000,
      "taf_visibility_m": 500,
      "worst_visibility_m": 500,
      "ceiling_ft": 3000,
      "hazards": [
        "BR",
        "FG",
        "RA"
      ],
      "severityScore": 77,
      "metarRaw": "METAR OJAI 131400Z 24020KT 3000 BR SCT025 BKN030 08/06 Q1015 NOSIG",
      "tafRaw": "TAF OJAI 131051Z 1312/1418 24020KT 1500 RA BR FEW025TCU SCT035 \n  TEMPO 1312/1323 27035G45KT 1000 TSRAGR SCT020CB OVC030 \n  PROB30 \n  TEMPO 1400/1406 0500 FG",
      "metarHtml": "METAR OJAI 131400Z 24020KT 3000 <span class=\"hl\">BR</span> SCT025 BKN030 08/06 Q1015 NOSIG",
      "tafHtml": "TAF OJAI 131051Z 1312/1418 24020KT 1500 <span class=\"hl\">RA</span> <span class=\"hl\">BR</span> FEW025TCU SCT035 \n  TEMPO 1312/1323 27035G45KT 1000 TSRAGR SCT020CB OVC030 \n  PROB30 \n  TEMPO 1400/1406 <span class=\"hl-vis\">0500</span> <span class=\"hl\">FG</span>"
    },
    {
      "icao": "LKPR",
      "iata": "PRG",
      "name": "Václav Havel Airport Prague",
      "updatedAt": "131430Z",
      "visibility_m": 10000,
      "taf_visibility_m": 300,
      "worst_visibility_m": 300,
      "ceiling_ft": 3700,
      "hazards": [
        "FG",
        "BR"
      ],
      "severityScore": 75,
      "metarRaw": "METAR LKPR 131430Z 17006KT 9999 SCT020 BKN037 04/03 Q1015 NOSIG",
      "tafRaw": "TAF LKPR 131400Z 1315/1421 21004KT 7000 SCT008 BKN017 \n  TEMPO 1315/1318 3500 BR BKN010 \n  BECMG 1318/1320 VRB02KT 1200 BR BKN003 \n  TEMPO 1320/1408 0300 FG VV001 \n  BECMG 1410/1412 24012KT 5000 BR SCT009 BKN012 \n  TEMPO 1412/1418 7000 BKN025",
      "metarHtml": "METAR LKPR 131430Z 17006KT 9999 SCT020 BKN037 04/03 Q1015 NOSIG",
      "tafHtml": "TAF LKPR 131400Z 1315/1421 21004KT 7000 SCT008 BKN017 \n  TEMPO 1315/1318 3500 <span class=\"hl\">BR</span> BKN010 \n  BECMG 1318/1320 VRB02KT 1200 <span class=\"hl\">BR</span> BKN003 \n  TEMPO 1320/1408 <span class=\"hl-vis\">0300</span> <span class=\"hl\">FG</span> VV001 \n  BECMG 1410/1412 24012KT 5000 <span class=\"hl\">BR</span> SCT009 BKN012 \n  TEMPO 1412/1418 7000 BKN025"
    },
    {
      "icao": "LQSA",
      "iata": "SJJ",
      "name": "Sarajevo International Airport",
      "updatedAt": "131430Z",
      "visibility_m": 10000,
      "taf_visibility_m": 500,
      "worst_visibility_m": 500,
      "ceiling_ft": null,
      "hazards": [
        "FZFG",
        "BR"
      ],
      "severityScore": 75,
      "metarRaw": "METAR LQSA 131430Z VRB05KT CAVOK 09/01 Q1020 NOSIG",
      "tafRaw": "TAF LQSA 131100Z 1312/1412 VRB02KT 8000 NSC TX04/1314Z TNM03/1406Z \n  PROB40 \n  TEMPO 1318/1409 2000 BR BKN006 \n  PROB30 1323/1408 0500 FZFG BKN003",
      "metarHtml": "METAR LQSA 131430Z VRB05KT <span class=\"hl-vis\">CAVOK</span> 09/01 Q1020 NOSIG",
      "tafHtml": "TAF LQSA 131100Z 1312/1412 VRB02KT 8000 NSC TX04/1314Z TNM03/1406Z \n  PROB40 \n  TEMPO 1318/1409 2000 <span class=\"hl\">BR</span> BKN006 \n  PROB30 1323/1408 <span class=\"hl-vis\">0500</span> <span class=\"hl\">FZFG</span> BKN003"
    },
    {
      "icao": "LQTZ",
      "iata": "TZL",
      "name": "Tuzla International Airport",
      "updatedAt": "131430Z",
      "visibility_m": 10000,
      "taf_visibility_m": 400,
      "worst_visibility_m": 400,
      "ceiling_ft": null,
      "hazards": [
        "FZFG",
        "BR"
      ],
      "severityScore": 75,
      "metarRaw": "METAR LQTZ 131430Z 34005KT CAVOK 10/03 Q1018",
      "tafRaw": "TAF LQTZ 131100Z 1312/1412 VRB02KT CAVOK TX04/1313Z TNM02/1405Z \n  BECMG 1320/1322 2000 BR \n  TEMPO 1322/1407 0400 FZFG BKN002 \n  BECMG 1408/1410 9999 NSW",
      "metarHtml": "METAR LQTZ 131430Z 34005KT <span class=\"hl-vis\">CAVOK</span> 10/03 Q1018",
      "tafHtml": "TAF LQTZ 131100Z 1312/1412 VRB02KT <span class=\"hl-vis\">CAVOK</span> TX04/1313Z TNM02/1405Z \n  BECMG 1320/1322 2000 <span class=\"hl\">BR</span> \n  TEMPO 1322/1407 <span class=\"hl-vis\">0400</span> <span class=\"hl\">FZFG</span> BKN002 \n  BECMG 1408/1410 9999 NSW"
    },
    {
      "icao": "ENTO",
      "iata": "TRF",
      "name": "Sandefjord Airport, Torp",
      "updatedAt": "131450Z",
      "visibility_m": 1200,
      "taf_visibility_m": null,
      "worst_visibility_m": 1200,
      "ceiling_ft": 400,
      "hazards": [
        "SN"
      ],
      "severityScore": 68,
      "metarRaw": "METAR ENTO 131450Z 36005KT 1200 R18/P2000N R36/P2000N -SN VV004 M03/M03 Q1009 NOSIG",
      "tafRaw": null,
      "metarHtml": "METAR ENTO 131450Z 36005KT 1200 R18/P2000N R36/P2000N -<span class=\"hl\">SN</span> VV004 M03/M03 Q1009 NOSIG",
      "tafHtml": null
    },
    {
      "icao": "EDNY",
      "iata": "FDH",
      "name": "Friedrichshafen Airport",
      "updatedAt": "131450Z",
      "visibility_m": 10000,
      "taf_visibility_m": 400,
      "worst_visibility_m": 400,
      "ceiling_ft": null,
      "hazards": [
        "FZFG"
      ],
      "severityScore": 65,
      "metarRaw": "METAR EDNY 131450Z 24004KT CAVOK 06/04 Q1015",
      "tafRaw": "TAF EDNY 131400Z 1315/1324 VRB03KT CAVOK \n  BECMG 1318/1320 1200 BCFG \n  BECMG 1320/1322 0400 FZFG VV001",
      "metarHtml": "METAR EDNY 131450Z 24004KT <span class=\"hl-vis\">CAVOK</span> 06/04 Q1015",
      "tafHtml": "TAF EDNY 131400Z 1315/1324 VRB03KT <span class=\"hl-vis\">CAVOK</span> \n  BECMG 1318/1320 1200 BCFG \n  BECMG 1320/1322 <span class=\"hl-vis\">0400</span> <span class=\"hl\">FZFG</span> VV001"
    },
    {
      "icao": "EPGD",
      "iata": "GDN",
      "name": "Gdańsk Lech Wałęsa Airport",
      "updatedAt": "131430Z",
      "visibility_m": 8000,
      "taf_visibility_m": 2000,
      "worst_visibility_m": 2000,
      "ceiling_ft": 3700,
      "hazards": [
        "BR",
        "FZRA",
        "SN"
      ],
      "severityScore": 63,
      "metarRaw": "METAR EPGD 131430Z 14006KT 8000 BKN037 M04/M06 Q1016",
      "tafRaw": "TAF EPGD 131130Z 1312/1412 17010KT 9999 BKN030 \n  PROB40 \n  TEMPO 1315/1319 BKN012 \n  TEMPO 1319/1324 4000 -SN BR OVC010 \n  BECMG 1400/1402 4000 BR OVC005 \n  TEMPO 1401/1412 2000 FZRA BR BKN003",
      "metarHtml": "METAR EPGD 131430Z 14006KT 8000 BKN037 M04/M06 Q1016",
      "tafHtml": "TAF EPGD 131130Z 1312/1412 17010KT 9999 BKN030 \n  PROB40 \n  TEMPO 1315/1319 BKN012 \n  TEMPO 1319/1324 4000 -<span class=\"hl\">SN</span> <span class=\"hl\">BR</span> OVC010 \n  BECMG 1400/1402 4000 <span class=\"hl\">BR</span> OVC005 \n  TEMPO 1401/1412 2000 <span class=\"hl\">FZRA</span> <span class=\"hl\">BR</span> BKN003"
    },
    {
      "icao": "EPMO",
      "iata": "WMI",
      "name": "Modlin Airport",
      "updatedAt": "131430Z",
      "visibility_m": 6000,
      "taf_visibility_m": 1500,
      "worst_visibility_m": 1500,
      "ceiling_ft": null,
      "hazards": [
        "BR",
        "FZRA"
      ],
      "severityScore": 55,
      "metarRaw": "METAR EPMO 131430Z 07006KT 6000 NSC M04/M06 Q1017",
      "tafRaw": "TAF EPMO 131130Z 1312/1412 12007KT 3500 BR NSC \n  BECMG 1312/1315 7000 \n  PROB40 1318/1324 1500 BR BKN005 \n  BECMG 1400/1403 BKN005 \n  BECMG 1409/1412 4500 FZRA BKN004",
      "metarHtml": "METAR EPMO 131430Z 07006KT 6000 NSC M04/M06 Q1017",
      "tafHtml": "TAF EPMO 131130Z 1312/1412 12007KT 3500 <span class=\"hl\">BR</span> NSC \n  BECMG 1312/1315 7000 \n  PROB40 1318/1324 1500 <span class=\"hl\">BR</span> BKN005 \n  BECMG 1400/1403 BKN005 \n  BECMG 1409/1412 4500 <span class=\"hl\">FZRA</span> BKN004"
    },
    {
      "icao": "ESSA",
      "iata": "ARN",
      "name": "Stockholm-Arlanda Airport",
      "updatedAt": "131450Z",
      "visibility_m": 10000,
      "taf_visibility_m": 700,
      "worst_visibility_m": 700,
      "ceiling_ft": 1200,
      "hazards": [
        "SN"
      ],
      "severityScore": 55,
      "metarRaw": "METAR ESSA 131450Z 08007KT 9999 -SN BKN026 M02/M03 Q1016 TEMPO BKN012",
      "tafRaw": "TAF ESSA 131430Z 1315/1415 09006KT 9999 -SN BKN015 \n  TEMPO 1315/1319 4000 -SG BKN008 \n  TEMPO 1319/1401 BKN008 \n  BECMG 1317/1319 16010KT \n  BECMG 1401/1403 16015G25KT 2000 SN OVC012 \n  TEMPO 1403/1411 6000 -SN OVC008 \n  TEMPO 1411/1415 0700 OVC004",
      "metarHtml": "METAR ESSA 131450Z 08007KT 9999 -<span class=\"hl\">SN</span> BKN026 M02/M03 Q1016 TEMPO BKN012",
      "tafHtml": "TAF ESSA 131430Z 1315/1415 09006KT 9999 -<span class=\"hl\">SN</span> BKN015 \n  TEMPO 1315/1319 4000 -SG BKN008 \n  TEMPO 1319/1401 BKN008 \n  BECMG 1317/1319 16010KT \n  BECMG 1401/1403 16015G25KT 2000 <span class=\"hl\">SN</span> OVC012 \n  TEMPO 1403/1411 6000 -<span class=\"hl\">SN</span> OVC008 \n  TEMPO 1411/1415 <span class=\"hl-vis\">0700</span> OVC004"
    },
    {
      "icao": "LRSB",
      "iata": "SBZ",
      "name": "Sibiu International Airport",
      "updatedAt": "131430Z",
      "visibility_m": 2000,
      "taf_visibility_m": 1500,
      "worst_visibility_m": 1500,
      "ceiling_ft": 1200,
      "hazards": [
        "SN",
        "BR"
      ],
      "severityScore": 50,
      "metarRaw": "METAR LRSB 131430Z COR 11003KT 2000 -SN OVC012 M06/M06 Q1016",
      "tafRaw": "TAF LRSB 131100Z 1312/1412 VRB04KT 9999 -SN OVC035 \n  BECMG 1312/1313 5000 -SN BR BKN015 OVC030 \n  TEMPO 1313/1317 1500 SN BKN005 OVC010 \n  BECMG 1318/1320 5000 BR BKN010 \n  PROB30 \n  TEMPO 1400/1406 1500 BR BKN002 \n  BECMG 1407/1409 9999 NSW BKN020 \n  PROB30 \n  TEMPO 1410/1412 5000 -SN BR",
      "metarHtml": "METAR LRSB 131430Z COR 11003KT 2000 -<span class=\"hl\">SN</span> OVC012 M06/M06 Q1016",
      "tafHtml": "TAF LRSB 131100Z 1312/1412 VRB04KT 9999 -<span class=\"hl\">SN</span> OVC035 \n  BECMG 1312/1313 5000 -<span class=\"hl\">SN</span> <span class=\"hl\">BR</span> BKN015 OVC030 \n  TEMPO 1313/1317 1500 <span class=\"hl\">SN</span> BKN005 OVC010 \n  BECMG 1318/1320 5000 <span class=\"hl\">BR</span> BKN010 \n  PROB30 \n  TEMPO 1400/1406 1500 <span class=\"hl\">BR</span> BKN002 \n  BECMG 1407/1409 9999 NSW BKN020 \n  PROB30 \n  TEMPO 1410/1412 5000 -<span class=\"hl\">SN</span> <span class=\"hl\">BR</span>"
    },
    {
      "icao": "LRTM",
      "iata": "TGM",
      "name": "Târgu Mureş Transilvania International Airport",
      "updatedAt": "131430Z",
      "visibility_m": 1100,
      "taf_visibility_m": 1000,
      "worst_visibility_m": 1000,
      "ceiling_ft": 1200,
      "hazards": [
        "BR",
        "SN"
      ],
      "severityScore": 50,
      "metarRaw": "METAR LRTM 131430Z 07003KT 1100 R07/1600U SN BR SCT009 BKN012 BKN017 M07/M09 Q1018",
      "tafRaw": "TAF LRTM 131400Z 1315/1324 VRB02KT 1000 -SN BR BKN010 OVC025 \n  BECMG 1315/1317 3000 -SN BR SCT015 OVC030 \n  BECMG 1317/1319 5000 BR",
      "metarHtml": "METAR LRTM 131430Z 07003KT 1100 R07/1600U <span class=\"hl\">SN</span> <span class=\"hl\">BR</span> SCT009 BKN012 BKN017 M07/M09 Q1018",
      "tafHtml": "TAF LRTM 131400Z 1315/1324 VRB02KT 1000 -<span class=\"hl\">SN</span> <span class=\"hl\">BR</span> BKN010 OVC025 \n  BECMG 1315/1317 3000 -<span class=\"hl\">SN</span> <span class=\"hl\">BR</span> SCT015 OVC030 \n  BECMG 1317/1319 5000 <span class=\"hl\">BR</span>"
    },
    {
      "icao": "EPWA",
      "iata": "WAW",
      "name": "Warsaw Chopin Airport",
      "updatedAt": "131430Z",
      "visibility_m": 10000,
      "taf_visibility_m": 2000,
      "worst_visibility_m": 2000,
      "ceiling_ft": null,
      "hazards": [
        "BR",
        "FZRA"
      ],
      "severityScore": 45,
      "metarRaw": "METAR EPWA 131430Z 12005KT 080V150 CAVOK M03/M07 Q1017 NOSIG",
      "tafRaw": "TAF EPWA 131430Z 1315/1415 12008KT 7000 NSC \n  PROB30 1321/1409 4000 BR \n  BECMG 1402/1405 BKN006 \n  BECMG 1409/1412 4500 FZRA BKN004 \n  PROB40 1409/1412 2000 RASN",
      "metarHtml": "METAR EPWA 131430Z 12005KT 080V150 <span class=\"hl-vis\">CAVOK</span> M03/M07 Q1017 NOSIG",
      "tafHtml": "TAF EPWA 131430Z 1315/1415 12008KT 7000 NSC \n  PROB30 1321/1409 4000 <span class=\"hl\">BR</span> \n  BECMG 1402/1405 BKN006 \n  BECMG 1409/1412 4500 <span class=\"hl\">FZRA</span> BKN004 \n  PROB40 1409/1412 2000 RASN"
    },
    {
      "icao": "EGKK",
      "iata": "LGW",
      "name": "London Gatwick Airport",
      "updatedAt": "131450Z",
      "visibility_m": 10000,
      "taf_visibility_m": null,
      "worst_visibility_m": 10000,
      "ceiling_ft": 700,
      "hazards": [
        "RA"
      ],
      "severityScore": 42,
      "metarRaw": "METAR EGKK 131450Z 22007KT 9999 -RA BKN007 10/10 Q1004",
      "tafRaw": null,
      "metarHtml": "METAR EGKK 131450Z 22007KT 9999 -<span class=\"hl\">RA</span> BKN007 10/10 Q1004",
      "tafHtml": null
    },
    {
      "icao": "LKMT",
      "iata": "OSR",
      "name": "Ostrava Leos Janáček Airport",
      "updatedAt": "131430Z",
      "visibility_m": 6000,
      "taf_visibility_m": 3000,
      "worst_visibility_m": 3000,
      "ceiling_ft": 1600,
      "hazards": [
        "BR",
        "SN"
      ],
      "severityScore": 40,
      "metarRaw": "METAR LKMT 131430Z 22011KT 6000 SCT006 OVC016 M01/M02 Q1017 NOSIG",
      "tafRaw": "TAF LKMT 131100Z 1312/1412 23010KT 9999 BKN012 OVC025 \n  TEMPO 1312/1316 6000 -SN \n  TEMPO 1321/1406 3000 BR \n  BECMG 1408/1410 23015KT BKN036",
      "metarHtml": "METAR LKMT 131430Z 22011KT 6000 SCT006 OVC016 M01/M02 Q1017 NOSIG",
      "tafHtml": "TAF LKMT 131100Z 1312/1412 23010KT 9999 BKN012 OVC025 \n  TEMPO 1312/1316 6000 -<span class=\"hl\">SN</span> \n  TEMPO 1321/1406 3000 <span class=\"hl\">BR</span> \n  BECMG 1408/1410 23015KT BKN036"
    },
    {
      "icao": "LPPT",
      "iata": "LIS",
      "name": "Lisbon Humberto Delgado Airport",
      "updatedAt": "131430Z",
      "visibility_m": 10000,
      "taf_visibility_m": 3000,
      "worst_visibility_m": 3000,
      "ceiling_ft": null,
      "hazards": [
        "TSRA",
        "SHRA"
      ],
      "severityScore": 39,
      "metarRaw": "METAR LPPT 131430Z 27011KT 230V300 9999 SCT020 15/10 Q1010",
      "tafRaw": "TAF LPPT 131100Z 1312/1418 25010KT 9999 SCT020 BKN045 \n  TEMPO 1312/1320 8000 SHRA BKN015 FEW025CB \n  PROB30 \n  TEMPO 1312/1318 VRB15G25KT 3000 TSRA SCT018CB \n  BECMG 1322/1324 29007KT SCT012 \n  PROB40 \n  TEMPO 1400/1409 8000 SHRA BKN010 FEW018CB \n  BECMG 1403/1405 VRB05KT \n  BECMG 1410/1412 32010KT SCT030",
      "metarHtml": "METAR LPPT 131430Z 27011KT 230V300 9999 SCT020 15/10 Q1010",
      "tafHtml": "TAF LPPT 131100Z 1312/1418 25010KT 9999 SCT020 BKN045 \n  TEMPO 1312/1320 8000 <span class=\"hl\">SHRA</span> BKN015 FEW025CB \n  PROB30 \n  TEMPO 1312/1318 VRB15G25KT 3000 <span class=\"hl\">TSRA</span> SCT018CB \n  BECMG 1322/1324 29007KT SCT012 \n  PROB40 \n  TEMPO 1400/1409 8000 <span class=\"hl\">SHRA</span> BKN010 FEW018CB \n  BECMG 1403/1405 VRB05KT \n  BECMG 1410/1412 32010KT SCT030"
    },
    {
      "icao": "LRBV",
      "iata": "GHV",
      "name": "Brașov-Ghimbav International Airport",
      "updatedAt": "131430Z",
      "visibility_m": 1600,
      "taf_visibility_m": 1500,
      "worst_visibility_m": 1500,
      "ceiling_ft": 2300,
      "hazards": [
        "BR",
        "SN"
      ],
      "severityScore": 38,
      "metarRaw": "METAR LRBV 131430Z VRB02KT 1600 -SN BR FEW005 SCT015 BKN023 M06/M08 Q1016",
      "tafRaw": "TAF LRBV 131400Z 1315/1324 VRB04KT 5000 -SN BR BKN015 OVC045 \n  TEMPO 1315/1320 1500 SN BKN005 OVC015",
      "metarHtml": "METAR LRBV 131430Z VRB02KT 1600 -<span class=\"hl\">SN</span> <span class=\"hl\">BR</span> FEW005 SCT015 BKN023 M06/M08 Q1016",
      "tafHtml": "TAF LRBV 131400Z 1315/1324 VRB04KT 5000 -<span class=\"hl\">SN</span> <span class=\"hl\">BR</span> BKN015 OVC045 \n  TEMPO 1315/1320 1500 <span class=\"hl\">SN</span> BKN005 OVC015"
    },
    {
      "icao": "LRCL",
      "iata": "CLJ",
      "name": "Cluj Avram Iancu International Airport",
      "updatedAt": "131430Z",
      "visibility_m": 8000,
      "taf_visibility_m": 1500,
      "worst_visibility_m": 1500,
      "ceiling_ft": 4000,
      "hazards": [
        "SN",
        "BR"
      ],
      "severityScore": 38,
      "metarRaw": "METAR LRCL 131430Z 07006KT 8000 -SN BKN040 OVC050 M08/M10 Q1018",
      "tafRaw": "TAF LRCL 131400Z 1315/1324 08007KT 5000 -SN BR SCT010 BKN045 \n  TEMPO 1315/1316 1500 SN BKN005 OVC015 \n  BECMG 1317/1319 9999 NSW",
      "metarHtml": "METAR LRCL 131430Z 07006KT 8000 -<span class=\"hl\">SN</span> BKN040 OVC050 M08/M10 Q1018",
      "tafHtml": "TAF LRCL 131400Z 1315/1324 08007KT 5000 -<span class=\"hl\">SN</span> <span class=\"hl\">BR</span> SCT010 BKN045 \n  TEMPO 1315/1316 1500 <span class=\"hl\">SN</span> BKN005 OVC015 \n  BECMG 1317/1319 9999 NSW"
    },
    {
      "icao": "LRCV",
      "iata": "CRA",
      "name": "Craiova International Airport",
      "updatedAt": "131430Z",
      "visibility_m": 2500,
      "taf_visibility_m": 1500,
      "worst_visibility_m": 1500,
      "ceiling_ft": 2100,
      "hazards": [
        "BR",
        "SN"
      ],
      "severityScore": 38,
      "metarRaw": "METAR LRCV 131430Z 05002KT 2500 SN BR SCT015 BKN021 OVC040 M04/M05 Q1020",
      "tafRaw": "TAF LRCV 131400Z 1315/1324 VRB04KT 5000 -SN BR BKN035 \n  PROB40 \n  TEMPO 1315/1316 1500 SN BKN010 OVC035 \n  BECMG 1318/1320 7000 NSW",
      "metarHtml": "METAR LRCV 131430Z 05002KT 2500 <span class=\"hl\">SN</span> <span class=\"hl\">BR</span> SCT015 BKN021 OVC040 M04/M05 Q1020",
      "tafHtml": "TAF LRCV 131400Z 1315/1324 VRB04KT 5000 -<span class=\"hl\">SN</span> <span class=\"hl\">BR</span> BKN035 \n  PROB40 \n  TEMPO 1315/1316 1500 <span class=\"hl\">SN</span> BKN010 OVC035 \n  BECMG 1318/1320 7000 NSW"
    },
    {
      "icao": "LZKZ",
      "iata": "KSC",
      "name": "Košice International Airport",
      "updatedAt": "131430Z",
      "visibility_m": 10000,
      "taf_visibility_m": 1200,
      "worst_visibility_m": 1200,
      "ceiling_ft": 4700,
      "hazards": [
        "BR",
        "SN"
      ],
      "severityScore": 38,
      "metarRaw": "METAR LZKZ 131430Z 03002KT 9999 FEW038 BKN047 M06/M09 Q1018 NOSIG",
      "tafRaw": "TAF LZKZ 131115Z 1312/1412 VRB02KT 6000 -SN OVC017 \n  TEMPO 1312/1315 1200 SN OVC004 \n  BECMG 1315/1317 9999 NSW \n  PROB40 \n  TEMPO 1400/1405 4000 BR BKN004 OVC008",
      "metarHtml": "METAR LZKZ 131430Z 03002KT 9999 FEW038 BKN047 M06/M09 Q1018 NOSIG",
      "tafHtml": "TAF LZKZ 131115Z 1312/1412 VRB02KT 6000 -<span class=\"hl\">SN</span> OVC017 \n  TEMPO 1312/1315 1200 <span class=\"hl\">SN</span> OVC004 \n  BECMG 1315/1317 9999 NSW \n  PROB40 \n  TEMPO 1400/1405 4000 <span class=\"hl\">BR</span> BKN004 OVC008"
    },
    {
      "icao": "UBBB",
      "iata": "GYD",
      "name": "Heydar Aliyev International Airport",
      "updatedAt": "131430Z",
      "visibility_m": 10000,
      "taf_visibility_m": 4000,
      "worst_visibility_m": 4000,
      "ceiling_ft": 1900,
      "hazards": [
        "RA",
        "SHRA"
      ],
      "severityScore": 38,
      "metarRaw": "METAR UBBB 131430Z 01012KT 9999 -RA OVC019 08/05 Q1010 NOSIG",
      "tafRaw": "TAF UBBB 131057Z 1312/1412 35014KT 9999 BKN020 TX08/1312Z TN03/1401Z \n  TEMPO 1312/1314 02018KT SCT009 \n  BECMG 1314/1316 36022KT \n  TEMPO 1316/1322 33022G32KT 5000 -RA SCT008 OVC020 \n  BECMG 1322/1324 34028G38KT \n  TEMPO 1400/1412 34032G42KT 4000 -SHRA SCT008 SCT030CB BKN030",
      "metarHtml": "METAR UBBB 131430Z 01012KT 9999 -<span class=\"hl\">RA</span> OVC019 08/05 Q1010 NOSIG",
      "tafHtml": "TAF UBBB 131057Z 1312/1412 35014KT 9999 BKN020 TX08/1312Z TN03/1401Z \n  TEMPO 1312/1314 02018KT SCT009 \n  BECMG 1314/1316 36022KT \n  TEMPO 1316/1322 33022G32KT 5000 -<span class=\"hl\">RA</span> SCT008 OVC020 \n  BECMG 1322/1324 34028G38KT \n  TEMPO 1400/1412 34032G42KT 4000 -<span class=\"hl\">SHRA</span> SCT008 SCT030CB BKN030"
    },
    {
      "icao": "UDSG",
      "iata": "LWN",
      "name": "Shirak International Airport",
      "updatedAt": "131430Z",
      "visibility_m": 7000,
      "taf_visibility_m": 1000,
      "worst_visibility_m": 1000,
      "ceiling_ft": 3600,
      "hazards": [
        "BR",
        "SN"
      ],
      "severityScore": 38,
      "metarRaw": "METAR UDSG 131430Z 31004KT 7000 OVC036 00/00 Q1005 NOSIG",
      "tafRaw": "TAF UDSG 131100Z 1312/1412 VRB06KT 5000 BR BKN030 \n  TEMPO 1312/1321 35016KT 1000 SN BR OVC010",
      "metarHtml": "METAR UDSG 131430Z 31004KT 7000 OVC036 00/00 Q1005 NOSIG",
      "tafHtml": "TAF UDSG 131100Z 1312/1412 VRB06KT 5000 <span class=\"hl\">BR</span> BKN030 \n  TEMPO 1312/1321 35016KT 1000 <span class=\"hl\">SN</span> <span class=\"hl\">BR</span> OVC010"
    },
    {
      "icao": "UGKO",
      "iata": "KUT",
      "name": "David the Builder Kutaisi International Airport",
      "updatedAt": "131430Z",
      "visibility_m": 10000,
      "taf_visibility_m": 2000,
      "worst_visibility_m": 2000,
      "ceiling_ft": 1900,
      "hazards": [
        "BR",
        "SHRA"
      ],
      "severityScore": 36,
      "metarRaw": "METAR UGKO 131430Z 26010KT 9999 FEW011 SCT014 BKN019 03/02 Q1017 NOSIG",
      "tafRaw": "TAF UGKO 131100Z 1312/1412 25007KT 9999 OVC045 TX06/1411Z TN01/1403Z \n  TEMPO 1312/1317 26017KT 2500 SHRA BKN015CB OVC030 \n  TEMPO 1317/1324 26017KT 2000 RASN BR BKN008 OVC025 \n  BECMG 1405/1408 BKN050 \n  TEMPO 1406/1412 CAVOK",
      "metarHtml": "METAR UGKO 131430Z 26010KT 9999 FEW011 SCT014 BKN019 03/02 Q1017 NOSIG",
      "tafHtml": "TAF UGKO 131100Z 1312/1412 25007KT 9999 OVC045 TX06/1411Z TN01/1403Z \n  TEMPO 1312/1317 26017KT 2500 <span class=\"hl\">SHRA</span> BKN015CB OVC030 \n  TEMPO 1317/1324 26017KT 2000 RASN <span class=\"hl\">BR</span> BKN008 OVC025 \n  BECMG 1405/1408 BKN050 \n  TEMPO 1406/1412 <span class=\"hl-vis\">CAVOK</span>"
    },
    {
      "icao": "LYNI",
      "iata": "INI",
      "name": "Niš Constantine the Great Airport",
      "updatedAt": "131430Z",
      "visibility_m": 10000,
      "taf_visibility_m": 10000,
      "worst_visibility_m": 10000,
      "ceiling_ft": 8300,
      "hazards": [
        "FZRA"
      ],
      "severityScore": 35,
      "metarRaw": "METAR LYNI 131430Z 11004KT 9999 SCT060 BKN083 00/M03 Q1021 NOSIG",
      "tafRaw": "TAF LYNI 131100Z 1312/1412 24004KT 9999 SCT043 BKN070 TX03/1412Z TNM01/1315Z \n  PROB30 \n  TEMPO 1315/1318 -FZRA",
      "metarHtml": "METAR LYNI 131430Z 11004KT 9999 SCT060 BKN083 00/M03 Q1021 NOSIG",
      "tafHtml": "TAF LYNI 131100Z 1312/1412 24004KT 9999 SCT043 BKN070 TX03/1412Z TNM01/1315Z \n  PROB30 \n  TEMPO 1315/1318 -<span class=\"hl\">FZRA</span>"
    },
    {
      "icao": "EGBB",
      "iata": "BHX",
      "name": "Birmingham Airport",
      "updatedAt": "131450Z",
      "visibility_m": 10000,
      "taf_visibility_m": 3000,
      "worst_visibility_m": 3000,
      "ceiling_ft": 1700,
      "hazards": [
        "BR",
        "RA"
      ],
      "severityScore": 34,
      "metarRaw": "METAR EGBB 131450Z 32012KT 9999 SCT010 BKN017 08/05 Q1003",
      "tafRaw": "TAF EGBB 131055Z 1312/1412 17010KT 9999 BKN007 \n  BECMG 1312/1315 27006KT SCT025 \n  TEMPO 1312/1318 6000 RA BKN012 \n  PROB30 \n  TEMPO 1312/1317 3000 +RA BKN007 \n  PROB30 \n  TEMPO 1318/1402 8000 \n  PROB30 1402/1410 3000 BR",
      "metarHtml": "METAR EGBB 131450Z 32012KT 9999 SCT010 BKN017 08/05 Q1003",
      "tafHtml": "TAF EGBB 131055Z 1312/1412 17010KT 9999 BKN007 \n  BECMG 1312/1315 27006KT SCT025 \n  TEMPO 1312/1318 6000 <span class=\"hl\">RA</span> BKN012 \n  PROB30 \n  TEMPO 1312/1317 3000 +<span class=\"hl\">RA</span> BKN007 \n  PROB30 \n  TEMPO 1318/1402 8000 \n  PROB30 1402/1410 3000 <span class=\"hl\">BR</span>"
    },
    {
      "icao": "LHBP",
      "iata": "BUD",
      "name": "Budapest Liszt Ferenc International Airport",
      "updatedAt": "131430Z",
      "visibility_m": 7000,
      "taf_visibility_m": null,
      "worst_visibility_m": 7000,
      "ceiling_ft": 900,
      "hazards": [],
      "severityScore": 30,
      "metarRaw": "METAR LHBP 131430Z 08003KT 020V130 7000 OVC013 M05/M07 Q1018 TEMPO OVC009",
      "tafRaw": null,
      "metarHtml": "METAR LHBP 131430Z 08003KT 020V130 7000 OVC013 M05/M07 Q1018 TEMPO OVC009",
      "tafHtml": null
    },
    {
      "icao": "LZIB",
      "iata": "BTS",
      "name": "M. R. Štefánik Airport",
      "updatedAt": "131430Z",
      "visibility_m": 6000,
      "taf_visibility_m": null,
      "worst_visibility_m": 6000,
      "ceiling_ft": 500,
      "hazards": [],
      "severityScore": 30,
      "metarRaw": "METAR LZIB 131430Z 05004KT 6000 FEW004 BKN005 OVC010 M03/M03 Q1018 NOSIG",
      "tafRaw": null,
      "metarHtml": "METAR LZIB 131430Z 05004KT 6000 FEW004 BKN005 OVC010 M03/M03 Q1018 NOSIG",
      "tafHtml": null
    },
    {
      "icao": "LRIA",
      "iata": "IAS",
      "name": "Iaşi Airport",
      "updatedAt": "131430Z",
      "visibility_m": 10000,
      "taf_visibility_m": 3000,
      "worst_visibility_m": 3000,
      "ceiling_ft": null,
      "hazards": [
        "BR",
        "SN"
      ],
      "severityScore": 28,
      "metarRaw": "METAR LRIA 131430Z 09007KT CAVOK M04/M06 Q1018",
      "tafRaw": "TAF LRIA 131400Z 1315/1324 10006KT CAVOK \n  PROB30 \n  TEMPO 1317/1321 5000 -SN BKN015 BKN030 \n  BECMG 1322/1324 3000 BR",
      "metarHtml": "METAR LRIA 131430Z 09007KT <span class=\"hl-vis\">CAVOK</span> M04/M06 Q1018",
      "tafHtml": "TAF LRIA 131400Z 1315/1324 10006KT <span class=\"hl-vis\">CAVOK</span> \n  PROB30 \n  TEMPO 1317/1321 5000 -<span class=\"hl\">SN</span> BKN015 BKN030 \n  BECMG 1322/1324 3000 <span class=\"hl\">BR</span>"
    },
    {
      "icao": "LRBS",
      "iata": "BBU",
      "name": "Bucharest Băneasa Aurel Vlaicu International Airport",
      "updatedAt": "131430Z",
      "visibility_m": 10000,
      "taf_visibility_m": 3000,
      "worst_visibility_m": 3000,
      "ceiling_ft": null,
      "hazards": [
        "BR",
        "SN"
      ],
      "severityScore": 28,
      "metarRaw": "METAR LRBS 131430Z 24006KT CAVOK M04/M09 Q1021 NOSIG",
      "tafRaw": "TAF LRBS 131100Z 1312/1412 25006KT CAVOK \n  PROB40 \n  TEMPO 1315/1320 5000 -SN BR BKN010 BKN045 \n  TEMPO 1401/1407 3000 BR",
      "metarHtml": "METAR LRBS 131430Z 24006KT <span class=\"hl-vis\">CAVOK</span> M04/M09 Q1021 NOSIG",
      "tafHtml": "TAF LRBS 131100Z 1312/1412 25006KT <span class=\"hl-vis\">CAVOK</span> \n  PROB40 \n  TEMPO 1315/1320 5000 -<span class=\"hl\">SN</span> <span class=\"hl\">BR</span> BKN010 BKN045 \n  TEMPO 1401/1407 3000 <span class=\"hl\">BR</span>"
    },
    {
      "icao": "LROP",
      "iata": "OTP",
      "name": "Bucharest Henri Coandă International Airport",
      "updatedAt": "131430Z",
      "visibility_m": 10000,
      "taf_visibility_m": 3000,
      "worst_visibility_m": 3000,
      "ceiling_ft": null,
      "hazards": [
        "BR",
        "SN"
      ],
      "severityScore": 28,
      "metarRaw": "METAR LROP 131430Z 22006KT CAVOK M04/M10 Q1021 NOSIG",
      "tafRaw": "TAF LROP 131100Z 1312/1412 25006KT CAVOK \n  PROB40 \n  TEMPO 1315/1320 5000 -SN BR BKN010 BKN045 \n  TEMPO 1401/1407 3000 BR",
      "metarHtml": "METAR LROP 131430Z 22006KT <span class=\"hl-vis\">CAVOK</span> M04/M10 Q1021 NOSIG",
      "tafHtml": "TAF LROP 131100Z 1312/1412 25006KT <span class=\"hl-vis\">CAVOK</span> \n  PROB40 \n  TEMPO 1315/1320 5000 -<span class=\"hl\">SN</span> <span class=\"hl\">BR</span> BKN010 BKN045 \n  TEMPO 1401/1407 3000 <span class=\"hl\">BR</span>"
    },
    {
      "icao": "EGPF",
      "iata": "GLA",
      "name": "Glasgow Airport",
      "updatedAt": "131450Z",
      "visibility_m": 10000,
      "taf_visibility_m": 6000,
      "worst_visibility_m": 6000,
      "ceiling_ft": 2400,
      "hazards": [
        "RA",
        "SHRA"
      ],
      "severityScore": 26,
      "metarRaw": "METAR EGPF 131450Z AUTO 28010KT 9999 -RA SCT019 BKN024 BKN028 05/03 Q1000",
      "tafRaw": "TAF EGPF 131057Z 1312/1412 25009KT 9999 FEW015 SCT025 \n  PROB30 \n  TEMPO 1312/1406 7000 SHRA BKN010 \n  PROB30 \n  TEMPO 1406/1409 6000 \n  BECMG 1409/1412 19012KT",
      "metarHtml": "METAR EGPF 131450Z AUTO 28010KT 9999 -<span class=\"hl\">RA</span> SCT019 BKN024 BKN028 05/03 Q1000",
      "tafHtml": "TAF EGPF 131057Z 1312/1412 25009KT 9999 FEW015 SCT025 \n  PROB30 \n  TEMPO 1312/1406 7000 <span class=\"hl\">SHRA</span> BKN010 \n  PROB30 \n  TEMPO 1406/1409 6000 \n  BECMG 1409/1412 19012KT"
    },
    {
      "icao": "ENBR",
      "iata": "BGO",
      "name": "Bergen Airport, Flesland",
      "updatedAt": "131450Z",
      "visibility_m": 10000,
      "taf_visibility_m": 10000,
      "worst_visibility_m": 10000,
      "ceiling_ft": 2800,
      "hazards": [
        "RA",
        "SHRA"
      ],
      "severityScore": 26,
      "metarRaw": "METAR ENBR 131450Z 12010KT 100V160 9999 BKN028 03/M00 Q1000 NOSIG RMK WIND 1200FT 13024KT",
      "tafRaw": "TAF ENBR 131100Z 1312/1412 13015KT 9999 -RA BKN035 \n  TEMPO 1316/1404 RA BKN014 \n  TEMPO 1400/1406 14018G30KT \n  TEMPO 1404/1406 SHRA BKN006 SCT018CB \n  BECMG 1404/1406 26010KT \n  TEMPO 1406/1412 BKN018TCU",
      "metarHtml": "METAR ENBR 131450Z 12010KT 100V160 9999 BKN028 03/M00 Q1000 NOSIG RMK WIND 1200FT 13024KT",
      "tafHtml": "TAF ENBR 131100Z 1312/1412 13015KT 9999 -<span class=\"hl\">RA</span> BKN035 \n  TEMPO 1316/1404 <span class=\"hl\">RA</span> BKN014 \n  TEMPO 1400/1406 14018G30KT \n  TEMPO 1404/1406 <span class=\"hl\">SHRA</span> BKN006 SCT018CB \n  BECMG 1404/1406 26010KT \n  TEMPO 1406/1412 BKN018TCU"
    },
    {
      "icao": "LLBG",
      "iata": "TLV",
      "name": "Ben Gurion International Airport",
      "updatedAt": "131450Z",
      "visibility_m": 7000,
      "taf_visibility_m": 6000,
      "worst_visibility_m": 6000,
      "ceiling_ft": 2900,
      "hazards": [
        "RA",
        "SHRA"
      ],
      "severityScore": 26,
      "metarRaw": "METAR LLBG 131450Z 27020KT 9999 -RA BKN029 13/08 Q1016 TEMPO 27025G35KT 7000 RA FEW020TCU",
      "tafRaw": "TAF LLBG 131110Z 1312/1412 27018G28KT 9999 SCT040 \n  TEMPO 1312/1316 28025G40KT 6000 SHRA FEW025TCU BKN030 \n  BECMG 1316/1318 30012KT \n  PROB40 \n  TEMPO 1318/1407 VRB05KT 8000 RA BKN030 TX16/1312Z TN12/1404Z",
      "metarHtml": "METAR LLBG 131450Z 27020KT 9999 -<span class=\"hl\">RA</span> BKN029 13/08 Q1016 TEMPO 27025G35KT 7000 <span class=\"hl\">RA</span> FEW020TCU",
      "tafHtml": "TAF LLBG 131110Z 1312/1412 27018G28KT 9999 SCT040 \n  TEMPO 1312/1316 28025G40KT 6000 <span class=\"hl\">SHRA</span> FEW025TCU BKN030 \n  BECMG 1316/1318 30012KT \n  PROB40 \n  TEMPO 1318/1407 VRB05KT 8000 <span class=\"hl\">RA</span> BKN030 TX16/1312Z TN12/1404Z"
    },
    {
      "icao": "LPMA",
      "iata": "FNC",
      "name": "Madeira International Airport Cristiano Ronaldo",
      "updatedAt": "131430Z",
      "visibility_m": 10000,
      "taf_visibility_m": 8000,
      "worst_visibility_m": 8000,
      "ceiling_ft": 1500,
      "hazards": [
        "SHRA"
      ],
      "severityScore": 26,
      "metarRaw": "METAR LPMA 131430Z VRB07G19KT 9999 BKN015 FEW018CB 16/09 Q1018",
      "tafRaw": "TAF LPMA 131100Z 1312/1412 34010KT 9999 SCT015 \n  TEMPO 1312/1322 8000 SHRA BKN013 FEW018CB \n  PROB40 \n  TEMPO 1312/1412 35015G27KT",
      "metarHtml": "METAR LPMA 131430Z VRB07G19KT 9999 BKN015 FEW018CB 16/09 Q1018",
      "tafHtml": "TAF LPMA 131100Z 1312/1412 34010KT 9999 SCT015 \n  TEMPO 1312/1322 8000 <span class=\"hl\">SHRA</span> BKN013 FEW018CB \n  PROB40 \n  TEMPO 1312/1412 35015G27KT"
    },
    {
      "icao": "LPPR",
      "iata": "OPO",
      "name": "Francisco de Sá Carneiro Airport",
      "updatedAt": "131430Z",
      "visibility_m": 10000,
      "taf_visibility_m": 3000,
      "worst_visibility_m": 3000,
      "ceiling_ft": 1900,
      "hazards": [
        "SHRA"
      ],
      "severityScore": 26,
      "metarRaw": "METAR LPPR 131430Z 21011KT 9999 VCSH BKN019 FEW023TCU 14/11 Q1008",
      "tafRaw": "TAF LPPR 131100Z 1312/1412 18012KT 9999 SCT015 BKN030 \n  TEMPO 1312/1412 8000 SHRA BKN012 FEW020CB \n  PROB30 \n  TEMPO 1312/1324 3000 TSRAGS BKN008 SCT016CB \n  BECMG 1315/1318 14008KT \n  BECMG 1322/1324 12008KT",
      "metarHtml": "METAR LPPR 131430Z 21011KT 9999 VCSH BKN019 FEW023TCU 14/11 Q1008",
      "tafHtml": "TAF LPPR 131100Z 1312/1412 18012KT 9999 SCT015 BKN030 \n  TEMPO 1312/1412 8000 <span class=\"hl\">SHRA</span> BKN012 FEW020CB \n  PROB30 \n  TEMPO 1312/1324 3000 TSRAGS BKN008 SCT016CB \n  BECMG 1315/1318 14008KT \n  BECMG 1322/1324 12008KT"
    },
    {
      "icao": "GMMX",
      "iata": "RAK",
      "name": "Menara Airport",
      "updatedAt": "131430Z",
      "visibility_m": 10000,
      "taf_visibility_m": 3000,
      "worst_visibility_m": 3000,
      "ceiling_ft": 8000,
      "hazards": [
        "TSRA"
      ],
      "severityScore": 25,
      "metarRaw": "METAR GMMX 131430Z 35010KT 310V030 9999 BKN080 19/06 Q1015 NOSIG",
      "tafRaw": "TAF GMMX 131100Z 1312/1418 12006KT 8000 NSC \n  TEMPO 1316/1408 34018G28KT 3000 TSRA SCT010 BKN016 FEW023CB",
      "metarHtml": "METAR GMMX 131430Z 35010KT 310V030 9999 BKN080 19/06 Q1015 NOSIG",
      "tafHtml": "TAF GMMX 131100Z 1312/1418 12006KT 8000 NSC \n  TEMPO 1316/1408 34018G28KT 3000 <span class=\"hl\">TSRA</span> SCT010 BKN016 FEW023CB"
    },
    {
      "icao": "EDFH",
      "iata": "HHN",
      "name": "Frankfurt-Hahn Airport",
      "updatedAt": "131450Z",
      "visibility_m": 10000,
      "taf_visibility_m": 1200,
      "worst_visibility_m": 1200,
      "ceiling_ft": null,
      "hazards": [
        "RA"
      ],
      "severityScore": 22,
      "metarRaw": "METAR EDFH 131450Z 17006KT CAVOK 08/05 Q1010",
      "tafRaw": "TAF EDFH 131100Z 1312/1412 18008KT 9999 SCT020 BKN045 \n  BECMG 1403/1406 OVC005 \n  BECMG 1405/1408 25008KT \n  TEMPO 1405/1412 1200 RA BKN002",
      "metarHtml": "METAR EDFH 131450Z 17006KT <span class=\"hl-vis\">CAVOK</span> 08/05 Q1010",
      "tafHtml": "TAF EDFH 131100Z 1312/1412 18008KT 9999 SCT020 BKN045 \n  BECMG 1403/1406 OVC005 \n  BECMG 1405/1408 25008KT \n  TEMPO 1405/1412 1200 <span class=\"hl\">RA</span> BKN002"
    },
    {
      "icao": "HESX",
      "iata": "SPX",
      "name": "Sphinx International Airport",
      "updatedAt": "131400Z",
      "visibility_m": 10000,
      "taf_visibility_m": 1000,
      "worst_visibility_m": 1000,
      "ceiling_ft": null,
      "hazards": [
        "RA"
      ],
      "severityScore": 22,
      "metarRaw": "METAR HESX 131400Z 29012KT 9999 SCT020 SCT100 13/05 Q1020 NOSIG",
      "tafRaw": "TAF HESX 131100Z 1312/1418 26013G25KT 6000 SCT020 BKN100 \n  TEMPO 1312/1321 3000 -RA SA BKN020 \n  PROB30 \n  TEMPO 1312/1317 1000 \n  TEMPO 1400/1407 32007KT 3000 HZ BKN020",
      "metarHtml": "METAR HESX 131400Z 29012KT 9999 SCT020 SCT100 13/05 Q1020 NOSIG",
      "tafHtml": "TAF HESX 131100Z 1312/1418 26013G25KT 6000 SCT020 BKN100 \n  TEMPO 1312/1321 3000 -<span class=\"hl\">RA</span> SA BKN020 \n  PROB30 \n  TEMPO 1312/1317 1000 \n  TEMPO 1400/1407 32007KT 3000 HZ BKN020"
    },
    {
      "icao": "LEZL",
      "iata": "SVQ",
      "name": "Sevilla Airport",
      "updatedAt": "131430Z",
      "visibility_m": 10000,
      "taf_visibility_m": 4000,
      "worst_visibility_m": 4000,
      "ceiling_ft": 2500,
      "hazards": [
        "BR",
        "RA"
      ],
      "severityScore": 22,
      "metarRaw": "METAR LEZL 131430Z 23017KT 200V260 9999 FEW020TCU BKN025 16/14 Q1013 RERA NOSIG",
      "tafRaw": "TAF LEZL 131400Z 1315/1415 22010KT 9999 SCT030 TX18/1315Z TN08/1407Z \n  PROB40 \n  TEMPO 1315/1409 4000 RA BR BKN014 \n  BECMG 1320/1323 VRB03KT",
      "metarHtml": "METAR LEZL 131430Z 23017KT 200V260 9999 FEW020TCU BKN025 16/14 Q1013 RERA NOSIG",
      "tafHtml": "TAF LEZL 131400Z 1315/1415 22010KT 9999 SCT030 TX18/1315Z TN08/1407Z \n  PROB40 \n  TEMPO 1315/1409 4000 <span class=\"hl\">RA</span> <span class=\"hl\">BR</span> BKN014 \n  BECMG 1320/1323 VRB03KT"
    },
    {
      "icao": "EBCI",
      "iata": "CRL",
      "name": "Brussels South Charleroi Airport",
      "updatedAt": "131450Z",
      "visibility_m": 10000,
      "taf_visibility_m": 2000,
      "worst_visibility_m": 2000,
      "ceiling_ft": null,
      "hazards": [
        "BR",
        "DZ"
      ],
      "severityScore": 20,
      "metarRaw": "METAR EBCI 131450Z 18011KT CAVOK 10/05 Q1008 NOSIG",
      "tafRaw": "TAF EBCI 131100Z 1312/1418 19010KT 9999 SCT020 \n  BECMG 1403/1405 SCT004 BKN008 \n  TEMPO 1405/1415 3000 -RADZ BKN004 \n  PROB40 \n  TEMPO 1415/1418 2000 -DZ BR BKN003",
      "metarHtml": "METAR EBCI 131450Z 18011KT <span class=\"hl-vis\">CAVOK</span> 10/05 Q1008 NOSIG",
      "tafHtml": "TAF EBCI 131100Z 1312/1418 19010KT 9999 SCT020 \n  BECMG 1403/1405 SCT004 BKN008 \n  TEMPO 1405/1415 3000 -RADZ BKN004 \n  PROB40 \n  TEMPO 1415/1418 2000 -<span class=\"hl\">DZ</span> <span class=\"hl\">BR</span> BKN003"
    },
    {
      "icao": "EHBK",
      "iata": "MST",
      "name": "Maastricht Aachen Airport",
      "updatedAt": "131455Z",
      "visibility_m": 10000,
      "taf_visibility_m": 2000,
      "worst_visibility_m": 2000,
      "ceiling_ft": null,
      "hazards": [
        "BR",
        "DZ"
      ],
      "severityScore": 20,
      "metarRaw": "METAR EHBK 131455Z AUTO 18007KT 9999 NSC 11/07 Q1008 NOSIG",
      "tafRaw": "TAF EHBK 131124Z 1312/1418 20013KT 9999 BKN018 \n  PROB40 \n  TEMPO 1312/1313 7000 -RADZ BKN012 \n  BECMG 1403/1406 4000 RADZ BKN008 \n  BECMG 1406/1409 25007KT \n  PROB40 1408/1416 VRB02KT 2000 BR DZ BKN002",
      "metarHtml": "METAR EHBK 131455Z AUTO 18007KT 9999 NSC 11/07 Q1008 NOSIG",
      "tafHtml": "TAF EHBK 131124Z 1312/1418 20013KT 9999 BKN018 \n  PROB40 \n  TEMPO 1312/1313 7000 -RADZ BKN012 \n  BECMG 1403/1406 4000 RADZ BKN008 \n  BECMG 1406/1409 25007KT \n  PROB40 1408/1416 VRB02KT 2000 <span class=\"hl\">BR</span> <span class=\"hl\">DZ</span> BKN002"
    },
    {
      "icao": "LOWW",
      "iata": "VIE",
      "name": "Vienna International Airport",
      "updatedAt": "131450Z",
      "visibility_m": 3900,
      "taf_visibility_m": 1500,
      "worst_visibility_m": 1500,
      "ceiling_ft": 3600,
      "hazards": [
        "BR"
      ],
      "severityScore": 20,
      "metarRaw": "METAR LOWW 131450Z 18006KT 3900 BR FEW030 SCT032 BKN036 M00/M01 Q1018 TEMPO 5000 BR",
      "tafRaw": "TAF LOWW 131415Z 1315/1421 14005KT 6000 FEW020 BKN040 TXM00/1315Z TNM02/1418Z \n  TEMPO 1315/1320 4000 BR \n  BECMG 1318/1320 FEW005 BKN008 \n  TEMPO 1320/1418 2500 BR FEW002 BKN004 \n  TEMPO 1400/1411 13010KT \n  BECMG 1418/1420 1500 BR BKN004",
      "metarHtml": "METAR LOWW 131450Z 18006KT 3900 <span class=\"hl\">BR</span> FEW030 SCT032 BKN036 M00/M01 Q1018 TEMPO 5000 <span class=\"hl\">BR</span>",
      "tafHtml": "TAF LOWW 131415Z 1315/1421 14005KT 6000 FEW020 BKN040 TXM00/1315Z TNM02/1418Z \n  TEMPO 1315/1320 4000 <span class=\"hl\">BR</span> \n  BECMG 1318/1320 FEW005 BKN008 \n  TEMPO 1320/1418 2500 <span class=\"hl\">BR</span> FEW002 BKN004 \n  TEMPO 1400/1411 13010KT \n  BECMG 1418/1420 1500 <span class=\"hl\">BR</span> BKN004"
    },
    {
      "icao": "ESKN",
      "iata": "NYO",
      "name": "Stockholm Skavsta Airport",
      "updatedAt": "131450Z",
      "visibility_m": 10000,
      "taf_visibility_m": 2000,
      "worst_visibility_m": 2000,
      "ceiling_ft": 3500,
      "hazards": [
        "SN"
      ],
      "severityScore": 18,
      "metarRaw": "METAR ESKN 131450Z 10005KT 9999 SCT006 BKN035 M01/M01 Q1015",
      "tafRaw": "TAF ESKN 131430Z 1315/1415 11007KT 9999 BKN018 \n  TEMPO 1315/1318 2500 SN -SG BKN012 \n  BECMG 1318/1320 17016G26KT 2000 SN OVC012 \n  TEMPO 1320/1408 6000 -SN OVC006 \n  TEMPO 1408/1415 8000 -RASN OVC003",
      "metarHtml": "METAR ESKN 131450Z 10005KT 9999 SCT006 BKN035 M01/M01 Q1015",
      "tafHtml": "TAF ESKN 131430Z 1315/1415 11007KT 9999 BKN018 \n  TEMPO 1315/1318 2500 <span class=\"hl\">SN</span> -SG BKN012 \n  BECMG 1318/1320 17016G26KT 2000 <span class=\"hl\">SN</span> OVC012 \n  TEMPO 1320/1408 6000 -<span class=\"hl\">SN</span> OVC006 \n  TEMPO 1408/1415 8000 -RASN OVC003"
    },
    {
      "icao": "LBWN",
      "iata": "VAR",
      "name": "Varna Airport",
      "updatedAt": "131430Z",
      "visibility_m": 10000,
      "taf_visibility_m": 3000,
      "worst_visibility_m": 3000,
      "ceiling_ft": null,
      "hazards": [
        "SN"
      ],
      "severityScore": 18,
      "metarRaw": "METAR LBWN 131430Z 13004KT CAVOK 02/M08 Q1021 NOSIG",
      "tafRaw": "TAF LBWN 131100Z 1312/1412 VRB04KT 9999 SCT050 \n  TEMPO 1317/1323 3000 SN BKN015 OVC030 \n  BECMG 1400/1402 30010KT",
      "metarHtml": "METAR LBWN 131430Z 13004KT <span class=\"hl-vis\">CAVOK</span> 02/M08 Q1021 NOSIG",
      "tafHtml": "TAF LBWN 131100Z 1312/1412 VRB04KT 9999 SCT050 \n  TEMPO 1317/1323 3000 <span class=\"hl\">SN</span> BKN015 OVC030 \n  BECMG 1400/1402 30010KT"
    },
    {
      "icao": "LRBC",
      "iata": "BCM",
      "name": "Bacău George Enescu International  Airport",
      "updatedAt": "131430Z",
      "visibility_m": 10000,
      "taf_visibility_m": 5000,
      "worst_visibility_m": 5000,
      "ceiling_ft": null,
      "hazards": [
        "SN"
      ],
      "severityScore": 18,
      "metarRaw": "METAR LRBC 131430Z COR 00000KT CAVOK 00/M06 Q1017",
      "tafRaw": "TAF LRBC 131400Z 1315/1324 15010KT CAVOK \n  BECMG 1315/1317 VRB04KT \n  TEMPO 1315/1320 5000 -SN BKN015 BKN040",
      "metarHtml": "METAR LRBC 131430Z COR 00000KT <span class=\"hl-vis\">CAVOK</span> 00/M06 Q1017",
      "tafHtml": "TAF LRBC 131400Z 1315/1324 15010KT <span class=\"hl-vis\">CAVOK</span> \n  BECMG 1315/1317 VRB04KT \n  TEMPO 1315/1320 5000 -<span class=\"hl\">SN</span> BKN015 BKN040"
    },
    {
      "icao": "LRSV",
      "iata": "SCV",
      "name": "Suceava Stefan cel Mare Airport",
      "updatedAt": "131430Z",
      "visibility_m": 10000,
      "taf_visibility_m": 5000,
      "worst_visibility_m": 5000,
      "ceiling_ft": null,
      "hazards": [
        "SN"
      ],
      "severityScore": 18,
      "metarRaw": "METAR LRSV 131430Z 07004KT CAVOK M05/M07 Q1015",
      "tafRaw": "TAF LRSV 131400Z 1315/1324 VRB04KT CAVOK \n  TEMPO 1315/1319 5000 -SN BKN015 OVC030",
      "metarHtml": "METAR LRSV 131430Z 07004KT <span class=\"hl-vis\">CAVOK</span> M05/M07 Q1015",
      "tafHtml": "TAF LRSV 131400Z 1315/1324 VRB04KT <span class=\"hl-vis\">CAVOK</span> \n  TEMPO 1315/1319 5000 -<span class=\"hl\">SN</span> BKN015 OVC030"
    },
    {
      "icao": "EGGW",
      "iata": "LTN",
      "name": "London Luton Airport",
      "updatedAt": "131450Z",
      "visibility_m": 10000,
      "taf_visibility_m": null,
      "worst_visibility_m": 10000,
      "ceiling_ft": null,
      "hazards": [
        "RA"
      ],
      "severityScore": 17,
      "metarRaw": "METAR EGGW 131450Z AUTO 21006KT 9999 -RA SCT035/// BKN046/// //////CB 09/08 Q1002",
      "tafRaw": null,
      "metarHtml": "METAR EGGW 131450Z AUTO 21006KT 9999 -<span class=\"hl\">RA</span> SCT035/// BKN046/// //////CB 09/08 Q1002",
      "tafHtml": null
    },
    {
      "icao": "ENHD",
      "iata": "HAU",
      "name": "Haugesund Airport, Karmøy",
      "updatedAt": "131450Z",
      "visibility_m": 10000,
      "taf_visibility_m": null,
      "worst_visibility_m": 10000,
      "ceiling_ft": 3800,
      "hazards": [
        "RA"
      ],
      "severityScore": 17,
      "metarRaw": "METAR ENHD 131450Z 11020KT 9999 -RA FEW020 BKN038 03/M00 Q0999",
      "tafRaw": null,
      "metarHtml": "METAR ENHD 131450Z 11020KT 9999 -<span class=\"hl\">RA</span> FEW020 BKN038 03/M00 Q0999",
      "tafHtml": null
    },
    {
      "icao": "LEAL",
      "iata": "ALC",
      "name": "Alicante-Elche Miguel Hernández Airport",
      "updatedAt": "131430Z",
      "visibility_m": 4500,
      "taf_visibility_m": null,
      "worst_visibility_m": 4500,
      "ceiling_ft": null,
      "hazards": [
        "BR"
      ],
      "severityScore": 15,
      "metarRaw": "METAR LEAL 131430Z 19005KT 110V240 4500 BR FEW025 15/11 Q1016 NOSIG",
      "tafRaw": null,
      "metarHtml": "METAR LEAL 131430Z 19005KT 110V240 4500 <span class=\"hl\">BR</span> FEW025 15/11 Q1016 NOSIG",
      "tafHtml": null
    },
    {
      "icao": "GCFV",
      "iata": "FUE",
      "name": "Fuerteventura Airport",
      "updatedAt": "131430Z",
      "visibility_m": 10000,
      "taf_visibility_m": 3000,
      "worst_visibility_m": 3000,
      "ceiling_ft": null,
      "hazards": [
        "SHRA"
      ],
      "severityScore": 14,
      "metarRaw": "METAR GCFV 131430Z 29014KT 260V320 9999 FEW015 SCT049 20/13 Q1017",
      "tafRaw": "TAF GCFV 131400Z 1315/1415 33016KT 9999 SCT020 TX19/1414Z TN12/1406Z \n  PROB40 \n  TEMPO 1315/1317 32015G25KT \n  PROB40 \n  TEMPO 1315/1317 3000 SHRA SCT025TCU \n  BECMG 1317/1319 35006KT",
      "metarHtml": "METAR GCFV 131430Z 29014KT 260V320 9999 FEW015 SCT049 20/13 Q1017",
      "tafHtml": "TAF GCFV 131400Z 1315/1415 33016KT 9999 SCT020 TX19/1414Z TN12/1406Z \n  PROB40 \n  TEMPO 1315/1317 32015G25KT \n  PROB40 \n  TEMPO 1315/1317 3000 <span class=\"hl\">SHRA</span> SCT025TCU \n  BECMG 1317/1319 35006KT"
    },
    {
      "icao": "GMAD",
      "iata": "AGA",
      "name": "Al Massira Airport",
      "updatedAt": "131430Z",
      "visibility_m": 10000,
      "taf_visibility_m": 4000,
      "worst_visibility_m": 4000,
      "ceiling_ft": null,
      "hazards": [
        "SHRA"
      ],
      "severityScore": 14,
      "metarRaw": "METAR GMAD 131430Z 00000KT CAVOK 22/05 Q1015 NOSIG",
      "tafRaw": "TAF GMAD 131100Z 1312/1418 24014KT 8000 SCT016 BKN080 \n  TEMPO 1318/1406 4000 SHRA SCT030CB",
      "metarHtml": "METAR GMAD 131430Z 00000KT <span class=\"hl-vis\">CAVOK</span> 22/05 Q1015 NOSIG",
      "tafHtml": "TAF GMAD 131100Z 1312/1418 24014KT 8000 SCT016 BKN080 \n  TEMPO 1318/1406 4000 <span class=\"hl\">SHRA</span> SCT030CB"
    },
    {
      "icao": "LCLK",
      "iata": "LCA",
      "name": "Larnaca International Airport",
      "updatedAt": "131430Z",
      "visibility_m": 10000,
      "taf_visibility_m": 5000,
      "worst_visibility_m": 5000,
      "ceiling_ft": 3000,
      "hazards": [
        "SHRA"
      ],
      "severityScore": 14,
      "metarRaw": "METAR LCLK 131430Z 35004KT 9999 FEW020 BKN030 12/07 Q1012 NOSIG",
      "tafRaw": "TAF LCLK 131130Z 1312/1412 30018KT 9999 FEW020CB SCT040 \n  PROB30 \n  TEMPO 1312/1315 5000 SHRA FEW020TCU \n  BECMG 1316/1318 32008KT",
      "metarHtml": "METAR LCLK 131430Z 35004KT 9999 FEW020 BKN030 12/07 Q1012 NOSIG",
      "tafHtml": "TAF LCLK 131130Z 1312/1412 30018KT 9999 FEW020CB SCT040 \n  PROB30 \n  TEMPO 1312/1315 5000 <span class=\"hl\">SHRA</span> FEW020TCU \n  BECMG 1316/1318 32008KT"
    },
    {
      "icao": "LCPH",
      "iata": "PFO",
      "name": "Paphos International Airport",
      "updatedAt": "131430Z",
      "visibility_m": 5000,
      "taf_visibility_m": 5000,
      "worst_visibility_m": 5000,
      "ceiling_ft": null,
      "hazards": [
        "SHRA"
      ],
      "severityScore": 14,
      "metarRaw": "METAR LCPH 131430Z 33020KT 9999 FEW025 SCT045 12/02 Q1013 TEMPO 5000 SHRA",
      "tafRaw": "TAF LCPH 131130Z 1312/1412 30023G33KT 9999 FEW025CB SCT040 \n  PROB30 \n  TEMPO 1312/1316 5000 SHRA FEW020TCU \n  BECMG 1318/1320 35012KT \n  BECMG 1409/1411 31022KT",
      "metarHtml": "METAR LCPH 131430Z 33020KT 9999 FEW025 SCT045 12/02 Q1013 TEMPO 5000 <span class=\"hl\">SHRA</span>",
      "tafHtml": "TAF LCPH 131130Z 1312/1412 30023G33KT 9999 FEW025CB SCT040 \n  PROB30 \n  TEMPO 1312/1316 5000 <span class=\"hl\">SHRA</span> FEW020TCU \n  BECMG 1318/1320 35012KT \n  BECMG 1409/1411 31022KT"
    },
    {
      "icao": "LPFR",
      "iata": "FAO",
      "name": "Faro Airport",
      "updatedAt": "131430Z",
      "visibility_m": 8000,
      "taf_visibility_m": 3000,
      "worst_visibility_m": 3000,
      "ceiling_ft": null,
      "hazards": [
        "SHRA"
      ],
      "severityScore": 14,
      "metarRaw": "METAR LPFR 131430Z 24017KT 8000 -SHRA FEW015 FEW018CB SCT025 14/12 Q1013",
      "tafRaw": "TAF LPFR 131100Z 1312/1412 21017KT 9999 SCT020 \n  TEMPO 1312/1316 22023G33KT 3000 SHRA SCT008 BKN012 FEW018CB \n  BECMG 1316/1318 27012KT \n  BECMG 1320/1323 VRB02KT SCT008 \n  BECMG 1408/1410 SCT015",
      "metarHtml": "METAR LPFR 131430Z 24017KT 8000 -<span class=\"hl\">SHRA</span> FEW015 FEW018CB SCT025 14/12 Q1013",
      "tafHtml": "TAF LPFR 131100Z 1312/1412 21017KT 9999 SCT020 \n  TEMPO 1312/1316 22023G33KT 3000 <span class=\"hl\">SHRA</span> SCT008 BKN012 FEW018CB \n  BECMG 1316/1318 27012KT \n  BECMG 1320/1323 VRB02KT SCT008 \n  BECMG 1408/1410 SCT015"
    },
    {
      "icao": "LPPS",
      "iata": "PXO",
      "name": "Porto Santo Airport",
      "updatedAt": "131430Z",
      "visibility_m": 10000,
      "taf_visibility_m": 8000,
      "worst_visibility_m": 8000,
      "ceiling_ft": null,
      "hazards": [
        "SHRA"
      ],
      "severityScore": 14,
      "metarRaw": "METAR LPPS 131430Z 33016KT 9999 -SHRA SCT014 FEW018TCU 16/11 Q1018",
      "tafRaw": "TAF LPPS 131100Z 1312/1418 34015KT 9999 SCT015 \n  TEMPO 1312/1320 8000 SHRA BKN012 FEW018CB \n  PROB40 \n  TEMPO 1312/1324 34018G28KT",
      "metarHtml": "METAR LPPS 131430Z 33016KT 9999 -<span class=\"hl\">SHRA</span> SCT014 FEW018TCU 16/11 Q1018",
      "tafHtml": "TAF LPPS 131100Z 1312/1418 34015KT 9999 SCT015 \n  TEMPO 1312/1320 8000 <span class=\"hl\">SHRA</span> BKN012 FEW018CB \n  PROB40 \n  TEMPO 1312/1324 34018G28KT"
    },
    {
      "icao": "GCLP",
      "iata": "LPA",
      "name": "Gran Canaria Airport",
      "updatedAt": "131430Z",
      "visibility_m": 4500,
      "taf_visibility_m": 4500,
      "worst_visibility_m": 4500,
      "ceiling_ft": null,
      "hazards": [
        "RA"
      ],
      "severityScore": 12,
      "metarRaw": "METAR GCLP 131430Z 01023KT 9999 SCT020 20/14 Q1018 TEMPO 4500 RA",
      "tafRaw": "TAF GCLP 131400Z 1315/1415 36017KT 9999 FEW025 TX20/1414Z TN16/1406Z \n  PROB40 \n  TEMPO 1315/1317 15006KT \n  PROB40 \n  TEMPO 1315/1403 36018G28KT \n  PROB40 \n  TEMPO 1315/1319 4500 RA",
      "metarHtml": "METAR GCLP 131430Z 01023KT 9999 SCT020 20/14 Q1018 TEMPO 4500 <span class=\"hl\">RA</span>",
      "tafHtml": "TAF GCLP 131400Z 1315/1415 36017KT 9999 FEW025 TX20/1414Z TN16/1406Z \n  PROB40 \n  TEMPO 1315/1317 15006KT \n  PROB40 \n  TEMPO 1315/1403 36018G28KT \n  PROB40 \n  TEMPO 1315/1319 4500 <span class=\"hl\">RA</span>"
    },
    {
      "icao": "GMMN",
      "iata": "CMN",
      "name": "Mohammed V International Airport",
      "updatedAt": "131430Z",
      "visibility_m": 10000,
      "taf_visibility_m": 6000,
      "worst_visibility_m": 6000,
      "ceiling_ft": 10000,
      "hazards": [
        "RA"
      ],
      "severityScore": 12,
      "metarRaw": "METAR GMMN 131430Z 30010KT 9999 SCT016 BKN100 16/12 Q1016 NOSIG",
      "tafRaw": "TAF GMMN 131100Z 1312/1418 22010KT 9999 SCT016 BKN100 \n  PROB30 \n  TEMPO 1316/1324 22015KT 6000 RA BKN016 BKN100 \n  BECMG 1410/1412 28010KT \n  TEMPO 1415/1418 8000 RA BKN016",
      "metarHtml": "METAR GMMN 131430Z 30010KT 9999 SCT016 BKN100 16/12 Q1016 NOSIG",
      "tafHtml": "TAF GMMN 131100Z 1312/1418 22010KT 9999 SCT016 BKN100 \n  PROB30 \n  TEMPO 1316/1324 22015KT 6000 <span class=\"hl\">RA</span> BKN016 BKN100 \n  BECMG 1410/1412 28010KT \n  TEMPO 1415/1418 8000 <span class=\"hl\">RA</span> BKN016"
    },
    {
      "icao": "EDDK",
      "iata": "CGN",
      "name": "Cologne Bonn Airport",
      "updatedAt": "131450Z",
      "visibility_m": 10000,
      "taf_visibility_m": 4000,
      "worst_visibility_m": 4000,
      "ceiling_ft": null,
      "hazards": [
        "RA"
      ],
      "severityScore": 12,
      "metarRaw": "METAR EDDK 131450Z AUTO 14009KT CAVOK 09/06 Q1010 NOSIG",
      "tafRaw": "TAF EDDK 131100Z 1312/1418 15007KT 9999 BKN025 \n  PROB30 \n  TEMPO 1312/1314 4500 RADZ BKN012 \n  PROB40 \n  TEMPO 1405/1418 21005KT RA BKN012 \n  PROB30 \n  TEMPO 1411/1416 4000 DZRA BKN006",
      "metarHtml": "METAR EDDK 131450Z AUTO 14009KT <span class=\"hl-vis\">CAVOK</span> 09/06 Q1010 NOSIG",
      "tafHtml": "TAF EDDK 131100Z 1312/1418 15007KT 9999 BKN025 \n  PROB30 \n  TEMPO 1312/1314 4500 RADZ BKN012 \n  PROB40 \n  TEMPO 1405/1418 21005KT <span class=\"hl\">RA</span> BKN012 \n  PROB30 \n  TEMPO 1411/1416 4000 DZRA BKN006"
    },
    {
      "icao": "EDLW",
      "iata": "DTM",
      "name": "Dortmund Airport",
      "updatedAt": "131450Z",
      "visibility_m": 10000,
      "taf_visibility_m": 4000,
      "worst_visibility_m": 4000,
      "ceiling_ft": null,
      "hazards": [
        "RA"
      ],
      "severityScore": 12,
      "metarRaw": "METAR EDLW 131450Z 19011KT CAVOK 10/07 Q1009",
      "tafRaw": "TAF EDLW 131100Z 1312/1412 20011KT 9999 BKN020 \n  PROB30 \n  TEMPO 1312/1315 4000 -RADZ BKN012 \n  TEMPO 1402/1412 4000 RA BKN012 \n  PROB40 \n  TEMPO 1406/1412 BKN006",
      "metarHtml": "METAR EDLW 131450Z 19011KT <span class=\"hl-vis\">CAVOK</span> 10/07 Q1009",
      "tafHtml": "TAF EDLW 131100Z 1312/1412 20011KT 9999 BKN020 \n  PROB30 \n  TEMPO 1312/1315 4000 -RADZ BKN012 \n  TEMPO 1402/1412 4000 <span class=\"hl\">RA</span> BKN012 \n  PROB40 \n  TEMPO 1406/1412 BKN006"
    },
    {
      "icao": "EETN",
      "iata": "TLL",
      "name": "Lennart Meri Tallinn Airport",
      "updatedAt": "131450Z",
      "visibility_m": 10000,
      "taf_visibility_m": 10000,
      "worst_visibility_m": 10000,
      "ceiling_ft": 1100,
      "hazards": [],
      "severityScore": 12,
      "metarRaw": "METAR EETN 131450Z 14003KT 9999 OVC011 M10/M12 Q1021 NOSIG",
      "tafRaw": "TAF EETN 131130Z 1312/1412 11007KT 9999 FEW009 BKN014 \n  BECMG 1314/1316 BKN018 \n  PROB30 \n  TEMPO 1322/1410 BKN007 \n  BECMG 1406/1408 17010KT",
      "metarHtml": "METAR EETN 131450Z 14003KT 9999 OVC011 M10/M12 Q1021 NOSIG",
      "tafHtml": "TAF EETN 131130Z 1312/1412 11007KT 9999 FEW009 BKN014 \n  BECMG 1314/1316 BKN018 \n  PROB30 \n  TEMPO 1322/1410 BKN007 \n  BECMG 1406/1408 17010KT"
    },
    {
      "icao": "EFTU",
      "iata": "TKU",
      "name": "Turku Airport",
      "updatedAt": "131450Z",
      "visibility_m": 10000,
      "taf_visibility_m": 10000,
      "worst_visibility_m": 10000,
      "ceiling_ft": 1500,
      "hazards": [],
      "severityScore": 12,
      "metarRaw": "METAR EFTU 131450Z AUTO 10008KT 9999 OVC015 M06/M09 Q1021",
      "tafRaw": "TAF EFTU 131426Z 1315/1415 10008KT 9999 OVC012 \n  BECMG 1315/1318 OVC015 \n  TEMPO 1318/1402 OVC012 \n  BECMG 1402/1404 BKN012 \n  TEMPO 1404/1407 BKN015",
      "metarHtml": "METAR EFTU 131450Z AUTO 10008KT 9999 OVC015 M06/M09 Q1021",
      "tafHtml": "TAF EFTU 131426Z 1315/1415 10008KT 9999 OVC012 \n  BECMG 1315/1318 OVC015 \n  TEMPO 1318/1402 OVC012 \n  BECMG 1402/1404 BKN012 \n  TEMPO 1404/1407 BKN015"
    },
    {
      "icao": "EGGP",
      "iata": "LPL",
      "name": "Liverpool John Lennon Airport",
      "updatedAt": "131450Z",
      "visibility_m": 10000,
      "taf_visibility_m": 4000,
      "worst_visibility_m": 4000,
      "ceiling_ft": null,
      "hazards": [
        "RA"
      ],
      "severityScore": 12,
      "metarRaw": "METAR EGGP 131450Z 29008KT 9999 FEW014 06/03 Q1003",
      "tafRaw": "TAF EGGP 131057Z 1312/1412 28010KT 9999 SCT030 \n  TEMPO 1312/1314 6000 RA -RADZ BKN010 \n  PROB30 \n  TEMPO 1312/1313 4000 +RA RADZ BKN006 \n  BECMG 1403/1406 18005KT",
      "metarHtml": "METAR EGGP 131450Z 29008KT 9999 FEW014 06/03 Q1003",
      "tafHtml": "TAF EGGP 131057Z 1312/1412 28010KT 9999 SCT030 \n  TEMPO 1312/1314 6000 <span class=\"hl\">RA</span> -RADZ BKN010 \n  PROB30 \n  TEMPO 1312/1313 4000 +<span class=\"hl\">RA</span> RADZ BKN006 \n  BECMG 1403/1406 18005KT"
    },
    {
      "icao": "EGNM",
      "iata": "LBA",
      "name": "Leeds Bradford Airport",
      "updatedAt": "131450Z",
      "visibility_m": 10000,
      "taf_visibility_m": 4000,
      "worst_visibility_m": 4000,
      "ceiling_ft": null,
      "hazards": [
        "RA"
      ],
      "severityScore": 12,
      "metarRaw": "METAR EGNM 131450Z 29013KT 9999 FEW014 06/03 Q1001",
      "tafRaw": "TAF EGNM 131057Z 1312/1412 20007KT 9999 SCT025 \n  BECMG 1312/1315 27010KT \n  TEMPO 1312/1316 6000 RA -RADZ BKN010 \n  PROB30 \n  TEMPO 1313/1315 4000 +RA RADZ BKN007 \n  PROB30 1404/1412 8000 \n  BECMG 1409/1412 21005KT",
      "metarHtml": "METAR EGNM 131450Z 29013KT 9999 FEW014 06/03 Q1001",
      "tafHtml": "TAF EGNM 131057Z 1312/1412 20007KT 9999 SCT025 \n  BECMG 1312/1315 27010KT \n  TEMPO 1312/1316 6000 <span class=\"hl\">RA</span> -RADZ BKN010 \n  PROB30 \n  TEMPO 1313/1315 4000 +<span class=\"hl\">RA</span> RADZ BKN007 \n  PROB30 1404/1412 8000 \n  BECMG 1409/1412 21005KT"
    },
    {
      "icao": "EGPD",
      "iata": "ABZ",
      "name": "Aberdeen International Airport",
      "updatedAt": "131450Z",
      "visibility_m": 10000,
      "taf_visibility_m": 4000,
      "worst_visibility_m": 4000,
      "ceiling_ft": null,
      "hazards": [
        "RA"
      ],
      "severityScore": 12,
      "metarRaw": "METAR EGPD 131450Z COR AUTO 31008KT 9999 NCD 04/02 Q0996 NOSIG",
      "tafRaw": "TAF EGPD 131055Z 1312/1412 30005KT 9999 FEW005 SCT025 \n  TEMPO 1312/1316 8000 -RA BKN014 \n  PROB30 \n  TEMPO 1312/1314 4000 RA \n  BECMG 1313/1316 24010KT",
      "metarHtml": "METAR EGPD 131450Z COR AUTO 31008KT 9999 NCD 04/02 Q0996 NOSIG",
      "tafHtml": "TAF EGPD 131055Z 1312/1412 30005KT 9999 FEW005 SCT025 \n  TEMPO 1312/1316 8000 -<span class=\"hl\">RA</span> BKN014 \n  PROB30 \n  TEMPO 1312/1314 4000 <span class=\"hl\">RA</span> \n  BECMG 1313/1316 24010KT"
    },
    {
      "icao": "EHEH",
      "iata": "EIN",
      "name": "Eindhoven Airport",
      "updatedAt": "131425Z",
      "visibility_m": 10000,
      "taf_visibility_m": 4000,
      "worst_visibility_m": 4000,
      "ceiling_ft": 7000,
      "hazards": [
        "RA"
      ],
      "severityScore": 12,
      "metarRaw": "METAR EHEH 131425Z AUTO 17008KT 140V230 9999 FEW016 SCT064 BKN070 10/08 Q1007 BLU NOSIG",
      "tafRaw": "TAF EHEH 131140Z 1312/1418 18009KT 9999 BKN018 \n  PROB40 \n  TEMPO 1312/1314 SCT008 BKN012 \n  BECMG 1400/1402 SCT008 BKN010 OVC012 \n  TEMPO 1402/1408 4000 RA SCT003 BKN005 OVC010 \n  BECMG 1407/1409 30005KT SCT020 \n  BECMG 1416/1418 18007KT SCT008 BKN012",
      "metarHtml": "METAR EHEH 131425Z AUTO 17008KT 140V230 9999 FEW016 SCT064 BKN070 10/08 Q1007 BLU NOSIG",
      "tafHtml": "TAF EHEH 131140Z 1312/1418 18009KT 9999 BKN018 \n  PROB40 \n  TEMPO 1312/1314 SCT008 BKN012 \n  BECMG 1400/1402 SCT008 BKN010 OVC012 \n  TEMPO 1402/1408 4000 <span class=\"hl\">RA</span> SCT003 BKN005 OVC010 \n  BECMG 1407/1409 30005KT SCT020 \n  BECMG 1416/1418 18007KT SCT008 BKN012"
    },
    {
      "icao": "ENAL",
      "iata": "AES",
      "name": "Ålesund Airport, Vigra",
      "updatedAt": "131450Z",
      "visibility_m": 10000,
      "taf_visibility_m": 10000,
      "worst_visibility_m": 10000,
      "ceiling_ft": 5200,
      "hazards": [
        "RA"
      ],
      "severityScore": 12,
      "metarRaw": "METAR ENAL 131450Z 13015KT 9999 BKN052 05/M03 Q0999",
      "tafRaw": "TAF ENAL 131400Z 1315/1324 14015KT 9999 BKN045 \n  TEMPO 1316/1319 RA",
      "metarHtml": "METAR ENAL 131450Z 13015KT 9999 BKN052 05/M03 Q0999",
      "tafHtml": "TAF ENAL 131400Z 1315/1324 14015KT 9999 BKN045 \n  TEMPO 1316/1319 <span class=\"hl\">RA</span>"
    },
    {
      "icao": "LFBD",
      "iata": "BOD",
      "name": "Bordeaux–Mérignac Airport",
      "updatedAt": "131430Z",
      "visibility_m": 10000,
      "taf_visibility_m": 10000,
      "worst_visibility_m": 10000,
      "ceiling_ft": null,
      "hazards": [
        "RA"
      ],
      "severityScore": 12,
      "metarRaw": "METAR LFBD 131430Z AUTO 14008KT CAVOK 12/08 Q1009 NOSIG",
      "tafRaw": "TAF LFBD 131100Z 1312/1418 15010KT CAVOK TX14/1314Z TN06/1407Z \n  PROB40 \n  TEMPO 1320/1401 -RA SCT050TCU \n  BECMG 1410/1412 22005KT \n  PROB30 \n  TEMPO 1414/1416 BKN014",
      "metarHtml": "METAR LFBD 131430Z AUTO 14008KT <span class=\"hl-vis\">CAVOK</span> 12/08 Q1009 NOSIG",
      "tafHtml": "TAF LFBD 131100Z 1312/1418 15010KT <span class=\"hl-vis\">CAVOK</span> TX14/1314Z TN06/1407Z \n  PROB40 \n  TEMPO 1320/1401 -<span class=\"hl\">RA</span> SCT050TCU \n  BECMG 1410/1412 22005KT \n  PROB30 \n  TEMPO 1414/1416 BKN014"
    },
    {
      "icao": "LFPO",
      "iata": "ORY",
      "name": "Paris-Orly Airport",
      "updatedAt": "131430Z",
      "visibility_m": 10000,
      "taf_visibility_m": 4000,
      "worst_visibility_m": 4000,
      "ceiling_ft": null,
      "hazards": [
        "RA"
      ],
      "severityScore": 12,
      "metarRaw": "METAR LFPO 131430Z 19005KT 150V230 CAVOK 12/06 Q1009 NOSIG",
      "tafRaw": "TAF LFPO 131100Z 1312/1418 19008KT CAVOK \n  BECMG 1404/1407 BKN008 \n  PROB40 \n  TEMPO 1405/1411 4000 -RA",
      "metarHtml": "METAR LFPO 131430Z 19005KT 150V230 <span class=\"hl-vis\">CAVOK</span> 12/06 Q1009 NOSIG",
      "tafHtml": "TAF LFPO 131100Z 1312/1418 19008KT <span class=\"hl-vis\">CAVOK</span> \n  BECMG 1404/1407 BKN008 \n  PROB40 \n  TEMPO 1405/1411 4000 -<span class=\"hl\">RA</span>"
    },
    {
      "icao": "LIMC",
      "iata": "MXP",
      "name": "Milan Malpensa International Airport",
      "updatedAt": "131450Z",
      "visibility_m": 10000,
      "taf_visibility_m": 3000,
      "worst_visibility_m": 3000,
      "ceiling_ft": 4000,
      "hazards": [
        "RA"
      ],
      "severityScore": 12,
      "metarRaw": "METAR LIMC 131450Z 15002KT 9999 BKN040 07/M02 Q1021 NOSIG",
      "tafRaw": "TAF LIMC 131100Z 1312/1418 VRB05KT 9999 BKN040 \n  TEMPO 1318/1412 3000 -RA",
      "metarHtml": "METAR LIMC 131450Z 15002KT 9999 BKN040 07/M02 Q1021 NOSIG",
      "tafHtml": "TAF LIMC 131100Z 1312/1418 VRB05KT 9999 BKN040 \n  TEMPO 1318/1412 3000 -<span class=\"hl\">RA</span>"
    },
    {
      "icao": "LIME",
      "iata": "BGY",
      "name": "Milan Bergamo Airport / Antonio Locatelli Air Base",
      "updatedAt": "131450Z",
      "visibility_m": 9000,
      "taf_visibility_m": 2500,
      "worst_visibility_m": 2500,
      "ceiling_ft": 4000,
      "hazards": [
        "RA"
      ],
      "severityScore": 12,
      "metarRaw": "METAR LIME 131450Z VRB02KT 9000 BKN040 05/00 Q1021 NOSIG",
      "tafRaw": "TAF LIME 131100Z 1312/1412 VRB04KT 9999 SCT035 \n  TEMPO 1318/1412 2500 -RA",
      "metarHtml": "METAR LIME 131450Z VRB02KT 9000 BKN040 05/00 Q1021 NOSIG",
      "tafHtml": "TAF LIME 131100Z 1312/1412 VRB04KT 9999 SCT035 \n  TEMPO 1318/1412 2500 -<span class=\"hl\">RA</span>"
    },
    {
      "icao": "LIMJ",
      "iata": "GOA",
      "name": "Genoa Cristoforo Colombo Airport",
      "updatedAt": "131450Z",
      "visibility_m": 10000,
      "taf_visibility_m": 4000,
      "worst_visibility_m": 4000,
      "ceiling_ft": 3800,
      "hazards": [
        "RA"
      ],
      "severityScore": 12,
      "metarRaw": "METAR LIMJ 131450Z 32003KT 9999 SCT016 BKN038 12/11 Q1021",
      "tafRaw": "TAF LIMJ 131100Z 1312/1412 VRB05KT 9999 BKN020 \n  TEMPO 1312/1412 4000 RA",
      "metarHtml": "METAR LIMJ 131450Z 32003KT 9999 SCT016 BKN038 12/11 Q1021",
      "tafHtml": "TAF LIMJ 131100Z 1312/1412 VRB05KT 9999 BKN020 \n  TEMPO 1312/1412 4000 <span class=\"hl\">RA</span>"
    },
    {
      "icao": "LIRP",
      "iata": "PSA",
      "name": "Pisa International Airport",
      "updatedAt": "131445Z",
      "visibility_m": 10000,
      "taf_visibility_m": 10000,
      "worst_visibility_m": 10000,
      "ceiling_ft": 6000,
      "hazards": [
        "RA"
      ],
      "severityScore": 12,
      "metarRaw": "METAR LIRP 131445Z 10002KT 9999 SCT028 BKN060 11/11 Q1022 NOSIG",
      "tafRaw": "TAF LIRP 131100Z 1312/1412 VRB03KT 9999 SCT030 BKN060 \n  PROB40 \n  TEMPO 1315/1318 14005KT -RA BKN025 \n  BECMG 1323/1401 13005KT BKN020",
      "metarHtml": "METAR LIRP 131445Z 10002KT 9999 SCT028 BKN060 11/11 Q1022 NOSIG",
      "tafHtml": "TAF LIRP 131100Z 1312/1412 VRB03KT 9999 SCT030 BKN060 \n  PROB40 \n  TEMPO 1315/1318 14005KT -<span class=\"hl\">RA</span> BKN025 \n  BECMG 1323/1401 13005KT BKN020"
    },
    {
      "icao": "EDDN",
      "iata": "NUE",
      "name": "Nuremberg Airport",
      "updatedAt": "131450Z",
      "visibility_m": 10000,
      "taf_visibility_m": 1200,
      "worst_visibility_m": 1200,
      "ceiling_ft": null,
      "hazards": [],
      "severityScore": 10,
      "metarRaw": "METAR EDDN 131450Z AUTO 13007KT 9999 FEW011 06/05 Q1014 NOSIG",
      "tafRaw": "TAF EDDN 131100Z 1312/1412 14005KT 9000 SCT010 BKN015 \n  PROB40 \n  TEMPO 1312/1314 BKN009 BKN014 \n  PROB40 \n  TEMPO 1322/1406 1200 BCFG",
      "metarHtml": "METAR EDDN 131450Z AUTO 13007KT 9999 FEW011 06/05 Q1014 NOSIG",
      "tafHtml": "TAF EDDN 131100Z 1312/1412 14005KT 9000 SCT010 BKN015 \n  PROB40 \n  TEMPO 1312/1314 BKN009 BKN014 \n  PROB40 \n  TEMPO 1322/1406 1200 BCFG"
    },
    {
      "icao": "EDJA",
      "iata": "FMM",
      "name": "Memmingen Allgau Airport",
      "updatedAt": "131450Z",
      "visibility_m": 10000,
      "taf_visibility_m": 1200,
      "worst_visibility_m": 1200,
      "ceiling_ft": null,
      "hazards": [],
      "severityScore": 10,
      "metarRaw": "METAR EDJA 131450Z 18005KT CAVOK 08/03 Q1014",
      "tafRaw": "TAF EDJA 131400Z 1315/1324 18004KT CAVOK \n  PROB30 \n  TEMPO 1319/1324 1200 BCFG",
      "metarHtml": "METAR EDJA 131450Z 18005KT <span class=\"hl-vis\">CAVOK</span> 08/03 Q1014",
      "tafHtml": "TAF EDJA 131400Z 1315/1324 18004KT <span class=\"hl-vis\">CAVOK</span> \n  PROB30 \n  TEMPO 1319/1324 1200 BCFG"
    },
    {
      "icao": "EPRA",
      "iata": "RDO",
      "name": "Warsaw Radom Airport",
      "updatedAt": "131430Z",
      "visibility_m": 10000,
      "taf_visibility_m": 2000,
      "worst_visibility_m": 2000,
      "ceiling_ft": null,
      "hazards": [
        "BR"
      ],
      "severityScore": 10,
      "metarRaw": "METAR EPRA 131430Z 08002KT CAVOK M08/M10 Q1017",
      "tafRaw": "TAF EPRA 131430Z 1315/1324 12004KT 8000 NSC \n  BECMG 1316/1318 4000 BR \n  PROB40 1319/1324 2000 BR BKN006",
      "metarHtml": "METAR EPRA 131430Z 08002KT <span class=\"hl-vis\">CAVOK</span> M08/M10 Q1017",
      "tafHtml": "TAF EPRA 131430Z 1315/1324 12004KT 8000 NSC \n  BECMG 1316/1318 4000 <span class=\"hl\">BR</span> \n  PROB40 1319/1324 2000 <span class=\"hl\">BR</span> BKN006"
    },
    {
      "icao": "EPSY",
      "iata": "SZY",
      "name": "Olsztyn-Mazury Airport",
      "updatedAt": "131430Z",
      "visibility_m": 3700,
      "taf_visibility_m": 4000,
      "worst_visibility_m": 3700,
      "ceiling_ft": null,
      "hazards": [
        "BR"
      ],
      "severityScore": 10,
      "metarRaw": "METAR EPSY 131430Z VRB02KT 3700 BR NSC M06/M07 Q1017",
      "tafRaw": "TAF EPSY 131430Z 1315/1324 VRB02KT 4000 BR NSC \n  PROB40 \n  TEMPO 1315/1324 7000",
      "metarHtml": "METAR EPSY 131430Z VRB02KT 3700 <span class=\"hl\">BR</span> NSC M06/M07 Q1017",
      "tafHtml": "TAF EPSY 131430Z 1315/1324 VRB02KT 4000 <span class=\"hl\">BR</span> NSC \n  PROB40 \n  TEMPO 1315/1324 7000"
    },
    {
      "icao": "EYPA",
      "iata": "PLQ",
      "name": "Palanga International Airport",
      "updatedAt": "131450Z",
      "visibility_m": 10000,
      "taf_visibility_m": 5000,
      "worst_visibility_m": 5000,
      "ceiling_ft": null,
      "hazards": [
        "BR"
      ],
      "severityScore": 10,
      "metarRaw": "METAR EYPA 131450Z 09003KT CAVOK M11/M13 Q1020",
      "tafRaw": "TAF EYPA 131100Z 1312/1412 VRB04KT 5000 BR FEW005 \n  TEMPO 1312/1318 12010KT SCT002 SCT015 \n  PROB40 \n  TEMPO 1312/1318 BKN002 OVC010 \n  TEMPO 1318/1324 13010KT 8000 NSW SCT002 \n  BECMG 1400/1403 13010KT 8000 NSW NSC \n  TEMPO 1409/1412 13015G25KT BKN030",
      "metarHtml": "METAR EYPA 131450Z 09003KT <span class=\"hl-vis\">CAVOK</span> M11/M13 Q1020",
      "tafHtml": "TAF EYPA 131100Z 1312/1412 VRB04KT 5000 <span class=\"hl\">BR</span> FEW005 \n  TEMPO 1312/1318 12010KT SCT002 SCT015 \n  PROB40 \n  TEMPO 1312/1318 BKN002 OVC010 \n  TEMPO 1318/1324 13010KT 8000 NSW SCT002 \n  BECMG 1400/1403 13010KT 8000 NSW NSC \n  TEMPO 1409/1412 13015G25KT BKN030"
    },
    {
      "icao": "LEBL",
      "iata": "BCN",
      "name": "Josep Tarradellas Barcelona-El Prat Airport",
      "updatedAt": "131430Z",
      "visibility_m": 10000,
      "taf_visibility_m": 3000,
      "worst_visibility_m": 3000,
      "ceiling_ft": null,
      "hazards": [
        "BR"
      ],
      "severityScore": 10,
      "metarRaw": "METAR LEBL 131430Z 22010KT 9999 FEW018 16/11 Q1016 NOSIG",
      "tafRaw": "TAF LEBL 131100Z 1312/1412 23008KT 9999 SCT020 TX16/1312Z TN07/1406Z \n  BECMG 1315/1317 VRB03KT \n  BECMG 1320/1322 34007KT \n  PROB30 \n  TEMPO 1320/1406 3000 BR BKN015 \n  PROB40 \n  TEMPO 1406/1410 34015G25KT",
      "metarHtml": "METAR LEBL 131430Z 22010KT 9999 FEW018 16/11 Q1016 NOSIG",
      "tafHtml": "TAF LEBL 131100Z 1312/1412 23008KT 9999 SCT020 TX16/1312Z TN07/1406Z \n  BECMG 1315/1317 VRB03KT \n  BECMG 1320/1322 34007KT \n  PROB30 \n  TEMPO 1320/1406 3000 <span class=\"hl\">BR</span> BKN015 \n  PROB40 \n  TEMPO 1406/1410 34015G25KT"
    },
    {
      "icao": "LEMG",
      "iata": "AGP",
      "name": "Málaga-Costa del Sol Airport",
      "updatedAt": "131430Z",
      "visibility_m": 10000,
      "taf_visibility_m": 3000,
      "worst_visibility_m": 3000,
      "ceiling_ft": null,
      "hazards": [
        "BR"
      ],
      "severityScore": 10,
      "metarRaw": "METAR LEMG 131430Z 15004KT 110V190 9999 FEW010 13/10 Q1016 NOSIG",
      "tafRaw": "TAF LEMG 131100Z 1312/1412 13009KT 9999 FEW020 TX16/1314Z TN10/1407Z \n  PROB30 \n  TEMPO 1318/1410 3000 BR BKN014",
      "metarHtml": "METAR LEMG 131430Z 15004KT 110V190 9999 FEW010 13/10 Q1016 NOSIG",
      "tafHtml": "TAF LEMG 131100Z 1312/1412 13009KT 9999 FEW020 TX16/1314Z TN10/1407Z \n  PROB30 \n  TEMPO 1318/1410 3000 <span class=\"hl\">BR</span> BKN014"
    },
    {
      "icao": "LFOB",
      "iata": "BVA",
      "name": "Beauvais Tillé airport",
      "updatedAt": "131430Z",
      "visibility_m": 10000,
      "taf_visibility_m": 4000,
      "worst_visibility_m": 4000,
      "ceiling_ft": null,
      "hazards": [
        "DZ"
      ],
      "severityScore": 10,
      "metarRaw": "METAR LFOB 131430Z AUTO 19009KT CAVOK 12/06 Q1008 NOSIG",
      "tafRaw": "TAF LFOB 131100Z 1312/1412 18008KT CAVOK \n  BECMG 1402/1404 OVC009 \n  PROB30 \n  TEMPO 1409/1412 4000 DZ OVC004",
      "metarHtml": "METAR LFOB 131430Z AUTO 19009KT <span class=\"hl-vis\">CAVOK</span> 12/06 Q1008 NOSIG",
      "tafHtml": "TAF LFOB 131100Z 1312/1412 18008KT <span class=\"hl-vis\">CAVOK</span> \n  BECMG 1402/1404 OVC009 \n  PROB30 \n  TEMPO 1409/1412 4000 <span class=\"hl\">DZ</span> OVC004"
    },
    {
      "icao": "LIPH",
      "iata": "TSF",
      "name": "Treviso Antonio Canova Airport",
      "updatedAt": "131450Z",
      "visibility_m": 10000,
      "taf_visibility_m": 3000,
      "worst_visibility_m": 3000,
      "ceiling_ft": null,
      "hazards": [
        "BR"
      ],
      "severityScore": 10,
      "metarRaw": "METAR LIPH 131450Z VRB01KT 9999 FEW040 07/01 Q1022",
      "tafRaw": "TAF LIPH 131100Z 1312/1412 VRB04KT 9999 SCT040 \n  PROB40 \n  TEMPO 1400/1406 3000 BR",
      "metarHtml": "METAR LIPH 131450Z VRB01KT 9999 FEW040 07/01 Q1022",
      "tafHtml": "TAF LIPH 131100Z 1312/1412 VRB04KT 9999 SCT040 \n  PROB40 \n  TEMPO 1400/1406 3000 <span class=\"hl\">BR</span>"
    },
    {
      "icao": "LIPQ",
      "iata": "TRS",
      "name": "Trieste–Friuli Venezia Giulia Airport",
      "updatedAt": "131450Z",
      "visibility_m": 10000,
      "taf_visibility_m": 4000,
      "worst_visibility_m": 4000,
      "ceiling_ft": null,
      "hazards": [
        "BR"
      ],
      "severityScore": 10,
      "metarRaw": "METAR LIPQ 131450Z AUTO 21002KT 9999 OVC040/// 08/03 Q1022",
      "tafRaw": "TAF LIPQ 131100Z 1312/1412 VRB04KT 9999 SCT040 \n  PROB40 \n  TEMPO 1320/1406 4000 BR",
      "metarHtml": "METAR LIPQ 131450Z AUTO 21002KT 9999 OVC040/// 08/03 Q1022",
      "tafHtml": "TAF LIPQ 131100Z 1312/1412 VRB04KT 9999 SCT040 \n  PROB40 \n  TEMPO 1320/1406 4000 <span class=\"hl\">BR</span>"
    },
    {
      "icao": "LIPX",
      "iata": "VRN",
      "name": "Verona Villafranca Valerio Catullo Airport",
      "updatedAt": "131450Z",
      "visibility_m": 10000,
      "taf_visibility_m": 3000,
      "worst_visibility_m": 3000,
      "ceiling_ft": 4000,
      "hazards": [
        "BR"
      ],
      "severityScore": 10,
      "metarRaw": "METAR LIPX 131450Z 18003KT 150V220 9999 OVC040 05/M00 Q1022",
      "tafRaw": "TAF LIPX 131100Z 1312/1412 VRB04KT 9999 BKN040 \n  TEMPO 1323/1412 3000 BR",
      "metarHtml": "METAR LIPX 131450Z 18003KT 150V220 9999 OVC040 05/M00 Q1022",
      "tafHtml": "TAF LIPX 131100Z 1312/1412 VRB04KT 9999 BKN040 \n  TEMPO 1323/1412 3000 <span class=\"hl\">BR</span>"
    },
    {
      "icao": "LIRZ",
      "iata": "PEG",
      "name": "Perugia San Francesco d'Assisi – Umbria International Airport",
      "updatedAt": "131450Z",
      "visibility_m": 10000,
      "taf_visibility_m": 4000,
      "worst_visibility_m": 4000,
      "ceiling_ft": null,
      "hazards": [
        "BR"
      ],
      "severityScore": 10,
      "metarRaw": "METAR LIRZ 131450Z AUTO 22005KT 9999 OVC053/// 12/08 Q1023",
      "tafRaw": "TAF LIRZ 131100Z 1312/1412 VRB04KT 9999 SCT040 \n  BECMG 1312/1314 19010KT \n  BECMG 1316/1318 VRB04KT \n  TEMPO 1323/1409 4000 BR",
      "metarHtml": "METAR LIRZ 131450Z AUTO 22005KT 9999 OVC053/// 12/08 Q1023",
      "tafHtml": "TAF LIRZ 131100Z 1312/1412 VRB04KT 9999 SCT040 \n  BECMG 1312/1314 19010KT \n  BECMG 1316/1318 VRB04KT \n  TEMPO 1323/1409 4000 <span class=\"hl\">BR</span>"
    },
    {
      "icao": "LQBK",
      "iata": "BNX",
      "name": "Banja Luka International Airport",
      "updatedAt": "131430Z",
      "visibility_m": 10000,
      "taf_visibility_m": 3000,
      "worst_visibility_m": 3000,
      "ceiling_ft": null,
      "hazards": [
        "BR"
      ],
      "severityScore": 10,
      "metarRaw": "METAR LQBK 131430Z 22007KT CAVOK 10/02 Q1019 NOSIG",
      "tafRaw": "TAF LQBK 131100Z 1312/1412 15007KT CAVOK TX14/1313Z TN00/1406Z \n  PROB30 \n  TEMPO 1323/1408 3000 BR",
      "metarHtml": "METAR LQBK 131430Z 22007KT <span class=\"hl-vis\">CAVOK</span> 10/02 Q1019 NOSIG",
      "tafHtml": "TAF LQBK 131100Z 1312/1412 15007KT <span class=\"hl-vis\">CAVOK</span> TX14/1313Z TN00/1406Z \n  PROB30 \n  TEMPO 1323/1408 3000 <span class=\"hl\">BR</span>"
    },
    {
      "icao": "LRSM",
      "iata": "SUJ",
      "name": "Satu Mare International Airport",
      "updatedAt": "131430Z",
      "visibility_m": 10000,
      "taf_visibility_m": 3000,
      "worst_visibility_m": 3000,
      "ceiling_ft": 3000,
      "hazards": [
        "BR"
      ],
      "severityScore": 10,
      "metarRaw": "METAR LRSM 131430Z 13006KT 9999 OVC030 M05/M08 Q1019",
      "tafRaw": "TAF LRSM 131400Z 1315/1324 12007KT 9999 OVC030 \n  BECMG 1318/1320 3000 BR BKN010 OVC025",
      "metarHtml": "METAR LRSM 131430Z 13006KT 9999 OVC030 M05/M08 Q1019",
      "tafHtml": "TAF LRSM 131400Z 1315/1324 12007KT 9999 OVC030 \n  BECMG 1318/1320 3000 <span class=\"hl\">BR</span> BKN010 OVC025"
    },
    {
      "icao": "LTAC",
      "iata": "ESB",
      "name": "Esenboğa International Airport",
      "updatedAt": "131450Z",
      "visibility_m": 10000,
      "taf_visibility_m": 10000,
      "worst_visibility_m": 10000,
      "ceiling_ft": null,
      "hazards": [
        "SHSN"
      ],
      "severityScore": 10,
      "metarRaw": "METAR LTAC 131450Z 01004KT 9999 SCT040 M02/M06 Q1017 NOSIG RMK RWY21C 06003KT 020V080 RWY03L 36004KT RWY21R 04003KT 350V050 RWY03R 36005KT RWY21L 04006KT",
      "tafRaw": "TAF LTAC 131040Z 1312/1412 VRB02KT 9999 SCT035 BKN100 \n  TEMPO 1312/1316 36012KT -SHSN BKN025 BKN080 \n  BECMG 1316/1318 CAVOK \n  BECMG 1400/1402 SCT040 BKN100",
      "metarHtml": "METAR LTAC 131450Z 01004KT 9999 SCT040 M02/M06 Q1017 NOSIG RMK RWY21C 06003KT 020V080 RWY03L 36004KT RWY21R 04003KT 350V050 RWY03R 36005KT RWY21L 04006KT",
      "tafHtml": "TAF LTAC 131040Z 1312/1412 VRB02KT 9999 SCT035 BKN100 \n  TEMPO 1312/1316 36012KT -<span class=\"hl\">SHSN</span> BKN025 BKN080 \n  BECMG 1316/1318 <span class=\"hl-vis\">CAVOK</span> \n  BECMG 1400/1402 SCT040 BKN100"
    },
    {
      "icao": "LUKK",
      "iata": "RMO",
      "name": "Chişinău International Airport",
      "updatedAt": "131430Z",
      "visibility_m": 10000,
      "taf_visibility_m": 3000,
      "worst_visibility_m": 3000,
      "ceiling_ft": null,
      "hazards": [
        "BR"
      ],
      "severityScore": 10,
      "metarRaw": "METAR LUKK 131430Z 18006KT CAVOK M05/M08 Q1019 NOSIG",
      "tafRaw": "TAF LUKK 131115Z 1312/1412 VRB05KT CAVOK \n  TEMPO 1403/1406 3000 BR",
      "metarHtml": "METAR LUKK 131430Z 18006KT <span class=\"hl-vis\">CAVOK</span> M05/M08 Q1019 NOSIG",
      "tafHtml": "TAF LUKK 131115Z 1312/1412 VRB05KT <span class=\"hl-vis\">CAVOK</span> \n  TEMPO 1403/1406 3000 <span class=\"hl\">BR</span>"
    },
    {
      "icao": "LYBE",
      "iata": "BEG",
      "name": "Belgrade Nikola Tesla Airport",
      "updatedAt": "131430Z",
      "visibility_m": 10000,
      "taf_visibility_m": 3000,
      "worst_visibility_m": 3000,
      "ceiling_ft": null,
      "hazards": [
        "BR"
      ],
      "severityScore": 10,
      "metarRaw": "METAR LYBE 131430Z 12004KT 9999 SCT043 02/M01 Q1019 NOSIG",
      "tafRaw": "TAF LYBE 131100Z 1312/1412 VRB02KT 9999 SCT040 TX05/1412Z TN00/1405Z \n  TEMPO 1402/1408 3000 BR",
      "metarHtml": "METAR LYBE 131430Z 12004KT 9999 SCT043 02/M01 Q1019 NOSIG",
      "tafHtml": "TAF LYBE 131100Z 1312/1412 VRB02KT 9999 SCT040 TX05/1412Z TN00/1405Z \n  TEMPO 1402/1408 3000 <span class=\"hl\">BR</span>"
    },
    {
      "icao": "UDYZ",
      "iata": "EVN",
      "name": "Zvartnots International Airport",
      "updatedAt": "131430Z",
      "visibility_m": 8000,
      "taf_visibility_m": 3500,
      "worst_visibility_m": 3500,
      "ceiling_ft": null,
      "hazards": [
        "BR"
      ],
      "severityScore": 10,
      "metarRaw": "METAR UDYZ 131430Z 09004KT 8000 SCT046 04/00 Q1004 NOSIG",
      "tafRaw": "TAF UDYZ 131100Z 1312/1412 23006KT 9999 SCT040 \n  TEMPO 1312/1321 VRB16G26KT 3500 -SHRASN BR BKN020CB",
      "metarHtml": "METAR UDYZ 131430Z 09004KT 8000 SCT046 04/00 Q1004 NOSIG",
      "tafHtml": "TAF UDYZ 131100Z 1312/1412 23006KT 9999 SCT040 \n  TEMPO 1312/1321 VRB16G26KT 3500 -SHRASN <span class=\"hl\">BR</span> BKN020CB"
    },
    {
      "icao": "ENZV",
      "iata": "SVG",
      "name": "Stavanger Airport, Sola",
      "updatedAt": "131450Z",
      "visibility_m": 10000,
      "taf_visibility_m": null,
      "worst_visibility_m": 10000,
      "ceiling_ft": null,
      "hazards": [],
      "severityScore": 5,
      "metarRaw": "METAR ENZV 131450Z 12014KT CAVOK 05/M01 Q1000 RERA NOSIG",
      "tafRaw": null,
      "metarHtml": "METAR ENZV 131450Z 12014KT <span class=\"hl-vis\">CAVOK</span> 05/M01 Q1000 RERA NOSIG",
      "tafHtml": null
    },
    {
      "icao": "EPRZ",
      "iata": "RZE",
      "name": "Rzeszów-Jasionka Airport",
      "updatedAt": "131430Z",
      "visibility_m": 10000,
      "taf_visibility_m": null,
      "worst_visibility_m": 10000,
      "ceiling_ft": null,
      "hazards": [],
      "severityScore": 5,
      "metarRaw": "METAR EPRZ 131430Z 21005KT CAVOK M05/M09 Q1017",
      "tafRaw": null,
      "metarHtml": "METAR EPRZ 131430Z 21005KT <span class=\"hl-vis\">CAVOK</span> M05/M09 Q1017",
      "tafHtml": null
    },
    {
      "icao": "LECH",
      "iata": "CDT",
      "name": "Castellón-Costa Azahar Airport",
      "updatedAt": "131430Z",
      "visibility_m": 9000,
      "taf_visibility_m": null,
      "worst_visibility_m": 9000,
      "ceiling_ft": null,
      "hazards": [],
      "severityScore": 5,
      "metarRaw": "METAR LECH 131430Z AUTO 10006KT 060V120 9000 NCD 13/10 Q1015",
      "tafRaw": null,
      "metarHtml": "METAR LECH 131430Z AUTO 10006KT 060V120 9000 NCD 13/10 Q1015",
      "tafHtml": null
    },
    {
      "icao": "LEZG",
      "iata": "ZAZ",
      "name": "Zaragoza Airport",
      "updatedAt": "131430Z",
      "visibility_m": 6000,
      "taf_visibility_m": null,
      "worst_visibility_m": 6000,
      "ceiling_ft": null,
      "hazards": [],
      "severityScore": 5,
      "metarRaw": "METAR LEZG 131430Z 07006KT 6000 FEW008 09/08 Q1014 NOSIG",
      "tafRaw": null,
      "metarHtml": "METAR LEZG 131430Z 07006KT 6000 FEW008 09/08 Q1014 NOSIG",
      "tafHtml": null
    },
    {
      "icao": "BIKF",
      "iata": "KEF",
      "name": "Keflavik International Airport",
      "updatedAt": "131430Z",
      "visibility_m": 10000,
      "taf_visibility_m": 10000,
      "worst_visibility_m": 10000,
      "ceiling_ft": null,
      "hazards": [],
      "severityScore": 0,
      "metarRaw": "METAR BIKF 131430Z 35014KT 9999 FEW030 M02/M10 Q0998",
      "tafRaw": "TAF BIKF 131347Z 1315/1415 35015G25KT 9999 FEW030 TX00/1415Z TNM04/1404Z \n  BECMG 1401/1403 05012KT",
      "metarHtml": "METAR BIKF 131430Z 35014KT 9999 FEW030 M02/M10 Q0998",
      "tafHtml": "TAF BIKF 131347Z 1315/1415 35015G25KT 9999 FEW030 TX00/1415Z TNM04/1404Z \n  BECMG 1401/1403 05012KT"
    },
    {
      "icao": "GCTS",
      "iata": "TFS",
      "name": "Tenerife Sur Airport",
      "updatedAt": "131430Z",
      "visibility_m": 10000,
      "taf_visibility_m": 10000,
      "worst_visibility_m": 10000,
      "ceiling_ft": 5000,
      "hazards": [],
      "severityScore": 0,
      "metarRaw": "METAR GCTS 131430Z 11009KT 080V160 9999 BKN050 21/13 Q1018 NOSIG",
      "tafRaw": "TAF GCTS 131400Z 1315/1415 09010KT 9999 SCT040 TX22/1414Z TN13/1406Z \n  PROB30 \n  TEMPO 1316/1319 16010KT \n  BECMG 1318/1320 02005KT \n  BECMG 1410/1412 08014KT",
      "metarHtml": "METAR GCTS 131430Z 11009KT 080V160 9999 BKN050 21/13 Q1018 NOSIG",
      "tafHtml": "TAF GCTS 131400Z 1315/1415 09010KT 9999 SCT040 TX22/1414Z TN13/1406Z \n  PROB30 \n  TEMPO 1316/1319 16010KT \n  BECMG 1318/1320 02005KT \n  BECMG 1410/1412 08014KT"
    },
    {
      "icao": "EDDS",
      "iata": "STR",
      "name": "Stuttgart Airport",
      "updatedAt": "131450Z",
      "visibility_m": 10000,
      "taf_visibility_m": 10000,
      "worst_visibility_m": 10000,
      "ceiling_ft": null,
      "hazards": [],
      "severityScore": 0,
      "metarRaw": "METAR EDDS 131450Z AUTO 17002KT CAVOK 11/06 Q1012 NOSIG",
      "tafRaw": "TAF EDDS 131100Z 1312/1412 17004KT 9999 FEW040",
      "metarHtml": "METAR EDDS 131450Z AUTO 17002KT <span class=\"hl-vis\">CAVOK</span> 11/06 Q1012 NOSIG",
      "tafHtml": "TAF EDDS 131100Z 1312/1412 17004KT 9999 FEW040"
    },
    {
      "icao": "EDSB",
      "iata": "FKB",
      "name": "Karlsruhe Baden-Baden Airport",
      "updatedAt": "131450Z",
      "visibility_m": 10000,
      "taf_visibility_m": 10000,
      "worst_visibility_m": 10000,
      "ceiling_ft": null,
      "hazards": [],
      "severityScore": 0,
      "metarRaw": "METAR EDSB 131450Z 23003KT CAVOK 12/06 Q1012",
      "tafRaw": "TAF EDSB 131100Z 1312/1412 21004KT CAVOK \n  BECMG 1405/1408 21009KT",
      "metarHtml": "METAR EDSB 131450Z 23003KT <span class=\"hl-vis\">CAVOK</span> 12/06 Q1012",
      "tafHtml": "TAF EDSB 131100Z 1312/1412 21004KT <span class=\"hl-vis\">CAVOK</span> \n  BECMG 1405/1408 21009KT"
    },
    {
      "icao": "ENTC",
      "iata": "TOS",
      "name": "Tromsø Airport, Langnes",
      "updatedAt": "131450Z",
      "visibility_m": 10000,
      "taf_visibility_m": 10000,
      "worst_visibility_m": 10000,
      "ceiling_ft": null,
      "hazards": [],
      "severityScore": 0,
      "metarRaw": "METAR ENTC 131450Z 19015KT CAVOK M05/M12 Q1010 NOSIG RMK WIND 2600FT 17014KT",
      "tafRaw": "TAF ENTC 131100Z 1312/1412 19010KT CAVOK",
      "metarHtml": "METAR ENTC 131450Z 19015KT <span class=\"hl-vis\">CAVOK</span> M05/M12 Q1010 NOSIG RMK WIND 2600FT 17014KT",
      "tafHtml": "TAF ENTC 131100Z 1312/1412 19010KT <span class=\"hl-vis\">CAVOK</span>"
    },
    {
      "icao": "ENVA",
      "iata": "TRD",
      "name": "Trondheim Airport, Værnes",
      "updatedAt": "131450Z",
      "visibility_m": 10000,
      "taf_visibility_m": 10000,
      "worst_visibility_m": 10000,
      "ceiling_ft": null,
      "hazards": [],
      "severityScore": 0,
      "metarRaw": "METAR ENVA 131450Z 14011KT 090V160 CAVOK 00/M08 Q1005 TEMPO 15018G30KT RMK WIND 670FT 16026G38KT",
      "tafRaw": "TAF ENVA 131100Z 1312/1412 11009KT CAVOK \n  TEMPO 1312/1402 15018G30KT \n  TEMPO 1410/1412 15015G25KT",
      "metarHtml": "METAR ENVA 131450Z 14011KT 090V160 <span class=\"hl-vis\">CAVOK</span> 00/M08 Q1005 TEMPO 15018G30KT RMK WIND 670FT 16026G38KT",
      "tafHtml": "TAF ENVA 131100Z 1312/1412 11009KT <span class=\"hl-vis\">CAVOK</span> \n  TEMPO 1312/1402 15018G30KT \n  TEMPO 1410/1412 15015G25KT"
    },
    {
      "icao": "HEGN",
      "iata": "HRG",
      "name": "Hurghada International Airport",
      "updatedAt": "131400Z",
      "visibility_m": 10000,
      "taf_visibility_m": 2000,
      "worst_visibility_m": 2000,
      "ceiling_ft": null,
      "hazards": [],
      "severityScore": 0,
      "metarRaw": "METAR HEGN 131400Z 36011KT CAVOK 19/04 Q1020 NOSIG",
      "tafRaw": "TAF HEGN 131100Z 1312/1418 33015G25KT 6000 FEW025 \n  TEMPO 1312/1318 4000 SA \n  PROB30 \n  TEMPO 1312/1315 2000",
      "metarHtml": "METAR HEGN 131400Z 36011KT <span class=\"hl-vis\">CAVOK</span> 19/04 Q1020 NOSIG",
      "tafHtml": "TAF HEGN 131100Z 1312/1418 33015G25KT 6000 FEW025 \n  TEMPO 1312/1318 4000 SA \n  PROB30 \n  TEMPO 1312/1315 2000"
    },
    {
      "icao": "HEMA",
      "iata": "RMF",
      "name": "Marsa Alam International Airport",
      "updatedAt": "131400Z",
      "visibility_m": 10000,
      "taf_visibility_m": 3000,
      "worst_visibility_m": 3000,
      "ceiling_ft": null,
      "hazards": [],
      "severityScore": 0,
      "metarRaw": "METAR HEMA 131400Z 30007KT CAVOK 19/04 Q1019 NOSIG",
      "tafRaw": "TAF HEMA 131100Z 1312/1418 32010G20KT 9999 FEW025 \n  TEMPO 1312/1318 3000 SA",
      "metarHtml": "METAR HEMA 131400Z 30007KT <span class=\"hl-vis\">CAVOK</span> 19/04 Q1019 NOSIG",
      "tafHtml": "TAF HEMA 131100Z 1312/1418 32010G20KT 9999 FEW025 \n  TEMPO 1312/1318 3000 SA"
    },
    {
      "icao": "HESH",
      "iata": "SSH",
      "name": "Sharm El Sheikh International Airport",
      "updatedAt": "131400Z",
      "visibility_m": 10000,
      "taf_visibility_m": 4000,
      "worst_visibility_m": 4000,
      "ceiling_ft": null,
      "hazards": [],
      "severityScore": 0,
      "metarRaw": "METAR HESH 131400Z 06007KT CAVOK 19/05 Q1018 NOSIG",
      "tafRaw": "TAF HESH 131100Z 1312/1418 01010G20KT 9999 FEW025 \n  TEMPO 1312/1318 4000 SA",
      "metarHtml": "METAR HESH 131400Z 06007KT <span class=\"hl-vis\">CAVOK</span> 19/05 Q1018 NOSIG",
      "tafHtml": "TAF HESH 131100Z 1312/1418 01010G20KT 9999 FEW025 \n  TEMPO 1312/1318 4000 SA"
    },
    {
      "icao": "LATI",
      "iata": "TIA",
      "name": "Tirana International Airport Mother Teresa",
      "updatedAt": "131450Z",
      "visibility_m": 10000,
      "taf_visibility_m": 10000,
      "worst_visibility_m": 10000,
      "ceiling_ft": 5900,
      "hazards": [],
      "severityScore": 0,
      "metarRaw": "METAR LATI 131450Z 11004KT 080V140 9999 SCT037 BKN059 09/00 Q1026 NOSIG",
      "tafRaw": "TAF LATI 131100Z 1312/1412 VRB05KT 9999 SCT040 BKN070 TX10/1312Z TN03/1405Z",
      "metarHtml": "METAR LATI 131450Z 11004KT 080V140 9999 SCT037 BKN059 09/00 Q1026 NOSIG",
      "tafHtml": "TAF LATI 131100Z 1312/1412 VRB05KT 9999 SCT040 BKN070 TX10/1312Z TN03/1405Z"
    },
    {
      "icao": "LBPD",
      "iata": "PDV",
      "name": "Plovdiv International Airport",
      "updatedAt": "131430Z",
      "visibility_m": 10000,
      "taf_visibility_m": 10000,
      "worst_visibility_m": 10000,
      "ceiling_ft": null,
      "hazards": [],
      "severityScore": 0,
      "metarRaw": "METAR LBPD 131430Z AUTO 07003KT 9999 OVC061/// 02/M09 Q1021 NOSIG",
      "tafRaw": "TAF LBPD 131100Z 1312/1412 VRB03KT 9999 SCT050 BKN070",
      "metarHtml": "METAR LBPD 131430Z AUTO 07003KT 9999 OVC061/// 02/M09 Q1021 NOSIG",
      "tafHtml": "TAF LBPD 131100Z 1312/1412 VRB03KT 9999 SCT050 BKN070"
    },
    {
      "icao": "LBSF",
      "iata": "SOF",
      "name": "Sofia Airport",
      "updatedAt": "131430Z",
      "visibility_m": 10000,
      "taf_visibility_m": 10000,
      "worst_visibility_m": 10000,
      "ceiling_ft": 4200,
      "hazards": [],
      "severityScore": 0,
      "metarRaw": "METAR LBSF 131430Z VRB02KT 9999 OVC042 00/M07 Q1020 NOSIG",
      "tafRaw": "TAF LBSF 131100Z 1312/1412 VRB03KT 9999 SCT050 BKN070 \n  BECMG 1321/1323 29012KT",
      "metarHtml": "METAR LBSF 131430Z VRB02KT 9999 OVC042 00/M07 Q1020 NOSIG",
      "tafHtml": "TAF LBSF 131100Z 1312/1412 VRB03KT 9999 SCT050 BKN070 \n  BECMG 1321/1323 29012KT"
    },
    {
      "icao": "LEBB",
      "iata": "BIO",
      "name": "Bilbao Airport",
      "updatedAt": "131430Z",
      "visibility_m": 10000,
      "taf_visibility_m": 10000,
      "worst_visibility_m": 10000,
      "ceiling_ft": null,
      "hazards": [],
      "severityScore": 0,
      "metarRaw": "METAR LEBB 131430Z 15019KT 120V180 CAVOK 18/04 Q1008 NOSIG",
      "tafRaw": "TAF LEBB 131100Z 1312/1412 15009KT CAVOK TX16/1316Z TN09/1408Z \n  PROB40 \n  TEMPO 1312/1316 15019G29KT",
      "metarHtml": "METAR LEBB 131430Z 15019KT 120V180 <span class=\"hl-vis\">CAVOK</span> 18/04 Q1008 NOSIG",
      "tafHtml": "TAF LEBB 131100Z 1312/1412 15009KT <span class=\"hl-vis\">CAVOK</span> TX16/1316Z TN09/1408Z \n  PROB40 \n  TEMPO 1312/1316 15019G29KT"
    },
    {
      "icao": "LEVC",
      "iata": "VLC",
      "name": "Valencia Airport",
      "updatedAt": "131430Z",
      "visibility_m": 10000,
      "taf_visibility_m": 10000,
      "worst_visibility_m": 10000,
      "ceiling_ft": null,
      "hazards": [],
      "severityScore": 0,
      "metarRaw": "METAR LEVC 131430Z 13004KT 090V170 CAVOK 15/08 Q1015 NOSIG",
      "tafRaw": "TAF LEVC 131100Z 1312/1412 VRB04KT CAVOK TX16/1314Z TN04/1406Z \n  TEMPO 1314/1318 12006KT",
      "metarHtml": "METAR LEVC 131430Z 13004KT 090V170 <span class=\"hl-vis\">CAVOK</span> 15/08 Q1015 NOSIG",
      "tafHtml": "TAF LEVC 131100Z 1312/1412 VRB04KT <span class=\"hl-vis\">CAVOK</span> TX16/1314Z TN04/1406Z \n  TEMPO 1314/1318 12006KT"
    },
    {
      "icao": "LEXJ",
      "iata": "SDR",
      "name": "Seve Ballesteros-Santander Airport",
      "updatedAt": "131430Z",
      "visibility_m": 10000,
      "taf_visibility_m": 10000,
      "worst_visibility_m": 10000,
      "ceiling_ft": null,
      "hazards": [],
      "severityScore": 0,
      "metarRaw": "METAR LEXJ 131430Z 21011G23KT 150V280 CAVOK 18/05 Q1006",
      "tafRaw": "TAF LEXJ 131400Z 1315/1415 19009KT CAVOK TX17/1316Z TN11/1408Z \n  TEMPO 1315/1318 21019G29KT \n  PROB30 \n  TEMPO 1318/1324 21015G25KT \n  PROB40 \n  TEMPO 1400/1402 19015G25KT \n  BECMG 1411/1413 28010KT",
      "metarHtml": "METAR LEXJ 131430Z 21011G23KT 150V280 <span class=\"hl-vis\">CAVOK</span> 18/05 Q1006",
      "tafHtml": "TAF LEXJ 131400Z 1315/1415 19009KT <span class=\"hl-vis\">CAVOK</span> TX17/1316Z TN11/1408Z \n  TEMPO 1315/1318 21019G29KT \n  PROB30 \n  TEMPO 1318/1324 21015G25KT \n  PROB40 \n  TEMPO 1400/1402 19015G25KT \n  BECMG 1411/1413 28010KT"
    },
    {
      "icao": "LFLL",
      "iata": "LYS",
      "name": "Lyon Saint-Exupéry Airport",
      "updatedAt": "131430Z",
      "visibility_m": 10000,
      "taf_visibility_m": 10000,
      "worst_visibility_m": 10000,
      "ceiling_ft": 26000,
      "hazards": [],
      "severityScore": 0,
      "metarRaw": "METAR LFLL 131430Z 18012KT 9999 FEW036 BKN260 14/07 Q1014 NOSIG",
      "tafRaw": "TAF LFLL 131100Z 1312/1418 17015KT 9999 FEW035 \n  TEMPO 1312/1324 18020G30KT",
      "metarHtml": "METAR LFLL 131430Z 18012KT 9999 FEW036 BKN260 14/07 Q1014 NOSIG",
      "tafHtml": "TAF LFLL 131100Z 1312/1418 17015KT 9999 FEW035 \n  TEMPO 1312/1324 18020G30KT"
    },
    {
      "icao": "LFLS",
      "iata": "GNB",
      "name": "Grenoble Alpes Isère Airport",
      "updatedAt": "131430Z",
      "visibility_m": 10000,
      "taf_visibility_m": 10000,
      "worst_visibility_m": 10000,
      "ceiling_ft": null,
      "hazards": [],
      "severityScore": 0,
      "metarRaw": "METAR LFLS 131430Z AUTO 22009KT CAVOK 13/06 Q1015 NOSIG",
      "tafRaw": "TAF LFLS 131400Z 1315/1415 24008KT 9999 FEW052 \n  BECMG 1404/1406 VRB03KT \n  BECMG 1410/1412 23010KT",
      "metarHtml": "METAR LFLS 131430Z AUTO 22009KT <span class=\"hl-vis\">CAVOK</span> 13/06 Q1015 NOSIG",
      "tafHtml": "TAF LFLS 131400Z 1315/1415 24008KT 9999 FEW052 \n  BECMG 1404/1406 VRB03KT \n  BECMG 1410/1412 23010KT"
    },
    {
      "icao": "LFMN",
      "iata": "NCE",
      "name": "Nice-Côte d'Azur Airport",
      "updatedAt": "131430Z",
      "visibility_m": 10000,
      "taf_visibility_m": 10000,
      "worst_visibility_m": 10000,
      "ceiling_ft": 26000,
      "hazards": [],
      "severityScore": 0,
      "metarRaw": "METAR LFMN 131430Z 21008KT 9999 FEW040 BKN260 15/09 Q1020 NOSIG",
      "tafRaw": "TAF LFMN 131400Z 1315/1421 25008KT 9999 SCT030 BKN040 \n  PROB30 \n  TEMPO 1315/1404 FEW020TCU \n  BECMG 1317/1319 34010KT \n  BECMG 1410/1412 20004KT \n  BECMG 1416/1418 34010KT",
      "metarHtml": "METAR LFMN 131430Z 21008KT 9999 FEW040 BKN260 15/09 Q1020 NOSIG",
      "tafHtml": "TAF LFMN 131400Z 1315/1421 25008KT 9999 SCT030 BKN040 \n  PROB30 \n  TEMPO 1315/1404 FEW020TCU \n  BECMG 1317/1319 34010KT \n  BECMG 1410/1412 20004KT \n  BECMG 1416/1418 34010KT"
    },
    {
      "icao": "LFSB",
      "iata": "BSL",
      "name": "EuroAirport Basel–Mulhouse–Freiburg",
      "updatedAt": "131430Z",
      "visibility_m": 10000,
      "taf_visibility_m": 10000,
      "worst_visibility_m": 10000,
      "ceiling_ft": null,
      "hazards": [],
      "severityScore": 0,
      "metarRaw": "METAR LFSB 131430Z AUTO 10005KT 060V130 CAVOK 11/04 Q1013 NOSIG",
      "tafRaw": "TAF LFSB 131100Z 1312/1412 17005KT CAVOK",
      "metarHtml": "METAR LFSB 131430Z AUTO 10005KT 060V130 <span class=\"hl-vis\">CAVOK</span> 11/04 Q1013 NOSIG",
      "tafHtml": "TAF LFSB 131100Z 1312/1412 17005KT <span class=\"hl-vis\">CAVOK</span>"
    },
    {
      "icao": "LGAV",
      "iata": "ATH",
      "name": "Athens Eleftherios Venizelos International Airport",
      "updatedAt": "131450Z",
      "visibility_m": 10000,
      "taf_visibility_m": 10000,
      "worst_visibility_m": 10000,
      "ceiling_ft": null,
      "hazards": [],
      "severityScore": 0,
      "metarRaw": "METAR LGAV 131450Z 25004KT 190V290 9999 FEW025 10/M02 Q1024 NOSIG",
      "tafRaw": "TAF LGAV 131100Z 1312/1412 VRB05KT 9999 FEW025 \n  TEMPO 1312/1324 25010KT",
      "metarHtml": "METAR LGAV 131450Z 25004KT 190V290 9999 FEW025 10/M02 Q1024 NOSIG",
      "tafHtml": "TAF LGAV 131100Z 1312/1412 VRB05KT 9999 FEW025 \n  TEMPO 1312/1324 25010KT"
    },
    {
      "icao": "LGTS",
      "iata": "SKG",
      "name": "Thessaloniki Macedonia International Airport",
      "updatedAt": "131450Z",
      "visibility_m": 10000,
      "taf_visibility_m": 10000,
      "worst_visibility_m": 10000,
      "ceiling_ft": null,
      "hazards": [],
      "severityScore": 0,
      "metarRaw": "METAR LGTS 131450Z VRB03KT 9999 FEW025 07/M08 Q1023 NOSIG",
      "tafRaw": "TAF LGTS 131100Z 1312/1412 VRB03KT 9999 FEW025 \n  BECMG 1322/1324 34013KT",
      "metarHtml": "METAR LGTS 131450Z VRB03KT 9999 FEW025 07/M08 Q1023 NOSIG",
      "tafHtml": "TAF LGTS 131100Z 1312/1412 VRB03KT 9999 FEW025 \n  BECMG 1322/1324 34013KT"
    },
    {
      "icao": "LIBD",
      "iata": "BRI",
      "name": "Bari Karol Wojtyła International Airport",
      "updatedAt": "131450Z",
      "visibility_m": 10000,
      "taf_visibility_m": 10000,
      "worst_visibility_m": 10000,
      "ceiling_ft": null,
      "hazards": [],
      "severityScore": 0,
      "metarRaw": "METAR LIBD 131450Z 10004KT CAVOK 14/06 Q1023",
      "tafRaw": "TAF LIBD 131100Z 1312/1412 23007KT CAVOK",
      "metarHtml": "METAR LIBD 131450Z 10004KT <span class=\"hl-vis\">CAVOK</span> 14/06 Q1023",
      "tafHtml": "TAF LIBD 131100Z 1312/1412 23007KT <span class=\"hl-vis\">CAVOK</span>"
    },
    {
      "icao": "LIBG",
      "iata": "TAR",
      "name": "Taranto-Grottaglie Marcello Arlotta Airport",
      "updatedAt": "131350Z",
      "visibility_m": 10000,
      "taf_visibility_m": 10000,
      "worst_visibility_m": 10000,
      "ceiling_ft": null,
      "hazards": [],
      "severityScore": 0,
      "metarRaw": "METAR LIBG 131350Z 26004KT 220V300 CAVOK 14/04 Q1024",
      "tafRaw": "TAF LIBG 131400Z 1315/1324 VRB05KT 9999 FEW040",
      "metarHtml": "METAR LIBG 131350Z 26004KT 220V300 <span class=\"hl-vis\">CAVOK</span> 14/04 Q1024",
      "tafHtml": "TAF LIBG 131400Z 1315/1324 VRB05KT 9999 FEW040"
    },
    {
      "icao": "LIBP",
      "iata": "PSR",
      "name": "Abruzzo Airport",
      "updatedAt": "131450Z",
      "visibility_m": 10000,
      "taf_visibility_m": 10000,
      "worst_visibility_m": 10000,
      "ceiling_ft": null,
      "hazards": [],
      "severityScore": 0,
      "metarRaw": "METAR LIBP 131450Z AUTO 05005KT 9999 NCD 12/06 Q1022",
      "tafRaw": "TAF LIBP 131100Z 1312/1412 VRB06KT CAVOK",
      "metarHtml": "METAR LIBP 131450Z AUTO 05005KT 9999 NCD 12/06 Q1022",
      "tafHtml": "TAF LIBP 131100Z 1312/1412 VRB06KT <span class=\"hl-vis\">CAVOK</span>"
    },
    {
      "icao": "LIBR",
      "iata": "BDS",
      "name": "Brindisi Airport",
      "updatedAt": "131450Z",
      "visibility_m": 10000,
      "taf_visibility_m": 10000,
      "worst_visibility_m": 10000,
      "ceiling_ft": null,
      "hazards": [],
      "severityScore": 0,
      "metarRaw": "METAR LIBR 131450Z 11004KT CAVOK 12/04 Q1024",
      "tafRaw": "TAF LIBR 131100Z 1312/1412 22008KT CAVOK",
      "metarHtml": "METAR LIBR 131450Z 11004KT <span class=\"hl-vis\">CAVOK</span> 12/04 Q1024",
      "tafHtml": "TAF LIBR 131100Z 1312/1412 22008KT <span class=\"hl-vis\">CAVOK</span>"
    },
    {
      "icao": "LICA",
      "iata": "SUF",
      "name": "Lamezia Terme Sant'Eufemia International Airport",
      "updatedAt": "131450Z",
      "visibility_m": 10000,
      "taf_visibility_m": 10000,
      "worst_visibility_m": 10000,
      "ceiling_ft": null,
      "hazards": [],
      "severityScore": 0,
      "metarRaw": "METAR LICA 131450Z AUTO 24007KT 9999 NCD 13/07 Q1026",
      "tafRaw": "TAF LICA 131100Z 1312/1412 26010KT 9999 SCT030 \n  BECMG 1316/1318 VRB05KT",
      "metarHtml": "METAR LICA 131450Z AUTO 24007KT 9999 NCD 13/07 Q1026",
      "tafHtml": "TAF LICA 131100Z 1312/1412 26010KT 9999 SCT030 \n  BECMG 1316/1318 VRB05KT"
    },
    {
      "icao": "LICC",
      "iata": "CTA",
      "name": "Catania-Fontanarossa Airport",
      "updatedAt": "131450Z",
      "visibility_m": 10000,
      "taf_visibility_m": 10000,
      "worst_visibility_m": 10000,
      "ceiling_ft": null,
      "hazards": [],
      "severityScore": 0,
      "metarRaw": "METAR LICC 131450Z 25009KT 9999 FEW050 17/11 Q1025",
      "tafRaw": "TAF LICC 131100Z 1312/1412 26010KT CAVOK",
      "metarHtml": "METAR LICC 131450Z 25009KT 9999 FEW050 17/11 Q1025",
      "tafHtml": "TAF LICC 131100Z 1312/1412 26010KT <span class=\"hl-vis\">CAVOK</span>"
    },
    {
      "icao": "LICJ",
      "iata": "PMO",
      "name": "Falcone–Borsellino Airport",
      "updatedAt": "131450Z",
      "visibility_m": 10000,
      "taf_visibility_m": 10000,
      "worst_visibility_m": 10000,
      "ceiling_ft": null,
      "hazards": [],
      "severityScore": 0,
      "metarRaw": "METAR LICJ 131450Z 18007KT 140V210 CAVOK 16/06 Q1024",
      "tafRaw": "TAF LICJ 131100Z 1312/1412 18010KT 9999 FEW030",
      "metarHtml": "METAR LICJ 131450Z 18007KT 140V210 <span class=\"hl-vis\">CAVOK</span> 16/06 Q1024",
      "tafHtml": "TAF LICJ 131100Z 1312/1412 18010KT 9999 FEW030"
    },
    {
      "icao": "LIMF",
      "iata": "TRN",
      "name": "Turin Airport",
      "updatedAt": "131450Z",
      "visibility_m": 10000,
      "taf_visibility_m": 10000,
      "worst_visibility_m": 10000,
      "ceiling_ft": null,
      "hazards": [],
      "severityScore": 0,
      "metarRaw": "METAR LIMF 131450Z VRB02KT CAVOK 09/M05 Q1021",
      "tafRaw": "TAF LIMF 131100Z 1312/1412 VRB03KT CAVOK",
      "metarHtml": "METAR LIMF 131450Z VRB02KT <span class=\"hl-vis\">CAVOK</span> 09/M05 Q1021",
      "tafHtml": "TAF LIMF 131100Z 1312/1412 VRB03KT <span class=\"hl-vis\">CAVOK</span>"
    },
    {
      "icao": "LIPE",
      "iata": "BLQ",
      "name": "Bologna Guglielmo Marconi Airport",
      "updatedAt": "131450Z",
      "visibility_m": 10000,
      "taf_visibility_m": 10000,
      "worst_visibility_m": 10000,
      "ceiling_ft": 6000,
      "hazards": [],
      "severityScore": 0,
      "metarRaw": "METAR LIPE 131450Z 33003KT 9999 BKN060 06/01 Q1022",
      "tafRaw": "TAF LIPE 131100Z 1312/1412 VRB04KT 9999 SCT040",
      "metarHtml": "METAR LIPE 131450Z 33003KT 9999 BKN060 06/01 Q1022",
      "tafHtml": "TAF LIPE 131100Z 1312/1412 VRB04KT 9999 SCT040"
    },
    {
      "icao": "LIPR",
      "iata": "RMI",
      "name": "Federico Fellini International Airport",
      "updatedAt": "131450Z",
      "visibility_m": 8000,
      "taf_visibility_m": 10000,
      "worst_visibility_m": 8000,
      "ceiling_ft": 5000,
      "hazards": [],
      "severityScore": 0,
      "metarRaw": "METAR LIPR 131450Z 31006KT 8000 BKN050 07/04 Q1022",
      "tafRaw": "TAF LIPR 131100Z 1312/1412 VRB05KT 9999 FEW040",
      "metarHtml": "METAR LIPR 131450Z 31006KT 8000 BKN050 07/04 Q1022",
      "tafHtml": "TAF LIPR 131100Z 1312/1412 VRB05KT 9999 FEW040"
    },
    {
      "icao": "LIPY",
      "iata": "AOI",
      "name": "Marche Airport",
      "updatedAt": "131450Z",
      "visibility_m": 10000,
      "taf_visibility_m": 10000,
      "worst_visibility_m": 10000,
      "ceiling_ft": null,
      "hazards": [],
      "severityScore": 0,
      "metarRaw": "METAR LIPY 131450Z AUTO VRB02KT 9999 BKN210/// 13/07 Q1022",
      "tafRaw": "TAF LIPY 131100Z 1312/1412 19007KT 9999 FEW050",
      "metarHtml": "METAR LIPY 131450Z AUTO VRB02KT 9999 BKN210/// 13/07 Q1022",
      "tafHtml": "TAF LIPY 131100Z 1312/1412 19007KT 9999 FEW050"
    },
    {
      "icao": "LIPZ",
      "iata": "VCE",
      "name": "Venice Marco Polo Airport",
      "updatedAt": "131450Z",
      "visibility_m": 10000,
      "taf_visibility_m": 10000,
      "worst_visibility_m": 10000,
      "ceiling_ft": 4000,
      "hazards": [],
      "severityScore": 0,
      "metarRaw": "METAR LIPZ 131450Z 16002KT 9999 BKN040 06/01 Q1022 NOSIG",
      "tafRaw": "TAF LIPZ 131100Z 1312/1418 VRB05KT 9999 SCT040",
      "metarHtml": "METAR LIPZ 131450Z 16002KT 9999 BKN040 06/01 Q1022 NOSIG",
      "tafHtml": "TAF LIPZ 131100Z 1312/1418 VRB05KT 9999 SCT040"
    },
    {
      "icao": "LIRF",
      "iata": "FCO",
      "name": "Rome–Fiumicino Leonardo da Vinci International Airport",
      "updatedAt": "131450Z",
      "visibility_m": 10000,
      "taf_visibility_m": 10000,
      "worst_visibility_m": 10000,
      "ceiling_ft": null,
      "hazards": [],
      "severityScore": 0,
      "metarRaw": "METAR LIRF 131450Z 16007KT 140V200 9999 FEW030 SCT045 14/08 Q1024 NOSIG",
      "tafRaw": "TAF LIRF 131100Z 1312/1418 16010KT 9999 SCT030 \n  BECMG 1320/1322 09007KT \n  BECMG 1410/1412 15012KT",
      "metarHtml": "METAR LIRF 131450Z 16007KT 140V200 9999 FEW030 SCT045 14/08 Q1024 NOSIG",
      "tafHtml": "TAF LIRF 131100Z 1312/1418 16010KT 9999 SCT030 \n  BECMG 1320/1322 09007KT \n  BECMG 1410/1412 15012KT"
    },
    {
      "icao": "LIRN",
      "iata": "NAP",
      "name": "Naples International Airport",
      "updatedAt": "131450Z",
      "visibility_m": 10000,
      "taf_visibility_m": 10000,
      "worst_visibility_m": 10000,
      "ceiling_ft": null,
      "hazards": [],
      "severityScore": 0,
      "metarRaw": "METAR LIRN 131450Z 21007KT 9999 SCT040 13/06 Q1025 NOSIG",
      "tafRaw": "TAF LIRN 131100Z 1312/1412 VRB05KT 9999 BKN030",
      "metarHtml": "METAR LIRN 131450Z 21007KT 9999 SCT040 13/06 Q1025 NOSIG",
      "tafHtml": "TAF LIRN 131100Z 1312/1412 VRB05KT 9999 BKN030"
    },
    {
      "icao": "LJLJ",
      "iata": "LJU",
      "name": "Ljubljana Jože Pučnik Airport",
      "updatedAt": "131430Z",
      "visibility_m": 10000,
      "taf_visibility_m": 10000,
      "worst_visibility_m": 10000,
      "ceiling_ft": 18000,
      "hazards": [],
      "severityScore": 0,
      "metarRaw": "METAR LJLJ 131430Z 30003KT 9999 FEW035 BKN180 01/M00 Q1020 NOSIG",
      "tafRaw": "TAF LJLJ 131100Z 1312/1412 30007KT 9999 SCT025",
      "metarHtml": "METAR LJLJ 131430Z 30003KT 9999 FEW035 BKN180 01/M00 Q1020 NOSIG",
      "tafHtml": "TAF LJLJ 131100Z 1312/1412 30007KT 9999 SCT025"
    },
    {
      "icao": "LMML",
      "iata": "MLA",
      "name": "Malta International Airport",
      "updatedAt": "131445Z",
      "visibility_m": 10000,
      "taf_visibility_m": 10000,
      "worst_visibility_m": 10000,
      "ceiling_ft": null,
      "hazards": [],
      "severityScore": 0,
      "metarRaw": "METAR LMML 131445Z 21006KT 150V250 9999 FEW032 15/09 Q1026 NOSIG",
      "tafRaw": "TAF LMML 131100Z 1312/1412 24008KT 9999 SCT028",
      "metarHtml": "METAR LMML 131445Z 21006KT 150V250 9999 FEW032 15/09 Q1026 NOSIG",
      "tafHtml": "TAF LMML 131100Z 1312/1412 24008KT 9999 SCT028"
    },
    {
      "icao": "LTFM",
      "iata": "IST",
      "name": "İstanbul Airport",
      "updatedAt": "131450Z",
      "visibility_m": 10000,
      "taf_visibility_m": 10000,
      "worst_visibility_m": 10000,
      "ceiling_ft": null,
      "hazards": [],
      "severityScore": 0,
      "metarRaw": "METAR LTFM 131450Z 22008KT 9999 FEW040 02/M04 Q1023 NOSIG RMK RWY17L 22009KT RWY34L 22007KT RWY16R 22007KT RWY36 22008KT RWY18 23010KT",
      "tafRaw": "TAF LTFM 131040Z 1312/1418 30010KT 9999 BKN028 \n  BECMG 1312/1315 18007KT SCT035 \n  BECMG 1318/1321 BKN032 BKN080 \n  TEMPO 1400/1404 21017KT -SHRASN BKN016 BKN025 \n  BECMG 1405/1408 32010KT",
      "metarHtml": "METAR LTFM 131450Z 22008KT 9999 FEW040 02/M04 Q1023 NOSIG RMK RWY17L 22009KT RWY34L 22007KT RWY16R 22007KT RWY36 22008KT RWY18 23010KT",
      "tafHtml": "TAF LTFM 131040Z 1312/1418 30010KT 9999 BKN028 \n  BECMG 1312/1315 18007KT SCT035 \n  BECMG 1318/1321 BKN032 BKN080 \n  TEMPO 1400/1404 21017KT -SHRASN BKN016 BKN025 \n  BECMG 1405/1408 32010KT"
    },
    {
      "icao": "LWOH",
      "iata": "OHD",
      "name": "Ohrid St. Paul the Apostle Airport",
      "updatedAt": "131450Z",
      "visibility_m": 10000,
      "taf_visibility_m": 10000,
      "worst_visibility_m": 10000,
      "ceiling_ft": 3500,
      "hazards": [],
      "severityScore": 0,
      "metarRaw": "METAR LWOH 131450Z 08004KT 050V120 9999 BKN035 04/01 Q1023",
      "tafRaw": "TAF LWOH 131440Z 1315/1415 VRB03KT 9999 FEW040",
      "metarHtml": "METAR LWOH 131450Z 08004KT 050V120 9999 BKN035 04/01 Q1023",
      "tafHtml": "TAF LWOH 131440Z 1315/1415 VRB03KT 9999 FEW040"
    },
    {
      "icao": "LWSK",
      "iata": "SKP",
      "name": "Skopje International Airport",
      "updatedAt": "131450Z",
      "visibility_m": 10000,
      "taf_visibility_m": 10000,
      "worst_visibility_m": 10000,
      "ceiling_ft": 9000,
      "hazards": [],
      "severityScore": 0,
      "metarRaw": "METAR LWSK 131450Z 31003KT 260V350 9999 FEW050 BKN090 04/M06 Q1023 NOSIG",
      "tafRaw": "TAF LWSK 131440Z 1315/1415 VRB02KT 9999 FEW070",
      "metarHtml": "METAR LWSK 131450Z 31003KT 260V350 9999 FEW050 BKN090 04/M06 Q1023 NOSIG",
      "tafHtml": "TAF LWSK 131440Z 1315/1415 VRB02KT 9999 FEW070"
    },
    {
      "icao": "LYPG",
      "iata": "TGD",
      "name": "Podgorica Airport / Podgorica Golubovci Airbase",
      "updatedAt": "131430Z",
      "visibility_m": 10000,
      "taf_visibility_m": 10000,
      "worst_visibility_m": 10000,
      "ceiling_ft": 4000,
      "hazards": [],
      "severityScore": 0,
      "metarRaw": "METAR LYPG 131430Z VRB01KT 9999 FEW030 BKN040 OVC070 04/M04 Q1027 NOSIG",
      "tafRaw": "TAF LYPG 131100Z 1312/1412 16006KT 9999 FEW027 BKN040 BKN080 TX09/1412Z TN01/1406Z",
      "metarHtml": "METAR LYPG 131430Z VRB01KT 9999 FEW030 BKN040 OVC070 04/M04 Q1027 NOSIG",
      "tafHtml": "TAF LYPG 131100Z 1312/1412 16006KT 9999 FEW027 BKN040 BKN080 TX09/1412Z TN01/1406Z"
    },
    {
      "icao": "OEJN",
      "iata": "JED",
      "name": "King Abdulaziz International Airport",
      "updatedAt": "131400Z",
      "visibility_m": 10000,
      "taf_visibility_m": 7000,
      "worst_visibility_m": 7000,
      "ceiling_ft": null,
      "hazards": [],
      "severityScore": 0,
      "metarRaw": "METAR OEJN 131400Z 33013KT 9999 FEW040 28/17 Q1015 NOSIG",
      "tafRaw": "TAF OEJN 131100Z 1312/1418 35010KT 7000 SCT040 \n  BECMG 1400/1402 03005KT \n  BECMG 1408/1410 33010KT 9999 FEW040",
      "metarHtml": "METAR OEJN 131400Z 33013KT 9999 FEW040 28/17 Q1015 NOSIG",
      "tafHtml": "TAF OEJN 131100Z 1312/1418 35010KT 7000 SCT040 \n  BECMG 1400/1402 03005KT \n  BECMG 1408/1410 33010KT 9999 FEW040"
    },
    {
      "icao": "OEMA",
      "iata": "MED",
      "name": "Prince Mohammad Bin Abdulaziz Airport",
      "updatedAt": "131400Z",
      "visibility_m": 10000,
      "taf_visibility_m": 7000,
      "worst_visibility_m": 7000,
      "ceiling_ft": null,
      "hazards": [],
      "severityScore": 0,
      "metarRaw": "METAR OEMA 131400Z 22011KT CAVOK 27/07 Q1017 NOSIG",
      "tafRaw": "TAF OEMA 131100Z 1312/1418 33010KT 7000 FEW040 \n  BECMG 1400/1402 VRB03KT \n  BECMG 1408/1410 10008KT CAVOK",
      "metarHtml": "METAR OEMA 131400Z 22011KT <span class=\"hl-vis\">CAVOK</span> 27/07 Q1017 NOSIG",
      "tafHtml": "TAF OEMA 131100Z 1312/1418 33010KT 7000 FEW040 \n  BECMG 1400/1402 VRB03KT \n  BECMG 1408/1410 10008KT <span class=\"hl-vis\">CAVOK</span>"
    },
    {
      "icao": "OMAA",
      "iata": "AUH",
      "name": "Zayed International Airport",
      "updatedAt": "131400Z",
      "visibility_m": 10000,
      "taf_visibility_m": 4000,
      "worst_visibility_m": 4000,
      "ceiling_ft": null,
      "hazards": [],
      "severityScore": 0,
      "metarRaw": "METAR OMAA 131400Z 34009KT CAVOK 22/12 Q1019 NOSIG",
      "tafRaw": "TAF OMAA 131100Z 1312/1418 34010KT 8000 NSC \n  BECMG 1318/1320 06005KT \n  PROB30 1323/1405 4000 HZ \n  BECMG 1413/1415 32010KT",
      "metarHtml": "METAR OMAA 131400Z 34009KT <span class=\"hl-vis\">CAVOK</span> 22/12 Q1019 NOSIG",
      "tafHtml": "TAF OMAA 131100Z 1312/1418 34010KT 8000 NSC \n  BECMG 1318/1320 06005KT \n  PROB30 1323/1405 4000 HZ \n  BECMG 1413/1415 32010KT"
    },
    {
      "icao": "OMDB",
      "iata": "DXB",
      "name": "Dubai International Airport",
      "updatedAt": "131430Z",
      "visibility_m": 10000,
      "taf_visibility_m": 4000,
      "worst_visibility_m": 4000,
      "ceiling_ft": null,
      "hazards": [],
      "severityScore": 0,
      "metarRaw": "METAR OMDB 131430Z 31006KT 290V360 CAVOK 22/15 Q1020 NOSIG",
      "tafRaw": "TAF OMDB 131100Z 1312/1418 32010KT 8000 NSC \n  BECMG 1316/1318 12005KT \n  PROB30 1401/1405 4000 HZ \n  BECMG 1408/1410 29010KT \n  BECMG 1416/1418 06005KT",
      "metarHtml": "METAR OMDB 131430Z 31006KT 290V360 <span class=\"hl-vis\">CAVOK</span> 22/15 Q1020 NOSIG",
      "tafHtml": "TAF OMDB 131100Z 1312/1418 32010KT 8000 NSC \n  BECMG 1316/1318 12005KT \n  PROB30 1401/1405 4000 HZ \n  BECMG 1408/1410 29010KT \n  BECMG 1416/1418 06005KT"
    }
  ],
  "stats": {
    "icaoCount": 159,
    "metarReturned": 159,
    "tafReturned": 145,
    "stationsWritten": 159,
    "missingMetar": 0,
    "missingTaf": 14
  },
  "errors": []
}