{
  "generatedAt": "2026-02-02T08:47:24.295Z",
  "stations": [
    {
      "icao": "EDFH",
      "iata": "HHN",
      "name": "Frankfurt-Hahn Airport",
      "lat": 49.946353,
      "lon": 7.261734,
      "updatedAt": "020820Z",
      "visibility_m": 6000,
      "taf_visibility_m": 600,
      "worst_visibility_m": 600,
      "ceiling_ft": 200,
      "hazards": [
        "FZFG",
        "FG",
        "BR",
        "FZRA",
        "SN",
        "RA"
      ],
      "severityScore": 100,
      "metarRaw": "METAR EDFH 020820Z 13014KT 6000 OVC002 M00/M00 Q1000",
      "tafRaw": "TAF EDFH 020500Z 0206/0306 13012KT 3000 BR VV003 \n  TEMPO 0206/0210 0600 -SNRA FG VV000 \n  TEMPO 0210/0220 0800 FG VV000 \n  TEMPO 0220/0304 0800 FZFG VV000 \n  BECMG 0304/0306 CAVOK \n  PROB30 \n  TEMPO 0304/0306 -FZRA"
    },
    {
      "icao": "EGNM",
      "iata": "LBA",
      "name": "Leeds Bradford Airport",
      "lat": 53.865898,
      "lon": -1.66057,
      "updatedAt": "020820Z",
      "visibility_m": 500,
      "taf_visibility_m": 300,
      "worst_visibility_m": 300,
      "ceiling_ft": 0,
      "hazards": [
        "FG",
        "BR",
        "SN",
        "RA",
        "DZ"
      ],
      "severityScore": 100,
      "metarRaw": "METAR EGNM 020820Z 09009KT 0500 R14/1100U FG VV/// 05/05 Q0999",
      "tafRaw": "TAF EGNM 020559Z 0206/0306 VRB03KT 0300 FG BKN000 \n  PROB40 \n  TEMPO 0206/0210 2000 BR BKN003 \n  BECMG 0210/0213 09011KT 9999 NSW BKN006 \n  TEMPO 0213/0306 6000 -RADZ BKN004 \n  PROB30 \n  TEMPO 0218/0306 4000 -RASN"
    },
    {
      "icao": "LIMC",
      "iata": "MXP",
      "name": "Milan Malpensa International Airport",
      "lat": 45.6306,
      "lon": 8.72811,
      "updatedAt": "020820Z",
      "visibility_m": 5000,
      "taf_visibility_m": 300,
      "worst_visibility_m": 300,
      "ceiling_ft": 3500,
      "hazards": [
        "BR",
        "FG",
        "RA",
        "SN"
      ],
      "severityScore": 100,
      "metarRaw": "METAR LIMC 020820Z 02003KT 5000 BR BKN035 04/04 Q1008 NOSIG",
      "tafRaw": "TAF LIMC 020500Z 0206/0312 VRB05KT 3000 BR SCT050 \n  TEMPO 0206/0210 0300 FG OVC003 \n  BECMG 0218/0220 RA OVC010 \n  PROB40 \n  TEMPO 0303/0309 1200 RASN"
    },
    {
      "icao": "LIMF",
      "iata": "TRN",
      "name": "Turin Airport",
      "lat": 45.200802,
      "lon": 7.64963,
      "updatedAt": "020820Z",
      "visibility_m": 4500,
      "taf_visibility_m": 300,
      "worst_visibility_m": 300,
      "ceiling_ft": 4000,
      "hazards": [
        "BR",
        "FG",
        "SN",
        "RA"
      ],
      "severityScore": 100,
      "metarRaw": "METAR LIMF 020820Z VRB02KT 4500 BR OVC040 04/01 Q1008",
      "tafRaw": "TAF LIMF 020500Z 0206/0306 VRB04KT 3000 BR BKN010 \n  TEMPO 0206/0210 0300 FG OVC002 \n  BECMG 0218/0220 -RA \n  BECMG 0300/0302 1200 SN OVC004"
    },
    {
      "icao": "UDYZ",
      "iata": "EVN",
      "name": "Zvartnots International Airport",
      "lat": 40.148941,
      "lon": 44.397887,
      "updatedAt": "020830Z",
      "visibility_m": 1200,
      "taf_visibility_m": 400,
      "worst_visibility_m": 400,
      "ceiling_ft": 4600,
      "hazards": [
        "RA",
        "FG",
        "FZFG",
        "BR",
        "SN"
      ],
      "severityScore": 100,
      "metarRaw": "METAR UDYZ 020830Z 09002KT 1200 0900W R08/0900U -RA BCFG BKN046 02/00 Q1019 NOSIG",
      "tafRaw": "TAF UDYZ 020500Z 0206/0306 VRB04KT 1500 BR SCT020 \n  TEMPO 0206/0209 0400 FZFG VV002 \n  TEMPO 0209/0215 RASN OVC010"
    },
    {
      "icao": "LEAL",
      "iata": "ALC",
      "name": "Alicante-Elche Miguel Hernández Airport",
      "lat": 38.2822,
      "lon": -0.558156,
      "updatedAt": "020830Z",
      "visibility_m": 10000,
      "taf_visibility_m": 800,
      "worst_visibility_m": 800,
      "ceiling_ft": 200,
      "hazards": [
        "BR",
        "FG"
      ],
      "severityScore": 90,
      "metarRaw": "METAR LEAL 020830Z 00000KT 9999 SCT009 12/11 Q1001 NOSIG",
      "tafRaw": "TAF LEAL 020500Z 0206/0306 VRB04KT 9999 FEW030 TX19/0213Z TN09/0206Z \n  PROB40 \n  TEMPO 0206/0210 3000 BR BKN005 \n  PROB40 \n  TEMPO 0206/0209 0800 BCFG VV002 \n  BECMG 0211/0213 25015KT \n  TEMPO 0213/0216 25018G28KT \n  BECMG 0218/0220 26005KT"
    },
    {
      "icao": "LTFM",
      "iata": "IST",
      "name": "İstanbul Airport",
      "lat": 41.261297,
      "lon": 28.741951,
      "updatedAt": "020820Z",
      "visibility_m": 10000,
      "taf_visibility_m": 2500,
      "worst_visibility_m": 2500,
      "ceiling_ft": 400,
      "hazards": [
        "SHRA",
        "RA",
        "SHSN",
        "SN"
      ],
      "severityScore": 89,
      "metarRaw": "METAR LTFM 020820Z 36017KT 9999 -SHRA BKN004 BKN022 07/06 Q1006 NOSIG RMK RWY17L 33016KT RWY34L 34018KT RWY16R 35016KT RWY36 36016KT RWY18 36016KT",
      "tafRaw": "TAF LTFM 020440Z 0206/0312 02017KT 9999 -SHRA BKN007 BKN025 \n  TEMPO 0206/0210 02018G28KT 4000 SHRA BKN004 BKN022 \n  BECMG 0210/0212 34024G34KT -SHSNRA \n  PROB40 0213/0216 4000 -SHSN BKN004 BKN018 \n  BECMG 0216/0218 4000 -SHSN \n  TEMPO 0218/0222 2500 SHSN BKN003 BKN018 \n  BECMG 0221/0223 34015KT \n  PROB40 \n  TEMPO 0300/0303 2500 SHSN BKN003 BKN018 \n  BECMG 0305/0308 36005KT 9999 BKN011 BKN022"
    },
    {
      "icao": "LEBL",
      "iata": "BCN",
      "name": "Josep Tarradellas Barcelona-El Prat Airport",
      "lat": 41.2971,
      "lon": 2.07846,
      "updatedAt": "020830Z",
      "visibility_m": 10000,
      "taf_visibility_m": 3000,
      "worst_visibility_m": 3000,
      "ceiling_ft": 1600,
      "hazards": [
        "TSRA",
        "RA",
        "SHRA",
        "TS"
      ],
      "severityScore": 88,
      "metarRaw": "METAR LEBL 020830Z 34009G19KT 300V010 9999 SCT009 BKN016 08/05 Q1000 NOSIG",
      "tafRaw": "TAF LEBL 020500Z 0206/0306 33007KT 9999 SCT010 TX15/0212Z TN06/0206Z \n  TEMPO 0206/0212 BKN008 \n  TEMPO 0212/0222 4000 RA SHRA BKN008 FEW020TCU \n  BECMG 0212/0214 22010KT \n  TEMPO 0216/0219 22015G25KT \n  PROB30 0218/0222 3000 TSRA FEW020CB \n  BECMG 0219/0221 27007KT"
    },
    {
      "icao": "LCLK",
      "iata": "LCA",
      "name": "Larnaca International Airport",
      "lat": 34.875099,
      "lon": 33.624901,
      "updatedAt": "020830Z",
      "visibility_m": 2000,
      "taf_visibility_m": 1500,
      "worst_visibility_m": 1500,
      "ceiling_ft": null,
      "hazards": [
        "TSRA",
        "SHRA",
        "TS",
        "RA"
      ],
      "severityScore": 86,
      "metarRaw": "METAR LCLK 020830Z 23020KT 2000 DU NSC 20/14 Q1010 NOSIG",
      "tafRaw": "TAF LCLK 020530Z 0206/0306 22009KT 8000 DU FEW020 \n  BECMG 0206/0210 3000 DU \n  PROB40 \n  TEMPO 0208/0214 1500 DU \n  BECMG 0208/0210 22020KT \n  PROB30 \n  TEMPO 0208/0218 22020G30KT \n  BECMG 0213/0216 9999 \n  PROB40 \n  TEMPO 0213/0218 5000 SHRA SCT025TCU FEW030CB \n  PROB30 \n  TEMPO 0213/0218 VRB15G25KT 3000 TSRA FEW030CB \n  BECMG 0215/0218 25009KT"
    },
    {
      "icao": "LRSB",
      "iata": "SBZ",
      "name": "Sibiu International Airport",
      "lat": 45.785841,
      "lon": 24.086666,
      "updatedAt": "020830Z",
      "visibility_m": 8000,
      "taf_visibility_m": 1500,
      "worst_visibility_m": 1500,
      "ceiling_ft": 4300,
      "hazards": [
        "SN",
        "BR",
        "FZRA",
        "RA"
      ],
      "severityScore": 85,
      "metarRaw": "METAR LRSB 020830Z VRB02KT 8000 -SN SCT011 SCT020 BKN043 M01/M02 Q1009 NOSIG",
      "tafRaw": "TAF LRSB 020500Z 0206/0306 VRB04KT 5000 -SN SCT015 OVC030 \n  TEMPO 0206/0212 11010KT 1500 SN BKN010 OVC025 \n  PROB30 \n  TEMPO 0209/0212 -FZRA \n  PROB30 \n  TEMPO 0214/0218 1500 -SN BR BKN005 OVC020"
    },
    {
      "icao": "UAAA",
      "iata": "ALA",
      "name": "Almaty International Airport",
      "lat": 43.354267,
      "lon": 77.042828,
      "updatedAt": "020830Z",
      "visibility_m": 4300,
      "taf_visibility_m": 600,
      "worst_visibility_m": 600,
      "ceiling_ft": 20000,
      "hazards": [
        "FZFG",
        "BR",
        "FG"
      ],
      "severityScore": 85,
      "metarRaw": "METAR UAAA 020830Z 27004MPS 4300 FU BKN200 07/M03 Q1019 NOSIG",
      "tafRaw": "TAF UAAA 020505Z 0206/0306 26003MPS 6000 BKN100 TX05/0209Z TNM05/0302Z \n  TEMPO 0206/0209 1800 BR FU \n  TEMPO 0209/0214 3100 BR FU \n  FM021400 22002MPS 1500 BR FU BKN100 \n  TEMPO 0214/0302 0600 FZFG SCT011 BKN050"
    },
    {
      "icao": "LZIB",
      "iata": "BTS",
      "name": "M. R. Štefánik Airport",
      "lat": 48.1702,
      "lon": 17.2127,
      "updatedAt": "020830Z",
      "visibility_m": 1400,
      "taf_visibility_m": null,
      "worst_visibility_m": 1400,
      "ceiling_ft": 300,
      "hazards": [
        "BR",
        "SN"
      ],
      "severityScore": 78,
      "metarRaw": "METAR LZIB 020830Z 13003KT 1400 R31/P2000N R22/P2000N -SN BR FEW002 OVC003 M00/M00 Q1010 NOSIG",
      "tafRaw": null
    },
    {
      "icao": "LEZL",
      "iata": "SVQ",
      "name": "Sevilla Airport",
      "lat": 37.417999,
      "lon": -5.89311,
      "updatedAt": "020830Z",
      "visibility_m": 10000,
      "taf_visibility_m": 2000,
      "worst_visibility_m": 2000,
      "ceiling_ft": 4000,
      "hazards": [
        "TSRA",
        "RA",
        "SHRA",
        "TS"
      ],
      "severityScore": 76,
      "metarRaw": "METAR LEZL 020830Z 22009KT 190V250 9999 FEW015 BKN040 11/10 Q1003 NOSIG",
      "tafRaw": "TAF LEZL 020800Z 0209/0309 23010KT 9999 SCT025 TX16/0215Z TN10/0307Z \n  PROB40 \n  TEMPO 0209/0222 23017G27KT 3000 RA SHRA BKN014 FEW020CB \n  PROB40 \n  TEMPO 0217/0222 2000 TSRA SCT020CB"
    },
    {
      "icao": "LFMN",
      "iata": "NCE",
      "name": "Nice-Côte d'Azur Airport",
      "lat": 43.658401,
      "lon": 7.21587,
      "updatedAt": "020830Z",
      "visibility_m": 10000,
      "taf_visibility_m": 2000,
      "worst_visibility_m": 2000,
      "ceiling_ft": 23000,
      "hazards": [
        "TSRA",
        "RA",
        "SHRA",
        "TS"
      ],
      "severityScore": 76,
      "metarRaw": "METAR LFMN 020830Z 34009KT 9999 SCT017 SCT043 BKN230 08/02 Q1006 NOSIG",
      "tafRaw": "TAF LFMN 020800Z 0209/0315 34010KT 9999 FEW015 BKN030 \n  PROB30 \n  TEMPO 0209/0210 BKN014 \n  BECMG 0209/0211 07015KT \n  TEMPO 0211/0305 4000 SHRA FEW020TCU \n  PROB40 \n  TEMPO 0220/0305 34010KT 2000 +RA \n  BECMG 0222/0224 09025G35KT \n  PROB30 \n  TEMPO 0300/0305 VRB20G35KT +TSRA SCT040CB \n  BECMG 0305/0307 07012KT \n  PROB30 \n  TEMPO 0307/0315 FEW030TCU"
    },
    {
      "icao": "LOWW",
      "iata": "VIE",
      "name": "Vienna International Airport",
      "lat": 48.110298,
      "lon": 16.5697,
      "updatedAt": "020820Z",
      "visibility_m": 1200,
      "taf_visibility_m": 2000,
      "worst_visibility_m": 1200,
      "ceiling_ft": 200,
      "hazards": [
        "BR",
        "FG"
      ],
      "severityScore": 75,
      "metarRaw": "METAR LOWW 020820Z 08003KT 050V110 1500 R11/P1500U R16/P1500D BR FEW001 OVC003 M03/M04 Q1010 TEMPO 1200 BCFG OVC002",
      "tafRaw": "TAF LOWW 020815Z 0209/0315 08004KT 2000 BR OVC003 TX02/0214Z TNM02/0209Z \n  BECMG 0209/0211 13015KT 6000 NSW BKN020 \n  TEMPO 0209/0220 OVC010 \n  TEMPO 0220/0315 2000 BR OVC003"
    },
    {
      "icao": "LBPD",
      "iata": "PDV",
      "name": "Plovdiv International Airport",
      "lat": 42.067799,
      "lon": 24.8508,
      "updatedAt": "020830Z",
      "visibility_m": 3000,
      "taf_visibility_m": null,
      "worst_visibility_m": 3000,
      "ceiling_ft": 1000,
      "hazards": [
        "BR",
        "SN",
        "SHRA",
        "RA"
      ],
      "severityScore": 71,
      "metarRaw": "METAR LBPD 020830Z AUTO 11004KT 5000 -SHRA BR OVC061/// 00/00 Q1010 TEMPO 3000 -SN BR SCT005 BKN010",
      "tafRaw": null
    },
    {
      "icao": "EHEH",
      "iata": "EIN",
      "name": "Eindhoven Airport",
      "lat": 51.4500999451,
      "lon": 5.37452983856,
      "updatedAt": null,
      "visibility_m": null,
      "taf_visibility_m": 4000,
      "worst_visibility_m": 4000,
      "ceiling_ft": 1200,
      "hazards": [
        "FZRA",
        "RA",
        "DZ"
      ],
      "severityScore": 69,
      "metarRaw": null,
      "tafRaw": "TAF EHEH 020556Z 0206/0312 09008KT 7000 BKN030 \n  TEMPO 0206/0209 4000 -RADZ SCT008 BKN012 \n  TEMPO 0212/0215 SCT015 \n  BECMG 0306/0308 BKN018 \n  TEMPO 0307/0312 4000 RA SCT008 BKN012 OVC015 \n  PROB30 \n  TEMPO 0307/0312 FZRA"
    },
    {
      "icao": "EDSB",
      "iata": "FKB",
      "name": "Karlsruhe Baden-Baden Airport",
      "lat": 48.7794,
      "lon": 8.0805,
      "updatedAt": "020820Z",
      "visibility_m": 6000,
      "taf_visibility_m": 600,
      "worst_visibility_m": 600,
      "ceiling_ft": 2200,
      "hazards": [
        "RA",
        "FG",
        "BR"
      ],
      "severityScore": 67,
      "metarRaw": "METAR EDSB 020820Z VRB02KT 6000 SCT003 BKN022 02/02 Q1002 RERA",
      "tafRaw": "TAF EDSB 020500Z 0206/0306 03004KT 8000 BKN040 \n  TEMPO 0206/0209 4000 RA BR \n  TEMPO 0209/0213 BKN010 \n  BECMG 0216/0218 03009KT \n  TEMPO 0221/0303 1200 BCFG \n  PROB30 \n  TEMPO 0221/0303 0600 FG VV000 \n  TEMPO 0303/0306 RA"
    },
    {
      "icao": "EDDS",
      "iata": "STR",
      "name": "Stuttgart Airport",
      "lat": 48.689899,
      "lon": 9.22196,
      "updatedAt": "020820Z",
      "visibility_m": 9000,
      "taf_visibility_m": 4000,
      "worst_visibility_m": 4000,
      "ceiling_ft": 3000,
      "hazards": [
        "SN",
        "RA",
        "FZRA"
      ],
      "severityScore": 65,
      "metarRaw": "METAR EDDS 020820Z AUTO 10005KT 070V140 9000 -SHSNRA BKN030 BKN037 BKN046 FEW///TCU 00/M01 Q1001 NOSIG",
      "tafRaw": "TAF EDDS 020500Z 0206/0306 08004KT CAVOK \n  PROB30 \n  TEMPO 0206/0208 4000 -FZRA \n  PROB30 \n  TEMPO 0208/0210 4000 -SNRA BKN014 \n  PROB30 \n  TEMPO 0303/0306 4000 -FZRA"
    },
    {
      "icao": "LHBP",
      "iata": "BUD",
      "name": "Budapest Liszt Ferenc International Airport",
      "lat": 47.43018,
      "lon": 19.262393,
      "updatedAt": "020830Z",
      "visibility_m": 3500,
      "taf_visibility_m": 2500,
      "worst_visibility_m": 2500,
      "ceiling_ft": 600,
      "hazards": [
        "BR",
        "SN",
        "SHSN"
      ],
      "severityScore": 63,
      "metarRaw": "METAR LHBP 020830Z 14005KT 3500 -SN BR OVC006 00/M01 Q1011 NOSIG",
      "tafRaw": "TAF LHBP 020515Z 0206/0306 18004KT 9999 BKN040 \n  PROB40 \n  TEMPO 0206/0211 2500 SN SHSN BKN007 OVC020 \n  BECMG 0214/0217 12006KT CAVOK \n  BECMG 0303/0306 10011KT OVC040"
    },
    {
      "icao": "EGPD",
      "iata": "ABZ",
      "name": "Aberdeen International Airport",
      "lat": 57.2019,
      "lon": -2.19778,
      "updatedAt": "020820Z",
      "visibility_m": 4100,
      "taf_visibility_m": null,
      "worst_visibility_m": 4100,
      "ceiling_ft": 400,
      "hazards": [
        "RA",
        "DZ"
      ],
      "severityScore": 62,
      "metarRaw": "METAR EGPD 020820Z AUTO 12013KT 4100 RADZ BKN006/// BKN010/// OVC016/// //////TCU 06/04 Q1003 TEMPO BKN004",
      "tafRaw": null
    },
    {
      "icao": "LLBG",
      "iata": "TLV",
      "name": "Ben Gurion International Airport",
      "lat": 32.011398,
      "lon": 34.8867,
      "updatedAt": "020820Z",
      "visibility_m": 5000,
      "taf_visibility_m": 5000,
      "worst_visibility_m": 5000,
      "ceiling_ft": 3000,
      "hazards": [
        "TSRA",
        "TS",
        "RA"
      ],
      "severityScore": 62,
      "metarRaw": "METAR LLBG 020820Z 21010KT CAVOK 23/07 Q1014 BECMG 22020G30KT 5000 DU",
      "tafRaw": "TAF LLBG 020505Z 0206/0306 20007KT CAVOK \n  BECMG 0207/0209 25015KT 8000 \n  PROB40 \n  TEMPO 0209/0214 27018G28KT 5000 HZ \n  BECMG 0214/0216 VRB04KT \n  BECMG 0222/0224 18010KT 9999 SCT030 \n  PROB40 \n  TEMPO 0302/0306 22015G27KT 5000 TSRA FEW025CB BKN030 TX22/0209Z TN13/0304Z"
    },
    {
      "icao": "GMMX",
      "iata": "RAK",
      "name": "Marrakesh Menara Airport",
      "lat": 31.604807,
      "lon": -8.035788,
      "updatedAt": "020830Z",
      "visibility_m": 8000,
      "taf_visibility_m": 3000,
      "worst_visibility_m": 3000,
      "ceiling_ft": 600,
      "hazards": [
        "BR",
        "SHRA",
        "RA"
      ],
      "severityScore": 61,
      "metarRaw": "METAR GMMX 020830Z 14008KT 8000 FEW013 SCT023 11/10 Q1012 NOSIG",
      "tafRaw": "TAF GMMX 020500Z 0206/0312 26006KT 8000 SCT026 \n  TEMPO 0206/0209 3000 BR BKN006 \n  BECMG 0212/0214 34018G36KT 4000 SHRA SCT013 BKN020 FEW026TCU \n  BECMG 0308/0310 06006KT 8000 SCT026"
    },
    {
      "icao": "LPPR",
      "iata": "OPO",
      "name": "Francisco de Sá Carneiro Airport",
      "lat": 41.2481002808,
      "lon": -8.68138980865,
      "updatedAt": "020830Z",
      "visibility_m": 8000,
      "taf_visibility_m": 1500,
      "worst_visibility_m": 1500,
      "ceiling_ft": 2500,
      "hazards": [
        "SHRA",
        "RA",
        "TS"
      ],
      "severityScore": 61,
      "metarRaw": "METAR LPPR 020830Z 24010KT 220V300 8000 -SHRA FEW015 FEW018CB BKN025 09/07 Q0992 RESHRA",
      "tafRaw": "TAF LPPR 020512Z 0206/0306 25015KT 9999 SCT025 \n  TEMPO 0206/0306 25020G33KT 5000 SHRA SCT012 FEW018CB BKN030 \n  PROB40 \n  TEMPO 0206/0302 1500 +TSRAGS SCT015CB"
    },
    {
      "icao": "LFOB",
      "iata": "BVA",
      "name": "Beauvais Tillé airport",
      "lat": 49.454399,
      "lon": 2.11278,
      "updatedAt": "020830Z",
      "visibility_m": 400,
      "taf_visibility_m": null,
      "worst_visibility_m": 400,
      "ceiling_ft": null,
      "hazards": [
        "FG"
      ],
      "severityScore": 60,
      "metarRaw": "METAR LFOB 020830Z AUTO 00000KT 0750 0500 R30/1500U R12/0700N FG VV/// 00/00 Q0998 TEMPO 0400 FG",
      "tafRaw": null
    },
    {
      "icao": "EBCI",
      "iata": "CRL",
      "name": "Brussels South Charleroi Airport",
      "lat": 50.461963,
      "lon": 4.459562,
      "updatedAt": "020820Z",
      "visibility_m": 10000,
      "taf_visibility_m": 3500,
      "worst_visibility_m": 3500,
      "ceiling_ft": 800,
      "hazards": [
        "BR",
        "RA",
        "DZ"
      ],
      "severityScore": 57,
      "metarRaw": "METAR EBCI 020820Z 10005KT 9999 FEW008 BKN032 05/04 Q0998 TEMPO BKN008",
      "tafRaw": "TAF EBCI 020509Z 0206/0312 12006KT 9999 SCT012 BKN017 \n  TEMPO 0206/0210 SCT006 BKN012 \n  PROB40 \n  TEMPO 0206/0209 3500 -RADZ BR SCT004 BKN006 \n  PROB30 \n  TEMPO 0206/0209 BKN004 \n  PROB30 \n  TEMPO 0305/0309 4500 RA SCT006 BKN012"
    },
    {
      "icao": "EYKA",
      "iata": "KUN",
      "name": "Kaunas International Airport",
      "lat": 54.963965,
      "lon": 24.08582,
      "updatedAt": "020820Z",
      "visibility_m": 9000,
      "taf_visibility_m": 1500,
      "worst_visibility_m": 1500,
      "ceiling_ft": 200,
      "hazards": [
        "BR"
      ],
      "severityScore": 55,
      "metarRaw": "METAR EYKA 020820Z 24001KT 9000 4200E NSC M23/M26 Q1024",
      "tafRaw": "TAF EYKA 020500Z 0206/0306 VRB04KT 7000 NSC \n  TEMPO 0206/0209 3000 BR SCT002 \n  TEMPO 0217/0224 3000 BR SCT002 \n  TEMPO 0300/0306 1500 BR BKN002"
    },
    {
      "icao": "ENTC",
      "iata": "TOS",
      "name": "Tromsø Airport, Langnes",
      "lat": 69.683296,
      "lon": 18.9189,
      "updatedAt": null,
      "visibility_m": null,
      "taf_visibility_m": 1800,
      "worst_visibility_m": 1800,
      "ceiling_ft": 900,
      "hazards": [
        "SHSN",
        "SN"
      ],
      "severityScore": 53,
      "metarRaw": null,
      "tafRaw": "TAF ENTC 020500Z 0206/0306 20009KT 9999 -SHSN FEW025 BKN040 \n  TEMPO 0206/0209 1800 -SHSN VV009"
    },
    {
      "icao": "LRTR",
      "iata": "TSR",
      "name": "Timişoara Traian Vuia Airport",
      "lat": 45.809898,
      "lon": 21.3379,
      "updatedAt": "020830Z",
      "visibility_m": 3500,
      "taf_visibility_m": 3000,
      "worst_visibility_m": 3000,
      "ceiling_ft": 700,
      "hazards": [
        "BR",
        "SN"
      ],
      "severityScore": 53,
      "metarRaw": "METAR LRTR 020830Z 22005KT 3500 -SN BR BKN007 BKN035 M02/M03 Q1013",
      "tafRaw": "TAF LRTR 020500Z 0206/0306 24006KT 5000 -SN BR BKN010 BKN030 \n  BECMG 0208/0210 9999 NSW SCT015 BKN035 \n  PROB30 \n  TEMPO 0222/0305 3000 BR BKN010"
    },
    {
      "icao": "LPPT",
      "iata": "LIS",
      "name": "Lisbon Humberto Delgado Airport",
      "lat": 38.7813,
      "lon": -9.13592,
      "updatedAt": "020830Z",
      "visibility_m": 9000,
      "taf_visibility_m": 2000,
      "worst_visibility_m": 2000,
      "ceiling_ft": 3200,
      "hazards": [
        "SHRA",
        "RA",
        "TS"
      ],
      "severityScore": 51,
      "metarRaw": "METAR LPPT 020830Z 25013G25KT 220V300 9000 SHRA FEW015 FEW025CB BKN032 11/08 Q0997 WS R20",
      "tafRaw": "TAF LPPT 020512Z 0206/0312 27015KT 9999 SCT025 \n  TEMPO 0206/0312 26020G33KT 5000 SHRA SCT015 FEW018CB BKN030 \n  PROB30 \n  TEMPO 0206/0224 2000 TSRAGS SCT015CB"
    },
    {
      "icao": "LCPH",
      "iata": "PFO",
      "name": "Paphos International Airport",
      "lat": 34.717999,
      "lon": 32.485699,
      "updatedAt": "020830Z",
      "visibility_m": 1500,
      "taf_visibility_m": null,
      "worst_visibility_m": 1500,
      "ceiling_ft": 300,
      "hazards": [],
      "severityScore": 50,
      "metarRaw": "METAR LCPH 020830Z 25006KT 1500 BKN003 SCT020 18/13 Q1011 NOSIG",
      "tafRaw": null
    },
    {
      "icao": "LFPO",
      "iata": "ORY",
      "name": "Paris-Orly Airport",
      "lat": 48.72333,
      "lon": 2.37944,
      "updatedAt": "020830Z",
      "visibility_m": 600,
      "taf_visibility_m": null,
      "worst_visibility_m": 600,
      "ceiling_ft": null,
      "hazards": [
        "FG"
      ],
      "severityScore": 50,
      "metarRaw": "METAR LFPO 020830Z 00000KT 8000 0800W R02/1100U R25/P2000 R07/1700U R24/P2000 R06/0500N BCFG FEW033 04/04 Q0998 TEMPO 0600 FG VV///",
      "tafRaw": null
    },
    {
      "icao": "LRCV",
      "iata": "CRA",
      "name": "Craiova International Airport",
      "lat": 44.3181,
      "lon": 23.888599,
      "updatedAt": "020830Z",
      "visibility_m": 2000,
      "taf_visibility_m": 1500,
      "worst_visibility_m": 1500,
      "ceiling_ft": 1000,
      "hazards": [
        "BR",
        "SN"
      ],
      "severityScore": 50,
      "metarRaw": "METAR LRCV 020830Z 14006KT 2000 SN BR SCT005 BKN010 OVC025 M06/M08 Q1015",
      "tafRaw": "TAF LRCV 020800Z 0209/0218 12007KT 1500 SN BKN010 OVC025 \n  BECMG 0209/0211 5000 -SN SCT015 OVC035 \n  BECMG 0211/0213 9999 NSW"
    },
    {
      "icao": "LTAC",
      "iata": "ESB",
      "name": "Esenboğa International Airport",
      "lat": 40.128101,
      "lon": 32.995098,
      "updatedAt": "020820Z",
      "visibility_m": 10000,
      "taf_visibility_m": 10000,
      "worst_visibility_m": 10000,
      "ceiling_ft": 10000,
      "hazards": [
        "SHRA",
        "SN",
        "RA"
      ],
      "severityScore": 44,
      "metarRaw": "METAR LTAC 020820Z 04004KT 360V070 9999 FEW040 BKN100 06/03 Q1005 NOSIG RMK RWY21C 03004KT 350V050 RWY03L 05004KT 360V090 RWY21R 03005KT 350V060 RWY03R 03004KT 290V090 RWY21L 01006KT 330V030",
      "tafRaw": "TAF LTAC 020440Z 0206/0306 21012KT 9999 SCT040 BKN100 \n  TEMPO 0209/0212 24015G25KT \n  TEMPO 0213/0217 -SHRA BKN030 BKN080 \n  BECMG 0217/0220 32012KT \n  PROB30 \n  TEMPO 0223/0303 -RASN FEW010 BKN025 BKN080"
    },
    {
      "icao": "EGBB",
      "iata": "BHX",
      "name": "Birmingham Airport",
      "lat": 52.453899,
      "lon": -1.74803,
      "updatedAt": "020820Z",
      "visibility_m": 10000,
      "taf_visibility_m": 1200,
      "worst_visibility_m": 1200,
      "ceiling_ft": 2600,
      "hazards": [
        "BR",
        "DZ",
        "RA"
      ],
      "severityScore": 42,
      "metarRaw": "METAR EGBB 020820Z 08006KT 060V210 9999 FEW018 BKN026 07/05 Q0998",
      "tafRaw": "TAF EGBB 020457Z 0206/0306 02004KT 9999 SCT008 BKN016 \n  TEMPO 0206/0209 4000 BR BKN006 \n  PROB30 \n  TEMPO 0206/0209 1200 -DZ BR BKN002 \n  BECMG 0209/0212 09010KT \n  TEMPO 0209/0306 6000 -RADZ BKN010"
    },
    {
      "icao": "ESKN",
      "iata": "NYO",
      "name": "Stockholm Skavsta Airport",
      "lat": 58.789656,
      "lon": 16.911479,
      "updatedAt": "020820Z",
      "visibility_m": 2300,
      "taf_visibility_m": 1200,
      "worst_visibility_m": 1200,
      "ceiling_ft": 1800,
      "hazards": [
        "SN"
      ],
      "severityScore": 40,
      "metarRaw": "METAR ESKN 020820Z 04005KT 010V080 2300 -SN FEW009 BKN018 M07/M07 Q1026",
      "tafRaw": "TAF ESKN 020830Z 0209/0309 05005KT 9000 -SN SCT012 BKN020 \n  PROB40 0209/0218 1200 SN BKN008"
    },
    {
      "icao": "LHDC",
      "iata": "DEB",
      "name": "Debrecen International Airport",
      "lat": 47.488899,
      "lon": 21.615299,
      "updatedAt": "020815Z",
      "visibility_m": 10000,
      "taf_visibility_m": 2500,
      "worst_visibility_m": 2500,
      "ceiling_ft": 1400,
      "hazards": [
        "SN",
        "SHSN"
      ],
      "severityScore": 40,
      "metarRaw": "METAR LHDC 020815Z AUTO VRB03KT 9999 OVC019 M01/M03 Q1012 TEMPO BKN014",
      "tafRaw": "TAF LHDC 020815Z 0209/0218 28004KT 9999 BKN025 \n  TEMPO 0209/0218 2500 -SN -SHSN BKN007 OVC015"
    },
    {
      "icao": "LRSM",
      "iata": "SUJ",
      "name": "Satu Mare International Airport",
      "lat": 47.7033,
      "lon": 22.8857,
      "updatedAt": "020830Z",
      "visibility_m": 7000,
      "taf_visibility_m": 3000,
      "worst_visibility_m": 3000,
      "ceiling_ft": 1000,
      "hazards": [
        "SN",
        "BR"
      ],
      "severityScore": 40,
      "metarRaw": "METAR LRSM 020830Z 23003KT 7000 -SN OVC010 M01/M03 Q1011",
      "tafRaw": "TAF LRSM 020800Z 0209/0218 24006KT 7000 -SN BKN010 OVC030 \n  TEMPO 0209/0214 5000 -SN BR BKN005 OVC020 \n  BECMG 0214/0216 3000 BR BKN005 OVC020"
    },
    {
      "icao": "LPPS",
      "iata": "PXO",
      "name": "Porto Santo Airport",
      "lat": 33.0733985901,
      "lon": -16.3500003815,
      "updatedAt": "020830Z",
      "visibility_m": 10000,
      "taf_visibility_m": 8000,
      "worst_visibility_m": 8000,
      "ceiling_ft": 1200,
      "hazards": [
        "SHRA",
        "RA"
      ],
      "severityScore": 38,
      "metarRaw": "METAR LPPS 020830Z 30020KT 9999 SCT014 16/08 Q1013",
      "tafRaw": "TAF LPPS 020512Z 0206/0312 30020KT 9999 SCT015 SCT030 \n  TEMPO 0206/0224 30023G35KT \n  PROB30 \n  TEMPO 0206/0212 8000 SHRA BKN012 FEW018TCU \n  BECMG 0224/0302 30015KT \n  TEMPO 0302/0312 30017G27KT"
    },
    {
      "icao": "LEMD",
      "iata": "MAD",
      "name": "Adolfo Suárez Madrid–Barajas Airport",
      "lat": 40.471926,
      "lon": -3.56264,
      "updatedAt": "020830Z",
      "visibility_m": 4000,
      "taf_visibility_m": 4000,
      "worst_visibility_m": 4000,
      "ceiling_ft": 4000,
      "hazards": [
        "RA",
        "SHRA",
        "DZ"
      ],
      "severityScore": 36,
      "metarRaw": "METAR LEMD 020830Z 16011KT 8000 RA SCT025 BKN040 OVC050 08/08 Q0995 TEMPO 4000 +RA",
      "tafRaw": "TAF LEMD 020500Z 0206/0312 18010KT 9999 SCT020 TX09/0214Z TN06/0206Z \n  TEMPO 0206/0209 18015G25KT \n  TEMPO 0206/0212 4000 RA DZRA BKN009 \n  TEMPO 0210/0217 22018G32KT \n  PROB40 \n  TEMPO 0217/0220 22015G25KT \n  PROB30 \n  TEMPO 0215/0218 4000 SHRA BKN014 FEW030TCU \n  PROB40 \n  TEMPO 0220/0310 DZRA BKN014"
    },
    {
      "icao": "LEMG",
      "iata": "AGP",
      "name": "Málaga-Costa del Sol Airport",
      "lat": 36.6749,
      "lon": -4.49911,
      "updatedAt": "020837Z",
      "visibility_m": 2000,
      "taf_visibility_m": 4000,
      "worst_visibility_m": 2000,
      "ceiling_ft": 4000,
      "hazards": [
        "BR",
        "SHRA",
        "RA"
      ],
      "severityScore": 36,
      "metarRaw": "SPECI LEMG 020837Z 29019G29KT 260V320 2000 +SHRA BR SCT026CB SCT032 BKN040 09/08 Q1005 NOSIG",
      "tafRaw": "TAF LEMG 020500Z 0206/0306 22010KT 9999 SCT025 TX15/0215Z TN09/0206Z \n  PROB40 \n  TEMPO 0206/0214 4000 SHRA BKN014 FEW025CB \n  PROB30 \n  TEMPO 0207/0210 29015G26KT \n  BECMG 0209/0211 VRB03KT"
    },
    {
      "icao": "EYVI",
      "iata": "VNO",
      "name": "Vilnius International Airport",
      "lat": 54.634102,
      "lon": 25.285801,
      "updatedAt": "020820Z",
      "visibility_m": 9000,
      "taf_visibility_m": 3000,
      "worst_visibility_m": 3000,
      "ceiling_ft": 500,
      "hazards": [
        "BR"
      ],
      "severityScore": 35,
      "metarRaw": "METAR EYVI 020820Z 32003KT 280V360 9000 NSC M21/M23 Q1021 NOSIG",
      "tafRaw": "TAF EYVI 020502Z 0206/0306 VRB04KT 9000 NSC \n  TEMPO 0206/0209 3000 BR SCT005 \n  TEMPO 0221/0306 5000 BR BKN005"
    },
    {
      "icao": "EGGP",
      "iata": "LPL",
      "name": "Liverpool John Lennon Airport",
      "lat": 53.334863,
      "lon": -2.849637,
      "updatedAt": "020820Z",
      "visibility_m": 8000,
      "taf_visibility_m": 4000,
      "worst_visibility_m": 4000,
      "ceiling_ft": 3600,
      "hazards": [
        "RA",
        "BR",
        "DZ"
      ],
      "severityScore": 32,
      "metarRaw": "METAR EGGP 020820Z 10007KT 8000 -RA FEW015 BKN036 06/05 Q0998",
      "tafRaw": "TAF EGGP 020506Z 0206/0306 09012KT 9999 BKN030 \n  PROB40 0206/0209 4000 -DZ BR BKN010 \n  PROB30 \n  TEMPO 0209/0218 8000 -RA BKN012 \n  PROB30 \n  TEMPO 0216/0224 09015G25KT \n  TEMPO 0218/0306 BKN009 \n  PROB40 \n  TEMPO 0219/0306 8000"
    },
    {
      "icao": "EGGW",
      "iata": "LTN",
      "name": "London Luton Airport",
      "lat": 51.874699,
      "lon": -0.368333,
      "updatedAt": "020820Z",
      "visibility_m": 7000,
      "taf_visibility_m": null,
      "worst_visibility_m": 7000,
      "ceiling_ft": 600,
      "hazards": [],
      "severityScore": 30,
      "metarRaw": "METAR EGGW 020820Z AUTO 10008KT 7000 OVC006 06/05 Q0997",
      "tafRaw": null
    },
    {
      "icao": "EGPF",
      "iata": "GLA",
      "name": "Glasgow Airport",
      "lat": 55.871899,
      "lon": -4.43306,
      "updatedAt": "020820Z",
      "visibility_m": 8000,
      "taf_visibility_m": null,
      "worst_visibility_m": 8000,
      "ceiling_ft": 600,
      "hazards": [],
      "severityScore": 30,
      "metarRaw": "METAR EGPF 020820Z AUTO 08009KT 8000 OVC006 05/04 Q1001",
      "tafRaw": null
    },
    {
      "icao": "LBWN",
      "iata": "VAR",
      "name": "Varna Airport",
      "lat": 43.232101,
      "lon": 27.8251,
      "updatedAt": "020830Z",
      "visibility_m": 5000,
      "taf_visibility_m": 3000,
      "worst_visibility_m": 3000,
      "ceiling_ft": 1500,
      "hazards": [
        "SN"
      ],
      "severityScore": 30,
      "metarRaw": "METAR LBWN 020830Z AUTO 31011KT 280V340 9999 -SN OVC031/// M05/M08 Q1012 TEMPO 5000 -SN BKN015",
      "tafRaw": "TAF LBWN 020500Z 0206/0306 34014KT 5000 -SN BKN008 OVC020 \n  PROB40 \n  TEMPO 0206/0208 34020G30KT \n  TEMPO 0207/0212 3000 SN BKN005 OVC012 \n  BECMG 0214/0216 9999 NSW SCT020 BKN040 \n  BECMG 0218/0220 VRB04KT"
    },
    {
      "icao": "LQSA",
      "iata": "SJJ",
      "name": "Sarajevo International Airport",
      "lat": 43.8246,
      "lon": 18.331499,
      "updatedAt": "020830Z",
      "visibility_m": 10000,
      "taf_visibility_m": 1200,
      "worst_visibility_m": 1200,
      "ceiling_ft": 4000,
      "hazards": [
        "FG"
      ],
      "severityScore": 30,
      "metarRaw": "METAR LQSA 020830Z 32005KT 290V350 9999 SCT021 BKN040 02/M01 Q1008 NOSIG",
      "tafRaw": "TAF LQSA 020500Z 0206/0306 VRB02KT 9999 BKN030 TX06/0214Z TNM03/0301Z \n  PROB40 \n  TEMPO 0218/0301 1200 BCFG BKN004 \n  PROB40 \n  TEMPO 0301/0306 14010KT"
    },
    {
      "icao": "LRBV",
      "iata": "GHV",
      "name": "Brașov-Ghimbav International Airport",
      "lat": 45.70558,
      "lon": 25.522871,
      "updatedAt": "020830Z",
      "visibility_m": 10000,
      "taf_visibility_m": 3000,
      "worst_visibility_m": 3000,
      "ceiling_ft": 1000,
      "hazards": [
        "SN"
      ],
      "severityScore": 30,
      "metarRaw": "METAR LRBV 020830Z 09011KT 9999 FEW025 SCT056 M04/M12 Q1010",
      "tafRaw": "TAF LRBV 020800Z 0209/0218 08008KT 9999 SCT015 BKN040 \n  TEMPO 0209/0212 5000 -SN BKN015 OVC030 \n  TEMPO 0212/0218 3000 -SN BKN010 OVC025"
    },
    {
      "icao": "LZTT",
      "iata": "TAT",
      "name": "Poprad-Tatry Airport",
      "lat": 49.073601,
      "lon": 20.2411,
      "updatedAt": "020830Z",
      "visibility_m": 10000,
      "taf_visibility_m": null,
      "worst_visibility_m": 10000,
      "ceiling_ft": 900,
      "hazards": [],
      "severityScore": 30,
      "metarRaw": "METAR LZTT 020830Z VRB02KT 9999 OVC009 M04/M06 Q1008 NOSIG",
      "tafRaw": null
    },
    {
      "icao": "UBBB",
      "iata": "GYD",
      "name": "Heydar Aliyev International Airport",
      "lat": 40.467498779296875,
      "lon": 50.04669952392578,
      "updatedAt": "020830Z",
      "visibility_m": 10000,
      "taf_visibility_m": 3000,
      "worst_visibility_m": 3000,
      "ceiling_ft": 2100,
      "hazards": [
        "BR",
        "FG"
      ],
      "severityScore": 30,
      "metarRaw": "METAR UBBB 020830Z 14004KT 9999 SCT014 OVC021 08/05 Q1020 NOSIG",
      "tafRaw": "TAF UBBB 020452Z 0206/0306 02005KT 9999 SCT015 BKN030 TX09/0210Z TN05/0300Z \n  TEMPO 0206/0208 VRB04KT BKN008 \n  BECMG 0208/0210 15012KT SCT020 \n  TEMPO 0210/0220 19014G24KT \n  BECMG 0220/0222 20016G26KT \n  TEMPO 0222/0304 21020G30KT 3000 BR BCFG SCT006"
    },
    {
      "icao": "LKMT",
      "iata": "OSR",
      "name": "Leoš Janáček Airport Ostrava",
      "lat": 49.696301,
      "lon": 18.111099,
      "updatedAt": "020830Z",
      "visibility_m": 10000,
      "taf_visibility_m": 3500,
      "worst_visibility_m": 3500,
      "ceiling_ft": 3000,
      "hazards": [
        "BR",
        "SN"
      ],
      "severityScore": 28,
      "metarRaw": "METAR LKMT 020830Z 03007KT 9999 FEW016 OVC030 M07/M10 Q1012 NOSIG",
      "tafRaw": "TAF LKMT 020500Z 0206/0306 04006KT 9999 SCT012 OVC035 \n  PROB40 \n  TEMPO 0206/0212 5000 -SN BR OVC007 \n  TEMPO 0221/0306 3500 -SN BR OVC007"
    },
    {
      "icao": "LKPR",
      "iata": "PRG",
      "name": "Václav Havel Airport Prague",
      "lat": 50.100874,
      "lon": 14.259911,
      "updatedAt": "020830Z",
      "visibility_m": 5000,
      "taf_visibility_m": 3000,
      "worst_visibility_m": 3000,
      "ceiling_ft": 2700,
      "hazards": [
        "BR",
        "SN"
      ],
      "severityScore": 28,
      "metarRaw": "METAR LKPR 020830Z 08007KT 5000 BR SCT008 OVC027 M05/M06 Q1008 NOSIG",
      "tafRaw": "TAF LKPR 020800Z 0209/0315 08008KT 6000 SCT012 OVC023 \n  TEMPO 0209/0312 OVC012 \n  PROB30 \n  TEMPO 0219/0308 3000 -SN BR OVC008"
    },
    {
      "icao": "LRBS",
      "iata": "BBU",
      "name": "Bucharest Băneasa Aurel Vlaicu International Airport",
      "lat": 44.503133,
      "lon": 26.102944,
      "updatedAt": "020830Z",
      "visibility_m": 10000,
      "taf_visibility_m": 3000,
      "worst_visibility_m": 3000,
      "ceiling_ft": 4700,
      "hazards": [
        "BR",
        "SN"
      ],
      "severityScore": 28,
      "metarRaw": "METAR LRBS 020830Z 07011KT 9999 BKN047 M06/M13 Q1016 NOSIG",
      "tafRaw": "TAF LRBS 020500Z 0206/0306 07010KT 5000 -SN SCT015 SCT040 \n  TEMPO 0206/0209 3000 -SN BKN015 OVC030 \n  BECMG 0209/0211 9999 NSW \n  BECMG 0215/0217 VRB04KT \n  PROB30 \n  TEMPO 0300/0306 3000 BR"
    },
    {
      "icao": "LROP",
      "iata": "OTP",
      "name": "Bucharest Henri Coandă International Airport",
      "lat": 44.571792,
      "lon": 26.103285,
      "updatedAt": "020830Z",
      "visibility_m": 10000,
      "taf_visibility_m": 3000,
      "worst_visibility_m": 3000,
      "ceiling_ft": 4800,
      "hazards": [
        "BR",
        "SN"
      ],
      "severityScore": 28,
      "metarRaw": "METAR LROP 020830Z 08012KT 9999 BKN048 M05/M15 Q1016 NOSIG",
      "tafRaw": "TAF LROP 020500Z 0206/0306 07010KT 5000 -SN SCT015 SCT040 \n  TEMPO 0206/0209 3000 -SN BKN015 OVC030 \n  BECMG 0209/0211 9999 NSW \n  BECMG 0215/0217 VRB04KT \n  PROB30 \n  TEMPO 0300/0306 3000 BR"
    },
    {
      "icao": "LICA",
      "iata": "SUF",
      "name": "Lamezia Terme Sant'Eufemia International Airport",
      "lat": 38.906214,
      "lon": 16.246007,
      "updatedAt": "020820Z",
      "visibility_m": 10000,
      "taf_visibility_m": 4000,
      "worst_visibility_m": 4000,
      "ceiling_ft": null,
      "hazards": [
        "SHRA",
        "RA"
      ],
      "severityScore": 26,
      "metarRaw": "METAR LICA 020820Z 26007KT 9999 SCT020 SCT070 14/10 Q1009",
      "tafRaw": "TAF LICA 020500Z 0206/0306 28015KT 9999 SCT020 \n  TEMPO 0206/0210 4000 SHRA \n  BECMG 0220/0222 07010KT"
    },
    {
      "icao": "LMML",
      "iata": "MLA",
      "name": "Malta International Airport",
      "lat": 35.857498,
      "lon": 14.4775,
      "updatedAt": "020845Z",
      "visibility_m": 10000,
      "taf_visibility_m": 9000,
      "worst_visibility_m": 9000,
      "ceiling_ft": null,
      "hazards": [
        "SHRA",
        "RA"
      ],
      "severityScore": 26,
      "metarRaw": "METAR LMML 020845Z 26014KT 9999 FEW024 15/10 Q1013 NOSIG",
      "tafRaw": "TAF LMML 020500Z 0206/0306 28015KT 9999 FEW023 \n  PROB30 \n  TEMPO 0206/0211 9000 SHRA SCT019TCU \n  BECMG 0214/0217 21011KT \n  BECMG 0303/0306 19017G27KT"
    },
    {
      "icao": "LPFR",
      "iata": "FAO",
      "name": "Faro - Gago Coutinho International Airport",
      "lat": 37.015909,
      "lon": -7.970939,
      "updatedAt": "020830Z",
      "visibility_m": 10000,
      "taf_visibility_m": 5000,
      "worst_visibility_m": 5000,
      "ceiling_ft": 2500,
      "hazards": [
        "SHRA",
        "RA"
      ],
      "severityScore": 26,
      "metarRaw": "METAR LPFR 020830Z 28023KT 9999 FEW018 FEW020TCU SCT035 13/08 Q1002",
      "tafRaw": "TAF LPFR 020512Z 0206/0306 27018KT 9999 SCT030 \n  TEMPO 0206/0306 26023G35KT 5000 SHRA SCT015 FEW018CB BKN025"
    },
    {
      "icao": "UGKO",
      "iata": "KUT",
      "name": "David the Builder Kutaisi International Airport",
      "lat": 42.177448,
      "lon": 42.485353,
      "updatedAt": "020830Z",
      "visibility_m": 10000,
      "taf_visibility_m": 4000,
      "worst_visibility_m": 4000,
      "ceiling_ft": 4000,
      "hazards": [
        "RA",
        "SHRA"
      ],
      "severityScore": 26,
      "metarRaw": "METAR UGKO 020830Z 07019KT 9999 -RA SCT033 11/05 Q1011 NOSIG",
      "tafRaw": "TAF UGKO 020500Z 0206/0306 08017KT 9999 SCT020 BKN050 TX13/0211Z TN06/0305Z \n  TEMPO 0206/0210 08023G37KT 4000 SHRA BKN017CB OVC040 \n  TEMPO 0212/0218 08029G47KT BKN080 \n  BECMG 0220/0223 09007KT"
    },
    {
      "icao": "GCTS",
      "iata": "TFS",
      "name": "Tenerife Sur Airport",
      "lat": 28.0445,
      "lon": -16.5725,
      "updatedAt": "020830Z",
      "visibility_m": 10000,
      "taf_visibility_m": 10000,
      "worst_visibility_m": 10000,
      "ceiling_ft": null,
      "hazards": [
        "TS"
      ],
      "severityScore": 25,
      "metarRaw": "METAR GCTS 020830Z 01006KT 9999 SCT025 16/11 Q1018 NOSIG",
      "tafRaw": "TAF GCTS 020800Z 0209/0309 13007KT 9999 SCT025 TX23/0214Z TN16/0306Z \n  PROB30 \n  TEMPO 0212/0215 28012KT \n  PROB30 \n  TEMPO 0300/0305 25010KT"
    },
    {
      "icao": "EPKK",
      "iata": "KRK",
      "name": "Kraków John Paul II International Airport",
      "lat": 50.077702,
      "lon": 19.7848,
      "updatedAt": "020830Z",
      "visibility_m": 10000,
      "taf_visibility_m": 10000,
      "worst_visibility_m": 10000,
      "ceiling_ft": 700,
      "hazards": [],
      "severityScore": 25,
      "metarRaw": "METAR EPKK 020830Z 07013KT 9999 SCT025 M13/M17 Q1014",
      "tafRaw": "TAF EPKK 020830Z 0209/0309 06012KT 9999 BKN025 \n  BECMG 0218/0221 OVC013 \n  TEMPO 0300/0306 BKN007 OVC012"
    },
    {
      "icao": "EPRZ",
      "iata": "RZE",
      "name": "Rzeszów-Jasionka Airport",
      "lat": 50.109791,
      "lon": 22.024155,
      "updatedAt": "020830Z",
      "visibility_m": 10000,
      "taf_visibility_m": 10000,
      "worst_visibility_m": 10000,
      "ceiling_ft": 700,
      "hazards": [],
      "severityScore": 25,
      "metarRaw": "METAR EPRZ 020830Z 08013KT 9999 FEW043 M13/M18 Q1016",
      "tafRaw": "TAF EPRZ 020530Z 0206/0306 07011KT 9999 BKN045 \n  BECMG 0218/0221 BKN012 \n  TEMPO 0222/0306 OVC007"
    },
    {
      "icao": "LGTS",
      "iata": "SKG",
      "name": "Thessaloniki Macedonia International Airport",
      "lat": 40.51928,
      "lon": 22.970009,
      "updatedAt": "020820Z",
      "visibility_m": 10000,
      "taf_visibility_m": 10000,
      "worst_visibility_m": 10000,
      "ceiling_ft": 3000,
      "hazards": [
        "TS"
      ],
      "severityScore": 25,
      "metarRaw": "METAR LGTS 020820Z 33007KT 9999 FEW035 08/02 Q1008 NOSIG",
      "tafRaw": "TAF LGTS 020500Z 0206/0306 34010KT 9999 FEW010 BKN030 \n  TEMPO 0209/0215 SCT030 \n  BECMG 0218/0220 11010KT"
    },
    {
      "icao": "GMMN",
      "iata": "CMN",
      "name": "Mohammed V International Airport",
      "lat": 33.3675,
      "lon": -7.58997,
      "updatedAt": "020830Z",
      "visibility_m": 3000,
      "taf_visibility_m": 4000,
      "worst_visibility_m": 3000,
      "ceiling_ft": 1600,
      "hazards": [
        "RA"
      ],
      "severityScore": 24,
      "metarRaw": "METAR GMMN 020830Z 21018KT 3000 RA SCT005 BKN016 12/11 Q1010 NOSIG",
      "tafRaw": "TAF GMMN 020500Z 0206/0312 20015KT 9999 BKN006 \n  BECMG 0206/0210 BKN016TCU BKN200 \n  TEMPO 0211/0224 4000 RA"
    },
    {
      "icao": "LIPE",
      "iata": "BLQ",
      "name": "Bologna Guglielmo Marconi Airport",
      "lat": 44.5354,
      "lon": 11.2887,
      "updatedAt": "020820Z",
      "visibility_m": 9000,
      "taf_visibility_m": 4000,
      "worst_visibility_m": 4000,
      "ceiling_ft": 1400,
      "hazards": [
        "RA"
      ],
      "severityScore": 24,
      "metarRaw": "METAR LIPE 020820Z 21003KT 9000 NSC 03/01 Q1009",
      "tafRaw": "TAF LIPE 020500Z 0206/0306 VRB05KT 8000 FEW030 \n  TEMPO 0218/0306 4000 RA BKN014"
    },
    {
      "icao": "LIPQ",
      "iata": "TRS",
      "name": "Trieste–Friuli Venezia Giulia Airport",
      "lat": 45.827499,
      "lon": 13.4722,
      "updatedAt": "020820Z",
      "visibility_m": 10000,
      "taf_visibility_m": 4000,
      "worst_visibility_m": 4000,
      "ceiling_ft": 1400,
      "hazards": [
        "RA"
      ],
      "severityScore": 24,
      "metarRaw": "METAR LIPQ 020820Z VRB02KT 9999 FEW060 03/00 Q1009",
      "tafRaw": "TAF LIPQ 020500Z 0206/0306 VRB06KT 9999 FEW045 \n  BECMG 0222/0224 4000 RA BKN014 SCT045 \n  BECMG 0302/0304 05010KT"
    },
    {
      "icao": "LIPZ",
      "iata": "VCE",
      "name": "Venice Marco Polo Airport",
      "lat": 45.505299,
      "lon": 12.3519,
      "updatedAt": "020820Z",
      "visibility_m": 10000,
      "taf_visibility_m": 4000,
      "worst_visibility_m": 4000,
      "ceiling_ft": 1400,
      "hazards": [
        "RA"
      ],
      "severityScore": 24,
      "metarRaw": "METAR LIPZ 020820Z 33003KT 260V010 9999 SCT045 04/01 Q1009 NOSIG",
      "tafRaw": "TAF LIPZ 020500Z 0206/0312 05006KT CAVOK \n  BECMG 0220/0222 4000 RA BKN014 \n  BECMG 0300/0302 05016KT"
    },
    {
      "icao": "EHBK",
      "iata": "MST",
      "name": "Maastricht Aachen Airport",
      "lat": 50.911701,
      "lon": 5.77014,
      "updatedAt": "020825Z",
      "visibility_m": 9000,
      "taf_visibility_m": 6000,
      "worst_visibility_m": 6000,
      "ceiling_ft": 3000,
      "hazards": [
        "RA",
        "DZ"
      ],
      "severityScore": 22,
      "metarRaw": "METAR EHBK 020825Z AUTO 10009KT 9000 NCD 04/03 Q1000 NOSIG",
      "tafRaw": "TAF EHBK 020512Z 0206/0312 09008KT 6000 -RADZ OVC030 \n  BECMG 0206/0209 9999 \n  PROB40 \n  TEMPO 0307/0312 6000 RA"
    },
    {
      "icao": "LIME",
      "iata": "BGY",
      "name": "Milan Bergamo Airport / Antonio Locatelli Air Base",
      "lat": 45.670725,
      "lon": 9.709223,
      "updatedAt": "020820Z",
      "visibility_m": 6000,
      "taf_visibility_m": 3000,
      "worst_visibility_m": 3000,
      "ceiling_ft": null,
      "hazards": [
        "BR",
        "RA"
      ],
      "severityScore": 22,
      "metarRaw": "METAR LIME 020820Z VRB02KT 6000 SCT060 04/03 Q1008 NOSIG",
      "tafRaw": "TAF LIME 020500Z 0206/0306 VRB05KT 7000 SCT050 \n  TEMPO 0211/0216 3000 BR \n  BECMG 0218/0220 4000 RA"
    },
    {
      "icao": "LIMJ",
      "iata": "GOA",
      "name": "Genoa Cristoforo Colombo Airport",
      "lat": 44.412039,
      "lon": 8.840732,
      "updatedAt": "020820Z",
      "visibility_m": 10000,
      "taf_visibility_m": 3000,
      "worst_visibility_m": 3000,
      "ceiling_ft": 2000,
      "hazards": [
        "DZ",
        "RA"
      ],
      "severityScore": 22,
      "metarRaw": "METAR LIMJ 020820Z 07014KT 9999 -DZ BKN020 06/04 Q1007",
      "tafRaw": "TAF LIMJ 020500Z 0206/0306 04012KT 9999 OVC035 \n  TEMPO 0206/0216 RA \n  BECMG 0216/0218 3000 RA \n  BECMG 0222/0224 04018G30KT"
    },
    {
      "icao": "LIPX",
      "iata": "VRN",
      "name": "Verona Villafranca Valerio Catullo Airport",
      "lat": 45.394955,
      "lon": 10.887303,
      "updatedAt": "020820Z",
      "visibility_m": 9000,
      "taf_visibility_m": 4000,
      "worst_visibility_m": 4000,
      "ceiling_ft": 4000,
      "hazards": [
        "BR",
        "RA"
      ],
      "severityScore": 22,
      "metarRaw": "METAR LIPX 020820Z VRB01KT 9000 BKN040 03/01 Q1009",
      "tafRaw": "TAF LIPX 020500Z 0206/0306 VRB05KT 7000 SCT045 \n  PROB30 \n  TEMPO 0206/0209 4000 BR \n  BECMG 0219/0221 RA \n  BECMG 0221/0223 08010KT"
    },
    {
      "icao": "OJAI",
      "iata": "AMM",
      "name": "Queen Alia International Airport",
      "lat": 31.7226009369,
      "lon": 35.9931983948,
      "updatedAt": "020800Z",
      "visibility_m": 5000,
      "taf_visibility_m": 2000,
      "worst_visibility_m": 2000,
      "ceiling_ft": 3000,
      "hazards": [
        "BR",
        "RA"
      ],
      "severityScore": 22,
      "metarRaw": "METAR OJAI 020800Z 20005KT 5000 HZ NSC 18/06 Q1017 NOSIG",
      "tafRaw": "TAF OJAI 020500Z 0206/0312 24014KT 5000 HZ NSC \n  PROB40 \n  TEMPO 0206/0218 23018KT 2000 BLDU \n  PROB40 \n  TEMPO 0209/0220 3000 DU \n  BECMG 0300/0302 SCT025TCU SCT030 \n  TEMPO 0303/0312 28018KT 3000 RA BR SCT025TCU BKN030"
    },
    {
      "icao": "ENGM",
      "iata": "OSL",
      "name": "Oslo-Gardermoen International Airport",
      "lat": 60.193901,
      "lon": 11.1004,
      "updatedAt": null,
      "visibility_m": null,
      "taf_visibility_m": 10000,
      "worst_visibility_m": 10000,
      "ceiling_ft": 3000,
      "hazards": [
        "SN"
      ],
      "severityScore": 18,
      "metarRaw": null,
      "tafRaw": "TAF ENGM 020500Z 0206/0306 06005KT 9999 -SN BKN030"
    },
    {
      "icao": "ENTO",
      "iata": "TRF",
      "name": "Sandefjord Airport, Torp",
      "lat": 59.186699,
      "lon": 10.2586,
      "updatedAt": null,
      "visibility_m": null,
      "taf_visibility_m": 10000,
      "worst_visibility_m": 10000,
      "ceiling_ft": 2500,
      "hazards": [
        "SN"
      ],
      "severityScore": 18,
      "metarRaw": null,
      "tafRaw": "TAF ENTO 020500Z 0206/0306 07005KT 9999 -SN BKN025"
    },
    {
      "icao": "EPKT",
      "iata": "KTW",
      "name": "Katowice Wojciech Korfanty International Airport",
      "lat": 50.476015,
      "lon": 19.080705,
      "updatedAt": "020830Z",
      "visibility_m": 10000,
      "taf_visibility_m": 10000,
      "worst_visibility_m": 10000,
      "ceiling_ft": 2800,
      "hazards": [
        "SN"
      ],
      "severityScore": 18,
      "metarRaw": "METAR EPKT 020830Z 07007KT 040V100 9999 BKN028 M10/M14 Q1013",
      "tafRaw": "TAF EPKT 020530Z 0206/0306 08010KT 9999 -SN SCT008 OVC013 \n  TEMPO 0206/0208 BKN008 OVC012 \n  BECMG 0208/0211 OVC016 \n  BECMG 0216/0219 OVC011 \n  TEMPO 0222/0306 BKN006 OVC010"
    },
    {
      "icao": "ESGG",
      "iata": "GOT",
      "name": "Göteborg Landvetter Airport",
      "lat": 57.6628,
      "lon": 12.2798,
      "updatedAt": "020820Z",
      "visibility_m": 10000,
      "taf_visibility_m": 10000,
      "worst_visibility_m": 10000,
      "ceiling_ft": 2300,
      "hazards": [
        "SN"
      ],
      "severityScore": 18,
      "metarRaw": "METAR ESGG 020820Z 10010KT 9999 -SN OVC023 M06/M11 Q1021",
      "tafRaw": "TAF ESGG 020830Z 0209/0309 10010KT 9999 OVC025"
    },
    {
      "icao": "ESSA",
      "iata": "ARN",
      "name": "Stockholm-Arlanda Airport",
      "lat": 59.64849,
      "lon": 17.928829,
      "updatedAt": "020820Z",
      "visibility_m": 10000,
      "taf_visibility_m": 4000,
      "worst_visibility_m": 4000,
      "ceiling_ft": 3000,
      "hazards": [
        "SN"
      ],
      "severityScore": 18,
      "metarRaw": "METAR ESSA 020820Z 08005KT 9999 BKN030 M08/M12 Q1028 NOSIG",
      "tafRaw": "TAF ESSA 020830Z 0209/0309 07005KT 9000 BKN025 \n  PROB40 0209/0221 4000 -SN"
    },
    {
      "icao": "LBSF",
      "iata": "SOF",
      "name": "Sofia Airport",
      "lat": 42.696357,
      "lon": 23.417671,
      "updatedAt": "020830Z",
      "visibility_m": 10000,
      "taf_visibility_m": 5000,
      "worst_visibility_m": 5000,
      "ceiling_ft": 2200,
      "hazards": [
        "SN"
      ],
      "severityScore": 18,
      "metarRaw": "METAR LBSF 020830Z VRB02KT 9999 OVC022 M04/M07 Q1009 NOSIG",
      "tafRaw": "TAF LBSF 020500Z 0206/0306 10010KT 8000 SCT010 BKN020 \n  TEMPO 0206/0209 5000 -SN \n  BECMG 0206/0208 VRB03KT"
    },
    {
      "icao": "LRCL",
      "iata": "CLJ",
      "name": "Cluj Avram Iancu International Airport",
      "lat": 46.787425,
      "lon": 23.684292,
      "updatedAt": "020830Z",
      "visibility_m": 10000,
      "taf_visibility_m": 5000,
      "worst_visibility_m": 5000,
      "ceiling_ft": 5500,
      "hazards": [
        "SN"
      ],
      "severityScore": 18,
      "metarRaw": "METAR LRCL 020830Z 09005KT 9999 BKN055 01/M02 Q1010",
      "tafRaw": "TAF LRCL 020800Z 0209/0218 10006KT 9999 BKN060 \n  PROB40 \n  TEMPO 0213/0218 5000 -SN"
    },
    {
      "icao": "LRTM",
      "iata": "TGM",
      "name": "Târgu Mureş Transilvania International Airport",
      "lat": 46.467701,
      "lon": 24.4125,
      "updatedAt": "020830Z",
      "visibility_m": 10000,
      "taf_visibility_m": 5000,
      "worst_visibility_m": 5000,
      "ceiling_ft": 2500,
      "hazards": [
        "SN"
      ],
      "severityScore": 18,
      "metarRaw": "METAR LRTM 020830Z 13005KT 9999 SCT026 01/M04 Q1010",
      "tafRaw": "TAF LRTM 020800Z 0209/0218 14005KT 9999 BKN025 \n  PROB40 \n  TEMPO 0213/0218 5000 -SN"
    },
    {
      "icao": "LFSB",
      "iata": "BSL",
      "name": "EuroAirport Basel–Mulhouse–Freiburg",
      "lat": 47.60068,
      "lon": 7.521117,
      "updatedAt": "020830Z",
      "visibility_m": 8000,
      "taf_visibility_m": null,
      "worst_visibility_m": 8000,
      "ceiling_ft": 4000,
      "hazards": [
        "RA"
      ],
      "severityScore": 17,
      "metarRaw": "METAR LFSB 020830Z AUTO VRB02KT 8000 -RA FEW027/// BKN039/// BKN045/// ///TCU 04/03 Q1001 BECMG BKN040",
      "tafRaw": null
    },
    {
      "icao": "LQBK",
      "iata": "BNX",
      "name": "Banja Luka International Airport",
      "lat": 44.941399,
      "lon": 17.297501,
      "updatedAt": "020830Z",
      "visibility_m": 10000,
      "taf_visibility_m": null,
      "worst_visibility_m": 10000,
      "ceiling_ft": 1000,
      "hazards": [],
      "severityScore": 17,
      "metarRaw": "METAR LQBK 020830Z VRB03KT 9999 BKN010 OVC017 01/M01 Q1011 NOSIG",
      "tafRaw": null
    },
    {
      "icao": "LQTZ",
      "iata": "TZL",
      "name": "Tuzla International Airport",
      "lat": 44.459858,
      "lon": 18.723627,
      "updatedAt": "020830Z",
      "visibility_m": 10000,
      "taf_visibility_m": null,
      "worst_visibility_m": 10000,
      "ceiling_ft": 1500,
      "hazards": [],
      "severityScore": 17,
      "metarRaw": "METAR LQTZ 020830Z 00000KT 9999 BKN015 M00/M01 Q1010",
      "tafRaw": null
    },
    {
      "icao": "UDSG",
      "iata": "LWN",
      "name": "Shirak International Airport",
      "lat": 40.750401,
      "lon": 43.859299,
      "updatedAt": "020830Z",
      "visibility_m": 5000,
      "taf_visibility_m": null,
      "worst_visibility_m": 5000,
      "ceiling_ft": 2600,
      "hazards": [
        "BR"
      ],
      "severityScore": 15,
      "metarRaw": "METAR UDSG 020830Z 33003KT 5000 BR FEW010 OVC026 01/01 Q1019 NOSIG",
      "tafRaw": null
    },
    {
      "icao": "EDDH",
      "iata": "HAM",
      "name": "Hamburg Helmut Schmidt Airport",
      "lat": 53.630402,
      "lon": 9.98823,
      "updatedAt": "020820Z",
      "visibility_m": 10000,
      "taf_visibility_m": 10000,
      "worst_visibility_m": 10000,
      "ceiling_ft": 1400,
      "hazards": [],
      "severityScore": 12,
      "metarRaw": "METAR EDDH 020820Z AUTO 10014KT 9999 OVC014 M07/M11 Q1011 TEMPO BKN015",
      "tafRaw": "TAF EDDH 020500Z 0206/0312 10011KT 9999 OVC025 \n  PROB30 \n  TEMPO 0206/0312 OVC013"
    },
    {
      "icao": "EDDN",
      "iata": "NUE",
      "name": "Nuremberg Airport",
      "lat": 49.498699,
      "lon": 11.078056,
      "updatedAt": "020820Z",
      "visibility_m": 10000,
      "taf_visibility_m": 10000,
      "worst_visibility_m": 10000,
      "ceiling_ft": 1400,
      "hazards": [],
      "severityScore": 12,
      "metarRaw": "METAR EDDN 020820Z AUTO 10009KT 9999 FEW023 00/M04 Q1005 NOSIG",
      "tafRaw": "TAF EDDN 020500Z 0206/0306 10007KT CAVOK \n  PROB30 \n  TEMPO 0209/0211 BKN014"
    },
    {
      "icao": "EDNY",
      "iata": "FDH",
      "name": "Bodensee Airport Friedrichshafen",
      "lat": 47.671299,
      "lon": 9.51149,
      "updatedAt": "020820Z",
      "visibility_m": 10000,
      "taf_visibility_m": 10000,
      "worst_visibility_m": 10000,
      "ceiling_ft": 1000,
      "hazards": [],
      "severityScore": 12,
      "metarRaw": "METAR EDNY 020820Z 06006KT CAVOK 01/M01 Q1002",
      "tafRaw": "TAF EDNY 020800Z 0209/0218 04006KT 9999 FEW050 \n  PROB30 \n  TEMPO 0209/0211 BKN010"
    },
    {
      "icao": "EPRA",
      "iata": "RDO",
      "name": "Warsaw Radom Airport",
      "lat": 51.38937,
      "lon": 21.214742,
      "updatedAt": "020830Z",
      "visibility_m": 10000,
      "taf_visibility_m": 10000,
      "worst_visibility_m": 10000,
      "ceiling_ft": null,
      "hazards": [
        "RA"
      ],
      "severityScore": 12,
      "metarRaw": "METAR EPRA 020830Z 07007KT CAVOK M19/M22 Q1018",
      "tafRaw": "TAF EPRA 020830Z 0209/0218 08010KT CAVOK"
    },
    {
      "icao": "EPWR",
      "iata": "WRO",
      "name": "Copernicus Wrocław Airport",
      "lat": 51.103719,
      "lon": 16.882096,
      "updatedAt": "020830Z",
      "visibility_m": 10000,
      "taf_visibility_m": 10000,
      "worst_visibility_m": 10000,
      "ceiling_ft": 1800,
      "hazards": [],
      "severityScore": 12,
      "metarRaw": "METAR EPWR 020830Z 09010KT 9999 BKN018 BKN048 M08/M13 Q1013",
      "tafRaw": "TAF EPWR 020830Z 0209/0309 10011KT 9999 BKN020 \n  PROB40 0301/0309 BKN013"
    },
    {
      "icao": "LEVC",
      "iata": "VLC",
      "name": "Valencia Airport",
      "lat": 39.4893,
      "lon": -0.481625,
      "updatedAt": "020830Z",
      "visibility_m": 10000,
      "taf_visibility_m": 10000,
      "worst_visibility_m": 10000,
      "ceiling_ft": null,
      "hazards": [
        "RA"
      ],
      "severityScore": 12,
      "metarRaw": "METAR LEVC 020830Z 33003KT 300V030 9999 FEW046 SCT050 11/09 Q1000 NOSIG",
      "tafRaw": "TAF LEVC 020500Z 0206/0306 VRB04KT 9999 FEW030 TX17/0213Z TN10/0206Z \n  PROB30 \n  TEMPO 0210/0216 RA \n  BECMG 0212/0214 25015KT \n  TEMPO 0214/0218 25018G28KT \n  BECMG 0223/0302 24007KT"
    },
    {
      "icao": "LEZG",
      "iata": "ZAZ",
      "name": "Zaragoza Airport",
      "lat": 41.666199,
      "lon": -1.04155,
      "updatedAt": "020830Z",
      "visibility_m": 10000,
      "taf_visibility_m": 3000,
      "worst_visibility_m": 3000,
      "ceiling_ft": 6000,
      "hazards": [
        "RA"
      ],
      "severityScore": 12,
      "metarRaw": "METAR LEZG 020830Z 10012KT 9999 BKN060 08/06 Q0997 NOSIG",
      "tafRaw": "TAF LEZG 020500Z 0206/0306 11009KT 9999 FEW050 TX13/0214Z TN07/0206Z \n  PROB40 \n  TEMPO 0206/0208 4000 RA \n  PROB40 \n  TEMPO 0210/0218 3000 RA \n  BECMG 0214/0217 24010KT"
    },
    {
      "icao": "LGAV",
      "iata": "ATH",
      "name": "Athens Eleftherios Venizelos International Airport",
      "lat": 37.936401,
      "lon": 23.9445,
      "updatedAt": "020820Z",
      "visibility_m": 10000,
      "taf_visibility_m": 5000,
      "worst_visibility_m": 5000,
      "ceiling_ft": 3000,
      "hazards": [
        "RA"
      ],
      "severityScore": 12,
      "metarRaw": "METAR LGAV 020820Z 32006KT 290V350 9999 FEW020 13/05 Q1007 NOSIG",
      "tafRaw": "TAF LGAV 020500Z 0206/0306 30010KT 9999 SCT025 SCT070 \n  PROB30 \n  TEMPO 0210/0216 5000 RA SCT015 BKN030 \n  BECMG 0212/0214 VRB05KT"
    },
    {
      "icao": "LIPH",
      "iata": "TSF",
      "name": "Treviso Antonio Canova Airport",
      "lat": 45.648399,
      "lon": 12.1944,
      "updatedAt": "020820Z",
      "visibility_m": 10000,
      "taf_visibility_m": 4000,
      "worst_visibility_m": 4000,
      "ceiling_ft": 4000,
      "hazards": [
        "RA"
      ],
      "severityScore": 12,
      "metarRaw": "METAR LIPH 020820Z VRB01KT 9999 BKN040 03/01 Q1009",
      "tafRaw": "TAF LIPH 020500Z 0206/0306 VRB05KT 9999 SCT035 \n  BECMG 0218/0220 4000 RA BKN014"
    },
    {
      "icao": "LIPR",
      "iata": "RMI",
      "name": "Federico Fellini International Airport",
      "lat": 44.020024,
      "lon": 12.612198,
      "updatedAt": "020820Z",
      "visibility_m": 10000,
      "taf_visibility_m": 3000,
      "worst_visibility_m": 3000,
      "ceiling_ft": null,
      "hazards": [
        "RA"
      ],
      "severityScore": 12,
      "metarRaw": "METAR LIPR 020820Z VRB02KT CAVOK 06/03 Q1009",
      "tafRaw": "TAF LIPR 020500Z 0206/0306 26005KT 9999 SCT050 \n  BECMG 0212/0214 07010KT \n  BECMG 0216/0218 14010KT \n  TEMPO 0221/0303 3000 RA"
    },
    {
      "icao": "LIRF",
      "iata": "FCO",
      "name": "Rome–Fiumicino Leonardo da Vinci International Airport",
      "lat": 41.804532,
      "lon": 12.251998,
      "updatedAt": "020820Z",
      "visibility_m": 10000,
      "taf_visibility_m": 10000,
      "worst_visibility_m": 10000,
      "ceiling_ft": null,
      "hazards": [
        "RA"
      ],
      "severityScore": 12,
      "metarRaw": "METAR LIRF 020820Z 08004KT CAVOK 05/03 Q1009 NOSIG",
      "tafRaw": "TAF LIRF 020500Z 0206/0312 05007KT CAVOK \n  BECMG 0214/0216 16013KT \n  BECMG 0304/0306 16016G26KT \n  TEMPO 0310/0312 RA"
    },
    {
      "icao": "LIRP",
      "iata": "PSA",
      "name": "Pisa International Airport",
      "lat": 43.683899,
      "lon": 10.3927,
      "updatedAt": "020815Z",
      "visibility_m": 10000,
      "taf_visibility_m": 7000,
      "worst_visibility_m": 7000,
      "ceiling_ft": 2000,
      "hazards": [
        "RA"
      ],
      "severityScore": 12,
      "metarRaw": "METAR LIRP 020815Z 13003KT 9999 SCT050 SCT060 04/04 Q1008 NOSIG",
      "tafRaw": "TAF LIRP 020500Z 0206/0306 12005KT 9999 SCT025 \n  BECMG 0211/0213 SCT020 BKN080 \n  TEMPO 0300/0306 09010KT 7000 RA BKN020"
    },
    {
      "icao": "LIRZ",
      "iata": "PEG",
      "name": "Perugia San Francesco d'Assisi – Umbria International Airport",
      "lat": 43.095901,
      "lon": 12.5132,
      "updatedAt": "020820Z",
      "visibility_m": 10000,
      "taf_visibility_m": 4000,
      "worst_visibility_m": 4000,
      "ceiling_ft": null,
      "hazards": [
        "RA"
      ],
      "severityScore": 12,
      "metarRaw": "METAR LIRZ 020820Z AUTO VRB01KT 9999 NCD 01/00 Q1009",
      "tafRaw": "TAF LIRZ 020500Z 0206/0306 VRB06KT CAVOK \n  TEMPO 0220/0303 4000 -RA"
    },
    {
      "icao": "LJLJ",
      "iata": "LJU",
      "name": "Ljubljana Jože Pučnik Airport",
      "lat": 46.223701,
      "lon": 14.4576,
      "updatedAt": "020830Z",
      "visibility_m": 10000,
      "taf_visibility_m": 10000,
      "worst_visibility_m": 10000,
      "ceiling_ft": 3000,
      "hazards": [
        "RA"
      ],
      "severityScore": 12,
      "metarRaw": "METAR LJLJ 020830Z 08002KT 9999 FEW020 OVC030 02/M01 Q1009 NOSIG",
      "tafRaw": "TAF LJLJ 020500Z 0206/0306 VRB02KT 9999 BKN020 OVC035 \n  PROB40 \n  TEMPO 0301/0306 -RA"
    },
    {
      "icao": "LWOH",
      "iata": "OHD",
      "name": "Ohrid St. Paul the Apostle Airport",
      "lat": 41.18,
      "lon": 20.7423,
      "updatedAt": "020820Z",
      "visibility_m": 10000,
      "taf_visibility_m": 10000,
      "worst_visibility_m": 10000,
      "ceiling_ft": 3500,
      "hazards": [
        "RA"
      ],
      "severityScore": 12,
      "metarRaw": "METAR LWOH 020820Z 30003KT 240V020 9999 FEW015 BKN035 04/00 Q1006",
      "tafRaw": "TAF LWOH 020830Z 0209/0309 VRB03KT 9999 SCT015 OVC035 \n  PROB30 \n  TEMPO 0209/0215 -RA \n  TEMPO 0210/0216 16010KT"
    },
    {
      "icao": "BKPR",
      "iata": "PRN",
      "name": "Priština Adem Jashari International Airport",
      "lat": 42.5728,
      "lon": 21.035801,
      "updatedAt": "020830Z",
      "visibility_m": 10000,
      "taf_visibility_m": 3000,
      "worst_visibility_m": 3000,
      "ceiling_ft": 4000,
      "hazards": [
        "BR"
      ],
      "severityScore": 10,
      "metarRaw": "METAR BKPR 020830Z 33008KT 9999 SCT025 BKN040 M03/M05 Q1009 NOSIG",
      "tafRaw": "TAF BKPR 020530Z 0206/0306 02012KT 9999 SCT015 BKN030 \n  BECMG 0211/0214 17008KT \n  BECMG 0303/0306 3000 BR"
    },
    {
      "icao": "GMAD",
      "iata": "AGA",
      "name": "Al Massira Airport",
      "lat": 30.322478,
      "lon": -9.412003,
      "updatedAt": "020830Z",
      "visibility_m": 8000,
      "taf_visibility_m": 5000,
      "worst_visibility_m": 5000,
      "ceiling_ft": 2600,
      "hazards": [
        "BR"
      ],
      "severityScore": 10,
      "metarRaw": "METAR GMAD 020830Z 17006KT 8000 4000E BR SCT006 BKN026 15/15 Q1016 NOSIG",
      "tafRaw": "TAF GMAD 020500Z 0206/0312 22008KT 5000 BKN010 \n  BECMG 0219/0221 14005KT"
    },
    {
      "icao": "ENBR",
      "iata": "BGO",
      "name": "Bergen Airport, Flesland",
      "lat": 60.2934,
      "lon": 5.21814,
      "updatedAt": null,
      "visibility_m": null,
      "taf_visibility_m": 10000,
      "worst_visibility_m": 10000,
      "ceiling_ft": null,
      "hazards": [
        "BR"
      ],
      "severityScore": 10,
      "metarRaw": null,
      "tafRaw": "TAF ENBR 020500Z 0206/0306 09005KT CAVOK"
    },
    {
      "icao": "LIBR",
      "iata": "BDS",
      "name": "Brindisi Airport",
      "lat": 40.6576,
      "lon": 17.947001,
      "updatedAt": "020820Z",
      "visibility_m": 10000,
      "taf_visibility_m": 10000,
      "worst_visibility_m": 10000,
      "ceiling_ft": 3000,
      "hazards": [
        "BR"
      ],
      "severityScore": 10,
      "metarRaw": "METAR LIBR 020820Z 30009KT CAVOK 10/05 Q1008",
      "tafRaw": "TAF LIBR 020500Z 0206/0306 32012KT 9999 BKN030 \n  BECMG 0214/0216 VRB05KT \n  BECMG 0220/0222 16010KT"
    },
    {
      "icao": "EGKK",
      "iata": "LGW",
      "name": "London Gatwick Airport",
      "lat": 51.148771,
      "lon": -0.192089,
      "updatedAt": "020820Z",
      "visibility_m": 10000,
      "taf_visibility_m": null,
      "worst_visibility_m": 10000,
      "ceiling_ft": 2700,
      "hazards": [],
      "severityScore": 5,
      "metarRaw": "METAR EGKK 020820Z 07006KT 9999 SCT008 BKN027 07/07 Q0997",
      "tafRaw": null
    },
    {
      "icao": "LEBB",
      "iata": "BIO",
      "name": "Bilbao Airport",
      "lat": 43.301102,
      "lon": -2.91061,
      "updatedAt": "020830Z",
      "visibility_m": 10000,
      "taf_visibility_m": null,
      "worst_visibility_m": 10000,
      "ceiling_ft": null,
      "hazards": [],
      "severityScore": 5,
      "metarRaw": "METAR LEBB 020830Z 15016KT 110V170 9999 FEW060 14/08 Q0989 NOSIG",
      "tafRaw": null
    },
    {
      "icao": "LECH",
      "iata": "CDT",
      "name": "Castellón-Costa Azahar Airport",
      "lat": 40.213889,
      "lon": 0.073333,
      "updatedAt": "020830Z",
      "visibility_m": 8000,
      "taf_visibility_m": null,
      "worst_visibility_m": 8000,
      "ceiling_ft": 3600,
      "hazards": [],
      "severityScore": 5,
      "metarRaw": "METAR LECH 020830Z AUTO VRB01KT 8000 BKN036 OVC045 08/06 Q1000",
      "tafRaw": null
    },
    {
      "icao": "LFBD",
      "iata": "BOD",
      "name": "Bordeaux–Mérignac Airport",
      "lat": 44.82865,
      "lon": -0.715356,
      "updatedAt": "020830Z",
      "visibility_m": 10000,
      "taf_visibility_m": null,
      "worst_visibility_m": 10000,
      "ceiling_ft": null,
      "hazards": [],
      "severityScore": 5,
      "metarRaw": "METAR LFBD 020830Z AUTO 13010KT CAVOK 09/07 Q0992 TEMPO BKN050TCU",
      "tafRaw": null
    },
    {
      "icao": "LFLL",
      "iata": "LYS",
      "name": "Lyon Saint-Exupéry Airport",
      "lat": 45.725996,
      "lon": 5.090139,
      "updatedAt": "020830Z",
      "visibility_m": 10000,
      "taf_visibility_m": null,
      "worst_visibility_m": 10000,
      "ceiling_ft": 2800,
      "hazards": [],
      "severityScore": 5,
      "metarRaw": "METAR LFLL 020830Z 13007KT 9999 FEW020 BKN028 08/05 Q1000 NOSIG",
      "tafRaw": null
    },
    {
      "icao": "LFLS",
      "iata": "GNB",
      "name": "Grenoble Alpes Isère Airport",
      "lat": 45.3629,
      "lon": 5.32937,
      "updatedAt": "020830Z",
      "visibility_m": 10000,
      "taf_visibility_m": null,
      "worst_visibility_m": 10000,
      "ceiling_ft": 4400,
      "hazards": [],
      "severityScore": 5,
      "metarRaw": "METAR LFLS 020830Z AUTO 09003KT 9999 OVC044 05/04 Q1001 NOSIG",
      "tafRaw": null
    },
    {
      "icao": "LZKZ",
      "iata": "KSC",
      "name": "Košice International Airport",
      "lat": 48.663101,
      "lon": 21.2411,
      "updatedAt": "020830Z",
      "visibility_m": 10000,
      "taf_visibility_m": null,
      "worst_visibility_m": 10000,
      "ceiling_ft": null,
      "hazards": [],
      "severityScore": 5,
      "metarRaw": "METAR LZKZ 020830Z 03008KT CAVOK M02/M07 Q1010 NOSIG",
      "tafRaw": null
    },
    {
      "icao": "BIKF",
      "iata": "KEF",
      "name": "Keflavik International Airport",
      "lat": 63.985001,
      "lon": -22.6056,
      "updatedAt": "020830Z",
      "visibility_m": 10000,
      "taf_visibility_m": 10000,
      "worst_visibility_m": 10000,
      "ceiling_ft": 32000,
      "hazards": [],
      "severityScore": 0,
      "metarRaw": "METAR BIKF 020830Z 08010KT 9999 SCT019 BKN320 05/03 Q1001",
      "tafRaw": "TAF BIKF 020744Z 0209/0309 09016KT 9999 FEW025 SCT035 TX07/0215Z TN04/0306Z \n  TEMPO 0223/0309 10018G28KT"
    },
    {
      "icao": "GCFV",
      "iata": "FUE",
      "name": "Fuerteventura Airport",
      "lat": 28.4527,
      "lon": -13.8638,
      "updatedAt": "020830Z",
      "visibility_m": 10000,
      "taf_visibility_m": 10000,
      "worst_visibility_m": 10000,
      "ceiling_ft": null,
      "hazards": [],
      "severityScore": 0,
      "metarRaw": "METAR GCFV 020830Z 28004KT 230V330 9999 FEW023 SCT028 18/13 Q1017",
      "tafRaw": "TAF GCFV 020800Z 0209/0309 27005KT 9999 SCT025 TX22/0214Z TN15/0306Z \n  BECMG 0209/0212 30015KT \n  TEMPO 0210/0220 30015G25KT \n  BECMG 0219/0222 33005KT"
    },
    {
      "icao": "GCLP",
      "iata": "LPA",
      "name": "Gran Canaria Airport",
      "lat": 27.9319,
      "lon": -15.3866,
      "updatedAt": "020830Z",
      "visibility_m": 10000,
      "taf_visibility_m": 10000,
      "worst_visibility_m": 10000,
      "ceiling_ft": null,
      "hazards": [],
      "severityScore": 0,
      "metarRaw": "METAR GCLP 020830Z 32003KT 290V010 9999 SCT026 16/11 Q1018 NOSIG",
      "tafRaw": "TAF GCLP 020800Z 0209/0309 18010KT 9999 FEW020 TX23/0214Z TN15/0306Z \n  TEMPO 0209/0216 VRB05KT \n  BECMG 0215/0217 36020KT \n  PROB30 \n  TEMPO 0216/0221 36020G30KT \n  TEMPO 0303/0309 35009KT"
    },
    {
      "icao": "EDDB",
      "iata": "BER",
      "name": "Berlin Brandenburg Willy Brandt Airport",
      "lat": 52.361738,
      "lon": 13.502341,
      "updatedAt": "020820Z",
      "visibility_m": 10000,
      "taf_visibility_m": 10000,
      "worst_visibility_m": 10000,
      "ceiling_ft": 4500,
      "hazards": [],
      "severityScore": 0,
      "metarRaw": "METAR EDDB 020820Z AUTO 09011KT 9999 OVC045 M09/M13 Q1013 NOSIG",
      "tafRaw": "TAF EDDB 020500Z 0206/0306 08012KT 9999 OVC035 \n  TEMPO 0219/0306 08015G25KT"
    },
    {
      "icao": "EDDK",
      "iata": "CGN",
      "name": "Cologne Bonn Airport",
      "lat": 50.865898,
      "lon": 7.14274,
      "updatedAt": "020820Z",
      "visibility_m": 10000,
      "taf_visibility_m": 10000,
      "worst_visibility_m": 10000,
      "ceiling_ft": 4000,
      "hazards": [],
      "severityScore": 0,
      "metarRaw": "METAR EDDK 020820Z AUTO 12008KT 100V160 9999 FEW037 03/00 Q1002 NOSIG",
      "tafRaw": "TAF EDDK 020500Z 0206/0312 11010KT 9999 BKN040"
    },
    {
      "icao": "EDJA",
      "iata": "FMM",
      "name": "Memmingen Allgau Airport",
      "lat": 47.988092,
      "lon": 10.238248,
      "updatedAt": "020820Z",
      "visibility_m": 10000,
      "taf_visibility_m": 10000,
      "worst_visibility_m": 10000,
      "ceiling_ft": 5300,
      "hazards": [],
      "severityScore": 0,
      "metarRaw": "METAR EDJA 020820Z 05003KT 010V080 9999 SCT003 BKN053 M03/M03 Q1002",
      "tafRaw": "TAF EDJA 020800Z 0209/0218 06006KT 9999 SCT003 BKN050 \n  PROB30 \n  TEMPO 0209/0211 BKN003"
    },
    {
      "icao": "EDLW",
      "iata": "DTM",
      "name": "Dortmund Airport",
      "lat": 51.518299,
      "lon": 7.61224,
      "updatedAt": "020820Z",
      "visibility_m": 10000,
      "taf_visibility_m": 10000,
      "worst_visibility_m": 10000,
      "ceiling_ft": null,
      "hazards": [],
      "severityScore": 0,
      "metarRaw": "METAR EDLW 020820Z 03006KT CAVOK 02/M00 Q1002",
      "tafRaw": "TAF EDLW 020500Z 0206/0306 08009KT CAVOK"
    },
    {
      "icao": "EETN",
      "iata": "TLL",
      "name": "Lennart Meri Tallinn Airport",
      "lat": 59.413246,
      "lon": 24.83264,
      "updatedAt": "020820Z",
      "visibility_m": 10000,
      "taf_visibility_m": 10000,
      "worst_visibility_m": 10000,
      "ceiling_ft": null,
      "hazards": [],
      "severityScore": 0,
      "metarRaw": "METAR EETN 020820Z 03008KT 360V060 CAVOK M09/M14 Q1027 NOSIG",
      "tafRaw": "TAF EETN 020530Z 0206/0306 36010KT CAVOK"
    },
    {
      "icao": "EFTU",
      "iata": "TKU",
      "name": "Turku Airport",
      "lat": 60.514099,
      "lon": 22.2628,
      "updatedAt": "020820Z",
      "visibility_m": 10000,
      "taf_visibility_m": 10000,
      "worst_visibility_m": 10000,
      "ceiling_ft": null,
      "hazards": [],
      "severityScore": 0,
      "metarRaw": "METAR EFTU 020820Z AUTO 03002KT CAVOK M20/M22 Q1029",
      "tafRaw": "TAF EFTU 020825Z 0209/0309 03002KT CAVOK"
    },
    {
      "icao": "EKBI",
      "iata": "BLL",
      "name": "Billund Airport",
      "lat": 55.740335,
      "lon": 9.157019,
      "updatedAt": "020820Z",
      "visibility_m": 10000,
      "taf_visibility_m": 10000,
      "worst_visibility_m": 10000,
      "ceiling_ft": null,
      "hazards": [],
      "severityScore": 0,
      "metarRaw": "METAR EKBI 020820Z AUTO 09018KT 070V130 9999 NCD M05/M10 Q1014",
      "tafRaw": "TAF EKBI 020827Z 0209/0309 10018G28KT 9999 FEW025"
    },
    {
      "icao": "EKCH",
      "iata": "CPH",
      "name": "Copenhagen Kastrup Airport",
      "lat": 55.617900848389,
      "lon": 12.656000137329,
      "updatedAt": "020820Z",
      "visibility_m": 10000,
      "taf_visibility_m": 10000,
      "worst_visibility_m": 10000,
      "ceiling_ft": null,
      "hazards": [],
      "severityScore": 0,
      "metarRaw": "METAR EKCH 020820Z AUTO 10016KT 9999 NCD M05/M11 Q1019 TEMPO 10018G28KT",
      "tafRaw": "TAF EKCH 020827Z 0209/0309 10018KT 9999 SCT025 \n  TEMPO 0209/0220 10018G28KT \n  TEMPO 0220/0309 11022G35KT"
    },
    {
      "icao": "ENAL",
      "iata": "AES",
      "name": "Ålesund Airport, Vigra",
      "lat": 62.5625,
      "lon": 6.1197,
      "updatedAt": "020820Z",
      "visibility_m": 10000,
      "taf_visibility_m": 10000,
      "worst_visibility_m": 10000,
      "ceiling_ft": null,
      "hazards": [],
      "severityScore": 0,
      "metarRaw": "METAR ENAL 020820Z 14011KT CAVOK M02/M10 Q1018",
      "tafRaw": "TAF ENAL 020500Z 0206/0215 13012KT CAVOK"
    },
    {
      "icao": "ENHD",
      "iata": "HAU",
      "name": "Haugesund Airport, Karmøy",
      "lat": 59.345299,
      "lon": 5.20836,
      "updatedAt": "020820Z",
      "visibility_m": 10000,
      "taf_visibility_m": 10000,
      "worst_visibility_m": 10000,
      "ceiling_ft": null,
      "hazards": [],
      "severityScore": 0,
      "metarRaw": "METAR ENHD 020820Z 09010KT CAVOK M03/M13 Q1018",
      "tafRaw": "TAF ENHD 020500Z 0206/0215 10012KT CAVOK"
    },
    {
      "icao": "ENVA",
      "iata": "TRD",
      "name": "Trondheim Airport, Værnes",
      "lat": 63.457802,
      "lon": 10.924,
      "updatedAt": null,
      "visibility_m": null,
      "taf_visibility_m": 10000,
      "worst_visibility_m": 10000,
      "ceiling_ft": null,
      "hazards": [],
      "severityScore": 0,
      "metarRaw": null,
      "tafRaw": "TAF ENVA 020500Z 0206/0306 11008KT CAVOK"
    },
    {
      "icao": "ENZV",
      "iata": "SVG",
      "name": "Stavanger Airport, Sola",
      "lat": 58.876701,
      "lon": 5.63778,
      "updatedAt": null,
      "visibility_m": null,
      "taf_visibility_m": 10000,
      "worst_visibility_m": 10000,
      "ceiling_ft": null,
      "hazards": [],
      "severityScore": 0,
      "metarRaw": null,
      "tafRaw": "TAF ENZV 020500Z 0206/0306 10010KT CAVOK"
    },
    {
      "icao": "EPGD",
      "iata": "GDN",
      "name": "Gdańsk Lech Wałęsa Airport",
      "lat": 54.377602,
      "lon": 18.4662,
      "updatedAt": "020830Z",
      "visibility_m": 10000,
      "taf_visibility_m": 10000,
      "worst_visibility_m": 10000,
      "ceiling_ft": null,
      "hazards": [],
      "severityScore": 0,
      "metarRaw": "METAR EPGD 020830Z 11009KT CAVOK M18/M22 Q1022",
      "tafRaw": "TAF EPGD 020530Z 0206/0306 09007KT CAVOK"
    },
    {
      "icao": "EPLB",
      "iata": "LUZ",
      "name": "Lublin Airport",
      "lat": 51.240157,
      "lon": 22.713461,
      "updatedAt": "020830Z",
      "visibility_m": 10000,
      "taf_visibility_m": 10000,
      "worst_visibility_m": 10000,
      "ceiling_ft": null,
      "hazards": [],
      "severityScore": 0,
      "metarRaw": "METAR EPLB 020830Z 06009KT CAVOK M20/M21 Q1019",
      "tafRaw": "TAF EPLB 020530Z 0206/0306 09012KT CAVOK"
    },
    {
      "icao": "EPMO",
      "iata": "WMI",
      "name": "Modlin Airport",
      "lat": 52.451099,
      "lon": 20.6518,
      "updatedAt": "020830Z",
      "visibility_m": 10000,
      "taf_visibility_m": 10000,
      "worst_visibility_m": 10000,
      "ceiling_ft": null,
      "hazards": [],
      "severityScore": 0,
      "metarRaw": "METAR EPMO 020830Z 07011KT CAVOK M18/M21 Q1020",
      "tafRaw": "TAF EPMO 020530Z 0206/0306 08013KT CAVOK"
    },
    {
      "icao": "EPPO",
      "iata": "POZ",
      "name": "Poznań-Ławica Airport",
      "lat": 52.421598,
      "lon": 16.823359,
      "updatedAt": "020830Z",
      "visibility_m": 10000,
      "taf_visibility_m": 10000,
      "worst_visibility_m": 10000,
      "ceiling_ft": 3000,
      "hazards": [],
      "severityScore": 0,
      "metarRaw": "METAR EPPO 020830Z 10013KT 9999 BKN030 M13/M18 Q1016",
      "tafRaw": "TAF EPPO 020530Z 0206/0306 09010KT 9999 BKN025"
    },
    {
      "icao": "EPSC",
      "iata": "SZZ",
      "name": "Solidarity Szczecin–Goleniów Airport",
      "lat": 53.584702,
      "lon": 14.9022,
      "updatedAt": "020830Z",
      "visibility_m": 10000,
      "taf_visibility_m": 10000,
      "worst_visibility_m": 10000,
      "ceiling_ft": null,
      "hazards": [],
      "severityScore": 0,
      "metarRaw": "METAR EPSC 020830Z 08008KT CAVOK M12/M17 Q1017",
      "tafRaw": "TAF EPSC 020530Z 0206/0306 08010KT CAVOK \n  PROB30 \n  TEMPO 0215/0306 10015G25KT"
    },
    {
      "icao": "EPSY",
      "iata": "SZY",
      "name": "Olsztyn-Mazury Airport",
      "lat": 53.481899,
      "lon": 20.9377,
      "updatedAt": "020830Z",
      "visibility_m": 10000,
      "taf_visibility_m": 10000,
      "worst_visibility_m": 10000,
      "ceiling_ft": null,
      "hazards": [],
      "severityScore": 0,
      "metarRaw": "METAR EPSY 020830Z 06003KT 010V100 CAVOK M21/M23 Q1022",
      "tafRaw": "TAF EPSY 020830Z 0209/0218 09006KT CAVOK"
    },
    {
      "icao": "EPWA",
      "iata": "WAW",
      "name": "Warsaw Chopin Airport",
      "lat": 52.165699,
      "lon": 20.9671,
      "updatedAt": "020830Z",
      "visibility_m": 10000,
      "taf_visibility_m": 10000,
      "worst_visibility_m": 10000,
      "ceiling_ft": null,
      "hazards": [],
      "severityScore": 0,
      "metarRaw": "METAR EPWA 020830Z 09008KT CAVOK M16/M20 Q1020 NOSIG",
      "tafRaw": "TAF EPWA 020830Z 0209/0309 09010KT CAVOK"
    },
    {
      "icao": "ESMS",
      "iata": "MMX",
      "name": "Malmö Sturup Airport",
      "lat": 55.535564,
      "lon": 13.376327,
      "updatedAt": "020820Z",
      "visibility_m": 10000,
      "taf_visibility_m": 10000,
      "worst_visibility_m": 10000,
      "ceiling_ft": null,
      "hazards": [],
      "severityScore": 0,
      "metarRaw": "METAR ESMS 020820Z 10013KT CAVOK M06/M11 Q1019",
      "tafRaw": "TAF ESMS 020827Z 0209/0309 10015KT 9999 SCT025 \n  TEMPO 0209/0219 11016G28KT \n  TEMPO 0219/0309 11018G32KT"
    },
    {
      "icao": "EYPA",
      "iata": "PLQ",
      "name": "Palanga International Airport",
      "lat": 55.973202,
      "lon": 21.093901,
      "updatedAt": "020820Z",
      "visibility_m": 10000,
      "taf_visibility_m": 6000,
      "worst_visibility_m": 6000,
      "ceiling_ft": null,
      "hazards": [],
      "severityScore": 0,
      "metarRaw": "METAR EYPA 020820Z 09005KT CAVOK M20/M25 Q1026",
      "tafRaw": "TAF EYPA 020500Z 0206/0306 VRB05KT CAVOK \n  BECMG 0216/0218 6000 NSC"
    },
    {
      "icao": "HEGN",
      "iata": "HRG",
      "name": "Hurghada International Airport",
      "lat": 27.176776,
      "lon": 33.796692,
      "updatedAt": "020800Z",
      "visibility_m": 10000,
      "taf_visibility_m": 10000,
      "worst_visibility_m": 10000,
      "ceiling_ft": null,
      "hazards": [],
      "severityScore": 0,
      "metarRaw": "METAR HEGN 020800Z 13003KT CAVOK 24/11 Q1016 NOSIG",
      "tafRaw": "TAF HEGN 020500Z 0206/0312 23008KT CAVOK \n  BECMG 0209/0211 13008KT"
    },
    {
      "icao": "HEMA",
      "iata": "RMF",
      "name": "Marsa Alam International Airport",
      "lat": 25.555548,
      "lon": 34.59245,
      "updatedAt": "020800Z",
      "visibility_m": 10000,
      "taf_visibility_m": 10000,
      "worst_visibility_m": 10000,
      "ceiling_ft": null,
      "hazards": [],
      "severityScore": 0,
      "metarRaw": "METAR HEMA 020800Z 16007KT CAVOK 24/16 Q1016 NOSIG",
      "tafRaw": "TAF HEMA 020500Z 0206/0312 24008KT CAVOK \n  BECMG 0209/0211 10008KT"
    },
    {
      "icao": "HESH",
      "iata": "SSH",
      "name": "Sharm El Sheikh International Airport",
      "lat": 27.977272,
      "lon": 34.394717,
      "updatedAt": "020800Z",
      "visibility_m": 10000,
      "taf_visibility_m": 10000,
      "worst_visibility_m": 10000,
      "ceiling_ft": null,
      "hazards": [],
      "severityScore": 0,
      "metarRaw": "METAR HESH 020800Z 17005KT CAVOK 26/12 Q1016 NOSIG",
      "tafRaw": "TAF HESH 020500Z 0206/0312 27008KT CAVOK \n  BECMG 0209/0211 17008KT"
    },
    {
      "icao": "HESX",
      "iata": "SPX",
      "name": "Sphinx International Airport",
      "lat": 30.108179,
      "lon": 30.895728,
      "updatedAt": "020800Z",
      "visibility_m": 4000,
      "taf_visibility_m": 2000,
      "worst_visibility_m": 2000,
      "ceiling_ft": null,
      "hazards": [],
      "severityScore": 0,
      "metarRaw": "METAR HESX 020800Z 23009KT 4000 HZ NSC 16/M00 Q1017 NOSIG",
      "tafRaw": "TAF HESX 020500Z 0206/0312 24007KT CAVOK \n  TEMPO 0206/0209 3000 HZ NSC \n  BECMG 0210/0212 26014G24KT \n  PROB40 \n  TEMPO 0210/0217 2000 SA"
    },
    {
      "icao": "LATI",
      "iata": "TIA",
      "name": "Tirana International Airport Mother Teresa",
      "lat": 41.4147,
      "lon": 19.7206,
      "updatedAt": null,
      "visibility_m": null,
      "taf_visibility_m": 10000,
      "worst_visibility_m": 10000,
      "ceiling_ft": 8000,
      "hazards": [],
      "severityScore": 0,
      "metarRaw": null,
      "tafRaw": "TAF LATI 020500Z 0206/0306 VRB05KT 9999 SCT040 BKN080 TX13/0212Z TN05/0303Z"
    },
    {
      "icao": "LEXJ",
      "iata": "SDR",
      "name": "Seve Ballesteros-Santander Airport",
      "lat": 43.427101,
      "lon": -3.82001,
      "updatedAt": "020830Z",
      "visibility_m": 10000,
      "taf_visibility_m": 10000,
      "worst_visibility_m": 10000,
      "ceiling_ft": null,
      "hazards": [],
      "severityScore": 0,
      "metarRaw": "METAR LEXJ 020830Z 18014G26KT 140V210 9999 FEW050 17/08 Q0987",
      "tafRaw": "TAF LEXJ 020800Z 0209/0309 19009KT 9999 FEW040 TX18/0212Z TN09/0304Z \n  TEMPO 0209/0218 19018G32KT \n  PROB40 \n  TEMPO 0218/0309 19015G25KT"
    },
    {
      "icao": "LIBD",
      "iata": "BRI",
      "name": "Bari Karol Wojtyła International Airport",
      "lat": 41.138901,
      "lon": 16.760599,
      "updatedAt": "020820Z",
      "visibility_m": 10000,
      "taf_visibility_m": 10000,
      "worst_visibility_m": 10000,
      "ceiling_ft": null,
      "hazards": [],
      "severityScore": 0,
      "metarRaw": "METAR LIBD 020820Z 25007KT CAVOK 09/04 Q1008",
      "tafRaw": "TAF LIBD 020500Z 0206/0306 26010KT 9999 FEW030 \n  BECMG 0210/0212 33008KT \n  BECMG 0216/0218 18010KT"
    },
    {
      "icao": "LIBG",
      "iata": "TAR",
      "name": "Taranto-Grottaglie Marcello Arlotta Airport",
      "lat": 40.517502,
      "lon": 17.4032,
      "updatedAt": "020750Z",
      "visibility_m": 10000,
      "taf_visibility_m": 10000,
      "worst_visibility_m": 10000,
      "ceiling_ft": null,
      "hazards": [],
      "severityScore": 0,
      "metarRaw": "METAR LIBG 020750Z 23003KT CAVOK 07/05 Q1008",
      "tafRaw": "TAF LIBG 020800Z 0209/0218 VRB05KT 9999 FEW040"
    },
    {
      "icao": "LIBP",
      "iata": "PSR",
      "name": "Abruzzo Airport",
      "lat": 42.431079,
      "lon": 14.182981,
      "updatedAt": "020820Z",
      "visibility_m": 10000,
      "taf_visibility_m": 10000,
      "worst_visibility_m": 10000,
      "ceiling_ft": null,
      "hazards": [],
      "severityScore": 0,
      "metarRaw": "METAR LIBP 020820Z 24005KT CAVOK 06/03 Q1009",
      "tafRaw": "TAF LIBP 020500Z 0206/0306 VRB05KT 9999 SCT050"
    },
    {
      "icao": "LICC",
      "iata": "CTA",
      "name": "Catania-Fontanarossa Airport",
      "lat": 37.466801,
      "lon": 15.0664,
      "updatedAt": "020820Z",
      "visibility_m": 10000,
      "taf_visibility_m": 10000,
      "worst_visibility_m": 10000,
      "ceiling_ft": null,
      "hazards": [],
      "severityScore": 0,
      "metarRaw": "METAR LICC 020820Z 25013KT CAVOK 12/08 Q1010",
      "tafRaw": "TAF LICC 020500Z 0206/0306 28016KT 9999 SCT040 \n  TEMPO 0206/0208 28016G26KT"
    },
    {
      "icao": "LICJ",
      "iata": "PMO",
      "name": "Falcone–Borsellino Airport",
      "lat": 38.175999,
      "lon": 13.091,
      "updatedAt": "020820Z",
      "visibility_m": 10000,
      "taf_visibility_m": 10000,
      "worst_visibility_m": 10000,
      "ceiling_ft": null,
      "hazards": [],
      "severityScore": 0,
      "metarRaw": "METAR LICJ 020820Z 19008KT 9999 FEW030 13/08 Q1011",
      "tafRaw": "TAF LICJ 020500Z 0206/0306 28015KT 9999 SCT030 \n  BECMG 0213/0215 22013KT \n  TEMPO 0303/0306 22018G28KT"
    },
    {
      "icao": "LIPY",
      "iata": "AOI",
      "name": "Marche Airport",
      "lat": 43.616299,
      "lon": 13.3623,
      "updatedAt": "020820Z",
      "visibility_m": 10000,
      "taf_visibility_m": 10000,
      "worst_visibility_m": 10000,
      "ceiling_ft": null,
      "hazards": [],
      "severityScore": 0,
      "metarRaw": "METAR LIPY 020820Z AUTO 22004KT 9999 NCD 06/02 Q1009",
      "tafRaw": "TAF LIPY 020500Z 0206/0306 26010KT 9999 SCT040 \n  BECMG 0212/0214 VRB05KT \n  BECMG 0216/0218 14010KT"
    },
    {
      "icao": "LIRN",
      "iata": "NAP",
      "name": "Naples International Airport",
      "lat": 40.886002,
      "lon": 14.2908,
      "updatedAt": "020820Z",
      "visibility_m": 10000,
      "taf_visibility_m": 10000,
      "worst_visibility_m": 10000,
      "ceiling_ft": null,
      "hazards": [],
      "severityScore": 0,
      "metarRaw": "METAR LIRN 020820Z 02003KT 340V040 CAVOK 09/04 Q1008 NOSIG",
      "tafRaw": "TAF LIRN 020500Z 0206/0306 VRB05KT 9999 FEW030 \n  BECMG 0215/0217 16012KT"
    },
    {
      "icao": "LPMA",
      "iata": "FNC",
      "name": "Cristiano Ronaldo International Airport",
      "lat": 32.697812,
      "lon": -16.774613,
      "updatedAt": "020830Z",
      "visibility_m": 10000,
      "taf_visibility_m": 10000,
      "worst_visibility_m": 10000,
      "ceiling_ft": null,
      "hazards": [],
      "severityScore": 0,
      "metarRaw": "METAR LPMA 020830Z 28006KT 230V300 9999 SCT015 15/06 Q1014",
      "tafRaw": "TAF LPMA 020512Z 0206/0306 34015KT 9999 SCT015 \n  TEMPO 0206/0224 VRB05KT \n  BECMG 0300/0302 VRB05KT"
    },
    {
      "icao": "LRIA",
      "iata": "IAS",
      "name": "Iaşi Airport",
      "lat": 47.180278,
      "lon": 27.620833,
      "updatedAt": "020830Z",
      "visibility_m": 10000,
      "taf_visibility_m": 10000,
      "worst_visibility_m": 10000,
      "ceiling_ft": null,
      "hazards": [],
      "severityScore": 0,
      "metarRaw": "METAR LRIA 020830Z 02006KT 340V060 CAVOK M10/M17 Q1018",
      "tafRaw": "TAF LRIA 020800Z 0209/0218 03008KT CAVOK"
    },
    {
      "icao": "LRBC",
      "iata": "BCM",
      "name": "Bacău George Enescu International  Airport",
      "lat": 46.5219,
      "lon": 26.910299,
      "updatedAt": "020830Z",
      "visibility_m": 10000,
      "taf_visibility_m": 10000,
      "worst_visibility_m": 10000,
      "ceiling_ft": null,
      "hazards": [],
      "severityScore": 0,
      "metarRaw": "METAR LRBC 020830Z 34007KT 310V010 CAVOK M07/M13 Q1017",
      "tafRaw": "TAF LRBC 020800Z 0209/0218 34008KT CAVOK"
    },
    {
      "icao": "LRSV",
      "iata": "SCV",
      "name": "Suceava Stefan cel Mare Airport",
      "lat": 47.6875,
      "lon": 26.35409927368164,
      "updatedAt": "020830Z",
      "visibility_m": 10000,
      "taf_visibility_m": 10000,
      "worst_visibility_m": 10000,
      "ceiling_ft": null,
      "hazards": [],
      "severityScore": 0,
      "metarRaw": "METAR LRSV 020830Z 05005KT CAVOK M13/M15 Q1015",
      "tafRaw": "TAF LRSV 020800Z 0209/0218 06006KT CAVOK"
    },
    {
      "icao": "LUKK",
      "iata": "RMO",
      "name": "Chişinău International Airport",
      "lat": 46.9277,
      "lon": 28.931,
      "updatedAt": "020830Z",
      "visibility_m": 10000,
      "taf_visibility_m": 10000,
      "worst_visibility_m": 10000,
      "ceiling_ft": null,
      "hazards": [],
      "severityScore": 0,
      "metarRaw": "METAR LUKK 020830Z 02013KT CAVOK M11/M17 Q1017 NOSIG",
      "tafRaw": "TAF LUKK 020515Z 0206/0306 03010KT CAVOK"
    },
    {
      "icao": "LWSK",
      "iata": "SKP",
      "name": "Skopje International Airport",
      "lat": 41.958087,
      "lon": 21.622581,
      "updatedAt": null,
      "visibility_m": null,
      "taf_visibility_m": 10000,
      "worst_visibility_m": 10000,
      "ceiling_ft": 3500,
      "hazards": [],
      "severityScore": 0,
      "metarRaw": null,
      "tafRaw": "TAF LWSK 020830Z 0209/0309 03008KT 9999 SCT020 OVC035"
    },
    {
      "icao": "LYBE",
      "iata": "BEG",
      "name": "Belgrade Nikola Tesla Airport",
      "lat": 44.818401,
      "lon": 20.309099,
      "updatedAt": "020830Z",
      "visibility_m": 10000,
      "taf_visibility_m": 10000,
      "worst_visibility_m": 10000,
      "ceiling_ft": null,
      "hazards": [],
      "severityScore": 0,
      "metarRaw": "METAR LYBE 020830Z 13010KT 9999 SCT040 M02/M07 Q1013 NOSIG",
      "tafRaw": "TAF LYBE 020500Z 0206/0306 12009KT CAVOK TX02/0213Z TNM03/0206Z"
    },
    {
      "icao": "LYNI",
      "iata": "INI",
      "name": "Niš Constantine the Great Airport",
      "lat": 43.336538,
      "lon": 21.856242,
      "updatedAt": "020830Z",
      "visibility_m": 10000,
      "taf_visibility_m": 10000,
      "worst_visibility_m": 10000,
      "ceiling_ft": 4000,
      "hazards": [],
      "severityScore": 0,
      "metarRaw": "METAR LYNI 020830Z 06005KT 040V120 9999 BKN040 M03/M08 Q1012 NOSIG",
      "tafRaw": "TAF LYNI 020500Z 0206/0306 05005KT 9999 BKN040 BKN070 TXM00/0213Z TNM04/0306Z"
    },
    {
      "icao": "LYPG",
      "iata": "TGD",
      "name": "Podgorica Airport / Podgorica Golubovci Airbase",
      "lat": 42.359402,
      "lon": 19.2519,
      "updatedAt": "020830Z",
      "visibility_m": 10000,
      "taf_visibility_m": 10000,
      "worst_visibility_m": 10000,
      "ceiling_ft": 7000,
      "hazards": [],
      "severityScore": 0,
      "metarRaw": "METAR LYPG 020830Z VRB01KT 9999 FEW030 SCT050 BKN070 07/03 Q1008 NOSIG",
      "tafRaw": "TAF LYPG 020500Z 0206/0306 16005KT 9999 FEW040 BKN080 TX09/0212Z TN03/0303Z"
    },
    {
      "icao": "OEJN",
      "iata": "JED",
      "name": "King Abdulaziz International Airport",
      "lat": 21.6796,
      "lon": 39.156502,
      "updatedAt": "020800Z",
      "visibility_m": 8000,
      "taf_visibility_m": 6000,
      "worst_visibility_m": 6000,
      "ceiling_ft": null,
      "hazards": [],
      "severityScore": 0,
      "metarRaw": "METAR OEJN 020800Z VRB02KT 8000 NSC 30/17 Q1016 NOSIG",
      "tafRaw": "TAF OEJN 020500Z 0206/0312 23010KT 6000 NSC \n  BECMG 0217/0219 VRB03KT \n  BECMG 0222/0300 02005KT \n  BECMG 0308/0310 28010KT"
    },
    {
      "icao": "OEMA",
      "iata": "MED",
      "name": "Prince Mohammad Bin Abdulaziz Airport",
      "lat": 24.5534,
      "lon": 39.705101,
      "updatedAt": "020800Z",
      "visibility_m": 10000,
      "taf_visibility_m": 7000,
      "worst_visibility_m": 7000,
      "ceiling_ft": null,
      "hazards": [],
      "severityScore": 0,
      "metarRaw": "METAR OEMA 020800Z VRB03KT 9999 SCT045 26/05 Q1020 NOSIG",
      "tafRaw": "TAF OEMA 020500Z 0206/0312 08005KT 7000 SCT045 \n  BECMG 0211/0213 27010KT \n  PROB30 \n  TEMPO 0213/0220 FEW030CB \n  BECMG 0221/0300 VRB03KT"
    },
    {
      "icao": "OMAA",
      "iata": "AUH",
      "name": "Zayed International Airport",
      "lat": 24.440966,
      "lon": 54.649237,
      "updatedAt": "020830Z",
      "visibility_m": 10000,
      "taf_visibility_m": 4000,
      "worst_visibility_m": 4000,
      "ceiling_ft": null,
      "hazards": [],
      "severityScore": 0,
      "metarRaw": "METAR OMAA 020830Z 24003KT 200V300 CAVOK 27/02 Q1019 BECMG 34010KT",
      "tafRaw": "TAF OMAA 020500Z 0206/0312 21005KT 8000 NSC \n  BECMG 0209/0211 32010KT \n  BECMG 0216/0218 08005KT \n  PROB30 0223/0305 4000 HZ \n  BECMG 0310/0312 34010KT"
    },
    {
      "icao": "OMDB",
      "iata": "DXB",
      "name": "Dubai International Airport",
      "lat": 25.2527999878,
      "lon": 55.3643989563,
      "updatedAt": "020830Z",
      "visibility_m": 10000,
      "taf_visibility_m": 4000,
      "worst_visibility_m": 4000,
      "ceiling_ft": null,
      "hazards": [],
      "severityScore": 0,
      "metarRaw": "METAR OMDB 020830Z 33006KT 240V030 CAVOK 27/02 Q1019 NOSIG",
      "tafRaw": "TAF OMDB 020500Z 0206/0312 20005KT 8000 NSC \n  BECMG 0208/0210 29010KT \n  BECMG 0216/0218 11005KT \n  PROB30 0301/0305 4000 HZ \n  BECMG 0309/0311 32010KT"
    }
  ],
  "stats": {
    "icaoCount": 159,
    "metarReturned": 150,
    "tafReturned": 139,
    "stationsWritten": 159,
    "missingMetar": 9,
    "missingTaf": 20
  },
  "errors": []
}