{
  "generatedAt": "2026-01-15T23:51:54.994Z",
  "stations": [
    {
      "icao": "BKPR",
      "iata": "PRN",
      "name": "Priština Adem Jashari International Airport",
      "updatedAt": "152330Z",
      "visibility_m": 10000,
      "taf_visibility_m": 300,
      "worst_visibility_m": 300,
      "ceiling_ft": 6000,
      "hazards": [
        "FZFG",
        "BR",
        "FG"
      ],
      "severityScore": 100,
      "metarRaw": "METAR BKPR 152330Z VRB01KT 9999 BKN060 03/02 Q1024 NOSIG",
      "tafRaw": "TAF BKPR 152330Z 1600/1624 VRB03KT 9999 SCT050 \n  TEMPO 1602/1609 3000 BR \n  PROB30 1603/1608 0300 FZFG BKN003"
    },
    {
      "icao": "EDDH",
      "iata": "HAM",
      "name": "Hamburg Helmut Schmidt Airport",
      "updatedAt": "152320Z",
      "visibility_m": 10000,
      "taf_visibility_m": 500,
      "worst_visibility_m": 500,
      "ceiling_ft": 100,
      "hazards": [
        "FG",
        "BR"
      ],
      "severityScore": 100,
      "metarRaw": "METAR EDDH 152320Z AUTO 15009KT CAVOK 06/05 Q1010 NOSIG",
      "tafRaw": "TAF EDDH 152300Z 1600/1706 15008KT CAVOK \n  BECMG 1610/1612 23009KT \n  BECMG 1614/1616 17003KT \n  BECMG 1623/1701 11005KT \n  PROB40 \n  TEMPO 1701/1706 3500 BR \n  PROB30 \n  TEMPO 1704/1706 0500 FG OVC001"
    },
    {
      "icao": "EDDN",
      "iata": "NUE",
      "name": "Nuremberg Airport",
      "updatedAt": "152320Z",
      "visibility_m": 10000,
      "taf_visibility_m": 800,
      "worst_visibility_m": 800,
      "ceiling_ft": 100,
      "hazards": [
        "FZFG",
        "BR",
        "FG"
      ],
      "severityScore": 100,
      "metarRaw": "METAR EDDN 152320Z AUTO 13003KT CAVOK 01/00 Q1015",
      "tafRaw": "TAF EDDN 152300Z 1600/1624 12007KT CAVOK \n  BECMG 1618/1621 4000 BR OVC002 \n  PROB40 \n  TEMPO 1619/1624 0800 FZFG OVC001"
    },
    {
      "icao": "EFTU",
      "iata": "TKU",
      "name": "Turku Airport",
      "updatedAt": "152350Z",
      "visibility_m": 6000,
      "taf_visibility_m": 6000,
      "worst_visibility_m": 6000,
      "ceiling_ft": 200,
      "hazards": [
        "SHRA",
        "RA",
        "DZ",
        "FZRA",
        "SN"
      ],
      "severityScore": 100,
      "metarRaw": "METAR EFTU 152350Z AUTO 19005KT 6000 -SHRA OVC002 02/01 Q1021 REDZ",
      "tafRaw": "TAF EFTU 152335Z 1600/1624 19006KT 9000 OVC002 \n  TEMPO 1600/1606 18015G25KT 6000 -SHRASN \n  PROB30 \n  TEMPO 1600/1606 SCT005 BKN011 \n  BECMG 1606/1608 BKN008 \n  TEMPO 1608/1616 18015G25KT OVC011 \n  TEMPO 1616/1624 7000 -FZRA OVC011"
    },
    {
      "icao": "EGBB",
      "iata": "BHX",
      "name": "Birmingham Airport",
      "updatedAt": "152320Z",
      "visibility_m": 10000,
      "taf_visibility_m": 300,
      "worst_visibility_m": 300,
      "ceiling_ft": 3000,
      "hazards": [
        "FG",
        "BR",
        "RA",
        "SHRA"
      ],
      "severityScore": 100,
      "metarRaw": "METAR EGBB 152320Z 23003KT 9999 BKN030 05/04 Q0999",
      "tafRaw": "TAF EGBB 152256Z 1600/1624 21006KT 9999 BKN020 \n  TEMPO 1600/1609 4000 BR BKN003 \n  PROB40 \n  TEMPO 1600/1609 0300 FG BKN000 \n  PROB30 \n  TEMPO 1604/1608 SHRA \n  TEMPO 1609/1611 7000 BKN008 \n  TEMPO 1620/1624 BKN009 \n  TEMPO 1622/1624 7000 RA \n  PROB30 \n  TEMPO 1622/1624 4000 +RA BKN004"
    },
    {
      "icao": "EGGP",
      "iata": "LPL",
      "name": "Liverpool John Lennon Airport",
      "updatedAt": "152320Z",
      "visibility_m": 100,
      "taf_visibility_m": 300,
      "worst_visibility_m": 100,
      "ceiling_ft": 400,
      "hazards": [
        "FG",
        "BR",
        "RA",
        "DZ"
      ],
      "severityScore": 100,
      "metarRaw": "METAR EGGP 152320Z 17004KT 140V200 0100 R27/0600N FG VV/// 03/02 Q0998",
      "tafRaw": "TAF EGGP 152300Z 1600/1624 VRB03KT 6000 FEW040 \n  TEMPO 1600/1611 3000 -DZ BR MIFG BKN004 \n  PROB40 1600/1606 0300 FG VV/// \n  PROB30 \n  TEMPO 1605/1608 RADZ \n  BECMG 1610/1613 15010KT 9999 \n  PROB30 \n  TEMPO 1621/1624 6000 RA BKN012"
    },
    {
      "icao": "EGNM",
      "iata": "LBA",
      "name": "Leeds Bradford Airport",
      "updatedAt": null,
      "visibility_m": null,
      "taf_visibility_m": 300,
      "worst_visibility_m": 300,
      "ceiling_ft": 400,
      "hazards": [
        "FG",
        "BR",
        "RA",
        "DZ"
      ],
      "severityScore": 100,
      "metarRaw": null,
      "tafRaw": "TAF EGNM 151657Z 1518/1618 VRB03KT 9999 FEW010 \n  BECMG 1518/1521 7000 BKN008 \n  TEMPO 1518/1524 3000 RADZ BR BKN004 \n  PROB40 \n  TEMPO 1518/1524 0300 FG VV/// \n  TEMPO 1600/1612 4000 BR BKN004 \n  BECMG 1610/1613 17010KT 9999 SCT025 \n  PROB30 \n  TEMPO 1615/1618 8000 BKN009 \n  BECMG 1616/1618 11005KT"
    },
    {
      "icao": "EGPD",
      "iata": "ABZ",
      "name": "Aberdeen International Airport",
      "updatedAt": "152320Z",
      "visibility_m": 10000,
      "taf_visibility_m": 300,
      "worst_visibility_m": 300,
      "ceiling_ft": null,
      "hazards": [
        "FZFG",
        "FG",
        "BR"
      ],
      "severityScore": 100,
      "metarRaw": "METAR EGPD 152320Z COR AUTO VRB02KT 9999 NCD M02/M03 Q0998 NOSIG",
      "tafRaw": "TAF EGPD 152254Z 1600/1624 VRB03KT CAVOK \n  PROB30 \n  TEMPO 1600/1602 2000 BR MIFG \n  PROB30 1602/1610 0300 FZFG VV/// \n  TEMPO 1617/1624 2000 BR MIFG \n  PROB30 1620/1624 0300 FG VV///"
    },
    {
      "icao": "ENGM",
      "iata": "OSL",
      "name": "Oslo-Gardermoen International Airport",
      "updatedAt": "152320Z",
      "visibility_m": 4800,
      "taf_visibility_m": 1000,
      "worst_visibility_m": 1000,
      "ceiling_ft": 300,
      "hazards": [
        "BR",
        "SN",
        "FZRA",
        "RA",
        "FZDZ",
        "DZ"
      ],
      "severityScore": 100,
      "metarRaw": "METAR ENGM 152320Z 05003KT 020V110 4800 1600E -SN BR BKN003 BKN012 OVC014 M00/M01 Q1009 REFZRA",
      "tafRaw": "TAF ENGM 152300Z 1600/1624 VRB03KT 5000 -SN BR BKN003 \n  TEMPO 1600/1605 1500 -FZDZ SNRA OVC006 \n  TEMPO 1605/1613 1000 RASN BR BKN006 \n  BECMG 1612/1614 18010KT RA \n  TEMPO 1613/1624 3000 BR BKN006"
    },
    {
      "icao": "EPGD",
      "iata": "GDN",
      "name": "Gdańsk Lech Wałęsa Airport",
      "updatedAt": "152330Z",
      "visibility_m": 1800,
      "taf_visibility_m": 500,
      "worst_visibility_m": 500,
      "ceiling_ft": 200,
      "hazards": [
        "BR",
        "FZFG",
        "FG"
      ],
      "severityScore": 100,
      "metarRaw": "METAR EPGD 152330Z 16012KT 1800 BR OVC002 M03/M03 Q1021",
      "tafRaw": "TAF EPGD 152330Z 1600/1624 16010KT 3000 BR BKN002 \n  TEMPO 1600/1610 1500 BR BKN001 \n  PROB40 1600/1609 0800 FZFG \n  BECMG 1610/1613 5000 BR OVC005 \n  BECMG 1613/1616 2000 BR BKN003 \n  TEMPO 1616/1624 0500 FZFG OVC001"
    },
    {
      "icao": "EPPO",
      "iata": "POZ",
      "name": "Poznań-Ławica Airport",
      "updatedAt": "152330Z",
      "visibility_m": 1400,
      "taf_visibility_m": 200,
      "worst_visibility_m": 200,
      "ceiling_ft": 100,
      "hazards": [
        "BR",
        "FG",
        "DZ"
      ],
      "severityScore": 100,
      "metarRaw": "METAR EPPO 152330Z 12008KT 1400 R28/P2000D BR OVC001 01/01 Q1019",
      "tafRaw": "TAF EPPO 152330Z 1600/1624 13007KT 0800 FG BKN003 \n  TEMPO 1600/1609 0200 -DZ FG BKN001 \n  BECMG 1609/1612 3000 BR BKN005 \n  TEMPO 1609/1616 5000 BR SCT007 \n  BECMG 1616/1618 0800 FG BKN003 \n  TEMPO 1618/1624 0200 FG BKN001"
    },
    {
      "icao": "EPRZ",
      "iata": "RZE",
      "name": "Rzeszów-Jasionka Airport",
      "updatedAt": "152330Z",
      "visibility_m": 3000,
      "taf_visibility_m": 300,
      "worst_visibility_m": 300,
      "ceiling_ft": 300,
      "hazards": [
        "BR",
        "FG"
      ],
      "severityScore": 100,
      "metarRaw": "METAR EPRZ 152330Z 10007KT 3000 BR BKN003 OVC020 00/00 Q1023",
      "tafRaw": "TAF EPRZ 152330Z 1600/1624 09006KT 3000 BR SCT002 OVC020 \n  TEMPO 1600/1606 0300 FG OVC002 \n  PROB40 \n  TEMPO 1600/1606 5000 BR \n  BECMG 1606/1609 CAVOK \n  PROB30 \n  TEMPO 1618/1624 3000 BR BKN004"
    },
    {
      "icao": "EPSC",
      "iata": "SZZ",
      "name": "Solidarity Szczecin–Goleniów Airport",
      "updatedAt": "152330Z",
      "visibility_m": 3500,
      "taf_visibility_m": 300,
      "worst_visibility_m": 300,
      "ceiling_ft": 400,
      "hazards": [
        "BR",
        "FG"
      ],
      "severityScore": 100,
      "metarRaw": "METAR EPSC 152330Z 13012KT 3500 BR BKN004 OVC023 02/02 Q1017",
      "tafRaw": "TAF EPSC 152330Z 1600/1624 13012KT 3000 BR BKN004 OVC020 \n  TEMPO 1600/1610 1500 BR \n  PROB40 1600/1608 0800 FG OVC001 \n  PROB40 1610/1615 6000 OVC005 \n  BECMG 1615/1618 0600 FG BKN002 \n  TEMPO 1617/1624 0300 FG OVC001"
    },
    {
      "icao": "EPWR",
      "iata": "WRO",
      "name": "Copernicus Wrocław Airport",
      "updatedAt": "152330Z",
      "visibility_m": 4000,
      "taf_visibility_m": 200,
      "worst_visibility_m": 200,
      "ceiling_ft": 4800,
      "hazards": [
        "BR",
        "FZFG",
        "FG"
      ],
      "severityScore": 100,
      "metarRaw": "METAR EPWR 152330Z 12007KT 4000 BR BKN048 02/01 Q1019",
      "tafRaw": "TAF EPWR 152330Z 1600/1624 12006KT 2500 BR BKN025 \n  TEMPO 1600/1609 0500 FG \n  PROB40 \n  TEMPO 1600/1609 0200 FZFG BKN001 \n  BECMG 1609/1612 8000 \n  BECMG 1615/1618 2000 BR \n  TEMPO 1616/1621 0500 FG BKN002 \n  BECMG 1621/1624 0300 FG BKN002"
    },
    {
      "icao": "ESMS",
      "iata": "MMX",
      "name": "Malmö Sturup Airport",
      "updatedAt": "152320Z",
      "visibility_m": 250,
      "taf_visibility_m": 200,
      "worst_visibility_m": 200,
      "ceiling_ft": 200,
      "hazards": [
        "FG",
        "BR"
      ],
      "severityScore": 100,
      "metarRaw": "METAR ESMS 152320Z 13011KT 0250 R17/1200N R35/1000N FG VV002 03/03 Q1013",
      "tafRaw": "TAF ESMS 152327Z 1600/1624 14010KT 0200 FG OVC001 \n  TEMPO 1600/1602 3000 BR OVC005 \n  BECMG 1602/1604 5000 NSW FEW005 \n  TEMPO 1604/1608 1500 BR BKN004 \n  BECMG 1614/1617 3000 BR"
    },
    {
      "icao": "LBPD",
      "iata": "PDV",
      "name": "Plovdiv International Airport",
      "updatedAt": "152330Z",
      "visibility_m": 10000,
      "taf_visibility_m": 800,
      "worst_visibility_m": 800,
      "ceiling_ft": 200,
      "hazards": [
        "BR",
        "SN",
        "FG",
        "RA"
      ],
      "severityScore": 100,
      "metarRaw": "METAR LBPD 152330Z AUTO VRB01KT 9999 NCD 03/03 Q1023",
      "tafRaw": "TAF LBPD 152300Z 1600/1624 VRB03KT 9999 SCT070 \n  BECMG 1600/1602 3000 BR BKN015 \n  PROB30 \n  TEMPO 1602/1605 0800 BCFG VV002 \n  BECMG 1606/1608 10010KT 9999 NSW BKN030 \n  TEMPO 1614/1618 5000 RASN BKN015 OVC030 \n  TEMPO 1618/1624 3000 SN BKN010 OVC020"
    },
    {
      "icao": "LBSF",
      "iata": "SOF",
      "name": "Sofia Airport",
      "updatedAt": "152330Z",
      "visibility_m": 10000,
      "taf_visibility_m": 600,
      "worst_visibility_m": 600,
      "ceiling_ft": 600,
      "hazards": [
        "FZFG",
        "BR",
        "SN",
        "FG",
        "RA"
      ],
      "severityScore": 100,
      "metarRaw": "METAR LBSF 152330Z AUTO 11004KT 9999 OVC057/// 01/M00 Q1023 NOSIG",
      "tafRaw": "TAF LBSF 152300Z 1600/1624 VRB03KT 4000 BR BKN050 \n  TEMPO 1600/1607 1500 BR BKN010 \n  PROB40 1602/1606 0600 FZFG SCT003 BKN006 \n  BECMG 1608/1610 9999 NSW \n  BECMG 1613/1615 08010KT \n  TEMPO 1616/1620 5000 RASN SCT010 BKN015"
    },
    {
      "icao": "LFOB",
      "iata": "BVA",
      "name": "Beauvais Tillé airport",
      "updatedAt": "152330Z",
      "visibility_m": 3500,
      "taf_visibility_m": 800,
      "worst_visibility_m": 800,
      "ceiling_ft": 900,
      "hazards": [
        "SHRA",
        "RA",
        "FG",
        "BR"
      ],
      "severityScore": 100,
      "metarRaw": "METAR LFOB 152330Z AUTO 20016KT 170V230 9999 BKN019 BKN027 BKN032 10/08 Q1004 TEMPO 21020G30KT 3500 SHRA BKN009 OVC013",
      "tafRaw": "TAF LFOB 152300Z 1600/1624 17010G20KT 9999 BKN030 \n  TEMPO 1600/1602 21020G30KT 3500 SHRA BKN009 OVC013 \n  BECMG 1602/1604 18010KT BKN012 \n  BECMG 1604/1607 BKN008 OVC012 \n  TEMPO 1606/1609 4000 BR BKN004 OVC007 \n  BECMG 1612/1614 BKN013 OVC018 \n  BECMG 1616/1619 12005KT \n  BECMG 1619/1622 4000 -RA BR SCT020 BKN060 \n  PROB30 1622/1624 0800 FG"
    },
    {
      "icao": "LHBP",
      "iata": "BUD",
      "name": "Budapest Liszt Ferenc International Airport",
      "updatedAt": "152330Z",
      "visibility_m": 4600,
      "taf_visibility_m": 500,
      "worst_visibility_m": 500,
      "ceiling_ft": 700,
      "hazards": [
        "BR",
        "FZFG",
        "FZDZ",
        "DZ",
        "FG"
      ],
      "severityScore": 100,
      "metarRaw": "METAR LHBP 152330Z VRB02KT 4600 BR OVC007 M00/M02 Q1022 NOSIG",
      "tafRaw": "TAF LHBP 152315Z 1600/1624 08005KT 5000 BR SCT006 OVC014 \n  TEMPO 1600/1610 02003KT 0500 -FZDZ FZFG OVC001 \n  TEMPO 1610/1618 3500 BR BKN005 OVC013 \n  TEMPO 1618/1624 1400 -FZDZ DZ BR OVC003"
    },
    {
      "icao": "LHDC",
      "iata": "DEB",
      "name": "Debrecen International Airport",
      "updatedAt": "152315Z",
      "visibility_m": 3100,
      "taf_visibility_m": 500,
      "worst_visibility_m": 500,
      "ceiling_ft": 400,
      "hazards": [
        "BR",
        "DZ",
        "FZFG",
        "FZRA",
        "FG",
        "RA"
      ],
      "severityScore": 100,
      "metarRaw": "METAR LHDC 152315Z AUTO 06005KT 3100 -DZ BR OVC004 01/00 Q1023",
      "tafRaw": "TAF LHDC 151415Z 1515/1524 VRB03KT 5000 BR SCT004 OVC040 \n  TEMPO 1515/1524 1400 BCFG BR BKN004 OVC030 \n  PROB40 \n  TEMPO 1517/1524 0500 FZFG BKN002 OVC015 \n  TEMPO 1520/1524 -FZRADZ"
    },
    {
      "icao": "LIMC",
      "iata": "MXP",
      "name": "Milan Malpensa International Airport",
      "updatedAt": "152320Z",
      "visibility_m": 900,
      "taf_visibility_m": 800,
      "worst_visibility_m": 800,
      "ceiling_ft": 200,
      "hazards": [
        "FG",
        "BR",
        "RA"
      ],
      "severityScore": 100,
      "metarRaw": "METAR LIMC 152320Z VRB02KT 0900 R35R/1900D R17L/1700D R35L/P2000N FG OVC002 06/06 Q1022 NOSIG",
      "tafRaw": "TAF LIMC 152300Z 1600/1706 VRB05KT 2000 -RA BR BKN003 BKN040 \n  TEMPO 1600/1610 0800 FG SCT010 BKN040 \n  BECMG 1616/1618 1200 BCFG BKN003 BKN040"
    },
    {
      "icao": "LIPR",
      "iata": "RMI",
      "name": "Federico Fellini International Airport",
      "updatedAt": "152320Z",
      "visibility_m": 1600,
      "taf_visibility_m": 300,
      "worst_visibility_m": 300,
      "ceiling_ft": 100,
      "hazards": [
        "BR",
        "FG"
      ],
      "severityScore": 100,
      "metarRaw": "METAR LIPR 152320Z AUTO 31004KT 1600 BR OVC004/// 07/06 Q1022",
      "tafRaw": "TAF LIPR 152300Z 1600/1624 VRB04KT 2000 BR BKN020 \n  TEMPO 1600/1609 0300 FG BKN001"
    },
    {
      "icao": "LKMT",
      "iata": "OSR",
      "name": "Ostrava Leos Janáček Airport",
      "updatedAt": "152330Z",
      "visibility_m": 4500,
      "taf_visibility_m": 600,
      "worst_visibility_m": 600,
      "ceiling_ft": 200,
      "hazards": [
        "BR",
        "FZFG",
        "FG"
      ],
      "severityScore": 100,
      "metarRaw": "METAR LKMT 152330Z 22009KT 4500 BR FEW042 01/00 Q1020 NOSIG",
      "tafRaw": "TAF LKMT 152300Z 1600/1624 22008KT 4500 BR SCT008 BKN025 \n  PROB30 \n  TEMPO 1600/1612 1200 BR BKN005 OVC014 \n  TEMPO 1617/1624 VRB02KT 2500 BR BKN004 OVC012 \n  PROB40 \n  TEMPO 1621/1624 0600 FZFG VV002"
    },
    {
      "icao": "LKPR",
      "iata": "PRG",
      "name": "Václav Havel Airport Prague",
      "updatedAt": "152330Z",
      "visibility_m": 200,
      "taf_visibility_m": 200,
      "worst_visibility_m": 200,
      "ceiling_ft": 100,
      "hazards": [
        "FZFG",
        "FG",
        "BR"
      ],
      "severityScore": 100,
      "metarRaw": "METAR LKPR 152330Z VRB02KT 0200 R24/0450N R30/0450N FZFG VV001 M00/M00 Q1018 NOSIG",
      "tafRaw": "TAF LKPR 152300Z 1600/1706 VRB02KT 0200 FG VV001 \n  TEMPO 1600/1607 0500 FZFG OVC002 \n  BECMG 1608/1610 11005KT 2000 BR BKN003 \n  TEMPO 1610/1617 3500 BR BKN005 \n  BECMG 1617/1619 1000 BCFG OVC002 \n  TEMPO 1619/1706 0300 FZFG VV001"
    },
    {
      "icao": "LOWW",
      "iata": "VIE",
      "name": "Vienna International Airport",
      "updatedAt": "152320Z",
      "visibility_m": 550,
      "taf_visibility_m": 300,
      "worst_visibility_m": 300,
      "ceiling_ft": 100,
      "hazards": [
        "FZFG",
        "FZDZ",
        "FG",
        "DZ",
        "BR"
      ],
      "severityScore": 100,
      "metarRaw": "METAR LOWW 152320Z 14006KT 0550 R16/0700N R29/0700N FZFG BKN001 M01/M01 Q1021 TEMPO -FZDZ",
      "tafRaw": "TAF LOWW 152315Z 1600/1706 14006KT 0800 BCFG FEW001 BKN002 TX01/1702Z TNM01/1601Z \n  TEMPO 1600/1610 0500 FZFG VV001 \n  PROB40 \n  TEMPO 1600/1610 -FZDZ \n  PROB30 \n  TEMPO 1602/1609 0300 \n  FM161000 13010KT 3000 BR BKN002 \n  TEMPO 1610/1624 1200 -DZ BR"
    },
    {
      "icao": "LQSA",
      "iata": "SJJ",
      "name": "Sarajevo International Airport",
      "updatedAt": "152330Z",
      "visibility_m": 3500,
      "taf_visibility_m": 300,
      "worst_visibility_m": 300,
      "ceiling_ft": 5500,
      "hazards": [
        "BR",
        "FZFG",
        "FG"
      ],
      "severityScore": 100,
      "metarRaw": "METAR LQSA 152330Z VRB02KT 3500 BR BKN055 01/01 Q1023",
      "tafRaw": "TAF LQSA 152300Z 1600/1624 VRB02KT 2000 BR SCT050 TX05/1614Z TNM03/1605Z \n  TEMPO 1600/1609 0800 FZFG BKN008 \n  PROB40 1604/1608 0300 FZFG BKN002 \n  BECMG 1609/1611 8000 NSW"
    },
    {
      "icao": "LQTZ",
      "iata": "TZL",
      "name": "Tuzla International Airport",
      "updatedAt": "152330Z",
      "visibility_m": 3500,
      "taf_visibility_m": 500,
      "worst_visibility_m": 500,
      "ceiling_ft": 200,
      "hazards": [
        "BR",
        "FG"
      ],
      "severityScore": 100,
      "metarRaw": "METAR LQTZ 152330Z 25003KT 3500 BR NSC 02/02 Q1022",
      "tafRaw": "TAF LQTZ 152300Z 1600/1624 VRB02KT 6000 SCT050 TX09/1613Z TN00/1605Z \n  TEMPO 1600/1608 3000 BR \n  PROB30 1601/1607 0500 FG BKN002 \n  PROB40 \n  TEMPO 1620/1624 2000 BR BKN004"
    },
    {
      "icao": "LRCL",
      "iata": "CLJ",
      "name": "Cluj Avram Iancu International Airport",
      "updatedAt": "152330Z",
      "visibility_m": 4000,
      "taf_visibility_m": 800,
      "worst_visibility_m": 800,
      "ceiling_ft": 500,
      "hazards": [
        "BR",
        "FZFG",
        "SN",
        "FZDZ",
        "FG",
        "DZ"
      ],
      "severityScore": 100,
      "metarRaw": "METAR LRCL 152330Z 07002KT 4000 BR OVC005 01/M00 Q1023",
      "tafRaw": "TAF LRCL 152300Z 1600/1609 VRB04KT 3000 BR OVC005 \n  TEMPO 1601/1606 0800 -FZDZ FZFG OVC002 \n  BECMG 1606/1608 3000 -SN BR BKN010 OVC020"
    },
    {
      "icao": "LRSB",
      "iata": "SBZ",
      "name": "Sibiu International Airport",
      "updatedAt": "152330Z",
      "visibility_m": 350,
      "taf_visibility_m": 350,
      "worst_visibility_m": 350,
      "ceiling_ft": 200,
      "hazards": [
        "FG",
        "RA",
        "FZFG",
        "BR",
        "FZDZ",
        "DZ"
      ],
      "severityScore": 100,
      "metarRaw": "METAR LRSB 152330Z 02002KT 0350 R27/0600N -RA FG OVC002 01/01 Q1022",
      "tafRaw": "TAF LRSB 152300Z 1600/1624 VRB04KT 0350 -DZ FG BKN001 OVC002 \n  PROB40 \n  TEMPO 1601/1607 0600 -FZDZ FZFG OVC002 \n  BECMG 1607/1609 5000 -RA BR BKN010 OVC025 \n  TEMPO 1609/1614 3000 RA BR \n  BECMG 1614/1616 11010KT 9999 NSW BKN015 BKN025"
    },
    {
      "icao": "LRSV",
      "iata": "SCV",
      "name": "Suceava Stefan cel Mare Airport",
      "updatedAt": "152330Z",
      "visibility_m": 2000,
      "taf_visibility_m": 600,
      "worst_visibility_m": 600,
      "ceiling_ft": 200,
      "hazards": [
        "BR",
        "FZFG",
        "SN",
        "FG"
      ],
      "severityScore": 100,
      "metarRaw": "METAR LRSV 152330Z 07007KT 2000 BR OVC002 M09/M10 Q1025",
      "tafRaw": "TAF LRSV 152300Z 1600/1609 08007KT 1500 BR BKN002 \n  PROB30 \n  TEMPO 1600/1606 0600 -SN FZFG OVC001"
    },
    {
      "icao": "LZIB",
      "iata": "BTS",
      "name": "M. R. Štefánik Airport",
      "updatedAt": "152330Z",
      "visibility_m": 1300,
      "taf_visibility_m": 500,
      "worst_visibility_m": 500,
      "ceiling_ft": 100,
      "hazards": [
        "BR",
        "FZDZ",
        "DZ",
        "FZFG",
        "FG"
      ],
      "severityScore": 100,
      "metarRaw": "METAR LZIB 152330Z 05006KT 1300 R31/1800N R22/1800U -FZDZ BR OVC001 M00/M00 Q1022 NOSIG",
      "tafRaw": "TAF LZIB 152315Z 1600/1700 05006KT 3500 BR OVC006 \n  TEMPO 1600/1608 0500 -FZDZ FZFG OVC002 \n  TEMPO 1608/1616 6000 BKN014 \n  TEMPO 1618/1700 0600 -FZDZ FZFG OVC002"
    },
    {
      "icao": "LZKZ",
      "iata": "KSC",
      "name": "Košice International Airport",
      "updatedAt": "152330Z",
      "visibility_m": 5000,
      "taf_visibility_m": 500,
      "worst_visibility_m": 500,
      "ceiling_ft": 2100,
      "hazards": [
        "BR",
        "RA",
        "FZFG",
        "FZRA",
        "FZDZ",
        "FG",
        "DZ"
      ],
      "severityScore": 100,
      "metarRaw": "METAR LZKZ 152330Z 02003KT 5000 -RA BR OVC021 00/M01 Q1023 NOSIG",
      "tafRaw": "TAF LZKZ 152315Z 1600/1700 VRB02KT 6000 BKN020 \n  TEMPO 1600/1608 2000 -FZRA BR BKN006 \n  PROB40 \n  TEMPO 1600/1607 0500 FZDZ FZFG OVC002 \n  TEMPO 1617/1700 2000 BR BKN006"
    },
    {
      "icao": "LZTT",
      "iata": "TAT",
      "name": "Poprad-Tatry Airport",
      "updatedAt": "152330Z",
      "visibility_m": 5000,
      "taf_visibility_m": 500,
      "worst_visibility_m": 500,
      "ceiling_ft": 600,
      "hazards": [
        "BR",
        "FZFG",
        "FZDZ",
        "FG",
        "DZ"
      ],
      "severityScore": 100,
      "metarRaw": "METAR LZTT 152330Z 00000KT 5000 BR BKN006 00/M01 Q1020",
      "tafRaw": "TAF LZTT 152315Z 1600/1700 VRB02KT 6000 OVC014 \n  TEMPO 1600/1609 2000 BR OVC004 \n  PROB40 \n  TEMPO 1600/1608 0500 FZDZ FZFG OVC002 \n  TEMPO 1609/1616 8000 BKN017"
    },
    {
      "icao": "UAAA",
      "iata": "ALA",
      "name": "Almaty International Airport",
      "updatedAt": "152340Z",
      "visibility_m": 3300,
      "taf_visibility_m": 300,
      "worst_visibility_m": 300,
      "ceiling_ft": 500,
      "hazards": [
        "BR",
        "FZFG",
        "SN",
        "BLSN",
        "SHSN",
        "FG"
      ],
      "severityScore": 100,
      "metarRaw": "SPECI UAAA 152340Z VRB01MPS 3300 BR OVC005 M08/M09 Q1019 NOSIG RMK QBB160",
      "tafRaw": "TAF UAAA 152302Z 1600/1624 32003G08MPS 3100 BR FU FEW004 BKN015CB OVC030 TXM08/1608Z TNM10/1603Z \n  TEMPO 1600/1604 0300 -SN FZFG OVC002 \n  TEMPO 1604/1609 1500 -SHSN BR BKN003 BKN015CB \n  FM160900 27004G09MPS 3100 -SHSN BR BKN011CB OVC020 \n  TEMPO 1609/1612 33005G12MPS 1200 -SN BR OVC003 \n  TEMPO 1612/1624 33005G12MPS 0800 SHSN BLSN FZFG VV002"
    },
    {
      "icao": "EPRA",
      "iata": "RDO",
      "name": "Warsaw Radom Airport",
      "updatedAt": "152330Z",
      "visibility_m": 5000,
      "taf_visibility_m": 700,
      "worst_visibility_m": 700,
      "ceiling_ft": 2300,
      "hazards": [
        "BR",
        "RA",
        "FZFG",
        "FG"
      ],
      "severityScore": 97,
      "metarRaw": "METAR EPRA 152330Z 12006KT 5000 BR FEW003 OVC023 M01/M02 Q1023",
      "tafRaw": "TAF EPRA 152330Z 1600/1609 12006KT 7000 BKN022 \n  TEMPO 1600/1608 3000 BR BKN005 OVC012 \n  PROB30 \n  TEMPO 1602/1607 0700 FZFG OVC002"
    },
    {
      "icao": "EGGW",
      "iata": "LTN",
      "name": "London Luton Airport",
      "updatedAt": "152320Z",
      "visibility_m": 10000,
      "taf_visibility_m": 300,
      "worst_visibility_m": 300,
      "ceiling_ft": 2800,
      "hazards": [
        "FG",
        "SHRA",
        "RA"
      ],
      "severityScore": 91,
      "metarRaw": "METAR EGGW 152320Z AUTO 27010KT 9999 FEW016 BKN028 05/03 Q0999",
      "tafRaw": "TAF EGGW 152253Z 1600/1624 27010KT 9999 SCT025 \n  TEMPO 1600/1610 6000 SCT002 BKN005 \n  PROB30 \n  TEMPO 1600/1610 0300 FG BKN001 \n  BECMG 1604/1607 18008KT \n  PROB30 \n  TEMPO 1610/1612 6000 SHRA BKN005 \n  PROB30 \n  TEMPO 1612/1619 7000 SHRA \n  PROB30 1621/1624 BKN006"
    },
    {
      "icao": "LEMD",
      "iata": "MAD",
      "name": "Adolfo Suárez Madrid–Barajas Airport",
      "updatedAt": "152330Z",
      "visibility_m": 8000,
      "taf_visibility_m": 800,
      "worst_visibility_m": 800,
      "ceiling_ft": 1000,
      "hazards": [
        "FG",
        "BR",
        "RA",
        "DZ"
      ],
      "severityScore": 89,
      "metarRaw": "METAR LEMD 152330Z 16006KT 8000 FEW005 BKN010 OVC020 06/06 Q1016 NOSIG",
      "tafRaw": "TAF LEMD 152300Z 1600/1706 18007KT 9999 BKN020 TX11/1615Z TN05/1607Z \n  TEMPO 1600/1610 3000 BR BCFG DZRA BKN004 BKN010 \n  PROB30 \n  TEMPO 1603/1608 0800 FG VV002 \n  TEMPO 1604/1611 VRB04KT \n  PROB30 \n  TEMPO 1609/1614 DZRA BKN014 \n  TEMPO 1623/1706 BKN010"
    },
    {
      "icao": "LRBV",
      "iata": "GHV",
      "name": "Brașov-Ghimbav International Airport",
      "updatedAt": "152330Z",
      "visibility_m": 650,
      "taf_visibility_m": 3000,
      "worst_visibility_m": 650,
      "ceiling_ft": 100,
      "hazards": [
        "BR",
        "SN"
      ],
      "severityScore": 88,
      "metarRaw": "METAR LRBV 152330Z AUTO VRB02KT 0750 0650 R21/1100N UP VV001 01/00 Q1022",
      "tafRaw": "TAF LRBV 152000Z 1521/1606 VRB04KT 5000 BR BKN005 OVC010 \n  TEMPO 1521/1523 3000 BR \n  PROB40 \n  TEMPO 1523/1603 3000 -SN BR BKN010 OVC020"
    },
    {
      "icao": "LIPE",
      "iata": "BLQ",
      "name": "Bologna Guglielmo Marconi Airport",
      "updatedAt": "152320Z",
      "visibility_m": 1800,
      "taf_visibility_m": 300,
      "worst_visibility_m": 300,
      "ceiling_ft": 1500,
      "hazards": [
        "BR",
        "FG"
      ],
      "severityScore": 87,
      "metarRaw": "METAR LIPE 152320Z VRB01KT 1800 BR BKN015 06/06 Q1022",
      "tafRaw": "TAF LIPE 152300Z 1600/1624 VRB04KT 2000 BR BKN020 \n  TEMPO 1600/1609 0300 FG BKN001"
    },
    {
      "icao": "EPKK",
      "iata": "KRK",
      "name": "Kraków John Paul II International Airport",
      "updatedAt": "152330Z",
      "visibility_m": 6000,
      "taf_visibility_m": 100,
      "worst_visibility_m": 100,
      "ceiling_ft": 2200,
      "hazards": [
        "FG",
        "BR"
      ],
      "severityScore": 85,
      "metarRaw": "METAR EPKK 152330Z 05006KT 6000 OVC022 01/M01 Q1021",
      "tafRaw": "TAF EPKK 152330Z 1600/1624 06006KT 6000 SCT010 OVC022 \n  BECMG 1600/1603 2000 BR BKN007 \n  TEMPO 1600/1609 0600 FG BKN001 \n  PROB30 \n  TEMPO 1600/1609 0100 FG \n  BECMG 1609/1612 4000 BR BKN012 \n  BECMG 1616/1619 2000 BR BKN004 \n  TEMPO 1616/1624 0600 FG OVC001"
    },
    {
      "icao": "EPKT",
      "iata": "KTW",
      "name": "Katowice Wojciech Korfanty International Airport",
      "updatedAt": "152330Z",
      "visibility_m": 4700,
      "taf_visibility_m": 100,
      "worst_visibility_m": 100,
      "ceiling_ft": 4400,
      "hazards": [
        "BR",
        "FG"
      ],
      "severityScore": 85,
      "metarRaw": "METAR EPKT 152330Z 11004KT 4700 BR FEW032 BKN044 02/01 Q1020",
      "tafRaw": "TAF EPKT 152330Z 1600/1624 14004KT 5000 BR FEW035 BKN040 \n  BECMG 1600/1603 2000 BR BKN012 \n  TEMPO 1600/1608 0700 FG OVC001 \n  PROB40 \n  TEMPO 1600/1608 0100 FG \n  BECMG 1608/1611 4000 BR \n  BECMG 1616/1619 2000 BR BKN002 \n  TEMPO 1618/1624 0600 FG OVC001"
    },
    {
      "icao": "EETN",
      "iata": "TLL",
      "name": "Lennart Meri Tallinn Airport",
      "updatedAt": "152350Z",
      "visibility_m": 4400,
      "taf_visibility_m": 2000,
      "worst_visibility_m": 2000,
      "ceiling_ft": 800,
      "hazards": [
        "SN",
        "FZDZ",
        "DZ"
      ],
      "severityScore": 81,
      "metarRaw": "METAR EETN 152350Z 17010KT 4400 SN OVC008 M07/M08 Q1025",
      "tafRaw": "TAF EETN 152330Z 1600/1624 17012KT 9999 SCT008 OVC025 \n  TEMPO 1600/1602 2000 SN DRSN BKN005 OVC025 \n  PROB30 \n  TEMPO 1600/1602 -FZDZ \n  TEMPO 1602/1618 BKN006 BKN012"
    },
    {
      "icao": "LIME",
      "iata": "BGY",
      "name": "Milan Bergamo Airport / Antonio Locatelli Air Base",
      "updatedAt": "152320Z",
      "visibility_m": 5000,
      "taf_visibility_m": 800,
      "worst_visibility_m": 800,
      "ceiling_ft": 500,
      "hazards": [
        "BR",
        "FG"
      ],
      "severityScore": 80,
      "metarRaw": "METAR LIME 152320Z 01003KT 340V050 5000 BR FEW015 SCT055 05/05 Q1022 NOSIG",
      "tafRaw": "TAF LIME 152300Z 1600/1624 VRB03KT 2000 BR BKN020 \n  TEMPO 1600/1608 0800 FG BKN005 \n  BECMG 1616/1618 1200 BCFG BKN005"
    },
    {
      "icao": "EKBI",
      "iata": "BLL",
      "name": "Billund Airport",
      "updatedAt": "152320Z",
      "visibility_m": 2000,
      "taf_visibility_m": 1500,
      "worst_visibility_m": 1500,
      "ceiling_ft": 200,
      "hazards": [
        "BR",
        "RA",
        "DZ"
      ],
      "severityScore": 77,
      "metarRaw": "METAR EKBI 152320Z AUTO 14008KT 110V170 2000 BR OVC002/// 06/06 Q1007",
      "tafRaw": "TAF EKBI 152327Z 1600/1624 15008KT 6000 BKN016 \n  TEMPO 1600/1609 1500 -RADZ BR BKN002 \n  TEMPO 1609/1615 20015G25KT BKN008 \n  BECMG 1617/1620 3000 BR"
    },
    {
      "icao": "ENTO",
      "iata": "TRF",
      "name": "Sandefjord Airport, Torp",
      "updatedAt": "152320Z",
      "visibility_m": 1200,
      "taf_visibility_m": 2000,
      "worst_visibility_m": 1200,
      "ceiling_ft": 300,
      "hazards": [
        "DZ",
        "BR",
        "RA"
      ],
      "severityScore": 77,
      "metarRaw": "METAR ENTO 152320Z AUTO 01004KT 1200 R18/P2000N R36/P2000N DZ VV003 00/00 Q1009 REUP",
      "tafRaw": "TAF ENTO 152300Z 1600/1624 36004KT 3000 BR OVC002 \n  BECMG 1602/1604 16010KT 5000 NSW BKN010 \n  TEMPO 1604/1620 2000 RA BR OVC004 \n  BECMG 1607/1609 17020G32KT \n  BECMG 1620/1622 24008KT"
    },
    {
      "icao": "LPPR",
      "iata": "OPO",
      "name": "Francisco de Sá Carneiro Airport",
      "updatedAt": "152330Z",
      "visibility_m": 7000,
      "taf_visibility_m": 2000,
      "worst_visibility_m": 2000,
      "ceiling_ft": 800,
      "hazards": [
        "SHRA",
        "TS",
        "RA"
      ],
      "severityScore": 76,
      "metarRaw": "METAR LPPR 152330Z 14005KT 7000 FEW016 FEW018TCU SCT028 10/09 Q1015",
      "tafRaw": "TAF LPPR 152300Z 1600/1624 VRB02KT 9999 SCT013 BKN030 \n  TEMPO 1600/1624 5000 SHRA BKN010 FEW018CB \n  PROB40 \n  TEMPO 1602/1620 VRB15G25KT 2000 +TSRAGS BKN008 SCT015CB \n  BECMG 1603/1605 21010KT \n  BECMG 1610/1612 30007KT \n  BECMG 1620/1622 VRB02KT"
    },
    {
      "icao": "EKCH",
      "iata": "CPH",
      "name": "Copenhagen Kastrup Airport",
      "updatedAt": "152319Z",
      "visibility_m": 2000,
      "taf_visibility_m": 1500,
      "worst_visibility_m": 1500,
      "ceiling_ft": 300,
      "hazards": [
        "BR",
        "FG"
      ],
      "severityScore": 75,
      "metarRaw": "METAR EKCH 152319Z 13013KT 4000 BR OVC003 03/03 Q1013 TEMPO 2000",
      "tafRaw": "TAF EKCH 152327Z 1600/1624 15015KT 5000 OVC004 \n  TEMPO 1600/1601 2000 BR OVC005 \n  FM160100 16020KT 8000 SCT005 \n  TEMPO 1601/1607 1500 BCFG BKN004 \n  BECMG 1614/1617 BKN012 \n  BECMG 1617/1620 BKN025"
    },
    {
      "icao": "LIBR",
      "iata": "BDS",
      "name": "Brindisi Airport",
      "updatedAt": "152320Z",
      "visibility_m": 8000,
      "taf_visibility_m": 1500,
      "worst_visibility_m": 1500,
      "ceiling_ft": 100,
      "hazards": [
        "BR",
        "FG"
      ],
      "severityScore": 75,
      "metarRaw": "METAR LIBR 152320Z VRB01KT 8000 SCT040 09/08 Q1022",
      "tafRaw": "TAF LIBR 152300Z 1600/1624 VRB05KT 9999 FEW025 \n  TEMPO 1600/1607 1500 BCFG BKN001"
    },
    {
      "icao": "LIPQ",
      "iata": "TRS",
      "name": "Trieste–Friuli Venezia Giulia Airport",
      "updatedAt": "152320Z",
      "visibility_m": 1600,
      "taf_visibility_m": 1200,
      "worst_visibility_m": 1200,
      "ceiling_ft": 100,
      "hazards": [
        "BR",
        "FG"
      ],
      "severityScore": 75,
      "metarRaw": "METAR LIPQ 152320Z AUTO 33002KT 1600 BR OVC018/// 08/07 Q1022",
      "tafRaw": "TAF LIPQ 152300Z 1600/1624 VRB04KT 3000 BR BKN020 \n  TEMPO 1600/1606 1200 BCFG BKN001 \n  BECMG 1608/1610 8000 \n  BECMG 1616/1618 3000 BR"
    },
    {
      "icao": "LICC",
      "iata": "CTA",
      "name": "Catania-Fontanarossa Airport",
      "updatedAt": "152320Z",
      "visibility_m": 7000,
      "taf_visibility_m": 3000,
      "worst_visibility_m": 3000,
      "ceiling_ft": null,
      "hazards": [
        "BR",
        "TSRA",
        "TS",
        "RA"
      ],
      "severityScore": 72,
      "metarRaw": "METAR LICC 152320Z 26003KT 7000 NSC 09/05 Q1021",
      "tafRaw": "TAF LICC 152300Z 1600/1624 VRB05KT 9999 FEW015 \n  TEMPO 1600/1606 3000 BR \n  BECMG 1610/1612 08010KT \n  TEMPO 1621/1624 4000 TSRA"
    },
    {
      "icao": "LPFR",
      "iata": "FAO",
      "name": "Faro Airport",
      "updatedAt": "152330Z",
      "visibility_m": 3000,
      "taf_visibility_m": 3000,
      "worst_visibility_m": 3000,
      "ceiling_ft": 2000,
      "hazards": [
        "BR",
        "RA",
        "DZ",
        "SHRA",
        "TS"
      ],
      "severityScore": 71,
      "metarRaw": "METAR LPFR 152330Z 22018KT 3000 -RADZ BR SCT005 FEW012TCU BKN020 15/14 Q1016",
      "tafRaw": "TAF LPFR 152300Z 1600/1624 22015KT 4000 RADZ BR SCT004 BKN008 FEW012TCU \n  BECMG 1600/1602 33008KT FEW005 SCT015 \n  PROB30 \n  TEMPO 1602/1606 4000 BR SCT003 \n  BECMG 1610/1612 26010KT SCT025 \n  TEMPO 1610/1624 8000 SHRA BKN015 FEW020CB \n  PROB30 \n  TEMPO 1610/1618 VRB10G20KT 3000 TSRAGS SCT018CB \n  BECMG 1618/1620 31005KT"
    },
    {
      "icao": "ESGG",
      "iata": "GOT",
      "name": "Göteborg Landvetter Airport",
      "updatedAt": "152250Z",
      "visibility_m": 5000,
      "taf_visibility_m": 1200,
      "worst_visibility_m": 1200,
      "ceiling_ft": 200,
      "hazards": [
        "BR",
        "RA"
      ],
      "severityScore": 67,
      "metarRaw": "METAR ESGG 152250Z 15008KT 5000 BR OVC002 03/02 Q1010",
      "tafRaw": "TAF ESGG 152330Z 1600/1624 16009KT 5000 OVC002 \n  TEMPO 1600/1606 1200 RA BR OVC001 \n  PROB40 1607/1614 SCT005 BKN015"
    },
    {
      "icao": "EGPF",
      "iata": "GLA",
      "name": "Glasgow Airport",
      "updatedAt": "152320Z",
      "visibility_m": 10000,
      "taf_visibility_m": 1200,
      "worst_visibility_m": 1200,
      "ceiling_ft": 3000,
      "hazards": [
        "BR",
        "SHRA",
        "FG",
        "RA"
      ],
      "severityScore": 66,
      "metarRaw": "METAR EGPF 152320Z AUTO 06005KT 9999 BKN030 01/01 Q0998",
      "tafRaw": "TAF EGPF 152255Z 1600/1624 VRB03KT 9999 FEW045 \n  TEMPO 1600/1607 4000 BR BKN004 \n  PROB30 \n  TEMPO 1602/1607 1200 MIFG BKN001 \n  TEMPO 1607/1610 6000 SHRA BKN012 \n  PROB30 \n  TEMPO 1613/1624 6000 SHRA BKN014"
    },
    {
      "icao": "LBWN",
      "iata": "VAR",
      "name": "Varna Airport",
      "updatedAt": "152330Z",
      "visibility_m": 10000,
      "taf_visibility_m": 1200,
      "worst_visibility_m": 1200,
      "ceiling_ft": 500,
      "hazards": [
        "RA",
        "SN"
      ],
      "severityScore": 65,
      "metarRaw": "METAR LBWN 152330Z AUTO 06001KT 9999 -RA FEW013/// OVC026/// 04/01 Q1024 NOSIG",
      "tafRaw": "TAF LBWN 152300Z 1600/1624 VRB03KT 7000 SCT015 OVC030 \n  BECMG 1601/1603 04010KT \n  BECMG 1603/1605 5000 RASN \n  BECMG 1605/1607 3000 SN BKN005 OVC020 \n  PROB40 \n  TEMPO 1607/1614 1200 SN \n  BECMG 1614/1616 9999 NSW BKN045"
    },
    {
      "icao": "LPPT",
      "iata": "LIS",
      "name": "Lisbon Humberto Delgado Airport",
      "updatedAt": "152330Z",
      "visibility_m": 10000,
      "taf_visibility_m": 3000,
      "worst_visibility_m": 3000,
      "ceiling_ft": 1200,
      "hazards": [
        "SHRA",
        "TS",
        "RA"
      ],
      "severityScore": 63,
      "metarRaw": "METAR LPPT 152330Z 31003KT 9999 FEW018 11/10 Q1017",
      "tafRaw": "TAF LPPT 152300Z 1600/1706 29007KT 9999 FEW015 SCT035 \n  TEMPO 1600/1706 7000 SHRA BKN012 FEW020CB \n  PROB30 \n  TEMPO 1608/1619 VRB10G20KT 3000 TSRAGS SCT018CB \n  BECMG 1613/1615 32010KT \n  BECMG 1619/1621 30007KT"
    },
    {
      "icao": "UGKO",
      "iata": "KUT",
      "name": "David the Builder Kutaisi International Airport",
      "updatedAt": "152330Z",
      "visibility_m": 10000,
      "taf_visibility_m": 2000,
      "worst_visibility_m": 2000,
      "ceiling_ft": 1200,
      "hazards": [
        "BR",
        "SHSN",
        "SN",
        "RA"
      ],
      "severityScore": 62,
      "metarRaw": "METAR UGKO 152330Z AUTO 09008KT 9999 SCT063/// 01/M04 Q1021 NOSIG",
      "tafRaw": "TAF UGKO 152300Z 1600/1624 08007KT 9999 BKN050 TX02/1612Z TNM01/1601Z \n  TEMPO 1600/1603 CAVOK \n  TEMPO 1603/1609 2000 SHSN SCT007 BKN015CB OVC030 \n  TEMPO 1609/1620 3000 SHSNRA SCT010 BKN020 OVC040 \n  TEMPO 1620/1624 5000 SNRA BR BKN012 OVC020"
    },
    {
      "icao": "LFPO",
      "iata": "ORY",
      "name": "Paris-Orly Airport",
      "updatedAt": "152330Z",
      "visibility_m": 10000,
      "taf_visibility_m": 4000,
      "worst_visibility_m": 4000,
      "ceiling_ft": 1500,
      "hazards": [
        "BR",
        "RA",
        "SHRA",
        "DZ"
      ],
      "severityScore": 58,
      "metarRaw": "METAR LFPO 152330Z 21014KT 180V240 9999 BKN015 BKN023 10/08 Q1007 NOSIG",
      "tafRaw": "TAF LFPO 152300Z 1600/1706 21010KT 9999 SCT012 BKN020 \n  PROB40 \n  TEMPO 1600/1602 22010G20KT 4000 -RA BKN012 \n  PROB30 \n  TEMPO 1602/1605 BKN010 \n  TEMPO 1605/1612 BKN012 \n  PROB40 \n  TEMPO 1605/1610 BKN007 \n  PROB30 \n  TEMPO 1612/1615 -SHRA \n  BECMG 1616/1618 15005KT CAVOK \n  PROB40 \n  TEMPO 1621/1702 -RA \n  PROB30 1622/1701 4000 -RADZ BKN012 \n  BECMG 1702/1705 BKN006 \n  PROB40 \n  TEMPO 1705/1706 4000 BR BKN004"
    },
    {
      "icao": "LPMA",
      "iata": "FNC",
      "name": "Madeira International Airport Cristiano Ronaldo",
      "updatedAt": "152330Z",
      "visibility_m": 10000,
      "taf_visibility_m": 5000,
      "worst_visibility_m": 5000,
      "ceiling_ft": 1300,
      "hazards": [
        "BR",
        "SHRA",
        "RA",
        "DZ"
      ],
      "severityScore": 58,
      "metarRaw": "METAR LPMA 152330Z VRB01KT 9999 FEW015 15/11 Q1024",
      "tafRaw": "TAF LPMA 152300Z 1600/1624 VRB05KT 9999 SCT015 BKN030 \n  TEMPO 1600/1603 5000 RADZ BR SCT008 BKN013 \n  BECMG 1601/1603 35013KT \n  PROB30 \n  TEMPO 1603/1624 35020G32KT 8000 SHRA BKN013 FEW018CB"
    },
    {
      "icao": "LPPS",
      "iata": "PXO",
      "name": "Porto Santo Airport",
      "updatedAt": "152330Z",
      "visibility_m": 6000,
      "taf_visibility_m": 4000,
      "worst_visibility_m": 4000,
      "ceiling_ft": 1000,
      "hazards": [
        "RA",
        "DZ",
        "BR",
        "SHRA"
      ],
      "severityScore": 58,
      "metarRaw": "METAR LPPS 152330Z 35015KT 6000 RADZ SCT010 SCT030 15/15 Q1024",
      "tafRaw": "TAF LPPS 152300Z 1600/1706 27013KT 4000 RADZ BR SCT005 BKN010 \n  BECMG 1600/1602 34018KT SCT015 SCT030 \n  PROB30 \n  TEMPO 1602/1706 8000 SHRA BKN012 FEW018CB \n  BECMG 1700/1702 31023KT \n  PROB40 \n  TEMPO 1702/1706 31025G35KT"
    },
    {
      "icao": "EBCI",
      "iata": "CRL",
      "name": "Brussels South Charleroi Airport",
      "updatedAt": "152320Z",
      "visibility_m": 10000,
      "taf_visibility_m": 4000,
      "worst_visibility_m": 4000,
      "ceiling_ft": 800,
      "hazards": [
        "RA",
        "BR",
        "DZ"
      ],
      "severityScore": 57,
      "metarRaw": "METAR EBCI 152320Z 19018G28KT 9999 -RA SCT036 10/06 Q1005 TEMPO 19017G30KT",
      "tafRaw": "TAF EBCI 152315Z 1600/1706 17014KT 9999 SCT015 SCT035 \n  TEMPO 1600/1607 SCT009 BKN012 \n  PROB40 \n  TEMPO 1600/1603 19017G30KT 4000 -RA -RADZ BKN008 BKN012 \n  BECMG 1603/1605 23011KT \n  BECMG 1614/1616 17006KT \n  PROB40 \n  TEMPO 1702/1706 4500 -DZ BR SCT008 BKN012"
    },
    {
      "icao": "ENZV",
      "iata": "SVG",
      "name": "Stavanger Airport, Sola",
      "updatedAt": "152320Z",
      "visibility_m": 10000,
      "taf_visibility_m": 4000,
      "worst_visibility_m": 4000,
      "ceiling_ft": 400,
      "hazards": [
        "BR",
        "RA"
      ],
      "severityScore": 57,
      "metarRaw": "METAR ENZV 152320Z 14011KT 9999 FEW018 SCT043 06/03 Q1003",
      "tafRaw": "TAF ENZV 152300Z 1600/1624 12012KT 9999 -RA FEW020 BKN030 \n  TEMPO 1602/1614 RA \n  BECMG 1611/1613 21015KT SCT004 BKN010 \n  TEMPO 1611/1616 4000 BR BKN004 \n  BECMG 1614/1616 27015KT \n  BECMG 1616/1618 VRB05KT SCT012 BKN018"
    },
    {
      "icao": "LQBK",
      "iata": "BNX",
      "name": "Banja Luka International Airport",
      "updatedAt": "152330Z",
      "visibility_m": 10000,
      "taf_visibility_m": 3000,
      "worst_visibility_m": 3000,
      "ceiling_ft": 400,
      "hazards": [
        "BR",
        "RA"
      ],
      "severityScore": 57,
      "metarRaw": "METAR LQBK 152330Z VRB03KT CAVOK 03/02 Q1021 NOSIG",
      "tafRaw": "TAF LQBK 152300Z 1600/1624 15005KT 9999 SCT047 TX09/1613Z TN02/1605Z \n  PROB30 \n  TEMPO 1600/1606 4000 -RA BR \n  TEMPO 1622/1624 3000 BR BKN004"
    },
    {
      "icao": "LRSM",
      "iata": "SUJ",
      "name": "Satu Mare International Airport",
      "updatedAt": "152330Z",
      "visibility_m": 6000,
      "taf_visibility_m": 1500,
      "worst_visibility_m": 1500,
      "ceiling_ft": 200,
      "hazards": [
        "BR"
      ],
      "severityScore": 55,
      "metarRaw": "METAR LRSM 152330Z AUTO 10004KT 6000 FEW012/// BKN015/// OVC043/// 01/M01 Q1023",
      "tafRaw": "TAF LRSM 151400Z 1515/1524 VRB04KT 5000 BR BKN005 \n  BECMG 1516/1518 1500 BR OVC002"
    },
    {
      "icao": "OJAI",
      "iata": "AMM",
      "name": "Queen Alia International Airport",
      "updatedAt": "152300Z",
      "visibility_m": 1500,
      "taf_visibility_m": 800,
      "worst_visibility_m": 800,
      "ceiling_ft": null,
      "hazards": [
        "BR",
        "FG"
      ],
      "severityScore": 55,
      "metarRaw": "METAR OJAI 152300Z 33003KT 1500 BR NSC 03/02 Q1025 NOSIG",
      "tafRaw": "TAF OJAI 152200Z 1600/1706 VRB02KT 5000 HZ NSC \n  PROB30 1600/1607 1500 BR \n  PROB40 1602/1607 0800 FG \n  BECMG 1607/1609 15008KT FEW030"
    },
    {
      "icao": "LTFM",
      "iata": "IST",
      "name": "İstanbul Airport",
      "updatedAt": "152320Z",
      "visibility_m": 10000,
      "taf_visibility_m": 2500,
      "worst_visibility_m": 2500,
      "ceiling_ft": 7000,
      "hazards": [
        "BR",
        "RA",
        "SHRA",
        "SN"
      ],
      "severityScore": 54,
      "metarRaw": "METAR LTFM 152320Z 24006KT 100V260 9999 SCT025 BKN070 09/08 Q1023 NOSIG RMK RWY17L 26006KT 210V270 RWY34L 25006KT RWY16R 25005KT RWY36 24007KT RWY18 25008KT 210V280",
      "tafRaw": "TAF LTFM 152240Z 1600/1706 VRB02KT 9999 SCT025 BKN070 \n  PROB30 \n  TEMPO 1603/1606 2500 -RA BR BKN009 \n  BECMG 1606/1610 04017G27KT -SHRA SCT008 BKN022 \n  TEMPO 1618/1622 -SHRASN \n  TEMPO 1623/1703 -SHSNRA"
    },
    {
      "icao": "LRBC",
      "iata": "BCM",
      "name": "Bacău George Enescu International  Airport",
      "updatedAt": "152330Z",
      "visibility_m": 5000,
      "taf_visibility_m": 3000,
      "worst_visibility_m": 3000,
      "ceiling_ft": 900,
      "hazards": [
        "BR",
        "SN"
      ],
      "severityScore": 53,
      "metarRaw": "METAR LRBC 152330Z 35008KT 5000 BR OVC009 M04/M06 Q1027",
      "tafRaw": "TAF LRBC 152300Z 1600/1609 02007KT 5000 BR OVC010 \n  TEMPO 1600/1603 3000 -SN BR BKN005 OVC020 \n  TEMPO 1603/1608 3000 -SN BR"
    },
    {
      "icao": "LIPX",
      "iata": "VRN",
      "name": "Verona Villafranca Valerio Catullo Airport",
      "updatedAt": "152320Z",
      "visibility_m": 6000,
      "taf_visibility_m": 1200,
      "worst_visibility_m": 1200,
      "ceiling_ft": 6500,
      "hazards": [
        "RA",
        "BR",
        "FG"
      ],
      "severityScore": 52,
      "metarRaw": "METAR LIPX 152320Z 28001KT 6000 -RA FEW040 BKN065 05/04 Q1022",
      "tafRaw": "TAF LIPX 152300Z 1600/1624 VRB04KT 4000 BR SCT020 BKN060 \n  TEMPO 1600/1608 1500 BCFG BKN010 BKN060 \n  TEMPO 1620/1624 1200 BCFG BKN010 BKN060"
    },
    {
      "icao": "LIPY",
      "iata": "AOI",
      "name": "Marche Airport",
      "updatedAt": "152320Z",
      "visibility_m": 1000,
      "taf_visibility_m": 2000,
      "worst_visibility_m": 1000,
      "ceiling_ft": 1000,
      "hazards": [
        "FG",
        "BR"
      ],
      "severityScore": 52,
      "metarRaw": "METAR LIPY 152320Z AUTO VRB02KT 1000 R22/1800U BCFG OVC004/// 08/08 Q1022",
      "tafRaw": "TAF LIPY 152300Z 1600/1624 VRB05KT 6000 SCT060 \n  TEMPO 1600/1607 2000 BR BKN010"
    },
    {
      "icao": "ENHD",
      "iata": "HAU",
      "name": "Haugesund Airport, Karmøy",
      "updatedAt": "152320Z",
      "visibility_m": 10000,
      "taf_visibility_m": 4000,
      "worst_visibility_m": 4000,
      "ceiling_ft": 800,
      "hazards": [
        "RA",
        "SHRA"
      ],
      "severityScore": 51,
      "metarRaw": "METAR ENHD 152320Z AUTO 13013KT 9999 FEW026/// OVC046/// 06/04 Q1003",
      "tafRaw": "TAF ENHD 151400Z 1515/1523 13018KT 9999 -RA FEW015 BKN030 \n  TEMPO 1515/1518 14022G35KT \n  TEMPO 1515/1520 4000 SHRA BKN008 SCT018CB"
    },
    {
      "icao": "LRTM",
      "iata": "TGM",
      "name": "Târgu Mureş Transilvania International Airport",
      "updatedAt": "152330Z",
      "visibility_m": 5000,
      "taf_visibility_m": 1500,
      "worst_visibility_m": 1500,
      "ceiling_ft": 1000,
      "hazards": [
        "BR",
        "SN"
      ],
      "severityScore": 50,
      "metarRaw": "METAR LRTM 152330Z AUTO 07003KT 5000 BR FEW007/// BKN010/// OVC031/// 01/M01 Q1024",
      "tafRaw": "TAF LRTM 151400Z 1515/1524 VRB04KT 3000 BR SCT010 BKN030 \n  TEMPO 1522/1524 1500 -SN BR BKN010 OVC025"
    },
    {
      "icao": "EGKK",
      "iata": "LGW",
      "name": "London Gatwick Airport",
      "updatedAt": "152320Z",
      "visibility_m": 10000,
      "taf_visibility_m": 5000,
      "worst_visibility_m": 5000,
      "ceiling_ft": 1000,
      "hazards": [
        "BR",
        "RA",
        "SHRA"
      ],
      "severityScore": 48,
      "metarRaw": "METAR EGKK 152320Z 24007KT 9999 BKN010 06/06 Q1000",
      "tafRaw": "TAF EGKK 152258Z 1600/1706 25010KT 9999 BKN016 \n  BECMG 1600/1603 19006KT \n  PROB40 \n  TEMPO 1600/1606 5000 BR BKN004 \n  PROB40 \n  TEMPO 1606/1615 6000 SHRA BKN008 \n  BECMG 1615/1618 13010KT \n  PROB30 \n  TEMPO 1615/1624 7000 SHRA BKN013 \n  TEMPO 1700/1706 7000 RA -SHRA BKN006"
    },
    {
      "icao": "LEBL",
      "iata": "BCN",
      "name": "Josep Tarradellas Barcelona-El Prat Airport",
      "updatedAt": "152330Z",
      "visibility_m": 8000,
      "taf_visibility_m": 3000,
      "worst_visibility_m": 3000,
      "ceiling_ft": 1000,
      "hazards": [
        "BR",
        "SHRA",
        "RA"
      ],
      "severityScore": 48,
      "metarRaw": "METAR LEBL 152330Z 32007KT 8000 FEW010 SCT017 08/06 Q1015 NOSIG",
      "tafRaw": "TAF LEBL 152300Z 1600/1624 34007KT 9999 SCT015 TX14/1612Z TN06/1606Z \n  PROB30 \n  TEMPO 1600/1607 3000 BR BKN010 \n  BECMG 1611/1613 14006KT \n  BECMG 1618/1620 34007KT \n  PROB40 \n  TEMPO 1620/1624 4000 SHRA FEW020TCU"
    },
    {
      "icao": "EDFH",
      "iata": "HHN",
      "name": "Frankfurt-Hahn Airport",
      "updatedAt": "152320Z",
      "visibility_m": 10000,
      "taf_visibility_m": 3000,
      "worst_visibility_m": 3000,
      "ceiling_ft": 600,
      "hazards": [
        "FG"
      ],
      "severityScore": 45,
      "metarRaw": "METAR EDFH 152320Z 17016KT CAVOK 08/05 Q1009",
      "tafRaw": "TAF EDFH 152300Z 1600/1624 17010KT CAVOK \n  PROB30 \n  TEMPO 1600/1604 17015G25KT \n  TEMPO 1604/1611 BKN010 \n  PROB30 \n  TEMPO 1605/1608 BKN006 \n  TEMPO 1618/1624 3000 BCFG"
    },
    {
      "icao": "EPMO",
      "iata": "WMI",
      "name": "Modlin Airport",
      "updatedAt": "152330Z",
      "visibility_m": 2500,
      "taf_visibility_m": 1500,
      "worst_visibility_m": 1500,
      "ceiling_ft": 500,
      "hazards": [
        "BR"
      ],
      "severityScore": 45,
      "metarRaw": "METAR EPMO 152330Z 09006KT 2500 BR BKN005 M03/M03 Q1023",
      "tafRaw": "TAF EPMO 152330Z 1600/1624 10007KT 3000 BR OVC005 \n  TEMPO 1600/1606 1500 BR BKN004 \n  PROB40 1600/1606 6000 \n  BECMG 1606/1608 9999 \n  BECMG 1611/1614 BKN012 \n  BECMG 1614/1616 BKN015"
    },
    {
      "icao": "LRIA",
      "iata": "IAS",
      "name": "Iaşi Airport",
      "updatedAt": "152330Z",
      "visibility_m": 10000,
      "taf_visibility_m": 3000,
      "worst_visibility_m": 3000,
      "ceiling_ft": 1300,
      "hazards": [
        "SN",
        "BR"
      ],
      "severityScore": 40,
      "metarRaw": "METAR LRIA 152330Z 02005KT 360V060 9999 -SN OVC013 M07/M09 Q1028",
      "tafRaw": "TAF LRIA 152300Z 1600/1609 02006KT 5000 BR SCT010 OVC040 \n  TEMPO 1600/1602 3000 -SN BR BKN010 OVC035 \n  BECMG 1602/1604 8000 NSW"
    },
    {
      "icao": "LRBS",
      "iata": "BBU",
      "name": "Bucharest Băneasa Aurel Vlaicu International Airport",
      "updatedAt": "152330Z",
      "visibility_m": 4000,
      "taf_visibility_m": 3000,
      "worst_visibility_m": 3000,
      "ceiling_ft": 1000,
      "hazards": [
        "BR",
        "SN"
      ],
      "severityScore": 40,
      "metarRaw": "METAR LRBS 152330Z 07006KT 4000 BR SCT006 M01/M02 Q1025 NOSIG",
      "tafRaw": "TAF LRBS 152300Z 1600/1624 06007KT 5000 BR BKN040 \n  TEMPO 1600/1605 3000 BR \n  TEMPO 1605/1610 06017KT 3000 -SN BKN010 OVC035 \n  BECMG 1610/1612 9999 NSW SCT025"
    },
    {
      "icao": "LRCV",
      "iata": "CRA",
      "name": "Craiova International Airport",
      "updatedAt": "152330Z",
      "visibility_m": 3500,
      "taf_visibility_m": 3000,
      "worst_visibility_m": 3000,
      "ceiling_ft": 1000,
      "hazards": [
        "BR",
        "SN"
      ],
      "severityScore": 40,
      "metarRaw": "METAR LRCV 152330Z 09006KT 3500 BR NSC M01/M02 Q1024",
      "tafRaw": "TAF LRCV 152300Z 1600/1609 09010KT 5000 BR NSC \n  TEMPO 1600/1606 3000 BR \n  BECMG 1606/1608 3000 -SN BR BKN010 OVC025"
    },
    {
      "icao": "LROP",
      "iata": "OTP",
      "name": "Bucharest Henri Coandă International Airport",
      "updatedAt": "152330Z",
      "visibility_m": 5000,
      "taf_visibility_m": 3000,
      "worst_visibility_m": 3000,
      "ceiling_ft": 1000,
      "hazards": [
        "BR",
        "SN"
      ],
      "severityScore": 40,
      "metarRaw": "METAR LROP 152330Z 06008KT 5000 BR NSC M00/M02 Q1025 NOSIG",
      "tafRaw": "TAF LROP 152300Z 1600/1624 06007KT 5000 BR BKN040 \n  TEMPO 1600/1605 3000 BR \n  TEMPO 1605/1610 06017KT 3000 -SN BKN010 OVC035 \n  BECMG 1610/1612 9999 NSW SCT025"
    },
    {
      "icao": "LTAC",
      "iata": "ESB",
      "name": "Esenboğa International Airport",
      "updatedAt": "152320Z",
      "visibility_m": 10000,
      "taf_visibility_m": 2000,
      "worst_visibility_m": 2000,
      "ceiling_ft": 8000,
      "hazards": [
        "BR",
        "SN",
        "RA"
      ],
      "severityScore": 40,
      "metarRaw": "METAR LTAC 152320Z 20006KT 9999 SCT015 SCT030 BKN080 02/M00 Q1021 NOSIG RMK RWY21C 20008KT RWY03L 20006KT RWY21R 19009KT RWY03R 19007KT RWY21L 20008KT",
      "tafRaw": "TAF LTAC 152240Z 1600/1624 21008KT 9999 SCT035 BKN100 \n  PROB40 \n  TEMPO 1603/1607 2000 -SN BR SCT008 BKN030 BKN080 \n  TEMPO 1616/1620 -RA SCT010 BKN030 BKN080 \n  TEMPO 1620/1624 -RASN SCT010 BKN030 BKN080"
    },
    {
      "icao": "EHBK",
      "iata": "MST",
      "name": "Maastricht Aachen Airport",
      "updatedAt": "152325Z",
      "visibility_m": 10000,
      "taf_visibility_m": 7000,
      "worst_visibility_m": 7000,
      "ceiling_ft": 1400,
      "hazards": [
        "RA",
        "SHRA"
      ],
      "severityScore": 38,
      "metarRaw": "METAR EHBK 152325Z AUTO 17013KT 140V210 9999 FEW008 SCT046 11/06 Q1006",
      "tafRaw": "TAF EHBK 152238Z 1600/1706 19013KT CAVOK \n  PROB30 \n  TEMPO 1602/1611 7000 -RA -SHRA BKN014 FEW018TCU \n  BECMG 1614/1617 14005KT \n  PROB30 \n  TEMPO 1700/1704 7000 -RA"
    },
    {
      "icao": "LEZL",
      "iata": "SVQ",
      "name": "Sevilla Airport",
      "updatedAt": "152330Z",
      "visibility_m": 9000,
      "taf_visibility_m": 3000,
      "worst_visibility_m": 3000,
      "ceiling_ft": 3000,
      "hazards": [
        "BR",
        "RA",
        "SHRA"
      ],
      "severityScore": 36,
      "metarRaw": "METAR LEZL 152330Z 22006KT 200V260 9000 FEW020 BKN030 13/12 Q1018 NOSIG",
      "tafRaw": "TAF LEZL 152000Z 1521/1621 VRB03KT CAVOK TX17/1614Z TN08/1607Z \n  TEMPO 1521/1605 VRB10KT 4000 RA SHRA FEW004CB BKN008 \n  PROB30 \n  TEMPO 1605/1609 3000 BR BKN001 \n  TEMPO 1616/1620 3000 RA"
    },
    {
      "icao": "EPWA",
      "iata": "WAW",
      "name": "Warsaw Chopin Airport",
      "updatedAt": "152330Z",
      "visibility_m": 4300,
      "taf_visibility_m": 2000,
      "worst_visibility_m": 2000,
      "ceiling_ft": 500,
      "hazards": [
        "BR"
      ],
      "severityScore": 35,
      "metarRaw": "METAR EPWA 152330Z 11008KT 4300 BR OVC005 M03/M04 Q1023 NOSIG",
      "tafRaw": "TAF EPWA 152330Z 1600/1624 11010KT 4000 BR OVC005 \n  TEMPO 1600/1607 2000 BR BKN003 \n  PROB40 1600/1607 6000 \n  BECMG 1607/1610 9999 BKN010 \n  BECMG 1612/1615 BKN015"
    },
    {
      "icao": "EYKA",
      "iata": "KUN",
      "name": "Kaunas International Airport",
      "updatedAt": "152350Z",
      "visibility_m": 7000,
      "taf_visibility_m": 5000,
      "worst_visibility_m": 5000,
      "ceiling_ft": 800,
      "hazards": [
        "BR"
      ],
      "severityScore": 35,
      "metarRaw": "METAR EYKA 152350Z 15010KT 130V220 7000 OVC008 M11/M13 Q1028",
      "tafRaw": "TAF EYKA 152304Z 1600/1624 16013KT 9000 OVC010 \n  TEMPO 1600/1606 5000 BR BKN005 \n  BECMG 1609/1611 NSC"
    },
    {
      "icao": "EYPA",
      "iata": "PLQ",
      "name": "Palanga International Airport",
      "updatedAt": "152350Z",
      "visibility_m": 8000,
      "taf_visibility_m": 5000,
      "worst_visibility_m": 5000,
      "ceiling_ft": 500,
      "hazards": [
        "BR"
      ],
      "severityScore": 35,
      "metarRaw": "METAR EYPA 152350Z AUTO 14009KT 8000 OVC031/// M05/M07 Q1024",
      "tafRaw": "TAF EYPA 152303Z 1600/1624 14015KT 9000 SCT010 OVC020 \n  TEMPO 1600/1606 5000 BR BKN005 \n  TEMPO 1609/1618 14020G30KT"
    },
    {
      "icao": "LGTS",
      "iata": "SKG",
      "name": "Thessaloniki Macedonia International Airport",
      "updatedAt": "152320Z",
      "visibility_m": 10000,
      "taf_visibility_m": 4000,
      "worst_visibility_m": 4000,
      "ceiling_ft": 2500,
      "hazards": [
        "TS",
        "BR"
      ],
      "severityScore": 35,
      "metarRaw": "METAR LGTS 152320Z 10004KT CAVOK 03/01 Q1024 NOSIG",
      "tafRaw": "TAF LGTS 152300Z 1600/1624 VRB03KT 9999 FEW030 \n  PROB30 1603/1607 4000 BR SCT008 \n  BECMG 1620/1622 09013KT FEW010 BKN025"
    },
    {
      "icao": "ESSA",
      "iata": "ARN",
      "name": "Stockholm-Arlanda Airport",
      "updatedAt": "152320Z",
      "visibility_m": 10000,
      "taf_visibility_m": 3000,
      "worst_visibility_m": 3000,
      "ceiling_ft": 1800,
      "hazards": [
        "BR",
        "RA"
      ],
      "severityScore": 34,
      "metarRaw": "METAR ESSA 152320Z 16012KT 9999 BKN018 02/00 Q1016 NOSIG",
      "tafRaw": "TAF ESSA 152330Z 1600/1624 17014KT 9999 BKN015 \n  PROB40 1600/1607 4000 RA BKN012 \n  BECMG 1607/1609 OVC006 \n  PROB40 1609/1616 3000 -RA BR BKN004"
    },
    {
      "icao": "EPLB",
      "iata": "LUZ",
      "name": "Lublin Airport",
      "updatedAt": "152330Z",
      "visibility_m": 4600,
      "taf_visibility_m": 1500,
      "worst_visibility_m": 1500,
      "ceiling_ft": 1800,
      "hazards": [
        "BR"
      ],
      "severityScore": 32,
      "metarRaw": "METAR EPLB 152330Z 10007KT 4600 BR BKN018 OVC021 M05/M05 Q1025",
      "tafRaw": "TAF EPLB 152330Z 1600/1624 09007KT 4000 BR SCT006 OVC014 \n  TEMPO 1600/1608 1500 BR OVC005 \n  PROB40 1600/1608 6000 BKN020 \n  BECMG 1608/1611 7000 \n  BECMG 1614/1617 SCT014"
    },
    {
      "icao": "LRTR",
      "iata": "TSR",
      "name": "Timişoara Traian Vuia Airport",
      "updatedAt": "152330Z",
      "visibility_m": 4000,
      "taf_visibility_m": 1500,
      "worst_visibility_m": 1500,
      "ceiling_ft": 4800,
      "hazards": [
        "BR",
        "RA"
      ],
      "severityScore": 32,
      "metarRaw": "METAR LRTR 152330Z 10005KT 4000 -RA BR SCT035 BKN048 01/01 Q1022",
      "tafRaw": "TAF LRTR 152300Z 1600/1624 10006KT 3000 -RA BR BKN045 \n  BECMG 1602/1604 BKN010 BKN030 \n  PROB40 \n  TEMPO 1610/1615 1500 RA \n  BECMG 1616/1618 5000 BR"
    },
    {
      "icao": "EDNY",
      "iata": "FDH",
      "name": "Friedrichshafen Airport",
      "updatedAt": "152320Z",
      "visibility_m": 10000,
      "taf_visibility_m": 1200,
      "worst_visibility_m": 1200,
      "ceiling_ft": null,
      "hazards": [
        "FG"
      ],
      "severityScore": 30,
      "metarRaw": "METAR EDNY 152320Z AUTO VRB01KT 9999 // NCD 00/M01 Q1014",
      "tafRaw": "TAF EDNY 151700Z 1518/1603 05003KT CAVOK \n  PROB40 \n  TEMPO 1520/1603 1200 BCFG"
    },
    {
      "icao": "ENVA",
      "iata": "TRD",
      "name": "Trondheim Airport, Værnes",
      "updatedAt": "152320Z",
      "visibility_m": 10000,
      "taf_visibility_m": 10000,
      "worst_visibility_m": 10000,
      "ceiling_ft": 2500,
      "hazards": [
        "SHRA",
        "RA"
      ],
      "severityScore": 26,
      "metarRaw": "METAR ENVA 152320Z 05003KT 340V120 CAVOK 03/M04 Q1004 RMK WIND 670FT 17019KT",
      "tafRaw": "TAF ENVA 152300Z 1600/1624 10007KT 9999 FEW050 \n  TEMPO 1618/1624 21012KT SHRA SCT018CB BKN025"
    },
    {
      "icao": "LCPH",
      "iata": "PFO",
      "name": "Paphos International Airport",
      "updatedAt": "152330Z",
      "visibility_m": 10000,
      "taf_visibility_m": 5000,
      "worst_visibility_m": 5000,
      "ceiling_ft": null,
      "hazards": [
        "SHRA",
        "RA"
      ],
      "severityScore": 26,
      "metarRaw": "METAR LCPH 152330Z 01009KT 010V080 CAVOK 09/05 Q1024 NOSIG",
      "tafRaw": "TAF LCPH 152330Z 1600/1700 02009KT 9999 FEW020 SCT035 \n  BECMG 1607/1610 24010KT \n  BECMG 1616/1619 04007KT \n  PROB30 \n  TEMPO 1616/1621 5000 SHRA SCT020TCU"
    },
    {
      "icao": "GCTS",
      "iata": "TFS",
      "name": "Tenerife Sur Airport",
      "updatedAt": "152330Z",
      "visibility_m": 10000,
      "taf_visibility_m": 10000,
      "worst_visibility_m": 10000,
      "ceiling_ft": 3000,
      "hazards": [
        "TS"
      ],
      "severityScore": 25,
      "metarRaw": "METAR GCTS 152330Z 06012KT 9999 FEW040 17/09 Q1025 NOSIG",
      "tafRaw": "TAF GCTS 152000Z 1521/1621 02005KT 9999 BKN030 TX22/1614Z TN13/1606Z"
    },
    {
      "icao": "LFBD",
      "iata": "BOD",
      "name": "Bordeaux–Mérignac Airport",
      "updatedAt": "152330Z",
      "visibility_m": 4000,
      "taf_visibility_m": 4000,
      "worst_visibility_m": 4000,
      "ceiling_ft": 1000,
      "hazards": [
        "RA"
      ],
      "severityScore": 24,
      "metarRaw": "METAR LFBD 152330Z AUTO 21009KT 9999 BKN021 BKN052 BKN130 10/08 Q1012 TEMPO 4000 -RA BKN010 BKN040TCU",
      "tafRaw": "TAF LFBD 151700Z 1518/1624 21010KT 9999 BKN040 TX11/1615Z TN05/1624Z \n  TEMPO 1518/1607 4000 -RA BKN010 BKN040TCU \n  PROB40 \n  TEMPO 1518/1521 22015G25KT \n  PROB40 \n  TEMPO 1523/1605 BKN005 \n  BECMG 1607/1609 15005KT \n  PROB40 \n  TEMPO 1613/1616 BKN014"
    },
    {
      "icao": "LUKK",
      "iata": "RMO",
      "name": "Chişinău International Airport",
      "updatedAt": "152330Z",
      "visibility_m": 7000,
      "taf_visibility_m": null,
      "worst_visibility_m": 7000,
      "ceiling_ft": 6300,
      "hazards": [
        "SN"
      ],
      "severityScore": 23,
      "metarRaw": "METAR LUKK 152330Z 03011KT 7000 -SN SCT007 OVC063 M13/M15 Q1029 NOSIG",
      "tafRaw": null
    },
    {
      "icao": "ENBR",
      "iata": "BGO",
      "name": "Bergen Airport, Flesland",
      "updatedAt": "152320Z",
      "visibility_m": 10000,
      "taf_visibility_m": 4000,
      "worst_visibility_m": 4000,
      "ceiling_ft": 4400,
      "hazards": [
        "RA",
        "BR"
      ],
      "severityScore": 22,
      "metarRaw": "METAR ENBR 152320Z 14014KT 9999 -RA SCT020 BKN044 06/03 Q1002 RMK WIND 1200FT 15019KT",
      "tafRaw": "TAF ENBR 152300Z 1600/1624 14012KT 9999 SCT020 BKN040 \n  BECMG 1601/1603 08005KT \n  BECMG 1608/1610 BKN012 \n  TEMPO 1612/1619 4000 RA BKN005 \n  BECMG 1621/1623 BKN020"
    },
    {
      "icao": "ESKN",
      "iata": "NYO",
      "name": "Stockholm Skavsta Airport",
      "updatedAt": "152320Z",
      "visibility_m": 10000,
      "taf_visibility_m": 2500,
      "worst_visibility_m": 2500,
      "ceiling_ft": 1000,
      "hazards": [
        "BR"
      ],
      "severityScore": 22,
      "metarRaw": "METAR ESKN 152320Z 16015KT 9999 BKN010 03/02 Q1016",
      "tafRaw": "TAF ESKN 152330Z 1600/1624 17015KT 9999 BKN010 \n  PROB40 1600/1602 BKN009 \n  BECMG 1602/1604 OVC007 \n  TEMPO 1604/1619 17015G25KT 2500 BR BKN004 \n  PROB40 1619/1624 BKN004"
    },
    {
      "icao": "LEZG",
      "iata": "ZAZ",
      "name": "Zaragoza Airport",
      "updatedAt": "152330Z",
      "visibility_m": 10000,
      "taf_visibility_m": 2000,
      "worst_visibility_m": 2000,
      "ceiling_ft": 4500,
      "hazards": [
        "RA",
        "BR"
      ],
      "severityScore": 22,
      "metarRaw": "METAR LEZG 152330Z 14004KT 9999 -RA OVC045 08/08 Q1016 NOSIG",
      "tafRaw": "TAF LEZG 152300Z 1600/1624 09005KT 9999 FEW020 TX13/1614Z TN05/1606Z \n  TEMPO 1600/1612 2000 BR \n  PROB40 \n  TEMPO 1600/1603 RA \n  TEMPO 1618/1624 2000 BR"
    },
    {
      "icao": "LIMF",
      "iata": "TRN",
      "name": "Turin Airport",
      "updatedAt": "152320Z",
      "visibility_m": 3500,
      "taf_visibility_m": 4000,
      "worst_visibility_m": 3500,
      "ceiling_ft": 4000,
      "hazards": [
        "BR",
        "RA"
      ],
      "severityScore": 22,
      "metarRaw": "METAR LIMF 152320Z VRB01KT 3500 BR BKN040 05/03 Q1022",
      "tafRaw": "TAF LIMF 152300Z 1600/1624 VRB03KT 6000 SCT020 BKN060 \n  TEMPO 1614/1624 4000 RA"
    },
    {
      "icao": "LIMJ",
      "iata": "GOA",
      "name": "Genoa Cristoforo Colombo Airport",
      "updatedAt": "152320Z",
      "visibility_m": 10000,
      "taf_visibility_m": 10000,
      "worst_visibility_m": 10000,
      "ceiling_ft": 2300,
      "hazards": [
        "DZ",
        "RA"
      ],
      "severityScore": 22,
      "metarRaw": "METAR LIMJ 152320Z 05012KT 9999 -DZ BKN023 10/07 Q1020",
      "tafRaw": "TAF LIMJ 152300Z 1600/1624 04012KT 9999 SCT020 BKN030 \n  TEMPO 1600/1618 RA"
    },
    {
      "icao": "LIPH",
      "iata": "TSF",
      "name": "Treviso Antonio Canova Airport",
      "updatedAt": "152320Z",
      "visibility_m": 4600,
      "taf_visibility_m": 2000,
      "worst_visibility_m": 2000,
      "ceiling_ft": 1000,
      "hazards": [
        "BR"
      ],
      "severityScore": 22,
      "metarRaw": "METAR LIPH 152320Z AUTO VRB02KT 4600 BR OVC080/// 04/03 Q1022",
      "tafRaw": "TAF LIPH 152300Z 1600/1624 VRB04KT 6000 SCT040 \n  TEMPO 1600/1607 2000 BR BKN010"
    },
    {
      "icao": "LJLJ",
      "iata": "LJU",
      "name": "Ljubljana Jože Pučnik Airport",
      "updatedAt": "152330Z",
      "visibility_m": 10000,
      "taf_visibility_m": 2000,
      "worst_visibility_m": 2000,
      "ceiling_ft": 5000,
      "hazards": [
        "BR",
        "RA"
      ],
      "severityScore": 22,
      "metarRaw": "METAR LJLJ 152330Z VRB02KT 9999 FEW003 SCT033 BKN050 01/01 Q1020 NOSIG",
      "tafRaw": "TAF LJLJ 152300Z 1600/1700 30004KT 9999 FEW003 SCT030 BKN045 \n  PROB40 \n  TEMPO 1601/1608 4000 BR \n  TEMPO 1620/1700 4000 BR \n  PROB30 \n  TEMPO 1621/1700 2000 -RA BR BKN013 OVC025"
    },
    {
      "icao": "LYBE",
      "iata": "BEG",
      "name": "Belgrade Nikola Tesla Airport",
      "updatedAt": "152330Z",
      "visibility_m": 4500,
      "taf_visibility_m": 2500,
      "worst_visibility_m": 2500,
      "ceiling_ft": null,
      "hazards": [
        "BR",
        "RA"
      ],
      "severityScore": 22,
      "metarRaw": "METAR LYBE 152330Z 11004KT 4500 BR NSC 03/02 Q1022 NOSIG",
      "tafRaw": "TAF LYBE 152300Z 1600/1624 08005KT 6000 NSC TX08/1613Z TN02/1606Z \n  TEMPO 1600/1608 2500 -RA BR \n  BECMG 1613/1615 14010KT \n  TEMPO 1620/1624 13015G25KT"
    },
    {
      "icao": "LYPG",
      "iata": "TGD",
      "name": "Podgorica Airport / Podgorica Golubovci Airbase",
      "updatedAt": "152330Z",
      "visibility_m": 10000,
      "taf_visibility_m": 5000,
      "worst_visibility_m": 5000,
      "ceiling_ft": 5000,
      "hazards": [
        "BR",
        "RA"
      ],
      "severityScore": 22,
      "metarRaw": "METAR LYPG 152330Z 06003KT 9999 FEW036 BKN050 08/07 Q1024 NOSIG",
      "tafRaw": "TAF LYPG 152300Z 1600/1624 VRB02KT 9999 SCT040 BKN070 TX14/1613Z TN04/1624Z \n  TEMPO 1600/1607 5000 -RA BR"
    },
    {
      "icao": "EDDS",
      "iata": "STR",
      "name": "Stuttgart Airport",
      "updatedAt": "152320Z",
      "visibility_m": 10000,
      "taf_visibility_m": 2000,
      "worst_visibility_m": 2000,
      "ceiling_ft": null,
      "hazards": [
        "FG"
      ],
      "severityScore": 20,
      "metarRaw": "METAR EDDS 152320Z AUTO VRB01KT CAVOK 03/02 Q1013",
      "tafRaw": "TAF EDDS 152300Z 1600/1624 VRB03KT CAVOK \n  PROB30 \n  TEMPO 1600/1609 4000 BCFG \n  PROB40 \n  TEMPO 1621/1624 2000 BCFG"
    },
    {
      "icao": "EDSB",
      "iata": "FKB",
      "name": "Karlsruhe Baden-Baden Airport",
      "updatedAt": "152320Z",
      "visibility_m": 10000,
      "taf_visibility_m": 2000,
      "worst_visibility_m": 2000,
      "ceiling_ft": null,
      "hazards": [
        "FG"
      ],
      "severityScore": 20,
      "metarRaw": "METAR EDSB 152320Z AUTO 16005KT 9999 // SCT210/// 07/04 Q1013",
      "tafRaw": "TAF EDSB 152300Z 1600/1624 18005KT CAVOK \n  PROB30 \n  TEMPO 1600/1609 4000 BCFG \n  BECMG 1610/1612 VRB03KT \n  PROB40 \n  TEMPO 1621/1624 2000 BCFG"
    },
    {
      "icao": "HESX",
      "iata": "SPX",
      "name": "Sphinx International Airport",
      "updatedAt": "152300Z",
      "visibility_m": 6000,
      "taf_visibility_m": 1000,
      "worst_visibility_m": 1000,
      "ceiling_ft": null,
      "hazards": [
        "BR"
      ],
      "severityScore": 20,
      "metarRaw": "METAR HESX 152300Z 36004KT 6000 NSC 12/09 Q1024 NOSIG",
      "tafRaw": "TAF HESX 152300Z 1600/1706 36006KT 9999 FEW025 \n  TEMPO 1600/1608 3000 BR \n  PROB40 \n  TEMPO 1601/1606 1000"
    },
    {
      "icao": "LIRZ",
      "iata": "PEG",
      "name": "Perugia San Francesco d'Assisi – Umbria International Airport",
      "updatedAt": "152320Z",
      "visibility_m": 10000,
      "taf_visibility_m": 3000,
      "worst_visibility_m": 3000,
      "ceiling_ft": null,
      "hazards": [
        "FG"
      ],
      "severityScore": 20,
      "metarRaw": "METAR LIRZ 152320Z AUTO 02005KT 9999 FEW048/// BKN062/// 08/07 Q1022",
      "tafRaw": "TAF LIRZ 152300Z 1600/1624 VRB04KT 9999 FEW050 \n  TEMPO 1604/1609 3000 BCFG"
    },
    {
      "icao": "LWSK",
      "iata": "SKP",
      "name": "Skopje International Airport",
      "updatedAt": "152350Z",
      "visibility_m": 5000,
      "taf_visibility_m": 1500,
      "worst_visibility_m": 1500,
      "ceiling_ft": null,
      "hazards": [
        "BR"
      ],
      "severityScore": 20,
      "metarRaw": "METAR LWSK 152350Z VRB02KT 5000 BR NSC M02/M03 Q1025 NOSIG",
      "tafRaw": "TAF LWSK 152025Z 1521/1621 VRB02KT CAVOK \n  BECMG 1523/1601 5000 BR NSC \n  PROB30 \n  TEMPO 1603/1609 1500 SCT010"
    },
    {
      "icao": "LYNI",
      "iata": "INI",
      "name": "Niš Constantine the Great Airport",
      "updatedAt": "152330Z",
      "visibility_m": 10000,
      "taf_visibility_m": 1500,
      "worst_visibility_m": 1500,
      "ceiling_ft": 7000,
      "hazards": [
        "BR"
      ],
      "severityScore": 20,
      "metarRaw": "METAR LYNI 152330Z 09003KT 050V110 9999 BKN070 05/04 Q1023 NOSIG",
      "tafRaw": "TAF LYNI 152300Z 1600/1624 11004KT 6000 BKN060 TX07/1612Z TN01/1606Z \n  TEMPO 1603/1608 1500 BR \n  BECMG 1611/1613 05011KT \n  TEMPO 1616/1624 BKN013 BKN030"
    },
    {
      "icao": "GMMN",
      "iata": "CMN",
      "name": "Mohammed V International Airport",
      "updatedAt": "152330Z",
      "visibility_m": 10000,
      "taf_visibility_m": 4000,
      "worst_visibility_m": 4000,
      "ceiling_ft": null,
      "hazards": [
        "RA"
      ],
      "severityScore": 12,
      "metarRaw": "METAR GMMN 152330Z 20007KT 9999 SCT020 SCT120 10/09 Q1022 NOSIG",
      "tafRaw": "TAF GMMN 152300Z 1600/1706 21007KT 9999 SCT020 SCT200 \n  BECMG 1605/1607 24013KT \n  TEMPO 1612/1706 4000 RA SCT013 BKN026TCU"
    },
    {
      "icao": "GMMX",
      "iata": "RAK",
      "name": "Menara Airport",
      "updatedAt": "152330Z",
      "visibility_m": 10000,
      "taf_visibility_m": 4000,
      "worst_visibility_m": 4000,
      "ceiling_ft": 2600,
      "hazards": [
        "RA"
      ],
      "severityScore": 12,
      "metarRaw": "METAR GMMX 152330Z 23004KT 200V260 CAVOK 10/08 Q1022 NOSIG",
      "tafRaw": "TAF GMMX 152300Z 1600/1706 06006KT 8000 SCT026 \n  TEMPO 1616/1624 34016KT 4000 RA FEW010 BKN026 SCT090"
    },
    {
      "icao": "LEAL",
      "iata": "ALC",
      "name": "Alicante-Elche Miguel Hernández Airport",
      "updatedAt": "152330Z",
      "visibility_m": 10000,
      "taf_visibility_m": 4000,
      "worst_visibility_m": 4000,
      "ceiling_ft": null,
      "hazards": [
        "RA"
      ],
      "severityScore": 12,
      "metarRaw": "METAR LEAL 152330Z 00000KT CAVOK 10/10 Q1017 NOSIG",
      "tafRaw": "TAF LEAL 152300Z 1600/1624 VRB04KT CAVOK TX17/1613Z TN07/1606Z \n  TEMPO 1620/1624 4000 RA"
    },
    {
      "icao": "LEBB",
      "iata": "BIO",
      "name": "Bilbao Airport",
      "updatedAt": "152330Z",
      "visibility_m": 10000,
      "taf_visibility_m": 3000,
      "worst_visibility_m": 3000,
      "ceiling_ft": 4700,
      "hazards": [
        "RA"
      ],
      "severityScore": 12,
      "metarRaw": "METAR LEBB 152330Z AUTO 09004KT 9999 BKN047 OVC050 10/08 Q1013",
      "tafRaw": "TAF LEBB 152300Z 1600/1624 12006KT 9999 FEW045 TX15/1613Z TN06/1622Z \n  TEMPO 1610/1618 20010KT \n  PROB30 \n  TEMPO 1620/1624 3000 RA"
    },
    {
      "icao": "LEMG",
      "iata": "AGP",
      "name": "Málaga-Costa del Sol Airport",
      "updatedAt": "152330Z",
      "visibility_m": 10000,
      "taf_visibility_m": 3000,
      "worst_visibility_m": 3000,
      "ceiling_ft": 5000,
      "hazards": [
        "RA"
      ],
      "severityScore": 12,
      "metarRaw": "METAR LEMG 152330Z 00000KT 9999 FEW035 BKN050 11/09 Q1019 NOSIG",
      "tafRaw": "TAF LEMG 152300Z 1600/1624 VRB02KT 9999 FEW080 TX18/1614Z TN11/1607Z \n  TEMPO 1606/1611 4000 RA BKN012 \n  BECMG 1611/1613 31010KT \n  BECMG 1616/1618 VRB02KT \n  TEMPO 1620/1624 3000 RA BKN012"
    },
    {
      "icao": "LEXJ",
      "iata": "SDR",
      "name": "Seve Ballesteros-Santander Airport",
      "updatedAt": "152330Z",
      "visibility_m": 8000,
      "taf_visibility_m": 3000,
      "worst_visibility_m": 3000,
      "ceiling_ft": 4600,
      "hazards": [
        "RA"
      ],
      "severityScore": 12,
      "metarRaw": "METAR LEXJ 152330Z 00000KT 8000 OVC046 10/08 Q1012",
      "tafRaw": "TAF LEXJ 152000Z 1521/1621 20009KT 9999 SCT020 TX15/1614Z TN08/1608Z \n  PROB40 1615/1618 29010KT \n  PROB30 \n  TEMPO 1618/1621 3000 RA"
    },
    {
      "icao": "LICJ",
      "iata": "PMO",
      "name": "Falcone–Borsellino Airport",
      "updatedAt": "152320Z",
      "visibility_m": 10000,
      "taf_visibility_m": 10000,
      "worst_visibility_m": 10000,
      "ceiling_ft": null,
      "hazards": [
        "RA"
      ],
      "severityScore": 12,
      "metarRaw": "METAR LICJ 152320Z 05007KT CAVOK 11/07 Q1019",
      "tafRaw": "TAF LICJ 152300Z 1600/1624 VRB05KT CAVOK \n  TEMPO 1621/1624 RA"
    },
    {
      "icao": "LMML",
      "iata": "MLA",
      "name": "Malta International Airport",
      "updatedAt": "152345Z",
      "visibility_m": 10000,
      "taf_visibility_m": 7000,
      "worst_visibility_m": 7000,
      "ceiling_ft": null,
      "hazards": [
        "RA"
      ],
      "severityScore": 12,
      "metarRaw": "METAR LMML 152345Z 14012KT CAVOK 15/13 Q1020 NOSIG",
      "tafRaw": "TAF LMML 152300Z 1600/1624 13012KT 9999 FEW018 \n  PROB30 \n  TEMPO 1615/1624 7000 RA"
    },
    {
      "icao": "GCLP",
      "iata": "LPA",
      "name": "Gran Canaria Airport",
      "updatedAt": "152330Z",
      "visibility_m": 10000,
      "taf_visibility_m": 10000,
      "worst_visibility_m": 10000,
      "ceiling_ft": 3500,
      "hazards": [
        "DZ"
      ],
      "severityScore": 10,
      "metarRaw": "METAR GCLP 152330Z 36011KT 9999 BKN035 17/10 Q1025 NOSIG",
      "tafRaw": "TAF GCLP 152000Z 1521/1621 36013KT 9999 BKN030 TX22/1614Z TN15/1606Z \n  PROB30 \n  TEMPO 1618/1621 02020G30KT \n  PROB30 \n  TEMPO 1618/1621 DZ BKN014"
    },
    {
      "icao": "EDDB",
      "iata": "BER",
      "name": "Berlin Brandenburg Airport",
      "updatedAt": "152320Z",
      "visibility_m": 2500,
      "taf_visibility_m": 2500,
      "worst_visibility_m": 2500,
      "ceiling_ft": null,
      "hazards": [
        "BR"
      ],
      "severityScore": 10,
      "metarRaw": "METAR EDDB 152320Z AUTO 14006KT 9000 NCD 03/03 Q1015 TEMPO 2500 BR",
      "tafRaw": "TAF EDDB 152300Z 1600/1624 16008KT 9000 NSC \n  PROB30 \n  TEMPO 1600/1606 2500 BR \n  TEMPO 1608/1613 16013KT"
    },
    {
      "icao": "EPSY",
      "iata": "SZY",
      "name": "Olsztyn-Mazury Airport",
      "updatedAt": "152330Z",
      "visibility_m": 3200,
      "taf_visibility_m": 3500,
      "worst_visibility_m": 3200,
      "ceiling_ft": 3000,
      "hazards": [
        "BR"
      ],
      "severityScore": 10,
      "metarRaw": "METAR EPSY 152330Z 13006KT 080V170 3200 BR SCT003 OVC030 M07/M07 Q1024",
      "tafRaw": "TAF EPSY 152330Z 1600/1609 14006KT 3500 BR BKN030 \n  PROB40 1600/1609 OVC003"
    },
    {
      "icao": "EYVI",
      "iata": "VNO",
      "name": "Vilnius International Airport",
      "updatedAt": "152350Z",
      "visibility_m": 9000,
      "taf_visibility_m": 5000,
      "worst_visibility_m": 5000,
      "ceiling_ft": null,
      "hazards": [
        "BR"
      ],
      "severityScore": 10,
      "metarRaw": "METAR EYVI 152350Z 15010KT 9000 NSC M17/M19 Q1028 NOSIG",
      "tafRaw": "TAF EYVI 152305Z 1600/1624 16012KT 9000 NSC \n  TEMPO 1600/1606 5000 BR SCT005"
    },
    {
      "icao": "LGAV",
      "iata": "ATH",
      "name": "Athens Eleftherios Venizelos International Airport",
      "updatedAt": "152320Z",
      "visibility_m": 10000,
      "taf_visibility_m": 4000,
      "worst_visibility_m": 4000,
      "ceiling_ft": null,
      "hazards": [
        "BR"
      ],
      "severityScore": 10,
      "metarRaw": "METAR LGAV 152320Z 00000KT 9999 FEW030 03/01 Q1024 NOSIG",
      "tafRaw": "TAF LGAV 152300Z 1600/1624 VRB03KT 9999 SCT025 \n  PROB30 \n  TEMPO 1600/1607 4000 BR SCT008 \n  BECMG 1618/1620 04012KT"
    },
    {
      "icao": "LIBP",
      "iata": "PSR",
      "name": "Abruzzo Airport",
      "updatedAt": "152320Z",
      "visibility_m": 10000,
      "taf_visibility_m": 4000,
      "worst_visibility_m": 4000,
      "ceiling_ft": null,
      "hazards": [
        "BR"
      ],
      "severityScore": 10,
      "metarRaw": "METAR LIBP 152320Z AUTO 20005KT 9999 NCD 02/02 Q1022",
      "tafRaw": "TAF LIBP 152300Z 1600/1624 VRB05KT CAVOK \n  TEMPO 1600/1607 4000 BR"
    },
    {
      "icao": "LIPZ",
      "iata": "VCE",
      "name": "Venice Marco Polo Airport",
      "updatedAt": "152320Z",
      "visibility_m": 6000,
      "taf_visibility_m": 2000,
      "worst_visibility_m": 2000,
      "ceiling_ft": 2000,
      "hazards": [
        "BR"
      ],
      "severityScore": 10,
      "metarRaw": "METAR LIPZ 152320Z 02002KT 6000 BKN020 07/05 Q1022 NOSIG",
      "tafRaw": "TAF LIPZ 152300Z 1600/1706 VRB04KT 6000 SCT030 \n  TEMPO 1600/1607 2000 BR BKN010 \n  TEMPO 1621/1706 2000 BR BKN010"
    },
    {
      "icao": "UDSG",
      "iata": "LWN",
      "name": "Shirak International Airport",
      "updatedAt": "152330Z",
      "visibility_m": 10000,
      "taf_visibility_m": 5000,
      "worst_visibility_m": 5000,
      "ceiling_ft": null,
      "hazards": [
        "BR"
      ],
      "severityScore": 10,
      "metarRaw": "METAR UDSG 152330Z 00000KT 9999 NSC M17/M20 Q1019 NOSIG",
      "tafRaw": "TAF UDSG 152258Z 1600/1624 VRB06KT 9999 SCT040 \n  TEMPO 1600/1606 5000 BR"
    },
    {
      "icao": "UDYZ",
      "iata": "EVN",
      "name": "Zvartnots International Airport",
      "updatedAt": "152330Z",
      "visibility_m": 10000,
      "taf_visibility_m": 2000,
      "worst_visibility_m": 2000,
      "ceiling_ft": null,
      "hazards": [
        "BR"
      ],
      "severityScore": 10,
      "metarRaw": "METAR UDYZ 152330Z 14003KT 9999 NSC M07/M10 Q1022 NOSIG",
      "tafRaw": "TAF UDYZ 152300Z 1600/1624 VRB04KT 6000 NSC \n  TEMPO 1600/1606 2000 BR"
    },
    {
      "icao": "LECH",
      "iata": "CDT",
      "name": "Castellón-Costa Azahar Airport",
      "updatedAt": "152330Z",
      "visibility_m": 9000,
      "taf_visibility_m": null,
      "worst_visibility_m": 9000,
      "ceiling_ft": null,
      "hazards": [],
      "severityScore": 5,
      "metarRaw": "METAR LECH 152330Z AUTO 23001KT 9000 NCD 08/01 Q1015",
      "tafRaw": null
    },
    {
      "icao": "BIKF",
      "iata": "KEF",
      "name": "Keflavik International Airport",
      "updatedAt": "152330Z",
      "visibility_m": 10000,
      "taf_visibility_m": 10000,
      "worst_visibility_m": 10000,
      "ceiling_ft": 8400,
      "hazards": [],
      "severityScore": 0,
      "metarRaw": "METAR BIKF 152330Z 02015KT 9999 FEW020 BKN084 01/M02 Q0993",
      "tafRaw": "TAF BIKF 152222Z 1600/1700 02020KT 9999 FEW025 SCT040 TX02/1606Z TNM02/1700Z \n  BECMG 1616/1618 02010KT"
    },
    {
      "icao": "GCFV",
      "iata": "FUE",
      "name": "Fuerteventura Airport",
      "updatedAt": "152330Z",
      "visibility_m": 10000,
      "taf_visibility_m": 10000,
      "worst_visibility_m": 10000,
      "ceiling_ft": 3500,
      "hazards": [],
      "severityScore": 0,
      "metarRaw": "METAR GCFV 152330Z AUTO 34009KT 9999 OVC035 17/09 Q1025",
      "tafRaw": "TAF GCFV 152000Z 1521/1621 34006KT 9999 SCT030 TX22/1614Z TN14/1606Z \n  BECMG 1609/1611 04010KT \n  BECMG 1614/1616 34010KT"
    },
    {
      "icao": "GMAD",
      "iata": "AGA",
      "name": "Al Massira Airport",
      "updatedAt": "152330Z",
      "visibility_m": 10000,
      "taf_visibility_m": 10000,
      "worst_visibility_m": 10000,
      "ceiling_ft": null,
      "hazards": [],
      "severityScore": 0,
      "metarRaw": "METAR GMAD 152330Z 00000KT CAVOK 10/10 Q1023 NOSIG",
      "tafRaw": "TAF GMAD 152300Z 1600/1706 14003KT CAVOK \n  BECMG 1616/1618 27010KT"
    },
    {
      "icao": "EDDK",
      "iata": "CGN",
      "name": "Cologne Bonn Airport",
      "updatedAt": "152320Z",
      "visibility_m": 10000,
      "taf_visibility_m": 10000,
      "worst_visibility_m": 10000,
      "ceiling_ft": null,
      "hazards": [],
      "severityScore": 0,
      "metarRaw": "METAR EDDK 152320Z AUTO 13012KT CAVOK 10/06 Q1009 NOSIG",
      "tafRaw": "TAF EDDK 152300Z 1600/1706 14009KT 9999 SCT040"
    },
    {
      "icao": "EDJA",
      "iata": "FMM",
      "name": "Memmingen Allgau Airport",
      "updatedAt": "152320Z",
      "visibility_m": 10000,
      "taf_visibility_m": 10000,
      "worst_visibility_m": 10000,
      "ceiling_ft": null,
      "hazards": [],
      "severityScore": 0,
      "metarRaw": "METAR EDJA 152320Z AUTO VRB02KT 9999 // SCT210/// BKN250/// M01/M02 Q1014",
      "tafRaw": "TAF EDJA 151700Z 1518/1603 VRB03KT CAVOK"
    },
    {
      "icao": "EDLW",
      "iata": "DTM",
      "name": "Dortmund Airport",
      "updatedAt": "152320Z",
      "visibility_m": 10000,
      "taf_visibility_m": 10000,
      "worst_visibility_m": 10000,
      "ceiling_ft": null,
      "hazards": [],
      "severityScore": 0,
      "metarRaw": "METAR EDLW 152320Z AUTO 17015KT 9999 // FEW250/// 11/05 Q1008",
      "tafRaw": "TAF EDLW 151700Z 1518/1618 17012KT 9999 SCT030 \n  PROB30 \n  TEMPO 1521/1604 17015G25KT \n  BECMG 1612/1615 16007KT"
    },
    {
      "icao": "EHEH",
      "iata": "EIN",
      "name": "Eindhoven Airport",
      "updatedAt": "152325Z",
      "visibility_m": 10000,
      "taf_visibility_m": 10000,
      "worst_visibility_m": 10000,
      "ceiling_ft": 4500,
      "hazards": [],
      "severityScore": 0,
      "metarRaw": "METAR EHEH 152325Z AUTO 17011KT 140V200 9999 OVC045 11/07 Q1004 BLU",
      "tafRaw": "TAF EHEH 151736Z 1518/1624 16008KT CAVOK \n  BECMG 1520/1522 17012G22KT \n  TEMPO 1602/1606 SCT010 BKN015 \n  BECMG 1604/1606 21008KT"
    },
    {
      "icao": "ENAL",
      "iata": "AES",
      "name": "Ålesund Airport, Vigra",
      "updatedAt": "152320Z",
      "visibility_m": 10000,
      "taf_visibility_m": 10000,
      "worst_visibility_m": 10000,
      "ceiling_ft": null,
      "hazards": [],
      "severityScore": 0,
      "metarRaw": "METAR ENAL 152320Z AUTO 21010KT 9999 NCD 07/01 Q1000",
      "tafRaw": "TAF ENAL 152300Z 1600/1609 20010KT 9999 SCT050 \n  BECMG 1602/1604 14006KT"
    },
    {
      "icao": "ENTC",
      "iata": "TOS",
      "name": "Tromsø Airport, Langnes",
      "updatedAt": "152320Z",
      "visibility_m": 10000,
      "taf_visibility_m": 10000,
      "worst_visibility_m": 10000,
      "ceiling_ft": 3500,
      "hazards": [],
      "severityScore": 0,
      "metarRaw": "METAR ENTC 152320Z 19016KT 9999 BKN035 M01/M07 Q1008 RMK WIND 2600FT 18009KT",
      "tafRaw": "TAF ENTC 152300Z 1600/1624 20016KT CAVOK \n  BECMG 1604/1607 21006KT"
    },
    {
      "icao": "HEGN",
      "iata": "HRG",
      "name": "Hurghada International Airport",
      "updatedAt": "152300Z",
      "visibility_m": 10000,
      "taf_visibility_m": 10000,
      "worst_visibility_m": 10000,
      "ceiling_ft": null,
      "hazards": [],
      "severityScore": 0,
      "metarRaw": "METAR HEGN 152300Z 29009KT CAVOK 14/07 Q1022 NOSIG",
      "tafRaw": "TAF HEGN 152300Z 1600/1706 29015KT CAVOK"
    },
    {
      "icao": "HEMA",
      "iata": "RMF",
      "name": "Marsa Alam International Airport",
      "updatedAt": "152300Z",
      "visibility_m": 10000,
      "taf_visibility_m": 10000,
      "worst_visibility_m": 10000,
      "ceiling_ft": null,
      "hazards": [],
      "severityScore": 0,
      "metarRaw": "METAR HEMA 152300Z 31007KT CAVOK 15/10 Q1021 NOSIG",
      "tafRaw": "TAF HEMA 152300Z 1600/1706 30015KT 9999 SCT025"
    },
    {
      "icao": "HESH",
      "iata": "SSH",
      "name": "Sharm El Sheikh International Airport",
      "updatedAt": "152300Z",
      "visibility_m": 10000,
      "taf_visibility_m": 10000,
      "worst_visibility_m": 10000,
      "ceiling_ft": null,
      "hazards": [],
      "severityScore": 0,
      "metarRaw": "METAR HESH 152300Z 33010KT CAVOK 17/04 Q1022 NOSIG",
      "tafRaw": "TAF HESH 152300Z 1600/1706 33010KT CAVOK"
    },
    {
      "icao": "LATI",
      "iata": "TIA",
      "name": "Tirana International Airport Mother Teresa",
      "updatedAt": "152350Z",
      "visibility_m": 10000,
      "taf_visibility_m": 10000,
      "worst_visibility_m": 10000,
      "ceiling_ft": 6600,
      "hazards": [],
      "severityScore": 0,
      "metarRaw": "METAR LATI 152350Z VRB02KT 9999 OVC066 10/05 Q1023 NOSIG",
      "tafRaw": "TAF LATI 152300Z 1600/1624 VRB05KT 9999 BKN070 TX16/1612Z TN06/1605Z"
    },
    {
      "icao": "LCLK",
      "iata": "LCA",
      "name": "Larnaca International Airport",
      "updatedAt": "152330Z",
      "visibility_m": 10000,
      "taf_visibility_m": 10000,
      "worst_visibility_m": 10000,
      "ceiling_ft": null,
      "hazards": [],
      "severityScore": 0,
      "metarRaw": "METAR LCLK 152330Z 32007KT 9999 SCT037 08/07 Q1024 NOSIG",
      "tafRaw": "TAF LCLK 152330Z 1600/1700 32006KT 9999 FEW025 SCT040 \n  BECMG 1607/1610 20010KT \n  BECMG 1616/1619 32006KT"
    },
    {
      "icao": "LEVC",
      "iata": "VLC",
      "name": "Valencia Airport",
      "updatedAt": "152330Z",
      "visibility_m": 10000,
      "taf_visibility_m": 10000,
      "worst_visibility_m": 10000,
      "ceiling_ft": null,
      "hazards": [],
      "severityScore": 0,
      "metarRaw": "METAR LEVC 152330Z VRB03KT CAVOK 09/05 Q1016 NOSIG",
      "tafRaw": "TAF LEVC 152300Z 1600/1624 24005KT CAVOK TX15/1612Z TN06/1606Z \n  TEMPO 1612/1618 VRB03KT \n  BECMG 1617/1619 30005KT"
    },
    {
      "icao": "LFLL",
      "iata": "LYS",
      "name": "Lyon Saint-Exupéry Airport",
      "updatedAt": "152330Z",
      "visibility_m": 10000,
      "taf_visibility_m": 10000,
      "worst_visibility_m": 10000,
      "ceiling_ft": null,
      "hazards": [],
      "severityScore": 0,
      "metarRaw": "METAR LFLL 152330Z VRB02KT CAVOK 11/05 Q1014 NOSIG",
      "tafRaw": "TAF LFLL 152300Z 1600/1706 18012KT CAVOK \n  TEMPO 1600/1603 18015G25KT \n  BECMG 1603/1605 16007KT"
    },
    {
      "icao": "LFLS",
      "iata": "GNB",
      "name": "Grenoble Alpes Isère Airport",
      "updatedAt": "152330Z",
      "visibility_m": 10000,
      "taf_visibility_m": 10000,
      "worst_visibility_m": 10000,
      "ceiling_ft": null,
      "hazards": [],
      "severityScore": 0,
      "metarRaw": "METAR LFLS 152330Z AUTO 32005KT 9999 SCT062 08/03 Q1015",
      "tafRaw": "TAF LFLS 151400Z 1515/1615 20010KT CAVOK \n  TEMPO 1517/1522 27010KT \n  FM152200 08005KT CAVOK \n  PROB40 \n  TEMPO 1522/1524 27010KT"
    },
    {
      "icao": "LFMN",
      "iata": "NCE",
      "name": "Nice-Côte d'Azur Airport",
      "updatedAt": "152330Z",
      "visibility_m": 10000,
      "taf_visibility_m": 10000,
      "worst_visibility_m": 10000,
      "ceiling_ft": 3000,
      "hazards": [],
      "severityScore": 0,
      "metarRaw": "METAR LFMN 152330Z 32009KT 9999 FEW023 10/07 Q1020 NOSIG",
      "tafRaw": "TAF LFMN 152000Z 1521/1703 VRB03KT 9999 SCT020 BKN030 \n  BECMG 1521/1523 34010KT CAVOK \n  BECMG 1611/1613 08015KT \n  PROB30 \n  TEMPO 1617/1622 34005KT \n  BECMG 1622/1624 34010KT \n  PROB40 \n  TEMPO 1700/1703 09012KT"
    },
    {
      "icao": "LFSB",
      "iata": "BSL",
      "name": "EuroAirport Basel–Mulhouse–Freiburg",
      "updatedAt": "152330Z",
      "visibility_m": 10000,
      "taf_visibility_m": 10000,
      "worst_visibility_m": 10000,
      "ceiling_ft": null,
      "hazards": [],
      "severityScore": 0,
      "metarRaw": "METAR LFSB 152330Z AUTO 18006KT CAVOK 04/03 Q1014 NOSIG",
      "tafRaw": "TAF LFSB 152300Z 1600/1624 17005KT CAVOK"
    },
    {
      "icao": "LIBD",
      "iata": "BRI",
      "name": "Bari Karol Wojtyła International Airport",
      "updatedAt": "152320Z",
      "visibility_m": 10000,
      "taf_visibility_m": 10000,
      "worst_visibility_m": 10000,
      "ceiling_ft": null,
      "hazards": [],
      "severityScore": 0,
      "metarRaw": "METAR LIBD 152320Z 21006KT CAVOK 06/05 Q1022",
      "tafRaw": "TAF LIBD 152300Z 1600/1624 VRB05KT 9999 FEW030"
    },
    {
      "icao": "LIBG",
      "iata": "TAR",
      "name": "Taranto-Grottaglie Marcello Arlotta Airport",
      "updatedAt": null,
      "visibility_m": null,
      "taf_visibility_m": 8000,
      "worst_visibility_m": 8000,
      "ceiling_ft": null,
      "hazards": [],
      "severityScore": 0,
      "metarRaw": null,
      "tafRaw": "TAF LIBG 151700Z 1518/1603 VRB05KT 8000 FEW025"
    },
    {
      "icao": "LICA",
      "iata": "SUF",
      "name": "Lamezia Terme Sant'Eufemia International Airport",
      "updatedAt": "152320Z",
      "visibility_m": 10000,
      "taf_visibility_m": 10000,
      "worst_visibility_m": 10000,
      "ceiling_ft": null,
      "hazards": [],
      "severityScore": 0,
      "metarRaw": "METAR LICA 152320Z AUTO 08007KT 9999 NCD 07/06 Q1022",
      "tafRaw": "TAF LICA 152300Z 1600/1624 08005KT CAVOK \n  BECMG 1608/1610 08015KT"
    },
    {
      "icao": "LIRF",
      "iata": "FCO",
      "name": "Rome–Fiumicino Leonardo da Vinci International Airport",
      "updatedAt": "152320Z",
      "visibility_m": 10000,
      "taf_visibility_m": 10000,
      "worst_visibility_m": 10000,
      "ceiling_ft": null,
      "hazards": [],
      "severityScore": 0,
      "metarRaw": "METAR LIRF 152320Z 06004KT CAVOK 08/07 Q1021 NOSIG",
      "tafRaw": "TAF LIRF 152300Z 1600/1706 08007KT 9999 FEW020"
    },
    {
      "icao": "LIRN",
      "iata": "NAP",
      "name": "Naples International Airport",
      "updatedAt": "152320Z",
      "visibility_m": 10000,
      "taf_visibility_m": 10000,
      "worst_visibility_m": 10000,
      "ceiling_ft": null,
      "hazards": [],
      "severityScore": 0,
      "metarRaw": "METAR LIRN 152320Z 33003KT CAVOK 05/04 Q1021 NOSIG",
      "tafRaw": "TAF LIRN 152300Z 1600/1624 VRB05KT CAVOK"
    },
    {
      "icao": "LIRP",
      "iata": "PSA",
      "name": "Pisa International Airport",
      "updatedAt": "152315Z",
      "visibility_m": 10000,
      "taf_visibility_m": 10000,
      "worst_visibility_m": 10000,
      "ceiling_ft": null,
      "hazards": [],
      "severityScore": 0,
      "metarRaw": "METAR LIRP 152315Z VRB03KT 9999 SCT020 SCT060 09/08 Q1021 NOSIG",
      "tafRaw": "TAF LIRP 152300Z 1600/1624 VRB03KT 9999 SCT020 SCT040"
    },
    {
      "icao": "LLBG",
      "iata": "TLV",
      "name": "Ben Gurion International Airport",
      "updatedAt": "152320Z",
      "visibility_m": 10000,
      "taf_visibility_m": 10000,
      "worst_visibility_m": 10000,
      "ceiling_ft": 3500,
      "hazards": [],
      "severityScore": 0,
      "metarRaw": "METAR LLBG 152320Z 13005KT CAVOK 11/06 Q1024 NOSIG",
      "tafRaw": "TAF LLBG 152323Z 1600/1624 VRB03KT 9999 FEW045 \n  PROB40 \n  TEMPO 1600/1607 16005KT BKN035 \n  BECMG 1607/1609 29010KT SCT045 \n  PROB40 \n  TEMPO 1609/1615 BKN040 \n  BECMG 1615/1617 VRB04KT TX18/1611Z TN09/1604Z"
    },
    {
      "icao": "LWOH",
      "iata": "OHD",
      "name": "Ohrid St. Paul the Apostle Airport",
      "updatedAt": null,
      "visibility_m": null,
      "taf_visibility_m": 10000,
      "worst_visibility_m": 10000,
      "ceiling_ft": null,
      "hazards": [],
      "severityScore": 0,
      "metarRaw": null,
      "tafRaw": "TAF LWOH 152025Z 1521/1621 VRB02KT 9999 FEW040"
    },
    {
      "icao": "OEJN",
      "iata": "JED",
      "name": "King Abdulaziz International Airport",
      "updatedAt": "152300Z",
      "visibility_m": 10000,
      "taf_visibility_m": 7000,
      "worst_visibility_m": 7000,
      "ceiling_ft": null,
      "hazards": [],
      "severityScore": 0,
      "metarRaw": "METAR OEJN 152300Z 06006KT 9999 FEW040 24/09 Q1014 NOSIG",
      "tafRaw": "TAF OEJN 152300Z 1600/1706 09008KT 7000 FEW040 \n  BECMG 1606/1608 27010KT \n  BECMG 1618/1620 VRB03KT"
    },
    {
      "icao": "OEMA",
      "iata": "MED",
      "name": "Prince Mohammad Bin Abdulaziz Airport",
      "updatedAt": "152300Z",
      "visibility_m": 10000,
      "taf_visibility_m": 7000,
      "worst_visibility_m": 7000,
      "ceiling_ft": null,
      "hazards": [],
      "severityScore": 0,
      "metarRaw": "METAR OEMA 152300Z 02004KT CAVOK 14/M03 Q1023 NOSIG",
      "tafRaw": "TAF OEMA 152300Z 1600/1706 VRB03KT CAVOK \n  BECMG 1606/1608 08015KT 7000 NSC"
    },
    {
      "icao": "OMAA",
      "iata": "AUH",
      "name": "Zayed International Airport",
      "updatedAt": "152300Z",
      "visibility_m": 10000,
      "taf_visibility_m": 8000,
      "worst_visibility_m": 8000,
      "ceiling_ft": null,
      "hazards": [],
      "severityScore": 0,
      "metarRaw": "METAR OMAA 152300Z 31012KT 9999 FEW035 20/12 Q1017 NOSIG",
      "tafRaw": "TAF OMAA 152300Z 1600/1706 32012KT 8000 FEW030 \n  PROB30 \n  TEMPO 1605/1613 32015G25KT"
    },
    {
      "icao": "OMDB",
      "iata": "DXB",
      "name": "Dubai International Airport",
      "updatedAt": "152300Z",
      "visibility_m": 10000,
      "taf_visibility_m": 8000,
      "worst_visibility_m": 8000,
      "ceiling_ft": null,
      "hazards": [],
      "severityScore": 0,
      "metarRaw": "METAR OMDB 152300Z 28013KT CAVOK 21/11 Q1017 NOSIG",
      "tafRaw": "TAF OMDB 152300Z 1600/1706 29013KT 8000 FEW030 \n  PROB30 1600/1605 23008KT \n  PROB30 \n  TEMPO 1605/1615 29018G28KT \n  PROB30 1701/1705 23007KT"
    },
    {
      "icao": "UBBB",
      "iata": "GYD",
      "name": "Heydar Aliyev International Airport",
      "updatedAt": "152330Z",
      "visibility_m": 10000,
      "taf_visibility_m": 10000,
      "worst_visibility_m": 10000,
      "ceiling_ft": 3000,
      "hazards": [],
      "severityScore": 0,
      "metarRaw": "METAR UBBB 152330Z 16006KT 9999 BKN030 03/M00 Q1022 NOSIG",
      "tafRaw": "TAF UBBB 152302Z 1600/1624 17008KT 9999 SCT030 TX07/1610Z TNM00/1602Z \n  TEMPO 1600/1604 20010KT SCT015 \n  TEMPO 1606/1612 20014KT \n  TEMPO 1614/1616 24006KT SCT012 \n  BECMG 1616/1618 31006KT SCT010 SCT020"
    }
  ],
  "stats": {
    "icaoCount": 159,
    "metarReturned": 156,
    "tafReturned": 157,
    "stationsWritten": 159,
    "missingMetar": 3,
    "missingTaf": 2
  },
  "errors": []
}