{
  "generatedAt": "2026-01-16T03:47:32.203Z",
  "stations": [
    {
      "icao": "BKPR",
      "iata": "PRN",
      "name": "Priština Adem Jashari International Airport",
      "updatedAt": "160330Z",
      "visibility_m": 6000,
      "taf_visibility_m": 300,
      "worst_visibility_m": 300,
      "ceiling_ft": 5000,
      "hazards": [
        "FZFG",
        "BR",
        "FG"
      ],
      "severityScore": 100,
      "metarRaw": "METAR BKPR 160330Z 02005KT 6000 BKN050 02/02 Q1023 NOSIG",
      "tafRaw": "TAF BKPR 152330Z 1600/1624 VRB03KT 9999 SCT050 \n  TEMPO 1602/1609 3000 BR \n  PROB30 1603/1608 0300 FZFG BKN003"
    },
    {
      "icao": "EDDH",
      "iata": "HAM",
      "name": "Hamburg Helmut Schmidt Airport",
      "updatedAt": "160320Z",
      "visibility_m": 10000,
      "taf_visibility_m": 500,
      "worst_visibility_m": 500,
      "ceiling_ft": 100,
      "hazards": [
        "FG",
        "BR"
      ],
      "severityScore": 100,
      "metarRaw": "METAR EDDH 160320Z AUTO 14011KT CAVOK 06/04 Q1009 NOSIG",
      "tafRaw": "TAF EDDH 152300Z 1600/1706 15008KT CAVOK \n  BECMG 1610/1612 23009KT \n  BECMG 1614/1616 17003KT \n  BECMG 1623/1701 11005KT \n  PROB40 \n  TEMPO 1701/1706 3500 BR \n  PROB30 \n  TEMPO 1704/1706 0500 FG OVC001"
    },
    {
      "icao": "EDDN",
      "iata": "NUE",
      "name": "Nuremberg Airport",
      "updatedAt": "160320Z",
      "visibility_m": 10000,
      "taf_visibility_m": 800,
      "worst_visibility_m": 800,
      "ceiling_ft": 100,
      "hazards": [
        "FZFG",
        "BR",
        "FG"
      ],
      "severityScore": 100,
      "metarRaw": "METAR EDDN 160320Z AUTO 14005KT 120V190 CAVOK 02/M00 Q1015",
      "tafRaw": "TAF EDDN 152300Z 1600/1624 12007KT CAVOK \n  BECMG 1618/1621 4000 BR OVC002 \n  PROB40 \n  TEMPO 1619/1624 0800 FZFG OVC001"
    },
    {
      "icao": "EGBB",
      "iata": "BHX",
      "name": "Birmingham Airport",
      "updatedAt": "160320Z",
      "visibility_m": 4000,
      "taf_visibility_m": 300,
      "worst_visibility_m": 300,
      "ceiling_ft": 1500,
      "hazards": [
        "BR",
        "FG",
        "RA",
        "SHRA"
      ],
      "severityScore": 100,
      "metarRaw": "METAR EGBB 160320Z 15004KT 4000 BR SCT002 BKN015 04/04 Q1001",
      "tafRaw": "TAF EGBB 152256Z 1600/1624 21006KT 9999 BKN020 \n  TEMPO 1600/1609 4000 BR BKN003 \n  PROB40 \n  TEMPO 1600/1609 0300 FG BKN000 \n  PROB30 \n  TEMPO 1604/1608 SHRA \n  TEMPO 1609/1611 7000 BKN008 \n  TEMPO 1620/1624 BKN009 \n  TEMPO 1622/1624 7000 RA \n  PROB30 \n  TEMPO 1622/1624 4000 +RA BKN004"
    },
    {
      "icao": "EGNM",
      "iata": "LBA",
      "name": "Leeds Bradford Airport",
      "updatedAt": null,
      "visibility_m": null,
      "taf_visibility_m": 300,
      "worst_visibility_m": 300,
      "ceiling_ft": 400,
      "hazards": [
        "FG",
        "BR",
        "RA",
        "DZ"
      ],
      "severityScore": 100,
      "metarRaw": null,
      "tafRaw": "TAF EGNM 151657Z 1518/1618 VRB03KT 9999 FEW010 \n  BECMG 1518/1521 7000 BKN008 \n  TEMPO 1518/1524 3000 RADZ BR BKN004 \n  PROB40 \n  TEMPO 1518/1524 0300 FG VV/// \n  TEMPO 1600/1612 4000 BR BKN004 \n  BECMG 1610/1613 17010KT 9999 SCT025 \n  PROB30 \n  TEMPO 1615/1618 8000 BKN009 \n  BECMG 1616/1618 11005KT"
    },
    {
      "icao": "EGPD",
      "iata": "ABZ",
      "name": "Aberdeen International Airport",
      "updatedAt": "160320Z",
      "visibility_m": 2000,
      "taf_visibility_m": 300,
      "worst_visibility_m": 300,
      "ceiling_ft": null,
      "hazards": [
        "BR",
        "FZFG",
        "FG"
      ],
      "severityScore": 100,
      "metarRaw": "METAR EGPD 160320Z AUTO 01003KT 8000 NCD M04/M04 Q0998 TEMPO 2000 BR",
      "tafRaw": "TAF EGPD 152254Z 1600/1624 VRB03KT CAVOK \n  PROB30 \n  TEMPO 1600/1602 2000 BR MIFG \n  PROB30 1602/1610 0300 FZFG VV/// \n  TEMPO 1617/1624 2000 BR MIFG \n  PROB30 1620/1624 0300 FG VV///"
    },
    {
      "icao": "EGPF",
      "iata": "GLA",
      "name": "Glasgow Airport",
      "updatedAt": "160320Z",
      "visibility_m": 250,
      "taf_visibility_m": null,
      "worst_visibility_m": 250,
      "ceiling_ft": 200,
      "hazards": [
        "FZFG",
        "FG"
      ],
      "severityScore": 100,
      "metarRaw": "METAR EGPF 160320Z AUTO 05003KT 0250 R05/0400D FZFG BKN002 M02/M02 Q0998",
      "tafRaw": null
    },
    {
      "icao": "EKCH",
      "iata": "CPH",
      "name": "Copenhagen Kastrup Airport",
      "updatedAt": "160336Z",
      "visibility_m": 2000,
      "taf_visibility_m": 300,
      "worst_visibility_m": 300,
      "ceiling_ft": 300,
      "hazards": [
        "BR",
        "FG"
      ],
      "severityScore": 100,
      "metarRaw": "METAR EKCH 160336Z 15010KT 2000 BR BKN003 04/04 Q1013 BECMG 3000",
      "tafRaw": "TAF EKCH 160227Z 1603/1703 15017KT 0300 FG OVC001 \n  TEMPO 1603/1605 3000 BR OVC004 \n  BECMG 1605/1607 8000 NSW SCT005 \n  BECMG 1614/1617 BKN012 \n  BECMG 1617/1620 20006KT BKN025"
    },
    {
      "icao": "ENGM",
      "iata": "OSL",
      "name": "Oslo-Gardermoen International Airport",
      "updatedAt": "160320Z",
      "visibility_m": 4800,
      "taf_visibility_m": 1000,
      "worst_visibility_m": 1000,
      "ceiling_ft": 400,
      "hazards": [
        "BR",
        "SN",
        "RA",
        "FZDZ",
        "DZ"
      ],
      "severityScore": 100,
      "metarRaw": "METAR ENGM 160320Z 04004KT 4800 1800E -SNRA BR BKN004 BKN009 M00/M00 Q1009",
      "tafRaw": "TAF ENGM 152300Z 1600/1624 VRB03KT 5000 -SN BR BKN003 \n  TEMPO 1600/1605 1500 -FZDZ SNRA OVC006 \n  TEMPO 1605/1613 1000 RASN BR BKN006 \n  BECMG 1612/1614 18010KT RA \n  TEMPO 1613/1624 3000 BR BKN006"
    },
    {
      "icao": "EPGD",
      "iata": "GDN",
      "name": "Gdańsk Lech Wałęsa Airport",
      "updatedAt": "160330Z",
      "visibility_m": 1400,
      "taf_visibility_m": 500,
      "worst_visibility_m": 500,
      "ceiling_ft": 100,
      "hazards": [
        "BR",
        "FZFG",
        "FG"
      ],
      "severityScore": 100,
      "metarRaw": "METAR EPGD 160330Z 13010KT 1400 R29/1900N BR BKN001 M04/M05 Q1021",
      "tafRaw": "TAF EPGD 152330Z 1600/1624 16010KT 3000 BR BKN002 \n  TEMPO 1600/1610 1500 BR BKN001 \n  PROB40 1600/1609 0800 FZFG \n  BECMG 1610/1613 5000 BR OVC005 \n  BECMG 1613/1616 2000 BR BKN003 \n  TEMPO 1616/1624 0500 FZFG OVC001"
    },
    {
      "icao": "EPPO",
      "iata": "POZ",
      "name": "Poznań-Ławica Airport",
      "updatedAt": "160330Z",
      "visibility_m": 150,
      "taf_visibility_m": 200,
      "worst_visibility_m": 150,
      "ceiling_ft": 100,
      "hazards": [
        "FG",
        "BR",
        "DZ"
      ],
      "severityScore": 100,
      "metarRaw": "METAR EPPO 160330Z 11010KT 0150 R28/0650N FG VV001 01/00 Q1019",
      "tafRaw": "TAF EPPO 152330Z 1600/1624 13007KT 0800 FG BKN003 \n  TEMPO 1600/1609 0200 -DZ FG BKN001 \n  BECMG 1609/1612 3000 BR BKN005 \n  TEMPO 1609/1616 5000 BR SCT007 \n  BECMG 1616/1618 0800 FG BKN003 \n  TEMPO 1618/1624 0200 FG BKN001"
    },
    {
      "icao": "EPRZ",
      "iata": "RZE",
      "name": "Rzeszów-Jasionka Airport",
      "updatedAt": "160330Z",
      "visibility_m": 5000,
      "taf_visibility_m": 300,
      "worst_visibility_m": 300,
      "ceiling_ft": 400,
      "hazards": [
        "BR",
        "FG"
      ],
      "severityScore": 100,
      "metarRaw": "METAR EPRZ 160330Z 09008KT 5000 BR OVC004 01/00 Q1023",
      "tafRaw": "TAF EPRZ 152330Z 1600/1624 09006KT 3000 BR SCT002 OVC020 \n  TEMPO 1600/1606 0300 FG OVC002 \n  PROB40 \n  TEMPO 1600/1606 5000 BR \n  BECMG 1606/1609 CAVOK \n  PROB30 \n  TEMPO 1618/1624 3000 BR BKN004"
    },
    {
      "icao": "EPSC",
      "iata": "SZZ",
      "name": "Solidarity Szczecin–Goleniów Airport",
      "updatedAt": "160330Z",
      "visibility_m": 550,
      "taf_visibility_m": 300,
      "worst_visibility_m": 300,
      "ceiling_ft": 100,
      "hazards": [
        "FG",
        "BR"
      ],
      "severityScore": 100,
      "metarRaw": "METAR EPSC 160330Z 13012KT 0550 R31/1300N FG OVC001 02/02 Q1017",
      "tafRaw": "TAF EPSC 152330Z 1600/1624 13012KT 3000 BR BKN004 OVC020 \n  TEMPO 1600/1610 1500 BR \n  PROB40 1600/1608 0800 FG OVC001 \n  PROB40 1610/1615 6000 OVC005 \n  BECMG 1615/1618 0600 FG BKN002 \n  TEMPO 1617/1624 0300 FG OVC001"
    },
    {
      "icao": "EPWR",
      "iata": "WRO",
      "name": "Copernicus Wrocław Airport",
      "updatedAt": "160330Z",
      "visibility_m": 2300,
      "taf_visibility_m": 300,
      "worst_visibility_m": 300,
      "ceiling_ft": 100,
      "hazards": [
        "BR",
        "FG"
      ],
      "severityScore": 100,
      "metarRaw": "METAR EPWR 160330Z 11008KT 2300 BR NSC 01/00 Q1019",
      "tafRaw": "TAF EPWR 160230Z 1603/1703 12006KT 2000 BR BKN025 \n  TEMPO 1603/1609 0300 FG \n  PROB30 \n  TEMPO 1603/1609 BKN001 \n  BECMG 1609/1612 8000 \n  BECMG 1615/1618 2000 BR \n  TEMPO 1616/1621 0500 FG BKN002 \n  BECMG 1621/1624 0300 FG BKN002"
    },
    {
      "icao": "ESMS",
      "iata": "MMX",
      "name": "Malmö Sturup Airport",
      "updatedAt": "160320Z",
      "visibility_m": 200,
      "taf_visibility_m": 200,
      "worst_visibility_m": 200,
      "ceiling_ft": 200,
      "hazards": [
        "FG",
        "BR"
      ],
      "severityScore": 100,
      "metarRaw": "METAR ESMS 160320Z 14010KT 0200 R17/0800N R35/0800N FG VV002 03/03 Q1013",
      "tafRaw": "TAF ESMS 160227Z 1603/1703 14010KT 0200 FG OVC001 \n  TEMPO 1603/1606 1500 BR BKN004 \n  BECMG 1606/1608 6000 NSW BKN006 \n  BECMG 1611/1614 SCT006 \n  BECMG 1614/1617 3000 BR \n  BECMG 1701/1703 BKN004"
    },
    {
      "icao": "LBPD",
      "iata": "PDV",
      "name": "Plovdiv International Airport",
      "updatedAt": "160330Z",
      "visibility_m": 10000,
      "taf_visibility_m": 800,
      "worst_visibility_m": 800,
      "ceiling_ft": 200,
      "hazards": [
        "BR",
        "SN",
        "FG",
        "RA"
      ],
      "severityScore": 100,
      "metarRaw": "METAR LBPD 160330Z AUTO 00000KT 9999 FEW070/// 02/01 Q1022",
      "tafRaw": "TAF LBPD 152300Z 1600/1624 VRB03KT 9999 SCT070 \n  BECMG 1600/1602 3000 BR BKN015 \n  PROB30 \n  TEMPO 1602/1605 0800 BCFG VV002 \n  BECMG 1606/1608 10010KT 9999 NSW BKN030 \n  TEMPO 1614/1618 5000 RASN BKN015 OVC030 \n  TEMPO 1618/1624 3000 SN BKN010 OVC020"
    },
    {
      "icao": "LBSF",
      "iata": "SOF",
      "name": "Sofia Airport",
      "updatedAt": "160330Z",
      "visibility_m": 10000,
      "taf_visibility_m": 600,
      "worst_visibility_m": 600,
      "ceiling_ft": 600,
      "hazards": [
        "FZFG",
        "BR",
        "SN",
        "FG",
        "RA"
      ],
      "severityScore": 100,
      "metarRaw": "METAR LBSF 160330Z AUTO 00000KT 9999 OVC059/// 01/M00 Q1023 NOSIG",
      "tafRaw": "TAF LBSF 152300Z 1600/1624 VRB03KT 4000 BR BKN050 \n  TEMPO 1600/1607 1500 BR BKN010 \n  PROB40 1602/1606 0600 FZFG SCT003 BKN006 \n  BECMG 1608/1610 9999 NSW \n  BECMG 1613/1615 08010KT \n  TEMPO 1616/1620 5000 RASN SCT010 BKN015"
    },
    {
      "icao": "LEZL",
      "iata": "SVQ",
      "name": "Sevilla Airport",
      "updatedAt": "160330Z",
      "visibility_m": 4000,
      "taf_visibility_m": 3000,
      "worst_visibility_m": 3000,
      "ceiling_ft": 600,
      "hazards": [
        "BR",
        "RA",
        "TSRA",
        "SHRA",
        "TS"
      ],
      "severityScore": 100,
      "metarRaw": "METAR LEZL 160330Z AUTO 19010KT 160V260 4000 -RA BR BKN006 OVC010 13/13 Q1015",
      "tafRaw": "TAF LEZL 160200Z 1603/1703 24005KT CAVOK TX17/1614Z TN08/1607Z \n  TEMPO 1603/1605 VRB10KT 4000 RA SHRA FEW004CB BKN008 \n  PROB30 \n  TEMPO 1605/1609 3000 BR BKN001 \n  TEMPO 1617/1620 3000 TSRA SHRA FEW065CB"
    },
    {
      "icao": "LFOB",
      "iata": "BVA",
      "name": "Beauvais Tillé airport",
      "updatedAt": "160330Z",
      "visibility_m": 10000,
      "taf_visibility_m": 800,
      "worst_visibility_m": 800,
      "ceiling_ft": 800,
      "hazards": [
        "FG",
        "BR",
        "RA",
        "SHRA"
      ],
      "severityScore": 100,
      "metarRaw": "METAR LFOB 160330Z AUTO VRB02KT CAVOK 07/05 Q1008 BECMG BKN008 OVC012",
      "tafRaw": "TAF LFOB 152300Z 1600/1624 17010G20KT 9999 BKN030 \n  TEMPO 1600/1602 21020G30KT 3500 SHRA BKN009 OVC013 \n  BECMG 1602/1604 18010KT BKN012 \n  BECMG 1604/1607 BKN008 OVC012 \n  TEMPO 1606/1609 4000 BR BKN004 OVC007 \n  BECMG 1612/1614 BKN013 OVC018 \n  BECMG 1616/1619 12005KT \n  BECMG 1619/1622 4000 -RA BR SCT020 BKN060 \n  PROB30 1622/1624 0800 FG"
    },
    {
      "icao": "LHBP",
      "iata": "BUD",
      "name": "Budapest Liszt Ferenc International Airport",
      "updatedAt": "160330Z",
      "visibility_m": 3400,
      "taf_visibility_m": 500,
      "worst_visibility_m": 500,
      "ceiling_ft": 400,
      "hazards": [
        "BR",
        "FZFG",
        "FZDZ",
        "DZ",
        "FG"
      ],
      "severityScore": 100,
      "metarRaw": "METAR LHBP 160330Z 03003KT 360V060 3400 BR OVC004 00/M01 Q1022 NOSIG",
      "tafRaw": "TAF LHBP 152315Z 1600/1624 08005KT 5000 BR SCT006 OVC014 \n  TEMPO 1600/1610 02003KT 0500 -FZDZ FZFG OVC001 \n  TEMPO 1610/1618 3500 BR BKN005 OVC013 \n  TEMPO 1618/1624 1400 -FZDZ DZ BR OVC003"
    },
    {
      "icao": "LIMC",
      "iata": "MXP",
      "name": "Milan Malpensa International Airport",
      "updatedAt": "160320Z",
      "visibility_m": 800,
      "taf_visibility_m": 800,
      "worst_visibility_m": 800,
      "ceiling_ft": 200,
      "hazards": [
        "FG",
        "BR",
        "RA"
      ],
      "severityScore": 100,
      "metarRaw": "METAR LIMC 160320Z VRB01KT 0800 R35R/1900U R17L/1400U R35L/1600U FG OVC002 06/06 Q1021 NOSIG",
      "tafRaw": "TAF LIMC 152300Z 1600/1706 VRB05KT 2000 -RA BR BKN003 BKN040 \n  TEMPO 1600/1610 0800 FG SCT010 BKN040 \n  BECMG 1616/1618 1200 BCFG BKN003 BKN040"
    },
    {
      "icao": "LIPR",
      "iata": "RMI",
      "name": "Federico Fellini International Airport",
      "updatedAt": "160320Z",
      "visibility_m": 750,
      "taf_visibility_m": 300,
      "worst_visibility_m": 300,
      "ceiling_ft": 100,
      "hazards": [
        "FG",
        "BR"
      ],
      "severityScore": 100,
      "metarRaw": "METAR LIPR 160320Z AUTO 29003KT 0750 R30/1400D FG OVC002/// 06/06 Q1022",
      "tafRaw": "TAF LIPR 152300Z 1600/1624 VRB04KT 2000 BR BKN020 \n  TEMPO 1600/1609 0300 FG BKN001"
    },
    {
      "icao": "LIPY",
      "iata": "AOI",
      "name": "Marche Airport",
      "updatedAt": "160320Z",
      "visibility_m": 100,
      "taf_visibility_m": null,
      "worst_visibility_m": 100,
      "ceiling_ft": 200,
      "hazards": [
        "FG"
      ],
      "severityScore": 100,
      "metarRaw": "METAR LIPY 160320Z AUTO 23002KT 0100 R22/0400N FG VV002 08/08 Q1022",
      "tafRaw": null
    },
    {
      "icao": "LKMT",
      "iata": "OSR",
      "name": "Ostrava Leos Janáček Airport",
      "updatedAt": "160330Z",
      "visibility_m": 2500,
      "taf_visibility_m": 600,
      "worst_visibility_m": 600,
      "ceiling_ft": 900,
      "hazards": [
        "BR",
        "FZFG",
        "FG"
      ],
      "severityScore": 100,
      "metarRaw": "METAR LKMT 160330Z 22009KT 2500 BR OVC009 01/01 Q1021 NOSIG",
      "tafRaw": "TAF LKMT 152300Z 1600/1624 22008KT 4500 BR SCT008 BKN025 \n  PROB30 \n  TEMPO 1600/1612 1200 BR BKN005 OVC014 \n  TEMPO 1617/1624 VRB02KT 2500 BR BKN004 OVC012 \n  PROB40 \n  TEMPO 1621/1624 0600 FZFG VV002"
    },
    {
      "icao": "LKPR",
      "iata": "PRG",
      "name": "Václav Havel Airport Prague",
      "updatedAt": "160330Z",
      "visibility_m": 200,
      "taf_visibility_m": 200,
      "worst_visibility_m": 200,
      "ceiling_ft": 100,
      "hazards": [
        "FZFG",
        "FG",
        "BR"
      ],
      "severityScore": 100,
      "metarRaw": "METAR LKPR 160330Z 05004KT 0200 R24/0450N R30/0375N FZFG VV001 M01/M01 Q1017 NOSIG",
      "tafRaw": "TAF LKPR 160200Z 1603/1709 VRB02KT 0200 FG VV001 \n  TEMPO 1603/1607 0500 FZFG OVC002 \n  BECMG 1608/1610 11005KT 2000 BR BKN003 \n  TEMPO 1610/1617 3500 BR BKN005 \n  BECMG 1617/1619 1000 BCFG OVC002 \n  TEMPO 1619/1708 0300 FZFG VV001"
    },
    {
      "icao": "LOWW",
      "iata": "VIE",
      "name": "Vienna International Airport",
      "updatedAt": "160320Z",
      "visibility_m": 900,
      "taf_visibility_m": 300,
      "worst_visibility_m": 300,
      "ceiling_ft": 100,
      "hazards": [
        "FZFG",
        "FZDZ",
        "FG",
        "DZ",
        "BR"
      ],
      "severityScore": 100,
      "metarRaw": "METAR LOWW 160320Z 13006KT 0900 R16/1100N R29/0900N -FZDZ FZFG VV001 M01/M01 Q1022 NOSIG",
      "tafRaw": "TAF LOWW 160215Z 1603/1709 14006KT 0800 BCFG FEW001 BKN002 TX01/1702Z TNM01/1605Z \n  TEMPO 1603/1610 0500 FZFG VV001 \n  PROB40 \n  TEMPO 1603/1610 -FZDZ \n  PROB30 \n  TEMPO 1603/1609 0300 \n  FM161000 13010KT 3000 BR BKN002 \n  TEMPO 1610/1624 1200 -DZ BR"
    },
    {
      "icao": "LQSA",
      "iata": "SJJ",
      "name": "Sarajevo International Airport",
      "updatedAt": "160330Z",
      "visibility_m": 600,
      "taf_visibility_m": 300,
      "worst_visibility_m": 300,
      "ceiling_ft": 1000,
      "hazards": [
        "FZFG",
        "FG",
        "BR"
      ],
      "severityScore": 100,
      "metarRaw": "METAR LQSA 160330Z 31003KT 0600 R11/0500N FZFG BKN010 M01/M01 Q1022",
      "tafRaw": "TAF LQSA 152300Z 1600/1624 VRB02KT 2000 BR SCT050 TX05/1614Z TNM03/1605Z \n  TEMPO 1600/1609 0800 FZFG BKN008 \n  PROB40 1604/1608 0300 FZFG BKN002 \n  BECMG 1609/1611 8000 NSW"
    },
    {
      "icao": "LQTZ",
      "iata": "TZL",
      "name": "Tuzla International Airport",
      "updatedAt": "160330Z",
      "visibility_m": 3500,
      "taf_visibility_m": 500,
      "worst_visibility_m": 500,
      "ceiling_ft": 200,
      "hazards": [
        "BR",
        "FG"
      ],
      "severityScore": 100,
      "metarRaw": "METAR LQTZ 160330Z VRB02KT 3500 BR NSC 01/01 Q1022",
      "tafRaw": "TAF LQTZ 152300Z 1600/1624 VRB02KT 6000 SCT050 TX09/1613Z TN00/1605Z \n  TEMPO 1600/1608 3000 BR \n  PROB30 1601/1607 0500 FG BKN002 \n  PROB40 \n  TEMPO 1620/1624 2000 BR BKN004"
    },
    {
      "icao": "LRCL",
      "iata": "CLJ",
      "name": "Cluj Avram Iancu International Airport",
      "updatedAt": "160330Z",
      "visibility_m": 5000,
      "taf_visibility_m": 1500,
      "worst_visibility_m": 1500,
      "ceiling_ft": 600,
      "hazards": [
        "BR",
        "SN",
        "FZDZ",
        "DZ"
      ],
      "severityScore": 100,
      "metarRaw": "METAR LRCL 160330Z 07007KT 5000 BR OVC006 01/M00 Q1024",
      "tafRaw": "TAF LRCL 160200Z 1603/1612 VRB04KT 5000 BR OVC005 \n  PROB30 \n  TEMPO 1603/1606 1500 -FZDZ BR BKN002 OVC005 \n  BECMG 1606/1608 3000 -SN BR BKN010 OVC020 \n  BECMG 1610/1612 9999 NSW BKN020"
    },
    {
      "icao": "LRSB",
      "iata": "SBZ",
      "name": "Sibiu International Airport",
      "updatedAt": "160330Z",
      "visibility_m": 350,
      "taf_visibility_m": 350,
      "worst_visibility_m": 350,
      "ceiling_ft": 400,
      "hazards": [
        "FG",
        "RA",
        "FZFG",
        "BR",
        "FZDZ",
        "DZ"
      ],
      "severityScore": 100,
      "metarRaw": "METAR LRSB 160330Z 17001KT 0350 R27/0650N -RA FG OVC004 01/01 Q1022",
      "tafRaw": "TAF LRSB 152300Z 1600/1624 VRB04KT 0350 -DZ FG BKN001 OVC002 \n  PROB40 \n  TEMPO 1601/1607 0600 -FZDZ FZFG OVC002 \n  BECMG 1607/1609 5000 -RA BR BKN010 OVC025 \n  TEMPO 1609/1614 3000 RA BR \n  BECMG 1614/1616 11010KT 9999 NSW BKN015 BKN025"
    },
    {
      "icao": "LWSK",
      "iata": "SKP",
      "name": "Skopje International Airport",
      "updatedAt": null,
      "visibility_m": null,
      "taf_visibility_m": 600,
      "worst_visibility_m": 600,
      "ceiling_ft": 500,
      "hazards": [
        "FZFG",
        "BR",
        "FG"
      ],
      "severityScore": 100,
      "metarRaw": null,
      "tafRaw": "TAF LWSK 160230Z 1603/1703 VRB02KT 5000 BR NSC \n  TEMPO 1604/1608 1500 SCT010 \n  PROB30 \n  TEMPO 1605/1607 0600 FZFG BKN005 \n  BECMG 1609/1611 CAVOK"
    },
    {
      "icao": "LZIB",
      "iata": "BTS",
      "name": "M. R. Štefánik Airport",
      "updatedAt": "160330Z",
      "visibility_m": 3200,
      "taf_visibility_m": 500,
      "worst_visibility_m": 500,
      "ceiling_ft": 500,
      "hazards": [
        "BR",
        "FZDZ",
        "DZ",
        "FZFG",
        "FG"
      ],
      "severityScore": 100,
      "metarRaw": "METAR LZIB 160330Z 05006KT 3200 BR SCT004 OVC005 M00/M00 Q1022 REFZDZ NOSIG",
      "tafRaw": "TAF LZIB 152315Z 1600/1700 05006KT 3500 BR OVC006 \n  TEMPO 1600/1608 0500 -FZDZ FZFG OVC002 \n  TEMPO 1608/1616 6000 BKN014 \n  TEMPO 1618/1700 0600 -FZDZ FZFG OVC002"
    },
    {
      "icao": "LZKZ",
      "iata": "KSC",
      "name": "Košice International Airport",
      "updatedAt": "160330Z",
      "visibility_m": 7000,
      "taf_visibility_m": 500,
      "worst_visibility_m": 500,
      "ceiling_ft": 1600,
      "hazards": [
        "FZFG",
        "BR",
        "FZRA",
        "FZDZ",
        "FG",
        "RA",
        "DZ"
      ],
      "severityScore": 100,
      "metarRaw": "METAR LZKZ 160330Z 36004KT 7000 OVC016 01/M01 Q1023 NOSIG",
      "tafRaw": "TAF LZKZ 152315Z 1600/1700 VRB02KT 6000 BKN020 \n  TEMPO 1600/1608 2000 -FZRA BR BKN006 \n  PROB40 \n  TEMPO 1600/1607 0500 FZDZ FZFG OVC002 \n  TEMPO 1617/1700 2000 BR BKN006"
    },
    {
      "icao": "LZTT",
      "iata": "TAT",
      "name": "Poprad-Tatry Airport",
      "updatedAt": "160330Z",
      "visibility_m": 5000,
      "taf_visibility_m": 500,
      "worst_visibility_m": 500,
      "ceiling_ft": 400,
      "hazards": [
        "BR",
        "FZFG",
        "FZDZ",
        "FG",
        "DZ"
      ],
      "severityScore": 100,
      "metarRaw": "METAR LZTT 160330Z 11001KT 5000 BR OVC004 M00/M01 Q1021",
      "tafRaw": "TAF LZTT 152315Z 1600/1700 VRB02KT 6000 OVC014 \n  TEMPO 1600/1609 2000 BR OVC004 \n  PROB40 \n  TEMPO 1600/1608 0500 FZDZ FZFG OVC002 \n  TEMPO 1609/1616 8000 BKN017"
    },
    {
      "icao": "UAAA",
      "iata": "ALA",
      "name": "Almaty International Airport",
      "updatedAt": "160330Z",
      "visibility_m": 2200,
      "taf_visibility_m": 300,
      "worst_visibility_m": 300,
      "ceiling_ft": 3000,
      "hazards": [
        "BR",
        "SN",
        "FZFG",
        "BLSN",
        "SHSN",
        "FG"
      ],
      "severityScore": 100,
      "metarRaw": "METAR UAAA 160330Z 31002MPS 2200 -SN BR OVC030 M08/M09 Q1019 NOSIG",
      "tafRaw": "TAF UAAA 152302Z 1600/1624 32003G08MPS 3100 BR FU FEW004 BKN015CB OVC030 TXM08/1608Z TNM10/1603Z \n  TEMPO 1600/1604 0300 -SN FZFG OVC002 \n  TEMPO 1604/1609 1500 -SHSN BR BKN003 BKN015CB \n  FM160900 27004G09MPS 3100 -SHSN BR BKN011CB OVC020 \n  TEMPO 1609/1612 33005G12MPS 1200 -SN BR OVC003 \n  TEMPO 1612/1624 33005G12MPS 0800 SHSN BLSN FZFG VV002"
    },
    {
      "icao": "LFBD",
      "iata": "BOD",
      "name": "Bordeaux–Mérignac Airport",
      "updatedAt": "160330Z",
      "visibility_m": 4000,
      "taf_visibility_m": 300,
      "worst_visibility_m": 300,
      "ceiling_ft": 1000,
      "hazards": [
        "RA",
        "FG",
        "BR"
      ],
      "severityScore": 99,
      "metarRaw": "METAR LFBD 160330Z AUTO 19008KT 9999 FEW006 BKN043 BKN070 10/09 Q1012 TEMPO 4000 -RA BKN010 BKN040TCU",
      "tafRaw": "TAF LFBD 152300Z 1600/1706 21010KT 9999 BKN040 TX11/1615Z TN05/1705Z \n  TEMPO 1600/1607 4000 -RA BKN010 BKN040TCU \n  PROB40 \n  TEMPO 1600/1605 BKN005 \n  BECMG 1607/1609 15005KT \n  PROB40 \n  TEMPO 1613/1616 BKN014 \n  BECMG 1620/1622 VRB03KT \n  BECMG 1622/1624 4000 BR \n  TEMPO 1700/1706 0300 FG VV///"
    },
    {
      "icao": "EPKK",
      "iata": "KRK",
      "name": "Kraków John Paul II International Airport",
      "updatedAt": "160330Z",
      "visibility_m": 7000,
      "taf_visibility_m": 400,
      "worst_visibility_m": 400,
      "ceiling_ft": 4700,
      "hazards": [
        "FZFG",
        "FG",
        "BR"
      ],
      "severityScore": 95,
      "metarRaw": "METAR EPKK 160330Z 06006KT 7000 FEW008 BKN047 01/M01 Q1022",
      "tafRaw": "TAF EPKK 160230Z 1603/1703 06006KT 7000 OVC025 \n  PROB40 \n  TEMPO 1603/1608 0400 FG OVC001 \n  TEMPO 1608/1616 BKN012 \n  BECMG 1616/1619 4000 BR BKN004 \n  PROB40 \n  TEMPO 1621/1703 0600 FZFG OVC001"
    },
    {
      "icao": "EFTU",
      "iata": "TKU",
      "name": "Turku Airport",
      "updatedAt": "160320Z",
      "visibility_m": 9000,
      "taf_visibility_m": 4000,
      "worst_visibility_m": 4000,
      "ceiling_ft": 400,
      "hazards": [
        "FZRA",
        "RA",
        "DZ"
      ],
      "severityScore": 92,
      "metarRaw": "METAR EFTU 160320Z AUTO 18008KT 9000 OVC004 02/01 Q1022",
      "tafRaw": "TAF EFTU 160228Z 1603/1703 18007KT 9000 OVC003 \n  TEMPO 1603/1607 6000 DZRA \n  BECMG 1603/1605 BKN008 \n  BECMG 1605/1607 BKN013 \n  PROB30 \n  TEMPO 1608/1616 BKN015 \n  TEMPO 1616/1624 7000 -FZRA OVC008 \n  BECMG 1701/1703 4000 -FZRA BKN006"
    },
    {
      "icao": "LEMD",
      "iata": "MAD",
      "name": "Adolfo Suárez Madrid–Barajas Airport",
      "updatedAt": "160330Z",
      "visibility_m": 4000,
      "taf_visibility_m": 800,
      "worst_visibility_m": 800,
      "ceiling_ft": 1500,
      "hazards": [
        "BR",
        "FG",
        "RA",
        "DZ"
      ],
      "severityScore": 89,
      "metarRaw": "METAR LEMD 160330Z 15003KT 4000 BR FEW008 BKN015 06/06 Q1014 NOSIG",
      "tafRaw": "TAF LEMD 152300Z 1600/1706 18007KT 9999 BKN020 TX11/1615Z TN05/1607Z \n  TEMPO 1600/1610 3000 BR BCFG DZRA BKN004 BKN010 \n  PROB30 \n  TEMPO 1603/1608 0800 FG VV002 \n  TEMPO 1604/1611 VRB04KT \n  PROB30 \n  TEMPO 1609/1614 DZRA BKN014 \n  TEMPO 1623/1706 BKN010"
    },
    {
      "icao": "LIPE",
      "iata": "BLQ",
      "name": "Bologna Guglielmo Marconi Airport",
      "updatedAt": "160320Z",
      "visibility_m": 1800,
      "taf_visibility_m": 300,
      "worst_visibility_m": 300,
      "ceiling_ft": 1000,
      "hazards": [
        "BR",
        "FG"
      ],
      "severityScore": 87,
      "metarRaw": "METAR LIPE 160320Z VRB02KT 1800 BR OVC010 06/06 Q1022",
      "tafRaw": "TAF LIPE 152300Z 1600/1624 VRB04KT 2000 BR BKN020 \n  TEMPO 1600/1609 0300 FG BKN001"
    },
    {
      "icao": "OJAI",
      "iata": "AMM",
      "name": "Queen Alia International Airport",
      "updatedAt": "160300Z",
      "visibility_m": 200,
      "taf_visibility_m": 800,
      "worst_visibility_m": 200,
      "ceiling_ft": null,
      "hazards": [
        "FG",
        "BR"
      ],
      "severityScore": 85,
      "metarRaw": "METAR OJAI 160300Z 09002KT 0200 FG NSC 01/01 Q1024 NOSIG",
      "tafRaw": "TAF OJAI 152200Z 1600/1706 VRB02KT 5000 HZ NSC \n  PROB30 1600/1607 1500 BR \n  PROB40 1602/1607 0800 FG \n  BECMG 1607/1609 15008KT FEW030"
    },
    {
      "icao": "LPPR",
      "iata": "OPO",
      "name": "Francisco de Sá Carneiro Airport",
      "updatedAt": "160330Z",
      "visibility_m": 10000,
      "taf_visibility_m": 2000,
      "worst_visibility_m": 2000,
      "ceiling_ft": 800,
      "hazards": [
        "RA",
        "SHRA",
        "TS"
      ],
      "severityScore": 76,
      "metarRaw": "METAR LPPR 160330Z 16008KT 9999 FEW008 SCT017 09/09 Q1013 RESHRA",
      "tafRaw": "TAF LPPR 152300Z 1600/1624 VRB02KT 9999 SCT013 BKN030 \n  TEMPO 1600/1624 5000 SHRA BKN010 FEW018CB \n  PROB40 \n  TEMPO 1602/1620 VRB15G25KT 2000 +TSRAGS BKN008 SCT015CB \n  BECMG 1603/1605 21010KT \n  BECMG 1610/1612 30007KT \n  BECMG 1620/1622 VRB02KT"
    },
    {
      "icao": "LIBR",
      "iata": "BDS",
      "name": "Brindisi Airport",
      "updatedAt": "160320Z",
      "visibility_m": 6000,
      "taf_visibility_m": 1500,
      "worst_visibility_m": 1500,
      "ceiling_ft": 100,
      "hazards": [
        "BR",
        "FG"
      ],
      "severityScore": 75,
      "metarRaw": "METAR LIBR 160320Z 21002KT 6000 FEW020 07/07 Q1021",
      "tafRaw": "TAF LIBR 152300Z 1600/1624 VRB05KT 9999 FEW025 \n  TEMPO 1600/1607 1500 BCFG BKN001"
    },
    {
      "icao": "LIPQ",
      "iata": "TRS",
      "name": "Trieste–Friuli Venezia Giulia Airport",
      "updatedAt": "160320Z",
      "visibility_m": 1400,
      "taf_visibility_m": 1200,
      "worst_visibility_m": 1200,
      "ceiling_ft": 100,
      "hazards": [
        "BR",
        "FG"
      ],
      "severityScore": 75,
      "metarRaw": "METAR LIPQ 160320Z AUTO 30002KT 1400 R09/P2000N BR OVC020/// 08/07 Q1021",
      "tafRaw": "TAF LIPQ 152300Z 1600/1624 VRB04KT 3000 BR BKN020 \n  TEMPO 1600/1606 1200 BCFG BKN001 \n  BECMG 1608/1610 8000 \n  BECMG 1616/1618 3000 BR"
    },
    {
      "icao": "LRBV",
      "iata": "GHV",
      "name": "Brașov-Ghimbav International Airport",
      "updatedAt": "160330Z",
      "visibility_m": 900,
      "taf_visibility_m": 1500,
      "worst_visibility_m": 900,
      "ceiling_ft": 300,
      "hazards": [
        "SN",
        "BR"
      ],
      "severityScore": 73,
      "metarRaw": "METAR LRBV 160330Z AUTO 00000KT 1000 0900 R21/1300D -SN VV003 00/M00 Q1023",
      "tafRaw": "TAF LRBV 160200Z 1603/1612 VRB04KT 3000 -SN BR BKN010 OVC030 \n  BECMG 1606/1608 08010KT \n  TEMPO 1606/1612 1500 SN BR BKN005 OVC025"
    },
    {
      "icao": "LICC",
      "iata": "CTA",
      "name": "Catania-Fontanarossa Airport",
      "updatedAt": "160320Z",
      "visibility_m": 6000,
      "taf_visibility_m": 3000,
      "worst_visibility_m": 3000,
      "ceiling_ft": null,
      "hazards": [
        "BR",
        "TSRA",
        "TS",
        "RA"
      ],
      "severityScore": 72,
      "metarRaw": "METAR LICC 160320Z 24005KT 6000 NSC 06/03 Q1021",
      "tafRaw": "TAF LICC 152300Z 1600/1624 VRB05KT 9999 FEW015 \n  TEMPO 1600/1606 3000 BR \n  BECMG 1610/1612 08010KT \n  TEMPO 1621/1624 4000 TSRA"
    },
    {
      "icao": "EGKK",
      "iata": "LGW",
      "name": "London Gatwick Airport",
      "updatedAt": "160320Z",
      "visibility_m": 10000,
      "taf_visibility_m": 5000,
      "worst_visibility_m": 5000,
      "ceiling_ft": 400,
      "hazards": [
        "BR",
        "RA",
        "SHRA"
      ],
      "severityScore": 71,
      "metarRaw": "METAR EGKK 160320Z 17001KT 9999 FEW036 04/04 Q1004",
      "tafRaw": "TAF EGKK 152258Z 1600/1706 25010KT 9999 BKN016 \n  BECMG 1600/1603 19006KT \n  PROB40 \n  TEMPO 1600/1606 5000 BR BKN004 \n  PROB40 \n  TEMPO 1606/1615 6000 SHRA BKN008 \n  BECMG 1615/1618 13010KT \n  PROB30 \n  TEMPO 1615/1624 7000 SHRA BKN013 \n  TEMPO 1700/1706 7000 RA -SHRA BKN006"
    },
    {
      "icao": "ESGG",
      "iata": "GOT",
      "name": "Göteborg Landvetter Airport",
      "updatedAt": "160320Z",
      "visibility_m": 6000,
      "taf_visibility_m": 1200,
      "worst_visibility_m": 1200,
      "ceiling_ft": 200,
      "hazards": [
        "RA",
        "BR"
      ],
      "severityScore": 67,
      "metarRaw": "METAR ESGG 160320Z 15010KT 6000 -RA OVC002 04/03 Q1010",
      "tafRaw": "TAF ESGG 160230Z 1603/1703 16009KT 5000 -RA OVC002 \n  TEMPO 1603/1606 1200 RA BR \n  PROB40 1607/1614 SCT005 BKN015 \n  PROB40 1609/1618 16015G25KT"
    },
    {
      "icao": "LBWN",
      "iata": "VAR",
      "name": "Varna Airport",
      "updatedAt": "160330Z",
      "visibility_m": 10000,
      "taf_visibility_m": 1200,
      "worst_visibility_m": 1200,
      "ceiling_ft": 500,
      "hazards": [
        "RA",
        "SN"
      ],
      "severityScore": 65,
      "metarRaw": "METAR LBWN 160330Z AUTO 08004KT 340V130 9999 -RA FEW010/// OVC020/// 03/02 Q1024 NOSIG",
      "tafRaw": "TAF LBWN 152300Z 1600/1624 VRB03KT 7000 SCT015 OVC030 \n  BECMG 1601/1603 04010KT \n  BECMG 1603/1605 5000 RASN \n  BECMG 1605/1607 3000 SN BKN005 OVC020 \n  PROB40 \n  TEMPO 1607/1614 1200 SN \n  BECMG 1614/1616 9999 NSW BKN045"
    },
    {
      "icao": "LPPT",
      "iata": "LIS",
      "name": "Lisbon Humberto Delgado Airport",
      "updatedAt": "160330Z",
      "visibility_m": 10000,
      "taf_visibility_m": 3000,
      "worst_visibility_m": 3000,
      "ceiling_ft": 1200,
      "hazards": [
        "SHRA",
        "TS",
        "RA"
      ],
      "severityScore": 63,
      "metarRaw": "METAR LPPT 160330Z 25006KT 9999 VCSH FEW015 FEW020TCU SCT030 10/09 Q1016",
      "tafRaw": "TAF LPPT 152300Z 1600/1706 29007KT 9999 FEW015 SCT035 \n  TEMPO 1600/1706 7000 SHRA BKN012 FEW020CB \n  PROB30 \n  TEMPO 1608/1619 VRB10G20KT 3000 TSRAGS SCT018CB \n  BECMG 1613/1615 32010KT \n  BECMG 1619/1621 30007KT"
    },
    {
      "icao": "EGGP",
      "iata": "LPL",
      "name": "Liverpool John Lennon Airport",
      "updatedAt": "160320Z",
      "visibility_m": 450,
      "taf_visibility_m": null,
      "worst_visibility_m": 450,
      "ceiling_ft": null,
      "hazards": [
        "FG"
      ],
      "severityScore": 60,
      "metarRaw": "METAR EGGP 160320Z AUTO 15010KT 0450 R27/M0050N FG OVC001/// 02/02 Q1000",
      "tafRaw": null
    },
    {
      "icao": "LFPO",
      "iata": "ORY",
      "name": "Paris-Orly Airport",
      "updatedAt": "160330Z",
      "visibility_m": 10000,
      "taf_visibility_m": 4000,
      "worst_visibility_m": 4000,
      "ceiling_ft": 1000,
      "hazards": [
        "BR",
        "RA",
        "SHRA",
        "DZ"
      ],
      "severityScore": 58,
      "metarRaw": "METAR LFPO 160330Z AUTO 20005KT 9999 FEW012 SCT045 BKN054 09/08 Q1009 TEMPO BKN010",
      "tafRaw": "TAF LFPO 152300Z 1600/1706 21010KT 9999 SCT012 BKN020 \n  PROB40 \n  TEMPO 1600/1602 22010G20KT 4000 -RA BKN012 \n  PROB30 \n  TEMPO 1602/1605 BKN010 \n  TEMPO 1605/1612 BKN012 \n  PROB40 \n  TEMPO 1605/1610 BKN007 \n  PROB30 \n  TEMPO 1612/1615 -SHRA \n  BECMG 1616/1618 15005KT CAVOK \n  PROB40 \n  TEMPO 1621/1702 -RA \n  PROB30 1622/1701 4000 -RADZ BKN012 \n  BECMG 1702/1705 BKN006 \n  PROB40 \n  TEMPO 1705/1706 4000 BR BKN004"
    },
    {
      "icao": "LPMA",
      "iata": "FNC",
      "name": "Madeira International Airport Cristiano Ronaldo",
      "updatedAt": "160330Z",
      "visibility_m": 9000,
      "taf_visibility_m": 5000,
      "worst_visibility_m": 5000,
      "ceiling_ft": 1400,
      "hazards": [
        "RA",
        "DZ",
        "BR",
        "SHRA"
      ],
      "severityScore": 58,
      "metarRaw": "METAR LPMA 160330Z 05011KT 020V080 9000 -RADZ BKN014 16/13 Q1023",
      "tafRaw": "TAF LPMA 152300Z 1600/1624 VRB05KT 9999 SCT015 BKN030 \n  TEMPO 1600/1603 5000 RADZ BR SCT008 BKN013 \n  BECMG 1601/1603 35013KT \n  PROB30 \n  TEMPO 1603/1624 35020G32KT 8000 SHRA BKN013 FEW018CB"
    },
    {
      "icao": "LUKK",
      "iata": "RMO",
      "name": "Chişinău International Airport",
      "updatedAt": "160330Z",
      "visibility_m": 2000,
      "taf_visibility_m": null,
      "worst_visibility_m": 2000,
      "ceiling_ft": 300,
      "hazards": [
        "SN"
      ],
      "severityScore": 58,
      "metarRaw": "METAR LUKK 160330Z VRB03KT 8000 -SN OVC006 M13/M13 Q1030 TEMPO 2000 SN BKN003",
      "tafRaw": null
    },
    {
      "icao": "ENZV",
      "iata": "SVG",
      "name": "Stavanger Airport, Sola",
      "updatedAt": "160320Z",
      "visibility_m": 10000,
      "taf_visibility_m": 4000,
      "worst_visibility_m": 4000,
      "ceiling_ft": 400,
      "hazards": [
        "RA",
        "BR"
      ],
      "severityScore": 57,
      "metarRaw": "METAR ENZV 160320Z AUTO 12007KT 9999 -RA OVC045/// 06/02 Q1002",
      "tafRaw": "TAF ENZV 152300Z 1600/1624 12012KT 9999 -RA FEW020 BKN030 \n  TEMPO 1602/1614 RA \n  BECMG 1611/1613 21015KT SCT004 BKN010 \n  TEMPO 1611/1616 4000 BR BKN004 \n  BECMG 1614/1616 27015KT \n  BECMG 1616/1618 VRB05KT SCT012 BKN018"
    },
    {
      "icao": "LQBK",
      "iata": "BNX",
      "name": "Banja Luka International Airport",
      "updatedAt": "160330Z",
      "visibility_m": 10000,
      "taf_visibility_m": 3000,
      "worst_visibility_m": 3000,
      "ceiling_ft": 400,
      "hazards": [
        "BR",
        "RA"
      ],
      "severityScore": 57,
      "metarRaw": "METAR LQBK 160330Z VRB02KT CAVOK 02/02 Q1021 NOSIG",
      "tafRaw": "TAF LQBK 152300Z 1600/1624 15005KT 9999 SCT047 TX09/1613Z TN02/1605Z \n  PROB30 \n  TEMPO 1600/1606 4000 -RA BR \n  TEMPO 1622/1624 3000 BR BKN004"
    },
    {
      "icao": "EETN",
      "iata": "TLL",
      "name": "Lennart Meri Tallinn Airport",
      "updatedAt": "160320Z",
      "visibility_m": 9000,
      "taf_visibility_m": 2000,
      "worst_visibility_m": 2000,
      "ceiling_ft": 3100,
      "hazards": [
        "SN",
        "FZDZ",
        "DZ"
      ],
      "severityScore": 56,
      "metarRaw": "METAR EETN 160320Z 17011KT 9000 -SN OVC031 M07/M08 Q1026",
      "tafRaw": "TAF EETN 152330Z 1600/1624 17012KT 9999 SCT008 OVC025 \n  TEMPO 1600/1602 2000 SN DRSN BKN005 OVC025 \n  PROB30 \n  TEMPO 1600/1602 -FZDZ \n  TEMPO 1602/1618 BKN006 BKN012"
    },
    {
      "icao": "LIME",
      "iata": "BGY",
      "name": "Milan Bergamo Airport / Antonio Locatelli Air Base",
      "updatedAt": "160250Z",
      "visibility_m": 4500,
      "taf_visibility_m": 800,
      "worst_visibility_m": 800,
      "ceiling_ft": 5500,
      "hazards": [
        "BR",
        "FG"
      ],
      "severityScore": 55,
      "metarRaw": "METAR LIME 160250Z 01003KT 4500 BR BKN055 05/05 Q1021 NOSIG",
      "tafRaw": "TAF LIME 152300Z 1600/1624 VRB03KT 2000 BR BKN020 \n  TEMPO 1600/1608 0800 FG BKN005 \n  BECMG 1616/1618 1200 BCFG BKN005"
    },
    {
      "icao": "LTFM",
      "iata": "IST",
      "name": "İstanbul Airport",
      "updatedAt": "160320Z",
      "visibility_m": 7000,
      "taf_visibility_m": 2500,
      "worst_visibility_m": 2500,
      "ceiling_ft": 7000,
      "hazards": [
        "BR",
        "RA",
        "SHRA",
        "SN"
      ],
      "severityScore": 54,
      "metarRaw": "METAR LTFM 160320Z 32004KT 280V340 7000 FEW007 SCT025 BKN070 09/08 Q1023 NOSIG RMK RWY17L 30004KT 280V360 RWY34L VRB02KT RWY16R 28002KT RWY36 32004KT RWY18 29003KT",
      "tafRaw": "TAF LTFM 152240Z 1600/1706 VRB02KT 9999 SCT025 BKN070 \n  PROB30 \n  TEMPO 1603/1606 2500 -RA BR BKN009 \n  BECMG 1606/1610 04017G27KT -SHRA SCT008 BKN022 \n  TEMPO 1618/1622 -SHRASN \n  TEMPO 1623/1703 -SHSNRA"
    },
    {
      "icao": "LRBC",
      "iata": "BCM",
      "name": "Bacău George Enescu International  Airport",
      "updatedAt": "160330Z",
      "visibility_m": 6000,
      "taf_visibility_m": 3000,
      "worst_visibility_m": 3000,
      "ceiling_ft": 800,
      "hazards": [
        "BR",
        "SN"
      ],
      "severityScore": 53,
      "metarRaw": "METAR LRBC 160330Z 33009KT 6000 OVC008 M06/M08 Q1029",
      "tafRaw": "TAF LRBC 160200Z 1603/1612 35007KT 5000 BR OVC010 \n  PROB30 \n  TEMPO 1603/1608 3000 -SN BR \n  BECMG 1608/1610 9999 NSW SCT020"
    },
    {
      "icao": "UGKO",
      "iata": "KUT",
      "name": "David the Builder Kutaisi International Airport",
      "updatedAt": "160330Z",
      "visibility_m": 10000,
      "taf_visibility_m": 2000,
      "worst_visibility_m": 2000,
      "ceiling_ft": 2500,
      "hazards": [
        "BR",
        "SHSN",
        "SN",
        "RA"
      ],
      "severityScore": 50,
      "metarRaw": "METAR UGKO 160330Z 10007KT 9999 SCT016 BKN025 01/M04 Q1021 NOSIG",
      "tafRaw": "TAF UGKO 152300Z 1600/1624 08007KT 9999 BKN050 TX02/1612Z TNM01/1601Z \n  TEMPO 1600/1603 CAVOK \n  TEMPO 1603/1609 2000 SHSN SCT007 BKN015CB OVC030 \n  TEMPO 1609/1620 3000 SHSNRA SCT010 BKN020 OVC040 \n  TEMPO 1620/1624 5000 SNRA BR BKN012 OVC020"
    },
    {
      "icao": "LEBL",
      "iata": "BCN",
      "name": "Josep Tarradellas Barcelona-El Prat Airport",
      "updatedAt": "160330Z",
      "visibility_m": 8000,
      "taf_visibility_m": 3000,
      "worst_visibility_m": 3000,
      "ceiling_ft": 1000,
      "hazards": [
        "BR",
        "SHRA",
        "RA"
      ],
      "severityScore": 48,
      "metarRaw": "METAR LEBL 160330Z 33004KT 300V360 8000 FEW010 SCT020 06/05 Q1014 NOSIG",
      "tafRaw": "TAF LEBL 152300Z 1600/1624 34007KT 9999 SCT015 TX14/1612Z TN06/1606Z \n  PROB30 \n  TEMPO 1600/1607 3000 BR BKN010 \n  BECMG 1611/1613 14006KT \n  BECMG 1618/1620 34007KT \n  PROB40 \n  TEMPO 1620/1624 4000 SHRA FEW020TCU"
    },
    {
      "icao": "ENBR",
      "iata": "BGO",
      "name": "Bergen Airport, Flesland",
      "updatedAt": "160320Z",
      "visibility_m": 10000,
      "taf_visibility_m": 4000,
      "worst_visibility_m": 4000,
      "ceiling_ft": 500,
      "hazards": [
        "RA",
        "BR"
      ],
      "severityScore": 47,
      "metarRaw": "METAR ENBR 160320Z AUTO 12006KT 9999 -RA FEW025/// SCT029/// BKN035/// 06/01 Q1002 RERA RMK WIND 1200FT 14016KT",
      "tafRaw": "TAF ENBR 152300Z 1600/1624 14012KT 9999 SCT020 BKN040 \n  BECMG 1601/1603 08005KT \n  BECMG 1608/1610 BKN012 \n  TEMPO 1612/1619 4000 RA BKN005 \n  BECMG 1621/1623 BKN020"
    },
    {
      "icao": "EPRA",
      "iata": "RDO",
      "name": "Warsaw Radom Airport",
      "updatedAt": "160330Z",
      "visibility_m": 7000,
      "taf_visibility_m": 3000,
      "worst_visibility_m": 3000,
      "ceiling_ft": 500,
      "hazards": [
        "RA",
        "BR"
      ],
      "severityScore": 47,
      "metarRaw": "METAR EPRA 160330Z 12008KT 7000 OVC005 M01/M03 Q1024",
      "tafRaw": "TAF EPRA 160230Z 1603/1612 12007KT 7000 OVC006 \n  TEMPO 1603/1606 3000 BR OVC003 \n  BECMG 1606/1609 7000 BKN012"
    },
    {
      "icao": "ESSA",
      "iata": "ARN",
      "name": "Stockholm-Arlanda Airport",
      "updatedAt": "160320Z",
      "visibility_m": 10000,
      "taf_visibility_m": 3000,
      "worst_visibility_m": 3000,
      "ceiling_ft": 900,
      "hazards": [
        "BR",
        "RA"
      ],
      "severityScore": 47,
      "metarRaw": "METAR ESSA 160320Z 16013KT 9999 OVC009 02/01 Q1017 NOSIG",
      "tafRaw": "TAF ESSA 160230Z 1603/1703 17014KT 9999 BKN010 \n  PROB40 1603/1607 4000 RA OVC008 \n  BECMG 1607/1609 OVC006 \n  PROB40 1609/1616 3000 -RA BR BKN004 \n  TEMPO 1616/1623 18015G25KT"
    },
    {
      "icao": "EDFH",
      "iata": "HHN",
      "name": "Frankfurt-Hahn Airport",
      "updatedAt": "160320Z",
      "visibility_m": 10000,
      "taf_visibility_m": 3000,
      "worst_visibility_m": 3000,
      "ceiling_ft": 600,
      "hazards": [
        "FG"
      ],
      "severityScore": 45,
      "metarRaw": "METAR EDFH 160320Z 18014KT 9999 FEW023 SCT049 08/05 Q1010",
      "tafRaw": "TAF EDFH 152300Z 1600/1624 17010KT CAVOK \n  PROB30 \n  TEMPO 1600/1604 17015G25KT \n  TEMPO 1604/1611 BKN010 \n  PROB30 \n  TEMPO 1605/1608 BKN006 \n  TEMPO 1618/1624 3000 BCFG"
    },
    {
      "icao": "EDJA",
      "iata": "FMM",
      "name": "Memmingen Allgau Airport",
      "updatedAt": "160320Z",
      "visibility_m": 10000,
      "taf_visibility_m": 800,
      "worst_visibility_m": 800,
      "ceiling_ft": null,
      "hazards": [
        "FG"
      ],
      "severityScore": 45,
      "metarRaw": "METAR EDJA 160320Z AUTO 17004KT 9999 // NCD M02/M04 Q1015",
      "tafRaw": "TAF EDJA 160200Z 1603/1612 VRB03KT CAVOK \n  TEMPO 1603/1609 0800 BCFG"
    },
    {
      "icao": "EPLB",
      "iata": "LUZ",
      "name": "Lublin Airport",
      "updatedAt": "160330Z",
      "visibility_m": 5000,
      "taf_visibility_m": null,
      "worst_visibility_m": 5000,
      "ceiling_ft": 1700,
      "hazards": [
        "BR",
        "SN"
      ],
      "severityScore": 45,
      "metarRaw": "METAR EPLB 160330Z 10007KT 5000 -SN BR OVC017 M07/M08 Q1026",
      "tafRaw": null
    },
    {
      "icao": "EPMO",
      "iata": "WMI",
      "name": "Modlin Airport",
      "updatedAt": "160330Z",
      "visibility_m": 2500,
      "taf_visibility_m": 1500,
      "worst_visibility_m": 1500,
      "ceiling_ft": 800,
      "hazards": [
        "BR"
      ],
      "severityScore": 45,
      "metarRaw": "METAR EPMO 160330Z 07003KT 350V100 2500 BR BKN008 M07/M07 Q1024",
      "tafRaw": "TAF EPMO 152330Z 1600/1624 10007KT 3000 BR OVC005 \n  TEMPO 1600/1606 1500 BR BKN004 \n  PROB40 1600/1606 6000 \n  BECMG 1606/1608 9999 \n  BECMG 1611/1614 BKN012 \n  BECMG 1614/1616 BKN015"
    },
    {
      "icao": "LIPX",
      "iata": "VRN",
      "name": "Verona Villafranca Valerio Catullo Airport",
      "updatedAt": "160250Z",
      "visibility_m": 5000,
      "taf_visibility_m": 1200,
      "worst_visibility_m": 1200,
      "ceiling_ft": 5000,
      "hazards": [
        "BR",
        "FG"
      ],
      "severityScore": 40,
      "metarRaw": "METAR LIPX 160250Z VRB02KT 5000 BR BKN050 04/03 Q1022",
      "tafRaw": "TAF LIPX 152300Z 1600/1624 VRB04KT 4000 BR SCT020 BKN060 \n  TEMPO 1600/1608 1500 BCFG BKN010 BKN060 \n  TEMPO 1620/1624 1200 BCFG BKN010 BKN060"
    },
    {
      "icao": "LRCV",
      "iata": "CRA",
      "name": "Craiova International Airport",
      "updatedAt": "160330Z",
      "visibility_m": 4700,
      "taf_visibility_m": 3000,
      "worst_visibility_m": 3000,
      "ceiling_ft": 1000,
      "hazards": [
        "BR",
        "SN"
      ],
      "severityScore": 40,
      "metarRaw": "METAR LRCV 160330Z 09009KT 4700 BR NSC M01/M01 Q1024",
      "tafRaw": "TAF LRCV 160200Z 1603/1612 09010KT 5000 BR NSC \n  TEMPO 1603/1606 3000 BR \n  BECMG 1606/1608 9999 NSW BKN015 BKN040 \n  TEMPO 1609/1612 3000 -SN BR BKN010 OVC030"
    },
    {
      "icao": "LRSV",
      "iata": "SCV",
      "name": "Suceava Stefan cel Mare Airport",
      "updatedAt": "160330Z",
      "visibility_m": 2000,
      "taf_visibility_m": 3000,
      "worst_visibility_m": 2000,
      "ceiling_ft": 1400,
      "hazards": [
        "BR",
        "SN"
      ],
      "severityScore": 40,
      "metarRaw": "METAR LRSV 160330Z 06007KT 2000 -SN BR OVC014 M10/M11 Q1027",
      "tafRaw": "TAF LRSV 160200Z 1603/1612 08007KT 3000 BR BKN002 \n  BECMG 1609/1611 9999 NSW SCT005"
    },
    {
      "icao": "LRTM",
      "iata": "TGM",
      "name": "Târgu Mureş Transilvania International Airport",
      "updatedAt": "160330Z",
      "visibility_m": 4300,
      "taf_visibility_m": 3000,
      "worst_visibility_m": 3000,
      "ceiling_ft": 1000,
      "hazards": [
        "BR",
        "SN"
      ],
      "severityScore": 40,
      "metarRaw": "METAR LRTM 160330Z AUTO 07003KT 4300 BR FEW015/// BKN085/// BKN110/// M00/M01 Q1024",
      "tafRaw": "TAF LRTM 160200Z 1603/1612 VRB04KT 5000 -SN BR BKN030 \n  TEMPO 1608/1612 3000 SN BR BKN010 OVC025"
    },
    {
      "icao": "LTAC",
      "iata": "ESB",
      "name": "Esenboğa International Airport",
      "updatedAt": "160320Z",
      "visibility_m": 10000,
      "taf_visibility_m": 2000,
      "worst_visibility_m": 2000,
      "ceiling_ft": 2500,
      "hazards": [
        "SN",
        "RA",
        "BR"
      ],
      "severityScore": 40,
      "metarRaw": "METAR LTAC 160320Z 22007KT 9999 -RASN SCT010 BKN025 BKN080 03/00 Q1021 NOSIG RMK RWY21C 20006KT RWY03L 21007KT RWY21R 19006KT RWY03R 20006KT RWY21L 19007KT",
      "tafRaw": "TAF LTAC 152240Z 1600/1624 21008KT 9999 SCT035 BKN100 \n  PROB40 \n  TEMPO 1603/1607 2000 -SN BR SCT008 BKN030 BKN080 \n  TEMPO 1616/1620 -RA SCT010 BKN030 BKN080 \n  TEMPO 1620/1624 -RASN SCT010 BKN030 BKN080"
    },
    {
      "icao": "EPWA",
      "iata": "WAW",
      "name": "Warsaw Chopin Airport",
      "updatedAt": "160330Z",
      "visibility_m": 6000,
      "taf_visibility_m": 2000,
      "worst_visibility_m": 2000,
      "ceiling_ft": 800,
      "hazards": [
        "BR"
      ],
      "severityScore": 35,
      "metarRaw": "METAR EPWA 160330Z 12007KT 6000 BKN010 M04/M05 Q1025 TEMPO BKN008",
      "tafRaw": "TAF EPWA 160230Z 1603/1703 11010KT 5000 BR BKN025 \n  TEMPO 1603/1607 4000 BR BKN003 OVC005 \n  PROB40 1604/1607 2000 BR \n  TEMPO 1607/1703 BKN010 \n  PROB40 1607/1613 BKN005"
    },
    {
      "icao": "ESKN",
      "iata": "NYO",
      "name": "Stockholm Skavsta Airport",
      "updatedAt": "160320Z",
      "visibility_m": 10000,
      "taf_visibility_m": 2500,
      "worst_visibility_m": 2500,
      "ceiling_ft": 600,
      "hazards": [
        "BR"
      ],
      "severityScore": 35,
      "metarRaw": "METAR ESKN 160320Z 15012KT 9999 OVC006 03/02 Q1017",
      "tafRaw": "TAF ESKN 160230Z 1603/1703 17015KT 9999 OVC006 \n  TEMPO 1604/1619 17015G25KT 2500 BR BKN004 \n  PROB40 1619/1622 BKN004 \n  PROB40 1622/1703 BKN015"
    },
    {
      "icao": "EYKA",
      "iata": "KUN",
      "name": "Kaunas International Airport",
      "updatedAt": "160320Z",
      "visibility_m": 7000,
      "taf_visibility_m": 5000,
      "worst_visibility_m": 5000,
      "ceiling_ft": 500,
      "hazards": [
        "BR"
      ],
      "severityScore": 35,
      "metarRaw": "METAR EYKA 160320Z 15005KT 120V230 7000 NSC M15/M17 Q1030",
      "tafRaw": "TAF EYKA 152304Z 1600/1624 16013KT 9000 OVC010 \n  TEMPO 1600/1606 5000 BR BKN005 \n  BECMG 1609/1611 NSC"
    },
    {
      "icao": "EYPA",
      "iata": "PLQ",
      "name": "Palanga International Airport",
      "updatedAt": "160320Z",
      "visibility_m": 7000,
      "taf_visibility_m": 5000,
      "worst_visibility_m": 5000,
      "ceiling_ft": 500,
      "hazards": [
        "BR"
      ],
      "severityScore": 35,
      "metarRaw": "METAR EYPA 160320Z 13009KT 7000 NSC M07/M08 Q1025",
      "tafRaw": "TAF EYPA 152303Z 1600/1624 14015KT 9000 SCT010 OVC020 \n  TEMPO 1600/1606 5000 BR BKN005 \n  TEMPO 1609/1618 14020G30KT"
    },
    {
      "icao": "LGTS",
      "iata": "SKG",
      "name": "Thessaloniki Macedonia International Airport",
      "updatedAt": "160320Z",
      "visibility_m": 8000,
      "taf_visibility_m": 4000,
      "worst_visibility_m": 4000,
      "ceiling_ft": 2500,
      "hazards": [
        "TS",
        "BR"
      ],
      "severityScore": 35,
      "metarRaw": "METAR LGTS 160320Z 11006KT 8000 NSC 01/01 Q1023 NOSIG",
      "tafRaw": "TAF LGTS 152300Z 1600/1624 VRB03KT 9999 FEW030 \n  PROB30 1603/1607 4000 BR SCT008 \n  BECMG 1620/1622 09013KT FEW010 BKN025"
    },
    {
      "icao": "ENHD",
      "iata": "HAU",
      "name": "Haugesund Airport, Karmøy",
      "updatedAt": "160320Z",
      "visibility_m": 10000,
      "taf_visibility_m": 10000,
      "worst_visibility_m": 10000,
      "ceiling_ft": 1400,
      "hazards": [
        "DZ",
        "RA"
      ],
      "severityScore": 34,
      "metarRaw": "METAR ENHD 160320Z AUTO 11007KT 9999 -DZ OVC037/// 05/04 Q1002",
      "tafRaw": "TAF ENHD 160200Z 1603/1612 11012KT 9999 -RA FEW012 BKN020 \n  TEMPO 1604/1612 RA BKN014"
    },
    {
      "icao": "EBCI",
      "iata": "CRL",
      "name": "Brussels South Charleroi Airport",
      "updatedAt": "160320Z",
      "visibility_m": 10000,
      "taf_visibility_m": 4000,
      "worst_visibility_m": 4000,
      "ceiling_ft": 2800,
      "hazards": [
        "BR",
        "RA",
        "DZ"
      ],
      "severityScore": 32,
      "metarRaw": "METAR EBCI 160320Z 21015KT 9999 BKN028 10/06 Q1007 TEMPO 21015G25KT",
      "tafRaw": "TAF EBCI 152315Z 1600/1706 17014KT 9999 SCT015 SCT035 \n  TEMPO 1600/1607 SCT009 BKN012 \n  PROB40 \n  TEMPO 1600/1603 19017G30KT 4000 -RA -RADZ BKN008 BKN012 \n  BECMG 1603/1605 23011KT \n  BECMG 1614/1616 17006KT \n  PROB40 \n  TEMPO 1702/1706 4500 -DZ BR SCT008 BKN012"
    },
    {
      "icao": "LRTR",
      "iata": "TSR",
      "name": "Timişoara Traian Vuia Airport",
      "updatedAt": "160330Z",
      "visibility_m": 4000,
      "taf_visibility_m": 1500,
      "worst_visibility_m": 1500,
      "ceiling_ft": 4500,
      "hazards": [
        "BR",
        "RA"
      ],
      "severityScore": 32,
      "metarRaw": "METAR LRTR 160330Z 11008KT 4000 -RA BR BKN045 01/01 Q1022",
      "tafRaw": "TAF LRTR 152300Z 1600/1624 10006KT 3000 -RA BR BKN045 \n  BECMG 1602/1604 BKN010 BKN030 \n  PROB40 \n  TEMPO 1610/1615 1500 RA \n  BECMG 1616/1618 5000 BR"
    },
    {
      "icao": "LRBS",
      "iata": "BBU",
      "name": "Bucharest Băneasa Aurel Vlaicu International Airport",
      "updatedAt": "160330Z",
      "visibility_m": 5000,
      "taf_visibility_m": 3000,
      "worst_visibility_m": 3000,
      "ceiling_ft": 3300,
      "hazards": [
        "BR",
        "SN"
      ],
      "severityScore": 28,
      "metarRaw": "METAR LRBS 160330Z 05011KT 5000 -SN BR OVC033 M01/M03 Q1026 NOSIG",
      "tafRaw": "TAF LRBS 152300Z 1600/1624 06007KT 5000 BR BKN040 \n  TEMPO 1600/1605 3000 BR \n  TEMPO 1605/1610 06017KT 3000 -SN BKN010 OVC035 \n  BECMG 1610/1612 9999 NSW SCT025"
    },
    {
      "icao": "LROP",
      "iata": "OTP",
      "name": "Bucharest Henri Coandă International Airport",
      "updatedAt": "160330Z",
      "visibility_m": 5000,
      "taf_visibility_m": 3000,
      "worst_visibility_m": 3000,
      "ceiling_ft": 3500,
      "hazards": [
        "BR",
        "SN"
      ],
      "severityScore": 28,
      "metarRaw": "METAR LROP 160330Z 07014KT 5000 -SN BR SCT018 OVC035 M01/M04 Q1026 NOSIG",
      "tafRaw": "TAF LROP 152300Z 1600/1624 06007KT 5000 BR BKN040 \n  TEMPO 1600/1605 3000 BR \n  TEMPO 1605/1610 06017KT 3000 -SN BKN010 OVC035 \n  BECMG 1610/1612 9999 NSW SCT025"
    },
    {
      "icao": "LHDC",
      "iata": "DEB",
      "name": "Debrecen International Airport",
      "updatedAt": "160315Z",
      "visibility_m": 3600,
      "taf_visibility_m": null,
      "worst_visibility_m": 3600,
      "ceiling_ft": 1200,
      "hazards": [
        "BR"
      ],
      "severityScore": 27,
      "metarRaw": "METAR LHDC 160315Z AUTO 05007KT 3600 BR OVC012 01/00 Q1023",
      "tafRaw": null
    },
    {
      "icao": "EHBK",
      "iata": "MST",
      "name": "Maastricht Aachen Airport",
      "updatedAt": "160325Z",
      "visibility_m": 10000,
      "taf_visibility_m": 7000,
      "worst_visibility_m": 7000,
      "ceiling_ft": 2800,
      "hazards": [
        "RA",
        "SHRA"
      ],
      "severityScore": 26,
      "metarRaw": "METAR EHBK 160325Z AUTO 21019KT 180V240 9999 FEW021 SCT025 BKN028 10/07 Q1007",
      "tafRaw": "TAF EHBK 152238Z 1600/1706 19013KT CAVOK \n  PROB30 \n  TEMPO 1602/1611 7000 -RA -SHRA BKN014 FEW018TCU \n  BECMG 1614/1617 14005KT \n  PROB30 \n  TEMPO 1700/1704 7000 -RA"
    },
    {
      "icao": "ENVA",
      "iata": "TRD",
      "name": "Trondheim Airport, Værnes",
      "updatedAt": "160320Z",
      "visibility_m": 10000,
      "taf_visibility_m": 10000,
      "worst_visibility_m": 10000,
      "ceiling_ft": 2500,
      "hazards": [
        "SHRA",
        "RA"
      ],
      "severityScore": 26,
      "metarRaw": "METAR ENVA 160320Z AUTO 07005KT 030V110 9999 NCD 04/M04 Q1006 RMK WIND 670FT 15016KT",
      "tafRaw": "TAF ENVA 152300Z 1600/1624 10007KT 9999 FEW050 \n  TEMPO 1618/1624 21012KT SHRA SCT018CB BKN025"
    },
    {
      "icao": "LCPH",
      "iata": "PFO",
      "name": "Paphos International Airport",
      "updatedAt": "160330Z",
      "visibility_m": 10000,
      "taf_visibility_m": 5000,
      "worst_visibility_m": 5000,
      "ceiling_ft": null,
      "hazards": [
        "SHRA",
        "RA"
      ],
      "severityScore": 26,
      "metarRaw": "METAR LCPH 160330Z AUTO 07005KT 010V080 9999 NCD 08/05 Q1023 NOSIG",
      "tafRaw": "TAF LCPH 152330Z 1600/1700 02009KT 9999 FEW020 SCT035 \n  BECMG 1607/1610 24010KT \n  BECMG 1616/1619 04007KT \n  PROB30 \n  TEMPO 1616/1621 5000 SHRA SCT020TCU"
    },
    {
      "icao": "GCTS",
      "iata": "TFS",
      "name": "Tenerife Sur Airport",
      "updatedAt": "160330Z",
      "visibility_m": 10000,
      "taf_visibility_m": 10000,
      "worst_visibility_m": 10000,
      "ceiling_ft": 3500,
      "hazards": [
        "TS"
      ],
      "severityScore": 25,
      "metarRaw": "METAR GCTS 160330Z 01007KT 9999 FEW040 15/08 Q1024 NOSIG",
      "tafRaw": "TAF GCTS 160200Z 1603/1703 01005KT 9999 BKN035 TX22/1614Z TN13/1606Z \n  BECMG 1609/1611 28010KT \n  BECMG 1613/1615 18004KT \n  PROB40 \n  TEMPO 1619/1703 04010KT"
    },
    {
      "icao": "LEMG",
      "iata": "AGP",
      "name": "Málaga-Costa del Sol Airport",
      "updatedAt": "160330Z",
      "visibility_m": 10000,
      "taf_visibility_m": 3000,
      "worst_visibility_m": 3000,
      "ceiling_ft": 1200,
      "hazards": [
        "RA"
      ],
      "severityScore": 24,
      "metarRaw": "METAR LEMG 160330Z 00000KT 9999 SCT050 10/08 Q1017 NOSIG",
      "tafRaw": "TAF LEMG 152300Z 1600/1624 VRB02KT 9999 FEW080 TX18/1614Z TN11/1607Z \n  TEMPO 1606/1611 4000 RA BKN012 \n  BECMG 1611/1613 31010KT \n  BECMG 1616/1618 VRB02KT \n  TEMPO 1620/1624 3000 RA BKN012"
    },
    {
      "icao": "GMMX",
      "iata": "RAK",
      "name": "Menara Airport",
      "updatedAt": "160342Z",
      "visibility_m": 3000,
      "taf_visibility_m": 4000,
      "worst_visibility_m": 3000,
      "ceiling_ft": 2600,
      "hazards": [
        "BR",
        "RA"
      ],
      "severityScore": 22,
      "metarRaw": "SPECI GMMX 160342Z 24006KT 3000 BR SCT003 SCT030 09/08 Q1022 NOSIG",
      "tafRaw": "TAF GMMX 152300Z 1600/1706 06006KT 8000 SCT026 \n  TEMPO 1616/1624 34016KT 4000 RA FEW010 BKN026 SCT090"
    },
    {
      "icao": "LEZG",
      "iata": "ZAZ",
      "name": "Zaragoza Airport",
      "updatedAt": "160330Z",
      "visibility_m": 9000,
      "taf_visibility_m": 2000,
      "worst_visibility_m": 2000,
      "ceiling_ft": null,
      "hazards": [
        "BR",
        "RA"
      ],
      "severityScore": 22,
      "metarRaw": "METAR LEZG 160330Z 07004KT 9000 4000NW FEW002 SCT050 07/07 Q1014 NOSIG",
      "tafRaw": "TAF LEZG 152300Z 1600/1624 09005KT 9999 FEW020 TX13/1614Z TN05/1606Z \n  TEMPO 1600/1612 2000 BR \n  PROB40 \n  TEMPO 1600/1603 RA \n  TEMPO 1618/1624 2000 BR"
    },
    {
      "icao": "LIMF",
      "iata": "TRN",
      "name": "Turin Airport",
      "updatedAt": "160320Z",
      "visibility_m": 4000,
      "taf_visibility_m": 4000,
      "worst_visibility_m": 4000,
      "ceiling_ft": 2000,
      "hazards": [
        "BR",
        "RA"
      ],
      "severityScore": 22,
      "metarRaw": "METAR LIMF 160320Z VRB01KT 4000 BR BKN020 05/02 Q1021",
      "tafRaw": "TAF LIMF 152300Z 1600/1624 VRB03KT 6000 SCT020 BKN060 \n  TEMPO 1614/1624 4000 RA"
    },
    {
      "icao": "LIPH",
      "iata": "TSF",
      "name": "Treviso Antonio Canova Airport",
      "updatedAt": "160320Z",
      "visibility_m": 1900,
      "taf_visibility_m": 2000,
      "worst_visibility_m": 1900,
      "ceiling_ft": 1000,
      "hazards": [
        "BR"
      ],
      "severityScore": 22,
      "metarRaw": "METAR LIPH 160320Z AUTO VRB01KT 1900 1400E BR FEW084/// 02/02 Q1021",
      "tafRaw": "TAF LIPH 152300Z 1600/1624 VRB04KT 6000 SCT040 \n  TEMPO 1600/1607 2000 BR BKN010"
    },
    {
      "icao": "LJLJ",
      "iata": "LJU",
      "name": "Ljubljana Jože Pučnik Airport",
      "updatedAt": "160330Z",
      "visibility_m": 10000,
      "taf_visibility_m": 2000,
      "worst_visibility_m": 2000,
      "ceiling_ft": 5300,
      "hazards": [
        "BR",
        "RA"
      ],
      "severityScore": 22,
      "metarRaw": "METAR LJLJ 160330Z 31003KT 250V330 9999 FEW004 BKN053 01/00 Q1020 NOSIG",
      "tafRaw": "TAF LJLJ 152300Z 1600/1700 30004KT 9999 FEW003 SCT030 BKN045 \n  PROB40 \n  TEMPO 1601/1608 4000 BR \n  TEMPO 1620/1700 4000 BR \n  PROB30 \n  TEMPO 1621/1700 2000 -RA BR BKN013 OVC025"
    },
    {
      "icao": "LYBE",
      "iata": "BEG",
      "name": "Belgrade Nikola Tesla Airport",
      "updatedAt": "160330Z",
      "visibility_m": 5000,
      "taf_visibility_m": 2500,
      "worst_visibility_m": 2500,
      "ceiling_ft": null,
      "hazards": [
        "BR",
        "RA"
      ],
      "severityScore": 22,
      "metarRaw": "METAR LYBE 160330Z 04003KT 360V070 5000 BR NSC 03/02 Q1022 NOSIG",
      "tafRaw": "TAF LYBE 152300Z 1600/1624 08005KT 6000 NSC TX08/1613Z TN02/1606Z \n  TEMPO 1600/1608 2500 -RA BR \n  BECMG 1613/1615 14010KT \n  TEMPO 1620/1624 13015G25KT"
    },
    {
      "icao": "LYPG",
      "iata": "TGD",
      "name": "Podgorica Airport / Podgorica Golubovci Airbase",
      "updatedAt": "160330Z",
      "visibility_m": 10000,
      "taf_visibility_m": 5000,
      "worst_visibility_m": 5000,
      "ceiling_ft": 8000,
      "hazards": [
        "BR",
        "RA"
      ],
      "severityScore": 22,
      "metarRaw": "METAR LYPG 160330Z 35002KT 9999 SCT040 BKN080 07/07 Q1023 NOSIG",
      "tafRaw": "TAF LYPG 152300Z 1600/1624 VRB02KT 9999 SCT040 BKN070 TX14/1613Z TN04/1624Z \n  TEMPO 1600/1607 5000 -RA BR"
    },
    {
      "icao": "EDDS",
      "iata": "STR",
      "name": "Stuttgart Airport",
      "updatedAt": "160320Z",
      "visibility_m": 10000,
      "taf_visibility_m": 2000,
      "worst_visibility_m": 2000,
      "ceiling_ft": null,
      "hazards": [
        "FG"
      ],
      "severityScore": 20,
      "metarRaw": "METAR EDDS 160320Z AUTO VRB01KT CAVOK 00/M00 Q1013",
      "tafRaw": "TAF EDDS 152300Z 1600/1624 VRB03KT CAVOK \n  PROB30 \n  TEMPO 1600/1609 4000 BCFG \n  PROB40 \n  TEMPO 1621/1624 2000 BCFG"
    },
    {
      "icao": "EDSB",
      "iata": "FKB",
      "name": "Karlsruhe Baden-Baden Airport",
      "updatedAt": "160320Z",
      "visibility_m": 10000,
      "taf_visibility_m": 2000,
      "worst_visibility_m": 2000,
      "ceiling_ft": null,
      "hazards": [
        "FG"
      ],
      "severityScore": 20,
      "metarRaw": "METAR EDSB 160320Z AUTO VRB01KT 9999 // NCD 02/01 Q1013",
      "tafRaw": "TAF EDSB 152300Z 1600/1624 18005KT CAVOK \n  PROB30 \n  TEMPO 1600/1609 4000 BCFG \n  BECMG 1610/1612 VRB03KT \n  PROB40 \n  TEMPO 1621/1624 2000 BCFG"
    },
    {
      "icao": "HESX",
      "iata": "SPX",
      "name": "Sphinx International Airport",
      "updatedAt": null,
      "visibility_m": null,
      "taf_visibility_m": 1000,
      "worst_visibility_m": 1000,
      "ceiling_ft": null,
      "hazards": [
        "BR"
      ],
      "severityScore": 20,
      "metarRaw": null,
      "tafRaw": "TAF HESX 152300Z 1600/1706 36006KT 9999 FEW025 \n  TEMPO 1600/1608 3000 BR \n  PROB40 \n  TEMPO 1601/1606 1000"
    },
    {
      "icao": "LIRZ",
      "iata": "PEG",
      "name": "Perugia San Francesco d'Assisi – Umbria International Airport",
      "updatedAt": "160320Z",
      "visibility_m": 8000,
      "taf_visibility_m": 3000,
      "worst_visibility_m": 3000,
      "ceiling_ft": null,
      "hazards": [
        "FG"
      ],
      "severityScore": 20,
      "metarRaw": "METAR LIRZ 160320Z AUTO VRB02KT 8000 0900S NCD 04/04 Q1021",
      "tafRaw": "TAF LIRZ 152300Z 1600/1624 VRB04KT 9999 FEW050 \n  TEMPO 1604/1609 3000 BCFG"
    },
    {
      "icao": "LYNI",
      "iata": "INI",
      "name": "Niš Constantine the Great Airport",
      "updatedAt": "160330Z",
      "visibility_m": 8000,
      "taf_visibility_m": 1500,
      "worst_visibility_m": 1500,
      "ceiling_ft": 7300,
      "hazards": [
        "BR"
      ],
      "severityScore": 20,
      "metarRaw": "METAR LYNI 160330Z 00000KT 8000 BKN073 04/04 Q1023 NOSIG",
      "tafRaw": "TAF LYNI 152300Z 1600/1624 11004KT 6000 BKN060 TX07/1612Z TN01/1606Z \n  TEMPO 1603/1608 1500 BR \n  BECMG 1611/1613 05011KT \n  TEMPO 1616/1624 BKN013 BKN030"
    },
    {
      "icao": "ENTO",
      "iata": "TRF",
      "name": "Sandefjord Airport, Torp",
      "updatedAt": "160320Z",
      "visibility_m": 9000,
      "taf_visibility_m": null,
      "worst_visibility_m": 9000,
      "ceiling_ft": null,
      "hazards": [
        "RA"
      ],
      "severityScore": 17,
      "metarRaw": "METAR ENTO 160320Z AUTO 13007KT 100V160 9000 RA BKN002/// OVC003/// 03/03 Q1008",
      "tafRaw": null
    },
    {
      "icao": "EGGW",
      "iata": "LTN",
      "name": "London Luton Airport",
      "updatedAt": "160320Z",
      "visibility_m": 4800,
      "taf_visibility_m": null,
      "worst_visibility_m": 4800,
      "ceiling_ft": null,
      "hazards": [
        "BR"
      ],
      "severityScore": 15,
      "metarRaw": "METAR EGGW 160320Z AUTO 20005KT 4800 BR NCD 02/02 Q1002",
      "tafRaw": null
    },
    {
      "icao": "EPKT",
      "iata": "KTW",
      "name": "Katowice Wojciech Korfanty International Airport",
      "updatedAt": "160330Z",
      "visibility_m": 3700,
      "taf_visibility_m": null,
      "worst_visibility_m": 3700,
      "ceiling_ft": 4300,
      "hazards": [
        "BR"
      ],
      "severityScore": 15,
      "metarRaw": "METAR EPKT 160330Z 12003KT 3700 BR OVC043 01/00 Q1021",
      "tafRaw": null
    },
    {
      "icao": "GMMN",
      "iata": "CMN",
      "name": "Mohammed V International Airport",
      "updatedAt": "160330Z",
      "visibility_m": 10000,
      "taf_visibility_m": 4000,
      "worst_visibility_m": 4000,
      "ceiling_ft": 4000,
      "hazards": [
        "RA"
      ],
      "severityScore": 12,
      "metarRaw": "METAR GMMN 160330Z 20010KT 9999 SCT020 BKN040 10/08 Q1021 NOSIG",
      "tafRaw": "TAF GMMN 152300Z 1600/1706 21007KT 9999 SCT020 SCT200 \n  BECMG 1605/1607 24013KT \n  TEMPO 1612/1706 4000 RA SCT013 BKN026TCU"
    },
    {
      "icao": "LEAL",
      "iata": "ALC",
      "name": "Alicante-Elche Miguel Hernández Airport",
      "updatedAt": "160330Z",
      "visibility_m": 10000,
      "taf_visibility_m": 4000,
      "worst_visibility_m": 4000,
      "ceiling_ft": null,
      "hazards": [
        "RA"
      ],
      "severityScore": 12,
      "metarRaw": "METAR LEAL 160330Z 28003KT 250V320 CAVOK 11/08 Q1016 NOSIG",
      "tafRaw": "TAF LEAL 152300Z 1600/1624 VRB04KT CAVOK TX17/1613Z TN07/1606Z \n  TEMPO 1620/1624 4000 RA"
    },
    {
      "icao": "LEBB",
      "iata": "BIO",
      "name": "Bilbao Airport",
      "updatedAt": "160330Z",
      "visibility_m": 10000,
      "taf_visibility_m": 3000,
      "worst_visibility_m": 3000,
      "ceiling_ft": 4800,
      "hazards": [
        "RA"
      ],
      "severityScore": 12,
      "metarRaw": "METAR LEBB 160330Z AUTO 07004KT 9999 BKN048 BKN050 10/06 Q1012",
      "tafRaw": "TAF LEBB 152300Z 1600/1624 12006KT 9999 FEW045 TX15/1613Z TN06/1622Z \n  TEMPO 1610/1618 20010KT \n  PROB30 \n  TEMPO 1620/1624 3000 RA"
    },
    {
      "icao": "LEXJ",
      "iata": "SDR",
      "name": "Seve Ballesteros-Santander Airport",
      "updatedAt": "160330Z",
      "visibility_m": 8000,
      "taf_visibility_m": 3000,
      "worst_visibility_m": 3000,
      "ceiling_ft": null,
      "hazards": [
        "RA"
      ],
      "severityScore": 12,
      "metarRaw": "METAR LEXJ 160330Z AUTO VRB02KT 8000 FEW047 07/06 Q1011",
      "tafRaw": "TAF LEXJ 160200Z 1603/1703 VRB03KT 9999 FEW045 TX15/1614Z TN06/1607Z \n  PROB40 1608/1615 20012KT \n  PROB40 1615/1618 29010KT \n  PROB40 \n  TEMPO 1618/1624 3000 RA \n  PROB30 1621/1703 20010KT"
    },
    {
      "icao": "LFLS",
      "iata": "GNB",
      "name": "Grenoble Alpes Isère Airport",
      "updatedAt": "160330Z",
      "visibility_m": 10000,
      "taf_visibility_m": 4500,
      "worst_visibility_m": 4500,
      "ceiling_ft": 6000,
      "hazards": [
        "RA"
      ],
      "severityScore": 12,
      "metarRaw": "METAR LFLS 160330Z AUTO 16006KT 120V200 CAVOK 11/03 Q1014 NOSIG",
      "tafRaw": "TAF LFLS 160200Z 1603/1703 VRB02KT 9999 FEW060 \n  FM161700 09005KT 9999 BKN060 OVC090 \n  TEMPO 1618/1622 17012KT \n  PROB30 \n  TEMPO 1618/1623 4500 -RA"
    },
    {
      "icao": "LFMN",
      "iata": "NCE",
      "name": "Nice-Côte d'Azur Airport",
      "updatedAt": "160330Z",
      "visibility_m": 10000,
      "taf_visibility_m": 10000,
      "worst_visibility_m": 10000,
      "ceiling_ft": 2000,
      "hazards": [
        "RA"
      ],
      "severityScore": 12,
      "metarRaw": "METAR LFMN 160330Z 33010KT 9999 FEW033 09/04 Q1019 NOSIG",
      "tafRaw": "TAF LFMN 160200Z 1603/1709 33010KT CAVOK \n  BECMG 1612/1614 09012KT BKN020 \n  TEMPO 1620/1707 -RA BKN020TCU \n  BECMG 1623/1702 33010KT"
    },
    {
      "icao": "LICJ",
      "iata": "PMO",
      "name": "Falcone–Borsellino Airport",
      "updatedAt": "160320Z",
      "visibility_m": 10000,
      "taf_visibility_m": 10000,
      "worst_visibility_m": 10000,
      "ceiling_ft": null,
      "hazards": [
        "RA"
      ],
      "severityScore": 12,
      "metarRaw": "METAR LICJ 160320Z 17005KT CAVOK 11/08 Q1018",
      "tafRaw": "TAF LICJ 152300Z 1600/1624 VRB05KT CAVOK \n  TEMPO 1621/1624 RA"
    },
    {
      "icao": "LIMJ",
      "iata": "GOA",
      "name": "Genoa Cristoforo Colombo Airport",
      "updatedAt": "160320Z",
      "visibility_m": 10000,
      "taf_visibility_m": 10000,
      "worst_visibility_m": 10000,
      "ceiling_ft": 3000,
      "hazards": [
        "RA"
      ],
      "severityScore": 12,
      "metarRaw": "METAR LIMJ 160320Z 06014KT 9999 FEW021 10/06 Q1020",
      "tafRaw": "TAF LIMJ 152300Z 1600/1624 04012KT 9999 SCT020 BKN030 \n  TEMPO 1600/1618 RA"
    },
    {
      "icao": "LMML",
      "iata": "MLA",
      "name": "Malta International Airport",
      "updatedAt": "160345Z",
      "visibility_m": 10000,
      "taf_visibility_m": 7000,
      "worst_visibility_m": 7000,
      "ceiling_ft": null,
      "hazards": [
        "RA"
      ],
      "severityScore": 12,
      "metarRaw": "METAR LMML 160345Z 13010KT 9999 FEW030 15/13 Q1018 NOSIG",
      "tafRaw": "TAF LMML 152300Z 1600/1624 13012KT 9999 FEW018 \n  PROB30 \n  TEMPO 1615/1624 7000 RA"
    },
    {
      "icao": "LRSM",
      "iata": "SUJ",
      "name": "Satu Mare International Airport",
      "updatedAt": "160330Z",
      "visibility_m": 10000,
      "taf_visibility_m": 10000,
      "worst_visibility_m": 10000,
      "ceiling_ft": 1500,
      "hazards": [],
      "severityScore": 12,
      "metarRaw": "METAR LRSM 160330Z AUTO 10007KT 9999 SCT045/// OVC085/// 01/M01 Q1023",
      "tafRaw": "TAF LRSM 160200Z 1603/1612 10005KT 9999 BKN030 \n  TEMPO 1603/1607 BKN015 BKN030"
    },
    {
      "icao": "GCLP",
      "iata": "LPA",
      "name": "Gran Canaria Airport",
      "updatedAt": "160330Z",
      "visibility_m": 10000,
      "taf_visibility_m": 10000,
      "worst_visibility_m": 10000,
      "ceiling_ft": 3400,
      "hazards": [
        "DZ"
      ],
      "severityScore": 10,
      "metarRaw": "METAR GCLP 160330Z 36012KT 9999 BKN034 17/10 Q1024 NOSIG",
      "tafRaw": "TAF GCLP 160200Z 1603/1703 36013KT 9999 BKN035 TX22/1614Z TN15/1606Z \n  PROB30 \n  TEMPO 1618/1703 02020G30KT \n  PROB30 \n  TEMPO 1618/1621 DZ BKN014"
    },
    {
      "icao": "EDDB",
      "iata": "BER",
      "name": "Berlin Brandenburg Airport",
      "updatedAt": "160320Z",
      "visibility_m": 2500,
      "taf_visibility_m": 2500,
      "worst_visibility_m": 2500,
      "ceiling_ft": null,
      "hazards": [
        "BR"
      ],
      "severityScore": 10,
      "metarRaw": "METAR EDDB 160320Z AUTO 13005KT 6000 NSC 03/02 Q1015 TEMPO 2500 BR",
      "tafRaw": "TAF EDDB 152300Z 1600/1624 16008KT 9000 NSC \n  PROB30 \n  TEMPO 1600/1606 2500 BR \n  TEMPO 1608/1613 16013KT"
    },
    {
      "icao": "EPSY",
      "iata": "SZY",
      "name": "Olsztyn-Mazury Airport",
      "updatedAt": "160330Z",
      "visibility_m": 3600,
      "taf_visibility_m": 3500,
      "worst_visibility_m": 3500,
      "ceiling_ft": 2300,
      "hazards": [
        "BR"
      ],
      "severityScore": 10,
      "metarRaw": "METAR EPSY 160330Z VRB03KT 3600 BR FEW006 OVC023 M07/M08 Q1025",
      "tafRaw": "TAF EPSY 160230Z 1603/1612 14006KT 3500 BR BKN030 \n  PROB40 1603/1609 OVC003"
    },
    {
      "icao": "EYVI",
      "iata": "VNO",
      "name": "Vilnius International Airport",
      "updatedAt": "160320Z",
      "visibility_m": 9000,
      "taf_visibility_m": 5000,
      "worst_visibility_m": 5000,
      "ceiling_ft": null,
      "hazards": [
        "BR"
      ],
      "severityScore": 10,
      "metarRaw": "METAR EYVI 160320Z 17005KT 9000 NSC M19/M21 Q1030 NOSIG",
      "tafRaw": "TAF EYVI 152305Z 1600/1624 16012KT 9000 NSC \n  TEMPO 1600/1606 5000 BR SCT005"
    },
    {
      "icao": "LGAV",
      "iata": "ATH",
      "name": "Athens Eleftherios Venizelos International Airport",
      "updatedAt": "160320Z",
      "visibility_m": 10000,
      "taf_visibility_m": 4000,
      "worst_visibility_m": 4000,
      "ceiling_ft": null,
      "hazards": [
        "BR"
      ],
      "severityScore": 10,
      "metarRaw": "METAR LGAV 160320Z VRB03KT 9999 FEW030 03/01 Q1023 NOSIG",
      "tafRaw": "TAF LGAV 152300Z 1600/1624 VRB03KT 9999 SCT025 \n  PROB30 \n  TEMPO 1600/1607 4000 BR SCT008 \n  BECMG 1618/1620 04012KT"
    },
    {
      "icao": "LIBP",
      "iata": "PSR",
      "name": "Abruzzo Airport",
      "updatedAt": "160320Z",
      "visibility_m": 10000,
      "taf_visibility_m": 4000,
      "worst_visibility_m": 4000,
      "ceiling_ft": null,
      "hazards": [
        "BR"
      ],
      "severityScore": 10,
      "metarRaw": "METAR LIBP 160320Z AUTO 24003KT 9999 BKN240/// 02/01 Q1022",
      "tafRaw": "TAF LIBP 152300Z 1600/1624 VRB05KT CAVOK \n  TEMPO 1600/1607 4000 BR"
    },
    {
      "icao": "LIPZ",
      "iata": "VCE",
      "name": "Venice Marco Polo Airport",
      "updatedAt": "160320Z",
      "visibility_m": 6000,
      "taf_visibility_m": 2000,
      "worst_visibility_m": 2000,
      "ceiling_ft": 2000,
      "hazards": [
        "BR"
      ],
      "severityScore": 10,
      "metarRaw": "METAR LIPZ 160320Z VRB02KT 6000 BKN020 06/04 Q1021 NOSIG",
      "tafRaw": "TAF LIPZ 152300Z 1600/1706 VRB04KT 6000 SCT030 \n  TEMPO 1600/1607 2000 BR BKN010 \n  TEMPO 1621/1706 2000 BR BKN010"
    },
    {
      "icao": "UDSG",
      "iata": "LWN",
      "name": "Shirak International Airport",
      "updatedAt": "160330Z",
      "visibility_m": 10000,
      "taf_visibility_m": 5000,
      "worst_visibility_m": 5000,
      "ceiling_ft": null,
      "hazards": [
        "BR"
      ],
      "severityScore": 10,
      "metarRaw": "METAR UDSG 160330Z 06001KT 9999 NSC M19/M21 Q1020 NOSIG",
      "tafRaw": "TAF UDSG 152258Z 1600/1624 VRB06KT 9999 SCT040 \n  TEMPO 1600/1606 5000 BR"
    },
    {
      "icao": "UDYZ",
      "iata": "EVN",
      "name": "Zvartnots International Airport",
      "updatedAt": "160330Z",
      "visibility_m": 10000,
      "taf_visibility_m": 2000,
      "worst_visibility_m": 2000,
      "ceiling_ft": null,
      "hazards": [
        "BR"
      ],
      "severityScore": 10,
      "metarRaw": "METAR UDYZ 160330Z 09002KT 9999 NSC M07/M10 Q1023 NOSIG",
      "tafRaw": "TAF UDYZ 152300Z 1600/1624 VRB04KT 6000 NSC \n  TEMPO 1600/1606 2000 BR"
    },
    {
      "icao": "EKBI",
      "iata": "BLL",
      "name": "Billund Airport",
      "updatedAt": "160320Z",
      "visibility_m": 6000,
      "taf_visibility_m": null,
      "worst_visibility_m": 6000,
      "ceiling_ft": null,
      "hazards": [],
      "severityScore": 5,
      "metarRaw": "METAR EKBI 160320Z AUTO 12010KT 6000 FEW005/// BKN063/// BKN140/// 05/05 Q1006",
      "tafRaw": null
    },
    {
      "icao": "LECH",
      "iata": "CDT",
      "name": "Castellón-Costa Azahar Airport",
      "updatedAt": "160330Z",
      "visibility_m": 9000,
      "taf_visibility_m": null,
      "worst_visibility_m": 9000,
      "ceiling_ft": null,
      "hazards": [],
      "severityScore": 5,
      "metarRaw": "METAR LECH 160330Z AUTO VRB01KT 9000 FEW069 06/02 Q1015",
      "tafRaw": null
    },
    {
      "icao": "LPFR",
      "iata": "FAO",
      "name": "Faro Airport",
      "updatedAt": "160330Z",
      "visibility_m": 10000,
      "taf_visibility_m": null,
      "worst_visibility_m": 10000,
      "ceiling_ft": null,
      "hazards": [],
      "severityScore": 5,
      "metarRaw": "METAR LPFR 160330Z 29006KT 9999 FEW014 12/11 Q1016",
      "tafRaw": null
    },
    {
      "icao": "LPPS",
      "iata": "PXO",
      "name": "Porto Santo Airport",
      "updatedAt": "160330Z",
      "visibility_m": 10000,
      "taf_visibility_m": null,
      "worst_visibility_m": 10000,
      "ceiling_ft": null,
      "hazards": [],
      "severityScore": 5,
      "metarRaw": "METAR LPPS 160330Z 35010KT 9999 SCT012 SCT030 15/13 Q1024",
      "tafRaw": null
    },
    {
      "icao": "OEJN",
      "iata": "JED",
      "name": "King Abdulaziz International Airport",
      "updatedAt": "160300Z",
      "visibility_m": 7000,
      "taf_visibility_m": null,
      "worst_visibility_m": 7000,
      "ceiling_ft": null,
      "hazards": [],
      "severityScore": 5,
      "metarRaw": "METAR OEJN 160300Z 06006KT 7000 NSC 24/00 Q1014 NOSIG",
      "tafRaw": null
    },
    {
      "icao": "BIKF",
      "iata": "KEF",
      "name": "Keflavik International Airport",
      "updatedAt": "160330Z",
      "visibility_m": 10000,
      "taf_visibility_m": 10000,
      "worst_visibility_m": 10000,
      "ceiling_ft": null,
      "hazards": [],
      "severityScore": 0,
      "metarRaw": "METAR BIKF 160330Z 02016KT CAVOK 01/M02 Q0996",
      "tafRaw": "TAF BIKF 160105Z 1603/1703 02020KT 9999 FEW025 SCT040 TX02/1606Z TNM02/1703Z \n  BECMG 1616/1618 02010KT \n  BECMG 1701/1703 07010KT"
    },
    {
      "icao": "GCFV",
      "iata": "FUE",
      "name": "Fuerteventura Airport",
      "updatedAt": "160330Z",
      "visibility_m": 10000,
      "taf_visibility_m": 10000,
      "worst_visibility_m": 10000,
      "ceiling_ft": 3600,
      "hazards": [],
      "severityScore": 0,
      "metarRaw": "METAR GCFV 160330Z AUTO 34011KT 9999 OVC036 17/08 Q1024",
      "tafRaw": "TAF GCFV 160200Z 1603/1703 34007KT 9999 SCT035 TX22/1614Z TN14/1606Z \n  BECMG 1609/1611 04010KT \n  BECMG 1614/1616 34010KT"
    },
    {
      "icao": "GMAD",
      "iata": "AGA",
      "name": "Al Massira Airport",
      "updatedAt": "160330Z",
      "visibility_m": 10000,
      "taf_visibility_m": 10000,
      "worst_visibility_m": 10000,
      "ceiling_ft": null,
      "hazards": [],
      "severityScore": 0,
      "metarRaw": "METAR GMAD 160330Z 09004KT CAVOK 08/08 Q1022 NOSIG",
      "tafRaw": "TAF GMAD 152300Z 1600/1706 14003KT CAVOK \n  BECMG 1616/1618 27010KT"
    },
    {
      "icao": "EDDK",
      "iata": "CGN",
      "name": "Cologne Bonn Airport",
      "updatedAt": "160320Z",
      "visibility_m": 10000,
      "taf_visibility_m": 10000,
      "worst_visibility_m": 10000,
      "ceiling_ft": null,
      "hazards": [],
      "severityScore": 0,
      "metarRaw": "METAR EDDK 160320Z AUTO 18011KT CAVOK 11/05 Q1009 NOSIG",
      "tafRaw": "TAF EDDK 152300Z 1600/1706 14009KT 9999 SCT040"
    },
    {
      "icao": "EDLW",
      "iata": "DTM",
      "name": "Dortmund Airport",
      "updatedAt": "160320Z",
      "visibility_m": 10000,
      "taf_visibility_m": 10000,
      "worst_visibility_m": 10000,
      "ceiling_ft": null,
      "hazards": [],
      "severityScore": 0,
      "metarRaw": "METAR EDLW 160320Z AUTO 18013KT 9999 // BKN093/// 11/05 Q1007",
      "tafRaw": "TAF EDLW 151700Z 1518/1618 17012KT 9999 SCT030 \n  PROB30 \n  TEMPO 1521/1604 17015G25KT \n  BECMG 1612/1615 16007KT"
    },
    {
      "icao": "EDNY",
      "iata": "FDH",
      "name": "Friedrichshafen Airport",
      "updatedAt": "160320Z",
      "visibility_m": 10000,
      "taf_visibility_m": 10000,
      "worst_visibility_m": 10000,
      "ceiling_ft": null,
      "hazards": [],
      "severityScore": 0,
      "metarRaw": "METAR EDNY 160320Z AUTO VRB02KT 9999 // NCD M03/M03 Q1016",
      "tafRaw": "TAF EDNY 160200Z 1603/1612 VRB03KT CAVOK"
    },
    {
      "icao": "EHEH",
      "iata": "EIN",
      "name": "Eindhoven Airport",
      "updatedAt": "160325Z",
      "visibility_m": 10000,
      "taf_visibility_m": 10000,
      "worst_visibility_m": 10000,
      "ceiling_ft": 2200,
      "hazards": [],
      "severityScore": 0,
      "metarRaw": "METAR EHEH 160325Z AUTO 19014KT 180V240 9999 BKN022 BKN026 OVC031 11/07 Q1005 WHT",
      "tafRaw": "TAF EHEH 152340Z 1600/1706 15013KT CAVOK \n  TEMPO 1602/1606 SCT012 BKN016 \n  PROB30 1602/1606 SCT010 BKN015 \n  BECMG 1605/1607 21007KT"
    },
    {
      "icao": "ENAL",
      "iata": "AES",
      "name": "Ålesund Airport, Vigra",
      "updatedAt": "160320Z",
      "visibility_m": 10000,
      "taf_visibility_m": 10000,
      "worst_visibility_m": 10000,
      "ceiling_ft": null,
      "hazards": [],
      "severityScore": 0,
      "metarRaw": "METAR ENAL 160320Z AUTO 22005KT 9999 NCD 06/01 Q1002",
      "tafRaw": "TAF ENAL 160200Z 1603/1612 14007KT 9999 SCT050"
    },
    {
      "icao": "ENTC",
      "iata": "TOS",
      "name": "Tromsø Airport, Langnes",
      "updatedAt": "160320Z",
      "visibility_m": 10000,
      "taf_visibility_m": 10000,
      "worst_visibility_m": 10000,
      "ceiling_ft": null,
      "hazards": [],
      "severityScore": 0,
      "metarRaw": "METAR ENTC 160320Z AUTO 21016KT 9999 NCD M01/M07 Q1009 RMK WIND 2600FT 19009KT",
      "tafRaw": "TAF ENTC 152300Z 1600/1624 20016KT CAVOK \n  BECMG 1604/1607 21006KT"
    },
    {
      "icao": "HEGN",
      "iata": "HRG",
      "name": "Hurghada International Airport",
      "updatedAt": "160300Z",
      "visibility_m": 10000,
      "taf_visibility_m": 10000,
      "worst_visibility_m": 10000,
      "ceiling_ft": null,
      "hazards": [],
      "severityScore": 0,
      "metarRaw": "METAR HEGN 160300Z 29010KT CAVOK 14/06 Q1021 NOSIG",
      "tafRaw": "TAF HEGN 152300Z 1600/1706 29015KT CAVOK"
    },
    {
      "icao": "HEMA",
      "iata": "RMF",
      "name": "Marsa Alam International Airport",
      "updatedAt": "160300Z",
      "visibility_m": 10000,
      "taf_visibility_m": 10000,
      "worst_visibility_m": 10000,
      "ceiling_ft": null,
      "hazards": [],
      "severityScore": 0,
      "metarRaw": "METAR HEMA 160300Z 31013KT CAVOK 15/09 Q1019 NOSIG",
      "tafRaw": "TAF HEMA 152300Z 1600/1706 30015KT 9999 SCT025"
    },
    {
      "icao": "HESH",
      "iata": "SSH",
      "name": "Sharm El Sheikh International Airport",
      "updatedAt": "160300Z",
      "visibility_m": 10000,
      "taf_visibility_m": 10000,
      "worst_visibility_m": 10000,
      "ceiling_ft": null,
      "hazards": [],
      "severityScore": 0,
      "metarRaw": "METAR HESH 160300Z 34009KT CAVOK 16/04 Q1021 NOSIG",
      "tafRaw": "TAF HESH 152300Z 1600/1706 33010KT CAVOK"
    },
    {
      "icao": "LATI",
      "iata": "TIA",
      "name": "Tirana International Airport Mother Teresa",
      "updatedAt": "160320Z",
      "visibility_m": 10000,
      "taf_visibility_m": 10000,
      "worst_visibility_m": 10000,
      "ceiling_ft": 5000,
      "hazards": [],
      "severityScore": 0,
      "metarRaw": "METAR LATI 160320Z 16002KT 9999 BKN050 10/05 Q1022 NOSIG",
      "tafRaw": "TAF LATI 152300Z 1600/1624 VRB05KT 9999 BKN070 TX16/1612Z TN06/1605Z"
    },
    {
      "icao": "LCLK",
      "iata": "LCA",
      "name": "Larnaca International Airport",
      "updatedAt": "160330Z",
      "visibility_m": 10000,
      "taf_visibility_m": 10000,
      "worst_visibility_m": 10000,
      "ceiling_ft": null,
      "hazards": [],
      "severityScore": 0,
      "metarRaw": "METAR LCLK 160330Z 30006KT CAVOK 08/06 Q1023 NOSIG",
      "tafRaw": "TAF LCLK 152330Z 1600/1700 32006KT 9999 FEW025 SCT040 \n  BECMG 1607/1610 20010KT \n  BECMG 1616/1619 32006KT"
    },
    {
      "icao": "LEVC",
      "iata": "VLC",
      "name": "Valencia Airport",
      "updatedAt": "160330Z",
      "visibility_m": 10000,
      "taf_visibility_m": 10000,
      "worst_visibility_m": 10000,
      "ceiling_ft": null,
      "hazards": [],
      "severityScore": 0,
      "metarRaw": "METAR LEVC 160330Z 29005KT 9999 FEW068 10/05 Q1016 NOSIG",
      "tafRaw": "TAF LEVC 152300Z 1600/1624 24005KT CAVOK TX15/1612Z TN06/1606Z \n  TEMPO 1612/1618 VRB03KT \n  BECMG 1617/1619 30005KT"
    },
    {
      "icao": "LFLL",
      "iata": "LYS",
      "name": "Lyon Saint-Exupéry Airport",
      "updatedAt": "160330Z",
      "visibility_m": 10000,
      "taf_visibility_m": 10000,
      "worst_visibility_m": 10000,
      "ceiling_ft": null,
      "hazards": [],
      "severityScore": 0,
      "metarRaw": "METAR LFLL 160330Z 14006KT CAVOK 08/05 Q1014 NOSIG",
      "tafRaw": "TAF LFLL 152300Z 1600/1706 18012KT CAVOK \n  TEMPO 1600/1603 18015G25KT \n  BECMG 1603/1605 16007KT"
    },
    {
      "icao": "LFSB",
      "iata": "BSL",
      "name": "EuroAirport Basel–Mulhouse–Freiburg",
      "updatedAt": "160330Z",
      "visibility_m": 10000,
      "taf_visibility_m": 10000,
      "worst_visibility_m": 10000,
      "ceiling_ft": null,
      "hazards": [],
      "severityScore": 0,
      "metarRaw": "METAR LFSB 160330Z AUTO 18007KT CAVOK 03/02 Q1015 NOSIG",
      "tafRaw": "TAF LFSB 152300Z 1600/1624 17005KT CAVOK"
    },
    {
      "icao": "LIBD",
      "iata": "BRI",
      "name": "Bari Karol Wojtyła International Airport",
      "updatedAt": "160320Z",
      "visibility_m": 10000,
      "taf_visibility_m": 10000,
      "worst_visibility_m": 10000,
      "ceiling_ft": null,
      "hazards": [],
      "severityScore": 0,
      "metarRaw": "METAR LIBD 160320Z 21004KT CAVOK 03/03 Q1021",
      "tafRaw": "TAF LIBD 152300Z 1600/1624 VRB05KT 9999 FEW030"
    },
    {
      "icao": "LIBG",
      "iata": "TAR",
      "name": "Taranto-Grottaglie Marcello Arlotta Airport",
      "updatedAt": null,
      "visibility_m": null,
      "taf_visibility_m": 8000,
      "worst_visibility_m": 8000,
      "ceiling_ft": null,
      "hazards": [],
      "severityScore": 0,
      "metarRaw": null,
      "tafRaw": "TAF LIBG 151700Z 1518/1603 VRB05KT 8000 FEW025"
    },
    {
      "icao": "LICA",
      "iata": "SUF",
      "name": "Lamezia Terme Sant'Eufemia International Airport",
      "updatedAt": "160320Z",
      "visibility_m": 10000,
      "taf_visibility_m": 10000,
      "worst_visibility_m": 10000,
      "ceiling_ft": null,
      "hazards": [],
      "severityScore": 0,
      "metarRaw": "METAR LICA 160320Z AUTO 05011KT 9999 NCD 10/06 Q1020",
      "tafRaw": "TAF LICA 152300Z 1600/1624 08005KT CAVOK \n  BECMG 1608/1610 08015KT"
    },
    {
      "icao": "LIRF",
      "iata": "FCO",
      "name": "Rome–Fiumicino Leonardo da Vinci International Airport",
      "updatedAt": "160320Z",
      "visibility_m": 10000,
      "taf_visibility_m": 10000,
      "worst_visibility_m": 10000,
      "ceiling_ft": null,
      "hazards": [],
      "severityScore": 0,
      "metarRaw": "METAR LIRF 160320Z 07005KT CAVOK 07/06 Q1021 NOSIG",
      "tafRaw": "TAF LIRF 152300Z 1600/1706 08007KT 9999 FEW020"
    },
    {
      "icao": "LIRN",
      "iata": "NAP",
      "name": "Naples International Airport",
      "updatedAt": "160320Z",
      "visibility_m": 10000,
      "taf_visibility_m": 10000,
      "worst_visibility_m": 10000,
      "ceiling_ft": null,
      "hazards": [],
      "severityScore": 0,
      "metarRaw": "METAR LIRN 160320Z VRB02KT CAVOK 06/05 Q1021 NOSIG",
      "tafRaw": "TAF LIRN 152300Z 1600/1624 VRB05KT CAVOK"
    },
    {
      "icao": "LIRP",
      "iata": "PSA",
      "name": "Pisa International Airport",
      "updatedAt": "160315Z",
      "visibility_m": 10000,
      "taf_visibility_m": 10000,
      "worst_visibility_m": 10000,
      "ceiling_ft": 6000,
      "hazards": [],
      "severityScore": 0,
      "metarRaw": "METAR LIRP 160315Z 08004KT 9999 SCT030 BKN060 10/10 Q1020 NOSIG",
      "tafRaw": "TAF LIRP 152300Z 1600/1624 VRB03KT 9999 SCT020 SCT040"
    },
    {
      "icao": "LLBG",
      "iata": "TLV",
      "name": "Ben Gurion International Airport",
      "updatedAt": "160320Z",
      "visibility_m": 10000,
      "taf_visibility_m": 10000,
      "worst_visibility_m": 10000,
      "ceiling_ft": 5500,
      "hazards": [],
      "severityScore": 0,
      "metarRaw": "METAR LLBG 160320Z VRB01KT CAVOK 09/06 Q1023 NOSIG RMK BKN055",
      "tafRaw": "TAF LLBG 152323Z 1600/1624 VRB03KT 9999 FEW045 \n  PROB40 \n  TEMPO 1600/1607 16005KT BKN035 \n  BECMG 1607/1609 29010KT SCT045 \n  PROB40 \n  TEMPO 1609/1615 BKN040 \n  BECMG 1615/1617 VRB04KT TX18/1611Z TN09/1604Z"
    },
    {
      "icao": "LRIA",
      "iata": "IAS",
      "name": "Iaşi Airport",
      "updatedAt": "160330Z",
      "visibility_m": 10000,
      "taf_visibility_m": 10000,
      "worst_visibility_m": 10000,
      "ceiling_ft": 4800,
      "hazards": [],
      "severityScore": 0,
      "metarRaw": "METAR LRIA 160330Z 35006KT 320V030 9999 OVC048 M10/M12 Q1030",
      "tafRaw": "TAF LRIA 160200Z 1603/1612 02006KT 9999 SCT010 OVC035"
    },
    {
      "icao": "LWOH",
      "iata": "OHD",
      "name": "Ohrid St. Paul the Apostle Airport",
      "updatedAt": null,
      "visibility_m": null,
      "taf_visibility_m": 10000,
      "worst_visibility_m": 10000,
      "ceiling_ft": null,
      "hazards": [],
      "severityScore": 0,
      "metarRaw": null,
      "tafRaw": "TAF LWOH 160230Z 1603/1703 VRB02KT 9999 FEW040"
    },
    {
      "icao": "OEMA",
      "iata": "MED",
      "name": "Prince Mohammad Bin Abdulaziz Airport",
      "updatedAt": "160300Z",
      "visibility_m": 10000,
      "taf_visibility_m": 7000,
      "worst_visibility_m": 7000,
      "ceiling_ft": null,
      "hazards": [],
      "severityScore": 0,
      "metarRaw": "METAR OEMA 160300Z 03007KT CAVOK 12/M02 Q1024 NOSIG",
      "tafRaw": "TAF OEMA 152300Z 1600/1706 VRB03KT CAVOK \n  BECMG 1606/1608 08015KT 7000 NSC"
    },
    {
      "icao": "OMAA",
      "iata": "AUH",
      "name": "Zayed International Airport",
      "updatedAt": "160300Z",
      "visibility_m": 10000,
      "taf_visibility_m": 8000,
      "worst_visibility_m": 8000,
      "ceiling_ft": null,
      "hazards": [],
      "severityScore": 0,
      "metarRaw": "METAR OMAA 160300Z 30009KT 9999 FEW035 19/11 Q1019 NOSIG",
      "tafRaw": "TAF OMAA 152300Z 1600/1706 32012KT 8000 FEW030 \n  PROB30 \n  TEMPO 1605/1613 32015G25KT"
    },
    {
      "icao": "OMDB",
      "iata": "DXB",
      "name": "Dubai International Airport",
      "updatedAt": "160330Z",
      "visibility_m": 10000,
      "taf_visibility_m": 8000,
      "worst_visibility_m": 8000,
      "ceiling_ft": null,
      "hazards": [],
      "severityScore": 0,
      "metarRaw": "METAR OMDB 160330Z 27011KT 230V300 CAVOK 20/08 Q1018 NOSIG",
      "tafRaw": "TAF OMDB 152300Z 1600/1706 29013KT 8000 FEW030 \n  PROB30 1600/1605 23008KT \n  PROB30 \n  TEMPO 1605/1615 29018G28KT \n  PROB30 1701/1705 23007KT"
    },
    {
      "icao": "UBBB",
      "iata": "GYD",
      "name": "Heydar Aliyev International Airport",
      "updatedAt": "160330Z",
      "visibility_m": 10000,
      "taf_visibility_m": 10000,
      "worst_visibility_m": 10000,
      "ceiling_ft": null,
      "hazards": [],
      "severityScore": 0,
      "metarRaw": "METAR UBBB 160330Z 18006KT CAVOK 01/M01 Q1022 NOSIG",
      "tafRaw": "TAF UBBB 152302Z 1600/1624 17008KT 9999 SCT030 TX07/1610Z TNM00/1602Z \n  TEMPO 1600/1604 20010KT SCT015 \n  TEMPO 1606/1612 20014KT \n  TEMPO 1614/1616 24006KT SCT012 \n  BECMG 1616/1618 31006KT SCT010 SCT020"
    }
  ],
  "stats": {
    "icaoCount": 159,
    "metarReturned": 154,
    "tafReturned": 145,
    "stationsWritten": 159,
    "missingMetar": 5,
    "missingTaf": 14
  },
  "errors": []
}