{
  "generatedAt": "2026-01-28T07:51:57.657Z",
  "stations": [
    {
      "icao": "BKPR",
      "iata": "PRN",
      "name": "Priština Adem Jashari International Airport",
      "lat": 42.5728,
      "lon": 21.035801,
      "updatedAt": null,
      "visibility_m": null,
      "taf_visibility_m": 300,
      "worst_visibility_m": 300,
      "ceiling_ft": 200,
      "hazards": [
        "FZFG",
        "BR",
        "FG"
      ],
      "severityScore": 100,
      "metarRaw": null,
      "tafRaw": "TAF BKPR 280530Z 2806/2906 17005KT 1200 BCFG BKN005 \n  BECMG 2806/2808 3000 BR FEW008 SCT030 \n  PROB30 \n  TEMPO 2806/2808 0300 FZFG BKN002 \n  BECMG 2808/2810 9999 NSW \n  TEMPO 2811/2822 16015KT"
    },
    {
      "icao": "EBCI",
      "iata": "CRL",
      "name": "Brussels South Charleroi Airport",
      "lat": 50.461963,
      "lon": 4.459562,
      "updatedAt": "280720Z",
      "visibility_m": 1200,
      "taf_visibility_m": 800,
      "worst_visibility_m": 800,
      "ceiling_ft": 200,
      "hazards": [
        "BR",
        "FG",
        "DZ"
      ],
      "severityScore": 100,
      "metarRaw": "METAR EBCI 280720Z 24004KT 4500 BR FEW045 04/04 Q0993 TEMPO 1200 BR",
      "tafRaw": "TAF EBCI 280520Z 2806/2912 33003KT 6000 BKN008 \n  TEMPO 2806/2812 2500 BR SCT003 BKN004 \n  PROB40 \n  TEMPO 2806/2810 0800 FG SCT001 BKN002 \n  TEMPO 2818/2910 1500 BR -DZ SCT003 BKN004 \n  PROB30 \n  TEMPO 2819/2908 0800 FG SCT001 BKN002 \n  BECMG 2910/2912 BKN018"
    },
    {
      "icao": "EDFH",
      "iata": "HHN",
      "name": "Frankfurt-Hahn Airport",
      "lat": 49.946353,
      "lon": 7.261734,
      "updatedAt": "280720Z",
      "visibility_m": 1500,
      "taf_visibility_m": 400,
      "worst_visibility_m": 400,
      "ceiling_ft": 400,
      "hazards": [
        "RA",
        "FG",
        "SN",
        "DZ"
      ],
      "severityScore": 100,
      "metarRaw": "METAR EDFH 280720Z 34004KT 310V010 1500 R21/0800N -RA BCFG OVC004 02/02 Q0992",
      "tafRaw": "TAF EDFH 280500Z 2806/2906 VRB03KT 2000 -RADZ OVC002 \n  BECMG 2806/2809 05005KT \n  TEMPO 2806/2812 0400 DZRA FG VV000 \n  PROB30 \n  TEMPO 2812/2818 BKN005 \n  TEMPO 2818/2906 0500 -SN FG OVC000 \n  BECMG 2819/2822 VRB03KT"
    },
    {
      "icao": "EGGW",
      "iata": "LTN",
      "name": "London Luton Airport",
      "lat": 51.874699,
      "lon": -0.368333,
      "updatedAt": "280720Z",
      "visibility_m": 9000,
      "taf_visibility_m": 300,
      "worst_visibility_m": 300,
      "ceiling_ft": 0,
      "hazards": [
        "FG",
        "FZFG",
        "BR",
        "SHRA",
        "DZ",
        "RA"
      ],
      "severityScore": 100,
      "metarRaw": "METAR EGGW 280720Z 19004KT 9000 2000E BCFG NSC 02/02 Q0992",
      "tafRaw": "TAF EGGW 280457Z 2806/2906 VRB05KT 9999 FEW020 \n  TEMPO 2806/2810 4000 BR \n  PROB30 \n  TEMPO 2806/2810 0300 FG FZFG BKN000 \n  PROB30 \n  TEMPO 2810/2815 8000 BKN012 \n  PROB40 \n  TEMPO 2815/2818 7000 SHRA \n  BECMG 2818/2821 4000 BR \n  PROB40 2820/2906 0300 DZ FG OVC000 \n  BECMG 2903/2906 10010KT"
    },
    {
      "icao": "EGKK",
      "iata": "LGW",
      "name": "London Gatwick Airport",
      "lat": 51.148771,
      "lon": -0.192089,
      "updatedAt": "280720Z",
      "visibility_m": 4000,
      "taf_visibility_m": 300,
      "worst_visibility_m": 300,
      "ceiling_ft": 0,
      "hazards": [
        "BR",
        "FG",
        "DZ"
      ],
      "severityScore": 100,
      "metarRaw": "METAR EGKK 280720Z VRB01KT 4000 1000W R26L/P1500N BR PRFG FEW002 M00/M00 Q0993",
      "tafRaw": "TAF EGKK 280455Z 2806/2912 14003KT 9999 FEW042 \n  PROB30 2806/2810 0300 FG VV/// \n  BECMG 2815/2818 6000 \n  BECMG 2818/2821 3000 BR MIFG \n  PROB40 2821/2904 0300 FG VV/// \n  TEMPO 2904/2910 0300 -DZ FG BKN000 \n  BECMG 2910/2912 9999 NSW \n  TEMPO 2910/2912 BKN006"
    },
    {
      "icao": "EHBK",
      "iata": "MST",
      "name": "Maastricht Aachen Airport",
      "lat": 50.911701,
      "lon": 5.77014,
      "updatedAt": "280725Z",
      "visibility_m": 4400,
      "taf_visibility_m": 600,
      "worst_visibility_m": 600,
      "ceiling_ft": 400,
      "hazards": [
        "BR",
        "FG",
        "SN",
        "RA",
        "DZ"
      ],
      "severityScore": 100,
      "metarRaw": "METAR EHBK 280725Z AUTO 16001KT 4400 BR OVC004 05/04 Q0994 NOSIG",
      "tafRaw": "TAF EHBK 280512Z 2806/2912 VRB02KT 9999 BKN030 \n  PROB30 \n  TEMPO 2806/2906 2000 BR BKN004 \n  PROB30 2808/2816 0600 FG OVC001 \n  BECMG 2812/2815 01006KT \n  PROB30 \n  TEMPO 2817/2822 1500 BR -DZRA OVC003 \n  PROB40 \n  TEMPO 2822/2910 1500 BR -SN -SNRA OVC002 \n  TEMPO 2910/2912 4000 BR BKN008"
    },
    {
      "icao": "EHEH",
      "iata": "EIN",
      "name": "Eindhoven Airport",
      "lat": 51.4500999451,
      "lon": 5.37452983856,
      "updatedAt": null,
      "visibility_m": null,
      "taf_visibility_m": 300,
      "worst_visibility_m": 300,
      "ceiling_ft": 0,
      "hazards": [
        "FG",
        "BR",
        "SN"
      ],
      "severityScore": 100,
      "metarRaw": null,
      "tafRaw": "TAF EHEH 280559Z 2806/2912 VRB01KT 0600 FG VV001 \n  TEMPO 2806/2810 0300 FG VV000 \n  BECMG 2813/2815 1500 BR BKN003 \n  PROB40 2813/2818 0600 FG OVC001 \n  BECMG 2818/2820 6000 NSW \n  PROB40 \n  TEMPO 2900/2912 2000 -SN SCT003 BKN007"
    },
    {
      "icao": "EPLB",
      "iata": "LUZ",
      "name": "Lublin Airport",
      "lat": 51.240157,
      "lon": 22.713461,
      "updatedAt": "280730Z",
      "visibility_m": 2600,
      "taf_visibility_m": 600,
      "worst_visibility_m": 600,
      "ceiling_ft": 100,
      "hazards": [
        "BR",
        "FZFG",
        "FG"
      ],
      "severityScore": 100,
      "metarRaw": "METAR EPLB 280730Z 10001KT 2600 BR NSC M02/M02 Q0999",
      "tafRaw": "TAF EPLB 280530Z 2806/2906 VRB02KT 3000 BR SCT049 \n  TEMPO 2806/2809 2000 BR BKN005 BKN012 \n  PROB40 2806/2808 0800 FZFG OVC002 \n  BECMG 2809/2812 BKN005 \n  PROB40 2809/2814 6000 BKN010 \n  BECMG 2814/2816 1200 BR BKN004 \n  TEMPO 2815/2906 0600 FZFG BKN001"
    },
    {
      "icao": "EPMO",
      "iata": "WMI",
      "name": "Modlin Airport",
      "lat": 52.451099,
      "lon": 20.6518,
      "updatedAt": "280730Z",
      "visibility_m": 700,
      "taf_visibility_m": 300,
      "worst_visibility_m": 300,
      "ceiling_ft": 100,
      "hazards": [
        "FZFG",
        "FG",
        "BR",
        "SN"
      ],
      "severityScore": 100,
      "metarRaw": "METAR EPMO 280730Z 28003KT 0700 0300W R08/0300N FZFG VV001 M03/M03 Q1001",
      "tafRaw": "TAF EPMO 280530Z 2806/2906 VRB02KT 2000 -SN BR BKN007 \n  TEMPO 2806/2809 0800 FZFG BKN003 \n  PROB40 2806/2808 0300 FZFG OVC001 \n  BECMG 2809/2812 4000 BR \n  BECMG 2813/2816 6000 BKN010 \n  TEMPO 2816/2906 3000 BR BKN005"
    },
    {
      "icao": "EPPO",
      "iata": "POZ",
      "name": "Poznań-Ławica Airport",
      "lat": 52.421598,
      "lon": 16.823359,
      "updatedAt": "280730Z",
      "visibility_m": 2800,
      "taf_visibility_m": 800,
      "worst_visibility_m": 800,
      "ceiling_ft": 400,
      "hazards": [
        "BR",
        "FZFG",
        "FG"
      ],
      "severityScore": 100,
      "metarRaw": "METAR EPPO 280730Z 08003KT 2800 BR BKN004 M01/M02 Q1001",
      "tafRaw": "TAF EPPO 280530Z 2806/2906 07007KT 2000 BR OVC003 \n  BECMG 2807/2809 4000 BR BKN005 \n  BECMG 2809/2811 6000 BKN012 \n  BECMG 2816/2819 2500 BR BKN007 \n  TEMPO 2819/2906 0800 FZFG BKN004"
    },
    {
      "icao": "EPWA",
      "iata": "WAW",
      "name": "Warsaw Chopin Airport",
      "lat": 52.165699,
      "lon": 20.9671,
      "updatedAt": "280730Z",
      "visibility_m": 2800,
      "taf_visibility_m": 600,
      "worst_visibility_m": 600,
      "ceiling_ft": 1500,
      "hazards": [
        "BR",
        "SN",
        "FZFG",
        "FG"
      ],
      "severityScore": 100,
      "metarRaw": "METAR EPWA 280730Z 32004KT 290V350 2800 -SN BR SCT006 BKN015 M00/M01 Q1000 BECMG 3500 BR",
      "tafRaw": "TAF EPWA 280530Z 2806/2906 02004KT 4000 -SN BR BKN007 \n  TEMPO 2806/2809 2000 BR \n  PROB30 2806/2808 0600 FZFG OVC002 \n  PROB40 2806/2812 6000 BKN015 \n  BECMG 2812/2815 6000 BKN010 \n  TEMPO 2818/2906 3000 BR BKN005"
    },
    {
      "icao": "LBPD",
      "iata": "PDV",
      "name": "Plovdiv International Airport",
      "lat": 42.067799,
      "lon": 24.8508,
      "updatedAt": "280730Z",
      "visibility_m": 10000,
      "taf_visibility_m": 300,
      "worst_visibility_m": 300,
      "ceiling_ft": 200,
      "hazards": [
        "BR",
        "FG"
      ],
      "severityScore": 100,
      "metarRaw": "METAR LBPD 280730Z AUTO 00000KT 9999 NCD 05/02 Q1008 NOSIG",
      "tafRaw": "TAF LBPD 280500Z 2806/2906 VRB04KT CAVOK \n  BECMG 2819/2821 2000 BR \n  BECMG 2823/2901 0300 BCFG BKN002"
    },
    {
      "icao": "LBSF",
      "iata": "SOF",
      "name": "Sofia Airport",
      "lat": 42.696357,
      "lon": 23.417671,
      "updatedAt": "280730Z",
      "visibility_m": 300,
      "taf_visibility_m": null,
      "worst_visibility_m": 300,
      "ceiling_ft": 200,
      "hazards": [
        "FZFG",
        "FG"
      ],
      "severityScore": 100,
      "metarRaw": "METAR LBSF 280730Z 00000KT 0300 R27/0450N FZFG VV002 M02/M02 Q1008 NOSIG",
      "tafRaw": null
    },
    {
      "icao": "LEZG",
      "iata": "ZAZ",
      "name": "Zaragoza Airport",
      "lat": 41.666199,
      "lon": -1.04155,
      "updatedAt": "280730Z",
      "visibility_m": 10000,
      "taf_visibility_m": 600,
      "worst_visibility_m": 600,
      "ceiling_ft": 100,
      "hazards": [
        "FG",
        "BR",
        "RA"
      ],
      "severityScore": 100,
      "metarRaw": "METAR LEZG 280730Z 12004KT 070V160 CAVOK 05/02 Q0996 NOSIG",
      "tafRaw": "TAF LEZG 280500Z 2806/2906 25005KT 9999 FEW040 TX08/2813Z TN03/2900Z \n  BECMG 2806/2808 10012KT \n  TEMPO 2808/2817 3000 RA BR BKN010 \n  BECMG 2813/2816 27006KT \n  PROB40 \n  TEMPO 2817/2902 3000 BR BKN008 \n  PROB30 \n  TEMPO 2820/2902 0600 FG VV001 \n  PROB40 \n  TEMPO 2903/2906 4000 RA BKN040"
    },
    {
      "icao": "LFOB",
      "iata": "BVA",
      "name": "Beauvais Tillé airport",
      "lat": 49.454399,
      "lon": 2.11278,
      "updatedAt": "280730Z",
      "visibility_m": 650,
      "taf_visibility_m": 400,
      "worst_visibility_m": 400,
      "ceiling_ft": 1100,
      "hazards": [
        "FZFG",
        "FG",
        "BR"
      ],
      "severityScore": 100,
      "metarRaw": "METAR LFOB 280730Z AUTO 31001KT 0750 0650 R30/0700D R12/1100D FZFG SCT006 BKN011 M01/M01 Q0994 TEMPO VV///",
      "tafRaw": "TAF LFOB 280500Z 2806/2906 VRB03KT 9999 NSC \n  PROB40 2806/2812 3000 BR \n  PROB30 \n  TEMPO 2806/2811 0600 FG VV/// \n  PROB30 \n  TEMPO 2806/2809 FZFG \n  PROB30 2812/2818 BKN011 \n  BECMG 2818/2821 3000 BR \n  PROB40 \n  TEMPO 2821/2906 0700 FG VV/// \n  PROB30 \n  TEMPO 2823/2906 0400 FZFG"
    },
    {
      "icao": "LGTS",
      "iata": "SKG",
      "name": "Thessaloniki Macedonia International Airport",
      "lat": 40.51928,
      "lon": 22.970009,
      "updatedAt": "280720Z",
      "visibility_m": 10000,
      "taf_visibility_m": 500,
      "worst_visibility_m": 500,
      "ceiling_ft": 100,
      "hazards": [
        "TS",
        "FG",
        "BR",
        "TSRA",
        "RA"
      ],
      "severityScore": 100,
      "metarRaw": "METAR LGTS 280720Z VRB02KT CAVOK 05/02 Q1009 NOSIG",
      "tafRaw": "TAF LGTS 280500Z 2806/2906 34005KT 9999 FEW030 \n  BECMG 2810/2812 15011KT SCT030 \n  PROB40 \n  TEMPO 2815/2824 5000 RA FEW010 BKN030 \n  PROB30 \n  TEMPO 2815/2821 4000 TSRA FEW008 FEW018CB BKN020 \n  PROB40 2900/2906 4000 BR SCT008 SCT025 \n  PROB30 2901/2906 0500 FG BKN001"
    },
    {
      "icao": "LHDC",
      "iata": "DEB",
      "name": "Debrecen International Airport",
      "lat": 47.488899,
      "lon": 21.615299,
      "updatedAt": "280715Z",
      "visibility_m": 7000,
      "taf_visibility_m": 300,
      "worst_visibility_m": 300,
      "ceiling_ft": 200,
      "hazards": [
        "FG",
        "BR",
        "RA"
      ],
      "severityScore": 100,
      "metarRaw": "METAR LHDC 280715Z AUTO 12004KT 090V150 7000 BKN002 BKN085 01/01 Q1002 BECMG SCT005 OVC050",
      "tafRaw": "TAF LHDC 280515Z 2806/2815 15006KT 0300 FG VV001 \n  BECMG 2806/2809 4000 BR BKN006 \n  BECMG 2809/2812 8000 BKN045 OVC080 \n  TEMPO 2809/2815 2000 RA BR BKN008 OVC030"
    },
    {
      "icao": "LKPR",
      "iata": "PRG",
      "name": "Václav Havel Airport Prague",
      "lat": 50.100874,
      "lon": 14.259911,
      "updatedAt": "280730Z",
      "visibility_m": 4800,
      "taf_visibility_m": 900,
      "worst_visibility_m": 900,
      "ceiling_ft": 600,
      "hazards": [
        "BR",
        "FZFG",
        "SN",
        "FG"
      ],
      "severityScore": 100,
      "metarRaw": "METAR LKPR 280730Z 06003KT 4800 BR BKN006 M01/M02 Q0996 NOSIG",
      "tafRaw": "TAF LKPR 280500Z 2806/2912 05004KT 3500 BR BKN022 \n  TEMPO 2806/2809 VRB02KT 2000 BR BKN015 \n  PROB30 \n  TEMPO 2806/2808 0900 FZFG BKN002 \n  BECMG 2809/2811 06008KT 9000 BKN025 \n  TEMPO 2811/2901 BKN012 \n  BECMG 2901/2903 5000 -SN BR OVC005 \n  TEMPO 2903/2912 3000 -SN BR OVC004 \n  PROB30 \n  TEMPO 2903/2912 1000 -SN BR OVC002"
    },
    {
      "icao": "LOWW",
      "iata": "VIE",
      "name": "Vienna International Airport",
      "lat": 48.110298,
      "lon": 16.5697,
      "updatedAt": "280720Z",
      "visibility_m": 600,
      "taf_visibility_m": 700,
      "worst_visibility_m": 600,
      "ceiling_ft": 100,
      "hazards": [
        "FG",
        "DZ",
        "BR",
        "RA",
        "SN"
      ],
      "severityScore": 100,
      "metarRaw": "METAR LOWW 280720Z 05003KT 0600 R16/0650N R29/0650D -DZ FG OVC001 00/00 Q0996 NOSIG",
      "tafRaw": "TAF LOWW 280515Z 2806/2912 13007KT 1800 BCFG OVC002 TX02/2820Z TN00/2806Z \n  TEMPO 2806/2808 VRB03KT 0700 -DZ FG VV001 \n  BECMG 2808/2810 3000 BR OVC005 \n  TEMPO 2810/2818 5000 SCT005 BKN010 \n  TEMPO 2818/2824 VRB02KT 2000 -RADZ OVC003 \n  FM290000 09005KT 3000 -RA OVC004 \n  TEMPO 2906/2912 1200 SNRA"
    },
    {
      "icao": "LRIA",
      "iata": "IAS",
      "name": "Iaşi Airport",
      "lat": 47.180278,
      "lon": 27.620833,
      "updatedAt": "280730Z",
      "visibility_m": 600,
      "taf_visibility_m": 300,
      "worst_visibility_m": 300,
      "ceiling_ft": 300,
      "hazards": [
        "FG",
        "FZFG",
        "BR"
      ],
      "severityScore": 100,
      "metarRaw": "METAR LRIA 280730Z 08002KT 0600 R14/1400N BCFG OVC003 00/M00 Q1005",
      "tafRaw": "TAF LRIA 280500Z 2806/2815 10006KT 0300 FZFG OVC001 \n  BECMG 2807/2809 0600 FG OVC002 \n  BECMG 2809/2811 1500 BR BKN005"
    },
    {
      "icao": "LRBC",
      "iata": "BCM",
      "name": "Bacău George Enescu International  Airport",
      "lat": 46.5219,
      "lon": 26.910299,
      "updatedAt": "280730Z",
      "visibility_m": 300,
      "taf_visibility_m": 350,
      "worst_visibility_m": 300,
      "ceiling_ft": 200,
      "hazards": [
        "FZFG",
        "FG",
        "BR"
      ],
      "severityScore": 100,
      "metarRaw": "METAR LRBC 280730Z 16008KT 0300 R16/0350N FZFG VV002 M00/M00 Q1004",
      "tafRaw": "TAF LRBC 280500Z 2806/2815 16008KT 0350 FZFG VV001 \n  BECMG 2808/2810 0800 FG OVC002 \n  TEMPO 2810/2812 1500 BR BKN005"
    },
    {
      "icao": "LRBV",
      "iata": "GHV",
      "name": "Brașov-Ghimbav International Airport",
      "lat": 45.70558,
      "lon": 25.522871,
      "updatedAt": "280730Z",
      "visibility_m": 200,
      "taf_visibility_m": 600,
      "worst_visibility_m": 200,
      "ceiling_ft": 100,
      "hazards": [
        "FG",
        "BR"
      ],
      "severityScore": 100,
      "metarRaw": "METAR LRBV 280730Z VRB02KT 0200 R03/0400N FG VV001 02/02 Q1003",
      "tafRaw": "TAF LRBV 280500Z 2806/2815 VRB04KT 3000 BR BKN015 \n  TEMPO 2806/2808 0600 FG BKN002 \n  BECMG 2809/2811 5000"
    },
    {
      "icao": "LRCV",
      "iata": "CRA",
      "name": "Craiova International Airport",
      "lat": 44.3181,
      "lon": 23.888599,
      "updatedAt": "280730Z",
      "visibility_m": 150,
      "taf_visibility_m": 150,
      "worst_visibility_m": 150,
      "ceiling_ft": 200,
      "hazards": [
        "FZFG",
        "FG",
        "BR"
      ],
      "severityScore": 100,
      "metarRaw": "METAR LRCV 280730Z 00000KT 0150 R26/0225N FZFG OVC002 M01/M01 Q1006",
      "tafRaw": "TAF LRCV 280500Z 2806/2815 VRB04KT 0150 FG VV001 \n  BECMG 2806/2808 0600 OVC002 \n  BECMG 2808/2810 1500 BR BKN005 \n  BECMG 2810/2812 3000 BKN010 \n  BECMG 2812/2814 08010KT 5000 BKN015"
    },
    {
      "icao": "LROP",
      "iata": "OTP",
      "name": "Bucharest Henri Coandă International Airport",
      "lat": 44.571792,
      "lon": 26.103285,
      "updatedAt": "280730Z",
      "visibility_m": 4000,
      "taf_visibility_m": 200,
      "worst_visibility_m": 200,
      "ceiling_ft": 400,
      "hazards": [
        "BR",
        "FG"
      ],
      "severityScore": 100,
      "metarRaw": "METAR LROP 280730Z 24006KT 4000 BR BKN004 04/04 Q1006 BECMG 5000 OVC005",
      "tafRaw": "TAF LROP 280500Z 2806/2906 24008KT 0200 FG VV001 \n  BECMG 2806/2807 0600 OVC002 \n  BECMG 2807/2809 3000 BR BKN010 \n  BECMG 2809/2811 9999 NSW SCT015 \n  BECMG 2816/2818 3000 BR \n  BECMG 2820/2822 0600 FG OVC002 \n  TEMPO 2900/2906 0300 FG VV001"
    },
    {
      "icao": "LRSB",
      "iata": "SBZ",
      "name": "Sibiu International Airport",
      "lat": 45.785841,
      "lon": 24.086666,
      "updatedAt": "280730Z",
      "visibility_m": 800,
      "taf_visibility_m": 200,
      "worst_visibility_m": 200,
      "ceiling_ft": 300,
      "hazards": [
        "FG",
        "BR",
        "RA"
      ],
      "severityScore": 100,
      "metarRaw": "METAR LRSB 280730Z VRB03KT 0800 R27/1000D FG FEW001 OVC003 03/03 Q1003",
      "tafRaw": "TAF LRSB 280500Z 2806/2906 VRB04KT 0200 FG VV001 \n  BECMG 2806/2808 0600 OVC002 \n  BECMG 2808/2810 3000 BR BKN010 \n  BECMG 2810/2812 7000 NSW BKN025 \n  TEMPO 2820/2906 3000 -RA BR BKN010 BKN035"
    },
    {
      "icao": "LRSV",
      "iata": "SCV",
      "name": "Suceava Stefan cel Mare Airport",
      "lat": 47.6875,
      "lon": 26.35409927368164,
      "updatedAt": "280730Z",
      "visibility_m": 100,
      "taf_visibility_m": 150,
      "worst_visibility_m": 100,
      "ceiling_ft": 100,
      "hazards": [
        "FZFG",
        "FG",
        "BR"
      ],
      "severityScore": 100,
      "metarRaw": "METAR LRSV 280730Z VRB02KT 0100 R34/0300N FZFG SCT001 M01/M01 Q1002",
      "tafRaw": "TAF LRSV 280500Z 2806/2815 VRB04KT 0150 FZFG VV001 \n  BECMG 2808/2810 0600 FG OVC002 \n  BECMG 2810/2812 1500 BR BKN005"
    },
    {
      "icao": "LRTM",
      "iata": "TGM",
      "name": "Târgu Mureş Transilvania International Airport",
      "lat": 46.467701,
      "lon": 24.4125,
      "updatedAt": "280730Z",
      "visibility_m": 200,
      "taf_visibility_m": 300,
      "worst_visibility_m": 200,
      "ceiling_ft": 100,
      "hazards": [
        "FG",
        "BR"
      ],
      "severityScore": 100,
      "metarRaw": "METAR LRTM 280730Z 01001KT 0200 R07/0325N FG BKN001 OVC004 01/01 Q1004",
      "tafRaw": "TAF LRTM 280500Z 2806/2815 VRB04KT 0600 FG OVC002 \n  TEMPO 2806/2807 0300 FG VV001 \n  BECMG 2807/2809 3000 BR BKN010 \n  BECMG 2809/2811 5000 BKN015"
    },
    {
      "icao": "LRTR",
      "iata": "TSR",
      "name": "Timişoara Traian Vuia Airport",
      "lat": 45.809898,
      "lon": 21.3379,
      "updatedAt": "280730Z",
      "visibility_m": 6000,
      "taf_visibility_m": 350,
      "worst_visibility_m": 350,
      "ceiling_ft": 100,
      "hazards": [
        "FG",
        "BR",
        "RA"
      ],
      "severityScore": 100,
      "metarRaw": "METAR LRTR 280730Z 11011KT 6000 FEW001 01/01 Q1002 NOSIG",
      "tafRaw": "TAF LRTR 280500Z 2806/2906 11010KT 0350 FG VV001 \n  BECMG 2806/2807 0800 OVC002 \n  BECMG 2807/2809 3000 BR BKN010 \n  BECMG 2809/2810 CAVOK \n  BECMG 2823/2901 5000 -RA BR BKN015 BKN040 \n  TEMPO 2901/2905 3000 RA BR BKN005 OVC030"
    },
    {
      "icao": "LUKK",
      "iata": "RMO",
      "name": "Chişinău International Airport",
      "lat": 46.9277,
      "lon": 28.931,
      "updatedAt": "280730Z",
      "visibility_m": 250,
      "taf_visibility_m": 300,
      "worst_visibility_m": 250,
      "ceiling_ft": 200,
      "hazards": [
        "FZFG",
        "FG",
        "BR"
      ],
      "severityScore": 100,
      "metarRaw": "METAR LUKK 280730Z 15002KT 0250 R08/0325N FZFG VV002 M00/M00 Q1005 TEMPO 0400 FZFG",
      "tafRaw": "TAF LUKK 280523Z 2806/2906 13006KT 0300 FZFG VV001 \n  BECMG 2809/2811 0800 FG VV002 \n  TEMPO 2811/2820 1500 BR OVC002 \n  TEMPO 2900/2906 0500 VV001"
    },
    {
      "icao": "LWSK",
      "iata": "SKP",
      "name": "Skopje International Airport",
      "lat": 41.958087,
      "lon": 21.622581,
      "updatedAt": "280750Z",
      "visibility_m": 500,
      "taf_visibility_m": null,
      "worst_visibility_m": 500,
      "ceiling_ft": 200,
      "hazards": [
        "FZFG",
        "FG"
      ],
      "severityScore": 100,
      "metarRaw": "METAR LWSK 280750Z VRB02KT 0500 R34/0800U FZFG OVC002 00/M01 Q1010 NOSIG",
      "tafRaw": null
    },
    {
      "icao": "LYNI",
      "iata": "INI",
      "name": "Niš Constantine the Great Airport",
      "lat": 43.336538,
      "lon": 21.856242,
      "updatedAt": "280730Z",
      "visibility_m": 250,
      "taf_visibility_m": null,
      "worst_visibility_m": 250,
      "ceiling_ft": 100,
      "hazards": [
        "FZFG",
        "FG"
      ],
      "severityScore": 100,
      "metarRaw": "METAR LYNI 280730Z 18004KT 150V210 0250 R29/0400N R11/0450N FZFG BKN001 M01/M01 Q1007 BECMG 0700 BKN002",
      "tafRaw": null
    },
    {
      "icao": "LZIB",
      "iata": "BTS",
      "name": "M. R. Štefánik Airport",
      "lat": 48.1702,
      "lon": 17.2127,
      "updatedAt": "280730Z",
      "visibility_m": 6000,
      "taf_visibility_m": 700,
      "worst_visibility_m": 700,
      "ceiling_ft": 800,
      "hazards": [
        "FG",
        "BR",
        "RA",
        "DZ"
      ],
      "severityScore": 100,
      "metarRaw": "METAR LZIB 280730Z 06006KT 6000 FEW007 OVC011 01/01 Q0997 TEMPO BKN008",
      "tafRaw": "TAF LZIB 280515Z 2806/2906 05007KT 7000 OVC018 \n  TEMPO 2806/2808 0700 -DZ FG OVC002 \n  TEMPO 2808/2814 BKN012 \n  TEMPO 2816/2906 2000 -RA BR OVC007"
    },
    {
      "icao": "LZKZ",
      "iata": "KSC",
      "name": "Košice International Airport",
      "lat": 48.663101,
      "lon": 21.2411,
      "updatedAt": "280730Z",
      "visibility_m": 3500,
      "taf_visibility_m": 700,
      "worst_visibility_m": 700,
      "ceiling_ft": 800,
      "hazards": [
        "BR",
        "FG",
        "RA",
        "SN"
      ],
      "severityScore": 100,
      "metarRaw": "METAR LZKZ 280730Z 29002KT 3500 BR OVC008 01/01 Q1001 NOSIG",
      "tafRaw": "TAF LZKZ 280515Z 2806/2906 19006KT 8000 BKN012 \n  TEMPO 2806/2809 0700 FG OVC002 \n  BECMG 2809/2811 3500 -RA BR OVC020 \n  TEMPO 2811/2818 1200 -RASN BR FEW003 OVC007"
    },
    {
      "icao": "UAAA",
      "iata": "ALA",
      "name": "Almaty International Airport",
      "lat": 43.354267,
      "lon": 77.042828,
      "updatedAt": "280730Z",
      "visibility_m": 10000,
      "taf_visibility_m": 200,
      "worst_visibility_m": 200,
      "ceiling_ft": 10000,
      "hazards": [
        "FZFG",
        "BR",
        "SN",
        "FG",
        "RA"
      ],
      "severityScore": 100,
      "metarRaw": "METAR UAAA 280730Z 02003MPS 9999 SCT050 BKN100 03/M02 Q1021 NOSIG",
      "tafRaw": "TAF UAAA 280503Z 2806/2906 04003MPS 3100 BR FU BKN030CB OVC100 TX02/2806Z TNM05/2902Z \n  TEMPO 2806/2809 34003G08MPS 1200 -SHSNRA BR SCT005 BKN011CB OVC020 \n  FM281200 22003MPS 1100 BR FU SCT011 BKN100 \n  TEMPO 2812/2818 0500 FZFG VV002 \n  TEMPO 2818/2905 0200 FZFG VV001"
    },
    {
      "icao": "UDSG",
      "iata": "LWN",
      "name": "Shirak International Airport",
      "lat": 40.750401,
      "lon": 43.859299,
      "updatedAt": "280730Z",
      "visibility_m": 1300,
      "taf_visibility_m": 200,
      "worst_visibility_m": 200,
      "ceiling_ft": 1000,
      "hazards": [
        "BR",
        "FZFG",
        "FG"
      ],
      "severityScore": 100,
      "metarRaw": "METAR UDSG 280730Z 13001KT 1300 R02/1300U BR BKN010 M09/M10 Q1020 NOSIG",
      "tafRaw": "TAF UDSG 280458Z 2806/2906 VRB06KT 0800 FZFG OVC010 \n  TEMPO 2806/2808 0200 FZFG VV001 \n  BECMG 2808/2809 3000 BR BKN030"
    },
    {
      "icao": "LFLL",
      "iata": "LYS",
      "name": "Lyon Saint-Exupéry Airport",
      "lat": 45.725996,
      "lon": 5.090139,
      "updatedAt": "280730Z",
      "visibility_m": 5000,
      "taf_visibility_m": 500,
      "worst_visibility_m": 500,
      "ceiling_ft": 600,
      "hazards": [
        "RA",
        "FG"
      ],
      "severityScore": 92,
      "metarRaw": "METAR LFLL 280730Z 32005KT 270V360 5000 RA SCT004 BKN006 BKN015 05/05 Q0993 NOSIG",
      "tafRaw": "TAF LFLL 280500Z 2806/2912 32009KT 9999 -RA FEW010 OVC025 \n  TEMPO 2806/2808 4000 RA BKN010 \n  TEMPO 2808/2812 BKN009 \n  FM290000 VRB03KT 9999 BKN050 \n  PROB40 \n  TEMPO 2902/2911 BKN010 \n  PROB30 \n  TEMPO 2906/2910 0500 BCFG SCT001 \n  BECMG 2910/2912 CAVOK"
    },
    {
      "icao": "LRCL",
      "iata": "CLJ",
      "name": "Cluj Avram Iancu International Airport",
      "lat": 46.787425,
      "lon": 23.684292,
      "updatedAt": "280730Z",
      "visibility_m": 4000,
      "taf_visibility_m": 600,
      "worst_visibility_m": 600,
      "ceiling_ft": 300,
      "hazards": [
        "BR",
        "FG"
      ],
      "severityScore": 90,
      "metarRaw": "METAR LRCL 280730Z COR 10006KT 4000 BR BKN003 BKN007 02/01 Q1003",
      "tafRaw": "TAF LRCL 280500Z 2806/2815 08007KT 3000 BR OVC005 \n  TEMPO 2806/2807 0600 FG OVC002 \n  BECMG 2808/2810 5000 BKN015"
    },
    {
      "icao": "LIRN",
      "iata": "NAP",
      "name": "Naples International Airport",
      "lat": 40.886002,
      "lon": 14.2908,
      "updatedAt": "280720Z",
      "visibility_m": 6000,
      "taf_visibility_m": 4000,
      "worst_visibility_m": 4000,
      "ceiling_ft": 1000,
      "hazards": [
        "TSRA",
        "RA",
        "SHRA",
        "TS"
      ],
      "severityScore": 88,
      "metarRaw": "METAR LIRN 280720Z 18007KT 130V250 6000 BKN010 12/10 Q1000 NOSIG",
      "tafRaw": "TAF LIRN 280500Z 2806/2906 17012KT 9999 SCT030 \n  TEMPO 2806/2808 4000 RA \n  BECMG 2808/2810 23018G30KT \n  TEMPO 2808/2815 4000 TSRA \n  BECMG 2818/2820 21010KT \n  TEMPO 2822/2906 SHRA"
    },
    {
      "icao": "EDDK",
      "iata": "CGN",
      "name": "Cologne Bonn Airport",
      "lat": 50.865898,
      "lon": 7.14274,
      "updatedAt": "280720Z",
      "visibility_m": 8000,
      "taf_visibility_m": 1500,
      "worst_visibility_m": 1500,
      "ceiling_ft": 900,
      "hazards": [
        "BR",
        "SN",
        "RA",
        "DZ"
      ],
      "severityScore": 85,
      "metarRaw": "METAR EDDK 280720Z AUTO 07002KT 8000 OVC009 04/03 Q0994 TEMPO OVC010",
      "tafRaw": "TAF EDDK 280500Z 2806/2912 08004KT 9999 OVC015 \n  BECMG 2806/2808 OVC012 \n  PROB40 \n  TEMPO 2806/2813 4500 -DZRA BR \n  TEMPO 2808/2813 BKN008 \n  BECMG 2813/2815 OVC006 \n  TEMPO 2813/2822 4000 -RA \n  PROB40 \n  TEMPO 2819/2907 OVC004 \n  TEMPO 2822/2907 1500 -SN BR \n  TEMPO 2907/2912 4000 -RA"
    },
    {
      "icao": "EPRA",
      "iata": "RDO",
      "name": "Warsaw Radom Airport",
      "lat": 51.38937,
      "lon": 21.214742,
      "updatedAt": "280730Z",
      "visibility_m": 1800,
      "taf_visibility_m": 1000,
      "worst_visibility_m": 1000,
      "ceiling_ft": 200,
      "hazards": [
        "BR",
        "SN",
        "RA"
      ],
      "severityScore": 85,
      "metarRaw": "METAR EPRA 280730Z 35005KT 1800 -SN BR OVC002 M01/M01 Q0999",
      "tafRaw": "TAF EPRA 280530Z 2806/2815 01005KT 2500 -SN BR OVC004 \n  TEMPO 2806/2809 1000 BR OVC002 \n  BECMG 2808/2810 5000 BR BKN007 \n  PROB40 \n  TEMPO 2809/2812 3000 -SN BR OVC004 \n  BECMG 2810/2812 8000 BKN014"
    },
    {
      "icao": "EPRZ",
      "iata": "RZE",
      "name": "Rzeszów-Jasionka Airport",
      "lat": 50.109791,
      "lon": 22.024155,
      "updatedAt": "280730Z",
      "visibility_m": 3100,
      "taf_visibility_m": 1200,
      "worst_visibility_m": 1200,
      "ceiling_ft": 400,
      "hazards": [
        "BR",
        "SN",
        "RA"
      ],
      "severityScore": 85,
      "metarRaw": "METAR EPRZ 280730Z 14004KT 3100 BR SCT042 M04/M04 Q0999",
      "tafRaw": "TAF EPRZ 280530Z 2806/2906 19007KT 6000 NSC \n  TEMPO 2806/2809 3000 BR \n  BECMG 2812/2814 1500 -RASN BR BKN004 \n  BECMG 2816/2818 1200 -SN BR \n  BECMG 2901/2903 BKN006"
    },
    {
      "icao": "LRBS",
      "iata": "BBU",
      "name": "Bucharest Băneasa Aurel Vlaicu International Airport",
      "lat": 44.503133,
      "lon": 26.102944,
      "updatedAt": "280730Z",
      "visibility_m": 800,
      "taf_visibility_m": null,
      "worst_visibility_m": 800,
      "ceiling_ft": 100,
      "hazards": [
        "FG"
      ],
      "severityScore": 85,
      "metarRaw": "METAR LRBS 280730Z 24005KT 200V270 0800 R07/0900N FG VV001 03/03 Q1007 TEMPO BKN005 SCT020",
      "tafRaw": null
    },
    {
      "icao": "EDLW",
      "iata": "DTM",
      "name": "Dortmund Airport",
      "lat": 51.518299,
      "lon": 7.61224,
      "updatedAt": "280720Z",
      "visibility_m": 1700,
      "taf_visibility_m": 1200,
      "worst_visibility_m": 1200,
      "ceiling_ft": 200,
      "hazards": [
        "BR",
        "SN",
        "DZ"
      ],
      "severityScore": 83,
      "metarRaw": "METAR EDLW 280720Z 02004KT 350V050 1700 BR BKN002 OVC004 01/01 Q0994",
      "tafRaw": "TAF EDLW 280500Z 2806/2906 06007KT 3000 BR OVC010 \n  TEMPO 2806/2817 1200 -DZ OVC002 \n  BECMG 2807/2810 OVC006 \n  TEMPO 2817/2906 1200 -SN OVC001"
    },
    {
      "icao": "LPPT",
      "iata": "LIS",
      "name": "Lisbon Humberto Delgado Airport",
      "lat": 38.7813,
      "lon": -9.13592,
      "updatedAt": "280730Z",
      "visibility_m": 10000,
      "taf_visibility_m": 2000,
      "worst_visibility_m": 2000,
      "ceiling_ft": 300,
      "hazards": [
        "BR",
        "SHRA",
        "RA",
        "DZ"
      ],
      "severityScore": 81,
      "metarRaw": "METAR LPPT 280730Z 28018G29KT 9999 FEW014 SCT030 14/10 Q0999 WS R20",
      "tafRaw": "TAF LPPT 280500Z 2806/2912 29020G35KT 9999 SCT025 \n  BECMG 2807/2809 28015KT \n  TEMPO 2809/2817 28015G30KT 8000 SHRA FEW020CB BKN030 \n  BECMG 2817/2820 24015KT 5000 -RADZ BR SCT006 BKN012 \n  TEMPO 2820/2912 24018G30KT 2000 DZRA BKN003"
    },
    {
      "icao": "EYVI",
      "iata": "VNO",
      "name": "Vilnius International Airport",
      "lat": 54.634102,
      "lon": 25.285801,
      "updatedAt": "280750Z",
      "visibility_m": 7000,
      "taf_visibility_m": 1500,
      "worst_visibility_m": 1500,
      "ceiling_ft": 2800,
      "hazards": [
        "SN",
        "BR",
        "FZDZ",
        "DZ"
      ],
      "severityScore": 76,
      "metarRaw": "METAR EYVI 280750Z 05006KT 7000 -SN FEW010 OVC028 M05/M06 Q1000 NOSIG",
      "tafRaw": "TAF EYVI 280500Z 2806/2906 04009KT 5000 SN BR SCT010 BKN015 \n  TEMPO 2806/2815 1500 SCT005 \n  PROB40 \n  TEMPO 2806/2815 -FZDZ BKN005 \n  BECMG 2818/2819 8000 NSW"
    },
    {
      "icao": "LCLK",
      "iata": "LCA",
      "name": "Larnaca International Airport",
      "lat": 34.875099,
      "lon": 33.624901,
      "updatedAt": "280730Z",
      "visibility_m": 8000,
      "taf_visibility_m": 2000,
      "worst_visibility_m": 2000,
      "ceiling_ft": null,
      "hazards": [
        "TSRA",
        "SHRA",
        "TS",
        "RA"
      ],
      "severityScore": 76,
      "metarRaw": "METAR LCLK 280730Z 32004KT 300V360 8000 NSC 15/12 Q1012 NOSIG",
      "tafRaw": "TAF LCLK 280530Z 2806/2906 33006KT 9999 FEW020 SCT040 \n  PROB30 \n  TEMPO 2806/2812 5000 DU \n  PROB30 \n  TEMPO 2806/2816 5000 SHRA FEW025TCU \n  PROB30 \n  TEMPO 2806/2810 VRB20G30KT 2000 TSRA FEW025CB \n  BECMG 2807/2810 20010KT \n  BECMG 2815/2818 32006KT"
    },
    {
      "icao": "LCPH",
      "iata": "PFO",
      "name": "Paphos International Airport",
      "lat": 34.717999,
      "lon": 32.485699,
      "updatedAt": "280730Z",
      "visibility_m": 5000,
      "taf_visibility_m": 2000,
      "worst_visibility_m": 2000,
      "ceiling_ft": null,
      "hazards": [
        "TSRA",
        "SHRA",
        "TS",
        "RA"
      ],
      "severityScore": 76,
      "metarRaw": "METAR LCPH 280730Z 08005KT 5000 DU FEW030 15/10 Q1011 NOSIG",
      "tafRaw": "TAF LCPH 280530Z 2806/2906 08009KT 9999 FEW020 SCT050 \n  PROB40 \n  TEMPO 2806/2811 5000 DU \n  PROB40 \n  TEMPO 2806/2817 5000 SHRA SCT025TCU \n  PROB30 \n  TEMPO 2806/2815 VRB20G30KT 2000 TSRA SCT025CB \n  BECMG 2810/2813 30015KT \n  BECMG 2820/2823 01007KT"
    },
    {
      "icao": "LIRF",
      "iata": "FCO",
      "name": "Rome–Fiumicino Leonardo da Vinci International Airport",
      "lat": 41.804532,
      "lon": 12.251998,
      "updatedAt": "280720Z",
      "visibility_m": 4000,
      "taf_visibility_m": 4000,
      "worst_visibility_m": 4000,
      "ceiling_ft": 2000,
      "hazards": [
        "SHRA",
        "RA",
        "TSRA",
        "TS"
      ],
      "severityScore": 76,
      "metarRaw": "METAR LIRF 280720Z 16011KT 140V200 4000 -SHRA SCT008 BKN020 14/14 Q0994 RESHRA NOSIG",
      "tafRaw": "TAF LIRF 280500Z 2806/2912 16020G30KT 9999 RA SCT030 \n  TEMPO 2806/2810 4000 TSRA \n  BECMG 2810/2812 24020G35KT NSW \n  BECMG 2816/2818 24015KT \n  BECMG 2820/2822 VRB05KT \n  TEMPO 2900/2910 SHRA"
    },
    {
      "icao": "LIRZ",
      "iata": "PEG",
      "name": "Perugia San Francesco d'Assisi – Umbria International Airport",
      "lat": 43.095901,
      "lon": 12.5132,
      "updatedAt": "280720Z",
      "visibility_m": 10000,
      "taf_visibility_m": 4000,
      "worst_visibility_m": 4000,
      "ceiling_ft": 2500,
      "hazards": [
        "RA",
        "TSRA",
        "SHRA",
        "TS"
      ],
      "severityScore": 76,
      "metarRaw": "METAR LIRZ 280720Z AUTO 12006KT 080V150 9999 -RA BKN019/// 10/09 Q0993",
      "tafRaw": "TAF LIRZ 280500Z 2806/2906 17014KT 7000 RA BKN025 \n  TEMPO 2808/2814 19015G25KT 4000 TSRA \n  BECMG 2816/2818 19005KT NSW \n  TEMPO 2818/2902 SHRA"
    },
    {
      "icao": "EGBB",
      "iata": "BHX",
      "name": "Birmingham Airport",
      "lat": 52.453899,
      "lon": -1.74803,
      "updatedAt": "280720Z",
      "visibility_m": 10000,
      "taf_visibility_m": 300,
      "worst_visibility_m": 300,
      "ceiling_ft": null,
      "hazards": [
        "FG",
        "BR"
      ],
      "severityScore": 75,
      "metarRaw": "METAR EGBB 280720Z 17003KT CAVOK 00/M00 Q0992",
      "tafRaw": "TAF EGBB 280454Z 2806/2906 16005KT 9999 FEW025 \n  TEMPO 2806/2812 8000 \n  PROB30 2806/2810 0300 FG VV/// \n  BECMG 2817/2820 8000 \n  TEMPO 2820/2906 3000 BR \n  PROB30 2822/2824 0300 FG VV/// \n  PROB40 2900/2906 0300 FG VV///"
    },
    {
      "icao": "LFLS",
      "iata": "GNB",
      "name": "Grenoble Alpes Isère Airport",
      "lat": 45.3629,
      "lon": 5.32937,
      "updatedAt": "280730Z",
      "visibility_m": 1000,
      "taf_visibility_m": 1000,
      "worst_visibility_m": 1000,
      "ceiling_ft": 400,
      "hazards": [
        "SN",
        "RA"
      ],
      "severityScore": 75,
      "metarRaw": "METAR LFLS 280730Z AUTO VRB03KT 9999 RA BKN013 OVC018 04/03 Q0993 TEMPO 1000 SN BKN004",
      "tafRaw": "TAF LFLS 280200Z 2803/2903 30007KT 8000 -RA OVC016 \n  TEMPO 2803/2809 3000 SNRA BKN008 \n  PROB40 \n  TEMPO 2803/2809 1000 SN BKN004 \n  PROB40 \n  TEMPO 2809/2812 BKN012 \n  TEMPO 2821/2903 BKN010"
    },
    {
      "icao": "LFPO",
      "iata": "ORY",
      "name": "Paris-Orly Airport",
      "lat": 48.72333,
      "lon": 2.37944,
      "updatedAt": "280730Z",
      "visibility_m": 800,
      "taf_visibility_m": 300,
      "worst_visibility_m": 300,
      "ceiling_ft": 19000,
      "hazards": [
        "FG",
        "BR"
      ],
      "severityScore": 75,
      "metarRaw": "METAR LFPO 280730Z AUTO 19002KT 3900 0800 R02/P2000 R25/P2000 R07/1200D R24/1400D R06/1100U BCFG FEW002 BKN190 OVC210 03/03 Q0994 TEMPO 0800 FG VV///",
      "tafRaw": "TAF LFPO 280500Z 2806/2912 VRB03KT 6000 NSC \n  TEMPO 2806/2811 4000 BR \n  PROB40 \n  TEMPO 2806/2811 0800 FG VV/// \n  BECMG 2821/2824 0800 FG VV/// \n  TEMPO 2900/2909 0300 \n  BECMG 2909/2912 9999 NSW OVC005"
    },
    {
      "icao": "EDSB",
      "iata": "FKB",
      "name": "Karlsruhe Baden-Baden Airport",
      "lat": 48.7794,
      "lon": 8.0805,
      "updatedAt": "280720Z",
      "visibility_m": 5000,
      "taf_visibility_m": 2000,
      "worst_visibility_m": 2000,
      "ceiling_ft": 400,
      "hazards": [
        "BR",
        "RA",
        "DZ"
      ],
      "severityScore": 67,
      "metarRaw": "METAR EDSB 280720Z 03009KT 5000 RA BR BKN004 OVC018 04/04 Q0992",
      "tafRaw": "TAF EDSB 280500Z 2806/2906 02007KT 3000 -RADZ SCT002 BKN010 \n  TEMPO 2806/2812 2000 DZRA BKN002 \n  TEMPO 2812/2818 6000"
    },
    {
      "icao": "EPKK",
      "iata": "KRK",
      "name": "Kraków John Paul II International Airport",
      "lat": 50.077702,
      "lon": 19.7848,
      "updatedAt": "280730Z",
      "visibility_m": 3500,
      "taf_visibility_m": 800,
      "worst_visibility_m": 800,
      "ceiling_ft": 4000,
      "hazards": [
        "BR",
        "SN",
        "RA"
      ],
      "severityScore": 65,
      "metarRaw": "METAR EPKK 280730Z 22001KT 3500 BR BKN040 M01/M02 Q0998",
      "tafRaw": "TAF EPKK 280530Z 2806/2906 VRB02KT 2500 BR BKN040 \n  BECMG 2806/2809 6000 BKN005 \n  BECMG 2814/2816 2000 -SNRA BR BKN004 \n  BECMG 2818/2820 08010KT 1400 -SN BR \n  TEMPO 2822/2906 0800 SN"
    },
    {
      "icao": "EDDN",
      "iata": "NUE",
      "name": "Nuremberg Airport",
      "lat": 49.498699,
      "lon": 11.078056,
      "updatedAt": "280720Z",
      "visibility_m": 2600,
      "taf_visibility_m": 3000,
      "worst_visibility_m": 2600,
      "ceiling_ft": 400,
      "hazards": [
        "BR",
        "SN"
      ],
      "severityScore": 63,
      "metarRaw": "METAR EDDN 280720Z AUTO VRB01KT 2600 BR NSC 01/M00 Q0993 BECMG 7000",
      "tafRaw": "TAF EDDN 280500Z 2806/2906 05006KT 7000 NSC \n  PROB30 \n  TEMPO 2806/2808 4000 BR \n  PROB40 \n  TEMPO 2809/2812 BKN010 \n  BECMG 2817/2819 BKN010 \n  BECMG 2901/2904 3000 -SN OVC004"
    },
    {
      "icao": "LEVC",
      "iata": "VLC",
      "name": "Valencia Airport",
      "lat": 39.4893,
      "lon": -0.481625,
      "updatedAt": "280730Z",
      "visibility_m": 10000,
      "taf_visibility_m": 3000,
      "worst_visibility_m": 3000,
      "ceiling_ft": 3000,
      "hazards": [
        "TSRA",
        "RA",
        "TS"
      ],
      "severityScore": 62,
      "metarRaw": "METAR LEVC 280730Z 12008KT 080V140 9999 FEW040 09/04 Q0999 NOSIG",
      "tafRaw": "TAF LEVC 280500Z 2806/2906 18005KT 9999 FEW040 TX18/2814Z TN08/2807Z \n  TEMPO 2808/2814 4000 RA BKN030 \n  PROB30 \n  TEMPO 2808/2814 3000 TSRA FEW030CB \n  BECMG 2812/2814 28020KT \n  TEMPO 2813/2817 28025G43KT \n  TEMPO 2817/2824 27018G28KT \n  BECMG 2822/2824 28010KT \n  BECMG 2902/2904 VRB04KT"
    },
    {
      "icao": "LFSB",
      "iata": "BSL",
      "name": "EuroAirport Basel–Mulhouse–Freiburg",
      "lat": 47.60068,
      "lon": 7.521117,
      "updatedAt": "280730Z",
      "visibility_m": 2400,
      "taf_visibility_m": null,
      "worst_visibility_m": 2400,
      "ceiling_ft": 500,
      "hazards": [
        "BR",
        "RA",
        "DZ"
      ],
      "severityScore": 62,
      "metarRaw": "METAR LFSB 280730Z AUTO 09002KT 2400 -DZ BR OVC005 04/04 Q0992 TEMPO 3000 -RA BR",
      "tafRaw": null
    },
    {
      "icao": "LIRP",
      "iata": "PSA",
      "name": "Pisa International Airport",
      "lat": 43.683899,
      "lon": 10.3927,
      "updatedAt": "280715Z",
      "visibility_m": 10000,
      "taf_visibility_m": 2000,
      "worst_visibility_m": 2000,
      "ceiling_ft": 3500,
      "hazards": [
        "RA",
        "TSRA",
        "TS"
      ],
      "severityScore": 62,
      "metarRaw": "METAR LIRP 280715Z VRB02KT 9999 -RA FEW030 SCT040 12/12 Q0990 NOSIG",
      "tafRaw": "TAF LIRP 280500Z 2806/2906 19012KT 6000 -RA FEW015 SCT020 BKN035 \n  PROB30 \n  TEMPO 2806/2809 22015KT 2000 TSRA SCT010 SCT020CB \n  BECMG 2812/2814 25010KT 8000 NSW SCT030 SCT060 \n  TEMPO 2816/2822 4000 RA SCT030 BKN060"
    },
    {
      "icao": "LYPG",
      "iata": "TGD",
      "name": "Podgorica Airport / Podgorica Golubovci Airbase",
      "lat": 42.359402,
      "lon": 19.2519,
      "updatedAt": "280730Z",
      "visibility_m": 10000,
      "taf_visibility_m": 2000,
      "worst_visibility_m": 2000,
      "ceiling_ft": 4000,
      "hazards": [
        "TSRA",
        "RA",
        "TS"
      ],
      "severityScore": 62,
      "metarRaw": "METAR LYPG 280730Z 30003KT 280V340 9999 FEW030 SCT050 06/04 Q1008 NOSIG",
      "tafRaw": "TAF LYPG 280500Z 2806/2906 16006KT 9999 SCT040 BKN080 TX10/2813Z TN05/2806Z \n  TEMPO 2812/2906 5000 RA \n  PROB40 \n  TEMPO 2816/2903 16015G30KT 2000 TSRA SCT027CB BKN040"
    },
    {
      "icao": "EPSY",
      "iata": "SZY",
      "name": "Olsztyn-Mazury Airport",
      "lat": 53.481899,
      "lon": 20.9377,
      "updatedAt": "280730Z",
      "visibility_m": 1300,
      "taf_visibility_m": null,
      "worst_visibility_m": 1300,
      "ceiling_ft": 100,
      "hazards": [
        "BR"
      ],
      "severityScore": 60,
      "metarRaw": "METAR EPSY 280730Z 35004KT 1300 R01/1700N BR OVC001 M01/M01 Q1000",
      "tafRaw": null
    },
    {
      "icao": "LIPE",
      "iata": "BLQ",
      "name": "Bologna Guglielmo Marconi Airport",
      "lat": 44.5354,
      "lon": 11.2887,
      "updatedAt": "280720Z",
      "visibility_m": 3000,
      "taf_visibility_m": 3000,
      "worst_visibility_m": 3000,
      "ceiling_ft": 300,
      "hazards": [
        "BR",
        "RA"
      ],
      "severityScore": 57,
      "metarRaw": "METAR LIPE 280720Z 25005KT 3000 -RA BR BKN003 07/07 Q0991",
      "tafRaw": "TAF LIPE 280500Z 2806/2906 09010KT 6000 BKN030 \n  BECMG 2806/2808 28008KT 3000 BR BKN010 \n  TEMPO 2806/2815 RA"
    },
    {
      "icao": "LFBD",
      "iata": "BOD",
      "name": "Bordeaux–Mérignac Airport",
      "lat": 44.82865,
      "lon": -0.715356,
      "updatedAt": "280730Z",
      "visibility_m": 3500,
      "taf_visibility_m": null,
      "worst_visibility_m": 3500,
      "ceiling_ft": 400,
      "hazards": [
        "RA"
      ],
      "severityScore": 52,
      "metarRaw": "METAR LFBD 280730Z AUTO 23002KT 9999 3500 -RA BKN004 BKN012 BKN032 06/05 Q0995 BECMG BKN030",
      "tafRaw": null
    },
    {
      "icao": "LQBK",
      "iata": "BNX",
      "name": "Banja Luka International Airport",
      "lat": 44.941399,
      "lon": 17.297501,
      "updatedAt": "280730Z",
      "visibility_m": 10000,
      "taf_visibility_m": 1200,
      "worst_visibility_m": 1200,
      "ceiling_ft": 4700,
      "hazards": [
        "RA",
        "BR",
        "FG"
      ],
      "severityScore": 52,
      "metarRaw": "METAR LQBK 280730Z 05003KT 9999 -RA BKN047 03/03 Q0999 NOSIG",
      "tafRaw": "TAF LQBK 280500Z 2806/2906 34005KT 9999 SCT040 TX11/2813Z TN01/2806Z \n  PROB30 \n  TEMPO 2806/2809 4000 BR \n  TEMPO 2812/2819 16010KT RA \n  TEMPO 2819/2824 21010KT 4000 RA \n  PROB30 \n  TEMPO 2902/2906 1200 BCFG"
    },
    {
      "icao": "EYKA",
      "iata": "KUN",
      "name": "Kaunas International Airport",
      "lat": 54.963965,
      "lon": 24.08582,
      "updatedAt": "280750Z",
      "visibility_m": 4400,
      "taf_visibility_m": 1500,
      "worst_visibility_m": 1500,
      "ceiling_ft": 1800,
      "hazards": [
        "BR",
        "SN"
      ],
      "severityScore": 50,
      "metarRaw": "METAR EYKA 280750Z 01005KT 340V040 4400 -SN BR OVC018 M06/M07 Q1002",
      "tafRaw": "TAF EYKA 280500Z 2806/2906 VRB04KT 5000 SN BR OVC020 \n  TEMPO 2806/2809 03010KT 1500 SCT010 \n  TEMPO 2809/2815 03010KT 3000 SCT010 \n  BECMG 2815/2817 04010KT \n  BECMG 2817/2819 8000 NSW BKN030 \n  TEMPO 2819/2903 5000 SN BR \n  BECMG 2903/2905 SCT030"
    },
    {
      "icao": "LZTT",
      "iata": "TAT",
      "name": "Poprad-Tatry Airport",
      "lat": 49.073601,
      "lon": 20.2411,
      "updatedAt": "280730Z",
      "visibility_m": 10000,
      "taf_visibility_m": 1200,
      "worst_visibility_m": 1200,
      "ceiling_ft": 2600,
      "hazards": [
        "BR",
        "RA",
        "SN"
      ],
      "severityScore": 50,
      "metarRaw": "METAR LZTT 280730Z 16007KT 9999 FEW010 BKN026 01/M01 Q0997 NOSIG",
      "tafRaw": "TAF LZTT 280515Z 2806/2906 26008KT 9999 BKN035 \n  PROB30 \n  TEMPO 2806/2810 2500 -RA FEW005 OVC012 \n  TEMPO 2816/2906 09003KT 1200 -RASN BR BKN005"
    },
    {
      "icao": "EPWR",
      "iata": "WRO",
      "name": "Copernicus Wrocław Airport",
      "lat": 51.103719,
      "lon": 16.882096,
      "updatedAt": "280730Z",
      "visibility_m": 7000,
      "taf_visibility_m": 1200,
      "worst_visibility_m": 1200,
      "ceiling_ft": 3800,
      "hazards": [
        "BR",
        "SHSN",
        "SN"
      ],
      "severityScore": 48,
      "metarRaw": "METAR EPWR 280730Z 06005KT 7000 SCT006 OVC038 00/M01 Q0999",
      "tafRaw": "TAF EPWR 280530Z 2806/2906 02005KT 4500 BR BKN005 \n  BECMG 2807/2810 08010KT 9999 BKN020 \n  TEMPO 2809/2814 -SHSN SCT007TCU BKN015 \n  TEMPO 2818/2906 3500 BR BKN012 \n  PROB30 \n  TEMPO 2821/2906 1200 BR BKN005"
    },
    {
      "icao": "EGPD",
      "iata": "ABZ",
      "name": "Aberdeen International Airport",
      "lat": 57.2019,
      "lon": -2.19778,
      "updatedAt": "280720Z",
      "visibility_m": 10000,
      "taf_visibility_m": 3000,
      "worst_visibility_m": 3000,
      "ceiling_ft": 500,
      "hazards": [
        "RA",
        "DZ"
      ],
      "severityScore": 47,
      "metarRaw": "METAR EGPD 280720Z AUTO 13014KT 9999 -RA OVC007/// //////TCU 06/05 Q0991 NOSIG",
      "tafRaw": "TAF EGPD 280456Z 2806/2906 12015G25KT 9999 SCT010 BKN020 \n  TEMPO 2806/2821 6000 -RADZ BKN008 \n  PROB40 \n  TEMPO 2806/2821 3000 RADZ BKN005 \n  BECMG 2809/2812 13009KT \n  PROB40 \n  TEMPO 2821/2906 6000 -RA BKN012"
    },
    {
      "icao": "LEZL",
      "iata": "SVQ",
      "name": "Sevilla Airport",
      "lat": 37.417999,
      "lon": -5.89311,
      "updatedAt": "280730Z",
      "visibility_m": 5000,
      "taf_visibility_m": 4000,
      "worst_visibility_m": 4000,
      "ceiling_ft": 900,
      "hazards": [
        "RA",
        "BR"
      ],
      "severityScore": 47,
      "metarRaw": "METAR LEZL 280730Z 23030G46KT 5000 -RA BKN009 BKN018 15/15 Q0998 RERA NOSIG",
      "tafRaw": "TAF LEZL 280200Z 2803/2903 22018KT 9999 BKN025 TX18/2815Z TN10/2807Z \n  TEMPO 2803/2811 25020G35KT 4000 RA BR BKN014 \n  PROB30 \n  TEMPO 2806/2810 25025G42KT \n  PROB30 2819/2824 4000 RA BKN010 \n  PROB40 \n  TEMPO 2900/2903 23018G30KT"
    },
    {
      "icao": "LRSM",
      "iata": "SUJ",
      "name": "Satu Mare International Airport",
      "lat": 47.7033,
      "lon": 22.8857,
      "updatedAt": "280730Z",
      "visibility_m": 10000,
      "taf_visibility_m": 3000,
      "worst_visibility_m": 3000,
      "ceiling_ft": 500,
      "hazards": [
        "BR",
        "RA"
      ],
      "severityScore": 47,
      "metarRaw": "METAR LRSM 280730Z 12006KT CAVOK 02/01 Q1002",
      "tafRaw": "TAF LRSM 280500Z 2806/2815 VRB04KT 3000 BR BKN005 \n  BECMG 2806/2808 14010KT 9999 NSW SCT020 \n  TEMPO 2810/2815 5000 -RA BR"
    },
    {
      "icao": "OJAI",
      "iata": "AMM",
      "name": "Queen Alia International Airport",
      "lat": 31.7226009369,
      "lon": 35.9931983948,
      "updatedAt": "280716Z",
      "visibility_m": 1500,
      "taf_visibility_m": 1000,
      "worst_visibility_m": 1000,
      "ceiling_ft": 3000,
      "hazards": [
        "TS",
        "RA"
      ],
      "severityScore": 47,
      "metarRaw": "SPECI OJAI 280716Z 24018KT 1500 BLDU NSC 10/01 Q1016 NOSIG",
      "tafRaw": "TAF OJAI 280434Z 2806/2912 26012KT 4000 HZ SCT035 \n  TEMPO 2806/2810 25016KT 2000 BLDU BKN040 \n  TEMPO 2810/2818 26025KT 1000 -TSRAGR BLDU FEW025CB BKN030"
    },
    {
      "icao": "LPFR",
      "iata": "FAO",
      "name": "Faro - Gago Coutinho International Airport",
      "lat": 37.015909,
      "lon": -7.970939,
      "updatedAt": "280730Z",
      "visibility_m": 4000,
      "taf_visibility_m": 2000,
      "worst_visibility_m": 2000,
      "ceiling_ft": 1200,
      "hazards": [
        "BR",
        "RA",
        "DZ"
      ],
      "severityScore": 44,
      "metarRaw": "METAR LPFR 280730Z 24035G48KT 4000 RA BR SCT008 BKN012 16/14 Q1000",
      "tafRaw": "TAF LPFR 280500Z 2806/2906 22023G38KT 9999 SCT012 BKN025 \n  TEMPO 2806/2808 5000 -RADZ BR SCT008 BKN015 \n  PROB40 \n  TEMPO 2806/2808 23038G55KT 2000 +RA BR SCT003 BKN006 \n  BECMG 2808/2810 27028G40KT SCT025 \n  BECMG 2810/2812 26017KT \n  BECMG 2816/2818 3000 RADZ BR SCT004 BKN008 \n  TEMPO 2820/2906 26020G32KT"
    },
    {
      "icao": "EETN",
      "iata": "TLL",
      "name": "Lennart Meri Tallinn Airport",
      "lat": 59.413246,
      "lon": 24.83264,
      "updatedAt": "280750Z",
      "visibility_m": 10000,
      "taf_visibility_m": 3000,
      "worst_visibility_m": 3000,
      "ceiling_ft": 900,
      "hazards": [
        "SN"
      ],
      "severityScore": 43,
      "metarRaw": "METAR EETN 280750Z 09010KT 9999 OVC009 M09/M10 Q1014 NOSIG",
      "tafRaw": "TAF EETN 280530Z 2806/2906 07010KT 9999 OVC008 \n  PROB40 \n  TEMPO 2808/2817 3000 SN BKN004 OVC008 \n  TEMPO 2821/2904 BKN015"
    },
    {
      "icao": "EKBI",
      "iata": "BLL",
      "name": "Billund Airport",
      "lat": 55.740335,
      "lon": 9.157019,
      "updatedAt": "280650Z",
      "visibility_m": 10000,
      "taf_visibility_m": 10000,
      "worst_visibility_m": 10000,
      "ceiling_ft": 800,
      "hazards": [
        "SN"
      ],
      "severityScore": 43,
      "metarRaw": "METAR EKBI 280650Z AUTO 08014KT 9999 -SN OVC010/// M01/M03 Q1003",
      "tafRaw": "TAF EKBI 280527Z 2806/2906 08014KT 9999 BKN008 \n  TEMPO 2806/2813 BKN012 \n  BECMG 2813/2816 BKN015"
    },
    {
      "icao": "ENTC",
      "iata": "TOS",
      "name": "Tromsø Airport, Langnes",
      "lat": 69.683296,
      "lon": 18.9189,
      "updatedAt": "280720Z",
      "visibility_m": 3500,
      "taf_visibility_m": 2000,
      "worst_visibility_m": 2000,
      "ceiling_ft": 1400,
      "hazards": [
        "SN",
        "SHSN"
      ],
      "severityScore": 40,
      "metarRaw": "METAR ENTC 280720Z 20009KT 9999 -SN FEW013 SCT024 BKN035 M06/M09 Q1013 TEMPO 3500 -SHSN VV014 RMK WIND 2600FT 35012KT",
      "tafRaw": "TAF ENTC 280500Z 2806/2906 22008KT 9999 FEW045 \n  TEMPO 2806/2815 FEW030CB \n  PROB40 \n  TEMPO 2806/2812 2000 -SHSN VV012"
    },
    {
      "icao": "EPGD",
      "iata": "GDN",
      "name": "Gdańsk Lech Wałęsa Airport",
      "lat": 54.377602,
      "lon": 18.4662,
      "updatedAt": "280730Z",
      "visibility_m": 9000,
      "taf_visibility_m": null,
      "worst_visibility_m": 9000,
      "ceiling_ft": 400,
      "hazards": [],
      "severityScore": 40,
      "metarRaw": "METAR EPGD 280730Z 03006KT 9000 OVC004 M02/M03 Q1002",
      "tafRaw": null
    },
    {
      "icao": "LEMD",
      "iata": "MAD",
      "name": "Adolfo Suárez Madrid–Barajas Airport",
      "lat": 40.471926,
      "lon": -3.56264,
      "updatedAt": "280742Z",
      "visibility_m": 5000,
      "taf_visibility_m": null,
      "worst_visibility_m": 5000,
      "ceiling_ft": 1800,
      "hazards": [
        "BR",
        "RA"
      ],
      "severityScore": 39,
      "metarRaw": "SPECI LEMD 280742Z 11006KT 080V150 5000 -RA BR SCT006 BKN018 01/01 Q0993 NOSIG",
      "tafRaw": null
    },
    {
      "icao": "EYPA",
      "iata": "PLQ",
      "name": "Palanga International Airport",
      "lat": 55.973202,
      "lon": 21.093901,
      "updatedAt": "280750Z",
      "visibility_m": 4300,
      "taf_visibility_m": 1500,
      "worst_visibility_m": 1500,
      "ceiling_ft": 3000,
      "hazards": [
        "BR",
        "SN"
      ],
      "severityScore": 38,
      "metarRaw": "METAR EYPA 280750Z 07013KT 4300 -SN BR FEW030 M07/M10 Q1005",
      "tafRaw": "TAF EYPA 280500Z 2806/2906 06011KT 5000 SN BR SCT015 BKN030 \n  TEMPO 2806/2812 1500 SCT010 \n  BECMG 2815/2817 8000 NSW SCT030"
    },
    {
      "icao": "LEBL",
      "iata": "BCN",
      "name": "Josep Tarradellas Barcelona-El Prat Airport",
      "lat": 41.2971,
      "lon": 2.07846,
      "updatedAt": "280730Z",
      "visibility_m": 10000,
      "taf_visibility_m": 3000,
      "worst_visibility_m": 3000,
      "ceiling_ft": 1400,
      "hazards": [
        "RA",
        "SHRA"
      ],
      "severityScore": 38,
      "metarRaw": "METAR LEBL 280730Z 26008KT 240V310 9999 FEW035 09/01 Q0997 NOSIG",
      "tafRaw": "TAF LEBL 280500Z 2806/2906 23008KT 9999 FEW020 TX12/2812Z TN07/2806Z \n  TEMPO 2811/2818 3000 RA SHRA BKN014 FEW020TCU \n  BECMG 2813/2815 33010KT \n  TEMPO 2820/2824 31020G30KT \n  TEMPO 2823/2903 27007KT \n  BECMG 2823/2901 VRB03KT"
    },
    {
      "icao": "LQSA",
      "iata": "SJJ",
      "name": "Sarajevo International Airport",
      "lat": 43.8246,
      "lon": 18.331499,
      "updatedAt": "280730Z",
      "visibility_m": 10000,
      "taf_visibility_m": 3000,
      "worst_visibility_m": 3000,
      "ceiling_ft": 6000,
      "hazards": [
        "BR",
        "SHRA",
        "RA"
      ],
      "severityScore": 36,
      "metarRaw": "METAR LQSA 280730Z 29005KT 210V340 9999 BKN060 02/01 Q1002 BECMG 15012KT",
      "tafRaw": "TAF LQSA 280500Z 2806/2906 11008KT 9999 SCT050 TX12/2814Z TNM00/2806Z \n  TEMPO 2808/2818 17012KT \n  PROB40 \n  TEMPO 2809/2816 15018G30KT \n  PROB40 \n  TEMPO 2816/2824 SHRA FEW018 FEW030TCU BKN040 \n  PROB30 \n  TEMPO 2900/2906 3000 BR BKN008"
    },
    {
      "icao": "UBBB",
      "iata": "GYD",
      "name": "Heydar Aliyev International Airport",
      "lat": 40.467498779296875,
      "lon": 50.04669952392578,
      "updatedAt": "280730Z",
      "visibility_m": 10000,
      "taf_visibility_m": 4000,
      "worst_visibility_m": 4000,
      "ceiling_ft": 2000,
      "hazards": [
        "BR",
        "SHRA",
        "RA"
      ],
      "severityScore": 36,
      "metarRaw": "METAR UBBB 280730Z 16012KT 9999 BKN020 08/04 Q1022 NOSIG",
      "tafRaw": "TAF UBBB 280513Z 2806/2906 15016KT 9999 OVC030 TX09/2808Z TN05/2901Z \n  TEMPO 2806/2816 17022G32KT 4000 -SHRA SCT012 SCT030CB \n  BECMG 2816/2818 16010KT \n  TEMPO 2818/2906 4000 BR SCT007 OVC017"
    },
    {
      "icao": "EDJA",
      "iata": "FMM",
      "name": "Memmingen Allgau Airport",
      "lat": 47.988092,
      "lon": 10.238248,
      "updatedAt": "280720Z",
      "visibility_m": 8000,
      "taf_visibility_m": 10000,
      "worst_visibility_m": 8000,
      "ceiling_ft": 400,
      "hazards": [],
      "severityScore": 35,
      "metarRaw": "METAR EDJA 280720Z 02004KT 8000 FEW002 M01/M02 Q0989",
      "tafRaw": "TAF EDJA 280500Z 2806/2815 06006KT CAVOK \n  PROB30 \n  TEMPO 2809/2813 BKN005 \n  BECMG 2813/2815 33005KT OVC004"
    },
    {
      "icao": "EGGP",
      "iata": "LPL",
      "name": "Liverpool John Lennon Airport",
      "lat": 53.334863,
      "lon": -2.849637,
      "updatedAt": "280720Z",
      "visibility_m": 10000,
      "taf_visibility_m": 4000,
      "worst_visibility_m": 4000,
      "ceiling_ft": 700,
      "hazards": [
        "BR"
      ],
      "severityScore": 35,
      "metarRaw": "METAR EGGP 280720Z 15005KT CAVOK 03/02 Q0991",
      "tafRaw": "TAF EGGP 280454Z 2806/2906 15004KT 9999 FEW030 \n  PROB30 2806/2810 8000 \n  TEMPO 2816/2906 7000 \n  PROB30 2821/2906 4000 BR \n  TEMPO 2900/2906 BKN007"
    },
    {
      "icao": "EGPF",
      "iata": "GLA",
      "name": "Glasgow Airport",
      "lat": 55.871899,
      "lon": -4.43306,
      "updatedAt": "280720Z",
      "visibility_m": 10000,
      "taf_visibility_m": 4000,
      "worst_visibility_m": 4000,
      "ceiling_ft": 700,
      "hazards": [
        "BR"
      ],
      "severityScore": 35,
      "metarRaw": "METAR EGPF 280720Z AUTO 06004KT 9999 NCD 04/03 Q0990",
      "tafRaw": "TAF EGPF 280459Z 2806/2906 09005KT 9999 FEW018 \n  PROB30 2806/2811 6000 BKN007 \n  PROB30 2818/2903 4000 BR \n  PROB30 \n  TEMPO 2903/2906 BKN014"
    },
    {
      "icao": "OMAA",
      "iata": "AUH",
      "name": "Zayed International Airport",
      "lat": 24.440966,
      "lon": 54.649237,
      "updatedAt": "280730Z",
      "visibility_m": 10000,
      "taf_visibility_m": 3000,
      "worst_visibility_m": 3000,
      "ceiling_ft": 500,
      "hazards": [
        "BR"
      ],
      "severityScore": 35,
      "metarRaw": "METAR OMAA 280730Z 17008KT 140V200 CAVOK 23/10 Q1021 NOSIG",
      "tafRaw": "TAF OMAA 280500Z 2806/2912 16008KT 8000 NSC \n  BECMG 2810/2812 32008KT \n  BECMG 2817/2819 04007KT \n  PROB30 2822/2905 3000 BR BKN005 \n  BECMG 2903/2905 16008KT \n  BECMG 2909/2911 31008KT"
    },
    {
      "icao": "UDYZ",
      "iata": "EVN",
      "name": "Zvartnots International Airport",
      "lat": 40.148941,
      "lon": 44.397887,
      "updatedAt": "280730Z",
      "visibility_m": 3900,
      "taf_visibility_m": 2300,
      "worst_visibility_m": 2300,
      "ceiling_ft": 800,
      "hazards": [
        "BR"
      ],
      "severityScore": 35,
      "metarRaw": "METAR UDYZ 280730Z 33003KT 3900 BR BKN008 M04/M06 Q1024 NOSIG",
      "tafRaw": "TAF UDYZ 280500Z 2806/2906 VRB04KT 2300 BR BKN008"
    },
    {
      "icao": "LIMF",
      "iata": "TRN",
      "name": "Turin Airport",
      "lat": 45.200802,
      "lon": 7.64963,
      "updatedAt": "280720Z",
      "visibility_m": 5000,
      "taf_visibility_m": 4000,
      "worst_visibility_m": 4000,
      "ceiling_ft": 1500,
      "hazards": [
        "BR",
        "RA"
      ],
      "severityScore": 34,
      "metarRaw": "METAR LIMF 280720Z 25003KT 220V290 5000 RA BR OVC015 03/02 Q0993",
      "tafRaw": "TAF LIMF 280500Z 2806/2906 VRB04KT 4000 RA BKN014 \n  BECMG 2807/2809 7000 NSW FEW040"
    },
    {
      "icao": "LIPZ",
      "iata": "VCE",
      "name": "Venice Marco Polo Airport",
      "lat": 45.505299,
      "lon": 12.3519,
      "updatedAt": "280720Z",
      "visibility_m": 3000,
      "taf_visibility_m": 2000,
      "worst_visibility_m": 2000,
      "ceiling_ft": 1200,
      "hazards": [
        "BR",
        "RA"
      ],
      "severityScore": 34,
      "metarRaw": "METAR LIPZ 280720Z 05017KT 3000 R04R/0900N -RA BR SCT005 BKN012 06/06 Q0995 NOSIG",
      "tafRaw": "TAF LIPZ 280500Z 2806/2912 05013KT 4000 RA BKN015 \n  BECMG 2816/2818 VRB05KT NSW \n  TEMPO 2822/2906 2000 BR BKN005"
    },
    {
      "icao": "EPKT",
      "iata": "KTW",
      "name": "Katowice Wojciech Korfanty International Airport",
      "lat": 50.476015,
      "lon": 19.080705,
      "updatedAt": "280730Z",
      "visibility_m": 3200,
      "taf_visibility_m": 4000,
      "worst_visibility_m": 3200,
      "ceiling_ft": 4200,
      "hazards": [
        "BR",
        "RA",
        "DZ"
      ],
      "severityScore": 32,
      "metarRaw": "METAR EPKT 280730Z 03005KT 3200 BR FEW036 BKN042 00/M01 Q0998",
      "tafRaw": "TAF EPKT 280530Z 2806/2906 VRB02KT 9999 OVC020 \n  TEMPO 2806/2812 4000 -RADZ BR BKN009 \n  BECMG 2812/2814 08010KT BKN012 \n  TEMPO 2822/2906 BKN009"
    },
    {
      "icao": "LIPH",
      "iata": "TSF",
      "name": "Treviso Antonio Canova Airport",
      "lat": 45.648399,
      "lon": 12.1944,
      "updatedAt": "280720Z",
      "visibility_m": 4000,
      "taf_visibility_m": 1500,
      "worst_visibility_m": 1500,
      "ceiling_ft": 2000,
      "hazards": [
        "BR",
        "RA"
      ],
      "severityScore": 32,
      "metarRaw": "METAR LIPH 280720Z 05009KT 020V090 4000 -RA BR SCT005 BKN020 06/06 Q0995",
      "tafRaw": "TAF LIPH 280500Z 2806/2906 05010KT 4000 RA BKN008 \n  BECMG 2816/2818 VRB05KT NSW \n  TEMPO 2821/2906 1500 BR BKN002"
    },
    {
      "icao": "LKMT",
      "iata": "OSR",
      "name": "Leoš Janáček Airport Ostrava",
      "lat": 49.696301,
      "lon": 18.111099,
      "updatedAt": "280730Z",
      "visibility_m": 3500,
      "taf_visibility_m": 3500,
      "worst_visibility_m": 3500,
      "ceiling_ft": 3100,
      "hazards": [
        "BR",
        "SN"
      ],
      "severityScore": 28,
      "metarRaw": "METAR LKMT 280730Z 00000KT 3500 BR OVC031 M00/M01 Q0998 NOSIG",
      "tafRaw": "TAF LKMT 280500Z 2806/2906 04008KT 8000 BKN015 OVC025 \n  TEMPO 2806/2809 3500 BR BKN008 OVC018 \n  PROB30 \n  TEMPO 2821/2906 4500 -SN BR BKN012 OVC016"
    },
    {
      "icao": "LATI",
      "iata": "TIA",
      "name": "Tirana International Airport Mother Teresa",
      "lat": 41.4147,
      "lon": 19.7206,
      "updatedAt": "280750Z",
      "visibility_m": 10000,
      "taf_visibility_m": 4000,
      "worst_visibility_m": 4000,
      "ceiling_ft": 15000,
      "hazards": [
        "RA",
        "SHRA"
      ],
      "severityScore": 26,
      "metarRaw": "METAR LATI 280750Z 16006KT 9999 SCT053 BKN150 09/04 Q1007 NOSIG",
      "tafRaw": "TAF LATI 280500Z 2806/2906 VRB05KT CAVOK TX15/2812Z TN05/2905Z \n  BECMG 2812/2814 16014KT RA BKN025 OVC050 \n  TEMPO 2814/2819 4000 SHRA FEW030CB \n  BECMG 2821/2823 VRB05KT NSW SCT050"
    },
    {
      "icao": "LEBB",
      "iata": "BIO",
      "name": "Bilbao Airport",
      "lat": 43.301102,
      "lon": -2.91061,
      "updatedAt": "280730Z",
      "visibility_m": 10000,
      "taf_visibility_m": 3000,
      "worst_visibility_m": 3000,
      "ceiling_ft": null,
      "hazards": [
        "SHRA",
        "RA"
      ],
      "severityScore": 26,
      "metarRaw": "METAR LEBB 280730Z 12006KT 070V160 CAVOK 05/01 Q0994 NOSIG",
      "tafRaw": "TAF LEBB 280500Z 2806/2906 22009KT 9999 FEW030 TX10/2816Z TN04/2806Z \n  PROB40 \n  TEMPO 2806/2812 12010KT \n  PROB30 \n  TEMPO 2818/2822 3000 SHRA SCT020TCU \n  PROB30 \n  TEMPO 2900/2906 3000 SHRA SCT035TCU"
    },
    {
      "icao": "LICA",
      "iata": "SUF",
      "name": "Lamezia Terme Sant'Eufemia International Airport",
      "lat": 38.906214,
      "lon": 16.246007,
      "updatedAt": "280720Z",
      "visibility_m": 10000,
      "taf_visibility_m": 4000,
      "worst_visibility_m": 4000,
      "ceiling_ft": null,
      "hazards": [
        "RA",
        "SHRA"
      ],
      "severityScore": 26,
      "metarRaw": "METAR LICA 280720Z AUTO 07010KT 9999 BKN061/// OVC120/// 11/07 Q1005",
      "tafRaw": "TAF LICA 280500Z 2806/2906 07012KT 9999 SCT040 \n  TEMPO 2808/2815 4000 RA \n  BECMG 2812/2814 27018G28KT \n  BECMG 2820/2822 07006KT \n  TEMPO 2822/2906 SHRA"
    },
    {
      "icao": "LICJ",
      "iata": "PMO",
      "name": "Falcone–Borsellino Airport",
      "lat": 38.175999,
      "lon": 13.091,
      "updatedAt": "280720Z",
      "visibility_m": 10000,
      "taf_visibility_m": 4000,
      "worst_visibility_m": 4000,
      "ceiling_ft": null,
      "hazards": [
        "SHRA",
        "RA"
      ],
      "severityScore": 26,
      "metarRaw": "METAR LICJ 280720Z 21025G35KT 9999 -SHRA SCT020 15/12 Q1005",
      "tafRaw": "TAF LICJ 280500Z 2806/2906 18018G30KT 9999 SCT040 \n  TEMPO 2806/2810 4000 RA \n  BECMG 2808/2810 24020G35KT \n  BECMG 2818/2820 18020G40KT \n  TEMPO 2822/2904 SHRA \n  BECMG 2904/2906 30002G35KT"
    },
    {
      "icao": "LTFM",
      "iata": "IST",
      "name": "İstanbul Airport",
      "lat": 41.261297,
      "lon": 28.741951,
      "updatedAt": "280720Z",
      "visibility_m": 10000,
      "taf_visibility_m": 10000,
      "worst_visibility_m": 10000,
      "ceiling_ft": 2000,
      "hazards": [
        "SHRA",
        "RA"
      ],
      "severityScore": 26,
      "metarRaw": "METAR LTFM 280720Z 04004KT 310V070 9999 SCT008 BKN020 08/07 Q1009 NOSIG RMK RWY17L 02003KT 340V040 RWY34L 02004KT RWY16R 04003KT 360V070 RWY36 05004KT RWY18 07003KT",
      "tafRaw": "TAF LTFM 280440Z 2806/2912 01005KT 9999 SCT008 BKN022 \n  TEMPO 2806/2809 -SHRA \n  BECMG 2809/2812 21012KT SCT035 \n  BECMG 2819/2822 20020G35KT"
    },
    {
      "icao": "GCTS",
      "iata": "TFS",
      "name": "Tenerife Sur Airport",
      "lat": 28.0445,
      "lon": -16.5725,
      "updatedAt": "280730Z",
      "visibility_m": 10000,
      "taf_visibility_m": 10000,
      "worst_visibility_m": 10000,
      "ceiling_ft": null,
      "hazards": [
        "TS"
      ],
      "severityScore": 25,
      "metarRaw": "METAR GCTS 280730Z 01003KT 290V080 9999 FEW030 16/10 Q1021 NOSIG",
      "tafRaw": "TAF GCTS 280200Z 2803/2903 VRB05KT 9999 FEW030 TX22/2814Z TN16/2806Z \n  TEMPO 2804/2808 27010KT"
    },
    {
      "icao": "GMMN",
      "iata": "CMN",
      "name": "Mohammed V International Airport",
      "lat": 33.3675,
      "lon": -7.58997,
      "updatedAt": "280730Z",
      "visibility_m": 10000,
      "taf_visibility_m": 10000,
      "worst_visibility_m": 10000,
      "ceiling_ft": 800,
      "hazards": [],
      "severityScore": 25,
      "metarRaw": "METAR GMMN 280730Z 22019KT 9999 BKN008 13/12 Q1016 NOSIG",
      "tafRaw": "TAF GMMN 280500Z 2806/2912 22015KT 9999 BKN008 \n  BECMG 2808/2810 BKN016 \n  TEMPO 2810/2816 22020G35KT"
    },
    {
      "icao": "EDDH",
      "iata": "HAM",
      "name": "Hamburg Helmut Schmidt Airport",
      "lat": 53.630402,
      "lon": 9.98823,
      "updatedAt": "280720Z",
      "visibility_m": 10000,
      "taf_visibility_m": 10000,
      "worst_visibility_m": 10000,
      "ceiling_ft": 900,
      "hazards": [],
      "severityScore": 25,
      "metarRaw": "METAR EDDH 280720Z AUTO 11015KT 9999 BKN010 OVC015 M00/M02 Q1000 TEMPO BKN009",
      "tafRaw": "TAF EDDH 280500Z 2806/2912 09011KT 9999 OVC012 \n  TEMPO 2806/2812 OVC008 \n  PROB30 \n  TEMPO 2806/2812 OVC015 \n  TEMPO 2812/2818 OVC015 \n  TEMPO 2818/2909 OVC008 \n  BECMG 2909/2912 OVC015"
    },
    {
      "icao": "EDNY",
      "iata": "FDH",
      "name": "Bodensee Airport Friedrichshafen",
      "lat": 47.671299,
      "lon": 9.51149,
      "updatedAt": "280720Z",
      "visibility_m": 10000,
      "taf_visibility_m": 10000,
      "worst_visibility_m": 10000,
      "ceiling_ft": 800,
      "hazards": [],
      "severityScore": 25,
      "metarRaw": "METAR EDNY 280720Z VRB01KT CAVOK M00/M01 Q0990",
      "tafRaw": "TAF EDNY 280500Z 2806/2815 04005KT 9999 SCT050 \n  BECMG 2810/2813 33003KT BKN010 \n  TEMPO 2813/2815 OVC008"
    },
    {
      "icao": "EGNM",
      "iata": "LBA",
      "name": "Leeds Bradford Airport",
      "lat": 53.865898,
      "lon": -1.66057,
      "updatedAt": "280720Z",
      "visibility_m": 10000,
      "taf_visibility_m": null,
      "worst_visibility_m": 10000,
      "ceiling_ft": null,
      "hazards": [
        "FG"
      ],
      "severityScore": 25,
      "metarRaw": "METAR EGNM 280720Z 19003KT 170V250 9999 VCFG NSC 02/02 Q0991",
      "tafRaw": null
    },
    {
      "icao": "OEJN",
      "iata": "JED",
      "name": "King Abdulaziz International Airport",
      "lat": 21.6796,
      "lon": 39.156502,
      "updatedAt": "280700Z",
      "visibility_m": 10000,
      "taf_visibility_m": 2000,
      "worst_visibility_m": 2000,
      "ceiling_ft": 4000,
      "hazards": [
        "TS"
      ],
      "severityScore": 25,
      "metarRaw": "METAR OEJN 280700Z 33005KT CAVOK 27/17 Q1017 NOSIG",
      "tafRaw": "TAF OEJN 280500Z 2806/2912 28012KT 9999 FEW040 \n  PROB40 \n  TEMPO 2806/2816 VRB25KT 2000 BLDU TS FEW030CB BKN040 \n  BECMG 2816/2818 36008KT 7000 SCT040"
    },
    {
      "icao": "LIME",
      "iata": "BGY",
      "name": "Milan Bergamo Airport / Antonio Locatelli Air Base",
      "lat": 45.670725,
      "lon": 9.709223,
      "updatedAt": "280720Z",
      "visibility_m": 10000,
      "taf_visibility_m": 3000,
      "worst_visibility_m": 3000,
      "ceiling_ft": 1400,
      "hazards": [
        "RA"
      ],
      "severityScore": 24,
      "metarRaw": "METAR LIME 280720Z AUTO 02005KT 9999 -RA OVC031/// 05/05 Q0991",
      "tafRaw": "TAF LIME 280500Z 2806/2906 VRB04KT 3000 RA BKN014 \n  BECMG 2816/2818 8000 NSW SCT020"
    },
    {
      "icao": "LMML",
      "iata": "MLA",
      "name": "Malta International Airport",
      "lat": 35.857498,
      "lon": 14.4775,
      "updatedAt": "280745Z",
      "visibility_m": 10000,
      "taf_visibility_m": 7000,
      "worst_visibility_m": 7000,
      "ceiling_ft": 1500,
      "hazards": [
        "RA"
      ],
      "severityScore": 24,
      "metarRaw": "METAR LMML 280745Z 23014KT 9999 -RA NSC 16/13 Q1009 NOSIG",
      "tafRaw": "TAF LMML 280500Z 2806/2906 20015KT 9999 FEW025 \n  TEMPO 2821/2903 7000 RA BKN015 \n  BECMG 0903/0906 27030KT"
    },
    {
      "icao": "EPSC",
      "iata": "SZZ",
      "name": "Solidarity Szczecin–Goleniów Airport",
      "lat": 53.584702,
      "lon": 14.9022,
      "updatedAt": "280730Z",
      "visibility_m": 4000,
      "taf_visibility_m": 3000,
      "worst_visibility_m": 3000,
      "ceiling_ft": 1300,
      "hazards": [
        "BR"
      ],
      "severityScore": 22,
      "metarRaw": "METAR EPSC 280730Z VRB02KT 4000 BR OVC013 M01/M02 Q1002",
      "tafRaw": "TAF EPSC 280530Z 2806/2906 VRB03KT 6000 BKN015 \n  TEMPO 2806/2810 3000 BR BKN005 BKN012 \n  BECMG 2810/2813 06010KT \n  PROB40 \n  TEMPO 2816/2906 BKN008"
    },
    {
      "icao": "HESX",
      "iata": "SPX",
      "name": "Sphinx International Airport",
      "lat": 30.108179,
      "lon": 30.895728,
      "updatedAt": "280700Z",
      "visibility_m": 8000,
      "taf_visibility_m": 1000,
      "worst_visibility_m": 1000,
      "ceiling_ft": 2000,
      "hazards": [
        "RA"
      ],
      "severityScore": 22,
      "metarRaw": "METAR HESX 280700Z 24011KT 8000 NSC 12/05 Q1018 NOSIG",
      "tafRaw": "TAF HESX 280500Z 2806/2912 24009KT 6000 SCT030 \n  TEMPO 2806/2808 4000 HZ \n  TEMPO 2808/2818 25012G22KT 3000 -RA SA BKN020 \n  PROB30 \n  TEMPO 2809/2815 1000"
    },
    {
      "icao": "LHBP",
      "iata": "BUD",
      "name": "Budapest Liszt Ferenc International Airport",
      "lat": 47.43018,
      "lon": 19.262393,
      "updatedAt": "280730Z",
      "visibility_m": 8000,
      "taf_visibility_m": 2000,
      "worst_visibility_m": 2000,
      "ceiling_ft": 4500,
      "hazards": [
        "RA",
        "BR"
      ],
      "severityScore": 22,
      "metarRaw": "METAR LHBP 280730Z 11007KT 8000 -RA OVC045 01/00 Q0999 WS ALL RWY NOSIG",
      "tafRaw": "TAF LHBP 280515Z 2806/2906 11007KT CAVOK \n  TEMPO 2806/2811 -RA BKN040 OVC080 \n  BECMG 2815/2818 06011KT -RA BKN025 OVC040 \n  TEMPO 2815/2820 4000 RA BKN020 OVC050 \n  TEMPO 2820/2906 2000 RA BR BKN011 OVC030"
    },
    {
      "icao": "LIBR",
      "iata": "BDS",
      "name": "Brindisi Airport",
      "lat": 40.6576,
      "lon": 17.947001,
      "updatedAt": "280720Z",
      "visibility_m": 10000,
      "taf_visibility_m": 10000,
      "worst_visibility_m": 10000,
      "ceiling_ft": null,
      "hazards": [
        "BR",
        "RA"
      ],
      "severityScore": 22,
      "metarRaw": "METAR LIBR 280720Z 17011KT CAVOK 11/08 Q1005",
      "tafRaw": "TAF LIBR 280500Z 2806/2906 18006KT 9999 FEW030 \n  BECMG 2806/2808 18016KT \n  TEMPO 2809/2816 19016G26KT RA"
    },
    {
      "icao": "LIPQ",
      "iata": "TRS",
      "name": "Trieste–Friuli Venezia Giulia Airport",
      "lat": 45.827499,
      "lon": 13.4722,
      "updatedAt": "280720Z",
      "visibility_m": 6000,
      "taf_visibility_m": 4000,
      "worst_visibility_m": 4000,
      "ceiling_ft": 2000,
      "hazards": [
        "RA",
        "DZ"
      ],
      "severityScore": 22,
      "metarRaw": "METAR LIPQ 280720Z AUTO 02005KT 6000 RA OVC012/// 07/07 Q0996 REDZ",
      "tafRaw": "TAF LIPQ 280500Z 2806/2906 05007KT 4000 RA BKN020 \n  BECMG 2810/2812 12010KT 8000 \n  BECMG 2822/2824 NSW"
    },
    {
      "icao": "LQTZ",
      "iata": "TZL",
      "name": "Tuzla International Airport",
      "lat": 44.459858,
      "lon": 18.723627,
      "updatedAt": "280730Z",
      "visibility_m": 10000,
      "taf_visibility_m": 2000,
      "worst_visibility_m": 2000,
      "ceiling_ft": 6700,
      "hazards": [
        "RA",
        "BR"
      ],
      "severityScore": 22,
      "metarRaw": "METAR LQTZ 280730Z VRB03KT 9999 -RA BKN067 06/03 Q1000",
      "tafRaw": "TAF LQTZ 280500Z 2806/2906 10005KT 9999 SCT060 TX14/2813Z TNM00/2806Z \n  TEMPO 2811/2819 16012KT \n  PROB40 \n  TEMPO 2819/2901 3000 -RA BR \n  PROB30 \n  TEMPO 2901/2906 2000 BR"
    },
    {
      "icao": "ENGM",
      "iata": "OSL",
      "name": "Oslo-Gardermoen International Airport",
      "lat": 60.193901,
      "lon": 11.1004,
      "updatedAt": "280720Z",
      "visibility_m": 10000,
      "taf_visibility_m": 10000,
      "worst_visibility_m": 10000,
      "ceiling_ft": 2300,
      "hazards": [
        "SN"
      ],
      "severityScore": 18,
      "metarRaw": "METAR ENGM 280720Z 03006KT 9999 -SN BKN023 M10/M12 Q1014 NOSIG",
      "tafRaw": "TAF ENGM 280500Z 2806/2906 02005KT 9999 -SN BKN024 \n  TEMPO 2812/2902 BKN014"
    },
    {
      "icao": "ESKN",
      "iata": "NYO",
      "name": "Stockholm Skavsta Airport",
      "lat": 58.789656,
      "lon": 16.911479,
      "updatedAt": "280720Z",
      "visibility_m": 10000,
      "taf_visibility_m": 4000,
      "worst_visibility_m": 4000,
      "ceiling_ft": 3000,
      "hazards": [
        "SN"
      ],
      "severityScore": 18,
      "metarRaw": "METAR ESKN 280720Z 03010KT 350V060 9999 BKN030 M04/M07 Q1012",
      "tafRaw": "TAF ESKN 280530Z 2806/2906 02009KT 9999 BKN030 \n  PROB40 2817/2906 4000 -SN BKN012"
    },
    {
      "icao": "EDDS",
      "iata": "STR",
      "name": "Stuttgart Airport",
      "lat": 48.689899,
      "lon": 9.22196,
      "updatedAt": "280720Z",
      "visibility_m": 9000,
      "taf_visibility_m": null,
      "worst_visibility_m": 9000,
      "ceiling_ft": 4900,
      "hazards": [
        "RA"
      ],
      "severityScore": 17,
      "metarRaw": "METAR EDDS 280720Z AUTO 05001KT 9000 -RA SCT028 SCT037 BKN049 02/01 Q0991 NOSIG",
      "tafRaw": null
    },
    {
      "icao": "LFMN",
      "iata": "NCE",
      "name": "Nice-Côte d'Azur Airport",
      "lat": 43.658401,
      "lon": 7.21587,
      "updatedAt": "280730Z",
      "visibility_m": 5000,
      "taf_visibility_m": null,
      "worst_visibility_m": 5000,
      "ceiling_ft": 2000,
      "hazards": [
        "RA"
      ],
      "severityScore": 17,
      "metarRaw": "METAR LFMN 280730Z 02008KT 5000 -RA SCT015 BKN020 BKN033 09/06 Q0989 NOSIG",
      "tafRaw": null
    },
    {
      "icao": "LIMC",
      "iata": "MXP",
      "name": "Milan Malpensa International Airport",
      "lat": 45.6306,
      "lon": 8.72811,
      "updatedAt": "280720Z",
      "visibility_m": 6000,
      "taf_visibility_m": null,
      "worst_visibility_m": 6000,
      "ceiling_ft": 2000,
      "hazards": [
        "RA"
      ],
      "severityScore": 17,
      "metarRaw": "METAR LIMC 280720Z 35008KT 6000 RA OVC020 04/04 Q0993 NOSIG",
      "tafRaw": null
    },
    {
      "icao": "GMAD",
      "iata": "AGA",
      "name": "Al Massira Airport",
      "lat": 30.322478,
      "lon": -9.412003,
      "updatedAt": "280700Z",
      "visibility_m": 5000,
      "taf_visibility_m": 4000,
      "worst_visibility_m": 4000,
      "ceiling_ft": 8300,
      "hazards": [
        "RA"
      ],
      "severityScore": 12,
      "metarRaw": "METAR GMAD 280700Z 00000KT 5000 -RA FEW020 BKN083 Q0000 NOSIG",
      "tafRaw": "TAF GMAD 280500Z 2806/2912 22005KT 8000 SCT020 BKN080 \n  TEMPO 2806/2811 4000 -RA \n  BECMG 2812/2815 28013KT \n  BECMG 2819/2822 18006KT"
    },
    {
      "icao": "ESMS",
      "iata": "MMX",
      "name": "Malmö Sturup Airport",
      "lat": 55.535564,
      "lon": 13.376327,
      "updatedAt": "280720Z",
      "visibility_m": 10000,
      "taf_visibility_m": 10000,
      "worst_visibility_m": 10000,
      "ceiling_ft": 1200,
      "hazards": [],
      "severityScore": 12,
      "metarRaw": "METAR ESMS 280720Z 05010KT 9999 OVC012 M02/M04 Q1005",
      "tafRaw": "TAF ESMS 280527Z 2806/2906 07015KT 9999 OVC009 \n  BECMG 2806/2809 BKN012 \n  BECMG 2809/2812 BKN018 \n  TEMPO 2812/2824 07015G27KT"
    },
    {
      "icao": "ESSA",
      "iata": "ARN",
      "name": "Stockholm-Arlanda Airport",
      "lat": 59.64849,
      "lon": 17.928829,
      "updatedAt": "280720Z",
      "visibility_m": 10000,
      "taf_visibility_m": 10000,
      "worst_visibility_m": 10000,
      "ceiling_ft": 1600,
      "hazards": [],
      "severityScore": 12,
      "metarRaw": "METAR ESSA 280720Z 03006KT 9999 BKN016 M10/M11 Q1014 NOSIG",
      "tafRaw": "TAF ESSA 280530Z 2806/2906 03008KT 9999 BKN015 \n  PROB40 2806/2810 BKN014"
    },
    {
      "icao": "LEAL",
      "iata": "ALC",
      "name": "Alicante-Elche Miguel Hernández Airport",
      "lat": 38.2822,
      "lon": -0.558156,
      "updatedAt": "280736Z",
      "visibility_m": 10000,
      "taf_visibility_m": 4000,
      "worst_visibility_m": 4000,
      "ceiling_ft": 6200,
      "hazards": [
        "RA"
      ],
      "severityScore": 12,
      "metarRaw": "SPECI LEAL 280736Z 23003KT 190V260 9999 RA BKN062 09/04 Q1001 NOSIG",
      "tafRaw": "TAF LEAL 280500Z 2806/2906 27010KT 9999 FEW040 TX20/2814Z TN10/2807Z \n  BECMG 2806/2808 VRB04KT \n  PROB40 \n  TEMPO 2808/2812 4000 RA BKN030 \n  BECMG 2810/2813 27018KT \n  TEMPO 2813/2822 27025G43KT \n  BECMG 2821/2823 VRB04KT"
    },
    {
      "icao": "LEMG",
      "iata": "AGP",
      "name": "Málaga-Costa del Sol Airport",
      "lat": 36.6749,
      "lon": -4.49911,
      "updatedAt": "280730Z",
      "visibility_m": 10000,
      "taf_visibility_m": 4000,
      "worst_visibility_m": 4000,
      "ceiling_ft": 4500,
      "hazards": [
        "RA"
      ],
      "severityScore": 12,
      "metarRaw": "METAR LEMG 280730Z 27007G17KT 9999 -RA FEW020 SCT035 BKN045 13/09 Q1003 RERA NOSIG",
      "tafRaw": "TAF LEMG 280500Z 2806/2906 23014KT 9999 SCT025 TX19/2814Z TN14/2807Z \n  TEMPO 2806/2812 25015G28KT 4000 RA BKN014 \n  BECMG 2810/2812 29010KT \n  BECMG 2817/2819 VRB03KT"
    },
    {
      "icao": "LEXJ",
      "iata": "SDR",
      "name": "Seve Ballesteros-Santander Airport",
      "lat": 43.427101,
      "lon": -3.82001,
      "updatedAt": "280730Z",
      "visibility_m": 10000,
      "taf_visibility_m": 3000,
      "worst_visibility_m": 3000,
      "ceiling_ft": null,
      "hazards": [
        "RA"
      ],
      "severityScore": 12,
      "metarRaw": "METAR LEXJ 280730Z 12006KT CAVOK 08/00 Q0991",
      "tafRaw": "TAF LEXJ 280200Z 2803/2903 20009KT 9999 SCT040 TX11/2815Z TN06/2803Z \n  TEMPO 2803/2809 18018G28KT \n  PROB40 2811/2816 27010KT \n  PROB30 \n  TEMPO 2811/2815 26015G25KT 3000 RA \n  PROB30 \n  TEMPO 2818/2821 3000 RA"
    },
    {
      "icao": "LGAV",
      "iata": "ATH",
      "name": "Athens Eleftherios Venizelos International Airport",
      "lat": 37.936401,
      "lon": 23.9445,
      "updatedAt": "280720Z",
      "visibility_m": 10000,
      "taf_visibility_m": 5000,
      "worst_visibility_m": 5000,
      "ceiling_ft": 7000,
      "hazards": [
        "RA"
      ],
      "severityScore": 12,
      "metarRaw": "METAR LGAV 280720Z 29007KT 250V330 9999 FEW025 14/04 Q1011 NOSIG",
      "tafRaw": "TAF LGAV 280500Z 2806/2906 27010KT 9999 FEW018 SCT030 \n  BECMG 2810/2812 20015KT FEW025 SCT070 \n  TEMPO 2812/2818 SCT025 BKN070 \n  BECMG 2812/2814 18012KT \n  TEMPO 2816/2824 20016G26KT \n  PROB30 \n  TEMPO 2904/2906 5000 RA FEW018TCU SCT018 BKN070"
    },
    {
      "icao": "LIBD",
      "iata": "BRI",
      "name": "Bari Karol Wojtyła International Airport",
      "lat": 41.138901,
      "lon": 16.760599,
      "updatedAt": "280720Z",
      "visibility_m": 10000,
      "taf_visibility_m": 10000,
      "worst_visibility_m": 10000,
      "ceiling_ft": null,
      "hazards": [
        "RA"
      ],
      "severityScore": 12,
      "metarRaw": "METAR LIBD 280720Z 16007KT 9999 FEW045 12/07 Q1002",
      "tafRaw": "TAF LIBD 280500Z 2806/2906 19006KT 9999 SCT030 \n  BECMG 2807/2809 19016KT \n  TEMPO 2808/2816 RA"
    },
    {
      "icao": "LIBG",
      "iata": "TAR",
      "name": "Taranto-Grottaglie Marcello Arlotta Airport",
      "lat": 40.517502,
      "lon": 17.4032,
      "updatedAt": null,
      "visibility_m": null,
      "taf_visibility_m": 10000,
      "worst_visibility_m": 10000,
      "ceiling_ft": null,
      "hazards": [
        "RA"
      ],
      "severityScore": 12,
      "metarRaw": null,
      "tafRaw": "TAF LIBG 280729Z 2808/2815 VRB05KT 9999 SCT020 SCT050 \n  BECMG 2808/2810 17013KT \n  TEMPO 2808/2815 RA"
    },
    {
      "icao": "LIBP",
      "iata": "PSR",
      "name": "Abruzzo Airport",
      "lat": 42.431079,
      "lon": 14.182981,
      "updatedAt": "280720Z",
      "visibility_m": 10000,
      "taf_visibility_m": 10000,
      "worst_visibility_m": 10000,
      "ceiling_ft": null,
      "hazards": [
        "RA"
      ],
      "severityScore": 12,
      "metarRaw": "METAR LIBP 280720Z AUTO VRB02KT 9999 FEW090/// BKN160/// 07/04 Q0996",
      "tafRaw": "TAF LIBP 280500Z 2806/2906 23010KT 9999 SCT070 \n  TEMPO 2808/2812 RA \n  TEMPO 2812/2824 23018G30KT"
    },
    {
      "icao": "LICC",
      "iata": "CTA",
      "name": "Catania-Fontanarossa Airport",
      "lat": 37.466801,
      "lon": 15.0664,
      "updatedAt": "280720Z",
      "visibility_m": 9000,
      "taf_visibility_m": 4000,
      "worst_visibility_m": 4000,
      "ceiling_ft": 3000,
      "hazards": [
        "RA"
      ],
      "severityScore": 12,
      "metarRaw": "METAR LICC 280720Z 24005KT 9000 BKN030 10/08 Q1007",
      "tafRaw": "TAF LICC 280500Z 2806/2906 26010KT 9999 SCT030 \n  TEMPO 2808/2812 4000 RA \n  TEMPO 2808/2816 26015G30KT \n  TEMPO 2822/2906 26015G25KT RA"
    },
    {
      "icao": "LIMJ",
      "iata": "GOA",
      "name": "Genoa Cristoforo Colombo Airport",
      "lat": 44.412039,
      "lon": 8.840732,
      "updatedAt": "280720Z",
      "visibility_m": 10000,
      "taf_visibility_m": 4000,
      "worst_visibility_m": 4000,
      "ceiling_ft": 3500,
      "hazards": [
        "RA"
      ],
      "severityScore": 12,
      "metarRaw": "METAR LIMJ 280720Z 04013KT 9999 FEW018 BKN035 06/02 Q0991",
      "tafRaw": "TAF LIMJ 280500Z 2806/2906 04015KT 4000 RA BKN014 \n  BECMG 2814/2816 VRB05KT 8000 NSW FEW020"
    },
    {
      "icao": "LIPR",
      "iata": "RMI",
      "name": "Federico Fellini International Airport",
      "lat": 44.020024,
      "lon": 12.612198,
      "updatedAt": "280720Z",
      "visibility_m": 10000,
      "taf_visibility_m": 10000,
      "worst_visibility_m": 10000,
      "ceiling_ft": 4000,
      "hazards": [
        "RA"
      ],
      "severityScore": 12,
      "metarRaw": "METAR LIPR 280720Z 13011KT 100V160 9999 BKN040 11/05 Q0992",
      "tafRaw": "TAF LIPR 280500Z 2806/2906 13012KT 9999 BKN030 \n  TEMPO 2806/2816 RA \n  BECMG 2809/2811 24008KT"
    },
    {
      "icao": "LIPX",
      "iata": "VRN",
      "name": "Verona Villafranca Valerio Catullo Airport",
      "lat": 45.394955,
      "lon": 10.887303,
      "updatedAt": "280720Z",
      "visibility_m": 9000,
      "taf_visibility_m": 3000,
      "worst_visibility_m": 3000,
      "ceiling_ft": 2000,
      "hazards": [
        "RA"
      ],
      "severityScore": 12,
      "metarRaw": "METAR LIPX 280720Z 07013KT 9000 RA BKN020 08/05 Q0992",
      "tafRaw": "TAF LIPX 280500Z 2806/2906 06010KT 3000 RA BKN014 \n  BECMG 2816/2818 28010KT 8000 NSW SCT025"
    },
    {
      "icao": "LIPY",
      "iata": "AOI",
      "name": "Marche Airport",
      "lat": 43.616299,
      "lon": 13.3623,
      "updatedAt": "280720Z",
      "visibility_m": 10000,
      "taf_visibility_m": 10000,
      "worst_visibility_m": 10000,
      "ceiling_ft": 5000,
      "hazards": [
        "RA"
      ],
      "severityScore": 12,
      "metarRaw": "METAR LIPY 280720Z AUTO 15010G21KT 120V180 9999 SCT063/// SCT081/// BKN140/// 12/06 Q0994",
      "tafRaw": "TAF LIPY 280500Z 2806/2906 14010KT 9999 BKN050 \n  TEMPO 2806/2814 RA \n  BECMG 2811/2813 22013KT \n  BECMG 2821/2823 VRB05KT"
    },
    {
      "icao": "LJLJ",
      "iata": "LJU",
      "name": "Ljubljana Jože Pučnik Airport",
      "lat": 46.223701,
      "lon": 14.4576,
      "updatedAt": "280730Z",
      "visibility_m": 10000,
      "taf_visibility_m": 3500,
      "worst_visibility_m": 3500,
      "ceiling_ft": 2500,
      "hazards": [
        "RA"
      ],
      "severityScore": 12,
      "metarRaw": "METAR LJLJ 280730Z 23003KT 200V310 9999 -RA FEW003 BKN025 OVC040 03/02 Q0996 NOSIG",
      "tafRaw": "TAF LJLJ 280500Z 2806/2906 VRB02KT 7000 FEW008 OVC027 \n  TEMPO 2806/2809 -RA \n  BECMG 2809/2811 RA \n  PROB40 \n  TEMPO 2809/2906 3500 BKN013 OVC025 \n  BECMG 2900/2902 NSW \n  TEMPO 2902/2906 -RA"
    },
    {
      "icao": "LLBG",
      "iata": "TLV",
      "name": "Ben Gurion International Airport",
      "lat": 32.011398,
      "lon": 34.8867,
      "updatedAt": "280720Z",
      "visibility_m": 4000,
      "taf_visibility_m": 5000,
      "worst_visibility_m": 4000,
      "ceiling_ft": 3000,
      "hazards": [
        "RA"
      ],
      "severityScore": 12,
      "metarRaw": "METAR LLBG 280720Z 19013KT 4000 DU SCT030 16/05 Q1015 NOSIG",
      "tafRaw": "TAF LLBG 280500Z 2806/2906 19010KT 8000 SCT040 \n  PROB40 \n  TEMPO 2806/2812 23012G22KT 5000 -RA DU BKN040 \n  BECMG 2812/2814 22010KT \n  PROB40 \n  TEMPO 2814/2906 23015G25KT 5000 RA FEW025TCU BKN030 TX17/2809Z TN11/2904Z"
    },
    {
      "icao": "LWOH",
      "iata": "OHD",
      "name": "Ohrid St. Paul the Apostle Airport",
      "lat": 41.18,
      "lon": 20.7423,
      "updatedAt": "280750Z",
      "visibility_m": 10000,
      "taf_visibility_m": 10000,
      "worst_visibility_m": 10000,
      "ceiling_ft": 3500,
      "hazards": [
        "RA"
      ],
      "severityScore": 12,
      "metarRaw": "METAR LWOH 280750Z 31003KT 280V360 9999 FEW040 SCT090 01/00 Q1008",
      "tafRaw": "TAF LWOH 280530Z 2806/2906 32005KT 9999 FEW040 \n  BECMG 2809/2811 18012KT BKN035 OVC070 \n  BECMG 2814/2816 RA OVC035 \n  BECMG 2820/2822 NSW \n  BECMG 2823/2901 32005KT"
    },
    {
      "icao": "LYBE",
      "iata": "BEG",
      "name": "Belgrade Nikola Tesla Airport",
      "lat": 44.818401,
      "lon": 20.309099,
      "updatedAt": "280730Z",
      "visibility_m": 10000,
      "taf_visibility_m": 10000,
      "worst_visibility_m": 10000,
      "ceiling_ft": null,
      "hazards": [
        "RA"
      ],
      "severityScore": 12,
      "metarRaw": "METAR LYBE 280730Z 16006KT CAVOK 04/M01 Q1002 NOSIG",
      "tafRaw": "TAF LYBE 280500Z 2806/2906 12006KT CAVOK TX11/2812Z TN01/2906Z \n  BECMG 2810/2812 12016KT \n  TEMPO 2820/2824 RA \n  BECMG 2900/2902 18006KT"
    },
    {
      "icao": "GCFV",
      "iata": "FUE",
      "name": "Fuerteventura Airport",
      "lat": 28.4527,
      "lon": -13.8638,
      "updatedAt": "280730Z",
      "visibility_m": 10000,
      "taf_visibility_m": 4500,
      "worst_visibility_m": 4500,
      "ceiling_ft": 2500,
      "hazards": [
        "DZ"
      ],
      "severityScore": 10,
      "metarRaw": "METAR GCFV 280730Z 25004KT 200V330 9999 SCT015 BKN025 19/15 Q1021",
      "tafRaw": "TAF GCFV 280200Z 2803/2903 26009KT 9999 SCT030 TX22/2814Z TN14/2806Z \n  PROB30 \n  TEMPO 2810/2815 4500 DZ BKN014 \n  BECMG 2809/2811 32010KT \n  BECMG 2820/2822 VRB05KT"
    },
    {
      "icao": "GMMX",
      "iata": "RAK",
      "name": "Marrakesh Menara Airport",
      "lat": 31.604807,
      "lon": -8.035788,
      "updatedAt": "280730Z",
      "visibility_m": 8000,
      "taf_visibility_m": 2000,
      "worst_visibility_m": 2000,
      "ceiling_ft": 2000,
      "hazards": [
        "BR"
      ],
      "severityScore": 10,
      "metarRaw": "METAR GMMX 280730Z 23004KT 180V240 8000 BKN020 13/12 Q1020 NOSIG",
      "tafRaw": "TAF GMMX 280500Z 2806/2912 06006KT 8000 SCT023 SCT080 \n  PROB30 \n  TEMPO 2806/2808 2000 BR BKN010"
    },
    {
      "icao": "EDDB",
      "iata": "BER",
      "name": "Berlin Brandenburg Willy Brandt Airport",
      "lat": 52.361738,
      "lon": 13.502341,
      "updatedAt": "280720Z",
      "visibility_m": 10000,
      "taf_visibility_m": 2500,
      "worst_visibility_m": 2500,
      "ceiling_ft": 2400,
      "hazards": [
        "BR"
      ],
      "severityScore": 10,
      "metarRaw": "METAR EDDB 280720Z AUTO 08010KT 9999 OVC024 M01/M03 Q1000 NOSIG",
      "tafRaw": "TAF EDDB 280500Z 2806/2906 07009KT 9000 SCT008 OVC015 \n  TEMPO 2806/2818 4500 BR BKN008 \n  TEMPO 2818/2906 2500 BR BKN004"
    },
    {
      "icao": "ENBR",
      "iata": "BGO",
      "name": "Bergen Airport, Flesland",
      "lat": 60.2934,
      "lon": 5.21814,
      "updatedAt": "280720Z",
      "visibility_m": 10000,
      "taf_visibility_m": 10000,
      "worst_visibility_m": 10000,
      "ceiling_ft": null,
      "hazards": [
        "BR"
      ],
      "severityScore": 10,
      "metarRaw": "METAR ENBR 280720Z VRB02KT CAVOK M06/M08 Q1005 NOSIG RMK WIND 1200FT 36009KT",
      "tafRaw": "TAF ENBR 280500Z 2806/2906 08005KT CAVOK"
    },
    {
      "icao": "EFTU",
      "iata": "TKU",
      "name": "Turku Airport",
      "lat": 60.514099,
      "lon": 22.2628,
      "updatedAt": "280750Z",
      "visibility_m": 10000,
      "taf_visibility_m": null,
      "worst_visibility_m": 10000,
      "ceiling_ft": null,
      "hazards": [],
      "severityScore": 5,
      "metarRaw": "METAR EFTU 280750Z AUTO 08003KT 040V100 9999 FEW003 M14/M15 Q1016",
      "tafRaw": null
    },
    {
      "icao": "HEGN",
      "iata": "HRG",
      "name": "Hurghada International Airport",
      "lat": 27.176776,
      "lon": 33.796692,
      "updatedAt": "280730Z",
      "visibility_m": 2000,
      "taf_visibility_m": null,
      "worst_visibility_m": 2000,
      "ceiling_ft": null,
      "hazards": [],
      "severityScore": 5,
      "metarRaw": "SPECI HEGN 280730Z 35013KT 2000 SA NSC 19/M05 Q1020 NOSIG",
      "tafRaw": null
    },
    {
      "icao": "HEMA",
      "iata": "RMF",
      "name": "Marsa Alam International Airport",
      "lat": 25.555548,
      "lon": 34.59245,
      "updatedAt": "280700Z",
      "visibility_m": 10000,
      "taf_visibility_m": null,
      "worst_visibility_m": 10000,
      "ceiling_ft": null,
      "hazards": [],
      "severityScore": 5,
      "metarRaw": "METAR HEMA 280700Z 28006KT CAVOK 21/M09 Q1020 NOSIG",
      "tafRaw": null
    },
    {
      "icao": "HESH",
      "iata": "SSH",
      "name": "Sharm El Sheikh International Airport",
      "lat": 27.977272,
      "lon": 34.394717,
      "updatedAt": "280700Z",
      "visibility_m": 2000,
      "taf_visibility_m": null,
      "worst_visibility_m": 2000,
      "ceiling_ft": null,
      "hazards": [],
      "severityScore": 5,
      "metarRaw": "METAR HESH 280700Z 23006KT 2000 HZ NSC 20/00 Q1018 NOSIG",
      "tafRaw": null
    },
    {
      "icao": "LBWN",
      "iata": "VAR",
      "name": "Varna Airport",
      "lat": 43.232101,
      "lon": 27.8251,
      "updatedAt": "280730Z",
      "visibility_m": 10000,
      "taf_visibility_m": null,
      "worst_visibility_m": 10000,
      "ceiling_ft": null,
      "hazards": [],
      "severityScore": 5,
      "metarRaw": "METAR LBWN 280730Z AUTO VRB02KT 9999 NCD 06/05 Q1008 NOSIG",
      "tafRaw": null
    },
    {
      "icao": "LECH",
      "iata": "CDT",
      "name": "Castellón-Costa Azahar Airport",
      "lat": 40.213889,
      "lon": 0.073333,
      "updatedAt": "280730Z",
      "visibility_m": 10000,
      "taf_visibility_m": null,
      "worst_visibility_m": 10000,
      "ceiling_ft": null,
      "hazards": [],
      "severityScore": 5,
      "metarRaw": "METAR LECH 280730Z AUTO 13005KT CAVOK 07/00 Q0997",
      "tafRaw": null
    },
    {
      "icao": "LPPR",
      "iata": "OPO",
      "name": "Francisco de Sá Carneiro Airport",
      "lat": 41.2481002808,
      "lon": -8.68138980865,
      "updatedAt": "280730Z",
      "visibility_m": 10000,
      "taf_visibility_m": null,
      "worst_visibility_m": 10000,
      "ceiling_ft": null,
      "hazards": [],
      "severityScore": 5,
      "metarRaw": "METAR LPPR 280730Z 00000KT 9999 FEW018 SCT045 07/05 Q0994",
      "tafRaw": null
    },
    {
      "icao": "LTAC",
      "iata": "ESB",
      "name": "Esenboğa International Airport",
      "lat": 40.128101,
      "lon": 32.995098,
      "updatedAt": "280720Z",
      "visibility_m": 10000,
      "taf_visibility_m": null,
      "worst_visibility_m": 10000,
      "ceiling_ft": 8000,
      "hazards": [],
      "severityScore": 5,
      "metarRaw": "METAR LTAC 280720Z VRB02KT 9999 SCT035 BKN080 05/03 Q1010 NOSIG RMK RWY21C VRB02KT RWY03L VRB01KT RWY21R 02003KT 340V040 RWY03R 00000KT RWY21L VRB02KT",
      "tafRaw": null
    },
    {
      "icao": "BIKF",
      "iata": "KEF",
      "name": "Keflavik International Airport",
      "lat": 63.985001,
      "lon": -22.6056,
      "updatedAt": "280730Z",
      "visibility_m": 10000,
      "taf_visibility_m": 10000,
      "worst_visibility_m": 10000,
      "ceiling_ft": null,
      "hazards": [],
      "severityScore": 0,
      "metarRaw": "METAR BIKF 280730Z 07015KT CAVOK 04/M06 Q0998",
      "tafRaw": "TAF BIKF 280740Z 2809/2909 05014KT CAVOK TX04/2815Z TN02/2904Z \n  BECMG 2812/2814 07020G30KT \n  BECMG 2901/2903 05012KT"
    },
    {
      "icao": "GCLP",
      "iata": "LPA",
      "name": "Gran Canaria Airport",
      "lat": 27.9319,
      "lon": -15.3866,
      "updatedAt": "280730Z",
      "visibility_m": 10000,
      "taf_visibility_m": 10000,
      "worst_visibility_m": 10000,
      "ceiling_ft": null,
      "hazards": [],
      "severityScore": 0,
      "metarRaw": "METAR GCLP 280730Z 34007KT 9999 FEW030 16/12 Q1022 NOSIG",
      "tafRaw": "TAF GCLP 280200Z 2803/2903 VRB05KT 9999 FEW030 TX22/2814Z TN15/2806Z \n  PROB40 \n  TEMPO 2806/2809 34010KT \n  PROB40 \n  TEMPO 2812/2816 15010KT"
    },
    {
      "icao": "EKCH",
      "iata": "CPH",
      "name": "Copenhagen Kastrup Airport",
      "lat": 55.617900848389,
      "lon": 12.656000137329,
      "updatedAt": "280720Z",
      "visibility_m": 10000,
      "taf_visibility_m": 10000,
      "worst_visibility_m": 10000,
      "ceiling_ft": 2900,
      "hazards": [],
      "severityScore": 0,
      "metarRaw": "METAR EKCH 280720Z 06015KT 9999 FEW019 BKN029 M01/M04 Q1005 NOSIG",
      "tafRaw": "TAF EKCH 280527Z 2806/2906 07016KT 9999 OVC015 \n  TEMPO 2806/2810 BKN014"
    },
    {
      "icao": "ENAL",
      "iata": "AES",
      "name": "Ålesund Airport, Vigra",
      "lat": 62.5625,
      "lon": 6.1197,
      "updatedAt": "280720Z",
      "visibility_m": 10000,
      "taf_visibility_m": 10000,
      "worst_visibility_m": 10000,
      "ceiling_ft": null,
      "hazards": [],
      "severityScore": 0,
      "metarRaw": "METAR ENAL 280720Z 16005KT CAVOK M07/M08 Q1006",
      "tafRaw": "TAF ENAL 280500Z 2806/2815 17005KT CAVOK"
    },
    {
      "icao": "ENHD",
      "iata": "HAU",
      "name": "Haugesund Airport, Karmøy",
      "lat": 59.345299,
      "lon": 5.20836,
      "updatedAt": "280720Z",
      "visibility_m": 10000,
      "taf_visibility_m": 10000,
      "worst_visibility_m": 10000,
      "ceiling_ft": null,
      "hazards": [],
      "severityScore": 0,
      "metarRaw": "METAR ENHD 280720Z 06003KT 010V110 9999 FEW040 M02/M10 Q1005",
      "tafRaw": "TAF ENHD 280500Z 2806/2815 11008KT 9999 FEW040"
    },
    {
      "icao": "ENTO",
      "iata": "TRF",
      "name": "Sandefjord Airport, Torp",
      "lat": 59.186699,
      "lon": 10.2586,
      "updatedAt": "280720Z",
      "visibility_m": 10000,
      "taf_visibility_m": 10000,
      "worst_visibility_m": 10000,
      "ceiling_ft": 2500,
      "hazards": [],
      "severityScore": 0,
      "metarRaw": "METAR ENTO 280720Z 01008KT 9999 OVC025 M07/M10 Q1012 NOSIG",
      "tafRaw": "TAF ENTO 280500Z 2806/2906 02008KT 9999 BKN020"
    },
    {
      "icao": "ENVA",
      "iata": "TRD",
      "name": "Trondheim Airport, Værnes",
      "lat": 63.457802,
      "lon": 10.924,
      "updatedAt": "280720Z",
      "visibility_m": 10000,
      "taf_visibility_m": 10000,
      "worst_visibility_m": 10000,
      "ceiling_ft": null,
      "hazards": [],
      "severityScore": 0,
      "metarRaw": "METAR ENVA 280720Z 09007KT CAVOK M13/M16 Q1010 NOSIG RMK WIND 670FT 13015KT",
      "tafRaw": "TAF ENVA 280500Z 2806/2906 10008KT CAVOK"
    },
    {
      "icao": "ENZV",
      "iata": "SVG",
      "name": "Stavanger Airport, Sola",
      "lat": 58.876701,
      "lon": 5.63778,
      "updatedAt": "280720Z",
      "visibility_m": 10000,
      "taf_visibility_m": 10000,
      "worst_visibility_m": 10000,
      "ceiling_ft": null,
      "hazards": [],
      "severityScore": 0,
      "metarRaw": "METAR ENZV 280720Z 09004KT CAVOK M02/M15 Q1005 NOSIG",
      "tafRaw": "TAF ENZV 280500Z 2806/2906 11008KT CAVOK"
    },
    {
      "icao": "ESGG",
      "iata": "GOT",
      "name": "Göteborg Landvetter Airport",
      "lat": 57.6628,
      "lon": 12.2798,
      "updatedAt": "280720Z",
      "visibility_m": 10000,
      "taf_visibility_m": 10000,
      "worst_visibility_m": 10000,
      "ceiling_ft": 2400,
      "hazards": [],
      "severityScore": 0,
      "metarRaw": "METAR ESGG 280720Z 08010KT 9999 BKN024 M04/M09 Q1008",
      "tafRaw": "TAF ESGG 280530Z 2806/2906 07010KT 9999 SCT020"
    },
    {
      "icao": "LPMA",
      "iata": "FNC",
      "name": "Cristiano Ronaldo International Airport",
      "lat": 32.697812,
      "lon": -16.774613,
      "updatedAt": "280730Z",
      "visibility_m": 10000,
      "taf_visibility_m": 10000,
      "worst_visibility_m": 10000,
      "ceiling_ft": null,
      "hazards": [],
      "severityScore": 0,
      "metarRaw": "METAR LPMA 280730Z 26003KT 200V320 9999 FEW015 16/11 Q1016",
      "tafRaw": "TAF LPMA 280500Z 2806/2906 VRB05KT 9999 FEW015 \n  TEMPO 2812/2818 23010KT"
    },
    {
      "icao": "LPPS",
      "iata": "PXO",
      "name": "Porto Santo Airport",
      "lat": 33.0733985901,
      "lon": -16.3500003815,
      "updatedAt": "280730Z",
      "visibility_m": 10000,
      "taf_visibility_m": 10000,
      "worst_visibility_m": 10000,
      "ceiling_ft": null,
      "hazards": [],
      "severityScore": 0,
      "metarRaw": "METAR LPPS 280730Z 28016KT 9999 FEW010 SCT030 16/15 Q1016",
      "tafRaw": "TAF LPPS 280500Z 2806/2912 27015KT 9999 SCT015 SCT030 \n  PROB30 \n  TEMPO 2806/2812 27018G30KT"
    },
    {
      "icao": "OEMA",
      "iata": "MED",
      "name": "Prince Mohammad Bin Abdulaziz Airport",
      "lat": 24.5534,
      "lon": 39.705101,
      "updatedAt": "280700Z",
      "visibility_m": 10000,
      "taf_visibility_m": 7000,
      "worst_visibility_m": 7000,
      "ceiling_ft": null,
      "hazards": [],
      "severityScore": 0,
      "metarRaw": "METAR OEMA 280700Z 23008KT CAVOK 23/12 Q1019 NOSIG",
      "tafRaw": "TAF OEMA 280500Z 2806/2912 28014KT 9999 SCT040 \n  BECMG 2820/2822 VRB03KT 7000 FEW040"
    },
    {
      "icao": "OMDB",
      "iata": "DXB",
      "name": "Dubai International Airport",
      "lat": 25.2527999878,
      "lon": 55.3643989563,
      "updatedAt": "280730Z",
      "visibility_m": 10000,
      "taf_visibility_m": 8000,
      "worst_visibility_m": 8000,
      "ceiling_ft": null,
      "hazards": [],
      "severityScore": 0,
      "metarRaw": "METAR OMDB 280730Z 17007KT 130V210 CAVOK 24/12 Q1021 NOSIG",
      "tafRaw": "TAF OMDB 280500Z 2806/2912 16005KT 8000 NSC \n  BECMG 2810/2812 34010KT \n  BECMG 2815/2817 08005KT \n  BECMG 2904/2906 18010KT \n  BECMG 2909/2911 29010KT"
    },
    {
      "icao": "UGKO",
      "iata": "KUT",
      "name": "David the Builder Kutaisi International Airport",
      "lat": 42.177448,
      "lon": 42.485353,
      "updatedAt": "280730Z",
      "visibility_m": 10000,
      "taf_visibility_m": 10000,
      "worst_visibility_m": 10000,
      "ceiling_ft": null,
      "hazards": [],
      "severityScore": 0,
      "metarRaw": "METAR UGKO 280730Z 09021KT CAVOK 10/M01 Q1013 NOSIG",
      "tafRaw": "TAF UGKO 280500Z 2806/2906 08017KT CAVOK TX15/2812Z TN03/2903Z \n  TEMPO 2806/2814 09023G35KT \n  TEMPO 2822/2906 08007KT"
    }
  ],
  "stats": {
    "icaoCount": 159,
    "metarReturned": 156,
    "tafReturned": 138,
    "stationsWritten": 159,
    "missingMetar": 3,
    "missingTaf": 21
  },
  "errors": []
}