{
  "generatedAt": "2026-01-15T11:47:17.456Z",
  "stations": [
    {
      "icao": "BKPR",
      "iata": "PRN",
      "name": "Priština Adem Jashari International Airport",
      "updatedAt": "151130Z",
      "visibility_m": 10000,
      "taf_visibility_m": 150,
      "worst_visibility_m": 150,
      "ceiling_ft": 6000,
      "hazards": [
        "FZFG",
        "BR",
        "FG"
      ],
      "severityScore": 100,
      "metarRaw": "METAR BKPR 151130Z 36004KT 9999 BKN060 09/05 Q1024 NOSIG",
      "tafRaw": "TAF BKPR 151130Z 1512/1612 30006KT 9999 BKN060 \n  BECMG 1520/1524 3000 BR \n  PROB30 1600/1608 0150 FZFG BKN002 \n  BECMG 1609/1611 9999 NSW"
    },
    {
      "icao": "EDDB",
      "iata": "BER",
      "name": "Berlin Brandenburg Airport",
      "updatedAt": "151120Z",
      "visibility_m": 400,
      "taf_visibility_m": 500,
      "worst_visibility_m": 400,
      "ceiling_ft": 100,
      "hazards": [
        "FG",
        "BR"
      ],
      "severityScore": 100,
      "metarRaw": "METAR EDDB 151120Z AUTO 15006KT 0900 0400 R24R/1900N R24L/1100N FG OVC001 04/04 Q1015 TEMPO 3000 BR BKN001",
      "tafRaw": "TAF EDDB 151100Z 1512/1612 14007KT 4000 BR BKN002 \n  PROB40 \n  TEMPO 1512/1514 0500 FG OVC001 \n  BECMG 1513/1515 CAVOK \n  PROB30 \n  TEMPO 1517/1524 0700 FG"
    },
    {
      "icao": "EFTU",
      "iata": "TKU",
      "name": "Turku Airport",
      "updatedAt": "151120Z",
      "visibility_m": 4700,
      "taf_visibility_m": 700,
      "worst_visibility_m": 700,
      "ceiling_ft": 600,
      "hazards": [
        "SHSN",
        "SN",
        "FG",
        "BR",
        "DZ"
      ],
      "severityScore": 100,
      "metarRaw": "METAR EFTU 151120Z AUTO 15007KT 4700 -SHSN OVC006 M03/M03 Q1014",
      "tafRaw": "TAF EFTU 151126Z 1512/1612 14007KT 1200 -SHSN BKN009 \n  BECMG 1512/1514 9000 NSW BKN015 \n  BECMG 1517/1519 BKN011 \n  TEMPO 1519/1604 2500 -DZ BR BKN003 \n  PROB40 1520/1524 0700 FG VV001"
    },
    {
      "icao": "EGGP",
      "iata": "LPL",
      "name": "Liverpool John Lennon Airport",
      "updatedAt": "151120Z",
      "visibility_m": 10000,
      "taf_visibility_m": 300,
      "worst_visibility_m": 300,
      "ceiling_ft": 300,
      "hazards": [
        "FG",
        "BR"
      ],
      "severityScore": 100,
      "metarRaw": "METAR EGGP 151120Z VRB01KT 9999 FEW038 05/04 Q1000",
      "tafRaw": "TAF EGGP 151056Z 1512/1612 16005KT 9999 FEW035 \n  BECMG 1512/1515 6000 \n  PROB30 1512/1515 4000 BR \n  TEMPO 1515/1606 3000 BR MIFG BKN003 \n  PROB30 1519/1606 0300 FG VV/// \n  BECMG 1606/1609 9999"
    },
    {
      "icao": "EGGW",
      "iata": "LTN",
      "name": "London Luton Airport",
      "updatedAt": "151120Z",
      "visibility_m": 5000,
      "taf_visibility_m": 300,
      "worst_visibility_m": 300,
      "ceiling_ft": 100,
      "hazards": [
        "DZ",
        "RA",
        "FG",
        "SHRA"
      ],
      "severityScore": 100,
      "metarRaw": "METAR EGGW 151120Z AUTO 17007KT 150V210 5000 -DZ OVC003/// //////TCU 08/07 Q1001 RERA",
      "tafRaw": "TAF EGGW 151102Z 1512/1612 16010KT 9999 SCT004 BKN020 \n  TEMPO 1512/1522 6000 RA BKN003 \n  PROB30 \n  TEMPO 1512/1520 3000 +RA \n  TEMPO 1515/1520 17018G30KT \n  BECMG 1519/1522 26010KT \n  PROB40 \n  TEMPO 1522/1606 0300 FG BKN001 \n  BECMG 1602/1605 17008KT \n  PROB30 \n  TEMPO 1606/1610 0800 FG BKN001 \n  PROB30 \n  TEMPO 1610/1612 6000 SHRA BKN005"
    },
    {
      "icao": "ENGM",
      "iata": "OSL",
      "name": "Oslo-Gardermoen International Airport",
      "updatedAt": "151120Z",
      "visibility_m": 1200,
      "taf_visibility_m": 300,
      "worst_visibility_m": 300,
      "ceiling_ft": 400,
      "hazards": [
        "BR",
        "SN",
        "FG",
        "FZFG",
        "RA"
      ],
      "severityScore": 100,
      "metarRaw": "METAR ENGM 151120Z 01004KT 350V060 5000 1200E -SN BCFG OVC007 M06/M08 Q1008 TEMPO 1200 -SN BR BKN004",
      "tafRaw": "TAF ENGM 151100Z 1512/1612 VRB03KT 0300 FZFG VV001 \n  TEMPO 1512/1609 4000 -SN BR BKN012 \n  BECMG 1609/1611 1000 RASN BR BKN004"
    },
    {
      "icao": "EPKK",
      "iata": "KRK",
      "name": "Kraków John Paul II International Airport",
      "updatedAt": "151130Z",
      "visibility_m": 4800,
      "taf_visibility_m": 700,
      "worst_visibility_m": 700,
      "ceiling_ft": 200,
      "hazards": [
        "BR",
        "FG",
        "RA",
        "DZ"
      ],
      "severityScore": 100,
      "metarRaw": "METAR EPKK 151130Z 05005KT 4800 BR NSC 02/00 Q1019",
      "tafRaw": "TAF EPKK 151130Z 1512/1612 07005KT 5000 BR NSC \n  PROB30 \n  TEMPO 1512/1515 4500 BR \n  BECMG 1515/1518 4500 BR BKN012 \n  TEMPO 1515/1607 2000 -RADZ BR BKN004 \n  TEMPO 1606/1609 0700 FG BKN002 \n  TEMPO 1609/1612 1500 BR BKN004"
    },
    {
      "icao": "EPKT",
      "iata": "KTW",
      "name": "Katowice Wojciech Korfanty International Airport",
      "updatedAt": "151130Z",
      "visibility_m": 8000,
      "taf_visibility_m": 700,
      "worst_visibility_m": 700,
      "ceiling_ft": 200,
      "hazards": [
        "FG",
        "BR",
        "DZ"
      ],
      "severityScore": 100,
      "metarRaw": "METAR EPKT 151130Z 17004KT 8000 NSC 03/01 Q1019",
      "tafRaw": "TAF EPKT 151130Z 1512/1612 15004KT 7000 NSC \n  BECMG 1515/1518 4000 BR BKN008 \n  TEMPO 1515/1606 2000 -DZ BR BKN004 \n  TEMPO 1606/1609 0700 FG BKN002 \n  TEMPO 1609/1612 1500 BR BKN004"
    },
    {
      "icao": "EPPO",
      "iata": "POZ",
      "name": "Poznań-Ławica Airport",
      "updatedAt": "151130Z",
      "visibility_m": 800,
      "taf_visibility_m": 200,
      "worst_visibility_m": 200,
      "ceiling_ft": 200,
      "hazards": [
        "FZFG",
        "FG",
        "BR",
        "DZ",
        "RA"
      ],
      "severityScore": 100,
      "metarRaw": "METAR EPPO 151130Z 11007KT 0800 R28/1100U FZFG VV002 M00/M01 Q1018",
      "tafRaw": "TAF EPPO 151130Z 1512/1612 13005KT 0400 FZFG BKN001 \n  BECMG 1512/1514 5000 BR BKN007 \n  TEMPO 1514/1518 3000 -DZRA BR BKN003 \n  BECMG 1518/1521 0800 FG BKN003 \n  TEMPO 1521/1609 0200 -DZ FG BKN001 \n  BECMG 1609/1612 4000 BR BKN007"
    },
    {
      "icao": "EPWR",
      "iata": "WRO",
      "name": "Copernicus Wrocław Airport",
      "updatedAt": "151130Z",
      "visibility_m": 6000,
      "taf_visibility_m": 300,
      "worst_visibility_m": 300,
      "ceiling_ft": 100,
      "hazards": [
        "FG",
        "BR",
        "RA",
        "DZ"
      ],
      "severityScore": 100,
      "metarRaw": "METAR EPWR 151130Z 13007KT 6000 NSC 03/02 Q1018",
      "tafRaw": "TAF EPWR 151130Z 1512/1612 12007KT 5000 BR SCT045 \n  TEMPO 1512/1518 4000 -RA BR \n  PROB40 \n  TEMPO 1512/1518 2500 -DZRA BR BKN005 \n  TEMPO 1518/1521 1200 BR \n  BECMG 1521/1524 0800 FG BKN002 \n  TEMPO 1521/1609 0300 FG BKN001 \n  BECMG 1609/1612 8000 SCT012"
    },
    {
      "icao": "ESGG",
      "iata": "GOT",
      "name": "Göteborg Landvetter Airport",
      "updatedAt": "151120Z",
      "visibility_m": 10000,
      "taf_visibility_m": 300,
      "worst_visibility_m": 300,
      "ceiling_ft": 800,
      "hazards": [
        "FG",
        "BR",
        "DZ",
        "RA"
      ],
      "severityScore": 100,
      "metarRaw": "METAR ESGG 151120Z 17013KT 9999 BKN008 02/00 Q1010",
      "tafRaw": "TAF ESGG 151130Z 1512/1612 18006KT 8000 SCT004 BKN015 \n  BECMG 1513/1515 BKN005 \n  TEMPO 1515/1518 2000 -RADZ BR BKN003 \n  PROB40 1518/1608 0300 -DZ FG VV002 \n  PROB40 1608/1612 BKN004"
    },
    {
      "icao": "LBSF",
      "iata": "SOF",
      "name": "Sofia Airport",
      "updatedAt": "151130Z",
      "visibility_m": 10000,
      "taf_visibility_m": 600,
      "worst_visibility_m": 600,
      "ceiling_ft": 200,
      "hazards": [
        "FZFG",
        "BR",
        "FG"
      ],
      "severityScore": 100,
      "metarRaw": "METAR LBSF 151130Z 28011KT 250V310 CAVOK 11/02 Q1022 NOSIG",
      "tafRaw": "TAF LBSF 151100Z 1512/1612 31010KT 9999 SCT060 \n  BECMG 1517/1519 VRB03KT \n  TEMPO 1600/1606 4000 BR SCT010 \n  PROB30 \n  TEMPO 1602/1607 0600 FZFG VV002"
    },
    {
      "icao": "LEMD",
      "iata": "MAD",
      "name": "Adolfo Suárez Madrid–Barajas Airport",
      "updatedAt": "151130Z",
      "visibility_m": 3500,
      "taf_visibility_m": 600,
      "worst_visibility_m": 600,
      "ceiling_ft": 300,
      "hazards": [
        "BR",
        "FG",
        "RA",
        "DZ"
      ],
      "severityScore": 100,
      "metarRaw": "METAR LEMD 151130Z 15005KT 100V210 3500 BR SCT002 BKN003 OVC007 05/05 Q1019 BECMG BKN004",
      "tafRaw": "TAF LEMD 151100Z 1512/1618 VRB05KT 9999 BKN020 TX09/1515Z TN05/1607Z \n  TEMPO 1512/1514 4000 BR BKN004 BKN010 \n  BECMG 1512/1514 21010KT \n  TEMPO 1516/1522 3000 RA DZRA BKN014 \n  TEMPO 1522/1609 3000 DZRA BR BKN004 BKN010 \n  PROB30 \n  TEMPO 1604/1608 0600 FG VV002 \n  PROB40 \n  TEMPO 1609/1614 DZRA BKN010"
    },
    {
      "icao": "LEZL",
      "iata": "SVQ",
      "name": "Sevilla Airport",
      "updatedAt": "151130Z",
      "visibility_m": 800,
      "taf_visibility_m": 500,
      "worst_visibility_m": 500,
      "ceiling_ft": 200,
      "hazards": [
        "FG",
        "BR",
        "RA"
      ],
      "severityScore": 100,
      "metarRaw": "METAR LEZL 151130Z VRB02KT 0800 R27/1900N R09/0800N FG VV002 09/09 Q1022 BECMG 5000 BR",
      "tafRaw": "TAF LEZL 150800Z 1509/1609 07003KT 0500 FG VV001 TX14/1515Z TN08/1607Z \n  BECMG 1509/1511 4000 BR BKN006 \n  BECMG 1511/1513 9999 NSW SCT020 \n  BECMG 1514/1516 22010KT \n  PROB30 \n  TEMPO 1521/1609 4000 RA BR BKN010"
    },
    {
      "icao": "LHBP",
      "iata": "BUD",
      "name": "Budapest Liszt Ferenc International Airport",
      "updatedAt": "151130Z",
      "visibility_m": 3300,
      "taf_visibility_m": 300,
      "worst_visibility_m": 300,
      "ceiling_ft": 600,
      "hazards": [
        "BR",
        "FZFG",
        "FZRA",
        "FG",
        "RA",
        "DZ"
      ],
      "severityScore": 100,
      "metarRaw": "METAR LHBP 151130Z 06004KT 030V090 3300 BR BKN006 M01/M03 Q1022 NOSIG",
      "tafRaw": "TAF LHBP 151115Z 1512/1612 09005KT 2500 BR OVC005 \n  TEMPO 1512/1516 5000 SCT008 BKN060 \n  TEMPO 1516/1612 0800 -FZRADZ FZFG OVC002 \n  PROB40 \n  TEMPO 1522/1609 0300 FZFG VV001"
    },
    {
      "icao": "LHDC",
      "iata": "DEB",
      "name": "Debrecen International Airport",
      "updatedAt": "151115Z",
      "visibility_m": 3600,
      "taf_visibility_m": 500,
      "worst_visibility_m": 500,
      "ceiling_ft": 700,
      "hazards": [
        "BR",
        "FZFG",
        "FZRA",
        "FG",
        "RA"
      ],
      "severityScore": 100,
      "metarRaw": "METAR LHDC 151115Z AUTO VRB01KT 3600 BR OVC007 00/M00 Q1023 NOSIG",
      "tafRaw": "TAF LHDC 151115Z 1512/1521 VRB03KT 5000 BR SCT004 OVC035 \n  TEMPO 1512/1515 2000 BR BKN004 OVC035 \n  BECMG 1515/1518 0700 FZFG BKN002 OVC010 \n  TEMPO 1518/1521 0500 FZFG VV001 \n  PROB30 \n  TEMPO 1520/1521 -FZRA"
    },
    {
      "icao": "LIMC",
      "iata": "MXP",
      "name": "Milan Malpensa International Airport",
      "updatedAt": "151120Z",
      "visibility_m": 900,
      "taf_visibility_m": 800,
      "worst_visibility_m": 800,
      "ceiling_ft": 400,
      "hazards": [
        "FG",
        "BR",
        "RA"
      ],
      "severityScore": 100,
      "metarRaw": "METAR LIMC 151120Z VRB03KT 0900 R35R/P2000N R17L/P2000N R35L/P2000N FG OVC004 07/06 Q1022 NOSIG",
      "tafRaw": "TAF LIMC 151100Z 1512/1618 VRB05KT 0800 -RA FG BKN003 \n  TEMPO 1512/1520 4000 BR BKN050 \n  BECMG 1608/1610 3000 BR BKN050"
    },
    {
      "icao": "LIPR",
      "iata": "RMI",
      "name": "Federico Fellini International Airport",
      "updatedAt": "151120Z",
      "visibility_m": 4000,
      "taf_visibility_m": 300,
      "worst_visibility_m": 300,
      "ceiling_ft": 700,
      "hazards": [
        "BR",
        "FG"
      ],
      "severityScore": 100,
      "metarRaw": "METAR LIPR 151120Z 32004KT 290V350 4000 BR BKN007 08/06 Q1022",
      "tafRaw": "TAF LIPR 151100Z 1512/1612 VRB04KT 3000 BR SCT020 \n  TEMPO 1516/1609 0300 FG BKN001"
    },
    {
      "icao": "LKPR",
      "iata": "PRG",
      "name": "Václav Havel Airport Prague",
      "updatedAt": "151130Z",
      "visibility_m": 2800,
      "taf_visibility_m": 300,
      "worst_visibility_m": 300,
      "ceiling_ft": 3000,
      "hazards": [
        "BR",
        "RA",
        "FG",
        "FZFG"
      ],
      "severityScore": 100,
      "metarRaw": "METAR LKPR 151130Z 18004KT 2800 -RA BR MIFG FEW022 BKN030 04/04 Q1017 NOSIG",
      "tafRaw": "TAF LKPR 151100Z 1512/1618 12004KT 3000 BR BKN022 \n  TEMPO 1512/1516 2500 -RA BR SCT004 BKN012 \n  BECMG 1516/1518 1500 BR SCT002 \n  TEMPO 1518/1609 VRB02KT 0300 FZFG OVC002 \n  BECMG 1610/1612 4000 BR OVC005 \n  TEMPO 1612/1618 1800 BR OVC002"
    },
    {
      "icao": "LOWW",
      "iata": "VIE",
      "name": "Vienna International Airport",
      "updatedAt": "151120Z",
      "visibility_m": 1700,
      "taf_visibility_m": 300,
      "worst_visibility_m": 300,
      "ceiling_ft": 200,
      "hazards": [
        "BR",
        "FZFG",
        "FZDZ",
        "DZ",
        "FG"
      ],
      "severityScore": 100,
      "metarRaw": "METAR LOWW 151120Z 14003KT 1700 1000SW R16/1400U R29/1200U BR FEW001 BKN002 M02/M02 Q1021 NOSIG",
      "tafRaw": "TAF LOWW 151115Z 1512/1618 15004KT 0800 FZFG FEW001 BKN002 TX00/1615Z TNM02/1512Z \n  TEMPO 1512/1516 1500 BR \n  PROB30 \n  TEMPO 1512/1516 -FZDZ \n  TEMPO 1516/1612 0500 VV001 \n  PROB40 \n  TEMPO 1523/1609 13008KT 0300 -FZDZ FZFG \n  PROB40 \n  TEMPO 1609/1618 -DZ \n  BECMG 1609/1611 13010KT 1200 BCFG"
    },
    {
      "icao": "LPPR",
      "iata": "OPO",
      "name": "Francisco de Sá Carneiro Airport",
      "updatedAt": "151130Z",
      "visibility_m": 5000,
      "taf_visibility_m": 1500,
      "worst_visibility_m": 1500,
      "ceiling_ft": 900,
      "hazards": [
        "BR",
        "RA",
        "SHRA",
        "TS",
        "DZ"
      ],
      "severityScore": 100,
      "metarRaw": "METAR LPPR 151130Z 17022KT 5000 -RA BR BKN009 OVC016 11/09 Q1013",
      "tafRaw": "TAF LPPR 151100Z 1512/1612 17020KT 8000 -RA SCT008 BKN015 \n  TEMPO 1512/1515 17023G35KT 3000 RADZ BR SCT002 BKN004 FEW018CB \n  PROB40 \n  TEMPO 1512/1515 17028G40KT 1500 +RA BKN002 \n  BECMG 1516/1518 31012KT 9999 NSW SCT018 \n  BECMG 1521/1523 VRB02KT \n  TEMPO 1522/1612 5000 SHRA BKN012 FEW018CB \n  PROB40 \n  TEMPO 1600/1612 VRB15G25KT 2000 +TSRAGS SCT016CB \n  BECMG 1608/1610 21010KT"
    },
    {
      "icao": "LRSB",
      "iata": "SBZ",
      "name": "Sibiu International Airport",
      "updatedAt": "151130Z",
      "visibility_m": 4000,
      "taf_visibility_m": 1500,
      "worst_visibility_m": 1500,
      "ceiling_ft": 700,
      "hazards": [
        "BR",
        "FZRA",
        "RA",
        "DZ"
      ],
      "severityScore": 100,
      "metarRaw": "METAR LRSB 151130Z VRB01KT 4000 BR OVC007 02/01 Q1021",
      "tafRaw": "TAF LRSB 151100Z 1512/1612 VRB04KT 5000 BR BKN010 OVC020 \n  TEMPO 1512/1518 3000 -RADZ BR BKN005 OVC015 \n  BECMG 1518/1520 3000 BR \n  TEMPO 1600/1606 1500 -FZRADZ BKN005 OVC010"
    },
    {
      "icao": "LRSV",
      "iata": "SCV",
      "name": "Suceava Stefan cel Mare Airport",
      "updatedAt": "151130Z",
      "visibility_m": 5000,
      "taf_visibility_m": 600,
      "worst_visibility_m": 600,
      "ceiling_ft": 500,
      "hazards": [
        "BR",
        "FZFG",
        "SN",
        "FG"
      ],
      "severityScore": 100,
      "metarRaw": "METAR LRSV 151130Z 08004KT 5000 BR OVC005 M06/M07 Q1020",
      "tafRaw": "TAF LRSV 151100Z 1512/1521 07005KT 5000 BR OVC010 \n  BECMG 1513/1515 3000 -SN BR OVC005 \n  TEMPO 1515/1521 0600 -SN FZFG BKN002 OVC005"
    },
    {
      "icao": "LRTR",
      "iata": "TSR",
      "name": "Timişoara Traian Vuia Airport",
      "updatedAt": "151130Z",
      "visibility_m": 6000,
      "taf_visibility_m": 800,
      "worst_visibility_m": 800,
      "ceiling_ft": 100,
      "hazards": [
        "FG",
        "BR",
        "RA",
        "DZ"
      ],
      "severityScore": 100,
      "metarRaw": "METAR LRTR 151130Z 10003KT 6000 NSC 05/02 Q1022",
      "tafRaw": "TAF LRTR 151100Z 1512/1612 VRB04KT 5000 BR BKN020 \n  BECMG 1519/1521 3000 -RA BR BKN010 OVC030 \n  TEMPO 1600/1606 1500 RA BR BKN002 OVC010 \n  PROB40 \n  TEMPO 1607/1612 0800 -DZRA FG OVC001"
    },
    {
      "icao": "LZIB",
      "iata": "BTS",
      "name": "M. R. Štefánik Airport",
      "updatedAt": "151130Z",
      "visibility_m": 2800,
      "taf_visibility_m": 300,
      "worst_visibility_m": 300,
      "ceiling_ft": 100,
      "hazards": [
        "BR",
        "FZFG",
        "FZDZ",
        "FG",
        "DZ"
      ],
      "severityScore": 100,
      "metarRaw": "METAR LZIB 151130Z 11003KT 2800 BR SCT004 M01/M01 Q1021 NOSIG",
      "tafRaw": "TAF LZIB 151115Z 1512/1612 VRB02KT 6000 FEW007 BKN016 \n  TEMPO 1512/1518 2000 BR BKN004 \n  BECMG 1512/1514 08005KT \n  TEMPO 1518/1600 1000 BR BKN002 \n  PROB40 \n  TEMPO 1518/1607 0300 -FZDZ FZFG OVC001 \n  BECMG 1607/1609 2000 BR FEW002"
    },
    {
      "icao": "LZTT",
      "iata": "TAT",
      "name": "Poprad-Tatry Airport",
      "updatedAt": "151130Z",
      "visibility_m": 10000,
      "taf_visibility_m": 500,
      "worst_visibility_m": 500,
      "ceiling_ft": 2300,
      "hazards": [
        "FZFG",
        "BR",
        "FZRA",
        "FG",
        "RA"
      ],
      "severityScore": 100,
      "metarRaw": "METAR LZTT 151130Z 08003KT 9999 SCT011 BKN023 02/M00 Q1018 NOSIG",
      "tafRaw": "TAF LZTT 151115Z 1512/1612 VRB02KT 9999 FEW009 SCT014 BKN025 \n  TEMPO 1512/1518 2800 BR BKN008 \n  PROB40 \n  TEMPO 1518/1600 1500 -FZRA BR OVC008 \n  TEMPO 1600/1608 0500 FZFG OVC002"
    },
    {
      "icao": "UAAA",
      "iata": "ALA",
      "name": "Almaty International Airport",
      "updatedAt": "151130Z",
      "visibility_m": 5000,
      "taf_visibility_m": 300,
      "worst_visibility_m": 300,
      "ceiling_ft": 700,
      "hazards": [
        "BR",
        "FZFG",
        "SN",
        "BLSN",
        "SHSN",
        "FG"
      ],
      "severityScore": 100,
      "metarRaw": "METAR UAAA 151130Z VRB01MPS 5000 BR OVC007 M07/M08 Q1021 NOSIG",
      "tafRaw": "TAF UAAA 151110Z 1512/1612 34003G08MPS 1600 BR FU BKN011CB OVC020 TXM07/1608Z TNM10/1603Z \n  TEMPO 1512/1524 0500 -SN FZFG VV002 \n  TEMPO 1600/1605 0300 -SN FZFG VV001 \n  BECMG 1606/1607 3100 \n  BECMG 1609/1611 1500 -SHSN BR \n  TEMPO 1609/1612 28006G12MPS 0500 SHSN FZFG BLSN BKN004 OVC011CB"
    },
    {
      "icao": "EPSC",
      "iata": "SZZ",
      "name": "Solidarity Szczecin–Goleniów Airport",
      "updatedAt": "151130Z",
      "visibility_m": 10000,
      "taf_visibility_m": 500,
      "worst_visibility_m": 500,
      "ceiling_ft": 1500,
      "hazards": [
        "FG",
        "BR",
        "RA",
        "DZ"
      ],
      "severityScore": 99,
      "metarRaw": "METAR EPSC 151130Z 13012KT 9999 BKN015 02/00 Q1016",
      "tafRaw": "TAF EPSC 151130Z 1512/1612 14010KT 8000 OVC012 \n  BECMG 1512/1515 OVC005 \n  TEMPO 1515/1518 2500 -RADZ BR BKN002 \n  TEMPO 1518/1612 2000 BR BKN002 \n  PROB40 1523/1609 0500 FG"
    },
    {
      "icao": "EGNM",
      "iata": "LBA",
      "name": "Leeds Bradford Airport",
      "updatedAt": "151120Z",
      "visibility_m": 10000,
      "taf_visibility_m": 1200,
      "worst_visibility_m": 1200,
      "ceiling_ft": 100,
      "hazards": [
        "BR",
        "FG",
        "RA",
        "DZ"
      ],
      "severityScore": 97,
      "metarRaw": "METAR EGNM 151120Z 20004KT 140V230 9999 SCT014 06/04 Q1000",
      "tafRaw": "TAF EGNM 151056Z 1512/1612 17010KT 9999 FEW012 \n  BECMG 1512/1515 VRB04KT \n  TEMPO 1512/1610 7000 BKN008 \n  PROB30 \n  TEMPO 1512/1515 4000 BR \n  TEMPO 1515/1521 3000 RADZ BR BKN004 \n  PROB30 \n  TEMPO 1515/1521 1200 MIFG BKN001 \n  PROB30 \n  TEMPO 1521/1609 4000 BR BKN004 \n  BECMG 1610/1612 16010KT \n  PROB30 \n  TEMPO 1610/1612 8000 BKN006"
    },
    {
      "icao": "ENTO",
      "iata": "TRF",
      "name": "Sandefjord Airport, Torp",
      "updatedAt": "151120Z",
      "visibility_m": 1500,
      "taf_visibility_m": 1200,
      "worst_visibility_m": 1200,
      "ceiling_ft": 200,
      "hazards": [
        "BR",
        "SN",
        "RA",
        "DZ"
      ],
      "severityScore": 95,
      "metarRaw": "METAR ENTO 151120Z 36004KT 3000 BR VV002 M03/M03 Q1008 TEMPO 1500 BR",
      "tafRaw": "TAF ENTO 151100Z 1512/1612 17012KT 6000 -RASN BKN003 \n  TEMPO 1512/1516 1200 SNRA BR BKN005 \n  TEMPO 1516/1612 2000 DZRA BR BKN005"
    },
    {
      "icao": "EETN",
      "iata": "TLL",
      "name": "Lennart Meri Tallinn Airport",
      "updatedAt": "151120Z",
      "visibility_m": 10000,
      "taf_visibility_m": 3000,
      "worst_visibility_m": 3000,
      "ceiling_ft": 800,
      "hazards": [
        "SN",
        "BR",
        "FZDZ",
        "DZ"
      ],
      "severityScore": 91,
      "metarRaw": "METAR EETN 151120Z 17012KT 9999 DRSN BKN008 OVC039 M09/M11 Q1019 NOSIG",
      "tafRaw": "TAF EETN 151130Z 1512/1612 17012KT 9999 BKN007 BKN035 \n  PROB30 \n  TEMPO 1512/1517 3000 SG \n  TEMPO 1517/1604 3000 -FZDZ BR BKN004 OVC025 \n  BECMG 1604/1606 OVC020 \n  TEMPO 1606/1612 BKN005 BKN015"
    },
    {
      "icao": "LQSA",
      "iata": "SJJ",
      "name": "Sarajevo International Airport",
      "updatedAt": "151130Z",
      "visibility_m": 10000,
      "taf_visibility_m": 700,
      "worst_visibility_m": 700,
      "ceiling_ft": 400,
      "hazards": [
        "FG",
        "BR"
      ],
      "severityScore": 90,
      "metarRaw": "METAR LQSA 151130Z 00000KT 9999 SCT050 07/02 Q1023 NOSIG",
      "tafRaw": "TAF LQSA 151100Z 1512/1612 VRB02KT 8000 FEW012 SCT050 TX08/1514Z TN00/1605Z \n  TEMPO 1521/1609 2500 BR BKN008 \n  PROB30 1604/1608 0700 FG BKN004"
    },
    {
      "icao": "EGBB",
      "iata": "BHX",
      "name": "Birmingham Airport",
      "updatedAt": "151120Z",
      "visibility_m": 5000,
      "taf_visibility_m": 300,
      "worst_visibility_m": 300,
      "ceiling_ft": 4000,
      "hazards": [
        "BR",
        "FG",
        "RA"
      ],
      "severityScore": 87,
      "metarRaw": "METAR EGBB 151120Z 14003KT 5000 BR SCT002 BKN040 07/06 Q1000",
      "tafRaw": "TAF EGBB 151059Z 1512/1612 16006KT 9999 SCT020 \n  TEMPO 1512/1521 6000 RA BKN007 \n  PROB40 \n  TEMPO 1512/1520 4000 +RA BKN004 \n  BECMG 1514/1517 35010KT \n  BECMG 1520/1523 20006KT \n  TEMPO 1520/1610 4000 BR BKN004 \n  PROB30 \n  TEMPO 1523/1609 0300 FG BKN000 \n  PROB30 1606/1610 4000 BR BKN008"
    },
    {
      "icao": "EKCH",
      "iata": "CPH",
      "name": "Copenhagen Kastrup Airport",
      "updatedAt": "151120Z",
      "visibility_m": 10000,
      "taf_visibility_m": 1200,
      "worst_visibility_m": 1200,
      "ceiling_ft": 800,
      "hazards": [
        "BR",
        "FG",
        "RA",
        "DZ"
      ],
      "severityScore": 87,
      "metarRaw": "METAR EKCH 151120Z 14013KT 9999 BKN010 04/02 Q1012 BECMG BKN008",
      "tafRaw": "TAF EKCH 151127Z 1512/1612 16017KT 9999 BKN008 \n  BECMG 1512/1514 1200 -RADZ BR BKN003 \n  TEMPO 1514/1522 5000 NSW BKN005 \n  BECMG 1600/1602 9999 NSW SCT005 \n  TEMPO 1602/1607 1500 BCFG BKN003"
    },
    {
      "icao": "EKBI",
      "iata": "BLL",
      "name": "Billund Airport",
      "updatedAt": "151120Z",
      "visibility_m": 1200,
      "taf_visibility_m": 1200,
      "worst_visibility_m": 1200,
      "ceiling_ft": 200,
      "hazards": [
        "BR",
        "RA",
        "DZ"
      ],
      "severityScore": 77,
      "metarRaw": "METAR EKBI 151120Z AUTO 15009KT 120V180 1200 R09/P1500D R27/P1500D BR OVC002/// 03/03 Q1007",
      "tafRaw": "TAF EKBI 151127Z 1512/1612 14010KT 1200 -RADZ BR OVC002 \n  TEMPO 1512/1523 5000 BKN005 \n  BECMG 1523/1601 9999 NSW SCT005 \n  TEMPO 1601/1609 4000 -RADZ BR BKN004 \n  TEMPO 1609/1612 BKN008"
    },
    {
      "icao": "EYPA",
      "iata": "PLQ",
      "name": "Palanga International Airport",
      "updatedAt": "151120Z",
      "visibility_m": 6000,
      "taf_visibility_m": 1500,
      "worst_visibility_m": 1500,
      "ceiling_ft": 2700,
      "hazards": [
        "BR",
        "SN",
        "FZDZ",
        "DZ"
      ],
      "severityScore": 76,
      "metarRaw": "METAR EYPA 151120Z 16008KT 130V190 6000 OVC027 M05/M06 Q1020",
      "tafRaw": "TAF EYPA 151109Z 1512/1612 15009KT 5000 BR SCT005 BKN015 \n  BECMG 1512/1514 BKN005 OVC010 \n  TEMPO 1514/1518 3000 SN -FZDZ BKN002 \n  PROB40 \n  TEMPO 1514/1518 1500 \n  BECMG 1518/1521 8000 NSW BKN020 \n  BECMG 1600/1603 SCT015 \n  TEMPO 1603/1609 FEW005"
    },
    {
      "icao": "LIBR",
      "iata": "BDS",
      "name": "Brindisi Airport",
      "updatedAt": "151120Z",
      "visibility_m": 10000,
      "taf_visibility_m": 1500,
      "worst_visibility_m": 1500,
      "ceiling_ft": 100,
      "hazards": [
        "BR",
        "FG"
      ],
      "severityScore": 75,
      "metarRaw": "METAR LIBR 151120Z 20005KT 160V230 9999 FEW020 15/09 Q1023",
      "tafRaw": "TAF LIBR 151100Z 1512/1612 VRB06KT 9999 FEW025 \n  TEMPO 1521/1607 1500 BCFG BKN001"
    },
    {
      "icao": "LIPE",
      "iata": "BLQ",
      "name": "Bologna Guglielmo Marconi Airport",
      "updatedAt": "151120Z",
      "visibility_m": 3000,
      "taf_visibility_m": 300,
      "worst_visibility_m": 300,
      "ceiling_ft": 5500,
      "hazards": [
        "BR",
        "FG"
      ],
      "severityScore": 75,
      "metarRaw": "METAR LIPE 151120Z 07003KT 3000 BR BKN055 06/06 Q1022",
      "tafRaw": "TAF LIPE 151100Z 1512/1612 VRB04KT 3000 BR BKN040 \n  TEMPO 1516/1609 0300 FG BKN001"
    },
    {
      "icao": "LIPQ",
      "iata": "TRS",
      "name": "Trieste–Friuli Venezia Giulia Airport",
      "updatedAt": "151120Z",
      "visibility_m": 10000,
      "taf_visibility_m": 1200,
      "worst_visibility_m": 1200,
      "ceiling_ft": 200,
      "hazards": [
        "BR",
        "FG"
      ],
      "severityScore": 75,
      "metarRaw": "METAR LIPQ 151120Z AUTO VRB01KT 9999 FEW020/// BKN045/// BKN072/// 10/07 Q1022",
      "tafRaw": "TAF LIPQ 151100Z 1512/1612 VRB04KT 7000 BKN035 \n  BECMG 1516/1518 3000 BR \n  TEMPO 1602/1606 1200 BCFG BKN002 \n  BECMG 1608/1610 8000"
    },
    {
      "icao": "EGKK",
      "iata": "LGW",
      "name": "London Gatwick Airport",
      "updatedAt": "151120Z",
      "visibility_m": 10000,
      "taf_visibility_m": 3000,
      "worst_visibility_m": 3000,
      "ceiling_ft": 700,
      "hazards": [
        "RA",
        "BR",
        "SHRA",
        "DZ"
      ],
      "severityScore": 71,
      "metarRaw": "METAR EGKK 151120Z 19007KT 9999 -RA BKN007 OVC045 08/08 Q1003",
      "tafRaw": "TAF EGKK 151056Z 1512/1618 17012KT 9999 BKN015 \n  TEMPO 1512/1522 6000 -RADZ RA BKN010 \n  PROB40 \n  TEMPO 1512/1522 3000 RADZ +RA BKN006 \n  PROB40 \n  TEMPO 1513/1519 19020G32KT \n  BECMG 1517/1520 25010KT \n  PROB40 \n  TEMPO 1522/1604 5000 BR BKN005 \n  BECMG 1600/1603 19006KT \n  PROB40 \n  TEMPO 1604/1615 6000 SHRA BKN008 \n  BECMG 1614/1617 13010KT"
    },
    {
      "icao": "LPPT",
      "iata": "LIS",
      "name": "Lisbon Humberto Delgado Airport",
      "updatedAt": "151130Z",
      "visibility_m": 10000,
      "taf_visibility_m": 2000,
      "worst_visibility_m": 2000,
      "ceiling_ft": 3000,
      "hazards": [
        "BR",
        "RA",
        "SHRA",
        "TS",
        "DZ"
      ],
      "severityScore": 71,
      "metarRaw": "METAR LPPT 151130Z 21014KT 9999 FEW022 BKN030 14/10 Q1018",
      "tafRaw": "TAF LPPT 151100Z 1512/1618 22015KT 9999 FEW025 BKN035 \n  BECMG 1512/1514 8000 -RA SCT012 BKN018 \n  TEMPO 1514/1518 22018G30KT 3000 RADZ BR SCT002 BKN004 FEW020TCU \n  BECMG 1518/1520 33010KT 9999 NSW SCT015 \n  BECMG 1523/1601 28010KT \n  TEMPO 1601/1618 5000 SHRA BKN012 FEW018CB \n  PROB30 \n  TEMPO 1601/1618 VRB15G25KT 2000 +TSRAGS SCT015CB"
    },
    {
      "icao": "EPMO",
      "iata": "WMI",
      "name": "Modlin Airport",
      "updatedAt": "151130Z",
      "visibility_m": 900,
      "taf_visibility_m": 1200,
      "worst_visibility_m": 900,
      "ceiling_ft": 3200,
      "hazards": [
        "FZFG",
        "FG",
        "BR"
      ],
      "severityScore": 70,
      "metarRaw": "METAR EPMO 151130Z 11003KT 0900 R08/0900N FZFG SCT002 BKN032 M01/M01 Q1020",
      "tafRaw": "TAF EPMO 151130Z 1512/1612 VRB04KT 1200 BR BKN020 \n  PROB40 1512/1516 3000 BR SCT004 BKN007 \n  BECMG 1513/1516 14010KT 6000 BKN020 \n  TEMPO 1516/1522 2000 BR BKN004 \n  PROB40 1522/1607 BKN005"
    },
    {
      "icao": "LZKZ",
      "iata": "KSC",
      "name": "Košice International Airport",
      "updatedAt": "151130Z",
      "visibility_m": 6000,
      "taf_visibility_m": 1000,
      "worst_visibility_m": 1000,
      "ceiling_ft": 1700,
      "hazards": [
        "BR",
        "FZDZ",
        "DZ"
      ],
      "severityScore": 70,
      "metarRaw": "METAR LZKZ 151130Z 20002KT 6000 OVC017 M01/M03 Q1022 NOSIG",
      "tafRaw": "TAF LZKZ 151115Z 1512/1612 VRB02KT 9999 SCT010 BKN025 \n  TEMPO 1512/1518 2800 BR BKN010 \n  TEMPO 1518/1606 1000 -FZDZ BR BKN005 \n  BECMG 1606/1607 03006KT 6000 FEW007 BKN018 \n  TEMPO 1606/1612 4000 BR BKN014"
    },
    {
      "icao": "EGPF",
      "iata": "GLA",
      "name": "Glasgow Airport",
      "updatedAt": "151120Z",
      "visibility_m": 10000,
      "taf_visibility_m": 4000,
      "worst_visibility_m": 4000,
      "ceiling_ft": 600,
      "hazards": [
        "BR",
        "SHRA",
        "RA"
      ],
      "severityScore": 61,
      "metarRaw": "METAR EGPF 151120Z AUTO 21018KT 9999 NCD 06/04 Q0996",
      "tafRaw": "TAF EGPF 151054Z 1512/1612 21014KT 9999 FEW045 \n  BECMG 1519/1522 VRB03KT \n  PROB30 \n  TEMPO 1522/1604 4000 BR \n  PROB30 \n  TEMPO 1604/1609 4000 BR BKN006 \n  TEMPO 1609/1612 6000 SHRA BKN012"
    },
    {
      "icao": "LRCL",
      "iata": "CLJ",
      "name": "Cluj Avram Iancu International Airport",
      "updatedAt": "151130Z",
      "visibility_m": 1400,
      "taf_visibility_m": 1500,
      "worst_visibility_m": 1400,
      "ceiling_ft": 1200,
      "hazards": [
        "BR",
        "DZ",
        "SN"
      ],
      "severityScore": 60,
      "metarRaw": "METAR LRCL 151130Z 00000KT 1400 R25/1600N DZ BR OVC012 01/M01 Q1022",
      "tafRaw": "TAF LRCL 151100Z 1512/1521 VRB04KT 1500 -SN BR BKN005 OVC015 \n  BECMG 1512/1514 3000 BR BKN010 OVC020"
    },
    {
      "icao": "LRTM",
      "iata": "TGM",
      "name": "Târgu Mureş Transilvania International Airport",
      "updatedAt": "151130Z",
      "visibility_m": 1400,
      "taf_visibility_m": 1500,
      "worst_visibility_m": 1400,
      "ceiling_ft": 1300,
      "hazards": [
        "BR",
        "SHSN",
        "SN"
      ],
      "severityScore": 60,
      "metarRaw": "METAR LRTM 151130Z 23002KT 1400 R07/1900D -SHSN BR FEW003 SCT007 BKN013 00/M01 Q1022",
      "tafRaw": "TAF LRTM 151100Z 1512/1521 VRB04KT 1500 -SN BR BKN005 OVC020 \n  BECMG 1513/1515 3000 BR BKN010 OVC025"
    },
    {
      "icao": "LPFR",
      "iata": "FAO",
      "name": "Faro Airport",
      "updatedAt": "151130Z",
      "visibility_m": 10000,
      "taf_visibility_m": 5000,
      "worst_visibility_m": 5000,
      "ceiling_ft": 1200,
      "hazards": [
        "BR",
        "SHRA",
        "RA",
        "DZ"
      ],
      "severityScore": 58,
      "metarRaw": "METAR LPFR 151130Z 24004KT 9999 FEW014 SCT045 14/11 Q1022",
      "tafRaw": "TAF LPFR 151100Z 1512/1612 27005KT 9999 FEW015 \n  BECMG 1512/1514 21007KT BKN040 \n  BECMG 1517/1519 23017KT SCT015 BKN030 \n  TEMPO 1519/1602 5000 RADZ BR SCT008 BKN012 \n  BECMG 1602/1604 31012KT SCT012 \n  TEMPO 1609/1612 5000 SHRA BKN015 FEW020CB"
    },
    {
      "icao": "LPMA",
      "iata": "FNC",
      "name": "Madeira International Airport Cristiano Ronaldo",
      "updatedAt": "151130Z",
      "visibility_m": 10000,
      "taf_visibility_m": 5000,
      "worst_visibility_m": 5000,
      "ceiling_ft": 1300,
      "hazards": [
        "BR",
        "SHRA",
        "RA",
        "DZ"
      ],
      "severityScore": 58,
      "metarRaw": "METAR LPMA 151130Z 17004KT 090V240 9999 SCT015 SCT030 17/10 Q1026",
      "tafRaw": "TAF LPMA 151100Z 1512/1612 VRB05KT 9999 SCT015 \n  TEMPO 1512/1522 BKN015 \n  TEMPO 1522/1603 5000 RADZ BR SCT008 BKN013 \n  BECMG 1601/1603 35013KT \n  PROB30 \n  TEMPO 1603/1612 35017G27KT 8000 SHRA BKN013 FEW020TCU"
    },
    {
      "icao": "LPPS",
      "iata": "PXO",
      "name": "Porto Santo Airport",
      "updatedAt": "151130Z",
      "visibility_m": 10000,
      "taf_visibility_m": 5000,
      "worst_visibility_m": 5000,
      "ceiling_ft": 1200,
      "hazards": [
        "BR",
        "SHRA",
        "RA",
        "DZ"
      ],
      "severityScore": 58,
      "metarRaw": "METAR LPPS 151130Z 30009KT 9999 VCSH SCT014 SCT030 16/12 Q1026",
      "tafRaw": "TAF LPPS 151100Z 1512/1618 30010KT 9999 SCT015 BKN030 \n  TEMPO 1519/1601 5000 RADZ BR SCT006 BKN012 \n  BECMG 1601/1603 34013KT SCT015 \n  PROB30 \n  TEMPO 1603/1618 8000 SHRA BKN012 FEW018CB"
    },
    {
      "icao": "LRBV",
      "iata": "GHV",
      "name": "Brașov-Ghimbav International Airport",
      "updatedAt": "151130Z",
      "visibility_m": 5000,
      "taf_visibility_m": 3000,
      "worst_visibility_m": 3000,
      "ceiling_ft": 900,
      "hazards": [
        "BR",
        "RA",
        "DZ"
      ],
      "severityScore": 57,
      "metarRaw": "METAR LRBV 151130Z 22004KT 180V280 5000 -RADZ BR BKN009 OVC012 02/01 Q1020 RERA",
      "tafRaw": "TAF LRBV 151100Z 1512/1521 29006KT 5000 -RADZ BR BKN010 OVC015 \n  BECMG 1516/1518 3000 BR BKN005 OVC010"
    },
    {
      "icao": "LBWN",
      "iata": "VAR",
      "name": "Varna Airport",
      "updatedAt": "151130Z",
      "visibility_m": 10000,
      "taf_visibility_m": 3000,
      "worst_visibility_m": 3000,
      "ceiling_ft": 500,
      "hazards": [
        "SN",
        "RA"
      ],
      "severityScore": 55,
      "metarRaw": "METAR LBWN 151130Z 29014KT 9999 SCT040 11/04 Q1019 NOSIG",
      "tafRaw": "TAF LBWN 151100Z 1512/1612 28012KT 9999 SCT040 \n  BECMG 1516/1518 VRB03KT \n  BECMG 1602/1604 04010KT BKN015 OVC030 \n  TEMPO 1602/1605 5000 RASN \n  TEMPO 1605/1611 3000 SN BKN005 OVC020"
    },
    {
      "icao": "LQTZ",
      "iata": "TZL",
      "name": "Tuzla International Airport",
      "updatedAt": "151130Z",
      "visibility_m": 7000,
      "taf_visibility_m": 700,
      "worst_visibility_m": 700,
      "ceiling_ft": 6700,
      "hazards": [
        "FG",
        "BR"
      ],
      "severityScore": 55,
      "metarRaw": "METAR LQTZ 151130Z VRB02KT 7000 SCT056 BKN067 06/03 Q1022",
      "tafRaw": "TAF LQTZ 151100Z 1512/1612 VRB02KT 7000 BKN045 TX07/1513Z TN00/1605Z \n  TEMPO 1521/1608 3000 BR \n  PROB30 1603/1607 0700 FG BKN004"
    },
    {
      "icao": "LRSM",
      "iata": "SUJ",
      "name": "Satu Mare International Airport",
      "updatedAt": "151130Z",
      "visibility_m": 5000,
      "taf_visibility_m": 1500,
      "worst_visibility_m": 1500,
      "ceiling_ft": 300,
      "hazards": [
        "BR"
      ],
      "severityScore": 55,
      "metarRaw": "METAR LRSM 151130Z VRB01KT 5000 BR BKN003 01/M01 Q1023",
      "tafRaw": "TAF LRSM 151100Z 1512/1521 VRB04KT 3000 BR BKN002 \n  TEMPO 1512/1515 5000 BKN005 \n  PROB40 \n  TEMPO 1515/1520 1500 BR"
    },
    {
      "icao": "LYNI",
      "iata": "INI",
      "name": "Niš Constantine the Great Airport",
      "updatedAt": "151130Z",
      "visibility_m": 10000,
      "taf_visibility_m": 800,
      "worst_visibility_m": 800,
      "ceiling_ft": 7000,
      "hazards": [
        "FG",
        "BR"
      ],
      "severityScore": 55,
      "metarRaw": "METAR LYNI 151130Z VRB01KT 9999 SCT050 BKN070 09/05 Q1024 NOSIG",
      "tafRaw": "TAF LYNI 151100Z 1512/1612 11004KT 9999 SCT060 TX10/1513Z TN00/1606Z \n  BECMG 1516/1518 3000 BR \n  TEMPO 1600/1607 0800 FG \n  BECMG 1609/1611 05010KT 9999 NSW"
    },
    {
      "icao": "OJAI",
      "iata": "AMM",
      "name": "Queen Alia International Airport",
      "updatedAt": "151100Z",
      "visibility_m": 5000,
      "taf_visibility_m": 800,
      "worst_visibility_m": 800,
      "ceiling_ft": null,
      "hazards": [
        "FG",
        "BR"
      ],
      "severityScore": 55,
      "metarRaw": "METAR OJAI 151100Z 28010KT 5000 HZ SCT030 11/02 Q1024 NOSIG",
      "tafRaw": "TAF OJAI 151100Z 1512/1618 29008KT 5000 HZ FEW030 \n  PROB30 \n  TEMPO 1512/1518 27016KT 4000 BLDU SCT030 \n  PROB30 1600/1607 VRB02KT 1500 BR \n  PROB40 1602/1607 0800 FG"
    },
    {
      "icao": "ESMS",
      "iata": "MMX",
      "name": "Malmö Sturup Airport",
      "updatedAt": "151120Z",
      "visibility_m": 10000,
      "taf_visibility_m": 1000,
      "worst_visibility_m": 1000,
      "ceiling_ft": 1400,
      "hazards": [
        "BR",
        "RA",
        "DZ"
      ],
      "severityScore": 54,
      "metarRaw": "METAR ESMS 151120Z 14011KT 9999 BKN014 BKN070 03/02 Q1013",
      "tafRaw": "TAF ESMS 150827Z 1509/1609 18006KT 9999 FEW020 \n  BECMG 1509/1511 BKN012 \n  BECMG 1511/1513 1000 -RADZ BR BKN006 \n  TEMPO 1514/1607 4000 BKN002 \n  BECMG 1607/1609 9999 NSW FEW020"
    },
    {
      "icao": "LRIA",
      "iata": "IAS",
      "name": "Iaşi Airport",
      "updatedAt": "151130Z",
      "visibility_m": 10000,
      "taf_visibility_m": 3000,
      "worst_visibility_m": 3000,
      "ceiling_ft": 800,
      "hazards": [
        "BR",
        "SN"
      ],
      "severityScore": 53,
      "metarRaw": "METAR LRIA 151130Z 33005KT 9999 BKN008 OVC038 M04/M06 Q1022",
      "tafRaw": "TAF LRIA 151100Z 1512/1521 32006KT 9999 SCT005 BKN035 \n  PROB40 \n  TEMPO 1512/1514 5000 -SN BKN005 BKN030 \n  TEMPO 1515/1521 3000 -SN BR BKN005 OVC020"
    },
    {
      "icao": "LRBS",
      "iata": "BBU",
      "name": "Bucharest Băneasa Aurel Vlaicu International Airport",
      "updatedAt": "151130Z",
      "visibility_m": 8000,
      "taf_visibility_m": 3000,
      "worst_visibility_m": 3000,
      "ceiling_ft": 500,
      "hazards": [
        "BR",
        "SN"
      ],
      "severityScore": 53,
      "metarRaw": "METAR LRBS 151130Z 08006KT 8000 NSC 03/M02 Q1021 NOSIG",
      "tafRaw": "TAF LRBS 151100Z 1512/1612 09010KT 5000 BR NSC \n  TEMPO 1512/1515 9999 NSW \n  BECMG 1518/1520 5000 BR BKN010 \n  TEMPO 1604/1612 07020KT \n  PROB40 \n  TEMPO 1605/1609 3000 -SN BR BKN005 OVC035 \n  BECMG 1609/1611 9999 NSW SCT025"
    },
    {
      "icao": "LROP",
      "iata": "OTP",
      "name": "Bucharest Henri Coandă International Airport",
      "updatedAt": "151130Z",
      "visibility_m": 5000,
      "taf_visibility_m": 3000,
      "worst_visibility_m": 3000,
      "ceiling_ft": 500,
      "hazards": [
        "BR",
        "SN"
      ],
      "severityScore": 53,
      "metarRaw": "METAR LROP 151130Z 10007KT 5000 BR NSC 01/M04 Q1021 NOSIG",
      "tafRaw": "TAF LROP 151100Z 1512/1612 09010KT 5000 BR NSC \n  TEMPO 1512/1515 9999 NSW \n  BECMG 1518/1520 5000 BR BKN010 \n  TEMPO 1604/1612 07020KT \n  PROB40 \n  TEMPO 1605/1609 3000 -SN BR BKN005 OVC035 \n  BECMG 1609/1611 9999 NSW SCT025"
    },
    {
      "icao": "LUKK",
      "iata": "RMO",
      "name": "Chişinău International Airport",
      "updatedAt": "151130Z",
      "visibility_m": 4000,
      "taf_visibility_m": 4000,
      "worst_visibility_m": 4000,
      "ceiling_ft": 700,
      "hazards": [
        "BR",
        "SN"
      ],
      "severityScore": 53,
      "metarRaw": "METAR LUKK 151130Z 04008KT 8000 -SN OVC012 M05/M07 Q1022 TEMPO 4000 SN BR BKN007",
      "tafRaw": "TAF LUKK 151105Z 1512/1612 03008KT 9999 BKN012 \n  TEMPO 1512/1515 4000 SN BR OVC008 \n  BECMG 1515/1517 CAVOK"
    },
    {
      "icao": "ENZV",
      "iata": "SVG",
      "name": "Stavanger Airport, Sola",
      "updatedAt": "151120Z",
      "visibility_m": 4000,
      "taf_visibility_m": 4000,
      "worst_visibility_m": 4000,
      "ceiling_ft": 900,
      "hazards": [
        "RA",
        "SHRA"
      ],
      "severityScore": 51,
      "metarRaw": "METAR ENZV 151120Z 12013KT 9999 -RA BKN033 04/01 Q0999 TEMPO 4000 SHRA BKN009 SCT018CB",
      "tafRaw": "TAF ENZV 151100Z 1512/1612 13015KT 9999 -SHRA FEW015 BKN030 \n  TEMPO 1512/1516 15020G35KT 4000 SHRA BKN009 SCT018CB \n  TEMPO 1600/1612 RA BKN012"
    },
    {
      "icao": "LKMT",
      "iata": "OSR",
      "name": "Ostrava Leos Janáček Airport",
      "updatedAt": "151130Z",
      "visibility_m": 5000,
      "taf_visibility_m": 2500,
      "worst_visibility_m": 2500,
      "ceiling_ft": 2500,
      "hazards": [
        "BR",
        "FZDZ",
        "DZ"
      ],
      "severityScore": 48,
      "metarRaw": "METAR LKMT 151130Z 22010KT 5000 BR FEW019 BKN025 01/M00 Q1020 NOSIG",
      "tafRaw": "TAF LKMT 151100Z 1512/1612 22008KT 6000 BKN025 \n  TEMPO 1512/1518 4500 BR BKN018 \n  PROB30 \n  TEMPO 1512/1518 2500 -FZDZ BR BKN006 OVC014"
    },
    {
      "icao": "EDDH",
      "iata": "HAM",
      "name": "Hamburg Helmut Schmidt Airport",
      "updatedAt": "151120Z",
      "visibility_m": 8000,
      "taf_visibility_m": 4500,
      "worst_visibility_m": 4500,
      "ceiling_ft": 400,
      "hazards": [
        "BR"
      ],
      "severityScore": 45,
      "metarRaw": "METAR EDDH 151120Z COR AUTO 15009KT 8000 FEW003 06/05 Q1011 NOSIG",
      "tafRaw": "TAF EDDH 151100Z 1512/1618 15008KT 9999 SCT020 \n  PROB30 \n  TEMPO 1512/1514 4500 BR BKN004"
    },
    {
      "icao": "EPGD",
      "iata": "GDN",
      "name": "Gdańsk Lech Wałęsa Airport",
      "updatedAt": "151130Z",
      "visibility_m": 10000,
      "taf_visibility_m": 2500,
      "worst_visibility_m": 2500,
      "ceiling_ft": 300,
      "hazards": [
        "BR"
      ],
      "severityScore": 45,
      "metarRaw": "METAR EPGD 151130Z 18008KT 9999 FEW017 02/00 Q1018",
      "tafRaw": "TAF EPGD 151130Z 1512/1612 16010KT 8000 NSC \n  TEMPO 1512/1517 BKN008 \n  BECMG 1517/1519 BKN005 \n  TEMPO 1519/1612 2500 BR BKN003"
    },
    {
      "icao": "EPLB",
      "iata": "LUZ",
      "name": "Lublin Airport",
      "updatedAt": "151130Z",
      "visibility_m": 2100,
      "taf_visibility_m": 2500,
      "worst_visibility_m": 2100,
      "ceiling_ft": 400,
      "hazards": [
        "BR"
      ],
      "severityScore": 45,
      "metarRaw": "METAR EPLB 151130Z 07004KT 2100 BR OVC004 M03/M03 Q1021",
      "tafRaw": "TAF EPLB 151130Z 1512/1612 VRB02KT 2500 BR BKN004 \n  BECMG 1512/1515 13010KT 7000 BKN006 \n  PROB40 1513/1518 BKN010 \n  TEMPO 1518/1523 4000 BR"
    },
    {
      "icao": "EPSY",
      "iata": "SZY",
      "name": "Olsztyn-Mazury Airport",
      "updatedAt": "151130Z",
      "visibility_m": 3300,
      "taf_visibility_m": 4000,
      "worst_visibility_m": 3300,
      "ceiling_ft": 400,
      "hazards": [
        "BR"
      ],
      "severityScore": 45,
      "metarRaw": "METAR EPSY 151130Z 14003KT 100V180 3300 BR BKN004 OVC035 M04/M05 Q1020",
      "tafRaw": "TAF EPSY 151130Z 1512/1521 14006KT 4000 BR BKN004 \n  PROB40 1512/1516 8000 BKN035"
    },
    {
      "icao": "UGKO",
      "iata": "KUT",
      "name": "David the Builder Kutaisi International Airport",
      "updatedAt": "151130Z",
      "visibility_m": 10000,
      "taf_visibility_m": 3000,
      "worst_visibility_m": 3000,
      "ceiling_ft": 1000,
      "hazards": [
        "SN",
        "RA"
      ],
      "severityScore": 42,
      "metarRaw": "METAR UGKO 151130Z 04005KT 360V060 9999 BKN010 05/01 Q1024 NOSIG",
      "tafRaw": "TAF UGKO 151100Z 1512/1612 VRB02KT 9999 SCT020 BKN050 TX05/1512Z TNM01/1601Z \n  TEMPO 1512/1520 08012KT CAVOK \n  TEMPO 1601/1612 08012KT 3000 SHSNRA SCT008 BKN017CB OVC030"
    },
    {
      "icao": "LRBC",
      "iata": "BCM",
      "name": "Bacău George Enescu International  Airport",
      "updatedAt": "151130Z",
      "visibility_m": 8000,
      "taf_visibility_m": 3000,
      "worst_visibility_m": 3000,
      "ceiling_ft": 1600,
      "hazards": [
        "BR",
        "SN"
      ],
      "severityScore": 40,
      "metarRaw": "METAR LRBC 151130Z 36006KT 8000 OVC016 M02/M06 Q1021",
      "tafRaw": "TAF LRBC 151100Z 1512/1521 36007KT 8000 BKN015 OVC025 \n  TEMPO 1512/1514 5000 -SN \n  TEMPO 1516/1521 3000 -SN BR BKN010 OVC020"
    },
    {
      "icao": "LFBD",
      "iata": "BOD",
      "name": "Bordeaux–Mérignac Airport",
      "updatedAt": "151130Z",
      "visibility_m": 10000,
      "taf_visibility_m": 4000,
      "worst_visibility_m": 4000,
      "ceiling_ft": 500,
      "hazards": [
        "RA"
      ],
      "severityScore": 37,
      "metarRaw": "METAR LFBD 151130Z AUTO 14009KT CAVOK 11/08 Q1010 NOSIG",
      "tafRaw": "TAF LFBD 151100Z 1512/1618 15010KT CAVOK TX13/1514Z TN08/1608Z \n  BECMG 1516/1518 23010KT BKN040 \n  TEMPO 1518/1607 4000 -RA BKN010 BKN040TCU \n  PROB40 \n  TEMPO 1523/1605 BKN005 \n  BECMG 1607/1609 15005KT"
    },
    {
      "icao": "ENBR",
      "iata": "BGO",
      "name": "Bergen Airport, Flesland",
      "updatedAt": "151120Z",
      "visibility_m": 10000,
      "taf_visibility_m": 4000,
      "worst_visibility_m": 4000,
      "ceiling_ft": 5000,
      "hazards": [
        "BR",
        "SHRA",
        "RA"
      ],
      "severityScore": 36,
      "metarRaw": "METAR ENBR 151120Z 12008KT 090V150 9999 BKN050 05/M01 Q0998 NOSIG RMK WIND 1200FT 13017KT",
      "tafRaw": "TAF ENBR 151100Z 1512/1612 14012KT 9999 -SHRA FEW020 BKN040 \n  TEMPO 1512/1522 15018G28KT 4000 SHRA BKN012 SCT020CB \n  BECMG 1601/1603 08005KT"
    },
    {
      "icao": "LTFM",
      "iata": "IST",
      "name": "İstanbul Airport",
      "updatedAt": "151120Z",
      "visibility_m": 10000,
      "taf_visibility_m": 2500,
      "worst_visibility_m": 2500,
      "ceiling_ft": 7000,
      "hazards": [
        "BR",
        "SHRA",
        "RA"
      ],
      "severityScore": 36,
      "metarRaw": "METAR LTFM 151120Z 22017KT 9999 FEW025 BKN070 11/06 Q1021 NOSIG RMK RWY17L 22013KT RWY34L 21016KT RWY16R 21013KT RWY36 22014KT RWY18 22016KT",
      "tafRaw": "TAF LTFM 151040Z 1512/1618 23017G27KT 9999 FEW025 BKN070 \n  BECMG 1513/1516 24012KT \n  BECMG 1518/1520 VRB02KT \n  PROB30 1522/1602 2500 BR \n  BECMG 1606/1609 03017G27KT -SHRA SCT012 BKN022"
    },
    {
      "icao": "ESKN",
      "iata": "NYO",
      "name": "Stockholm Skavsta Airport",
      "updatedAt": "151120Z",
      "visibility_m": 10000,
      "taf_visibility_m": 2500,
      "worst_visibility_m": 2500,
      "ceiling_ft": 600,
      "hazards": [
        "BR"
      ],
      "severityScore": 35,
      "metarRaw": "METAR ESKN 151120Z 19006KT 9999 BKN006 02/01 Q1013",
      "tafRaw": "TAF ESKN 151130Z 1512/1612 19006KT 9999 OVC015 \n  TEMPO 1512/1515 BKN007 \n  TEMPO 1515/1520 2500 BR BKN003 \n  TEMPO 1520/1609 BKN006"
    },
    {
      "icao": "ESSA",
      "iata": "ARN",
      "name": "Stockholm-Arlanda Airport",
      "updatedAt": "151120Z",
      "visibility_m": 10000,
      "taf_visibility_m": 2000,
      "worst_visibility_m": 2000,
      "ceiling_ft": 900,
      "hazards": [
        "BR"
      ],
      "severityScore": 35,
      "metarRaw": "METAR ESSA 151120Z 23010KT 9999 BKN009 01/M00 Q1013 NOSIG",
      "tafRaw": "TAF ESSA 151130Z 1512/1612 20007KT 9999 SCT010 BKN015 \n  TEMPO 1512/1518 BKN008 \n  PROB40 1518/1524 2000 BR BKN003 \n  TEMPO 1600/1612 BKN010"
    },
    {
      "icao": "LGTS",
      "iata": "SKG",
      "name": "Thessaloniki Macedonia International Airport",
      "updatedAt": "151120Z",
      "visibility_m": 10000,
      "taf_visibility_m": 4000,
      "worst_visibility_m": 4000,
      "ceiling_ft": null,
      "hazards": [
        "TS",
        "BR"
      ],
      "severityScore": 35,
      "metarRaw": "METAR LGTS 151120Z VRB03KT CAVOK 10/04 Q1024 NOSIG",
      "tafRaw": "TAF LGTS 151100Z 1512/1612 VRB03KT 9999 FEW030 \n  PROB30 1603/1607 4000 BR SCT008"
    },
    {
      "icao": "LFOB",
      "iata": "BVA",
      "name": "Beauvais Tillé airport",
      "updatedAt": "151130Z",
      "visibility_m": 4000,
      "taf_visibility_m": 4500,
      "worst_visibility_m": 4000,
      "ceiling_ft": 1300,
      "hazards": [
        "DZ",
        "RA"
      ],
      "severityScore": 34,
      "metarRaw": "METAR LFOB 151130Z AUTO 18011KT 9999 FEW018 OVC048 10/07 Q1008 TEMPO 4000 DZ BKN013",
      "tafRaw": "TAF LFOB 151100Z 1512/1612 22010G20KT 9999 BKN025 \n  TEMPO 1520/1601 19020G30KT 4500 -RA BKN014 OVC025 \n  BECMG 1605/1609 19008KT OVC010"
    },
    {
      "icao": "EPRZ",
      "iata": "RZE",
      "name": "Rzeszów-Jasionka Airport",
      "updatedAt": "151130Z",
      "visibility_m": 10000,
      "taf_visibility_m": 1000,
      "worst_visibility_m": 1000,
      "ceiling_ft": 1000,
      "hazards": [
        "BR"
      ],
      "severityScore": 32,
      "metarRaw": "METAR EPRZ 151130Z 34004KT 9999 OVC010 02/00 Q1021",
      "tafRaw": "TAF EPRZ 151130Z 1512/1612 VRB02KT 9999 OVC009 \n  BECMG 1512/1514 27010KT BKN020 \n  TEMPO 1523/1612 2000 BR BKN004 \n  PROB40 \n  TEMPO 1600/1612 1000 BR BKN001"
    },
    {
      "icao": "LIME",
      "iata": "BGY",
      "name": "Milan Bergamo Airport / Antonio Locatelli Air Base",
      "updatedAt": "151120Z",
      "visibility_m": 2000,
      "taf_visibility_m": 1200,
      "worst_visibility_m": 1200,
      "ceiling_ft": 1000,
      "hazards": [
        "BR"
      ],
      "severityScore": 32,
      "metarRaw": "METAR LIME 151120Z VRB01KT 2000 BR BKN010 06/05 Q1022 NOSIG",
      "tafRaw": "TAF LIME 151100Z 1512/1612 VRB04KT 3000 BR SCT010 BKN040 \n  TEMPO 1512/1518 6000 \n  TEMPO 1518/1606 1200 BKN005"
    },
    {
      "icao": "EDDN",
      "iata": "NUE",
      "name": "Nuremberg Airport",
      "updatedAt": "151120Z",
      "visibility_m": 10000,
      "taf_visibility_m": 1200,
      "worst_visibility_m": 1200,
      "ceiling_ft": 4000,
      "hazards": [
        "FG"
      ],
      "severityScore": 30,
      "metarRaw": "METAR EDDN 151120Z AUTO 14007KT 9999 SCT031 06/04 Q1016 NOSIG",
      "tafRaw": "TAF EDDN 151100Z 1512/1612 12007KT 9999 FEW030 BKN040 \n  TEMPO 1518/1524 1200 BCFG"
    },
    {
      "icao": "EDNY",
      "iata": "FDH",
      "name": "Friedrichshafen Airport",
      "updatedAt": "151120Z",
      "visibility_m": 10000,
      "taf_visibility_m": 1200,
      "worst_visibility_m": 1200,
      "ceiling_ft": null,
      "hazards": [
        "FG"
      ],
      "severityScore": 30,
      "metarRaw": "METAR EDNY 151120Z 10003KT 050V140 CAVOK 09/03 Q1017",
      "tafRaw": "TAF EDNY 151100Z 1512/1521 VRB03KT CAVOK \n  PROB30 \n  TEMPO 1518/1521 1200 BCFG"
    },
    {
      "icao": "EDSB",
      "iata": "FKB",
      "name": "Karlsruhe Baden-Baden Airport",
      "updatedAt": "151120Z",
      "visibility_m": 10000,
      "taf_visibility_m": 1200,
      "worst_visibility_m": 1200,
      "ceiling_ft": null,
      "hazards": [
        "FG"
      ],
      "severityScore": 30,
      "metarRaw": "METAR EDSB 151120Z 20011KT CAVOK 12/07 Q1015",
      "tafRaw": "TAF EDSB 151100Z 1512/1612 19010KT CAVOK \n  BECMG 1515/1518 VRB02KT \n  PROB40 \n  TEMPO 1523/1608 1200 BCFG"
    },
    {
      "icao": "LIPX",
      "iata": "VRN",
      "name": "Verona Villafranca Valerio Catullo Airport",
      "updatedAt": "151120Z",
      "visibility_m": 6000,
      "taf_visibility_m": 1200,
      "worst_visibility_m": 1200,
      "ceiling_ft": 8000,
      "hazards": [
        "FG"
      ],
      "severityScore": 30,
      "metarRaw": "METAR LIPX 151120Z 20003KT 170V230 6000 BKN080 08/04 Q1022",
      "tafRaw": "TAF LIPX 151100Z 1512/1612 VRB04KT 6000 BKN050 \n  TEMPO 1522/1608 1200 BCFG BKN010"
    },
    {
      "icao": "LIRZ",
      "iata": "PEG",
      "name": "Perugia San Francesco d'Assisi – Umbria International Airport",
      "updatedAt": "151120Z",
      "visibility_m": 10000,
      "taf_visibility_m": 1500,
      "worst_visibility_m": 1500,
      "ceiling_ft": null,
      "hazards": [
        "FG"
      ],
      "severityScore": 30,
      "metarRaw": "METAR LIRZ 151120Z AUTO 13005KT 100V160 9999 BKN070/// 14/06 Q1022",
      "tafRaw": "TAF LIRZ 151100Z 1512/1612 VRB05KT 9999 SCT040 \n  TEMPO 1604/1609 1500 BCFG"
    },
    {
      "icao": "EYKA",
      "iata": "KUN",
      "name": "Kaunas International Airport",
      "updatedAt": "151120Z",
      "visibility_m": 10000,
      "taf_visibility_m": 3000,
      "worst_visibility_m": 3000,
      "ceiling_ft": 2600,
      "hazards": [
        "BR",
        "SN"
      ],
      "severityScore": 28,
      "metarRaw": "METAR EYKA 151120Z 16008KT 120V180 9999 OVC026 M10/M13 Q1023",
      "tafRaw": "TAF EYKA 151100Z 1512/1612 VRB04KT 8000 SCT015 BKN020 \n  TEMPO 1512/1520 15010KT 5000 BR BKN010 OVC015 \n  PROB40 \n  TEMPO 1512/1520 3000 SN \n  BECMG 1520/1522 14010KT BKN010 BKN030 \n  TEMPO 1522/1609 BKN005 \n  BECMG 1609/1612 NSC"
    },
    {
      "icao": "LTAC",
      "iata": "ESB",
      "name": "Esenboğa International Airport",
      "updatedAt": "151120Z",
      "visibility_m": 10000,
      "taf_visibility_m": 2000,
      "worst_visibility_m": 2000,
      "ceiling_ft": 9000,
      "hazards": [
        "BR",
        "SN"
      ],
      "severityScore": 28,
      "metarRaw": "METAR LTAC 151120Z 24012KT 9999 SCT010 SCT035 BKN090 02/M02 Q1021 NOSIG RMK RWY21C 23012KT RWY03L 24010KT RWY21R 22010KT RWY03R 24008KT 200V270 RWY21L 24012KT",
      "tafRaw": "TAF LTAC 151040Z 1512/1612 22008KT 9999 SCT010 SCT040 BKN100 \n  TEMPO 1602/1606 2000 -SN BR SCT008 BKN030 BKN080"
    },
    {
      "icao": "EHBK",
      "iata": "MST",
      "name": "Maastricht Aachen Airport",
      "updatedAt": "151125Z",
      "visibility_m": 10000,
      "taf_visibility_m": 7000,
      "worst_visibility_m": 7000,
      "ceiling_ft": 3100,
      "hazards": [
        "RA",
        "SHRA"
      ],
      "severityScore": 26,
      "metarRaw": "METAR EHBK 151125Z AUTO 21017KT 9999 FEW023 OVC031 11/07 Q1010 NOSIG",
      "tafRaw": "TAF EHBK 151054Z 1512/1618 20012KT 9999 BKN020 \n  BECMG 1514/1517 16010KT \n  BECMG 1600/1603 21014KT \n  PROB30 \n  TEMPO 1602/1611 7000 -SHRA -RA BKN014 FEW020TCU \n  BECMG 1609/1612 18008KT"
    },
    {
      "icao": "ENHD",
      "iata": "HAU",
      "name": "Haugesund Airport, Karmøy",
      "updatedAt": "151120Z",
      "visibility_m": 10000,
      "taf_visibility_m": 4000,
      "worst_visibility_m": 4000,
      "ceiling_ft": 3900,
      "hazards": [
        "SHRA",
        "RA"
      ],
      "severityScore": 26,
      "metarRaw": "METAR ENHD 151120Z 13020KT 9999 -SHRA BKN039 04/01 Q0999",
      "tafRaw": "TAF ENHD 151100Z 1512/1521 14018KT 9999 -SHRA FEW015 BKN030 \n  TEMPO 1512/1518 14022G35KT 4000 SHRA BKN009 SCT018CB"
    },
    {
      "icao": "GCTS",
      "iata": "TFS",
      "name": "Tenerife Sur Airport",
      "updatedAt": "151130Z",
      "visibility_m": 10000,
      "taf_visibility_m": 10000,
      "worst_visibility_m": 10000,
      "ceiling_ft": 4000,
      "hazards": [
        "TS"
      ],
      "severityScore": 25,
      "metarRaw": "METAR GCTS 151130Z 10011KT 9999 BKN040 18/09 Q1026 NOSIG",
      "tafRaw": "TAF GCTS 150800Z 1509/1609 06015KT 9999 SCT040 TX22/1514Z TN14/1606Z \n  BECMG 1520/1522 03005KT"
    },
    {
      "icao": "UBBB",
      "iata": "GYD",
      "name": "Heydar Aliyev International Airport",
      "updatedAt": "151130Z",
      "visibility_m": 10000,
      "taf_visibility_m": 10000,
      "worst_visibility_m": 10000,
      "ceiling_ft": 600,
      "hazards": [],
      "severityScore": 25,
      "metarRaw": "METAR UBBB 151130Z 36014KT CAVOK 05/M02 Q1023 NOSIG",
      "tafRaw": "TAF UBBB 151051Z 1512/1612 01010KT 9999 SCT030 TX05/1512Z TN01/1601Z \n  BECMG 1513/1515 VRB04KT \n  TEMPO 1515/1518 04005KT \n  TEMPO 1518/1602 23005KT BKN006 \n  BECMG 1602/1604 19008KT \n  TEMPO 1606/1612 22014KT"
    },
    {
      "icao": "LEMG",
      "iata": "AGP",
      "name": "Málaga-Costa del Sol Airport",
      "updatedAt": "151130Z",
      "visibility_m": 10000,
      "taf_visibility_m": 4000,
      "worst_visibility_m": 4000,
      "ceiling_ft": 1200,
      "hazards": [
        "RA"
      ],
      "severityScore": 24,
      "metarRaw": "METAR LEMG 151130Z 30005KT 9999 FEW025 14/09 Q1021 NOSIG",
      "tafRaw": "TAF LEMG 151100Z 1512/1612 29006KT 9999 SCT040 TX18/1514Z TN11/1607Z \n  TEMPO 1604/1612 4000 RA BKN012"
    },
    {
      "icao": "LIRP",
      "iata": "PSA",
      "name": "Pisa International Airport",
      "updatedAt": "151115Z",
      "visibility_m": 10000,
      "taf_visibility_m": 10000,
      "worst_visibility_m": 10000,
      "ceiling_ft": 1500,
      "hazards": [
        "RA"
      ],
      "severityScore": 24,
      "metarRaw": "METAR LIRP 151115Z 10004KT 9999 SCT020 SCT030 13/12 Q1021 NOSIG",
      "tafRaw": "TAF LIRP 151100Z 1512/1612 12005KT 9999 SCT020 SCT040 \n  TEMPO 1512/1520 RA BKN015"
    },
    {
      "icao": "EBCI",
      "iata": "CRL",
      "name": "Brussels South Charleroi Airport",
      "updatedAt": "151120Z",
      "visibility_m": 10000,
      "taf_visibility_m": 4000,
      "worst_visibility_m": 4000,
      "ceiling_ft": 3500,
      "hazards": [
        "RA",
        "DZ"
      ],
      "severityScore": 22,
      "metarRaw": "METAR EBCI 151120Z COR 21015G25KT 9999 SCT025 BKN035 09/05 Q1010 BECMG 21015KT",
      "tafRaw": "TAF EBCI 151110Z 1512/1618 19012KT 9999 SCT020 \n  TEMPO 1523/1603 19017G28KT 4000 RA RADZ BKN008"
    },
    {
      "icao": "EPRA",
      "iata": "RDO",
      "name": "Warsaw Radom Airport",
      "updatedAt": "151130Z",
      "visibility_m": 10000,
      "taf_visibility_m": 4000,
      "worst_visibility_m": 4000,
      "ceiling_ft": 2000,
      "hazards": [
        "RA",
        "BR"
      ],
      "severityScore": 22,
      "metarRaw": "METAR EPRA 151130Z 31004KT 9999 BKN020 02/M02 Q1020",
      "tafRaw": "TAF EPRA 151130Z 1512/1521 27005KT 9999 BKN023 \n  BECMG 1514/1517 15010KT \n  PROB40 \n  TEMPO 1516/1521 4000 BR BKN012"
    },
    {
      "icao": "LEBB",
      "iata": "BIO",
      "name": "Bilbao Airport",
      "updatedAt": "151130Z",
      "visibility_m": 10000,
      "taf_visibility_m": 3000,
      "worst_visibility_m": 3000,
      "ceiling_ft": null,
      "hazards": [
        "BR",
        "RA"
      ],
      "severityScore": 22,
      "metarRaw": "METAR LEBB 151130Z 14008G24KT 080V180 9999 FEW034 15/03 Q1010 NOSIG",
      "tafRaw": "TAF LEBB 151100Z 1512/1612 20009KT 9999 FEW025 SCT060 TX16/1512Z TN05/1607Z \n  TEMPO 1512/1517 20018G29KT \n  TEMPO 1512/1515 20024G44KT \n  PROB40 \n  TEMPO 1515/1520 3000 RA \n  PROB30 \n  TEMPO 1603/1607 3000 BR \n  PROB40 \n  TEMPO 1600/1612 12010KT"
    },
    {
      "icao": "LEBL",
      "iata": "BCN",
      "name": "Josep Tarradellas Barcelona-El Prat Airport",
      "updatedAt": "151130Z",
      "visibility_m": 10000,
      "taf_visibility_m": 3000,
      "worst_visibility_m": 3000,
      "ceiling_ft": 1000,
      "hazards": [
        "BR"
      ],
      "severityScore": 22,
      "metarRaw": "METAR LEBL 151130Z 27003KT 230V350 9999 FEW015 14/10 Q1018 NOSIG",
      "tafRaw": "TAF LEBL 151100Z 1512/1612 21010KT 9999 FEW015 TX15/1512Z TN06/1606Z \n  BECMG 1520/1522 34007KT \n  PROB30 \n  TEMPO 1600/1606 3000 BR BKN010"
    },
    {
      "icao": "LEZG",
      "iata": "ZAZ",
      "name": "Zaragoza Airport",
      "updatedAt": "151130Z",
      "visibility_m": 10000,
      "taf_visibility_m": 2000,
      "worst_visibility_m": 2000,
      "ceiling_ft": null,
      "hazards": [
        "BR",
        "RA"
      ],
      "severityScore": 22,
      "metarRaw": "METAR LEZG 151130Z 09006KT CAVOK 09/05 Q1017 NOSIG",
      "tafRaw": "TAF LEZG 151100Z 1512/1612 19012KT 9999 FEW020 TX14/1514Z TN05/1606Z \n  TEMPO 1518/1612 2000 BR \n  PROB40 \n  TEMPO 1520/1603 RA \n  BECMG 1600/1602 VRB03KT"
    },
    {
      "icao": "LIPY",
      "iata": "AOI",
      "name": "Marche Airport",
      "updatedAt": "151120Z",
      "visibility_m": 10000,
      "taf_visibility_m": 2000,
      "worst_visibility_m": 2000,
      "ceiling_ft": 1000,
      "hazards": [
        "BR"
      ],
      "severityScore": 22,
      "metarRaw": "METAR LIPY 151120Z AUTO 03005KT 9999 BKN078/// 13/08 Q1022",
      "tafRaw": "TAF LIPY 151100Z 1512/1612 VRB05KT 7000 SCT060 \n  TEMPO 1519/1607 2000 BR BKN010"
    },
    {
      "icao": "LIPZ",
      "iata": "VCE",
      "name": "Venice Marco Polo Airport",
      "updatedAt": "151120Z",
      "visibility_m": 7000,
      "taf_visibility_m": 2000,
      "worst_visibility_m": 2000,
      "ceiling_ft": 1000,
      "hazards": [
        "BR"
      ],
      "severityScore": 22,
      "metarRaw": "METAR LIPZ 151120Z 16003KT 130V190 7000 SCT070 08/03 Q1022 NOSIG",
      "tafRaw": "TAF LIPZ 151100Z 1512/1618 VRB04KT 6000 SCT040 \n  TEMPO 1521/1607 2000 BR BKN010"
    },
    {
      "icao": "LRCV",
      "iata": "CRA",
      "name": "Craiova International Airport",
      "updatedAt": "151130Z",
      "visibility_m": 10000,
      "taf_visibility_m": 3000,
      "worst_visibility_m": 3000,
      "ceiling_ft": 1000,
      "hazards": [
        "BR"
      ],
      "severityScore": 22,
      "metarRaw": "METAR LRCV 151130Z 29012KT CAVOK 11/05 Q1020",
      "tafRaw": "TAF LRCV 151100Z 1512/1521 29012KT CAVOK \n  BECMG 1516/1518 08010KT 3000 BR BKN010"
    },
    {
      "icao": "LYBE",
      "iata": "BEG",
      "name": "Belgrade Nikola Tesla Airport",
      "updatedAt": "151130Z",
      "visibility_m": 10000,
      "taf_visibility_m": 4000,
      "worst_visibility_m": 4000,
      "ceiling_ft": null,
      "hazards": [
        "BR",
        "RA"
      ],
      "severityScore": 22,
      "metarRaw": "METAR LYBE 151130Z 00000KT CAVOK 07/02 Q1022 NOSIG",
      "tafRaw": "TAF LYBE 151100Z 1512/1612 18005KT 9999 SCT045 TX08/1513Z TN02/1606Z \n  PROB40 \n  TEMPO 1603/1607 4000 -RA BR"
    },
    {
      "icao": "EDDS",
      "iata": "STR",
      "name": "Stuttgart Airport",
      "updatedAt": "151120Z",
      "visibility_m": 10000,
      "taf_visibility_m": 1800,
      "worst_visibility_m": 1800,
      "ceiling_ft": null,
      "hazards": [
        "FG"
      ],
      "severityScore": 20,
      "metarRaw": "METAR EDDS 151120Z AUTO 20005KT 160V260 9999 FEW049 11/05 Q1014 NOSIG",
      "tafRaw": "TAF EDDS 151100Z 1512/1612 VRB03KT CAVOK \n  PROB30 \n  TEMPO 1602/1609 1800 BCFG"
    },
    {
      "icao": "GMMN",
      "iata": "CMN",
      "name": "Mohammed V International Airport",
      "updatedAt": "151130Z",
      "visibility_m": 10000,
      "taf_visibility_m": 5000,
      "worst_visibility_m": 5000,
      "ceiling_ft": 2000,
      "hazards": [
        "RA"
      ],
      "severityScore": 12,
      "metarRaw": "METAR GMMN 151130Z 24004KT 180V310 9999 SCT020 15/12 Q1023 NOSIG",
      "tafRaw": "TAF GMMN 151100Z 1512/1618 26006KT 9999 FEW020 \n  BECMG 1600/1602 20008KT 9999 BKN026 \n  TEMPO 1612/1618 22015KT 5000 RA SCT006 BKN020"
    },
    {
      "icao": "GMMX",
      "iata": "RAK",
      "name": "Menara Airport",
      "updatedAt": "151130Z",
      "visibility_m": 10000,
      "taf_visibility_m": 4000,
      "worst_visibility_m": 4000,
      "ceiling_ft": 2600,
      "hazards": [
        "RA"
      ],
      "severityScore": 12,
      "metarRaw": "METAR GMMX 151130Z 05004KT 350V130 CAVOK 14/09 Q1022 NOSIG",
      "tafRaw": "TAF GMMX 151100Z 1512/1618 06006KT 8000 SCT026 \n  TEMPO 1515/1521 34016KT \n  TEMPO 1616/1618 34016KT 4000 RA FEW010 BKN026 SCT090"
    },
    {
      "icao": "EDFH",
      "iata": "HHN",
      "name": "Frankfurt-Hahn Airport",
      "updatedAt": "151120Z",
      "visibility_m": 10000,
      "taf_visibility_m": 10000,
      "worst_visibility_m": 10000,
      "ceiling_ft": 1200,
      "hazards": [],
      "severityScore": 12,
      "metarRaw": "METAR EDFH 151120Z 21012KT 9999 BKN012 OVC029 08/06 Q1012",
      "tafRaw": "TAF EDFH 151100Z 1512/1612 19012KT 9999 BKN030 \n  PROB30 \n  TEMPO 1512/1515 20015G25KT BKN012 \n  PROB30 \n  TEMPO 1521/1605 14015G25KT \n  TEMPO 1606/1612 BKN010"
    },
    {
      "icao": "EHEH",
      "iata": "EIN",
      "name": "Eindhoven Airport",
      "updatedAt": "151125Z",
      "visibility_m": 10000,
      "taf_visibility_m": 10000,
      "worst_visibility_m": 10000,
      "ceiling_ft": 1200,
      "hazards": [],
      "severityScore": 12,
      "metarRaw": "METAR EHEH 151125Z AUTO 19009KT 160V230 9999 SCT016 BKN020 OVC024 11/08 Q1009 WHT TEMPO SCT010 BKN012 RMK TREND REMOTE BY EHWX",
      "tafRaw": "TAF EHEH 150554Z 1506/1612 18009KT 9999 OVC025 \n  BECMG 1506/1508 SCT012 BKN016 \n  PROB30 \n  TEMPO 1508/1511 SCT008 FEW012CB \n  BECMG 1513/1515 BKN020 \n  BECMG 1522/1524 19012G25KT \n  PROB40 \n  TEMPO 1600/1606 SCT015 BKN018 \n  BECMG 1604/1606 20006KT"
    },
    {
      "icao": "LFPO",
      "iata": "ORY",
      "name": "Paris-Orly Airport",
      "updatedAt": "151130Z",
      "visibility_m": 10000,
      "taf_visibility_m": 4000,
      "worst_visibility_m": 4000,
      "ceiling_ft": 4900,
      "hazards": [
        "RA"
      ],
      "severityScore": 12,
      "metarRaw": "METAR LFPO 151130Z 18009KT 9999 FEW015 BKN049 10/07 Q1009 NOSIG",
      "tafRaw": "TAF LFPO 151100Z 1512/1618 18010KT 9999 BKN012 \n  BECMG 1512/1515 BKN030 \n  TEMPO 1520/1602 21015G25KT 4000 -RA BKN012 \n  PROB40 \n  TEMPO 1521/1523 21015G30KT \n  BECMG 1602/1604 BKN008 \n  BECMG 1610/1612 BKN020 \n  PROB40 \n  TEMPO 1612/1614 BKN012 \n  BECMG 1616/1618 15004KT"
    },
    {
      "icao": "LIMJ",
      "iata": "GOA",
      "name": "Genoa Cristoforo Colombo Airport",
      "updatedAt": "151120Z",
      "visibility_m": 10000,
      "taf_visibility_m": 10000,
      "worst_visibility_m": 10000,
      "ceiling_ft": null,
      "hazards": [
        "RA"
      ],
      "severityScore": 12,
      "metarRaw": "METAR LIMJ 151120Z 06008KT 9999 VCSH SCT024 SCT035TCU 13/08 Q1021",
      "tafRaw": "TAF LIMJ 151100Z 1512/1612 04008KT 9999 SCT020 SCT050 \n  TEMPO 1512/1612 RA"
    },
    {
      "icao": "LJLJ",
      "iata": "LJU",
      "name": "Ljubljana Jože Pučnik Airport",
      "updatedAt": "151130Z",
      "visibility_m": 10000,
      "taf_visibility_m": 10000,
      "worst_visibility_m": 10000,
      "ceiling_ft": 5500,
      "hazards": [
        "RA"
      ],
      "severityScore": 12,
      "metarRaw": "METAR LJLJ 151130Z VRB01KT 9999 FEW040 BKN055 02/01 Q1020 NOSIG",
      "tafRaw": "TAF LJLJ 151100Z 1512/1612 30003KT 9999 FEW040 BKN060 \n  PROB30 \n  TEMPO 1516/1612 -RA"
    },
    {
      "icao": "EGPD",
      "iata": "ABZ",
      "name": "Aberdeen International Airport",
      "updatedAt": "151120Z",
      "visibility_m": 10000,
      "taf_visibility_m": 5000,
      "worst_visibility_m": 5000,
      "ceiling_ft": null,
      "hazards": [
        "BR"
      ],
      "severityScore": 10,
      "metarRaw": "METAR EGPD 151120Z COR AUTO 22010KT 9999 NCD 06/03 Q0994 NOSIG",
      "tafRaw": "TAF EGPD 151102Z 1512/1612 20008KT 9999 FEW015 \n  PROB30 \n  TEMPO 1521/1610 5000 BR"
    },
    {
      "icao": "EPWA",
      "iata": "WAW",
      "name": "Warsaw Chopin Airport",
      "updatedAt": "151130Z",
      "visibility_m": 2500,
      "taf_visibility_m": 2000,
      "worst_visibility_m": 2000,
      "ceiling_ft": 3000,
      "hazards": [
        "BR"
      ],
      "severityScore": 10,
      "metarRaw": "METAR EPWA 151130Z 11004KT 070V140 2500 BR FEW003 BKN030 01/00 Q1020 NOSIG",
      "tafRaw": "TAF EPWA 151130Z 1512/1612 VRB04KT 2000 BR BKN020 \n  PROB40 1512/1516 3000 BR SCT004 BKN007 \n  BECMG 1513/1516 14010KT 6000 \n  TEMPO 1516/1522 2000 BR BKN004 \n  PROB40 1522/1607 BKN005"
    },
    {
      "icao": "HESX",
      "iata": "SPX",
      "name": "Sphinx International Airport",
      "updatedAt": "151100Z",
      "visibility_m": 10000,
      "taf_visibility_m": 4000,
      "worst_visibility_m": 4000,
      "ceiling_ft": 7000,
      "hazards": [
        "BR"
      ],
      "severityScore": 10,
      "metarRaw": "METAR HESX 151100Z 22006KT 9999 FEW030 SCT100 17/08 Q1025 NOSIG",
      "tafRaw": "TAF HESX 151101Z 1512/1618 35010KT 9999 FEW020 BKN070 \n  TEMPO 1600/1606 VRB03KT 4000 BR NSC"
    },
    {
      "icao": "LBPD",
      "iata": "PDV",
      "name": "Plovdiv International Airport",
      "updatedAt": "151130Z",
      "visibility_m": 10000,
      "taf_visibility_m": 3000,
      "worst_visibility_m": 3000,
      "ceiling_ft": 7000,
      "hazards": [
        "BR"
      ],
      "severityScore": 10,
      "metarRaw": "METAR LBPD 151130Z AUTO 28014KT 9999 NCD 16/03 Q1020 NOSIG",
      "tafRaw": "TAF LBPD 151100Z 1512/1612 28010KT 9999 BKN070 \n  BECMG 1518/1520 VRB03KT \n  PROB40 \n  TEMPO 1600/1606 3000 BR SCT015 \n  BECMG 1606/1607 10010KT"
    },
    {
      "icao": "LEAL",
      "iata": "ALC",
      "name": "Alicante-Elche Miguel Hernández Airport",
      "updatedAt": "151130Z",
      "visibility_m": 10000,
      "taf_visibility_m": 3000,
      "worst_visibility_m": 3000,
      "ceiling_ft": null,
      "hazards": [
        "BR"
      ],
      "severityScore": 10,
      "metarRaw": "METAR LEAL 151130Z 24003KT 190V290 CAVOK 17/06 Q1019 NOSIG",
      "tafRaw": "TAF LEAL 151100Z 1512/1612 VRB04KT CAVOK TX17/1513Z TN07/1606Z \n  PROB40 \n  TEMPO 1518/1524 3000 BR"
    },
    {
      "icao": "LGAV",
      "iata": "ATH",
      "name": "Athens Eleftherios Venizelos International Airport",
      "updatedAt": "151120Z",
      "visibility_m": 10000,
      "taf_visibility_m": 4000,
      "worst_visibility_m": 4000,
      "ceiling_ft": null,
      "hazards": [
        "BR"
      ],
      "severityScore": 10,
      "metarRaw": "METAR LGAV 151120Z 09006KT 060V120 9999 FEW030 15/07 Q1023 NOSIG",
      "tafRaw": "TAF LGAV 151100Z 1512/1612 VRB05KT 9999 FEW016 SCT025 \n  PROB40 \n  TEMPO 1603/1606 4000 BR SCT008"
    },
    {
      "icao": "LIBP",
      "iata": "PSR",
      "name": "Abruzzo Airport",
      "updatedAt": "151120Z",
      "visibility_m": 10000,
      "taf_visibility_m": 4000,
      "worst_visibility_m": 4000,
      "ceiling_ft": null,
      "hazards": [
        "BR"
      ],
      "severityScore": 10,
      "metarRaw": "METAR LIBP 151120Z AUTO VRB02KT 9999 NCD 15/05 Q1023",
      "tafRaw": "TAF LIBP 151100Z 1512/1612 VRB05KT CAVOK \n  TEMPO 1521/1607 4000 BR"
    },
    {
      "icao": "LIPH",
      "iata": "TSF",
      "name": "Treviso Antonio Canova Airport",
      "updatedAt": "151120Z",
      "visibility_m": 6000,
      "taf_visibility_m": 2000,
      "worst_visibility_m": 2000,
      "ceiling_ft": 8000,
      "hazards": [
        "BR"
      ],
      "severityScore": 10,
      "metarRaw": "METAR LIPH 151120Z VRB02KT 6000 FEW050 BKN080 09/04 Q1022",
      "tafRaw": "TAF LIPH 151100Z 1512/1612 VRB04KT 6000 SCT040 \n  TEMPO 1519/1607 2000 BR BKN010"
    },
    {
      "icao": "LWSK",
      "iata": "SKP",
      "name": "Skopje International Airport",
      "updatedAt": null,
      "visibility_m": null,
      "taf_visibility_m": 5000,
      "worst_visibility_m": 5000,
      "ceiling_ft": null,
      "hazards": [
        "BR"
      ],
      "severityScore": 10,
      "metarRaw": null,
      "tafRaw": "TAF LWSK 151120Z 1512/1612 VRB02KT CAVOK \n  PROB30 \n  TEMPO 1603/1609 5000 BR NSC"
    },
    {
      "icao": "UDSG",
      "iata": "LWN",
      "name": "Shirak International Airport",
      "updatedAt": "151130Z",
      "visibility_m": 10000,
      "taf_visibility_m": 5000,
      "worst_visibility_m": 5000,
      "ceiling_ft": null,
      "hazards": [
        "BR"
      ],
      "severityScore": 10,
      "metarRaw": "METAR UDSG 151130Z 14002KT 9999 NSC M07/M13 Q1019 NOSIG",
      "tafRaw": "TAF UDSG 151058Z 1512/1612 VRB06KT 9999 FEW040 \n  TEMPO 1514/1524 5000 BR"
    },
    {
      "icao": "UDYZ",
      "iata": "EVN",
      "name": "Zvartnots International Airport",
      "updatedAt": "151130Z",
      "visibility_m": 10000,
      "taf_visibility_m": 2300,
      "worst_visibility_m": 2300,
      "ceiling_ft": null,
      "hazards": [
        "BR"
      ],
      "severityScore": 10,
      "metarRaw": "METAR UDYZ 151130Z VRB01KT 9999 FEW046 03/M10 Q1019 NOSIG",
      "tafRaw": "TAF UDYZ 151100Z 1512/1612 VRB06KT 6000 FEW040 \n  TEMPO 1520/1606 2300 BR"
    },
    {
      "icao": "EYVI",
      "iata": "VNO",
      "name": "Vilnius International Airport",
      "updatedAt": "151120Z",
      "visibility_m": 10000,
      "taf_visibility_m": null,
      "worst_visibility_m": 10000,
      "ceiling_ft": null,
      "hazards": [],
      "severityScore": 5,
      "metarRaw": "METAR EYVI 151120Z 17011KT CAVOK M13/M15 Q1022 NOSIG",
      "tafRaw": null
    },
    {
      "icao": "LECH",
      "iata": "CDT",
      "name": "Castellón-Costa Azahar Airport",
      "updatedAt": "151130Z",
      "visibility_m": 9000,
      "taf_visibility_m": null,
      "worst_visibility_m": 9000,
      "ceiling_ft": null,
      "hazards": [],
      "severityScore": 5,
      "metarRaw": "METAR LECH 151130Z AUTO 23004KT 9000 NCD 13/05 Q1018",
      "tafRaw": null
    },
    {
      "icao": "LEXJ",
      "iata": "SDR",
      "name": "Seve Ballesteros-Santander Airport",
      "updatedAt": "151130Z",
      "visibility_m": 10000,
      "taf_visibility_m": null,
      "worst_visibility_m": 10000,
      "ceiling_ft": null,
      "hazards": [],
      "severityScore": 5,
      "metarRaw": "METAR LEXJ 151130Z 21017G28KT 160V250 9999 SCT068 14/03 Q1008",
      "tafRaw": null
    },
    {
      "icao": "BIKF",
      "iata": "KEF",
      "name": "Keflavik International Airport",
      "updatedAt": "151130Z",
      "visibility_m": 10000,
      "taf_visibility_m": 10000,
      "worst_visibility_m": 10000,
      "ceiling_ft": null,
      "hazards": [],
      "severityScore": 0,
      "metarRaw": "METAR BIKF 151130Z 03015KT CAVOK M00/M05 Q0987",
      "tafRaw": "TAF BIKF 151034Z 1512/1612 02018KT 9999 FEW025 SCT045 TX02/1606Z TN00/1512Z"
    },
    {
      "icao": "GCFV",
      "iata": "FUE",
      "name": "Fuerteventura Airport",
      "updatedAt": "151130Z",
      "visibility_m": 10000,
      "taf_visibility_m": 10000,
      "worst_visibility_m": 10000,
      "ceiling_ft": null,
      "hazards": [],
      "severityScore": 0,
      "metarRaw": "METAR GCFV 151130Z 01014KT 9999 FEW035 SCT044 19/09 Q1025",
      "tafRaw": "TAF GCFV 150800Z 1509/1609 04011KT 9999 SCT040 TX20/1514Z TN15/1606Z \n  TEMPO 1521/1609 34006KT"
    },
    {
      "icao": "GCLP",
      "iata": "LPA",
      "name": "Gran Canaria Airport",
      "updatedAt": "151130Z",
      "visibility_m": 10000,
      "taf_visibility_m": 10000,
      "worst_visibility_m": 10000,
      "ceiling_ft": 4000,
      "hazards": [],
      "severityScore": 0,
      "metarRaw": "METAR GCLP 151130Z 01015KT 9999 BKN040 19/09 Q1025 NOSIG",
      "tafRaw": "TAF GCLP 150800Z 1509/1609 02016KT 9999 SCT040 TX20/1514Z TN15/1606Z"
    },
    {
      "icao": "GMAD",
      "iata": "AGA",
      "name": "Al Massira Airport",
      "updatedAt": "151130Z",
      "visibility_m": 10000,
      "taf_visibility_m": 8000,
      "worst_visibility_m": 8000,
      "ceiling_ft": null,
      "hazards": [],
      "severityScore": 0,
      "metarRaw": "METAR GMAD 151130Z 28003KT 9999 FEW030 17/14 Q1023 NOSIG",
      "tafRaw": "TAF GMAD 151100Z 1512/1618 27010KT 8000 FEW030"
    },
    {
      "icao": "EDDK",
      "iata": "CGN",
      "name": "Cologne Bonn Airport",
      "updatedAt": "151120Z",
      "visibility_m": 10000,
      "taf_visibility_m": 10000,
      "worst_visibility_m": 10000,
      "ceiling_ft": 3500,
      "hazards": [],
      "severityScore": 0,
      "metarRaw": "METAR EDDK 151120Z AUTO 17008KT 9999 FEW023 BKN035 OVC045 10/08 Q1012 NOSIG",
      "tafRaw": "TAF EDDK 151100Z 1512/1618 15009KT 9999 BKN030"
    },
    {
      "icao": "EDJA",
      "iata": "FMM",
      "name": "Memmingen Allgau Airport",
      "updatedAt": "151120Z",
      "visibility_m": 10000,
      "taf_visibility_m": 10000,
      "worst_visibility_m": 10000,
      "ceiling_ft": null,
      "hazards": [],
      "severityScore": 0,
      "metarRaw": "METAR EDJA 151120Z 24009KT CAVOK 09/03 Q1017",
      "tafRaw": "TAF EDJA 151100Z 1512/1521 22007KT CAVOK \n  BECMG 1514/1516 09004KT"
    },
    {
      "icao": "EDLW",
      "iata": "DTM",
      "name": "Dortmund Airport",
      "updatedAt": "151120Z",
      "visibility_m": 10000,
      "taf_visibility_m": 10000,
      "worst_visibility_m": 10000,
      "ceiling_ft": null,
      "hazards": [],
      "severityScore": 0,
      "metarRaw": "METAR EDLW 151120Z 20013KT 9999 SCT039 11/07 Q1010",
      "tafRaw": "TAF EDLW 151100Z 1512/1612 18013KT 9999 SCT035 \n  PROB40 \n  TEMPO 1520/1606 17015G25KT \n  BECMG 1609/1612 18008KT"
    },
    {
      "icao": "ENAL",
      "iata": "AES",
      "name": "Ålesund Airport, Vigra",
      "updatedAt": "151120Z",
      "visibility_m": 10000,
      "taf_visibility_m": 10000,
      "worst_visibility_m": 10000,
      "ceiling_ft": null,
      "hazards": [],
      "severityScore": 0,
      "metarRaw": "METAR ENAL 151120Z 14006KT CAVOK 07/M01 Q0998",
      "tafRaw": "TAF ENAL 151100Z 1512/1521 13008KT 9999 SCT060"
    },
    {
      "icao": "ENTC",
      "iata": "TOS",
      "name": "Tromsø Airport, Langnes",
      "updatedAt": "151120Z",
      "visibility_m": 10000,
      "taf_visibility_m": 10000,
      "worst_visibility_m": 10000,
      "ceiling_ft": null,
      "hazards": [],
      "severityScore": 0,
      "metarRaw": "METAR ENTC 151120Z 16002KT CAVOK M05/M08 Q1007 NOSIG RMK WIND 2600FT 15010KT",
      "tafRaw": "TAF ENTC 151100Z 1512/1612 20008KT CAVOK \n  TEMPO 1514/1521 20018KT"
    },
    {
      "icao": "ENVA",
      "iata": "TRD",
      "name": "Trondheim Airport, Værnes",
      "updatedAt": "151120Z",
      "visibility_m": 10000,
      "taf_visibility_m": 10000,
      "worst_visibility_m": 10000,
      "ceiling_ft": null,
      "hazards": [],
      "severityScore": 0,
      "metarRaw": "METAR ENVA 151120Z 09009KT CAVOK M01/M06 Q1004 NOSIG RMK WIND 670FT 09010KT",
      "tafRaw": "TAF ENVA 151100Z 1512/1612 09008KT CAVOK \n  TEMPO 1516/1524 16020G30KT"
    },
    {
      "icao": "HEGN",
      "iata": "HRG",
      "name": "Hurghada International Airport",
      "updatedAt": "151100Z",
      "visibility_m": 10000,
      "taf_visibility_m": 10000,
      "worst_visibility_m": 10000,
      "ceiling_ft": null,
      "hazards": [],
      "severityScore": 0,
      "metarRaw": "METAR HEGN 151100Z 36010KT CAVOK 20/07 Q1022 NOSIG",
      "tafRaw": "TAF HEGN 151100Z 1512/1618 35010G20KT CAVOK"
    },
    {
      "icao": "HEMA",
      "iata": "RMF",
      "name": "Marsa Alam International Airport",
      "updatedAt": "151100Z",
      "visibility_m": 10000,
      "taf_visibility_m": 6000,
      "worst_visibility_m": 6000,
      "ceiling_ft": null,
      "hazards": [],
      "severityScore": 0,
      "metarRaw": "METAR HEMA 151100Z 35022KT 9999 FEW020 SCT025 21/09 Q1021 NOSIG",
      "tafRaw": "TAF HEMA 151100Z 1512/1618 36015G25KT 6000 SCT025"
    },
    {
      "icao": "HESH",
      "iata": "SSH",
      "name": "Sharm El Sheikh International Airport",
      "updatedAt": "151100Z",
      "visibility_m": 10000,
      "taf_visibility_m": 10000,
      "worst_visibility_m": 10000,
      "ceiling_ft": null,
      "hazards": [],
      "severityScore": 0,
      "metarRaw": "METAR HESH 151100Z 01011KT CAVOK 21/05 Q1023 NOSIG",
      "tafRaw": "TAF HESH 151100Z 1512/1618 02010G20KT CAVOK"
    },
    {
      "icao": "LATI",
      "iata": "TIA",
      "name": "Tirana International Airport Mother Teresa",
      "updatedAt": null,
      "visibility_m": null,
      "taf_visibility_m": 10000,
      "worst_visibility_m": 10000,
      "ceiling_ft": null,
      "hazards": [],
      "severityScore": 0,
      "metarRaw": null,
      "tafRaw": "TAF LATI 151100Z 1512/1612 VRB05KT CAVOK TX16/1512Z TN03/1605Z"
    },
    {
      "icao": "LCLK",
      "iata": "LCA",
      "name": "Larnaca International Airport",
      "updatedAt": "151130Z",
      "visibility_m": 10000,
      "taf_visibility_m": 10000,
      "worst_visibility_m": 10000,
      "ceiling_ft": null,
      "hazards": [],
      "severityScore": 0,
      "metarRaw": "METAR LCLK 151130Z 11003KT 9999 SCT050 16/04 Q1023 NOSIG",
      "tafRaw": "TAF LCLK 151130Z 1512/1612 11010KT 9999 FEW040 \n  BECMG 1512/1516 31006KT \n  BECMG 1608/1611 18010KT"
    },
    {
      "icao": "LCPH",
      "iata": "PFO",
      "name": "Paphos International Airport",
      "updatedAt": "151130Z",
      "visibility_m": 10000,
      "taf_visibility_m": 10000,
      "worst_visibility_m": 10000,
      "ceiling_ft": null,
      "hazards": [],
      "severityScore": 0,
      "metarRaw": "METAR LCPH 151130Z 24005KT 170V260 9999 FEW040 SCT045 17/07 Q1023 NOSIG",
      "tafRaw": "TAF LCPH 151130Z 1512/1612 23010KT 9999 FEW035 SCT045 \n  BECMG 1513/1516 02007KT \n  BECMG 1608/1612 24010KT"
    },
    {
      "icao": "LEVC",
      "iata": "VLC",
      "name": "Valencia Airport",
      "updatedAt": "151130Z",
      "visibility_m": 10000,
      "taf_visibility_m": 10000,
      "worst_visibility_m": 10000,
      "ceiling_ft": null,
      "hazards": [],
      "severityScore": 0,
      "metarRaw": "METAR LEVC 151130Z 24004KT 200V300 CAVOK 15/05 Q1018 NOSIG",
      "tafRaw": "TAF LEVC 151100Z 1512/1612 26005KT CAVOK TX18/1512Z TN06/1606Z \n  TEMPO 1512/1520 20010KT"
    },
    {
      "icao": "LFLL",
      "iata": "LYS",
      "name": "Lyon Saint-Exupéry Airport",
      "updatedAt": "151130Z",
      "visibility_m": 10000,
      "taf_visibility_m": 10000,
      "worst_visibility_m": 10000,
      "ceiling_ft": null,
      "hazards": [],
      "severityScore": 0,
      "metarRaw": "METAR LFLL 151130Z 18014KT 9999 FEW030 14/06 Q1015 NOSIG",
      "tafRaw": "TAF LFLL 151100Z 1512/1618 18015G25KT CAVOK \n  TEMPO 1518/1523 18020G35KT FEW030 \n  BECMG 1602/1604 16008KT"
    },
    {
      "icao": "LFLS",
      "iata": "GNB",
      "name": "Grenoble Alpes Isère Airport",
      "updatedAt": "151130Z",
      "visibility_m": 10000,
      "taf_visibility_m": 10000,
      "worst_visibility_m": 10000,
      "ceiling_ft": null,
      "hazards": [],
      "severityScore": 0,
      "metarRaw": "METAR LFLS 151130Z AUTO 10004KT 060V130 CAVOK 12/05 Q1016 BECMG 22012KT",
      "tafRaw": "TAF LFLS 150800Z 1509/1609 08006KT CAVOK \n  BECMG 1510/1512 22012KT \n  TEMPO 1517/1522 28010KT \n  FM152200 08005KT CAVOK \n  PROB40 \n  TEMPO 1522/1524 28010KT"
    },
    {
      "icao": "LFMN",
      "iata": "NCE",
      "name": "Nice-Côte d'Azur Airport",
      "updatedAt": "151130Z",
      "visibility_m": 10000,
      "taf_visibility_m": 10000,
      "worst_visibility_m": 10000,
      "ceiling_ft": null,
      "hazards": [],
      "severityScore": 0,
      "metarRaw": "METAR LFMN 151130Z 32006KT 290V350 CAVOK 15/04 Q1020 NOSIG",
      "tafRaw": "TAF LFMN 150800Z 1509/1615 33010KT CAVOK \n  BECMG 1511/1513 12005KT \n  BECMG 1518/1520 33010KT \n  BECMG 1611/1613 09015KT"
    },
    {
      "icao": "LFSB",
      "iata": "BSL",
      "name": "EuroAirport Basel–Mulhouse–Freiburg",
      "updatedAt": "151130Z",
      "visibility_m": 10000,
      "taf_visibility_m": 10000,
      "worst_visibility_m": 10000,
      "ceiling_ft": null,
      "hazards": [],
      "severityScore": 0,
      "metarRaw": "METAR LFSB 151130Z AUTO 13007KT CAVOK 12/05 Q1015 NOSIG",
      "tafRaw": "TAF LFSB 151100Z 1512/1612 15008KT CAVOK"
    },
    {
      "icao": "LIBD",
      "iata": "BRI",
      "name": "Bari Karol Wojtyła International Airport",
      "updatedAt": "151120Z",
      "visibility_m": 10000,
      "taf_visibility_m": 10000,
      "worst_visibility_m": 10000,
      "ceiling_ft": null,
      "hazards": [],
      "severityScore": 0,
      "metarRaw": "METAR LIBD 151120Z 01005KT 330V030 CAVOK 12/09 Q1023",
      "tafRaw": "TAF LIBD 151100Z 1512/1612 VRB06KT 9999 FEW030"
    },
    {
      "icao": "LIBG",
      "iata": "TAR",
      "name": "Taranto-Grottaglie Marcello Arlotta Airport",
      "updatedAt": "151050Z",
      "visibility_m": 10000,
      "taf_visibility_m": 8000,
      "worst_visibility_m": 8000,
      "ceiling_ft": null,
      "hazards": [],
      "severityScore": 0,
      "metarRaw": "METAR LIBG 151050Z VRB03KT 9999 FEW030 15/15 Q1023",
      "tafRaw": "TAF LIBG 151100Z 1512/1521 VRB05KT 8000 FEW025"
    },
    {
      "icao": "LICA",
      "iata": "SUF",
      "name": "Lamezia Terme Sant'Eufemia International Airport",
      "updatedAt": "151120Z",
      "visibility_m": 10000,
      "taf_visibility_m": 10000,
      "worst_visibility_m": 10000,
      "ceiling_ft": null,
      "hazards": [],
      "severityScore": 0,
      "metarRaw": "METAR LICA 151120Z AUTO 07010KT 9999 NCD 17/07 Q1022",
      "tafRaw": "TAF LICA 151100Z 1512/1612 08010KT CAVOK"
    },
    {
      "icao": "LICC",
      "iata": "CTA",
      "name": "Catania-Fontanarossa Airport",
      "updatedAt": "151120Z",
      "visibility_m": 10000,
      "taf_visibility_m": 10000,
      "worst_visibility_m": 10000,
      "ceiling_ft": null,
      "hazards": [],
      "severityScore": 0,
      "metarRaw": "METAR LICC 151120Z 22003KT 170V260 9999 SCT040 18/14 Q1023",
      "tafRaw": "TAF LICC 151100Z 1512/1612 VRB05KT 9999 SCT040 \n  BECMG 1610/1612 08010KT"
    },
    {
      "icao": "LICJ",
      "iata": "PMO",
      "name": "Falcone–Borsellino Airport",
      "updatedAt": "151120Z",
      "visibility_m": 10000,
      "taf_visibility_m": 10000,
      "worst_visibility_m": 10000,
      "ceiling_ft": null,
      "hazards": [],
      "severityScore": 0,
      "metarRaw": "METAR LICJ 151120Z 03008KT CAVOK 15/10 Q1022",
      "tafRaw": "TAF LICJ 151100Z 1512/1612 05010KT CAVOK \n  BECMG 1516/1518 VRB05KT"
    },
    {
      "icao": "LIMF",
      "iata": "TRN",
      "name": "Turin Airport",
      "updatedAt": "151120Z",
      "visibility_m": 7000,
      "taf_visibility_m": 8000,
      "worst_visibility_m": 7000,
      "ceiling_ft": 5500,
      "hazards": [],
      "severityScore": 0,
      "metarRaw": "METAR LIMF 151120Z VRB02KT 7000 BKN055 06/01 Q1022",
      "tafRaw": "TAF LIMF 151100Z 1512/1612 VRB03KT 8000 SCT050"
    },
    {
      "icao": "LIRF",
      "iata": "FCO",
      "name": "Rome–Fiumicino Leonardo da Vinci International Airport",
      "updatedAt": "151120Z",
      "visibility_m": 10000,
      "taf_visibility_m": 10000,
      "worst_visibility_m": 10000,
      "ceiling_ft": 5000,
      "hazards": [],
      "severityScore": 0,
      "metarRaw": "METAR LIRF 151120Z 13009KT 9999 FEW030 BKN050 15/09 Q1023 NOSIG",
      "tafRaw": "TAF LIRF 151100Z 1512/1618 15012KT 9999 SCT030 \n  BECMG 1519/1521 08007KT"
    },
    {
      "icao": "LIRN",
      "iata": "NAP",
      "name": "Naples International Airport",
      "updatedAt": "151120Z",
      "visibility_m": 10000,
      "taf_visibility_m": 10000,
      "worst_visibility_m": 10000,
      "ceiling_ft": null,
      "hazards": [],
      "severityScore": 0,
      "metarRaw": "METAR LIRN 151120Z 01003KT 340V050 9999 FEW040 15/07 Q1023 NOSIG",
      "tafRaw": "TAF LIRN 151100Z 1512/1612 VRB05KT CAVOK"
    },
    {
      "icao": "LLBG",
      "iata": "TLV",
      "name": "Ben Gurion International Airport",
      "updatedAt": "151120Z",
      "visibility_m": 10000,
      "taf_visibility_m": 10000,
      "worst_visibility_m": 10000,
      "ceiling_ft": 3500,
      "hazards": [],
      "severityScore": 0,
      "metarRaw": "METAR LLBG 151120Z VRB02KT 9999 SCT047 18/06 Q1023 NOSIG",
      "tafRaw": "TAF LLBG 151112Z 1512/1612 32010KT 9999 FEW040 \n  BECMG 1515/1517 VRB04KT \n  PROB40 \n  TEMPO 1522/1607 16007KT BKN035 \n  BECMG 1607/1610 28008KT TX18/1512Z TN11/1604Z"
    },
    {
      "icao": "LMML",
      "iata": "MLA",
      "name": "Malta International Airport",
      "updatedAt": "151145Z",
      "visibility_m": 10000,
      "taf_visibility_m": 10000,
      "worst_visibility_m": 10000,
      "ceiling_ft": null,
      "hazards": [],
      "severityScore": 0,
      "metarRaw": "METAR LMML 151145Z 15010KT 120V180 9999 FEW017 18/14 Q1022 NOSIG",
      "tafRaw": "TAF LMML 151100Z 1512/1612 15012KT 9999 FEW018"
    },
    {
      "icao": "LQBK",
      "iata": "BNX",
      "name": "Banja Luka International Airport",
      "updatedAt": "151130Z",
      "visibility_m": 10000,
      "taf_visibility_m": 10000,
      "worst_visibility_m": 10000,
      "ceiling_ft": null,
      "hazards": [],
      "severityScore": 0,
      "metarRaw": "METAR LQBK 151130Z 34003KT CAVOK 05/01 Q1021 NOSIG",
      "tafRaw": "TAF LQBK 151100Z 1512/1612 22005KT CAVOK TX08/1513Z TN02/1605Z"
    },
    {
      "icao": "LWOH",
      "iata": "OHD",
      "name": "Ohrid St. Paul the Apostle Airport",
      "updatedAt": null,
      "visibility_m": null,
      "taf_visibility_m": 10000,
      "worst_visibility_m": 10000,
      "ceiling_ft": null,
      "hazards": [],
      "severityScore": 0,
      "metarRaw": null,
      "tafRaw": "TAF LWOH 151120Z 1512/1612 VRB02KT 9999 FEW033"
    },
    {
      "icao": "LYPG",
      "iata": "TGD",
      "name": "Podgorica Airport / Podgorica Golubovci Airbase",
      "updatedAt": "151130Z",
      "visibility_m": 10000,
      "taf_visibility_m": 10000,
      "worst_visibility_m": 10000,
      "ceiling_ft": 7000,
      "hazards": [],
      "severityScore": 0,
      "metarRaw": "METAR LYPG 151130Z VRB02KT 9999 BKN070 12/06 Q1025 NOSIG",
      "tafRaw": "TAF LYPG 151100Z 1512/1612 17005KT 9999 FEW040 BKN080 TX13/1513Z TN05/1605Z"
    },
    {
      "icao": "OEJN",
      "iata": "JED",
      "name": "King Abdulaziz International Airport",
      "updatedAt": "151100Z",
      "visibility_m": 10000,
      "taf_visibility_m": 2000,
      "worst_visibility_m": 2000,
      "ceiling_ft": null,
      "hazards": [],
      "severityScore": 0,
      "metarRaw": "METAR OEJN 151100Z 32011KT CAVOK 28/08 Q1013 NOSIG",
      "tafRaw": "TAF OEJN 151100Z 1512/1618 33014KT 9999 FEW040 \n  BECMG 1522/1600 09012KT 7000 \n  TEMPO 1522/1608 2000 DU \n  BECMG 1610/1612 28010KT"
    },
    {
      "icao": "OEMA",
      "iata": "MED",
      "name": "Prince Mohammad Bin Abdulaziz Airport",
      "updatedAt": "151100Z",
      "visibility_m": 10000,
      "taf_visibility_m": 2000,
      "worst_visibility_m": 2000,
      "ceiling_ft": null,
      "hazards": [],
      "severityScore": 0,
      "metarRaw": "METAR OEMA 151100Z 11009KT CAVOK 21/M02 Q1021 NOSIG",
      "tafRaw": "TAF OEMA 151100Z 1512/1618 08012KT 7000 NSC \n  TEMPO 1518/1608 2000 DU"
    },
    {
      "icao": "OMAA",
      "iata": "AUH",
      "name": "Zayed International Airport",
      "updatedAt": "151100Z",
      "visibility_m": 10000,
      "taf_visibility_m": 8000,
      "worst_visibility_m": 8000,
      "ceiling_ft": null,
      "hazards": [],
      "severityScore": 0,
      "metarRaw": "METAR OMAA 151100Z 29014KT 260V320 CAVOK 26/11 Q1015 NOSIG",
      "tafRaw": "TAF OMAA 151100Z 1512/1618 32015KT 8000 FEW045"
    },
    {
      "icao": "OMDB",
      "iata": "DXB",
      "name": "Dubai International Airport",
      "updatedAt": "151130Z",
      "visibility_m": 10000,
      "taf_visibility_m": 8000,
      "worst_visibility_m": 8000,
      "ceiling_ft": null,
      "hazards": [],
      "severityScore": 0,
      "metarRaw": "METAR OMDB 151130Z 28014KT 240V310 CAVOK 27/07 Q1015 NOSIG",
      "tafRaw": "TAF OMDB 151100Z 1512/1618 28014KT 8000 NSC \n  PROB30 \n  TEMPO 1606/1615 29018G28KT"
    }
  ],
  "stats": {
    "icaoCount": 159,
    "metarReturned": 156,
    "tafReturned": 156,
    "stationsWritten": 159,
    "missingMetar": 3,
    "missingTaf": 3
  },
  "errors": []
}