{
  "generatedAt": "2026-01-27T03:17:41.643Z",
  "stations": [
    {
      "icao": "EBCI",
      "iata": "CRL",
      "name": "Brussels South Charleroi Airport",
      "lat": 50.461963,
      "lon": 4.459562,
      "updatedAt": "270250Z",
      "visibility_m": 8000,
      "taf_visibility_m": 800,
      "worst_visibility_m": 800,
      "ceiling_ft": 200,
      "hazards": [
        "FG",
        "BR",
        "RA",
        "DZ"
      ],
      "severityScore": 100,
      "metarRaw": "METAR EBCI 270250Z 12006KT 8000 FEW032 03/02 Q0999 NOSIG",
      "tafRaw": "TAF EBCI 262319Z 2700/2806 14010KT 6000 SCT010 BKN030 \n  PROB30 \n  TEMPO 2700/2703 3500 BR BKN008 \n  BECMG 2705/2707 4000 -RA -RADZ SCT008 BKN013 \n  TEMPO 2706/2718 BKN005 BKN008 \n  BECMG 2718/2720 20005KT FEW012 BKN030 \n  TEMPO 2800/2806 3000 BR SCT004 BKN005 \n  PROB40 \n  TEMPO 2802/2806 0800 FG BKN002"
    },
    {
      "icao": "EDDB",
      "iata": "BER",
      "name": "Berlin Brandenburg Willy Brandt Airport",
      "lat": 52.361738,
      "lon": 13.502341,
      "updatedAt": "270250Z",
      "visibility_m": 4500,
      "taf_visibility_m": 1100,
      "worst_visibility_m": 1100,
      "ceiling_ft": 900,
      "hazards": [
        "BR",
        "FZDZ",
        "FG",
        "DZ"
      ],
      "severityScore": 100,
      "metarRaw": "METAR EDDB 270250Z AUTO 36002KT 4500 BR SCT003 BKN009 OVC021 M02/M02 Q1001 NOSIG",
      "tafRaw": "TAF EDDB 262300Z 2700/2724 VRB03KT 5000 BR OVC006 \n  BECMG 2700/2703 4500 BR BKN003 \n  PROB30 \n  TEMPO 2704/2708 1100 -FZDZ BR \n  BECMG 2707/2710 6000 \n  BECMG 2710/2713 BKN008 \n  BECMG 2715/2718 OVC015 \n  BECMG 2720/2722 BKN004 \n  TEMPO 2721/2723 2000 BCFG BKN001"
    },
    {
      "icao": "EDSB",
      "iata": "FKB",
      "name": "Karlsruhe Baden-Baden Airport",
      "lat": 48.7794,
      "lon": 8.0805,
      "updatedAt": "270250Z",
      "visibility_m": 450,
      "taf_visibility_m": 400,
      "worst_visibility_m": 400,
      "ceiling_ft": 100,
      "hazards": [
        "FZFG",
        "FG"
      ],
      "severityScore": 100,
      "metarRaw": "METAR EDSB 270250Z AUTO 07002KT 0500 0450 R21/0550D SCT240/// M01/M01 Q1003",
      "tafRaw": "TAF EDSB 262300Z 2700/2724 VRB03KT 9999 BKN040 \n  PROB40 \n  TEMPO 2704/2709 1200 BCFG \n  PROB30 \n  TEMPO 2706/2708 0400 FZFG BKN001"
    },
    {
      "icao": "EGKK",
      "iata": "LGW",
      "name": "London Gatwick Airport",
      "lat": 51.148771,
      "lon": -0.192089,
      "updatedAt": "270250Z",
      "visibility_m": 10000,
      "taf_visibility_m": 1200,
      "worst_visibility_m": 1200,
      "ceiling_ft": 200,
      "hazards": [
        "RA",
        "BR",
        "SHRA",
        "FG",
        "DZ"
      ],
      "severityScore": 100,
      "metarRaw": "METAR EGKK 270250Z AUTO 12014G27KT 9999 -RA BKN009/// OVC037/// 07/06 Q0990",
      "tafRaw": "TAF EGKK 262257Z 2700/2806 11010KT 9999 SCT015 \n  TEMPO 2700/2713 6000 RA BKN007 \n  TEMPO 2701/2710 13020G33KT \n  PROB40 \n  TEMPO 2701/2712 3000 +RA RADZ \n  BECMG 2708/2711 18009KT \n  PROB30 \n  TEMPO 2716/2721 7000 SHRA \n  TEMPO 2721/2806 6000 -RA \n  PROB30 \n  TEMPO 2800/2806 1200 BR MIFG BKN002"
    },
    {
      "icao": "EGNM",
      "iata": "LBA",
      "name": "Leeds Bradford Airport",
      "lat": 53.865898,
      "lon": -1.66057,
      "updatedAt": null,
      "visibility_m": null,
      "taf_visibility_m": 700,
      "worst_visibility_m": 700,
      "ceiling_ft": 100,
      "hazards": [
        "FG",
        "BR",
        "RA",
        "SN",
        "DZ"
      ],
      "severityScore": 100,
      "metarRaw": null,
      "tafRaw": "TAF EGNM 261657Z 2618/2718 11008KT 6000 SCT007 BKN010 \n  PROB40 \n  TEMPO 2618/2620 3500 BR BKN007 \n  TEMPO 2620/2704 4000 RA -RADZ BKN007 \n  PROB30 \n  TEMPO 2620/2624 1400 RASN BR BKN003 \n  BECMG 2621/2624 12015G26KT \n  PROB30 \n  TEMPO 2700/2704 BKN004 \n  BECMG 2701/2704 BKN006 \n  TEMPO 2704/2714 12018G36KT 3000 RA -RADZ BKN002 \n  PROB30 \n  TEMPO 2704/2712 0700 FG RASN BKN001 \n  PROB40 2712/2718 0700 FG BKN001 \n  BECMG 2716/2718 12009KT"
    },
    {
      "icao": "EPKK",
      "iata": "KRK",
      "name": "Kraków John Paul II International Airport",
      "lat": 50.077702,
      "lon": 19.7848,
      "updatedAt": "270300Z",
      "visibility_m": 100,
      "taf_visibility_m": 100,
      "worst_visibility_m": 100,
      "ceiling_ft": 0,
      "hazards": [
        "FZFG",
        "FG",
        "BR",
        "SN",
        "FZRA",
        "RA",
        "DZ"
      ],
      "severityScore": 100,
      "metarRaw": "METAR EPKK 270300Z 05002KT 0100 R25/0500N FZFG VV000 M03/M04 Q1003",
      "tafRaw": "TAF EPKK 270230Z 2703/2803 VRB02KT 0100 FZFG OVC000 \n  PROB30 2703/2706 0300 FZFG OVC001 \n  BECMG 2706/2709 3000 BR BKN012 \n  PROB30 2706/2709 -FZRADZ \n  BECMG 2709/2712 9999 BKN025 \n  BECMG 2718/2721 4000 BR \n  BECMG 2721/2724 0500 FZFG BKN001 \n  BECMG 2800/2803 2000 -SN BR BKN004"
    },
    {
      "icao": "EPKT",
      "iata": "KTW",
      "name": "Katowice Wojciech Korfanty International Airport",
      "lat": 50.476015,
      "lon": 19.080705,
      "updatedAt": "270300Z",
      "visibility_m": 7000,
      "taf_visibility_m": 700,
      "worst_visibility_m": 700,
      "ceiling_ft": 200,
      "hazards": [
        "FZFG",
        "BR",
        "SN",
        "FZRA",
        "FG",
        "RA",
        "DZ"
      ],
      "severityScore": 100,
      "metarRaw": "METAR EPKT 270300Z 19005KT 7000 NSC M01/M02 Q1002",
      "tafRaw": "TAF EPKT 262330Z 2700/2724 VRB02KT 5000 BR NSC \n  TEMPO 2700/2703 1200 BR \n  PROB30 \n  TEMPO 2700/2703 0700 FZFG BKN002 \n  TEMPO 2703/2709 1400 -SNRA BR BKN004 BKN009 \n  PROB30 2703/2707 -FZRADZ \n  TEMPO 2715/2724 2000 -SN BR BKN005 BKN010"
    },
    {
      "icao": "EPLB",
      "iata": "LUZ",
      "name": "Lublin Airport",
      "lat": 51.240157,
      "lon": 22.713461,
      "updatedAt": "270300Z",
      "visibility_m": 500,
      "taf_visibility_m": 700,
      "worst_visibility_m": 500,
      "ceiling_ft": 4000,
      "hazards": [
        "FG",
        "FZRA",
        "RA",
        "FZFG",
        "BR",
        "FZDZ",
        "DZ"
      ],
      "severityScore": 100,
      "metarRaw": "METAR EPLB 270300Z 12002KT 0500 R25/0700N -FZRA FG FEW003 BKN040 01/01 Q1002",
      "tafRaw": "TAF EPLB 262330Z 2700/2724 VRB03KT 2000 BR BKN007 \n  TEMPO 2700/2708 1000 -RADZ BR BKN003 \n  PROB40 \n  TEMPO 2700/2707 0700 -FZDZ FZFG \n  BECMG 2708/2711 6000 \n  TEMPO 2708/2712 BKN003 \n  BECMG 2715/2718 3000 BR BKN003 \n  TEMPO 2716/2724 0800 FZFG BKN001"
    },
    {
      "icao": "EPMO",
      "iata": "WMI",
      "name": "Modlin Airport",
      "lat": 52.451099,
      "lon": 20.6518,
      "updatedAt": "270300Z",
      "visibility_m": 150,
      "taf_visibility_m": 200,
      "worst_visibility_m": 150,
      "ceiling_ft": 100,
      "hazards": [
        "FZFG",
        "FG",
        "BR"
      ],
      "severityScore": 100,
      "metarRaw": "METAR EPMO 270300Z 06002KT 0150 R08/0225N FZFG VV001 M03/M03 Q1002",
      "tafRaw": "TAF EPMO 262330Z 2700/2724 VRB03KT 2000 BR NSC \n  TEMPO 2700/2708 0500 FZFG OVC002 \n  PROB40 \n  TEMPO 2700/2707 0200 FZFG BKN001 \n  BECMG 2708/2711 6000 BKN005 \n  TEMPO 2711/2715 3000 -SG BR BKN003 \n  BECMG 2715/2718 2500 BR \n  TEMPO 2715/2724 0500 -SG FZFG BKN002"
    },
    {
      "icao": "EPPO",
      "iata": "POZ",
      "name": "Poznań-Ławica Airport",
      "lat": 52.421598,
      "lon": 16.823359,
      "updatedAt": "270300Z",
      "visibility_m": 2400,
      "taf_visibility_m": 100,
      "worst_visibility_m": 100,
      "ceiling_ft": 200,
      "hazards": [
        "BR",
        "SN",
        "FZFG",
        "FG",
        "RA"
      ],
      "severityScore": 100,
      "metarRaw": "METAR EPPO 270300Z 27004KT 2400 -SN BR OVC002 M00/M01 Q1002",
      "tafRaw": "TAF EPPO 262330Z 2700/2724 VRB02KT 0100 FG OVC001 \n  TEMPO 2700/2707 3000 -SN -SNRA BR OVC005 \n  BECMG 2707/2709 4000 BR BKN005 \n  TEMPO 2709/2715 2000 -SN BR OVC002 \n  BECMG 2715/2718 2000 BR OVC002 \n  BECMG 2718/2721 0500 FZFG OVC001"
    },
    {
      "icao": "EPRA",
      "iata": "RDO",
      "name": "Warsaw Radom Airport",
      "lat": 51.38937,
      "lon": 21.214742,
      "updatedAt": "270300Z",
      "visibility_m": 3000,
      "taf_visibility_m": 600,
      "worst_visibility_m": 600,
      "ceiling_ft": 400,
      "hazards": [
        "BR",
        "RA",
        "FZFG",
        "FG"
      ],
      "severityScore": 100,
      "metarRaw": "METAR EPRA 270300Z 26003KT 3000 BR NSC 01/00 Q1002",
      "tafRaw": "TAF EPRA 270230Z 2703/2712 24005KT 3000 BR SCT040 \n  PROB40 2704/2708 0600 FZFG OVC004 \n  BECMG 2707/2709 7000 BKN020"
    },
    {
      "icao": "EPSC",
      "iata": "SZZ",
      "name": "Solidarity Szczecin–Goleniów Airport",
      "lat": 53.584702,
      "lon": 14.9022,
      "updatedAt": "270300Z",
      "visibility_m": 250,
      "taf_visibility_m": null,
      "worst_visibility_m": 250,
      "ceiling_ft": 100,
      "hazards": [
        "FZFG",
        "FG"
      ],
      "severityScore": 100,
      "metarRaw": "METAR EPSC 270300Z 08003KT 0250 R31/0750N FZFG VV001 M01/M01 Q1002",
      "tafRaw": null
    },
    {
      "icao": "EPSY",
      "iata": "SZY",
      "name": "Olsztyn-Mazury Airport",
      "lat": 53.481899,
      "lon": 20.9377,
      "updatedAt": "270300Z",
      "visibility_m": 400,
      "taf_visibility_m": 200,
      "worst_visibility_m": 200,
      "ceiling_ft": 100,
      "hazards": [
        "FZFG",
        "FG",
        "BR"
      ],
      "severityScore": 100,
      "metarRaw": "METAR EPSY 270300Z 06003KT 030V090 0400 0300W R01/0450N FZFG VV001 M01/M01 Q1002",
      "tafRaw": "TAF EPSY 270230Z 2703/2712 VRB02KT 0600 FZFG OVC002 \n  TEMPO 2703/2708 0200 FZFG OVC001 \n  BECMG 2708/2710 3000 BR BKN005"
    },
    {
      "icao": "EPWA",
      "iata": "WAW",
      "name": "Warsaw Chopin Airport",
      "lat": 52.165699,
      "lon": 20.9671,
      "updatedAt": "270300Z",
      "visibility_m": 500,
      "taf_visibility_m": 200,
      "worst_visibility_m": 200,
      "ceiling_ft": 200,
      "hazards": [
        "FZFG",
        "BR",
        "FG",
        "SN",
        "FZDZ",
        "DZ"
      ],
      "severityScore": 100,
      "metarRaw": "METAR EPWA 270300Z 00000KT 2200 0600W BCFG BR NSC M01/M02 Q1002 BECMG 0500 FZFG OVC002",
      "tafRaw": "TAF EPWA 270230Z 2703/2803 VRB02KT 2000 BR NSC \n  BECMG 2703/2705 0600 FZFG \n  TEMPO 2703/2711 0200 FZFG BKN001 OVC002 \n  BECMG 2711/2713 6000 NSW OVC003 \n  TEMPO 2712/2719 3000 -SN BR \n  PROB30 \n  TEMPO 2712/2715 -FZDZ \n  TEMPO 2719/2803 0500 FG OVC002"
    },
    {
      "icao": "EPWR",
      "iata": "WRO",
      "name": "Copernicus Wrocław Airport",
      "lat": 51.103719,
      "lon": 16.882096,
      "updatedAt": "270300Z",
      "visibility_m": 10000,
      "taf_visibility_m": 600,
      "worst_visibility_m": 600,
      "ceiling_ft": 2300,
      "hazards": [
        "FZFG",
        "BR",
        "SN",
        "SHSN",
        "FG",
        "RA"
      ],
      "severityScore": 100,
      "metarRaw": "METAR EPWR 270300Z 28004KT 9999 OVC023 00/M01 Q1003",
      "tafRaw": "TAF EPWR 270230Z 2703/2803 31006KT 8000 BKN013 \n  BECMG 2703/2705 4000 -SNRA BR OVC007 \n  TEMPO 2703/2708 2500 -SNRA BR OVC003 \n  PROB30 \n  TEMPO 2703/2708 0800 SN OVC001 \n  BECMG 2708/2710 8000 BKN020 \n  TEMPO 2711/2718 2500 -SHSN SCT008 BKN012TCU \n  BECMG 2718/2721 2000 -SN BR OVC004 \n  TEMPO 2721/2803 0600 FZFG OVC001"
    },
    {
      "icao": "EYKA",
      "iata": "KUN",
      "name": "Kaunas International Airport",
      "lat": 54.963965,
      "lon": 24.08582,
      "updatedAt": "270250Z",
      "visibility_m": 3800,
      "taf_visibility_m": 600,
      "worst_visibility_m": 600,
      "ceiling_ft": 300,
      "hazards": [
        "BR",
        "FZDZ",
        "DZ",
        "FZFG",
        "SN",
        "FG"
      ],
      "severityScore": 100,
      "metarRaw": "METAR EYKA 270250Z 03003KT 340V070 3800 -FZDZ BR OVC003 M03/M04 Q1006",
      "tafRaw": "TAF EYKA 262307Z 2700/2724 VRB04KT 3000 SN OVC005 \n  TEMPO 2700/2708 0600 FZDZ FZFG OVC002 \n  BECMG 2708/2710 06011KT \n  TEMPO 2710/2718 1500 BKN002"
    },
    {
      "icao": "EYVI",
      "iata": "VNO",
      "name": "Vilnius International Airport",
      "lat": 54.634102,
      "lon": 25.285801,
      "updatedAt": "270250Z",
      "visibility_m": 3700,
      "taf_visibility_m": 600,
      "worst_visibility_m": 600,
      "ceiling_ft": 300,
      "hazards": [
        "BR",
        "FZFG",
        "SN",
        "FZDZ",
        "FG",
        "DZ"
      ],
      "severityScore": 100,
      "metarRaw": "METAR EYVI 270250Z 06004KT 3700 BR OVC003 M04/M04 Q1005 NOSIG",
      "tafRaw": "TAF EYVI 262306Z 2700/2724 VRB04KT 3000 BR OVC005 \n  TEMPO 2700/2708 0600 FZDZ FZFG OVC002 \n  BECMG 2708/2709 09010KT 1500 SN \n  TEMPO 2712/2724 5000"
    },
    {
      "icao": "LBSF",
      "iata": "SOF",
      "name": "Sofia Airport",
      "lat": 42.696357,
      "lon": 23.417671,
      "updatedAt": "270300Z",
      "visibility_m": 10000,
      "taf_visibility_m": 800,
      "worst_visibility_m": 800,
      "ceiling_ft": 300,
      "hazards": [
        "RA",
        "SN",
        "FG"
      ],
      "severityScore": 100,
      "metarRaw": "METAR LBSF 270300Z AUTO 27011KT 9999 -RA BKN009/// OVC017/// 05/04 Q0998 NOSIG",
      "tafRaw": "TAF LBSF 262300Z 2700/2724 VRB03KT 5000 RA SCT015 OVC030 \n  PROB30 2700/2702 0800 BCFG BKN003 OVC010 \n  BECMG 2703/2704 29012KT RA \n  PROB30 \n  TEMPO 2715/2718 3000 RASN BKN015 OVC030"
    },
    {
      "icao": "LBWN",
      "iata": "VAR",
      "name": "Varna Airport",
      "lat": 43.232101,
      "lon": 27.8251,
      "updatedAt": "270300Z",
      "visibility_m": 3000,
      "taf_visibility_m": 500,
      "worst_visibility_m": 500,
      "ceiling_ft": 300,
      "hazards": [
        "BR",
        "RA",
        "FG"
      ],
      "severityScore": 100,
      "metarRaw": "METAR LBWN 270300Z AUTO 13005KT 4600 BR SCT002/// BKN005/// 08/08 Q0999 TEMPO 3000 BR",
      "tafRaw": "TAF LBWN 262300Z 2700/2724 08008KT 7000 BKN012 OVC025 \n  TEMPO 2700/2707 4000 RA BR SCT005 BKN008 OVC012 \n  PROB40 2700/2706 0500 BCFG BKN003 \n  TEMPO 2713/2718 5000 RA \n  BECMG 2718/2719 28010KT"
    },
    {
      "icao": "LFPO",
      "iata": "ORY",
      "name": "Paris-Orly Airport",
      "lat": 48.72333,
      "lon": 2.37944,
      "updatedAt": "270300Z",
      "visibility_m": 3500,
      "taf_visibility_m": 700,
      "worst_visibility_m": 700,
      "ceiling_ft": 800,
      "hazards": [
        "RA",
        "FG",
        "BR",
        "SHRA"
      ],
      "severityScore": 100,
      "metarRaw": "METAR LFPO 270300Z AUTO 15007KT 9999 -RA NSC 05/03 Q0995 TEMPO 3500 -RA",
      "tafRaw": "TAF LFPO 262300Z 2700/2806 14009KT CAVOK \n  TEMPO 2701/2714 18010KT 3500 -RA \n  PROB40 \n  TEMPO 2710/2714 BKN008 \n  PROB30 \n  TEMPO 2714/2717 -SHRA SCT012TCU \n  PROB40 2804/2806 4000 BR \n  PROB30 2805/2806 0700 FG VV///"
    },
    {
      "icao": "LHBP",
      "iata": "BUD",
      "name": "Budapest Liszt Ferenc International Airport",
      "lat": 47.43018,
      "lon": 19.262393,
      "updatedAt": "270300Z",
      "visibility_m": 600,
      "taf_visibility_m": 100,
      "worst_visibility_m": 100,
      "ceiling_ft": 100,
      "hazards": [
        "FZFG",
        "BR",
        "FG",
        "FZDZ",
        "DZ"
      ],
      "severityScore": 100,
      "metarRaw": "METAR LHBP 270300Z 27001KT 1500 R31L/0650U R31R/0900N BCFG BR NSC M04/M04 Q1004 TEMPO 0600 FZFG",
      "tafRaw": "TAF LHBP 262315Z 2700/2724 31005KT 5000 BCFG BR NSC \n  TEMPO 2700/2709 VRB02KT 0800 FZFG \n  PROB40 2700/2709 0100 FZDZ FZFG VV001 \n  BECMG 2709/2712 22006KT 9999 NSW SCT020 \n  TEMPO 2712/2716 CAVOK \n  BECMG 2714/2717 13006KT \n  TEMPO 2716/2724 4000 BR BKN004"
    },
    {
      "icao": "LHDC",
      "iata": "DEB",
      "name": "Debrecen International Airport",
      "lat": 47.488899,
      "lon": 21.615299,
      "updatedAt": "270245Z",
      "visibility_m": 2100,
      "taf_visibility_m": 800,
      "worst_visibility_m": 800,
      "ceiling_ft": 400,
      "hazards": [
        "BR",
        "FG",
        "RA"
      ],
      "severityScore": 100,
      "metarRaw": "METAR LHDC 270245Z AUTO VRB02KT 2100 BR VV004 03/03 Q1002",
      "tafRaw": "TAF LHDC 261715Z 2618/2703 VRB03KT 6000 -RA SCT010 OVC030 \n  TEMPO 2618/2622 1400 RA BR BKN004 OVC015 \n  BECMG 2621/2624 0800 FG OVC002"
    },
    {
      "icao": "LIPH",
      "iata": "TSF",
      "name": "Treviso Antonio Canova Airport",
      "lat": 45.648399,
      "lon": 12.1944,
      "updatedAt": "270250Z",
      "visibility_m": 2700,
      "taf_visibility_m": 100,
      "worst_visibility_m": 100,
      "ceiling_ft": 200,
      "hazards": [
        "FG",
        "FZFG",
        "BR",
        "RA"
      ],
      "severityScore": 100,
      "metarRaw": "METAR LIPH 270250Z AUTO 24002KT 2700 BCFG VV002 00/00 Q1005",
      "tafRaw": "TAF LIPH 262300Z 2700/2724 VRB05KT 0600 FG BKN004 \n  TEMPO 2703/2706 0100 FZFG \n  TEMPO 2710/2715 3000 BR SCT005 \n  BECMG 2719/2721 03010KT 3000 RA"
    },
    {
      "icao": "LIPX",
      "iata": "VRN",
      "name": "Verona Villafranca Valerio Catullo Airport",
      "lat": 45.394955,
      "lon": 10.887303,
      "updatedAt": "270250Z",
      "visibility_m": 6000,
      "taf_visibility_m": 500,
      "worst_visibility_m": 500,
      "ceiling_ft": 400,
      "hazards": [
        "FG",
        "BR",
        "RA"
      ],
      "severityScore": 100,
      "metarRaw": "METAR LIPX 270250Z VRB02KT 6000 NSC M01/M01 Q1006",
      "tafRaw": "TAF LIPX 262300Z 2700/2724 VRB04KT 4000 BR SCT020 \n  TEMPO 2700/2707 0500 FG BKN004 \n  BECMG 2707/2709 6000 \n  BECMG 2717/2719 4000 RA"
    },
    {
      "icao": "LIPZ",
      "iata": "VCE",
      "name": "Venice Marco Polo Airport",
      "lat": 45.505299,
      "lon": 12.3519,
      "updatedAt": "270250Z",
      "visibility_m": 200,
      "taf_visibility_m": 50,
      "worst_visibility_m": 50,
      "ceiling_ft": 300,
      "hazards": [
        "FG",
        "FZFG",
        "BR",
        "RA"
      ],
      "severityScore": 100,
      "metarRaw": "METAR LIPZ 270250Z 29003KT 0200 R04R/0600D FG BKN003 00/00 Q1006 NOSIG",
      "tafRaw": "TAF LIPZ 262300Z 2700/2806 25005KT 4000 BR FEW020 \n  BECMG 2700/2702 0200 FG BKN002 \n  TEMPO 2704/2708 0050 FZFG \n  TEMPO 2713/2717 2000 BR \n  BECMG 2720/2722 04010KT 4000 RA BKN020"
    },
    {
      "icao": "LIRF",
      "iata": "FCO",
      "name": "Rome–Fiumicino Leonardo da Vinci International Airport",
      "lat": 41.804532,
      "lon": 12.251998,
      "updatedAt": "270250Z",
      "visibility_m": 10000,
      "taf_visibility_m": 800,
      "worst_visibility_m": 800,
      "ceiling_ft": 1000,
      "hazards": [
        "FG",
        "TSRA",
        "RA",
        "TS"
      ],
      "severityScore": 100,
      "metarRaw": "METAR LIRF 270250Z 06006KT CAVOK 02/02 Q1007 NOSIG",
      "tafRaw": "TAF LIRF 262300Z 2700/2806 05005KT CAVOK \n  BECMG 2702/2704 3000 BCFG \n  PROB40 \n  TEMPO 2704/2708 0800 FG \n  BECMG 2708/2710 9999 NSW \n  BECMG 2712/2714 20010KT \n  BECMG 2716/2718 13016KT \n  BECMG 2722/2724 15022G35KT 4000 RA OVC010 \n  TEMPO 2803/2806 TSRA \n  BECMG 2804/2806 22024G40KT"
    },
    {
      "icao": "LIRZ",
      "iata": "PEG",
      "name": "Perugia San Francesco d'Assisi – Umbria International Airport",
      "lat": 43.095901,
      "lon": 12.5132,
      "updatedAt": "270250Z",
      "visibility_m": 10000,
      "taf_visibility_m": 500,
      "worst_visibility_m": 500,
      "ceiling_ft": 500,
      "hazards": [
        "FG",
        "BR",
        "RA"
      ],
      "severityScore": 100,
      "metarRaw": "METAR LIRZ 270250Z AUTO 02005KT 9999 NCD 00/M00 Q1007",
      "tafRaw": "TAF LIRZ 262300Z 2700/2724 VRB04KT 7000 SCT020 \n  BECMG 2700/2702 3000 BR \n  TEMPO 2702/2710 0500 FG BKN005 \n  BECMG 2711/2713 8000 \n  BECMG 2716/2718 19013KT \n  BECMG 2722/2724 RA"
    },
    {
      "icao": "LJLJ",
      "iata": "LJU",
      "name": "Ljubljana Jože Pučnik Airport",
      "lat": 46.223701,
      "lon": 14.4576,
      "updatedAt": "270300Z",
      "visibility_m": 4000,
      "taf_visibility_m": 300,
      "worst_visibility_m": 300,
      "ceiling_ft": 300,
      "hazards": [
        "BR",
        "FZFG",
        "FG"
      ],
      "severityScore": 100,
      "metarRaw": "METAR LJLJ 270300Z 07002KT 4000 BR OVC003 M00/M01 Q1006 NOSIG",
      "tafRaw": "TAF LJLJ 262300Z 2700/2800 30003KT 0300 FZFG VV001 \n  TEMPO 2700/2712 0600 \n  BECMG 2712/2714 8000 NSW FEW010"
    },
    {
      "icao": "LOWW",
      "iata": "VIE",
      "name": "Vienna International Airport",
      "lat": 48.110298,
      "lon": 16.5697,
      "updatedAt": "270250Z",
      "visibility_m": 10000,
      "taf_visibility_m": 1200,
      "worst_visibility_m": 1200,
      "ceiling_ft": 100,
      "hazards": [
        "BR",
        "FZDZ",
        "FG",
        "DZ"
      ],
      "severityScore": 100,
      "metarRaw": "METAR LOWW 270250Z 28008KT CAVOK 04/M00 Q1004 NOSIG",
      "tafRaw": "TAF LOWW 270215Z 2703/2809 20004KT CAVOK TX03/2713Z TNM01/2722Z \n  PROB40 \n  TEMPO 2703/2706 28008KT \n  BECMG 2706/2708 15007KT \n  BECMG 2711/2713 3000 BR FEW001 BKN004 \n  PROB40 \n  TEMPO 2715/2809 1200 BCFG BKN001 \n  PROB30 \n  TEMPO 2801/2808 -FZDZ"
    },
    {
      "icao": "LRBC",
      "iata": "BCM",
      "name": "Bacău George Enescu International  Airport",
      "lat": 46.5219,
      "lon": 26.910299,
      "updatedAt": "270300Z",
      "visibility_m": 900,
      "taf_visibility_m": 300,
      "worst_visibility_m": 300,
      "ceiling_ft": 300,
      "hazards": [
        "FG",
        "RA",
        "DZ",
        "BR"
      ],
      "severityScore": 100,
      "metarRaw": "METAR LRBC 270300Z 15004KT 0900 R16/1100U -DZRA FG VV003 03/03 Q1004",
      "tafRaw": "TAF LRBC 270200Z 2703/2712 VRB04KT 0600 FG OVC002 \n  TEMPO 2703/2706 0300 -DZRA FG OVC001 \n  BECMG 2707/2709 1500 -RA BR BKN005 OVC015 \n  BECMG 2709/2711 3000 BKN010 OVC025"
    },
    {
      "icao": "LRBS",
      "iata": "BBU",
      "name": "Bucharest Băneasa Aurel Vlaicu International Airport",
      "lat": 44.503133,
      "lon": 26.102944,
      "updatedAt": "270300Z",
      "visibility_m": 800,
      "taf_visibility_m": 300,
      "worst_visibility_m": 300,
      "ceiling_ft": 200,
      "hazards": [
        "FG",
        "BR",
        "DZ",
        "RA"
      ],
      "severityScore": 100,
      "metarRaw": "METAR LRBS 270300Z 04012KT 010V080 1400 R07/2000N -DZ BR OVC002 05/05 Q1001 TEMPO 0800 -DZ FG",
      "tafRaw": "TAF LRBS 262300Z 2700/2724 07014KT 1500 BR OVC001 \n  TEMPO 2700/2707 0600 -RADZ FG \n  PROB30 \n  TEMPO 2702/2707 0300 FG \n  BECMG 2708/2710 VRB04KT 3000 BKN003 \n  TEMPO 2710/2716 5000 SCT005 OVC010 \n  BECMG 2716/2718 1500 BR \n  TEMPO 2717/2724 0300 FG OVC001"
    },
    {
      "icao": "LRCV",
      "iata": "CRA",
      "name": "Craiova International Airport",
      "lat": 44.3181,
      "lon": 23.888599,
      "updatedAt": "270300Z",
      "visibility_m": 6000,
      "taf_visibility_m": 800,
      "worst_visibility_m": 800,
      "ceiling_ft": 300,
      "hazards": [
        "RA",
        "FG",
        "BR",
        "DZ"
      ],
      "severityScore": 100,
      "metarRaw": "METAR LRCV 270300Z 09011KT 6000 -RA OVC003 06/06 Q1000",
      "tafRaw": "TAF LRCV 270200Z 2703/2712 09010KT 3000 -RA BR BKN003 OVC010 \n  TEMPO 2703/2706 0800 -RADZ FG OVC001 \n  BECMG 2708/2710 VRB04KT 5000 BKN010 OVC030"
    },
    {
      "icao": "LROP",
      "iata": "OTP",
      "name": "Bucharest Henri Coandă International Airport",
      "lat": 44.571792,
      "lon": 26.103285,
      "updatedAt": "270300Z",
      "visibility_m": 1500,
      "taf_visibility_m": 300,
      "worst_visibility_m": 300,
      "ceiling_ft": 100,
      "hazards": [
        "BR",
        "DZ",
        "RA",
        "FG"
      ],
      "severityScore": 100,
      "metarRaw": "METAR LROP 270300Z 05017KT 3500 -DZRA BR OVC002 05/05 Q1001 TEMPO 1500 -DZ BR OVC001",
      "tafRaw": "TAF LROP 262300Z 2700/2724 07014KT 1500 BR OVC001 \n  TEMPO 2700/2707 0600 -RADZ FG \n  PROB30 \n  TEMPO 2702/2707 0300 FG \n  BECMG 2708/2710 VRB04KT 3000 BKN003 \n  TEMPO 2710/2716 5000 SCT005 OVC010 \n  BECMG 2716/2718 1500 BR \n  TEMPO 2717/2724 0300 FG OVC001"
    },
    {
      "icao": "LRSM",
      "iata": "SUJ",
      "name": "Satu Mare International Airport",
      "lat": 47.7033,
      "lon": 22.8857,
      "updatedAt": "270300Z",
      "visibility_m": 650,
      "taf_visibility_m": 800,
      "worst_visibility_m": 650,
      "ceiling_ft": 200,
      "hazards": [
        "SHRA",
        "RA",
        "FG",
        "BR",
        "DZ"
      ],
      "severityScore": 100,
      "metarRaw": "METAR LRSM 270300Z AUTO 22004KT 0650 R19/0750N -SHRA VV002 03/02 Q1002",
      "tafRaw": "TAF LRSM 270200Z 2703/2712 VRB04KT 0800 -RA FG OVC001 \n  TEMPO 2703/2706 1500 -DZRA BR BKN002 OVC010 \n  BECMG 2709/2711 3000 BR OVC005"
    },
    {
      "icao": "LRSV",
      "iata": "SCV",
      "name": "Suceava Stefan cel Mare Airport",
      "lat": 47.6875,
      "lon": 26.35409927368164,
      "updatedAt": "270300Z",
      "visibility_m": 100,
      "taf_visibility_m": 300,
      "worst_visibility_m": 100,
      "ceiling_ft": 100,
      "hazards": [
        "FG",
        "RA"
      ],
      "severityScore": 100,
      "metarRaw": "METAR LRSV 270300Z 14011KT 0100 R34/0400N FG VV001 01/01 Q1002",
      "tafRaw": "TAF LRSV 270200Z 2703/2712 14012KT 0300 -RA FG VV001 \n  BECMG 2706/2708 0600 VV002 \n  BECMG 2709/2710 0800 OVC005"
    },
    {
      "icao": "LRTR",
      "iata": "TSR",
      "name": "Timişoara Traian Vuia Airport",
      "lat": 45.809898,
      "lon": 21.3379,
      "updatedAt": "270300Z",
      "visibility_m": 3500,
      "taf_visibility_m": 600,
      "worst_visibility_m": 600,
      "ceiling_ft": 400,
      "hazards": [
        "BR",
        "RA",
        "FG"
      ],
      "severityScore": 100,
      "metarRaw": "METAR LRTR 270300Z 32004KT 3500 RA BR BKN004 BKN011 05/05 Q1003",
      "tafRaw": "TAF LRTR 262300Z 2700/2724 31006KT 3000 -RA BR BKN005 OVC030 \n  BECMG 2701/2703 1500 BR OVC002 \n  PROB40 \n  TEMPO 2704/2707 0600 FG OVC001 \n  BECMG 2707/2709 3000 OVC005 \n  TEMPO 2711/2716 9999 NSW BKN010 \n  BECMG 2722/2724 0800 FG OVC002"
    },
    {
      "icao": "LUKK",
      "iata": "RMO",
      "name": "Chişinău International Airport",
      "lat": 46.9277,
      "lon": 28.931,
      "updatedAt": "270300Z",
      "visibility_m": 9000,
      "taf_visibility_m": 500,
      "worst_visibility_m": 500,
      "ceiling_ft": 400,
      "hazards": [
        "FZRA",
        "RA",
        "FZFG",
        "BR",
        "FZDZ",
        "FG",
        "DZ"
      ],
      "severityScore": 100,
      "metarRaw": "METAR LUKK 270300Z 08010KT 9000 -FZRA OVC004 M02/M02 Q1006 NOSIG",
      "tafRaw": "TAF LUKK 262325Z 2700/2724 08010KT 4000 -FZRA BR OVC002 \n  TEMPO 2703/2712 1500 OVC001 \n  BECMG 2715/2717 VRB05KT 1500 -FZDZ BR OVC001 \n  TEMPO 2715/2720 0500 -FZDZ FZFG VV/// \n  BECMG 2720/2722 0500 -FZDZ FZFG VV///"
    },
    {
      "icao": "LYBE",
      "iata": "BEG",
      "name": "Belgrade Nikola Tesla Airport",
      "lat": 44.818401,
      "lon": 20.309099,
      "updatedAt": "270300Z",
      "visibility_m": 5000,
      "taf_visibility_m": 500,
      "worst_visibility_m": 500,
      "ceiling_ft": 300,
      "hazards": [
        "BR",
        "FG"
      ],
      "severityScore": 100,
      "metarRaw": "METAR LYBE 270300Z 29011KT 5000 BR OVC003 02/02 Q1005 NOSIG",
      "tafRaw": "TAF LYBE 262300Z 2700/2724 30010KT 5000 BR BKN006 TX10/2712Z TN03/2706Z \n  BECMG 2700/2702 1500 BKN002 \n  PROB40 2703/2707 0500 FG \n  BECMG 2709/2711 9999 NSW SCT013 \n  BECMG 2718/2720 12005KT"
    },
    {
      "icao": "LZIB",
      "iata": "BTS",
      "name": "M. R. Štefánik Airport",
      "lat": 48.1702,
      "lon": 17.2127,
      "updatedAt": "270300Z",
      "visibility_m": 200,
      "taf_visibility_m": null,
      "worst_visibility_m": 200,
      "ceiling_ft": 100,
      "hazards": [
        "FZFG",
        "FG"
      ],
      "severityScore": 100,
      "metarRaw": "METAR LZIB 270300Z 09003KT 0300 R31/0450N R22/0600N FZFG OVC001 M03/M04 Q1005 TEMPO 0200 FZFG OVC001",
      "tafRaw": null
    },
    {
      "icao": "LZKZ",
      "iata": "KSC",
      "name": "Košice International Airport",
      "lat": 48.663101,
      "lon": 21.2411,
      "updatedAt": "270300Z",
      "visibility_m": 500,
      "taf_visibility_m": 200,
      "worst_visibility_m": 200,
      "ceiling_ft": 100,
      "hazards": [
        "FG",
        "BR"
      ],
      "severityScore": 100,
      "metarRaw": "METAR LZKZ 270300Z 27002KT 3500 0900S R01/0650N PRFG SCT001 BKN024 02/02 Q1002 TEMPO 0500 FG BKN001",
      "tafRaw": "TAF LZKZ 262315Z 2700/2800 VRB02KT 5000 BR FEW010 BKN020 \n  TEMPO 2700/2710 2000 BR BKN007 \n  PROB30 \n  TEMPO 2700/2708 0200 FG OVC001 \n  BECMG 2710/2712 23005KT 9999 SCT025 \n  BECMG 2715/2716 2800 BR SCT012 \n  TEMPO 2718/2800 0400 FG FEW003 OVC005"
    },
    {
      "icao": "UAAA",
      "iata": "ALA",
      "name": "Almaty International Airport",
      "lat": 43.354267,
      "lon": 77.042828,
      "updatedAt": "270300Z",
      "visibility_m": 3500,
      "taf_visibility_m": 300,
      "worst_visibility_m": 300,
      "ceiling_ft": 10000,
      "hazards": [
        "BR",
        "FZFG",
        "FG"
      ],
      "severityScore": 100,
      "metarRaw": "METAR UAAA 270300Z 09001MPS 3500 BR FU BKN100 OVC200 M04/M07 Q1021 NOSIG",
      "tafRaw": "TAF UAAA 262301Z 2700/2724 22003MPS 3100 BR FU SCT050 BKN100 TX03/2708Z TNM07/2702Z \n  TEMPO 2700/2705 0400 FZFG VV002 \n  FM270700 01003MPS 9999 SCT050CB BKN100 \n  TEMPO 2707/2713 28003MPS \n  FM271300 22003MPS 3100 BR FU SCT020 BKN050 \n  TEMPO 2716/2724 0300 FZFG VV003"
    },
    {
      "icao": "UDSG",
      "iata": "LWN",
      "name": "Shirak International Airport",
      "lat": 40.750401,
      "lon": 43.859299,
      "updatedAt": "270300Z",
      "visibility_m": 50,
      "taf_visibility_m": 200,
      "worst_visibility_m": 50,
      "ceiling_ft": 100,
      "hazards": [
        "FZFG",
        "FG",
        "BR"
      ],
      "severityScore": 100,
      "metarRaw": "METAR UDSG 270300Z 04004KT 0050 R02/0225N FZFG VV001 M15/M16 Q1020 NOSIG",
      "tafRaw": "TAF UDSG 262258Z 2700/2724 VRB06KT 3000 BR BKN030 \n  TEMPO 2700/2706 0200 FZFG VV002"
    },
    {
      "icao": "UDYZ",
      "iata": "EVN",
      "name": "Zvartnots International Airport",
      "lat": 40.148941,
      "lon": 44.397887,
      "updatedAt": "270300Z",
      "visibility_m": 2200,
      "taf_visibility_m": 600,
      "worst_visibility_m": 600,
      "ceiling_ft": 400,
      "hazards": [
        "BR",
        "FZFG",
        "FG"
      ],
      "severityScore": 100,
      "metarRaw": "METAR UDYZ 270300Z 25004KT 2200 R08/P2000N BR BKN004 M05/M06 Q1024 NOSIG",
      "tafRaw": "TAF UDYZ 262300Z 2700/2724 VRB04KT 2000 BR BKN006 \n  TEMPO 2700/2706 0600 FZFG VV003"
    },
    {
      "icao": "EETN",
      "iata": "TLL",
      "name": "Lennart Meri Tallinn Airport",
      "lat": 59.413246,
      "lon": 24.83264,
      "updatedAt": "270250Z",
      "visibility_m": 10000,
      "taf_visibility_m": 800,
      "worst_visibility_m": 800,
      "ceiling_ft": 1300,
      "hazards": [
        "FZFG",
        "BR",
        "FG"
      ],
      "severityScore": 97,
      "metarRaw": "METAR EETN 270250Z 05005KT 9999 OVC013 M06/M08 Q1013",
      "tafRaw": "TAF EETN 262330Z 2700/2724 03005KT 9999 OVC010 \n  TEMPO 2700/2707 2000 BR OVC005 \n  BECMG 2703/2705 09010KT \n  BECMG 2713/2715 BKN005 OVC010 \n  TEMPO 2717/2721 OVC003 \n  PROB40 \n  TEMPO 2721/2724 0800 FZFG VV001"
    },
    {
      "icao": "LKPR",
      "iata": "PRG",
      "name": "Václav Havel Airport Prague",
      "lat": 50.100874,
      "lon": 14.259911,
      "updatedAt": "270300Z",
      "visibility_m": 10000,
      "taf_visibility_m": 400,
      "worst_visibility_m": 400,
      "ceiling_ft": 3100,
      "hazards": [
        "FZFG",
        "BR",
        "FG"
      ],
      "severityScore": 95,
      "metarRaw": "METAR LKPR 270300Z 21010KT 9999 FEW013 BKN031 M01/M02 Q1002 NOSIG",
      "tafRaw": "TAF LKPR 270200Z 2703/2809 22008KT 9999 BKN017 \n  BECMG 2716/2718 09004KT 6000 SCT007 \n  BECMG 2718/2720 1500 BR SCT002 BKN005 \n  TEMPO 2720/2809 VRB02KT 0400 FZFG VV002"
    },
    {
      "icao": "GMMX",
      "iata": "RAK",
      "name": "Marrakesh Menara Airport",
      "lat": 31.604807,
      "lon": -8.035788,
      "updatedAt": "270300Z",
      "visibility_m": 2000,
      "taf_visibility_m": 800,
      "worst_visibility_m": 800,
      "ceiling_ft": 800,
      "hazards": [
        "BR",
        "FG",
        "RA"
      ],
      "severityScore": 92,
      "metarRaw": "METAR GMMX 270300Z VRB01KT 8000 BKN020 12/10 Q1020 TEMPO 2000 BR BKN008",
      "tafRaw": "TAF GMMX 262300Z 2700/2806 26006KT 8000 BKN015 \n  TEMPO 2700/2702 2000 BR BKN008 \n  TEMPO 2702/2705 0800 FG OVC005 \n  TEMPO 2705/2708 2000 BR BKN008 \n  TEMPO 2718/2721 4000 RA SCT010 BKN020"
    },
    {
      "icao": "LIMC",
      "iata": "MXP",
      "name": "Milan Malpensa International Airport",
      "lat": 45.6306,
      "lon": 8.72811,
      "updatedAt": "270250Z",
      "visibility_m": 10000,
      "taf_visibility_m": 500,
      "worst_visibility_m": 500,
      "ceiling_ft": 500,
      "hazards": [
        "RA",
        "FG"
      ],
      "severityScore": 92,
      "metarRaw": "METAR LIMC 270250Z 03005KT CAVOK M01/M02 Q1006 NOSIG",
      "tafRaw": "TAF LIMC 262300Z 2700/2806 VRB04KT 6000 SCT025 \n  TEMPO 2700/2704 0500 BCFG BKN005 \n  BECMG 2715/2717 4000 RA"
    },
    {
      "icao": "LYNI",
      "iata": "INI",
      "name": "Niš Constantine the Great Airport",
      "lat": 43.336538,
      "lon": 21.856242,
      "updatedAt": "270300Z",
      "visibility_m": 10000,
      "taf_visibility_m": 800,
      "worst_visibility_m": 800,
      "ceiling_ft": 800,
      "hazards": [
        "RA",
        "FG",
        "BR"
      ],
      "severityScore": 92,
      "metarRaw": "METAR LYNI 270300Z 31014KT 9999 RA BKN008 OVC027 05/04 Q1002 NOSIG",
      "tafRaw": "TAF LYNI 262300Z 2700/2724 35013KT 9999 RA SCT007 BKN023 TX07/2713Z TN03/2706Z \n  TEMPO 2700/2707 35015G25KT BKN007 \n  BECMG 2711/2713 29006KT NSW SCT040 \n  BECMG 2718/2720 3000 BR \n  BECMG 2722/2724 0800 FG"
    },
    {
      "icao": "LPFR",
      "iata": "FAO",
      "name": "Faro - Gago Coutinho International Airport",
      "lat": 37.015909,
      "lon": -7.970939,
      "updatedAt": "270300Z",
      "visibility_m": 7000,
      "taf_visibility_m": 1200,
      "worst_visibility_m": 1200,
      "ceiling_ft": 400,
      "hazards": [
        "RA",
        "BR",
        "SHRA",
        "DZ"
      ],
      "severityScore": 91,
      "metarRaw": "METAR LPFR 270300Z 21022G32KT 7000 RA FEW016 SCT022 16/14 Q1008",
      "tafRaw": "TAF LPFR 262300Z 2700/2724 22020KT 9999 SCT015 BKN035 \n  TEMPO 2700/2707 22025G35KT 3000 DZRA BR SCT004 BKN008 \n  PROB30 \n  TEMPO 2703/2707 23030G45KT 1200 +RA BKN004 \n  BECMG 2707/2709 26020KT SCT035 \n  TEMPO 2707/2724 26025G35KT 8000 SHRA BKN013 FEW018CB"
    },
    {
      "icao": "LRTM",
      "iata": "TGM",
      "name": "Târgu Mureş Transilvania International Airport",
      "lat": 46.467701,
      "lon": 24.4125,
      "updatedAt": "270300Z",
      "visibility_m": 2500,
      "taf_visibility_m": 800,
      "worst_visibility_m": 800,
      "ceiling_ft": 200,
      "hazards": [
        "BR",
        "FG"
      ],
      "severityScore": 90,
      "metarRaw": "METAR LRTM 270300Z AUTO 25004KT 2500 BR NCD 01/00 Q1001",
      "tafRaw": "TAF LRTM 270200Z 2703/2712 25005KT 3000 BR SCT015 BKN040 \n  TEMPO 2703/2707 0800 FG BKN002 OVC035 \n  BECMG 2708/2710 5000"
    },
    {
      "icao": "EDDS",
      "iata": "STR",
      "name": "Stuttgart Airport",
      "lat": 48.689899,
      "lon": 9.22196,
      "updatedAt": "270250Z",
      "visibility_m": 10000,
      "taf_visibility_m": 400,
      "worst_visibility_m": 400,
      "ceiling_ft": 3000,
      "hazards": [
        "FZFG",
        "FG"
      ],
      "severityScore": 85,
      "metarRaw": "METAR EDDS 270250Z AUTO VRB01KT 9999 OVC030 01/M01 Q1002",
      "tafRaw": "TAF EDDS 262300Z 2700/2724 VRB02KT 9999 BKN040 \n  PROB40 \n  TEMPO 2704/2709 1200 BCFG \n  PROB30 \n  TEMPO 2706/2708 0400 FZFG VV001"
    },
    {
      "icao": "LIPQ",
      "iata": "TRS",
      "name": "Trieste–Friuli Venezia Giulia Airport",
      "lat": 45.827499,
      "lon": 13.4722,
      "updatedAt": "270250Z",
      "visibility_m": 6000,
      "taf_visibility_m": 600,
      "worst_visibility_m": 600,
      "ceiling_ft": 500,
      "hazards": [
        "RA",
        "FG"
      ],
      "severityScore": 82,
      "metarRaw": "METAR LIPQ 270250Z AUTO 05002KT 6000 NCD M00/M00 Q1006",
      "tafRaw": "TAF LIPQ 262300Z 2700/2724 VRB04KT 9999 SCT020 \n  TEMPO 2700/2706 0600 BCFG BKN005 \n  BECMG 2722/2724 05010KT 4000 RA"
    },
    {
      "icao": "LEZG",
      "iata": "ZAZ",
      "name": "Zaragoza Airport",
      "lat": 41.666199,
      "lon": -1.04155,
      "updatedAt": "270300Z",
      "visibility_m": 10000,
      "taf_visibility_m": 600,
      "worst_visibility_m": 600,
      "ceiling_ft": 5000,
      "hazards": [
        "FG",
        "BR",
        "RA",
        "SHRA"
      ],
      "severityScore": 81,
      "metarRaw": "METAR LEZG 270300Z 10011KT 9999 SCT005 BKN050 08/08 Q1001 NOSIG",
      "tafRaw": "TAF LEZG 262300Z 2700/2724 11008KT 9999 FEW040 TX15/2714Z TN08/2706Z \n  TEMPO 2700/2709 1500 BR BCFG VV003 \n  PROB40 \n  TEMPO 2700/2709 0600 FG VV002 \n  BECMG 2711/2713 26015KT \n  TEMPO 2712/2724 26020G30KT \n  PROB40 \n  TEMPO 2717/2721 3000 RA SHRA FEW040TCU"
    },
    {
      "icao": "LIPE",
      "iata": "BLQ",
      "name": "Bologna Guglielmo Marconi Airport",
      "lat": 44.5354,
      "lon": 11.2887,
      "updatedAt": "270250Z",
      "visibility_m": 10000,
      "taf_visibility_m": 1000,
      "worst_visibility_m": 1000,
      "ceiling_ft": 200,
      "hazards": [
        "RA",
        "FG"
      ],
      "severityScore": 77,
      "metarRaw": "METAR LIPE 270250Z 20008KT CAVOK 02/01 Q1006",
      "tafRaw": "TAF LIPE 262300Z 2700/2724 VRB05KT 6000 SCT020 \n  PROB40 \n  TEMPO 2700/2708 1000 BCFG BKN002 \n  BECMG 2718/2720 12010KT \n  TEMPO 2718/2724 4000 RA"
    },
    {
      "icao": "LIPY",
      "iata": "AOI",
      "name": "Marche Airport",
      "lat": 43.616299,
      "lon": 13.3623,
      "updatedAt": "270250Z",
      "visibility_m": 10000,
      "taf_visibility_m": 1200,
      "worst_visibility_m": 1200,
      "ceiling_ft": 400,
      "hazards": [
        "RA",
        "FG"
      ],
      "severityScore": 77,
      "metarRaw": "METAR LIPY 270250Z AUTO 18004KT 9999 NCD 03/02 Q1007",
      "tafRaw": "TAF LIPY 262300Z 2700/2724 VRB05KT 9999 SCT015 \n  TEMPO 2700/2706 1200 BCFG BKN004 \n  BECMG 2718/2720 14010KT \n  BECMG 2721/2723 4000 RA"
    },
    {
      "icao": "LQSA",
      "iata": "SJJ",
      "name": "Sarajevo International Airport",
      "lat": 43.8246,
      "lon": 18.331499,
      "updatedAt": "270300Z",
      "visibility_m": 10000,
      "taf_visibility_m": 500,
      "worst_visibility_m": 500,
      "ceiling_ft": 4000,
      "hazards": [
        "FG",
        "BR",
        "RA"
      ],
      "severityScore": 77,
      "metarRaw": "METAR LQSA 270300Z VRB01KT 9999 BKN040 03/03 Q1005",
      "tafRaw": "TAF LQSA 262300Z 2700/2724 VRB02KT 9999 SCT045 TX08/2713Z TN01/2705Z \n  PROB40 \n  TEMPO 2700/2709 2000 -RA BR BKN005 OVC025 \n  PROB30 \n  TEMPO 2703/2708 0500 FG BKN002 \n  PROB30 \n  TEMPO 2720/2724 2000 BR BKN004"
    },
    {
      "icao": "LRCL",
      "iata": "CLJ",
      "name": "Cluj Avram Iancu International Airport",
      "lat": 46.787425,
      "lon": 23.684292,
      "updatedAt": "270300Z",
      "visibility_m": 2000,
      "taf_visibility_m": 600,
      "worst_visibility_m": 600,
      "ceiling_ft": 2600,
      "hazards": [
        "BR",
        "RA",
        "FG",
        "DZ"
      ],
      "severityScore": 77,
      "metarRaw": "METAR LRCL 270300Z VRB02KT 2000 -RA BR FEW006 OVC026 02/02 Q1001",
      "tafRaw": "TAF LRCL 270200Z 2703/2712 VRB04KT 1500 -RA BR SCT010 OVC035 \n  TEMPO 2703/2706 0600 -RADZ FG BKN005 OVC020 \n  BECMG 2708/2710 7000 NSW"
    },
    {
      "icao": "LCLK",
      "iata": "LCA",
      "name": "Larnaca International Airport",
      "lat": 34.875099,
      "lon": 33.624901,
      "updatedAt": "270300Z",
      "visibility_m": 9000,
      "taf_visibility_m": 2000,
      "worst_visibility_m": 2000,
      "ceiling_ft": null,
      "hazards": [
        "TSRA",
        "SHRA",
        "TS",
        "RA"
      ],
      "severityScore": 76,
      "metarRaw": "METAR LCLK 270300Z 23008KT 9000 NSC 14/13 Q1012 NOSIG",
      "tafRaw": "TAF LCLK 262330Z 2700/2800 27007KT 9999 FEW020 \n  PROB30 \n  TEMPO 2700/2705 4000 DU \n  BECMG 2707/2711 21020KT \n  PROB30 \n  TEMPO 2712/2800 5000 SHRA SCT025TCU \n  PROB30 \n  TEMPO 2712/2800 VRB25G35KT 2000 TSRA SCT025CB"
    },
    {
      "icao": "LCPH",
      "iata": "PFO",
      "name": "Paphos International Airport",
      "lat": 34.717999,
      "lon": 32.485699,
      "updatedAt": "270300Z",
      "visibility_m": 10000,
      "taf_visibility_m": 2000,
      "worst_visibility_m": 2000,
      "ceiling_ft": null,
      "hazards": [
        "TSRA",
        "SHRA",
        "TS",
        "RA"
      ],
      "severityScore": 76,
      "metarRaw": "METAR LCPH 270300Z AUTO 07004KT 010V100 9999 NCD 13/09 Q1012 NOSIG",
      "tafRaw": "TAF LCPH 262330Z 2700/2800 06007KT 9999 FEW025 \n  PROB30 \n  TEMPO 2700/2705 4000 DU \n  BECMG 2706/2710 20017KT \n  PROB40 \n  TEMPO 2708/2800 5000 SHRA SCT020TCU \n  PROB30 \n  TEMPO 2710/2800 VRB25G35KT 2000 TSRA SCT025CB"
    },
    {
      "icao": "EDJA",
      "iata": "FMM",
      "name": "Memmingen Allgau Airport",
      "lat": 47.988092,
      "lon": 10.238248,
      "updatedAt": "270250Z",
      "visibility_m": 10000,
      "taf_visibility_m": 800,
      "worst_visibility_m": 800,
      "ceiling_ft": null,
      "hazards": [
        "FZFG",
        "FG"
      ],
      "severityScore": 75,
      "metarRaw": "METAR EDJA 270250Z AUTO 00000KT 9999 // FEW130/// M03/M03 Q1002",
      "tafRaw": "TAF EDJA 270200Z 2703/2712 16005KT CAVOK \n  BECMG 2704/2706 VRB03KT \n  PROB30 \n  TEMPO 2704/2709 0800 FZFG"
    },
    {
      "icao": "LFLS",
      "iata": "GNB",
      "name": "Grenoble Alpes Isère Airport",
      "lat": 45.3629,
      "lon": 5.32937,
      "updatedAt": "270300Z",
      "visibility_m": 10000,
      "taf_visibility_m": 1500,
      "worst_visibility_m": 1500,
      "ceiling_ft": 300,
      "hazards": [
        "SN",
        "RA"
      ],
      "severityScore": 75,
      "metarRaw": "METAR LFLS 270300Z AUTO 07005KT CAVOK 00/M02 Q1001 NOSIG",
      "tafRaw": "TAF LFLS 270200Z 2703/2803 09005KT CAVOK \n  BECMG 2705/2707 25007KT \n  BECMG 2715/2716 34005KT 9999 -RA OVC050 \n  TEMPO 2720/2721 30015G25KT 1500 +RA OVC030 \n  PROB40 \n  TEMPO 2722/2724 4000 RASN BKN008 \n  PROB30 \n  TEMPO 2722/2724 1500 SN BKN003"
    },
    {
      "icao": "LIME",
      "iata": "BGY",
      "name": "Milan Bergamo Airport / Antonio Locatelli Air Base",
      "lat": 45.670725,
      "lon": 9.709223,
      "updatedAt": "270250Z",
      "visibility_m": 10000,
      "taf_visibility_m": 800,
      "worst_visibility_m": 800,
      "ceiling_ft": 1000,
      "hazards": [
        "RA",
        "FG"
      ],
      "severityScore": 69,
      "metarRaw": "METAR LIME 270250Z 10005KT CAVOK 01/M00 Q1006",
      "tafRaw": "TAF LIME 262300Z 2700/2724 VRB05KT 7000 FEW020 \n  TEMPO 2700/2706 0800 BCFG BKN010 \n  BECMG 2716/2718 4000 RA"
    },
    {
      "icao": "LBPD",
      "iata": "PDV",
      "name": "Plovdiv International Airport",
      "lat": 42.067799,
      "lon": 24.8508,
      "updatedAt": "270300Z",
      "visibility_m": 10000,
      "taf_visibility_m": 1200,
      "worst_visibility_m": 1200,
      "ceiling_ft": 300,
      "hazards": [
        "BR",
        "RA"
      ],
      "severityScore": 67,
      "metarRaw": "METAR LBPD 270300Z AUTO 10004KT 9999 FEW005/// OVC008/// 07/07 Q0997",
      "tafRaw": "TAF LBPD 262300Z 2700/2724 VRB03KT 8000 SCT005 BKN040 \n  TEMPO 2700/2704 1200 RA BR BKN003 OVC015 \n  TEMPO 2704/2707 3000 RA BKN010 OVC020 \n  BECMG 2707/2709 28015G26KT SCT025 BKN050 \n  TEMPO 2709/2715 5000 RA BKN015 OVC030"
    },
    {
      "icao": "LIRP",
      "iata": "PSA",
      "name": "Pisa International Airport",
      "lat": 43.683899,
      "lon": 10.3927,
      "updatedAt": "270245Z",
      "visibility_m": 700,
      "taf_visibility_m": 2000,
      "worst_visibility_m": 700,
      "ceiling_ft": null,
      "hazards": [
        "FG",
        "BR",
        "RA"
      ],
      "severityScore": 67,
      "metarRaw": "METAR LIRP 270245Z 13004KT 0700 R04R/1500 FG NSC 03/02 Q1007 NOSIG",
      "tafRaw": "TAF LIRP 262300Z 2700/2724 13004KT 7000 FEW020 \n  PROB40 \n  TEMPO 2705/2709 2000 BR SCT010 SCT025 \n  BECMG 2720/2722 5000 RA SCT020TCU"
    },
    {
      "icao": "LPPT",
      "iata": "LIS",
      "name": "Lisbon Humberto Delgado Airport",
      "lat": 38.7813,
      "lon": -9.13592,
      "updatedAt": "270300Z",
      "visibility_m": 10000,
      "taf_visibility_m": 2000,
      "worst_visibility_m": 2000,
      "ceiling_ft": 300,
      "hazards": [
        "RA",
        "BR",
        "DZ"
      ],
      "severityScore": 67,
      "metarRaw": "METAR LPPT 270300Z 24011KT 9999 -RA FEW010 SCT014 13/13 Q1001 WS R20",
      "tafRaw": "TAF LPPT 262300Z 2700/2806 21020G30KT 4000 RADZ BR SCT003 BKN008 \n  TEMPO 2700/2703 22025G45KT 2000 +RA BKN003 \n  BECMG 2703/2705 26015KT 9999 NSW SCT020 \n  TEMPO 2706/2724 26023G35KT 5000 SHRAGS BKN013 FEW018CB \n  BECMG 2800/2803 23030G40KT 5000 RA SCT005 BKN015 FEW020CB \n  TEMPO 2800/2806 23035G45KT 3000 +RA SCT002 BKN012"
    },
    {
      "icao": "LRSB",
      "iata": "SBZ",
      "name": "Sibiu International Airport",
      "lat": 45.785841,
      "lon": 24.086666,
      "updatedAt": "270300Z",
      "visibility_m": 9000,
      "taf_visibility_m": 600,
      "worst_visibility_m": 600,
      "ceiling_ft": 7000,
      "hazards": [
        "FG",
        "BR",
        "RA"
      ],
      "severityScore": 67,
      "metarRaw": "METAR LRSB 270300Z 30003KT 9000 SCT045 BKN070 04/04 Q1000",
      "tafRaw": "TAF LRSB 262300Z 2700/2724 VRB04KT 9999 SCT035 BKN050 \n  BECMG 2702/2704 5000 -RA BR BKN010 OVC040 \n  PROB40 \n  TEMPO 2706/2712 2000 RA BR BKN005 OVC035 \n  BECMG 2718/2720 1500 BR OVC002 \n  BECMG 2721/2723 0600 FG"
    },
    {
      "icao": "EYPA",
      "iata": "PLQ",
      "name": "Palanga International Airport",
      "lat": 55.973202,
      "lon": 21.093901,
      "updatedAt": "270250Z",
      "visibility_m": 6000,
      "taf_visibility_m": 1500,
      "worst_visibility_m": 1500,
      "ceiling_ft": 3300,
      "hazards": [
        "SN",
        "FZDZ",
        "DZ"
      ],
      "severityScore": 66,
      "metarRaw": "METAR EYPA 270250Z 07008KT 6000 -SN SCT028 OVC033 M07/M10 Q1007",
      "tafRaw": "TAF EYPA 262308Z 2700/2724 06010KT 6000 SCT010 OVC015 \n  TEMPO 2700/2708 3000 SN -FZDZ BKN010 \n  BECMG 2709/2710 3000 SN SCT005 OVC010 \n  TEMPO 2710/2724 1500 BKN005"
    },
    {
      "icao": "LQBK",
      "iata": "BNX",
      "name": "Banja Luka International Airport",
      "lat": 44.941399,
      "lon": 17.297501,
      "updatedAt": "270300Z",
      "visibility_m": 6000,
      "taf_visibility_m": 400,
      "worst_visibility_m": 400,
      "ceiling_ft": 3700,
      "hazards": [
        "FG",
        "BR"
      ],
      "severityScore": 65,
      "metarRaw": "METAR LQBK 270300Z VRB01KT 6000 SCT007 OVC037 04/03 Q1007 NOSIG",
      "tafRaw": "TAF LQBK 262300Z 2700/2724 30005KT 8000 SCT040 TX07/2713Z TN01/2706Z \n  TEMPO 2702/2712 3000 BR BKN005 \n  PROB30 \n  TEMPO 2703/2710 0400 FG BKN002 \n  PROB30 \n  TEMPO 2719/2724 1200 BCFG"
    },
    {
      "icao": "EDFH",
      "iata": "HHN",
      "name": "Frankfurt-Hahn Airport",
      "lat": 49.946353,
      "lon": 7.261734,
      "updatedAt": "270250Z",
      "visibility_m": 10000,
      "taf_visibility_m": 1200,
      "worst_visibility_m": 1200,
      "ceiling_ft": 1900,
      "hazards": [
        "FG",
        "RA",
        "DZ"
      ],
      "severityScore": 64,
      "metarRaw": "METAR EDFH 270250Z 16005KT 9999 BKN019 01/M01 Q1000",
      "tafRaw": "TAF EDFH 262300Z 2700/2724 15007KT 9999 BKN010 \n  TEMPO 2700/2707 1200 BCFG BKN002 \n  BECMG 2705/2707 14013KT BKN005 \n  TEMPO 2713/2724 2000 DZRA BKN002"
    },
    {
      "icao": "EDDH",
      "iata": "HAM",
      "name": "Hamburg Helmut Schmidt Airport",
      "lat": 53.630402,
      "lon": 9.98823,
      "updatedAt": "270250Z",
      "visibility_m": 10000,
      "taf_visibility_m": 3000,
      "worst_visibility_m": 3000,
      "ceiling_ft": 700,
      "hazards": [
        "FZDZ",
        "DZ"
      ],
      "severityScore": 63,
      "metarRaw": "METAR EDDH 270250Z AUTO 11003KT 080V140 9999 OVC007 00/M01 Q1002 NOSIG",
      "tafRaw": "TAF EDDH 262300Z 2700/2806 VRB03KT 9999 OVC005 \n  TEMPO 2700/2705 4000 -SG OVC003 \n  PROB30 \n  TEMPO 2700/2717 SCT008 BKN015 \n  TEMPO 2705/2806 BKN003 \n  BECMG 2711/2713 11009KT \n  PROB30 \n  TEMPO 2717/2806 3000 -FZDZ BKN012"
    },
    {
      "icao": "EHEH",
      "iata": "EIN",
      "name": "Eindhoven Airport",
      "lat": 51.4500999451,
      "lon": 5.37452983856,
      "updatedAt": null,
      "visibility_m": null,
      "taf_visibility_m": 2000,
      "worst_visibility_m": 2000,
      "ceiling_ft": 300,
      "hazards": [
        "BR",
        "RA"
      ],
      "severityScore": 57,
      "metarRaw": null,
      "tafRaw": "TAF EHEH 261754Z 2618/2724 24005KT 4000 BR BKN007 \n  TEMPO 2618/2706 2500 BR SCT004 BKN006 \n  BECMG 2705/2707 11005KT FEW015 \n  BECMG 2707/2709 9999 NSW \n  BECMG 2717/2719 SCT012 BKN015 \n  TEMPO 2718/2721 4000 RA SCT005 BKN008 OVC012 \n  BECMG 2720/2722 2000 BR SCT002 BKN003"
    },
    {
      "icao": "LPPS",
      "iata": "PXO",
      "name": "Porto Santo Airport",
      "lat": 33.0733985901,
      "lon": -16.3500003815,
      "updatedAt": "270300Z",
      "visibility_m": 10000,
      "taf_visibility_m": 3000,
      "worst_visibility_m": 3000,
      "ceiling_ft": 800,
      "hazards": [
        "BR",
        "RA",
        "DZ"
      ],
      "severityScore": 57,
      "metarRaw": "METAR LPPS 270300Z 25023KT 9999 SCT014 19/15 Q1014",
      "tafRaw": "TAF LPPS 262300Z 2700/2806 23015KT 9999 SCT015 SCT030 \n  TEMPO 2700/2706 23018G33KT 3000 RADZ BR SCT004 BKN008 \n  BECMG 2706/2709 27018KT \n  PROB30 \n  TEMPO 2706/2721 27020G30KT"
    },
    {
      "icao": "LKMT",
      "iata": "OSR",
      "name": "Leoš Janáček Airport Ostrava",
      "lat": 49.696301,
      "lon": 18.111099,
      "updatedAt": "270300Z",
      "visibility_m": 10000,
      "taf_visibility_m": 2500,
      "worst_visibility_m": 2500,
      "ceiling_ft": 500,
      "hazards": [
        "BR",
        "FG"
      ],
      "severityScore": 55,
      "metarRaw": "METAR LKMT 270300Z 22004KT 9999 SCT040 M01/M01 Q1003 NOSIG",
      "tafRaw": "TAF LKMT 262300Z 2700/2724 23008KT CAVOK \n  TEMPO 2700/2712 6000 SCT030 \n  PROB30 \n  TEMPO 2700/2708 2500 MIFG BR BKN005 \n  BECMG 2719/2721 6000 NSC"
    },
    {
      "icao": "LYPG",
      "iata": "TGD",
      "name": "Podgorica Airport / Podgorica Golubovci Airbase",
      "lat": 42.359402,
      "lon": 19.2519,
      "updatedAt": "270300Z",
      "visibility_m": 7000,
      "taf_visibility_m": 600,
      "worst_visibility_m": 600,
      "ceiling_ft": null,
      "hazards": [
        "FG",
        "BR"
      ],
      "severityScore": 55,
      "metarRaw": "METAR LYPG 270300Z VRB02KT 7000 FEW016 04/04 Q1002 NOSIG",
      "tafRaw": "TAF LYPG 262300Z 2700/2724 36005KT 8000 FEW020 TX14/2713Z TN04/2704Z \n  TEMPO 2700/2708 2000 BR \n  PROB30 \n  TEMPO 2705/2707 0600 FG \n  TEMPO 2721/2724 5000 BR"
    },
    {
      "icao": "LRIA",
      "iata": "IAS",
      "name": "Iaşi Airport",
      "lat": 47.180278,
      "lon": 27.620833,
      "updatedAt": "270300Z",
      "visibility_m": 6000,
      "taf_visibility_m": 1500,
      "worst_visibility_m": 1500,
      "ceiling_ft": 1200,
      "hazards": [
        "RA",
        "BR",
        "DZ"
      ],
      "severityScore": 54,
      "metarRaw": "METAR LRIA 270300Z 11007KT 6000 -RA FEW006 SCT010 OVC012 01/01 Q1005",
      "tafRaw": "TAF LRIA 270200Z 2703/2712 11008KT 5000 -RADZ BR BKN010 OVC020 \n  TEMPO 2703/2706 1500 -RADZ BR BKN002 OVC010 \n  BECMG 2707/2709 9999 NSW BKN015 OVC025"
    },
    {
      "icao": "ESMS",
      "iata": "MMX",
      "name": "Malmö Sturup Airport",
      "lat": 55.535564,
      "lon": 13.376327,
      "updatedAt": "270250Z",
      "visibility_m": 3200,
      "taf_visibility_m": 1200,
      "worst_visibility_m": 1200,
      "ceiling_ft": 800,
      "hazards": [
        "SN"
      ],
      "severityScore": 53,
      "metarRaw": "METAR ESMS 270250Z 07012KT 3200 -SN VV008 M00/M01 Q1004",
      "tafRaw": "TAF ESMS 270227Z 2703/2803 06015KT 1200 SN BKN008 \n  TEMPO 2703/2706 5000 -SN DRSN BKN015 \n  BECMG 2706/2708 9999 NSW BKN015 \n  TEMPO 2708/2803 BKN012"
    },
    {
      "icao": "EGGW",
      "iata": "LTN",
      "name": "London Luton Airport",
      "lat": 51.874699,
      "lon": -0.368333,
      "updatedAt": "270250Z",
      "visibility_m": 3100,
      "taf_visibility_m": null,
      "worst_visibility_m": 3100,
      "ceiling_ft": 400,
      "hazards": [
        "RA"
      ],
      "severityScore": 52,
      "metarRaw": "METAR EGGW 270250Z AUTO 12016G27KT 3100 -RA OVC004 05/04 Q0990 RERA",
      "tafRaw": null
    },
    {
      "icao": "EPGD",
      "iata": "GDN",
      "name": "Gdańsk Lech Wałęsa Airport",
      "lat": 54.377602,
      "lon": 18.4662,
      "updatedAt": "270300Z",
      "visibility_m": 1700,
      "taf_visibility_m": null,
      "worst_visibility_m": 1700,
      "ceiling_ft": 200,
      "hazards": [
        "BR"
      ],
      "severityScore": 50,
      "metarRaw": "METAR EPGD 270300Z 05005KT 1700 BR OVC002 M02/M02 Q1003",
      "tafRaw": null
    },
    {
      "icao": "EDDN",
      "iata": "NUE",
      "name": "Nuremberg Airport",
      "lat": 49.498699,
      "lon": 11.078056,
      "updatedAt": "270250Z",
      "visibility_m": 5000,
      "taf_visibility_m": 2500,
      "worst_visibility_m": 2500,
      "ceiling_ft": 3500,
      "hazards": [
        "BR",
        "FZDZ",
        "DZ"
      ],
      "severityScore": 48,
      "metarRaw": "METAR EDDN 270250Z AUTO 12002KT 5000 BR SCT016 SCT023 BKN035 M00/M01 Q1003",
      "tafRaw": "TAF EDDN 262300Z 2700/2724 VRB02KT 9999 BKN020 \n  PROB30 \n  TEMPO 2700/2703 3000 -FZDZ BKN008 OVC020 \n  PROB40 \n  TEMPO 2703/2708 2500 BR BKN008 OVC020 \n  TEMPO 2708/2712 BKN009"
    },
    {
      "icao": "LGTS",
      "iata": "SKG",
      "name": "Thessaloniki Macedonia International Airport",
      "lat": 40.51928,
      "lon": 22.970009,
      "updatedAt": "270250Z",
      "visibility_m": 10000,
      "taf_visibility_m": 5000,
      "worst_visibility_m": 5000,
      "ceiling_ft": 2500,
      "hazards": [
        "DZ",
        "TS",
        "RA"
      ],
      "severityScore": 47,
      "metarRaw": "METAR LGTS 270250Z 32009KT 9999 DZ SCT010 BKN025 10/09 Q0998 NOSIG",
      "tafRaw": "TAF LGTS 262300Z 2700/2724 34010KT 9999 SCT010 BKN025 \n  TEMPO 2700/2709 5000 RA \n  BECMG 2709/2711 FEW012 SCT025"
    },
    {
      "icao": "LRBV",
      "iata": "GHV",
      "name": "Brașov-Ghimbav International Airport",
      "lat": 45.70558,
      "lon": 25.522871,
      "updatedAt": "270300Z",
      "visibility_m": 10000,
      "taf_visibility_m": 3000,
      "worst_visibility_m": 3000,
      "ceiling_ft": 500,
      "hazards": [
        "BR",
        "RA"
      ],
      "severityScore": 47,
      "metarRaw": "METAR LRBV 270300Z AUTO VRB02KT 9999 OVC071/// 05/03 Q1000",
      "tafRaw": "TAF LRBV 270200Z 2703/2712 VRB04KT 8000 BKN045 \n  TEMPO 2703/2708 3000 -RA BR BKN005 OVC030"
    },
    {
      "icao": "EDLW",
      "iata": "DTM",
      "name": "Dortmund Airport",
      "lat": 51.518299,
      "lon": 7.61224,
      "updatedAt": "270250Z",
      "visibility_m": 3500,
      "taf_visibility_m": 2000,
      "worst_visibility_m": 2000,
      "ceiling_ft": 300,
      "hazards": [
        "BR"
      ],
      "severityScore": 45,
      "metarRaw": "METAR EDLW 270250Z AUTO 11001KT 3500 // OVC002/// 00/M00 Q1002",
      "tafRaw": "TAF EDLW 261700Z 2618/2718 24005KT 4000 BR BKN005 \n  TEMPO 2618/2704 VRB03KT 2000 BR OVC003 \n  BECMG 2707/2711 11008KT 9999 BKN030"
    },
    {
      "icao": "ENTC",
      "iata": "TOS",
      "name": "Tromsø Airport, Langnes",
      "lat": 69.683296,
      "lon": 18.9189,
      "updatedAt": "270250Z",
      "visibility_m": 1200,
      "taf_visibility_m": null,
      "worst_visibility_m": 1200,
      "ceiling_ft": 1300,
      "hazards": [
        "SN"
      ],
      "severityScore": 45,
      "metarRaw": "METAR ENTC 270250Z VRB02KT 1200 R36/P2000N R18/P2000N -SN VV013 M05/M06 Q1009 RMK WIND 2600FT 34018KT",
      "tafRaw": null
    },
    {
      "icao": "EGBB",
      "iata": "BHX",
      "name": "Birmingham Airport",
      "lat": 52.453899,
      "lon": -1.74803,
      "updatedAt": "270250Z",
      "visibility_m": 4000,
      "taf_visibility_m": null,
      "worst_visibility_m": 4000,
      "ceiling_ft": 900,
      "hazards": [
        "RA"
      ],
      "severityScore": 42,
      "metarRaw": "METAR EGBB 270250Z 11019KT 4000 RA BKN009 05/04 Q0988",
      "tafRaw": null
    },
    {
      "icao": "EKCH",
      "iata": "CPH",
      "name": "Copenhagen Kastrup Airport",
      "lat": 55.617900848389,
      "lon": 12.656000137329,
      "updatedAt": "270250Z",
      "visibility_m": 4000,
      "taf_visibility_m": 1200,
      "worst_visibility_m": 1200,
      "ceiling_ft": 1000,
      "hazards": [
        "SN"
      ],
      "severityScore": 40,
      "metarRaw": "METAR EKCH 270250Z 04016KT 6000 -SN BKN010 M01/M02 Q1006 TEMPO 4000 BKN015",
      "tafRaw": "TAF EKCH 270227Z 2703/2803 05017KT 1200 SN BKN008 \n  TEMPO 2703/2706 6000 -SN DRSN OVC015 \n  BECMG 2706/2708 9999 NSW BKN015 \n  TEMPO 2708/2803 BKN012"
    },
    {
      "icao": "LEXJ",
      "iata": "SDR",
      "name": "Seve Ballesteros-Santander Airport",
      "lat": 43.427101,
      "lon": -3.82001,
      "updatedAt": "270300Z",
      "visibility_m": 10000,
      "taf_visibility_m": 3000,
      "worst_visibility_m": 3000,
      "ceiling_ft": 1000,
      "hazards": [
        "RA",
        "SHRA"
      ],
      "severityScore": 38,
      "metarRaw": "METAR LEXJ 270300Z AUTO 22017G27KT 180V260 9999 3000E NSC 17/06 Q0991",
      "tafRaw": "TAF LEXJ 270200Z 2703/2803 23009KT 9999 FEW025 SCT035 TX16/2703Z TN07/2802Z \n  PROB40 \n  TEMPO 2703/2705 22019G32KT \n  PROB40 \n  TEMPO 2703/2710 30010KT 3000 RA BKN010 \n  TEMPO 2716/2721 3000 SHRA BKN010 SCT020TCU"
    },
    {
      "icao": "LEZL",
      "iata": "SVQ",
      "name": "Sevilla Airport",
      "lat": 37.417999,
      "lon": -5.89311,
      "updatedAt": "270300Z",
      "visibility_m": 10000,
      "taf_visibility_m": 3000,
      "worst_visibility_m": 3000,
      "ceiling_ft": 1000,
      "hazards": [
        "SHRA",
        "RA"
      ],
      "severityScore": 38,
      "metarRaw": "METAR LEZL 270300Z AUTO 22012KT 190V250 9999 FEW041 SCT047 15/13 Q1009",
      "tafRaw": "TAF LEZL 270200Z 2703/2803 24010KT 9999 FEW015 SCT030 TX17/2715Z TN11/2707Z \n  BECMG 2703/2705 24020KT \n  TEMPO 2703/2714 23015G25KT \n  PROB40 \n  TEMPO 2704/2711 24026G43KT 3000 SHRA BKN010 FEW030CB \n  BECMG 2714/2716 23009KT"
    },
    {
      "icao": "EGPD",
      "iata": "ABZ",
      "name": "Aberdeen International Airport",
      "lat": 57.2019,
      "lon": -2.19778,
      "updatedAt": "270250Z",
      "visibility_m": 10000,
      "taf_visibility_m": 4000,
      "worst_visibility_m": 4000,
      "ceiling_ft": 900,
      "hazards": [
        "RA"
      ],
      "severityScore": 37,
      "metarRaw": "METAR EGPD 270250Z AUTO 11014KT 9999 FEW018/// SCT024/// BKN033/// //////TCU 03/01 Q0999",
      "tafRaw": "TAF EGPD 262253Z 2700/2724 12015KT 9999 FEW020 BKN030 \n  TEMPO 2700/2718 8000 -RA \n  TEMPO 2700/2706 13018G28KT \n  PROB30 \n  TEMPO 2700/2712 4000 RA BKN014 \n  BECMG 2706/2709 12022G38KT \n  TEMPO 2718/2724 4000 RA BKN014 \n  PROB30 \n  TEMPO 2718/2724 BKN009"
    },
    {
      "icao": "LFLL",
      "iata": "LYS",
      "name": "Lyon Saint-Exupéry Airport",
      "lat": 45.725996,
      "lon": 5.090139,
      "updatedAt": "270300Z",
      "visibility_m": 10000,
      "taf_visibility_m": 2000,
      "worst_visibility_m": 2000,
      "ceiling_ft": 800,
      "hazards": [
        "RA"
      ],
      "severityScore": 37,
      "metarRaw": "METAR LFLL 270300Z 13007KT CAVOK 03/M00 Q1001 NOSIG",
      "tafRaw": "TAF LFLL 262300Z 2700/2806 16006KT CAVOK \n  TEMPO 2705/2711 18020G30KT \n  BECMG 2712/2714 RA OVC035 \n  TEMPO 2716/2801 4000 BKN012 \n  BECMG 2717/2720 30008KT \n  PROB40 \n  TEMPO 2718/2723 2000 +RA BKN008 OVC020"
    },
    {
      "icao": "LFMN",
      "iata": "NCE",
      "name": "Nice-Côte d'Azur Airport",
      "lat": 43.658401,
      "lon": 7.21587,
      "updatedAt": "270300Z",
      "visibility_m": 10000,
      "taf_visibility_m": 2000,
      "worst_visibility_m": 2000,
      "ceiling_ft": 900,
      "hazards": [
        "RA"
      ],
      "severityScore": 37,
      "metarRaw": "METAR LFMN 270300Z 33009KT 310V030 CAVOK 07/M01 Q1006 NOSIG",
      "tafRaw": "TAF LFMN 270200Z 2703/2809 34010KT CAVOK \n  BECMG 2708/2711 6000 RA BKN020 \n  TEMPO 2712/2809 VRB15G25KT 2000 +RA BKN009 BKN020CB \n  TEMPO 2803/2809 24020G30KT"
    },
    {
      "icao": "EGPF",
      "iata": "GLA",
      "name": "Glasgow Airport",
      "lat": 55.871899,
      "lon": -4.43306,
      "updatedAt": "270250Z",
      "visibility_m": 10000,
      "taf_visibility_m": 4000,
      "worst_visibility_m": 4000,
      "ceiling_ft": 2200,
      "hazards": [
        "RA",
        "SHRA",
        "DZ"
      ],
      "severityScore": 36,
      "metarRaw": "METAR EGPF 270250Z AUTO 08015KT 9999 OVC022 04/00 Q0992",
      "tafRaw": "TAF EGPF 262259Z 2700/2724 08011KT 9999 FEW018 SCT030 \n  PROB40 \n  TEMPO 2700/2707 8000 -RA BKN014 \n  PROB40 \n  TEMPO 2700/2704 09015G25KT \n  BECMG 2704/2707 08020G35KT \n  TEMPO 2707/2718 6000 RA -RADZ BKN012 \n  PROB40 \n  TEMPO 2708/2717 4000 +RA RADZ BKN009 \n  TEMPO 2718/2724 6000 SHRA \n  PROB30 \n  TEMPO 2718/2721 BKN014 \n  BECMG 2719/2722 09010KT"
    },
    {
      "icao": "LEBB",
      "iata": "BIO",
      "name": "Bilbao Airport",
      "lat": 43.301102,
      "lon": -2.91061,
      "updatedAt": "270300Z",
      "visibility_m": 10000,
      "taf_visibility_m": 1500,
      "worst_visibility_m": 1500,
      "ceiling_ft": 6600,
      "hazards": [
        "RA",
        "SHRA"
      ],
      "severityScore": 36,
      "metarRaw": "METAR LEBB 270300Z AUTO 20016G30KT 130V280 9999 BKN066 19/07 Q0993",
      "tafRaw": "TAF LEBB 262300Z 2700/2724 19009KT 9999 FEW040 TX16/2700Z TN08/2724Z \n  TEMPO 2700/2705 20019G33KT \n  TEMPO 2700/2702 20022G43KT \n  PROB30 \n  TEMPO 2705/2712 22015G25KT 3000 RA \n  TEMPO 2712/2724 3000 RA BKN010 \n  PROB40 \n  TEMPO 2718/2723 1500 SHRA SCT020TCU"
    },
    {
      "icao": "OMDB",
      "iata": "DXB",
      "name": "Dubai International Airport",
      "lat": 25.2527999878,
      "lon": 55.3643989563,
      "updatedAt": "270300Z",
      "visibility_m": 10000,
      "taf_visibility_m": 3000,
      "worst_visibility_m": 3000,
      "ceiling_ft": 800,
      "hazards": [
        "BR"
      ],
      "severityScore": 35,
      "metarRaw": "METAR OMDB 270300Z 17003KT 9999 FEW040 16/12 Q1021 NOSIG",
      "tafRaw": "TAF OMDB 262300Z 2700/2806 14004KT 8000 FEW030 \n  PROB30 2701/2706 3000 BR BKN008 \n  BECMG 2710/2712 36012KT \n  BECMG 2716/2718 07005KT"
    },
    {
      "icao": "LPMA",
      "iata": "FNC",
      "name": "Cristiano Ronaldo International Airport",
      "lat": 32.697812,
      "lon": -16.774613,
      "updatedAt": "270300Z",
      "visibility_m": 10000,
      "taf_visibility_m": 6000,
      "worst_visibility_m": 6000,
      "ceiling_ft": 1300,
      "hazards": [
        "RA",
        "DZ"
      ],
      "severityScore": 34,
      "metarRaw": "METAR LPMA 270300Z 23019G29KT 9999 -RA SCT015 18/15 Q1013",
      "tafRaw": "TAF LPMA 262300Z 2700/2724 22015KT 9999 SCT015 \n  TEMPO 2700/2704 23020G32KT 6000 RADZ SCT008 BKN013 \n  BECMG 2704/2706 VRB05KT"
    },
    {
      "icao": "LFOB",
      "iata": "BVA",
      "name": "Beauvais Tillé airport",
      "lat": 49.454399,
      "lon": 2.11278,
      "updatedAt": "270300Z",
      "visibility_m": 10000,
      "taf_visibility_m": 2500,
      "worst_visibility_m": 2500,
      "ceiling_ft": 8000,
      "hazards": [
        "BR",
        "RA",
        "DZ"
      ],
      "severityScore": 32,
      "metarRaw": "METAR LFOB 270300Z AUTO 14011KT 9999 ///CB 05/04 Q0995 BECMG SCT045 OVC080",
      "tafRaw": "TAF LFOB 262300Z 2700/2724 14008KT 9999 BKN025 OVC035 \n  TEMPO 2700/2702 BKN007 OVC012 \n  FM270200 14010G20KT 7000 -RA SCT045 OVC080 \n  TEMPO 2706/2708 4500 -RA BKN011 OVC030 \n  TEMPO 2708/2714 3500 RA BKN007 OVC012 \n  PROB40 \n  TEMPO 2709/2713 2500 RADZ OVC004 \n  FM271400 18010KT 9999 SCT045 OVC100 \n  PROB30 \n  TEMPO 2714/2720 BKN008 \n  PROB40 2720/2724 3000 BR BKN003"
    },
    {
      "icao": "LIPR",
      "iata": "RMI",
      "name": "Federico Fellini International Airport",
      "lat": 44.020024,
      "lon": 12.612198,
      "updatedAt": "270250Z",
      "visibility_m": 10000,
      "taf_visibility_m": 1500,
      "worst_visibility_m": 1500,
      "ceiling_ft": null,
      "hazards": [
        "BR",
        "RA"
      ],
      "severityScore": 32,
      "metarRaw": "METAR LIPR 270250Z AUTO 22002KT 9999 NCD 00/M01 Q1007",
      "tafRaw": "TAF LIPR 262300Z 2700/2724 23005KT 9999 SCT015 \n  PROB30 \n  TEMPO 2700/2708 1500 BR \n  BECMG 2718/2720 13010KT \n  TEMPO 2718/2724 4000 RA"
    },
    {
      "icao": "LPPR",
      "iata": "OPO",
      "name": "Francisco de Sá Carneiro Airport",
      "lat": 41.2481002808,
      "lon": -8.68138980865,
      "updatedAt": "270300Z",
      "visibility_m": 10000,
      "taf_visibility_m": null,
      "worst_visibility_m": 10000,
      "ceiling_ft": 4800,
      "hazards": [
        "SHRA",
        "RA"
      ],
      "severityScore": 31,
      "metarRaw": "METAR LPPR 270300Z 26009KT 200V330 9999 -SHRA SCT015 FEW018CB BKN048 11/09 Q0996 RESHRA",
      "tafRaw": null
    },
    {
      "icao": "LFBD",
      "iata": "BOD",
      "name": "Bordeaux–Mérignac Airport",
      "lat": 44.82865,
      "lon": -0.715356,
      "updatedAt": "270300Z",
      "visibility_m": 2000,
      "taf_visibility_m": null,
      "worst_visibility_m": 2000,
      "ceiling_ft": 1000,
      "hazards": [
        "RA"
      ],
      "severityScore": 29,
      "metarRaw": "METAR LFBD 270300Z AUTO 15014KT 9999 -RA ///TCU 10/08 Q0992 TEMPO 2000 RA BKN010 BKN025",
      "tafRaw": null
    },
    {
      "icao": "LEBL",
      "iata": "BCN",
      "name": "Josep Tarradellas Barcelona-El Prat Airport",
      "lat": 41.2971,
      "lon": 2.07846,
      "updatedAt": "270300Z",
      "visibility_m": 10000,
      "taf_visibility_m": 4000,
      "worst_visibility_m": 4000,
      "ceiling_ft": null,
      "hazards": [
        "RA",
        "SHRA"
      ],
      "severityScore": 26,
      "metarRaw": "METAR LEBL 270300Z 31006KT 9999 FEW054 09/06 Q1003 NOSIG",
      "tafRaw": "TAF LEBL 262300Z 2700/2724 VRB04KT 9999 FEW055 TX16/2712Z TN09/2706Z \n  BECMG 2708/2710 24010KT \n  PROB30 \n  TEMPO 2710/2722 4000 RA SHRA FEW020TCU \n  BECMG 2718/2721 27010KT"
    },
    {
      "icao": "LICA",
      "iata": "SUF",
      "name": "Lamezia Terme Sant'Eufemia International Airport",
      "lat": 38.906214,
      "lon": 16.246007,
      "updatedAt": "270250Z",
      "visibility_m": 10000,
      "taf_visibility_m": 10000,
      "worst_visibility_m": 10000,
      "ceiling_ft": null,
      "hazards": [
        "SHRA",
        "RA"
      ],
      "severityScore": 26,
      "metarRaw": "METAR LICA 270250Z AUTO 11003KT 090V150 9999 FEW015/// BKN050/// 08/08 Q1005",
      "tafRaw": "TAF LICA 262300Z 2700/2724 VRB05KT 9999 SCT040 \n  TEMPO 2700/2703 SHRA \n  BECMG 2710/2712 27016KT \n  BECMG 2720/2722 07006KT"
    },
    {
      "icao": "LICJ",
      "iata": "PMO",
      "name": "Falcone–Borsellino Airport",
      "lat": 38.175999,
      "lon": 13.091,
      "updatedAt": "270250Z",
      "visibility_m": 10000,
      "taf_visibility_m": 10000,
      "worst_visibility_m": 10000,
      "ceiling_ft": null,
      "hazards": [
        "SHRA",
        "RA"
      ],
      "severityScore": 26,
      "metarRaw": "METAR LICJ 270250Z 33017KT 9999 SCT030 14/08 Q1007",
      "tafRaw": "TAF LICJ 262300Z 2700/2724 33016KT 9999 SCT030 \n  TEMPO 2700/2704 SHRA \n  BECMG 2705/2707 35006KT \n  BECMG 2710/2712 25012KT \n  BECMG 2714/2716 19012KT \n  BECMG 2720/2722 18022G34KT"
    },
    {
      "icao": "LTFM",
      "iata": "IST",
      "name": "İstanbul Airport",
      "lat": 41.261297,
      "lon": 28.741951,
      "updatedAt": "270250Z",
      "visibility_m": 10000,
      "taf_visibility_m": 10000,
      "worst_visibility_m": 10000,
      "ceiling_ft": 4000,
      "hazards": [
        "SHRA",
        "RA"
      ],
      "severityScore": 26,
      "metarRaw": "METAR LTFM 270250Z 19015KT 9999 -SHRA BKN040 BKN070 11/06 Q1001 NOSIG",
      "tafRaw": "TAF LTFM 262240Z 2700/2806 19015G25KT 9999 FEW040 BKN100 \n  TEMPO 2700/2704 18018G35KT -SHRA BKN035 BKN080 \n  BECMG 2711/2714 17012KT \n  BECMG 2715/2718 -SHRA BKN040 BKN100 \n  BECMG 2802/2805 33008KT BKN006 BKN020"
    },
    {
      "icao": "GCTS",
      "iata": "TFS",
      "name": "Tenerife Sur Airport",
      "lat": 28.0445,
      "lon": -16.5725,
      "updatedAt": "270300Z",
      "visibility_m": 10000,
      "taf_visibility_m": 10000,
      "worst_visibility_m": 10000,
      "ceiling_ft": null,
      "hazards": [
        "TS"
      ],
      "severityScore": 25,
      "metarRaw": "METAR GCTS 270300Z 02006KT 9999 FEW030 13/09 Q1022 NOSIG",
      "tafRaw": "TAF GCTS 270200Z 2703/2803 35005KT 9999 FEW035 TX22/2714Z TN14/2706Z \n  TEMPO 2717/2721 27010KT"
    },
    {
      "icao": "EFTU",
      "iata": "TKU",
      "name": "Turku Airport",
      "lat": 60.514099,
      "lon": 22.2628,
      "updatedAt": "270250Z",
      "visibility_m": 10000,
      "taf_visibility_m": 10000,
      "worst_visibility_m": 10000,
      "ceiling_ft": 900,
      "hazards": [],
      "severityScore": 25,
      "metarRaw": "METAR EFTU 270250Z AUTO 05005KT 9999 OVC009 M07/M09 Q1014",
      "tafRaw": "TAF EFTU 270229Z 2703/2803 04007KT 9999 OVC009 \n  TEMPO 2703/2721 BKN014"
    },
    {
      "icao": "EKBI",
      "iata": "BLL",
      "name": "Billund Airport",
      "lat": 55.740335,
      "lon": 9.157019,
      "updatedAt": "270250Z",
      "visibility_m": 10000,
      "taf_visibility_m": 10000,
      "worst_visibility_m": 10000,
      "ceiling_ft": 800,
      "hazards": [],
      "severityScore": 25,
      "metarRaw": "METAR EKBI 270250Z AUTO 05011KT 9999 OVC013/// M01/M03 Q1006",
      "tafRaw": "TAF EKBI 270227Z 2703/2803 05015KT 9999 BKN018 \n  TEMPO 2703/2803 BKN008"
    },
    {
      "icao": "EPRZ",
      "iata": "RZE",
      "name": "Rzeszów-Jasionka Airport",
      "lat": 50.109791,
      "lon": 22.024155,
      "updatedAt": "270300Z",
      "visibility_m": 1100,
      "taf_visibility_m": null,
      "worst_visibility_m": 1100,
      "ceiling_ft": 4000,
      "hazards": [
        "BR"
      ],
      "severityScore": 25,
      "metarRaw": "METAR EPRZ 270300Z 24003KT 1100 R27/P2000N BR FEW004 OVC040 01/01 Q1002",
      "tafRaw": null
    },
    {
      "icao": "LWOH",
      "iata": "OHD",
      "name": "Ohrid St. Paul the Apostle Airport",
      "lat": 41.18,
      "lon": 20.7423,
      "updatedAt": null,
      "visibility_m": null,
      "taf_visibility_m": 10000,
      "worst_visibility_m": 10000,
      "ceiling_ft": 1500,
      "hazards": [
        "RA"
      ],
      "severityScore": 24,
      "metarRaw": null,
      "tafRaw": "TAF LWOH 262330Z 2700/2724 35006KT 9999 FEW020 BKN040 \n  TEMPO 2700/2704 RA BKN015 OVC030"
    },
    {
      "icao": "EDDK",
      "iata": "CGN",
      "name": "Cologne Bonn Airport",
      "lat": 50.865898,
      "lon": 7.14274,
      "updatedAt": "270250Z",
      "visibility_m": 4000,
      "taf_visibility_m": 4000,
      "worst_visibility_m": 4000,
      "ceiling_ft": 2900,
      "hazards": [
        "BR",
        "RA"
      ],
      "severityScore": 22,
      "metarRaw": "METAR EDDK 270250Z AUTO 10004KT 060V150 5000 BR OVC029 00/M01 Q1002 TEMPO 4000",
      "tafRaw": "TAF EDDK 262300Z 2700/2806 VRB03KT 8000 OVC025 \n  BECMG 2702/2705 12005KT \n  BECMG 2707/2710 12010KT \n  TEMPO 2715/2806 4000 RA BKN012 \n  BECMG 2722/2801 12005KT \n  PROB30 \n  TEMPO 2802/2806 BKN008"
    },
    {
      "icao": "LIMF",
      "iata": "TRN",
      "name": "Turin Airport",
      "lat": 45.200802,
      "lon": 7.64963,
      "updatedAt": "270250Z",
      "visibility_m": 10000,
      "taf_visibility_m": 2000,
      "worst_visibility_m": 2000,
      "ceiling_ft": null,
      "hazards": [
        "BR",
        "RA"
      ],
      "severityScore": 22,
      "metarRaw": "METAR LIMF 270250Z 31002KT CAVOK 02/M03 Q1006",
      "tafRaw": "TAF LIMF 262300Z 2700/2724 VRB04KT 6000 SCT020 \n  TEMPO 2700/2707 2000 BR \n  BECMG 2716/2718 4000 RA"
    },
    {
      "icao": "EDNY",
      "iata": "FDH",
      "name": "Bodensee Airport Friedrichshafen",
      "lat": 47.671299,
      "lon": 9.51149,
      "updatedAt": "270250Z",
      "visibility_m": 10000,
      "taf_visibility_m": 2000,
      "worst_visibility_m": 2000,
      "ceiling_ft": null,
      "hazards": [
        "FG"
      ],
      "severityScore": 20,
      "metarRaw": "METAR EDNY 270250Z AUTO VRB02KT 9999 // NCD M02/M03 Q1003",
      "tafRaw": "TAF EDNY 270200Z 2703/2712 VRB03KT CAVOK \n  PROB30 \n  TEMPO 2704/2707 2000 BCFG"
    },
    {
      "icao": "LATI",
      "iata": "TIA",
      "name": "Tirana International Airport Mother Teresa",
      "lat": 41.4147,
      "lon": 19.7206,
      "updatedAt": null,
      "visibility_m": null,
      "taf_visibility_m": 2500,
      "worst_visibility_m": 2500,
      "ceiling_ft": 5000,
      "hazards": [
        "FG"
      ],
      "severityScore": 20,
      "metarRaw": null,
      "tafRaw": "TAF LATI 262300Z 2700/2724 VRB03KT 7000 SCT030 BKN050 TX14/2713Z TN06/2705Z \n  PROB30 \n  TEMPO 2704/2707 2500 BCFG NSC"
    },
    {
      "icao": "LIBP",
      "iata": "PSR",
      "name": "Abruzzo Airport",
      "lat": 42.431079,
      "lon": 14.182981,
      "updatedAt": "270250Z",
      "visibility_m": 6000,
      "taf_visibility_m": 3000,
      "worst_visibility_m": 3000,
      "ceiling_ft": null,
      "hazards": [
        "FG"
      ],
      "severityScore": 20,
      "metarRaw": "METAR LIBP 270250Z AUTO 20004KT 6000 NCD 02/02 Q1007",
      "tafRaw": "TAF LIBP 262300Z 2700/2724 VRB05KT CAVOK \n  TEMPO 2700/2706 3000 BCFG"
    },
    {
      "icao": "LIRN",
      "iata": "NAP",
      "name": "Naples International Airport",
      "lat": 40.886002,
      "lon": 14.2908,
      "updatedAt": "270250Z",
      "visibility_m": 10000,
      "taf_visibility_m": 2000,
      "worst_visibility_m": 2000,
      "ceiling_ft": null,
      "hazards": [
        "FG"
      ],
      "severityScore": 20,
      "metarRaw": "METAR LIRN 270250Z 33004KT CAVOK 06/03 Q1006 NOSIG",
      "tafRaw": "TAF LIRN 262300Z 2700/2724 04005KT 9999 FEW040 \n  PROB40 \n  TEMPO 2702/2707 2000 BCFG \n  BECMG 2712/2714 24010KT \n  BECMG 2716/2718 VRB05KT \n  BECMG 2722/2724 18012KT"
    },
    {
      "icao": "EGGP",
      "iata": "LPL",
      "name": "Liverpool John Lennon Airport",
      "lat": 53.334863,
      "lon": -2.849637,
      "updatedAt": "270250Z",
      "visibility_m": 4000,
      "taf_visibility_m": null,
      "worst_visibility_m": 4000,
      "ceiling_ft": null,
      "hazards": [
        "RA"
      ],
      "severityScore": 17,
      "metarRaw": "METAR EGGP 270250Z AUTO 11023G33KT 4000 RA BKN014/// 04/02 Q0986",
      "tafRaw": null
    },
    {
      "icao": "ENGM",
      "iata": "OSL",
      "name": "Oslo-Gardermoen International Airport",
      "lat": 60.193901,
      "lon": 11.1004,
      "updatedAt": "270250Z",
      "visibility_m": 10000,
      "taf_visibility_m": null,
      "worst_visibility_m": 10000,
      "ceiling_ft": 1100,
      "hazards": [],
      "severityScore": 17,
      "metarRaw": "METAR ENGM 270250Z 01004KT 9999 SCT009 BKN011 M09/M10 Q1014",
      "tafRaw": null
    },
    {
      "icao": "EHBK",
      "iata": "MST",
      "name": "Maastricht Aachen Airport",
      "lat": 50.911701,
      "lon": 5.77014,
      "updatedAt": "270255Z",
      "visibility_m": 4900,
      "taf_visibility_m": null,
      "worst_visibility_m": 4900,
      "ceiling_ft": null,
      "hazards": [
        "BR"
      ],
      "severityScore": 15,
      "metarRaw": "METAR EHBK 270255Z AUTO 11006KT 4900 BR OVC026/// 01/M00 Q1001",
      "tafRaw": null
    },
    {
      "icao": "LQTZ",
      "iata": "TZL",
      "name": "Tuzla International Airport",
      "lat": 44.459858,
      "lon": 18.723627,
      "updatedAt": "270300Z",
      "visibility_m": 3700,
      "taf_visibility_m": null,
      "worst_visibility_m": 3700,
      "ceiling_ft": 7300,
      "hazards": [
        "BR"
      ],
      "severityScore": 15,
      "metarRaw": "METAR LQTZ 270300Z VRB01KT 3700 BR FEW058 BKN073 03/03 Q1006",
      "tafRaw": null
    },
    {
      "icao": "BKPR",
      "iata": "PRN",
      "name": "Priština Adem Jashari International Airport",
      "lat": 42.5728,
      "lon": 21.035801,
      "updatedAt": "270300Z",
      "visibility_m": 10000,
      "taf_visibility_m": 3000,
      "worst_visibility_m": 3000,
      "ceiling_ft": 3000,
      "hazards": [
        "RA"
      ],
      "severityScore": 12,
      "metarRaw": "METAR BKPR 270300Z 33011KT 9999 -RA SCT015 BKN030 05/04 Q1001 NOSIG",
      "tafRaw": "TAF BKPR 262330Z 2700/2724 35008KT 9999 FEW015 BKN030 \n  TEMPO 2700/2711 3000 RA BKN015 BKN025"
    },
    {
      "icao": "GMMN",
      "iata": "CMN",
      "name": "Mohammed V International Airport",
      "lat": 33.3675,
      "lon": -7.58997,
      "updatedAt": "270300Z",
      "visibility_m": 10000,
      "taf_visibility_m": 5000,
      "worst_visibility_m": 5000,
      "ceiling_ft": 2600,
      "hazards": [
        "RA"
      ],
      "severityScore": 12,
      "metarRaw": "METAR GMMN 270300Z 20016KT 9999 FEW006 BKN026 12/10 Q1017 NOSIG",
      "tafRaw": "TAF GMMN 262300Z 2700/2806 20006KT 9999 BKN026 \n  TEMPO 2702/2724 20020G34KT \n  TEMPO 2712/2720 5000 RA SCT006 BKN020"
    },
    {
      "icao": "ENTO",
      "iata": "TRF",
      "name": "Sandefjord Airport, Torp",
      "lat": 59.186699,
      "lon": 10.2586,
      "updatedAt": "270250Z",
      "visibility_m": 10000,
      "taf_visibility_m": 10000,
      "worst_visibility_m": 10000,
      "ceiling_ft": 1200,
      "hazards": [],
      "severityScore": 12,
      "metarRaw": "METAR ENTO 270250Z AUTO 01008KT 9999 R18/P2000N R36///// FEW013/// SCT016/// OVC027/// M07/M09 Q1014",
      "tafRaw": "TAF ENTO 262300Z 2700/2724 02010KT 9999 FEW015 BKN030 \n  PROB40 \n  TEMPO 2700/2724 BKN012"
    },
    {
      "icao": "LEAL",
      "iata": "ALC",
      "name": "Alicante-Elche Miguel Hernández Airport",
      "lat": 38.2822,
      "lon": -0.558156,
      "updatedAt": "270300Z",
      "visibility_m": 10000,
      "taf_visibility_m": 10000,
      "worst_visibility_m": 10000,
      "ceiling_ft": 3000,
      "hazards": [
        "RA"
      ],
      "severityScore": 12,
      "metarRaw": "METAR LEAL 270300Z 20003KT 130V300 CAVOK 13/10 Q1007 NOSIG",
      "tafRaw": "TAF LEAL 262300Z 2700/2724 27007KT 9999 FEW040 TX20/2712Z TN11/2706Z \n  TEMPO 2700/2709 21005KT \n  BECMG 2709/2711 22015KT \n  TEMPO 2711/2714 22020G30KT \n  PROB30 \n  TEMPO 2713/2720 RA BKN030 \n  BECMG 2715/2717 27012KT \n  TEMPO 2717/2724 27015G25KT"
    },
    {
      "icao": "LEMG",
      "iata": "AGP",
      "name": "Málaga-Costa del Sol Airport",
      "lat": 36.6749,
      "lon": -4.49911,
      "updatedAt": "270300Z",
      "visibility_m": 10000,
      "taf_visibility_m": 4000,
      "worst_visibility_m": 4000,
      "ceiling_ft": 6000,
      "hazards": [
        "RA"
      ],
      "severityScore": 12,
      "metarRaw": "METAR LEMG 270300Z 16011KT 140V200 9999 SCT040 BKN060 14/10 Q1012 NOSIG",
      "tafRaw": "TAF LEMG 262300Z 2700/2724 30005KT 9999 FEW010 SCT030 TX19/2714Z TN10/2707Z \n  BECMG 2700/2702 22014KT \n  PROB40 \n  TEMPO 2706/2714 22018G30KT 4000 RA BKN014 \n  PROB30 \n  TEMPO 2707/2713 22024G40KT \n  BECMG 2713/2715 29008KT"
    },
    {
      "icao": "LEVC",
      "iata": "VLC",
      "name": "Valencia Airport",
      "lat": 39.4893,
      "lon": -0.481625,
      "updatedAt": "270300Z",
      "visibility_m": 10000,
      "taf_visibility_m": 10000,
      "worst_visibility_m": 10000,
      "ceiling_ft": 3000,
      "hazards": [
        "RA"
      ],
      "severityScore": 12,
      "metarRaw": "METAR LEVC 270300Z 26008KT CAVOK 13/10 Q1005 NOSIG",
      "tafRaw": "TAF LEVC 262300Z 2700/2724 24012KT 9999 FEW040 TX20/2712Z TN11/2706Z \n  TEMPO 2700/2709 18005KT \n  TEMPO 2710/2719 26015G25KT \n  PROB30 \n  TEMPO 2712/2718 RA BKN030 \n  BECMG 2718/2720 27015KT \n  TEMPO 2720/2724 27020G30KT"
    },
    {
      "icao": "LFSB",
      "iata": "BSL",
      "name": "EuroAirport Basel–Mulhouse–Freiburg",
      "lat": 47.60068,
      "lon": 7.521117,
      "updatedAt": "270300Z",
      "visibility_m": 10000,
      "taf_visibility_m": 10000,
      "worst_visibility_m": 10000,
      "ceiling_ft": null,
      "hazards": [
        "RA"
      ],
      "severityScore": 12,
      "metarRaw": "METAR LFSB 270300Z AUTO 19006KT CAVOK M01/M02 Q1002 NOSIG",
      "tafRaw": "TAF LFSB 262300Z 2700/2724 VRB03KT CAVOK \n  BECMG 2706/2708 11007KT \n  BECMG 2715/2717 -RA"
    },
    {
      "icao": "LIMJ",
      "iata": "GOA",
      "name": "Genoa Cristoforo Colombo Airport",
      "lat": 44.412039,
      "lon": 8.840732,
      "updatedAt": "270250Z",
      "visibility_m": 10000,
      "taf_visibility_m": 4000,
      "worst_visibility_m": 4000,
      "ceiling_ft": null,
      "hazards": [
        "RA"
      ],
      "severityScore": 12,
      "metarRaw": "METAR LIMJ 270250Z VRB02KT 9999 FEW020 SCT035 07/04 Q1006",
      "tafRaw": "TAF LIMJ 262300Z 2700/2724 03006KT 9999 SCT040 \n  BECMG 2704/2706 17010KT \n  TEMPO 2712/2715 4000 RA \n  BECMG 2718/2720 02015KT"
    },
    {
      "icao": "LLBG",
      "iata": "TLV",
      "name": "Ben Gurion International Airport",
      "lat": 32.011398,
      "lon": 34.8867,
      "updatedAt": "270250Z",
      "visibility_m": 10000,
      "taf_visibility_m": 4000,
      "worst_visibility_m": 4000,
      "ceiling_ft": 1700,
      "hazards": [],
      "severityScore": 12,
      "metarRaw": "METAR LLBG 270250Z 17009KT 9999 FEW018 15/06 Q1014 NOSIG",
      "tafRaw": "TAF LLBG 262319Z 2700/2724 VRB04KT 9999 FEW020 \n  PROB40 \n  TEMPO 2701/2705 18006KT BKN017 \n  BECMG 2707/2709 23010KT FEW035 \n  BECMG 2713/2715 VRB04KT 8000 NSC \n  PROB40 \n  TEMPO 2718/2724 12006KT 4000 HZ TX18/2711Z TN11/2704Z"
    },
    {
      "icao": "LWSK",
      "iata": "SKP",
      "name": "Skopje International Airport",
      "lat": 41.958087,
      "lon": 21.622581,
      "updatedAt": "270250Z",
      "visibility_m": 10000,
      "taf_visibility_m": 7000,
      "worst_visibility_m": 7000,
      "ceiling_ft": 3500,
      "hazards": [
        "RA"
      ],
      "severityScore": 12,
      "metarRaw": "METAR LWSK 270250Z 09003KT 9999 -RA OVC035 06/05 Q1000 NOSIG",
      "tafRaw": "TAF LWSK 262330Z 2700/2724 33008KT 9999 -RA FEW010 OVC035 \n  TEMPO 2700/2704 7000 RA FEW005 SCT010 OVC030 \n  BECMG 2707/2709 NSW \n  BECMG 2712/2714 SCT040"
    },
    {
      "icao": "UBBB",
      "iata": "GYD",
      "name": "Heydar Aliyev International Airport",
      "lat": 40.467498779296875,
      "lon": 50.04669952392578,
      "updatedAt": "270300Z",
      "visibility_m": 10000,
      "taf_visibility_m": 10000,
      "worst_visibility_m": 10000,
      "ceiling_ft": 1500,
      "hazards": [],
      "severityScore": 12,
      "metarRaw": "METAR UBBB 270300Z 01014KT 9999 BKN015 03/M00 Q1026 NOSIG",
      "tafRaw": "TAF UBBB 262300Z 2700/2724 35014G24KT 9999 BKN012 BKN025 TX05/2710Z TN02/2701Z \n  TEMPO 2700/2706 02014KT BKN006 \n  BECMG 2706/2708 03012KT \n  TEMPO 2708/2715 07010KT SCT020 \n  BECMG 2715/2717 13006KT \n  TEMPO 2717/2724 17012KT BKN015"
    },
    {
      "icao": "ENBR",
      "iata": "BGO",
      "name": "Bergen Airport, Flesland",
      "lat": 60.2934,
      "lon": 5.21814,
      "updatedAt": "270250Z",
      "visibility_m": 10000,
      "taf_visibility_m": 10000,
      "worst_visibility_m": 10000,
      "ceiling_ft": null,
      "hazards": [
        "BR"
      ],
      "severityScore": 10,
      "metarRaw": "METAR ENBR 270250Z VRB02KT CAVOK M06/M10 Q1010 RMK WIND 1200FT 30004KT",
      "tafRaw": "TAF ENBR 262300Z 2700/2724 07004KT CAVOK"
    },
    {
      "icao": "LIBR",
      "iata": "BDS",
      "name": "Brindisi Airport",
      "lat": 40.6576,
      "lon": 17.947001,
      "updatedAt": "270250Z",
      "visibility_m": 10000,
      "taf_visibility_m": 10000,
      "worst_visibility_m": 10000,
      "ceiling_ft": null,
      "hazards": [
        "BR"
      ],
      "severityScore": 10,
      "metarRaw": "METAR LIBR 270250Z 31019KT 9999 FEW025 11/08 Q1003",
      "tafRaw": "TAF LIBR 262300Z 2700/2724 31016KT 9999 FEW020 \n  BECMG 2716/2718 18010KT"
    },
    {
      "icao": "ENHD",
      "iata": "HAU",
      "name": "Haugesund Airport, Karmøy",
      "lat": 59.345299,
      "lon": 5.20836,
      "updatedAt": "270250Z",
      "visibility_m": 10000,
      "taf_visibility_m": null,
      "worst_visibility_m": 10000,
      "ceiling_ft": null,
      "hazards": [],
      "severityScore": 5,
      "metarRaw": "METAR ENHD 270250Z AUTO 24005KT 9999 NCD M07/M09 Q1010",
      "tafRaw": null
    },
    {
      "icao": "LECH",
      "iata": "CDT",
      "name": "Castellón-Costa Azahar Airport",
      "lat": 40.213889,
      "lon": 0.073333,
      "updatedAt": "270300Z",
      "visibility_m": 10000,
      "taf_visibility_m": null,
      "worst_visibility_m": 10000,
      "ceiling_ft": null,
      "hazards": [],
      "severityScore": 5,
      "metarRaw": "METAR LECH 270300Z AUTO 31001KT CAVOK 10/06 Q1003",
      "tafRaw": null
    },
    {
      "icao": "LEMD",
      "iata": "MAD",
      "name": "Adolfo Suárez Madrid–Barajas Airport",
      "lat": 40.471926,
      "lon": -3.56264,
      "updatedAt": "270300Z",
      "visibility_m": 10000,
      "taf_visibility_m": null,
      "worst_visibility_m": 10000,
      "ceiling_ft": null,
      "hazards": [],
      "severityScore": 5,
      "metarRaw": "METAR LEMD 270300Z 17013KT 9999 FEW013 09/09 Q1001 NOSIG",
      "tafRaw": null
    },
    {
      "icao": "LTAC",
      "iata": "ESB",
      "name": "Esenboğa International Airport",
      "lat": 40.128101,
      "lon": 32.995098,
      "updatedAt": "270250Z",
      "visibility_m": 10000,
      "taf_visibility_m": null,
      "worst_visibility_m": 10000,
      "ceiling_ft": 10000,
      "hazards": [],
      "severityScore": 5,
      "metarRaw": "METAR LTAC 270250Z VRB02KT 9999 SCT030 BKN100 05/01 Q1008 NOSIG",
      "tafRaw": null
    },
    {
      "icao": "LZTT",
      "iata": "TAT",
      "name": "Poprad-Tatry Airport",
      "lat": 49.073601,
      "lon": 20.2411,
      "updatedAt": "270300Z",
      "visibility_m": 10000,
      "taf_visibility_m": null,
      "worst_visibility_m": 10000,
      "ceiling_ft": 2000,
      "hazards": [],
      "severityScore": 5,
      "metarRaw": "METAR LZTT 270300Z 29011KT 9999 FEW005 BKN020 00/M01 Q1001",
      "tafRaw": null
    },
    {
      "icao": "BIKF",
      "iata": "KEF",
      "name": "Keflavik International Airport",
      "lat": 63.985001,
      "lon": -22.6056,
      "updatedAt": "270300Z",
      "visibility_m": 10000,
      "taf_visibility_m": 10000,
      "worst_visibility_m": 10000,
      "ceiling_ft": null,
      "hazards": [],
      "severityScore": 0,
      "metarRaw": "METAR BIKF 270300Z 06018KT CAVOK 04/M05 Q0997",
      "tafRaw": "TAF BIKF 270150Z 2703/2803 08023KT 9999 SCT045 TX06/2715Z TN03/2709Z \n  BECMG 2716/2718 07013KT"
    },
    {
      "icao": "GCFV",
      "iata": "FUE",
      "name": "Fuerteventura Airport",
      "lat": 28.4527,
      "lon": -13.8638,
      "updatedAt": "270300Z",
      "visibility_m": 10000,
      "taf_visibility_m": 10000,
      "worst_visibility_m": 10000,
      "ceiling_ft": 3300,
      "hazards": [],
      "severityScore": 0,
      "metarRaw": "METAR GCFV 270300Z AUTO 24005KT 9999 BKN033 14/09 Q1023",
      "tafRaw": "TAF GCFV 270200Z 2703/2803 28005KT 9999 SCT035 TX22/2714Z TN12/2706Z \n  TEMPO 2715/2719 19010KT"
    },
    {
      "icao": "GCLP",
      "iata": "LPA",
      "name": "Gran Canaria Airport",
      "lat": 27.9319,
      "lon": -15.3866,
      "updatedAt": "270300Z",
      "visibility_m": 10000,
      "taf_visibility_m": 10000,
      "worst_visibility_m": 10000,
      "ceiling_ft": 3000,
      "hazards": [],
      "severityScore": 0,
      "metarRaw": "METAR GCLP 270300Z 32005KT 9999 BKN030 16/11 Q1023 NOSIG",
      "tafRaw": "TAF GCLP 270200Z 2703/2803 30005KT 9999 FEW035 TX22/2714Z TN12/2706Z \n  TEMPO 2713/2720 19010KT"
    },
    {
      "icao": "GMAD",
      "iata": "AGA",
      "name": "Al Massira Airport",
      "lat": 30.322478,
      "lon": -9.412003,
      "updatedAt": "270300Z",
      "visibility_m": 8000,
      "taf_visibility_m": 8000,
      "worst_visibility_m": 8000,
      "ceiling_ft": null,
      "hazards": [],
      "severityScore": 0,
      "metarRaw": "METAR GMAD 270300Z 03005KT 8000 NSC 10/10 Q1022 NOSIG",
      "tafRaw": "TAF GMAD 262300Z 2700/2806 12004KT 8000 NSC"
    },
    {
      "icao": "ENAL",
      "iata": "AES",
      "name": "Ålesund Airport, Vigra",
      "lat": 62.5625,
      "lon": 6.1197,
      "updatedAt": "270250Z",
      "visibility_m": 10000,
      "taf_visibility_m": 10000,
      "worst_visibility_m": 10000,
      "ceiling_ft": null,
      "hazards": [],
      "severityScore": 0,
      "metarRaw": "METAR ENAL 270250Z AUTO 16005KT 9999 NCD M06/M09 Q1011",
      "tafRaw": "TAF ENAL 270200Z 2703/2712 15005KT CAVOK \n  BECMG 2707/2709 05010KT"
    },
    {
      "icao": "ENVA",
      "iata": "TRD",
      "name": "Trondheim Airport, Værnes",
      "lat": 63.457802,
      "lon": 10.924,
      "updatedAt": "270250Z",
      "visibility_m": 10000,
      "taf_visibility_m": 10000,
      "worst_visibility_m": 10000,
      "ceiling_ft": null,
      "hazards": [],
      "severityScore": 0,
      "metarRaw": "METAR ENVA 270250Z AUTO 10006KT 9999 NCD M13/M15 Q1013 RMK WIND 670FT 10004KT",
      "tafRaw": "TAF ENVA 262300Z 2700/2724 11005KT CAVOK"
    },
    {
      "icao": "ENZV",
      "iata": "SVG",
      "name": "Stavanger Airport, Sola",
      "lat": 58.876701,
      "lon": 5.63778,
      "updatedAt": "270250Z",
      "visibility_m": 10000,
      "taf_visibility_m": 10000,
      "worst_visibility_m": 10000,
      "ceiling_ft": null,
      "hazards": [],
      "severityScore": 0,
      "metarRaw": "METAR ENZV 270250Z AUTO VRB02KT 9999 NCD M08/M11 Q1011",
      "tafRaw": "TAF ENZV 262300Z 2700/2724 15004KT CAVOK"
    },
    {
      "icao": "ESGG",
      "iata": "GOT",
      "name": "Göteborg Landvetter Airport",
      "lat": 57.6628,
      "lon": 12.2798,
      "updatedAt": "270250Z",
      "visibility_m": 10000,
      "taf_visibility_m": 10000,
      "worst_visibility_m": 10000,
      "ceiling_ft": 2500,
      "hazards": [],
      "severityScore": 0,
      "metarRaw": "METAR ESGG 270250Z 04010KT 9999 BKN025 M05/M07 Q1009",
      "tafRaw": "TAF ESGG 270230Z 2703/2803 05011KT 9999 BKN025 \n  PROB40 2703/2718 BKN014"
    },
    {
      "icao": "ESKN",
      "iata": "NYO",
      "name": "Stockholm Skavsta Airport",
      "lat": 58.789656,
      "lon": 16.911479,
      "updatedAt": "270250Z",
      "visibility_m": 10000,
      "taf_visibility_m": 10000,
      "worst_visibility_m": 10000,
      "ceiling_ft": 3000,
      "hazards": [],
      "severityScore": 0,
      "metarRaw": "METAR ESKN 270250Z 02008KT 330V050 9999 BKN030 M05/M07 Q1013",
      "tafRaw": "TAF ESKN 270230Z 2703/2803 02008KT 9999 BKN030"
    },
    {
      "icao": "ESSA",
      "iata": "ARN",
      "name": "Stockholm-Arlanda Airport",
      "lat": 59.64849,
      "lon": 17.928829,
      "updatedAt": "270250Z",
      "visibility_m": 10000,
      "taf_visibility_m": 10000,
      "worst_visibility_m": 10000,
      "ceiling_ft": 2200,
      "hazards": [],
      "severityScore": 0,
      "metarRaw": "METAR ESSA 270250Z 35002KT 9999 BKN022 M09/M10 Q1014 NOSIG",
      "tafRaw": "TAF ESSA 270230Z 2703/2803 05005KT 9999 BKN025"
    },
    {
      "icao": "HEGN",
      "iata": "HRG",
      "name": "Hurghada International Airport",
      "lat": 27.176776,
      "lon": 33.796692,
      "updatedAt": "270200Z",
      "visibility_m": 10000,
      "taf_visibility_m": 4000,
      "worst_visibility_m": 4000,
      "ceiling_ft": null,
      "hazards": [],
      "severityScore": 0,
      "metarRaw": "METAR HEGN 270200Z 30006KT CAVOK 15/06 Q1015 NOSIG",
      "tafRaw": "TAF HEGN 262300Z 2700/2806 24008KT CAVOK \n  TEMPO 2706/2716 34018KT 6000 NSC \n  TEMPO 2707/2714 4000 SA"
    },
    {
      "icao": "HEMA",
      "iata": "RMF",
      "name": "Marsa Alam International Airport",
      "lat": 25.555548,
      "lon": 34.59245,
      "updatedAt": "270200Z",
      "visibility_m": 10000,
      "taf_visibility_m": 4000,
      "worst_visibility_m": 4000,
      "ceiling_ft": null,
      "hazards": [],
      "severityScore": 0,
      "metarRaw": "METAR HEMA 270200Z 34006KT CAVOK 17/11 Q1014 NOSIG",
      "tafRaw": "TAF HEMA 262300Z 2700/2806 22008KT CAVOK \n  TEMPO 2706/2716 34018KT 6000 NSC \n  TEMPO 2707/2714 4000 SA"
    },
    {
      "icao": "HESH",
      "iata": "SSH",
      "name": "Sharm El Sheikh International Airport",
      "lat": 27.977272,
      "lon": 34.394717,
      "updatedAt": "270200Z",
      "visibility_m": 10000,
      "taf_visibility_m": 6000,
      "worst_visibility_m": 6000,
      "ceiling_ft": null,
      "hazards": [],
      "severityScore": 0,
      "metarRaw": "METAR HESH 270200Z 23002KT CAVOK 16/10 Q1014 NOSIG",
      "tafRaw": "TAF HESH 262300Z 2700/2806 30008KT CAVOK \n  TEMPO 2706/2716 22012KT 6000 NSC"
    },
    {
      "icao": "HESX",
      "iata": "SPX",
      "name": "Sphinx International Airport",
      "lat": 30.108179,
      "lon": 30.895728,
      "updatedAt": "270200Z",
      "visibility_m": 10000,
      "taf_visibility_m": 3000,
      "worst_visibility_m": 3000,
      "ceiling_ft": null,
      "hazards": [],
      "severityScore": 0,
      "metarRaw": "METAR HESX 270200Z 20005KT CAVOK 09/01 Q1016 NOSIG",
      "tafRaw": "TAF HESX 262300Z 2700/2806 22009KT CAVOK \n  TEMPO 2700/2707 4000 HZ NSC \n  TEMPO 2708/2718 22015G25KT 3000 SA NSC"
    },
    {
      "icao": "LGAV",
      "iata": "ATH",
      "name": "Athens Eleftherios Venizelos International Airport",
      "lat": 37.936401,
      "lon": 23.9445,
      "updatedAt": "270250Z",
      "visibility_m": 10000,
      "taf_visibility_m": 10000,
      "worst_visibility_m": 10000,
      "ceiling_ft": 7000,
      "hazards": [],
      "severityScore": 0,
      "metarRaw": "METAR LGAV 270250Z VRB02KT 9999 FEW020 10/05 Q1001 NOSIG",
      "tafRaw": "TAF LGAV 262300Z 2700/2724 26012KT 9999 SCT020 BKN070 \n  BECMG 2702/2704 VRB05KT \n  TEMPO 2710/2712 02010KT"
    },
    {
      "icao": "LIBD",
      "iata": "BRI",
      "name": "Bari Karol Wojtyła International Airport",
      "lat": 41.138901,
      "lon": 16.760599,
      "updatedAt": "270250Z",
      "visibility_m": 10000,
      "taf_visibility_m": 10000,
      "worst_visibility_m": 10000,
      "ceiling_ft": null,
      "hazards": [],
      "severityScore": 0,
      "metarRaw": "METAR LIBD 270250Z 27010KT CAVOK 07/05 Q1005",
      "tafRaw": "TAF LIBD 262300Z 2700/2724 28008KT 9999 SCT025"
    },
    {
      "icao": "LIBG",
      "iata": "TAR",
      "name": "Taranto-Grottaglie Marcello Arlotta Airport",
      "lat": 40.517502,
      "lon": 17.4032,
      "updatedAt": null,
      "visibility_m": null,
      "taf_visibility_m": 10000,
      "worst_visibility_m": 10000,
      "ceiling_ft": null,
      "hazards": [],
      "severityScore": 0,
      "metarRaw": null,
      "tafRaw": "TAF LIBG 261700Z 2618/2703 32006KT 9999 FEW030"
    },
    {
      "icao": "LICC",
      "iata": "CTA",
      "name": "Catania-Fontanarossa Airport",
      "lat": 37.466801,
      "lon": 15.0664,
      "updatedAt": "270250Z",
      "visibility_m": 10000,
      "taf_visibility_m": 10000,
      "worst_visibility_m": 10000,
      "ceiling_ft": null,
      "hazards": [],
      "severityScore": 0,
      "metarRaw": "METAR LICC 270250Z 29006KT CAVOK 08/06 Q1004",
      "tafRaw": "TAF LICC 262300Z 2700/2724 26012KT 9999 FEW050 \n  BECMG 2712/2714 11006KT \n  BECMG 2719/2721 26012KT"
    },
    {
      "icao": "LMML",
      "iata": "MLA",
      "name": "Malta International Airport",
      "lat": 35.857498,
      "lon": 14.4775,
      "updatedAt": "270315Z",
      "visibility_m": 10000,
      "taf_visibility_m": 10000,
      "worst_visibility_m": 10000,
      "ceiling_ft": null,
      "hazards": [],
      "severityScore": 0,
      "metarRaw": "METAR LMML 270315Z 30014KT 9999 FEW028 12/08 Q1006 NOSIG",
      "tafRaw": "TAF LMML 262300Z 2700/2724 30016KT 9999 FEW020 \n  TEMPO 2700/2712 30018G28KT \n  BECMG 2721/2724 21015G25KT"
    },
    {
      "icao": "OEJN",
      "iata": "JED",
      "name": "King Abdulaziz International Airport",
      "lat": 21.6796,
      "lon": 39.156502,
      "updatedAt": "270300Z",
      "visibility_m": 10000,
      "taf_visibility_m": 7000,
      "worst_visibility_m": 7000,
      "ceiling_ft": null,
      "hazards": [],
      "severityScore": 0,
      "metarRaw": "METAR OEJN 270300Z 13004KT CAVOK 24/12 Q1013 NOSIG",
      "tafRaw": "TAF OEJN 262300Z 2700/2806 VRB03KT 7000 NSC \n  BECMG 2708/2710 22010KT 9999 FEW040 \n  BECMG 2718/2720 VRB03KT 7000 SCT040"
    },
    {
      "icao": "OEMA",
      "iata": "MED",
      "name": "Prince Mohammad Bin Abdulaziz Airport",
      "lat": 24.5534,
      "lon": 39.705101,
      "updatedAt": "270300Z",
      "visibility_m": 8000,
      "taf_visibility_m": 7000,
      "worst_visibility_m": 7000,
      "ceiling_ft": null,
      "hazards": [],
      "severityScore": 0,
      "metarRaw": "METAR OEMA 270300Z 00000KT 8000 NSC 14/M03 Q1019 NOSIG",
      "tafRaw": "TAF OEMA 262300Z 2700/2806 07005KT CAVOK \n  BECMG 2710/2712 24014KT 9999 FEW040 \n  BECMG 2718/2720 VRB03KT 7000 SCT040"
    },
    {
      "icao": "OJAI",
      "iata": "AMM",
      "name": "Queen Alia International Airport",
      "lat": 31.7226009369,
      "lon": 35.9931983948,
      "updatedAt": "270200Z",
      "visibility_m": 5000,
      "taf_visibility_m": 4000,
      "worst_visibility_m": 4000,
      "ceiling_ft": null,
      "hazards": [],
      "severityScore": 0,
      "metarRaw": "METAR OJAI 270200Z 00000KT 5000 HZ NSC 08/M01 Q1016 NOSIG",
      "tafRaw": "TAF OJAI 262257Z 2700/2806 22006KT 5000 HZ NSC \n  PROB30 \n  TEMPO 2704/2709 4000 DU \n  BECMG 2703/2705 25012KT"
    },
    {
      "icao": "OMAA",
      "iata": "AUH",
      "name": "Zayed International Airport",
      "lat": 24.440966,
      "lon": 54.649237,
      "updatedAt": "270300Z",
      "visibility_m": 10000,
      "taf_visibility_m": 4000,
      "worst_visibility_m": 4000,
      "ceiling_ft": null,
      "hazards": [],
      "severityScore": 0,
      "metarRaw": "METAR OMAA 270300Z 15002KT CAVOK 15/12 Q1021 NOSIG",
      "tafRaw": "TAF OMAA 262300Z 2700/2806 VRB02KT 8000 NSC \n  PROB30 2701/2705 4000 HZ \n  BECMG 2711/2713 33011KT \n  BECMG 2718/2720 04005KT"
    },
    {
      "icao": "UGKO",
      "iata": "KUT",
      "name": "David the Builder Kutaisi International Airport",
      "lat": 42.177448,
      "lon": 42.485353,
      "updatedAt": "270300Z",
      "visibility_m": 10000,
      "taf_visibility_m": 10000,
      "worst_visibility_m": 10000,
      "ceiling_ft": null,
      "hazards": [],
      "severityScore": 0,
      "metarRaw": "METAR UGKO 270300Z AUTO 08033G47KT CAVOK 10/01 Q1011 NOSIG",
      "tafRaw": "TAF UGKO 262300Z 2700/2724 08027G41KT CAVOK TX13/2711Z TN07/2724Z \n  TEMPO 2700/2710 08032G51KT"
    }
  ],
  "stats": {
    "icaoCount": 159,
    "metarReturned": 154,
    "tafReturned": 141,
    "stationsWritten": 159,
    "missingMetar": 5,
    "missingTaf": 18
  },
  "errors": []
}