{
  "generatedAt": "2026-01-25T11:43:08.050Z",
  "stations": [
    {
      "icao": "EBCI",
      "iata": "CRL",
      "name": "Brussels South Charleroi Airport",
      "lat": 50.461963,
      "lon": 4.459562,
      "updatedAt": "251120Z",
      "visibility_m": 7000,
      "taf_visibility_m": 300,
      "worst_visibility_m": 300,
      "ceiling_ft": 3200,
      "hazards": [
        "FZFG",
        "BR",
        "FG"
      ],
      "severityScore": 100,
      "metarRaw": "METAR EBCI 251120Z 15006KT 130V190 7000 BKN032 03/01 Q0996 NOSIG",
      "tafRaw": "TAF EBCI 251110Z 2512/2618 12005KT 7000 BKN006 \n  BECMG 2512/2514 BKN012 \n  TEMPO 2514/2524 SCT012 \n  BECMG 2600/2603 4000 BR BKN007 \n  PROB40 \n  TEMPO 2603/2611 2000 -SG BKN003 \n  PROB30 \n  TEMPO 2604/2609 0300 FZFG BKN001 \n  BECMG 2611/2613 7000 NSW BKN012 \n  TEMPO 2613/2618 BKN016"
    },
    {
      "icao": "EDDB",
      "iata": "BER",
      "name": "Berlin Brandenburg Willy Brandt Airport",
      "lat": 52.361738,
      "lon": 13.502341,
      "updatedAt": "251120Z",
      "visibility_m": 4000,
      "taf_visibility_m": 1200,
      "worst_visibility_m": 1200,
      "ceiling_ft": 1100,
      "hazards": [
        "BR",
        "FZRA",
        "SN",
        "FZDZ",
        "RA",
        "DZ"
      ],
      "severityScore": 100,
      "metarRaw": "METAR EDDB 251120Z AUTO 07009KT 4000 BR OVC011 M02/M05 Q1005 NOSIG",
      "tafRaw": "TAF EDDB 251100Z 2512/2612 06011KT 4000 BR OVC012 \n  PROB30 \n  TEMPO 2512/2517 5000 BKN015 \n  BECMG 2516/2519 BKN008 \n  TEMPO 2520/2603 2500 -FZRA \n  BECMG 2522/2524 -SNRA BKN004 \n  PROB40 \n  TEMPO 2600/2607 1200 SN \n  PROB30 \n  TEMPO 2607/2612 -FZDZ \n  BECMG 2610/2612 19005KT"
    },
    {
      "icao": "EDFH",
      "iata": "HHN",
      "name": "Frankfurt-Hahn Airport",
      "lat": 49.946353,
      "lon": 7.261734,
      "updatedAt": "251120Z",
      "visibility_m": 3800,
      "taf_visibility_m": 400,
      "worst_visibility_m": 400,
      "ceiling_ft": 100,
      "hazards": [
        "BR",
        "FZFG",
        "FG"
      ],
      "severityScore": 100,
      "metarRaw": "METAR EDFH 251120Z 14011KT 3800 BR NSC M04/M05 Q0997",
      "tafRaw": "TAF EDFH 251100Z 2512/2612 15014KT 3000 BR OVC003 \n  TEMPO 2512/2521 1200 OVC001 \n  PROB30 \n  TEMPO 2512/2516 5000 SCT003 \n  BECMG 2518/2521 15006KT \n  TEMPO 2521/2610 0400 FZFG VV001 \n  BECMG 2600/2603 28008KT"
    },
    {
      "icao": "EPGD",
      "iata": "GDN",
      "name": "Gdańsk Lech Wałęsa Airport",
      "lat": 54.377602,
      "lon": 18.4662,
      "updatedAt": "251130Z",
      "visibility_m": 10000,
      "taf_visibility_m": 1200,
      "worst_visibility_m": 1200,
      "ceiling_ft": 1100,
      "hazards": [
        "FZRA",
        "SN",
        "FZDZ",
        "RA",
        "DZ"
      ],
      "severityScore": 100,
      "metarRaw": "METAR EPGD 251130Z 11008KT 9999 BKN011 M06/M08 Q1011",
      "tafRaw": "TAF EPGD 251130Z 2512/2612 10010KT 9999 OVC040 \n  BECMG 2512/2514 OVC011 \n  BECMG 2514/2517 OVC007 \n  PROB30 \n  TEMPO 2515/2603 -FZDZ \n  BECMG 2603/2605 -FZRA \n  TEMPO 2605/2612 3000 FZRA BKN002 \n  PROB40 \n  TEMPO 2610/2612 1200 SN BKN001"
    },
    {
      "icao": "EPKK",
      "iata": "KRK",
      "name": "Kraków John Paul II International Airport",
      "lat": 50.077702,
      "lon": 19.7848,
      "updatedAt": "251130Z",
      "visibility_m": 400,
      "taf_visibility_m": 300,
      "worst_visibility_m": 300,
      "ceiling_ft": 100,
      "hazards": [
        "FZFG",
        "FG",
        "BR"
      ],
      "severityScore": 100,
      "metarRaw": "METAR EPKK 251130Z 06009KT 0400 R25/0600N FZFG BKN001 OVC002 M00/M01 Q1006",
      "tafRaw": "TAF EPKK 251130Z 2512/2612 06010KT 0300 FZFG OVC002 \n  TEMPO 2512/2515 0600 FG BKN001 OVC002 \n  BECMG 2515/2518 0800 FG \n  BECMG 2518/2521 6000 NSC \n  BECMG 2603/2606 VRB02KT \n  PROB40 2603/2609 1400 BR BKN003"
    },
    {
      "icao": "EPLB",
      "iata": "LUZ",
      "name": "Lublin Airport",
      "lat": 51.240157,
      "lon": 22.713461,
      "updatedAt": "251130Z",
      "visibility_m": 6000,
      "taf_visibility_m": 2500,
      "worst_visibility_m": 2500,
      "ceiling_ft": 900,
      "hazards": [
        "BR",
        "FZRA",
        "FZDZ",
        "RA",
        "DZ"
      ],
      "severityScore": 100,
      "metarRaw": "METAR EPLB 251130Z 10014KT 6000 BKN009 BKN030 M05/M06 Q1011",
      "tafRaw": "TAF EPLB 251130Z 2512/2612 10012KT 6000 BKN008 \n  TEMPO 2512/2521 -FZDZ \n  PROB30 \n  TEMPO 2512/2521 4000 -FZRA BR BKN004 \n  TEMPO 2521/2606 2500 -FZRA -FZDZ BKN003 \n  BECMG 2606/2609 BKN012 \n  BECMG 2609/2611 BKN015"
    },
    {
      "icao": "EPMO",
      "iata": "WMI",
      "name": "Modlin Airport",
      "lat": 52.451099,
      "lon": 20.6518,
      "updatedAt": "251130Z",
      "visibility_m": 6000,
      "taf_visibility_m": 2500,
      "worst_visibility_m": 2500,
      "ceiling_ft": 1100,
      "hazards": [
        "BR",
        "FZRA",
        "FZDZ",
        "RA",
        "DZ"
      ],
      "severityScore": 100,
      "metarRaw": "METAR EPMO 251130Z 08010KT 6000 BKN011 M05/M06 Q1011",
      "tafRaw": "TAF EPMO 251130Z 2512/2612 10010KT 6000 BKN011 \n  TEMPO 2512/2523 -FZDZ BKN007 \n  PROB40 \n  TEMPO 2512/2523 4000 -FZRA BR BKN004 \n  TEMPO 2523/2609 2500 -FZRA -FZDZ BR BKN003 BKN006 \n  BECMG 2610/2612 BKN015"
    },
    {
      "icao": "EPPO",
      "iata": "POZ",
      "name": "Poznań-Ławica Airport",
      "lat": 52.421598,
      "lon": 16.823359,
      "updatedAt": "251130Z",
      "visibility_m": 4400,
      "taf_visibility_m": 2000,
      "worst_visibility_m": 2000,
      "ceiling_ft": 600,
      "hazards": [
        "BR",
        "FZDZ",
        "DZ",
        "FZRA",
        "RA"
      ],
      "severityScore": 100,
      "metarRaw": "METAR EPPO 251130Z 07012KT 4400 -FZDZ BR OVC006 M03/M05 Q1007",
      "tafRaw": "TAF EPPO 251130Z 2512/2612 08010KT 4000 BR OVC007 \n  TEMPO 2512/2522 2500 -FZDZ BR OVC004 \n  PROB40 \n  TEMPO 2512/2522 7000 BKN012 \n  BECMG 2522/2601 2000 FZRA FZDZ BR OVC004 \n  BECMG 2604/2606 3000 RA BR \n  BECMG 2609/2612 15007KT 6000 NSW BKN012"
    },
    {
      "icao": "EPSC",
      "iata": "SZZ",
      "name": "Solidarity Szczecin–Goleniów Airport",
      "lat": 53.584702,
      "lon": 14.9022,
      "updatedAt": "251130Z",
      "visibility_m": 10000,
      "taf_visibility_m": 3000,
      "worst_visibility_m": 3000,
      "ceiling_ft": 1500,
      "hazards": [
        "BR",
        "FZRA",
        "FZDZ",
        "RA",
        "DZ"
      ],
      "severityScore": 100,
      "metarRaw": "METAR EPSC 251130Z 07008KT 030V090 9999 BKN015 M02/M06 Q1007",
      "tafRaw": "TAF EPSC 251130Z 2512/2612 09009KT 9999 OVC014 \n  TEMPO 2512/2515 BKN017 \n  PROB40 \n  TEMPO 2515/2521 -FZDZ \n  BECMG 2518/2521 BKN007 \n  BECMG 2521/2524 -FZRA \n  TEMPO 2600/2612 3000 FZRA BR OVC003"
    },
    {
      "icao": "EPWA",
      "iata": "WAW",
      "name": "Warsaw Chopin Airport",
      "lat": 52.165699,
      "lon": 20.9671,
      "updatedAt": "251130Z",
      "visibility_m": 9000,
      "taf_visibility_m": 2500,
      "worst_visibility_m": 2500,
      "ceiling_ft": 900,
      "hazards": [
        "FZDZ",
        "DZ",
        "BR",
        "FZRA",
        "RA"
      ],
      "severityScore": 100,
      "metarRaw": "METAR EPWA 251130Z 10011G21KT 080V170 9000 BKN011 M05/M07 Q1010 TEMPO -FZDZ BKN009",
      "tafRaw": "TAF EPWA 251130Z 2512/2612 10012KT 8000 BKN011 \n  TEMPO 2512/2522 -FZDZ BKN008 \n  PROB30 \n  TEMPO 2512/2522 4500 -FZRA BR BKN004 \n  TEMPO 2522/2608 2500 -FZRA -FZDZ BR BKN004 BKN007 \n  BECMG 2609/2612 BKN015"
    },
    {
      "icao": "EYKA",
      "iata": "KUN",
      "name": "Kaunas International Airport",
      "lat": 54.963965,
      "lon": 24.08582,
      "updatedAt": "251120Z",
      "visibility_m": 10000,
      "taf_visibility_m": 1500,
      "worst_visibility_m": 1500,
      "ceiling_ft": 1000,
      "hazards": [
        "BR",
        "FZRA",
        "SN",
        "FZDZ",
        "RA",
        "DZ"
      ],
      "severityScore": 100,
      "metarRaw": "METAR EYKA 251120Z 12010KT 090V150 CAVOK M06/M11 Q1017",
      "tafRaw": "TAF EYKA 251104Z 2512/2612 12010KT 9000 NSC \n  BECMG 2517/2520 5000 SN BKN015 \n  TEMPO 2520/2604 1500 BKN010 \n  PROB30 \n  TEMPO 2600/2604 -FZDZ \n  BECMG 2604/2606 BR OVC010 \n  TEMPO 2609/2612 3000 SN -FZRA"
    },
    {
      "icao": "EYVI",
      "iata": "VNO",
      "name": "Vilnius International Airport",
      "lat": 54.634102,
      "lon": 25.285801,
      "updatedAt": "251120Z",
      "visibility_m": 10000,
      "taf_visibility_m": 1500,
      "worst_visibility_m": 1500,
      "ceiling_ft": 500,
      "hazards": [
        "BR",
        "SN",
        "FZDZ",
        "DZ"
      ],
      "severityScore": 100,
      "metarRaw": "METAR EYVI 251120Z 12007KT CAVOK M09/M14 Q1018 NOSIG",
      "tafRaw": "TAF EYVI 251101Z 2512/2612 13012KT 9000 NSC \n  TEMPO 2515/2518 5000 BR SCT010 \n  BECMG 2518/2520 BKN010 OVC020 \n  TEMPO 2521/2603 3000 SN BKN005 \n  TEMPO 2608/2612 1500 SN BKN005 \n  PROB40 \n  TEMPO 2608/2612 FZDZ"
    },
    {
      "icao": "LBPD",
      "iata": "PDV",
      "name": "Plovdiv International Airport",
      "lat": 42.067799,
      "lon": 24.8508,
      "updatedAt": "251130Z",
      "visibility_m": 10000,
      "taf_visibility_m": 600,
      "worst_visibility_m": 600,
      "ceiling_ft": 200,
      "hazards": [
        "FG",
        "BR",
        "RA"
      ],
      "severityScore": 100,
      "metarRaw": "METAR LBPD 251130Z AUTO VRB02KT 9999 OVC008/// 04/04 Q1015 NOSIG",
      "tafRaw": "TAF LBPD 251100Z 2512/2612 VRB04KT 9999 OVC010 \n  BECMG 2518/2520 3000 BR OVC005 \n  TEMPO 2522/2604 0600 FG OVC002 \n  BECMG 2605/2607 06014KT 9999 SCT025 OVC040 \n  TEMPO 2607/2612 5000 RA BKN015 OVC030"
    },
    {
      "icao": "LBWN",
      "iata": "VAR",
      "name": "Varna Airport",
      "lat": 43.232101,
      "lon": 27.8251,
      "updatedAt": "251130Z",
      "visibility_m": 10000,
      "taf_visibility_m": 500,
      "worst_visibility_m": 500,
      "ceiling_ft": 200,
      "hazards": [
        "FG",
        "BR"
      ],
      "severityScore": 100,
      "metarRaw": "METAR LBWN 251130Z VRB02KT 9999 SCT032 12/07 Q1014 NOSIG",
      "tafRaw": "TAF LBWN 251100Z 2512/2612 13008KT 9999 SCT015 BKN045 \n  TEMPO 2518/2603 3000 BR BKN005 OVC012 \n  PROB40 2519/2524 0500 FG VV002 \n  BECMG 2607/2609 12018KT BKN040"
    },
    {
      "icao": "LFOB",
      "iata": "BVA",
      "name": "Beauvais Tillé airport",
      "lat": 49.454399,
      "lon": 2.11278,
      "updatedAt": "251130Z",
      "visibility_m": 10000,
      "taf_visibility_m": 500,
      "worst_visibility_m": 500,
      "ceiling_ft": 900,
      "hazards": [
        "FG",
        "BR",
        "RA"
      ],
      "severityScore": 100,
      "metarRaw": "METAR LFOB 251130Z AUTO 13011KT 9999 BKN009 OVC013 06/05 Q0993 NOSIG",
      "tafRaw": "TAF LFOB 251100Z 2512/2612 13007KT 6000 OVC012 \n  TEMPO 2512/2521 OVC006 \n  PROB40 \n  TEMPO 2514/2521 4000 -RA \n  BECMG 2521/2601 VRB03KT 2000 BR OVC002 \n  PROB40 2601/2610 0500 FG VV/// \n  TEMPO 2610/2612 4000 OVC004 \n  PROB40 \n  TEMPO 2610/2612 OVC007"
    },
    {
      "icao": "LIMC",
      "iata": "MXP",
      "name": "Milan Malpensa International Airport",
      "lat": 45.6306,
      "lon": 8.72811,
      "updatedAt": "251120Z",
      "visibility_m": 900,
      "taf_visibility_m": 300,
      "worst_visibility_m": 300,
      "ceiling_ft": 200,
      "hazards": [
        "FG",
        "BR"
      ],
      "severityScore": 100,
      "metarRaw": "METAR LIMC 251120Z 22005KT 0900 R35R/P2000N R17L/P2000N R35L/1000N BCFG OVC002 04/04 Q0998 NOSIG",
      "tafRaw": "TAF LIMC 251100Z 2512/2618 VRB05KT 2000 BR BKN020 \n  TEMPO 2512/2514 0800 FG BKN002 \n  TEMPO 2523/2609 0300 FG OVC001 \n  BECMG 2609/2611 6000 FEW020"
    },
    {
      "icao": "LIME",
      "iata": "BGY",
      "name": "Milan Bergamo Airport / Antonio Locatelli Air Base",
      "lat": 45.670725,
      "lon": 9.709223,
      "updatedAt": "251120Z",
      "visibility_m": 150,
      "taf_visibility_m": 200,
      "worst_visibility_m": 150,
      "ceiling_ft": 200,
      "hazards": [
        "FG",
        "BR"
      ],
      "severityScore": 100,
      "metarRaw": "METAR LIME 251120Z 24006KT 0150 R28/0650D FG VV002 06/06 Q0998 NOSIG",
      "tafRaw": "TAF LIME 251100Z 2512/2612 VRB05KT 2000 BR BKN005 \n  TEMPO 2512/2515 0200 FG OVC001 \n  PROB40 \n  TEMPO 2517/2522 0500 FG \n  BECMG 2606/2608 6000 FEW010"
    },
    {
      "icao": "LIPE",
      "iata": "BLQ",
      "name": "Bologna Guglielmo Marconi Airport",
      "lat": 44.5354,
      "lon": 11.2887,
      "updatedAt": "251120Z",
      "visibility_m": 4500,
      "taf_visibility_m": 500,
      "worst_visibility_m": 500,
      "ceiling_ft": 600,
      "hazards": [
        "BR",
        "FG",
        "RA"
      ],
      "severityScore": 100,
      "metarRaw": "METAR LIPE 251120Z 27007KT 4500 BR OVC006 06/05 Q0999",
      "tafRaw": "TAF LIPE 251100Z 2512/2612 VRB05KT 7000 BKN008 \n  TEMPO 2512/2523 2500 -RA BR \n  TEMPO 2523/2610 0500 FG OVC002"
    },
    {
      "icao": "LIPZ",
      "iata": "VCE",
      "name": "Venice Marco Polo Airport",
      "lat": 45.505299,
      "lon": 12.3519,
      "updatedAt": "251120Z",
      "visibility_m": 8000,
      "taf_visibility_m": 150,
      "worst_visibility_m": 150,
      "ceiling_ft": 500,
      "hazards": [
        "RA",
        "FG",
        "BR"
      ],
      "severityScore": 100,
      "metarRaw": "METAR LIPZ 251120Z 27009KT 8000 -RA BKN005 07/07 Q0997 NOSIG",
      "tafRaw": "TAF LIPZ 251100Z 2512/2618 25010KT 7000 BKN005 \n  TEMPO 2512/2514 4000 -RA \n  BECMG 2515/2517 VRB04KT FEW030 \n  BECMG 2518/2520 2000 BR BKN006 \n  TEMPO 2523/2603 1000 -RA \n  TEMPO 2603/2609 0150 FG BKN001 \n  BECMG 2609/2611 7000 FEW015"
    },
    {
      "icao": "LJLJ",
      "iata": "LJU",
      "name": "Ljubljana Jože Pučnik Airport",
      "lat": 46.223701,
      "lon": 14.4576,
      "updatedAt": "251130Z",
      "visibility_m": 2000,
      "taf_visibility_m": 400,
      "worst_visibility_m": 400,
      "ceiling_ft": 300,
      "hazards": [
        "BR",
        "RA",
        "FG",
        "SN"
      ],
      "severityScore": 100,
      "metarRaw": "METAR LJLJ 251130Z 36004KT 320V020 2000 RA BR BKN003 OVC010 03/03 Q0998 NOSIG",
      "tafRaw": "TAF LJLJ 251100Z 2512/2612 30003KT 2500 RA BR BKN003 OVC010 \n  PROB30 \n  TEMPO 2512/2515 12010KT \n  BECMG 2515/2517 6000 NSW SCT003 BKN015 \n  TEMPO 2518/2609 0400 FG VV002 \n  TEMPO 2601/2612 2500 -RASN BR SCT003 BKN012 OVC020"
    },
    {
      "icao": "LKMT",
      "iata": "OSR",
      "name": "Leoš Janáček Airport Ostrava",
      "lat": 49.696301,
      "lon": 18.111099,
      "updatedAt": "251130Z",
      "visibility_m": 1600,
      "taf_visibility_m": 800,
      "worst_visibility_m": 800,
      "ceiling_ft": 400,
      "hazards": [
        "BR",
        "FG",
        "RA"
      ],
      "severityScore": 100,
      "metarRaw": "METAR LKMT 251130Z VRB02KT 1600 R22/1700U R04/1400U BR BKN004 00/M01 Q1003 TEMPO 3500 BR",
      "tafRaw": "TAF LKMT 251100Z 2512/2612 02006KT 3500 BR SCT006 BKN022 \n  PROB40 2512/2515 0800 FG BKN002 OVC005 \n  TEMPO 2518/2603 2500 -RA BR BKN014 \n  BECMG 2603/2605 21012KT 9999 BKN030"
    },
    {
      "icao": "LKPR",
      "iata": "PRG",
      "name": "Václav Havel Airport Prague",
      "lat": 50.100874,
      "lon": 14.259911,
      "updatedAt": "251130Z",
      "visibility_m": 150,
      "taf_visibility_m": 300,
      "worst_visibility_m": 150,
      "ceiling_ft": 100,
      "hazards": [
        "FZFG",
        "FG",
        "BR",
        "SN",
        "RA"
      ],
      "severityScore": 100,
      "metarRaw": "METAR LKPR 251130Z VRB03KT 0150 R24/0350N R30/0225N FZFG VV001 M00/M00 Q1000 NOSIG",
      "tafRaw": "TAF LKPR 251100Z 2512/2618 06006KT 0300 FZFG VV002 \n  TEMPO 2512/2515 0800 FZFG BKN003 \n  BECMG 2515/2517 4000 -RA BR OVC008 \n  TEMPO 2517/2602 2000 RA BR BKN003 \n  PROB40 \n  TEMPO 2602/2604 2000 -RASN BKN003 \n  BECMG 2604/2606 19010KT 9999 BKN015 \n  TEMPO 2612/2618 6000 -SN BKN008"
    },
    {
      "icao": "LOWW",
      "iata": "VIE",
      "name": "Vienna International Airport",
      "lat": 48.110298,
      "lon": 16.5697,
      "updatedAt": "251120Z",
      "visibility_m": 3200,
      "taf_visibility_m": 400,
      "worst_visibility_m": 400,
      "ceiling_ft": 400,
      "hazards": [
        "BR",
        "DZ",
        "FG",
        "RA"
      ],
      "severityScore": 100,
      "metarRaw": "METAR LOWW 251120Z 13013KT 3200 -DZ BR BKN004 02/01 Q1002 TEMPO 5000 BR BKN010",
      "tafRaw": "TAF LOWW 251115Z 2512/2618 14012KT 2000 BR FEW002 BKN005 TX04/2614Z TNM00/2607Z \n  TEMPO 2512/2522 4000 -RA \n  PROB40 \n  TEMPO 2516/2520 RA BKN003 \n  FM260000 VRB02KT 0700 FG VV002 \n  TEMPO 2603/2609 0400 VV001 \n  BECMG 2610/2612 27007KT 9999 NSW FEW012 \n  TEMPO 2616/2618 4000 BR"
    },
    {
      "icao": "LQSA",
      "iata": "SJJ",
      "name": "Sarajevo International Airport",
      "lat": 43.8246,
      "lon": 18.331499,
      "updatedAt": "251130Z",
      "visibility_m": 10000,
      "taf_visibility_m": 1200,
      "worst_visibility_m": 1200,
      "ceiling_ft": 300,
      "hazards": [
        "BR",
        "TSRA",
        "RA",
        "SHRA",
        "TS"
      ],
      "severityScore": 100,
      "metarRaw": "METAR LQSA 251130Z 15015G31KT 110V220 9999 SCT055 11/03 Q1001 NOSIG",
      "tafRaw": "TAF LQSA 251100Z 2512/2612 11006KT 9999 BKN050 TX12/2513Z TN03/2606Z \n  TEMPO 2512/2516 17025G40KT \n  TEMPO 2515/2521 3000 SHRA SCT010 FEW035TCU BKN045 \n  PROB30 \n  TEMPO 2516/2519 VRB15G25KT 3000 TSRA FEW010 FEW030CB BKN040 \n  TEMPO 2521/2603 4000 RA BKN012 OVC030 \n  PROB40 \n  TEMPO 2603/2609 1200 BR BKN003"
    },
    {
      "icao": "LQTZ",
      "iata": "TZL",
      "name": "Tuzla International Airport",
      "lat": 44.459858,
      "lon": 18.723627,
      "updatedAt": "251130Z",
      "visibility_m": 10000,
      "taf_visibility_m": 400,
      "worst_visibility_m": 400,
      "ceiling_ft": 200,
      "hazards": [
        "FG",
        "BR",
        "RA",
        "SHRA"
      ],
      "severityScore": 100,
      "metarRaw": "METAR LQTZ 251130Z 12011KT CAVOK 13/05 Q1000",
      "tafRaw": "TAF LQTZ 251100Z 2512/2612 16006KT 9999 SCT050 TX14/2514Z TN03/2605Z \n  TEMPO 2512/2517 10014KT \n  TEMPO 2517/2522 4000 RA \n  PROB40 \n  TEMPO 2517/2519 25012KT 3000 SHRA FEW035TCU BKN045 \n  TEMPO 2522/2610 2000 BR \n  PROB40 \n  TEMPO 2603/2608 0400 FG BKN002"
    },
    {
      "icao": "LRIA",
      "iata": "IAS",
      "name": "Iaşi Airport",
      "lat": 47.180278,
      "lon": 27.620833,
      "updatedAt": "251130Z",
      "visibility_m": 350,
      "taf_visibility_m": 300,
      "worst_visibility_m": 300,
      "ceiling_ft": 0,
      "hazards": [
        "FG",
        "BR"
      ],
      "severityScore": 100,
      "metarRaw": "METAR LRIA 251130Z 11011KT 0350 R14/0800D FG VV000 01/00 Q1014",
      "tafRaw": "TAF LRIA 251100Z 2512/2521 11010KT 0600 FG OVC001 \n  TEMPO 2512/2515 1500 BR BKN002 OVC010 \n  BECMG 2516/2518 0300 FG"
    },
    {
      "icao": "LRBC",
      "iata": "BCM",
      "name": "Bacău George Enescu International  Airport",
      "lat": 46.5219,
      "lon": 26.910299,
      "updatedAt": "251130Z",
      "visibility_m": 4000,
      "taf_visibility_m": 300,
      "worst_visibility_m": 300,
      "ceiling_ft": 200,
      "hazards": [
        "BR",
        "FG"
      ],
      "severityScore": 100,
      "metarRaw": "METAR LRBC 251130Z 18007KT 4000 BR OVC002 00/00 Q1014",
      "tafRaw": "TAF LRBC 251100Z 2512/2521 17008KT 3000 BR OVC003 \n  TEMPO 2512/2515 1500 BR OVC001 \n  BECMG 2515/2517 0800 FG OVC002 \n  BECMG 2518/2520 0300 FG OVC001"
    },
    {
      "icao": "LRBS",
      "iata": "BBU",
      "name": "Bucharest Băneasa Aurel Vlaicu International Airport",
      "lat": 44.503133,
      "lon": 26.102944,
      "updatedAt": "251130Z",
      "visibility_m": 4000,
      "taf_visibility_m": 200,
      "worst_visibility_m": 200,
      "ceiling_ft": 200,
      "hazards": [
        "BR",
        "FG",
        "RA",
        "DZ"
      ],
      "severityScore": 100,
      "metarRaw": "METAR LRBS 251130Z VRB01KT 4000 BR OVC002 00/00 Q1015 NOSIG",
      "tafRaw": "TAF LRBS 251100Z 2512/2612 VRB04KT 4000 BR OVC002 \n  TEMPO 2512/2515 7000 NSW OVC005 \n  BECMG 2515/2517 06010KT 1500 BR \n  BECMG 2518/2520 0600 FG \n  TEMPO 2520/2606 0200 FG OVC001 \n  TEMPO 2607/2612 1500 DZRA BR BKN005 OVC010"
    },
    {
      "icao": "LRCV",
      "iata": "CRA",
      "name": "Craiova International Airport",
      "lat": 44.3181,
      "lon": 23.888599,
      "updatedAt": "251130Z",
      "visibility_m": 500,
      "taf_visibility_m": 200,
      "worst_visibility_m": 200,
      "ceiling_ft": 200,
      "hazards": [
        "FZFG",
        "FG",
        "BR"
      ],
      "severityScore": 100,
      "metarRaw": "METAR LRCV 251130Z 17003KT 0500 R26/0650N FZFG VV002 M00/M00 Q1014",
      "tafRaw": "TAF LRCV 251100Z 2512/2521 VRB04KT 0600 FZFG OVC002 \n  PROB30 \n  TEMPO 2512/2515 3000 BR OVC005 \n  BECMG 2516/2518 07010KT 0200 FG OVC001"
    },
    {
      "icao": "LROP",
      "iata": "OTP",
      "name": "Bucharest Henri Coandă International Airport",
      "lat": 44.571792,
      "lon": 26.103285,
      "updatedAt": "251130Z",
      "visibility_m": 4500,
      "taf_visibility_m": 200,
      "worst_visibility_m": 200,
      "ceiling_ft": 200,
      "hazards": [
        "BR",
        "FG",
        "RA",
        "DZ"
      ],
      "severityScore": 100,
      "metarRaw": "METAR LROP 251130Z VRB02KT 4500 BR OVC002 00/00 Q1014 NOSIG",
      "tafRaw": "TAF LROP 251100Z 2512/2612 VRB04KT 4000 BR OVC002 \n  TEMPO 2512/2515 7000 NSW OVC005 \n  BECMG 2515/2517 06010KT 1500 BR \n  BECMG 2518/2520 0600 FG \n  TEMPO 2520/2606 0200 FG OVC001 \n  TEMPO 2607/2612 1500 DZRA BR BKN005 OVC010"
    },
    {
      "icao": "LRSV",
      "iata": "SCV",
      "name": "Suceava Stefan cel Mare Airport",
      "lat": 47.6875,
      "lon": 26.35409927368164,
      "updatedAt": "251130Z",
      "visibility_m": 150,
      "taf_visibility_m": 300,
      "worst_visibility_m": 150,
      "ceiling_ft": 100,
      "hazards": [
        "FZFG",
        "FG"
      ],
      "severityScore": 100,
      "metarRaw": "METAR LRSV 251130Z 14009KT 0150 R34/0350N FZFG VV001 M01/M01 Q1012",
      "tafRaw": "TAF LRSV 251100Z 2512/2521 14008KT 0300 FZFG VV001 \n  TEMPO 2512/2514 0800 VV002"
    },
    {
      "icao": "LTAC",
      "iata": "ESB",
      "name": "Esenboğa International Airport",
      "lat": 40.128101,
      "lon": 32.995098,
      "updatedAt": "251120Z",
      "visibility_m": 10000,
      "taf_visibility_m": 500,
      "worst_visibility_m": 500,
      "ceiling_ft": 100,
      "hazards": [
        "FG",
        "BR"
      ],
      "severityScore": 100,
      "metarRaw": "METAR LTAC 251120Z VRB03KT 9999 SCT015 SCT025 11/05 Q1019 NOSIG",
      "tafRaw": "TAF LTAC 251040Z 2512/2612 VRB02KT 9999 SCT040 \n  BECMG 2517/2520 4000 BR NSC \n  TEMPO 2522/2602 1200 BCFG BKN005 \n  PROB40 \n  TEMPO 2603/2607 0500 FG VV001 \n  BECMG 2608/2610 9999 NSW SCT040 BKN100"
    },
    {
      "icao": "LUKK",
      "iata": "RMO",
      "name": "Chişinău International Airport",
      "lat": 46.9277,
      "lon": 28.931,
      "updatedAt": "251130Z",
      "visibility_m": 800,
      "taf_visibility_m": 400,
      "worst_visibility_m": 400,
      "ceiling_ft": 100,
      "hazards": [
        "FZFG",
        "BR",
        "FZDZ",
        "FG",
        "DZ",
        "RA"
      ],
      "severityScore": 100,
      "metarRaw": "METAR LUKK 251130Z 08010KT 1300 1100SW R08/1300D FZDZ BR OVC001 M02/M02 Q1016 TEMPO 0800 -FZDZ FZFG",
      "tafRaw": "TAF LUKK 251102Z 2512/2612 11008KT 1500 FZDZ BR OVC002 \n  TEMPO 2512/2516 0800 -FZDZ FZFG VV001 \n  BECMG 2516/2518 0800 FG VV001 \n  TEMPO 2518/2607 0400 -DZ FG \n  BECMG 2607/2609 3000 -RA BR OVC003 \n  BECMG 2610/2612 5000 -RA BR OVC008"
    },
    {
      "icao": "LZIB",
      "iata": "BTS",
      "name": "M. R. Štefánik Airport",
      "lat": 48.1702,
      "lon": 17.2127,
      "updatedAt": "251130Z",
      "visibility_m": 3000,
      "taf_visibility_m": 500,
      "worst_visibility_m": 500,
      "ceiling_ft": 400,
      "hazards": [
        "BR",
        "RA",
        "FG"
      ],
      "severityScore": 100,
      "metarRaw": "METAR LZIB 251130Z 05007KT 4500 -RA BR FEW006 BKN008 BKN025 03/03 Q1004 TEMPO 3000 -RA BR BKN004",
      "tafRaw": "TAF LZIB 251115Z 2512/2612 06010KT 6000 FEW008 OVC017 \n  TEMPO 2512/2602 2500 -RA BR BKN006 \n  PROB40 \n  TEMPO 2517/2523 1000 RA BR OVC002 \n  TEMPO 2520/2600 12015G25KT \n  BECMG 2602/2603 22005KT 2000 BR OVC003 \n  TEMPO 2602/2608 0500 FG OVC001 \n  BECMG 2607/2609 16004KT 7000 NSW FEW010"
    },
    {
      "icao": "UDSG",
      "iata": "LWN",
      "name": "Shirak International Airport",
      "lat": 40.750401,
      "lon": 43.859299,
      "updatedAt": "251130Z",
      "visibility_m": 500,
      "taf_visibility_m": 200,
      "worst_visibility_m": 200,
      "ceiling_ft": 200,
      "hazards": [
        "FZFG",
        "FG",
        "BR"
      ],
      "severityScore": 100,
      "metarRaw": "METAR UDSG 251130Z 14003KT 0500 R02/0650U FZFG VV002 M08/M08 Q1021 NOSIG",
      "tafRaw": "TAF UDSG 251100Z 2512/2612 VRB06KT 1000 BR OVC010 \n  TEMPO 2512/2518 0200 FZFG VV002"
    },
    {
      "icao": "UDYZ",
      "iata": "EVN",
      "name": "Zvartnots International Airport",
      "lat": 40.148941,
      "lon": 44.397887,
      "updatedAt": "251130Z",
      "visibility_m": 2200,
      "taf_visibility_m": 600,
      "worst_visibility_m": 600,
      "ceiling_ft": 800,
      "hazards": [
        "BR",
        "FZFG",
        "FG"
      ],
      "severityScore": 100,
      "metarRaw": "METAR UDYZ 251130Z 23003KT 210V290 2200 BR BKN008 M03/M05 Q1024 NOSIG",
      "tafRaw": "TAF UDYZ 251100Z 2512/2612 VRB04KT 2000 BR BKN020 \n  TEMPO 2518/2606 0600 FZFG VV003"
    },
    {
      "icao": "LIPR",
      "iata": "RMI",
      "name": "Federico Fellini International Airport",
      "lat": 44.020024,
      "lon": 12.612198,
      "updatedAt": "251120Z",
      "visibility_m": 10000,
      "taf_visibility_m": 200,
      "worst_visibility_m": 200,
      "ceiling_ft": 6000,
      "hazards": [
        "FG",
        "BR",
        "RA"
      ],
      "severityScore": 97,
      "metarRaw": "METAR LIPR 251120Z 22004KT 180V270 9999 BKN060 09/07 Q0999",
      "tafRaw": "TAF LIPR 251100Z 2512/2612 VRB06KT 9000 SCT030 \n  TEMPO 2519/2523 3000 -RA \n  BECMG 2600/2602 1500 BR \n  PROB40 \n  TEMPO 2602/2606 0200 FG BKN004 \n  BECMG 2608/2610 6000"
    },
    {
      "icao": "EGNM",
      "iata": "LBA",
      "name": "Leeds Bradford Airport",
      "lat": 53.865898,
      "lon": -1.66057,
      "updatedAt": "251120Z",
      "visibility_m": 1600,
      "taf_visibility_m": 1000,
      "worst_visibility_m": 1000,
      "ceiling_ft": 300,
      "hazards": [
        "BR",
        "RA",
        "SN",
        "DZ"
      ],
      "severityScore": 95,
      "metarRaw": "METAR EGNM 251120Z 09012KT 1600 -RA BR OVC003 04/04 Q0995",
      "tafRaw": "TAF EGNM 251105Z 2512/2612 10012KT 4000 BR BKN003 \n  PROB40 \n  TEMPO 2512/2514 1000 +RA RADZ BKN001 \n  BECMG 2514/2517 6000 NSW BKN014 \n  TEMPO 2517/2606 2500 -RADZ BR BKN009 \n  PROB30 \n  TEMPO 2520/2606 RASN \n  BECMG 2603/2606 BKN030 \n  PROB30 \n  TEMPO 2610/2612 BKN012"
    },
    {
      "icao": "EPWR",
      "iata": "WRO",
      "name": "Copernicus Wrocław Airport",
      "lat": 51.103719,
      "lon": 16.882096,
      "updatedAt": "251130Z",
      "visibility_m": 5000,
      "taf_visibility_m": 1200,
      "worst_visibility_m": 1200,
      "ceiling_ft": 700,
      "hazards": [
        "BR",
        "RA",
        "FZDZ",
        "DZ"
      ],
      "severityScore": 95,
      "metarRaw": "METAR EPWR 251130Z 07005KT 040V100 5000 BR BKN007 M00/M02 Q1004",
      "tafRaw": "TAF EPWR 251130Z 2512/2612 08007KT 4000 BR OVC007 \n  BECMG 2512/2514 7000 OVC011 \n  PROB30 \n  TEMPO 2512/2513 -FZDZ \n  BECMG 2516/2518 4000 RA BR OVC007 \n  TEMPO 2518/2523 2000 RA BR OVC004 \n  BECMG 2523/2601 15010KT 2000 BR OVC004 \n  TEMPO 2601/2608 1200 -RADZ BR OVC001 \n  BECMG 2608/2611 7000 BKN015"
    },
    {
      "icao": "LIBG",
      "iata": "TAR",
      "name": "Taranto-Grottaglie Marcello Arlotta Airport",
      "lat": 40.517502,
      "lon": 17.4032,
      "updatedAt": "251050Z",
      "visibility_m": 5000,
      "taf_visibility_m": 4000,
      "worst_visibility_m": 4000,
      "ceiling_ft": 1500,
      "hazards": [
        "BR",
        "TSRA",
        "DZ",
        "TS",
        "RA"
      ],
      "severityScore": 94,
      "metarRaw": "METAR LIBG 251050Z 15018G30KT 5000 BR BKN015 16/14 Q1002",
      "tafRaw": "TAF LIBG 251100Z 2512/2521 16015G28KT 7000 DZ BKN015 \n  BECMG 2514/2516 27007KT \n  PROB40 \n  TEMPO 2515/2517 4000 TSRA BKN009"
    },
    {
      "icao": "LFPO",
      "iata": "ORY",
      "name": "Paris-Orly Airport",
      "lat": 48.72333,
      "lon": 2.37944,
      "updatedAt": "251130Z",
      "visibility_m": 10000,
      "taf_visibility_m": 800,
      "worst_visibility_m": 800,
      "ceiling_ft": 1200,
      "hazards": [
        "FG",
        "BR",
        "RA",
        "SHRA"
      ],
      "severityScore": 93,
      "metarRaw": "METAR LFPO 251130Z 18007KT 9999 BKN017 08/04 Q0993 TEMPO BKN012",
      "tafRaw": "TAF LFPO 251100Z 2512/2618 16008KT 9999 BKN016 \n  TEMPO 2512/2515 4000 -RA BKN012 \n  PROB40 \n  TEMPO 2515/2523 -SHRA BKN012 \n  PROB30 \n  TEMPO 2515/2523 BKN009 SCT020TCU \n  TEMPO 2601/2610 3500 BR BKN004 \n  PROB40 2604/2610 0800 FG VV/// \n  BECMG 2610/2612 BKN003 \n  BECMG 2614/2616 BKN006"
    },
    {
      "icao": "LFSB",
      "iata": "BSL",
      "name": "EuroAirport Basel–Mulhouse–Freiburg",
      "lat": 47.60068,
      "lon": 7.521117,
      "updatedAt": "251130Z",
      "visibility_m": 10000,
      "taf_visibility_m": 700,
      "worst_visibility_m": 700,
      "ceiling_ft": 1000,
      "hazards": [
        "FG",
        "BR",
        "RA",
        "DZ"
      ],
      "severityScore": 89,
      "metarRaw": "METAR LFSB 251130Z AUTO VRB02KT 9999 BKN010 BKN044 OVC110 05/02 Q0998 BECMG FEW008 BKN030",
      "tafRaw": "TAF LFSB 251130Z 2512/2612 VRB03KT 9000 SCT010 BKN045 \n  TEMPO 2518/2602 3000 BR BKN003 \n  PROB30 \n  TEMPO 2519/2601 0700 FG VV/// \n  PROB40 \n  TEMPO 2602/2607 24006KT 4000 -RADZ BR FEW005 BKN010 \n  BECMG 2607/2609 25008KT BKN015"
    },
    {
      "icao": "LIPH",
      "iata": "TSF",
      "name": "Treviso Antonio Canova Airport",
      "lat": 45.648399,
      "lon": 12.1944,
      "updatedAt": "251120Z",
      "visibility_m": 4000,
      "taf_visibility_m": 400,
      "worst_visibility_m": 400,
      "ceiling_ft": 1500,
      "hazards": [
        "BR",
        "RA",
        "FG"
      ],
      "severityScore": 89,
      "metarRaw": "METAR LIPH 251120Z 26006KT 4000 RA BR SCT006 BKN015 07/07 Q0997",
      "tafRaw": "TAF LIPH 251100Z 2512/2612 VRB05KT 8000 BKN020 \n  TEMPO 2512/2514 4000 -RA BKN008 \n  BECMG 2517/2519 2500 -RA BR BKN003 \n  TEMPO 2600/2607 0400 FG OVC001 \n  BECMG 2608/2610 8000 FEW025"
    },
    {
      "icao": "EDJA",
      "iata": "FMM",
      "name": "Memmingen Allgau Airport",
      "lat": 47.988092,
      "lon": 10.238248,
      "updatedAt": "251120Z",
      "visibility_m": 2000,
      "taf_visibility_m": 800,
      "worst_visibility_m": 800,
      "ceiling_ft": 200,
      "hazards": [
        "BR",
        "SN"
      ],
      "severityScore": 88,
      "metarRaw": "METAR EDJA 251120Z 26005KT 230V290 2000 BR OVC002 M00/M01 Q0996",
      "tafRaw": "TAF EDJA 251100Z 2512/2521 24006KT 2500 BR OVC005 \n  TEMPO 2512/2514 1200 BR \n  BECMG 2514/2516 OVC003 \n  TEMPO 2515/2519 0800 SN \n  PROB40 \n  TEMPO 2516/2520 OVC001"
    },
    {
      "icao": "EPSY",
      "iata": "SZY",
      "name": "Olsztyn-Mazury Airport",
      "lat": 53.481899,
      "lon": 20.9377,
      "updatedAt": "251130Z",
      "visibility_m": 10000,
      "taf_visibility_m": 4000,
      "worst_visibility_m": 4000,
      "ceiling_ft": 1300,
      "hazards": [
        "BR",
        "FZRA",
        "SN",
        "RA"
      ],
      "severityScore": 87,
      "metarRaw": "METAR EPSY 251130Z 10007KT 050V150 9999 OVC013 M07/M10 Q1012",
      "tafRaw": "TAF EPSY 251130Z 2512/2521 11008KT 9999 BKN012 \n  PROB40 \n  TEMPO 2512/2521 4000 -SN BR BKN008 \n  PROB30 \n  TEMPO 2517/2521 -FZRA BKN004"
    },
    {
      "icao": "LEBB",
      "iata": "BIO",
      "name": "Bilbao Airport",
      "lat": 43.301102,
      "lon": -2.91061,
      "updatedAt": "251130Z",
      "visibility_m": 10000,
      "taf_visibility_m": 1500,
      "worst_visibility_m": 1500,
      "ceiling_ft": 7000,
      "hazards": [
        "RA",
        "TSRA",
        "SHRA",
        "TS"
      ],
      "severityScore": 86,
      "metarRaw": "METAR LEBB 251130Z 31010KT 9999 -RA SCT060 BKN070 10/08 Q1001 NOSIG",
      "tafRaw": "TAF LEBB 251100Z 2512/2612 21009KT 9999 FEW040 TX12/2512Z TN07/2605Z \n  TEMPO 2512/2601 28019G32KT 3000 SHRA SCT020TCU \n  PROB40 \n  TEMPO 2512/2521 1500 TSRA SCT020CB \n  BECMG 2513/2515 28012KT \n  TEMPO 2514/2516 29029G50KT \n  BECMG 2601/2603 21009KT"
    },
    {
      "icao": "LFBD",
      "iata": "BOD",
      "name": "Bordeaux–Mérignac Airport",
      "lat": 44.82865,
      "lon": -0.715356,
      "updatedAt": "251130Z",
      "visibility_m": 3500,
      "taf_visibility_m": 1500,
      "worst_visibility_m": 1500,
      "ceiling_ft": 4000,
      "hazards": [
        "SHRA",
        "RA",
        "TSRA",
        "TS"
      ],
      "severityScore": 86,
      "metarRaw": "METAR LFBD 251130Z AUTO 24012KT 9999 FEW041/// SCT056/// BKN092/// ///TCU 09/07 Q0997 TEMPO 3500 SHRA BKN020TCU SCT030CB",
      "tafRaw": "TAF LFBD 251100Z 2512/2618 30010KT 9999 BKN040 TX12/2613Z TN05/2605Z \n  TEMPO 2512/2611 4000 SHRA BKN025TCU SCT030CB \n  PROB30 \n  TEMPO 2514/2524 28015G25KT 1500 -TSRA BKN020CB \n  BECMG 2601/2603 VRB03KT \n  BECMG 2606/2608 18010KT \n  BECMG 2616/2618 CAVOK"
    },
    {
      "icao": "EHBK",
      "iata": "MST",
      "name": "Maastricht Aachen Airport",
      "lat": 50.911701,
      "lon": 5.77014,
      "updatedAt": "251125Z",
      "visibility_m": 7000,
      "taf_visibility_m": 2000,
      "worst_visibility_m": 2000,
      "ceiling_ft": 400,
      "hazards": [
        "BR",
        "FZDZ",
        "DZ"
      ],
      "severityScore": 83,
      "metarRaw": "METAR EHBK 251125Z AUTO 08003KT 050V110 7000 NSC 02/M01 Q0997 NOSIG",
      "tafRaw": "TAF EHBK 251115Z 2512/2618 08004KT 9000 NSC \n  BECMG 2602/2605 33005KT 4000 BR BKN004 \n  BECMG 2611/2614 8000 NSW BKN006 \n  PROB30 \n  TEMPO 2611/2618 2000 -FZDZ -SG"
    },
    {
      "icao": "LIPX",
      "iata": "VRN",
      "name": "Verona Villafranca Valerio Catullo Airport",
      "lat": 45.394955,
      "lon": 10.887303,
      "updatedAt": "251120Z",
      "visibility_m": 6000,
      "taf_visibility_m": 600,
      "worst_visibility_m": 600,
      "ceiling_ft": 500,
      "hazards": [
        "FG",
        "BR"
      ],
      "severityScore": 80,
      "metarRaw": "METAR LIPX 251120Z 25007KT 220V280 6000 SCT006 SCT090 06/06 Q0998",
      "tafRaw": "TAF LIPX 251100Z 2512/2612 28010KT 6000 BKN005 \n  TEMPO 2512/2517 BKN020 \n  BECMG 2515/2517 VRB05KT 2000 BR \n  TEMPO 2521/2607 0600 FG \n  BECMG 2610/2612 27010KT 6000"
    },
    {
      "icao": "EDDH",
      "iata": "HAM",
      "name": "Hamburg Helmut Schmidt Airport",
      "lat": 53.630402,
      "lon": 9.98823,
      "updatedAt": "251120Z",
      "visibility_m": 7000,
      "taf_visibility_m": 500,
      "worst_visibility_m": 500,
      "ceiling_ft": 900,
      "hazards": [
        "SN"
      ],
      "severityScore": 78,
      "metarRaw": "METAR EDDH 251120Z AUTO 09009KT 7000 OVC010 OVC020 M01/M04 Q1004 TEMPO BKN009",
      "tafRaw": "TAF EDDH 251100Z 2512/2618 09009KT 7000 OVC009 \n  TEMPO 2512/2520 BKN011 \n  BECMG 2600/2603 03010KT 2000 -SN \n  TEMPO 2601/2614 1200 SN OVC003 \n  PROB30 \n  TEMPO 2602/2610 0500 +SN OVC001 \n  BECMG 2612/2614 7000 \n  TEMPO 2614/2618 4500 -SG OVC004"
    },
    {
      "icao": "EYPA",
      "iata": "PLQ",
      "name": "Palanga International Airport",
      "lat": 55.973202,
      "lon": 21.093901,
      "updatedAt": "251120Z",
      "visibility_m": 10000,
      "taf_visibility_m": 3000,
      "worst_visibility_m": 3000,
      "ceiling_ft": 1000,
      "hazards": [
        "BR",
        "SN",
        "FZDZ",
        "DZ"
      ],
      "severityScore": 78,
      "metarRaw": "METAR EYPA 251120Z 11007KT CAVOK M06/M10 Q1015",
      "tafRaw": "TAF EYPA 251100Z 2512/2612 12009KT 9000 BKN030 \n  TEMPO 2516/2522 BKN015 \n  PROB30 \n  TEMPO 2516/2522 5000 SN BKN010 \n  BECMG 2522/2601 OVC015 \n  TEMPO 2602/2612 5000 SN OVC010 \n  PROB30 \n  TEMPO 2603/2612 3000 -FZDZ BR"
    },
    {
      "icao": "EPRZ",
      "iata": "RZE",
      "name": "Rzeszów-Jasionka Airport",
      "lat": 50.109791,
      "lon": 22.024155,
      "updatedAt": "251130Z",
      "visibility_m": 6000,
      "taf_visibility_m": 1200,
      "worst_visibility_m": 1200,
      "ceiling_ft": 400,
      "hazards": [
        "BR",
        "RA",
        "DZ"
      ],
      "severityScore": 77,
      "metarRaw": "METAR EPRZ 251130Z 08015KT 6000 SCT007 M00/M02 Q1008",
      "tafRaw": "TAF EPRZ 251130Z 2512/2612 09015KT 6000 FEW007 \n  TEMPO 2512/2515 4000 BR BKN007 \n  BECMG 2515/2518 3500 -RADZ BR BKN004 \n  TEMPO 2518/2606 1200 BR \n  BECMG 2606/2609 09005KT 6000 NSC"
    },
    {
      "icao": "LPPT",
      "iata": "LIS",
      "name": "Lisbon Humberto Delgado Airport",
      "lat": 38.7813,
      "lon": -9.13592,
      "updatedAt": "251130Z",
      "visibility_m": 10000,
      "taf_visibility_m": 1200,
      "worst_visibility_m": 1200,
      "ceiling_ft": 200,
      "hazards": [
        "BR",
        "RA",
        "DZ"
      ],
      "severityScore": 77,
      "metarRaw": "METAR LPPT 251130Z 26016KT 230V290 9999 FEW014 SCT018 FEW020TCU 15/12 Q1017",
      "tafRaw": "TAF LPPT 251100Z 2512/2618 26012KT 9999 SCT012 SCT030 \n  TEMPO 2512/2518 5000 RA BKN015 FEW020TCU \n  BECMG 2518/2520 22008KT SCT008 BKN012 \n  TEMPO 2520/2609 2000 RADZ BR BKN004 \n  PROB40 \n  TEMPO 2520/2606 1200 DZ BR BKN002 \n  BECMG 2609/2611 23015KT SCT015 BKN030 \n  TEMPO 2611/2618 23018G30KT 5000 RA SCT006 BKN012"
    },
    {
      "icao": "LICJ",
      "iata": "PMO",
      "name": "Falcone–Borsellino Airport",
      "lat": 38.175999,
      "lon": 13.091,
      "updatedAt": "251120Z",
      "visibility_m": 10000,
      "taf_visibility_m": 4000,
      "worst_visibility_m": 4000,
      "ceiling_ft": 4000,
      "hazards": [
        "RA",
        "TSRA",
        "SHRA",
        "TS"
      ],
      "severityScore": 76,
      "metarRaw": "METAR LICJ 251120Z 29013KT 9999 -RA SCT018 BKN040 12/08 Q1005",
      "tafRaw": "TAF LICJ 250500Z 2506/2606 28014KT 9999 SCT030 \n  BECMG 2506/2508 22016KT \n  TEMPO 2508/2512 4000 SHRA \n  TEMPO 2517/2520 4000 SHRA \n  TEMPO 2600/2603 4000 TSRA"
    },
    {
      "icao": "LIRF",
      "iata": "FCO",
      "name": "Rome–Fiumicino Leonardo da Vinci International Airport",
      "lat": 41.804532,
      "lon": 12.251998,
      "updatedAt": "251120Z",
      "visibility_m": 10000,
      "taf_visibility_m": 10000,
      "worst_visibility_m": 10000,
      "ceiling_ft": null,
      "hazards": [
        "TSRA",
        "RA",
        "SHRA",
        "TS"
      ],
      "severityScore": 76,
      "metarRaw": "METAR LIRF 251120Z 15007KT 120V200 CAVOK 12/07 Q1001 NOSIG",
      "tafRaw": "TAF LIRF 251100Z 2512/2618 14012KT 9999 SCT030 \n  TEMPO 2513/2515 RA \n  BECMG 2513/2515 20016KT \n  TEMPO 2515/2518 TSRA \n  BECMG 2518/2520 30010KT \n  BECMG 2521/2523 07008KT \n  TEMPO 2604/2610 SHRA \n  BECMG 2614/2616 01013KT"
    },
    {
      "icao": "LMML",
      "iata": "MLA",
      "name": "Malta International Airport",
      "lat": 35.857498,
      "lon": 14.4775,
      "updatedAt": "251115Z",
      "visibility_m": 10000,
      "taf_visibility_m": 5000,
      "worst_visibility_m": 5000,
      "ceiling_ft": null,
      "hazards": [
        "TSRA",
        "SHRA",
        "TS",
        "RA"
      ],
      "severityScore": 76,
      "metarRaw": "METAR LMML 251115Z 30015G25KT 9999 SCT020 14/10 Q1005 NOSIG",
      "tafRaw": "TAF LMML 251100Z 2512/2612 30017KT 9999 FEW015 \n  BECMG 2512/2515 29018G28KT \n  PROB30 \n  TEMPO 2512/2516 7000 SHRA TSRA BKN015CB \n  PROB40 \n  TEMPO 2600/2612 5000 SHRA TSRA BKN015CB \n  BECMG 2603/2606 26020G30KT"
    },
    {
      "icao": "LPPR",
      "iata": "OPO",
      "name": "Francisco de Sá Carneiro Airport",
      "lat": 41.2481002808,
      "lon": -8.68138980865,
      "updatedAt": "251130Z",
      "visibility_m": 9000,
      "taf_visibility_m": 1200,
      "worst_visibility_m": 1200,
      "ceiling_ft": 3000,
      "hazards": [
        "BR",
        "SHRA",
        "FG",
        "RA",
        "DZ"
      ],
      "severityScore": 76,
      "metarRaw": "METAR LPPR 251130Z 28009KT 240V310 9000 FEW020 BKN030 14/09 Q1012",
      "tafRaw": "TAF LPPR 251100Z 2512/2612 28010KT 9999 SCT020 \n  TEMPO 2512/2518 8000 SHRA SCT015 FEW018CB BKN025 \n  BECMG 2601/2603 22015KT 6000 -RADZ SCT004 BKN008 \n  TEMPO 2603/2612 20020G35KT 3000 RADZ BR BKN004 \n  PROB40 \n  TEMPO 2603/2609 1200 PRFG BKN002"
    },
    {
      "icao": "LYPG",
      "iata": "TGD",
      "name": "Podgorica Airport / Podgorica Golubovci Airbase",
      "lat": 42.359402,
      "lon": 19.2519,
      "updatedAt": "251130Z",
      "visibility_m": 10000,
      "taf_visibility_m": 2000,
      "worst_visibility_m": 2000,
      "ceiling_ft": 8000,
      "hazards": [
        "TSRA",
        "SHRA",
        "TS",
        "RA"
      ],
      "severityScore": 76,
      "metarRaw": "METAR LYPG 251130Z 00000KT 9999 FEW030 OVC080 11/10 Q1006 NOSIG",
      "tafRaw": "TAF LYPG 251100Z 2512/2612 16012KT 9999 FEW015 SCT040 OVC080 TX14/2513Z TN08/2605Z \n  TEMPO 2515/2601 16015G30KT 2000 TSRA FEW007 SCT025CB BKN033 \n  BECMG 2601/2603 36006KT \n  PROB40 \n  TEMPO 2601/2610 5000 SHRA FEW010 SCT030TCU BKN040"
    },
    {
      "icao": "EDDK",
      "iata": "CGN",
      "name": "Cologne Bonn Airport",
      "lat": 50.865898,
      "lon": 7.14274,
      "updatedAt": "251120Z",
      "visibility_m": 10000,
      "taf_visibility_m": 2000,
      "worst_visibility_m": 2000,
      "ceiling_ft": 400,
      "hazards": [
        "BR",
        "SN",
        "RA"
      ],
      "severityScore": 75,
      "metarRaw": "METAR EDDK 251120Z AUTO 14011KT CAVOK M00/M05 Q0999 NOSIG",
      "tafRaw": "TAF EDDK 251100Z 2512/2618 11006KT CAVOK \n  BECMG 2517/2519 VRB03KT \n  PROB30 \n  TEMPO 2523/2603 BKN007 \n  BECMG 2603/2606 30006KT OVC007 \n  PROB30 \n  TEMPO 2610/2614 2000 -SN BKN004 \n  PROB30 \n  TEMPO 2614/2618 4500 -RASN BR"
    },
    {
      "icao": "EDDS",
      "iata": "STR",
      "name": "Stuttgart Airport",
      "lat": 48.689899,
      "lon": 9.22196,
      "updatedAt": "251120Z",
      "visibility_m": 4000,
      "taf_visibility_m": 1200,
      "worst_visibility_m": 1200,
      "ceiling_ft": 400,
      "hazards": [
        "BR",
        "SN"
      ],
      "severityScore": 73,
      "metarRaw": "METAR EDDS 251120Z AUTO VRB02KT 5000 BR OVC005 M01/M03 Q0997 TEMPO 4000 OVC004",
      "tafRaw": "TAF EDDS 251100Z 2512/2612 VRB03KT 6000 OVC010 \n  TEMPO 2512/2515 2000 BR BKN003 \n  TEMPO 2516/2524 1200 SN OVC003 \n  TEMPO 2600/2607 2000 -SN BR BKN003 \n  BECMG 2608/2610 23005KT"
    },
    {
      "icao": "EDLW",
      "iata": "DTM",
      "name": "Dortmund Airport",
      "lat": 51.518299,
      "lon": 7.61224,
      "updatedAt": "251120Z",
      "visibility_m": 7000,
      "taf_visibility_m": 1200,
      "worst_visibility_m": 1200,
      "ceiling_ft": 100,
      "hazards": [
        "BR",
        "SN"
      ],
      "severityScore": 73,
      "metarRaw": "METAR EDLW 251120Z 02005KT 350V050 7000 NSC M01/M03 Q0998",
      "tafRaw": "TAF EDLW 251100Z 2512/2612 08005KT 7000 FEW045 \n  BECMG 2520/2523 VRB03KT \n  PROB40 \n  TEMPO 2520/2523 4000 BR BKN005 \n  BECMG 2523/2602 4000 BR OVC005 \n  TEMPO 2606/2612 2000 -SN BR OVC004 \n  PROB40 \n  TEMPO 2607/2611 1200 SN OVC001"
    },
    {
      "icao": "LIBD",
      "iata": "BRI",
      "name": "Bari Karol Wojtyła International Airport",
      "lat": 41.138901,
      "lon": 16.760599,
      "updatedAt": "251120Z",
      "visibility_m": 10000,
      "taf_visibility_m": 3000,
      "worst_visibility_m": 3000,
      "ceiling_ft": null,
      "hazards": [
        "TSRA",
        "DZ",
        "TS",
        "RA"
      ],
      "severityScore": 72,
      "metarRaw": "METAR LIBD 251120Z 17012G24KT 9999 SCT020 17/13 Q0999",
      "tafRaw": "TAF LIBD 251100Z 2512/2612 18016G28KT 9999 DZ SCT030 \n  TEMPO 2512/2515 3000 TSRA \n  BECMG 2512/2514 25012KT \n  BECMG 2518/2520 18008KT \n  BECMG 2520/2522 NSW \n  BECMG 2610/2612 35010KT"
    },
    {
      "icao": "LIBR",
      "iata": "BDS",
      "name": "Brindisi Airport",
      "lat": 40.6576,
      "lon": 17.947001,
      "updatedAt": "251120Z",
      "visibility_m": 6000,
      "taf_visibility_m": 2000,
      "worst_visibility_m": 2000,
      "ceiling_ft": 3000,
      "hazards": [
        "BR",
        "TSRA",
        "RA",
        "TS"
      ],
      "severityScore": 72,
      "metarRaw": "METAR LIBR 251120Z 17022G34KT 6000 BKN030 17/12 Q1002",
      "tafRaw": "TAF LIBR 251100Z 2512/2612 17021G31KT 8000 SCT016 \n  BECMG 2515/2517 VRB06KT \n  TEMPO 2515/2520 2000 TSRA BKN008 \n  TEMPO 2520/2601 4500 RA BKN008"
    },
    {
      "icao": "LPFR",
      "iata": "FAO",
      "name": "Faro - Gago Coutinho International Airport",
      "lat": 37.015909,
      "lon": -7.970939,
      "updatedAt": "251130Z",
      "visibility_m": 10000,
      "taf_visibility_m": 5000,
      "worst_visibility_m": 5000,
      "ceiling_ft": 800,
      "hazards": [
        "BR",
        "SHRA",
        "RA",
        "DZ"
      ],
      "severityScore": 71,
      "metarRaw": "METAR LPFR 251130Z 25018KT 9999 FEW010 FEW012TCU SCT020 16/13 Q1019",
      "tafRaw": "TAF LPFR 251100Z 2512/2612 26015KT 9999 SCT012 BKN030 \n  PROB30 \n  TEMPO 2512/2518 8000 SHRA BKN020 FEW025CB \n  BECMG 2518/2520 27018KT SCT008 SCT015 \n  TEMPO 2520/2612 26022G35KT 5000 RADZ BR SCT004 BKN008"
    },
    {
      "icao": "LEMD",
      "iata": "MAD",
      "name": "Adolfo Suárez Madrid–Barajas Airport",
      "lat": 40.471926,
      "lon": -3.56264,
      "updatedAt": "251130Z",
      "visibility_m": 10000,
      "taf_visibility_m": 3000,
      "worst_visibility_m": 3000,
      "ceiling_ft": 400,
      "hazards": [
        "BR",
        "RA",
        "DZ"
      ],
      "severityScore": 67,
      "metarRaw": "METAR LEMD 251130Z 23016G29KT 200V260 9999 FEW055 09/05 Q1008 NOSIG",
      "tafRaw": "TAF LEMD 251100Z 2512/2618 23012KT 9999 SCT030 TX10/2516Z TN03/2606Z \n  TEMPO 2512/2518 24016G30KT \n  PROB30 \n  TEMPO 2600/2605 23015G25KT \n  PROB30 \n  TEMPO 2604/2608 4000 BR BKN005 BKN010 \n  PROB40 \n  TEMPO 2608/2618 3000 DZRA RA BKN004 BKN010"
    },
    {
      "icao": "LFLL",
      "iata": "LYS",
      "name": "Lyon Saint-Exupéry Airport",
      "lat": 45.725996,
      "lon": 5.090139,
      "updatedAt": "251130Z",
      "visibility_m": 10000,
      "taf_visibility_m": 400,
      "worst_visibility_m": 400,
      "ceiling_ft": 23000,
      "hazards": [
        "RA",
        "FG"
      ],
      "severityScore": 67,
      "metarRaw": "METAR LFLL 251130Z 15005KT 110V180 9999 FEW010 BKN230 07/04 Q0997 NOSIG",
      "tafRaw": "TAF LFLL 251100Z 2512/2618 18010KT CAVOK \n  TEMPO 2515/2518 RA BKN030 \n  BECMG 2522/2524 VRB02KT \n  PROB40 \n  TEMPO 2522/2606 0400 BCFG"
    },
    {
      "icao": "EDNY",
      "iata": "FDH",
      "name": "Bodensee Airport Friedrichshafen",
      "lat": 47.671299,
      "lon": 9.51149,
      "updatedAt": "251120Z",
      "visibility_m": 5000,
      "taf_visibility_m": 2500,
      "worst_visibility_m": 2500,
      "ceiling_ft": 900,
      "hazards": [
        "BR",
        "SN",
        "RA"
      ],
      "severityScore": 65,
      "metarRaw": "METAR EDNY 251120Z VRB02KT 5000 BR BKN009 03/01 Q0997",
      "tafRaw": "TAF EDNY 251100Z 2512/2521 VRB03KT 4500 BR BKN008 OVC014 \n  TEMPO 2512/2515 5000 SCT008 OVC014 \n  PROB30 \n  TEMPO 2516/2518 RASN \n  TEMPO 2518/2521 2500 BR"
    },
    {
      "icao": "ENTC",
      "iata": "TOS",
      "name": "Tromsø Airport, Langnes",
      "lat": 69.683296,
      "lon": 18.9189,
      "updatedAt": "251120Z",
      "visibility_m": 10000,
      "taf_visibility_m": 1000,
      "worst_visibility_m": 1000,
      "ceiling_ft": 800,
      "hazards": [
        "SHSN",
        "SN"
      ],
      "severityScore": 63,
      "metarRaw": "METAR ENTC 251120Z 02007KT 330V060 9999 FEW031 SCT044 M02/M05 Q1010 NOSIG RMK WIND 2600FT 01021KT",
      "tafRaw": "TAF ENTC 251100Z 2512/2612 04005KT 9999 SCT015 BKN030 \n  TEMPO 2513/2518 1000 SHSN BKN008 FEW015CB \n  TEMPO 2518/2521 4000 -SHSN BKN012 FEW015TCU \n  TEMPO 2521/2609 1000 SHSN BKN009 FEW015CB \n  TEMPO 2609/2612 4000 -SHSN BKN009 FEW015TCU"
    },
    {
      "icao": "LGAV",
      "iata": "ATH",
      "name": "Athens Eleftherios Venizelos International Airport",
      "lat": 37.936401,
      "lon": 23.9445,
      "updatedAt": "251120Z",
      "visibility_m": 10000,
      "taf_visibility_m": 4000,
      "worst_visibility_m": 4000,
      "ceiling_ft": 3000,
      "hazards": [
        "TSRA",
        "RA",
        "TS"
      ],
      "severityScore": 62,
      "metarRaw": "METAR LGAV 251120Z 19015KT 9999 FEW018 BKN030 17/11 Q1015 NOSIG",
      "tafRaw": "TAF LGAV 251100Z 2512/2612 18015G25KT 9999 FEW015 SCT035 \n  TEMPO 2512/2606 16022G32KT BKN025 \n  PROB30 \n  TEMPO 2512/2515 5000 RA SCT016 FEW018TCU BKN070 \n  BECMG 2602/2604 BKN020 BKN070 \n  PROB40 \n  TEMPO 2603/2612 5000 RA SCT016 FEW018TCU BKN070 \n  PROB40 \n  TEMPO 2606/2612 4000 TSRA FEW018CB BKN020 BKN070"
    },
    {
      "icao": "LGTS",
      "iata": "SKG",
      "name": "Thessaloniki Macedonia International Airport",
      "lat": 40.51928,
      "lon": 22.970009,
      "updatedAt": "251120Z",
      "visibility_m": 9000,
      "taf_visibility_m": 3000,
      "worst_visibility_m": 3000,
      "ceiling_ft": 2500,
      "hazards": [
        "TS",
        "TSRA",
        "RA"
      ],
      "severityScore": 62,
      "metarRaw": "METAR LGTS 251120Z VRB03KT 9000 FEW015 BKN025 11/07 Q1014 NOSIG",
      "tafRaw": "TAF LGTS 251100Z 2512/2612 14005KT 9999 FEW008 BKN025 \n  TEMPO 2520/2612 5000 RA \n  PROB40 \n  TEMPO 2606/2612 3000 TSRA FEW006 FEW015CB OVC025"
    },
    {
      "icao": "LICC",
      "iata": "CTA",
      "name": "Catania-Fontanarossa Airport",
      "lat": 37.466801,
      "lon": 15.0664,
      "updatedAt": "251120Z",
      "visibility_m": 6000,
      "taf_visibility_m": 4000,
      "worst_visibility_m": 4000,
      "ceiling_ft": null,
      "hazards": [
        "TSRA",
        "RA",
        "TS"
      ],
      "severityScore": 62,
      "metarRaw": "METAR LICC 251120Z 25009KT 6000 FEW030 16/14 Q1002",
      "tafRaw": "TAF LICC 250500Z 2506/2606 VRB06KT 9999 SCT030 \n  BECMG 2506/2508 25012KT \n  TEMPO 2510/2514 4000 RA \n  TEMPO 2604/2606 4000 TSRA"
    },
    {
      "icao": "LIMJ",
      "iata": "GOA",
      "name": "Genoa Cristoforo Colombo Airport",
      "lat": 44.412039,
      "lon": 8.840732,
      "updatedAt": "251120Z",
      "visibility_m": 10000,
      "taf_visibility_m": 4000,
      "worst_visibility_m": 4000,
      "ceiling_ft": null,
      "hazards": [
        "TSRA",
        "TS",
        "RA"
      ],
      "severityScore": 62,
      "metarRaw": "METAR LIMJ 251120Z 05012KT 9999 FEW060 08/03 Q0998",
      "tafRaw": "TAF LIMJ 251100Z 2512/2612 04010KT 9999 SCT020 \n  BECMG 2512/2514 15008KT \n  TEMPO 2515/2522 4000 TSRA \n  BECMG 2522/2524 02010KT"
    },
    {
      "icao": "LIRN",
      "iata": "NAP",
      "name": "Naples International Airport",
      "lat": 40.886002,
      "lon": 14.2908,
      "updatedAt": "251120Z",
      "visibility_m": 10000,
      "taf_visibility_m": 3000,
      "worst_visibility_m": 3000,
      "ceiling_ft": 8000,
      "hazards": [
        "TSRA",
        "RA",
        "TS"
      ],
      "severityScore": 62,
      "metarRaw": "METAR LIRN 251120Z 21004KT 170V240 9999 BKN080 11/07 Q1003 NOSIG",
      "tafRaw": "TAF LIRN 251100Z 2512/2612 19012KT 9999 SCT030 \n  TEMPO 2518/2522 TSRA \n  BECMG 2518/2520 25012KT \n  BECMG 2600/2602 VRB05KT \n  TEMPO 2600/2606 4000 -RA \n  TEMPO 2609/2612 3000 TSRA"
    },
    {
      "icao": "LIRP",
      "iata": "PSA",
      "name": "Pisa International Airport",
      "lat": 43.683899,
      "lon": 10.3927,
      "updatedAt": "251115Z",
      "visibility_m": 10000,
      "taf_visibility_m": 5000,
      "worst_visibility_m": 5000,
      "ceiling_ft": 2500,
      "hazards": [
        "TSRA",
        "RA",
        "TS"
      ],
      "severityScore": 62,
      "metarRaw": "METAR LIRP 251115Z 10013KT 9999 FEW023 SCT030 11/09 Q0998 NOSIG",
      "tafRaw": "TAF LIRP 251100Z 2512/2612 10010KT 9999 SCT030 \n  TEMPO 2512/2517 15005KT 7000 RA BKN030 \n  TEMPO 2513/2516 5000 TSRA SCT020CB BKN025 \n  BECMG 2521/2523 09005KT \n  PROB40 \n  TEMPO 2603/2607 7000 RA BKN025"
    },
    {
      "icao": "EPKT",
      "iata": "KTW",
      "name": "Katowice Wojciech Korfanty International Airport",
      "lat": 50.476015,
      "lon": 19.080705,
      "updatedAt": "251130Z",
      "visibility_m": 10000,
      "taf_visibility_m": 1400,
      "worst_visibility_m": 1400,
      "ceiling_ft": 900,
      "hazards": [
        "BR",
        "RA"
      ],
      "severityScore": 57,
      "metarRaw": "METAR EPKT 251130Z 09010KT CAVOK 03/01 Q1004",
      "tafRaw": "TAF EPKT 251130Z 2512/2612 09009KT CAVOK \n  BECMG 2515/2518 BKN014 \n  TEMPO 2515/2522 2500 RA BR BKN009 \n  BECMG 2519/2522 BKN030 \n  TEMPO 2522/2603 4000 -RA BR BKN012 \n  TEMPO 2603/2608 1400 BR"
    },
    {
      "icao": "LRTR",
      "iata": "TSR",
      "name": "Timişoara Traian Vuia Airport",
      "lat": 45.809898,
      "lon": 21.3379,
      "updatedAt": "251130Z",
      "visibility_m": 10000,
      "taf_visibility_m": 1500,
      "worst_visibility_m": 1500,
      "ceiling_ft": 500,
      "hazards": [
        "RA",
        "BR"
      ],
      "severityScore": 57,
      "metarRaw": "METAR LRTR 251130Z 11012KT 9999 -RA NSC 09/04 Q1006",
      "tafRaw": "TAF LRTR 251100Z 2512/2612 11014KT 9999 BKN045 \n  TEMPO 2512/2515 5000 -RA BR BKN010 OVC030 \n  TEMPO 2523/2606 5000 -RA BR \n  BECMG 2607/2609 3000 -RA BR BKN010 OVC030 \n  PROB40 \n  TEMPO 2607/2612 1500 RA BR BKN005 OVC030"
    },
    {
      "icao": "EDDN",
      "iata": "NUE",
      "name": "Nuremberg Airport",
      "lat": 49.498699,
      "lon": 11.078056,
      "updatedAt": "251120Z",
      "visibility_m": 10000,
      "taf_visibility_m": 800,
      "worst_visibility_m": 800,
      "ceiling_ft": 1000,
      "hazards": [
        "SN"
      ],
      "severityScore": 55,
      "metarRaw": "METAR EDDN 251120Z AUTO 12006KT 9999 OVC010 M00/M03 Q0998 NOSIG",
      "tafRaw": "TAF EDDN 251100Z 2512/2612 15006KT 9999 OVC010 \n  BECMG 2512/2514 VRB03KT \n  BECMG 2518/2520 1500 -SN OVC005 \n  TEMPO 2522/2609 0800 SN OVC003 \n  BECMG 2603/2605 25006KT"
    },
    {
      "icao": "LIMF",
      "iata": "TRN",
      "name": "Turin Airport",
      "lat": 45.200802,
      "lon": 7.64963,
      "updatedAt": "251120Z",
      "visibility_m": 8000,
      "taf_visibility_m": 600,
      "worst_visibility_m": 600,
      "ceiling_ft": 3000,
      "hazards": [
        "FG",
        "BR"
      ],
      "severityScore": 55,
      "metarRaw": "METAR LIMF 251120Z 22004KT 170V260 8000 SCT010 BKN030 06/03 Q0998",
      "tafRaw": "TAF LIMF 251100Z 2512/2612 VRB04KT 7000 FEW010 BKN030 \n  BECMG 2518/2520 2000 BR \n  TEMPO 2522/2607 0600 FG BKN002 \n  BECMG 2610/2612 7000"
    },
    {
      "icao": "EDSB",
      "iata": "FKB",
      "name": "Karlsruhe Baden-Baden Airport",
      "lat": 48.7794,
      "lon": 8.0805,
      "updatedAt": "251120Z",
      "visibility_m": 4300,
      "taf_visibility_m": 2000,
      "worst_visibility_m": 2000,
      "ceiling_ft": 800,
      "hazards": [
        "BR",
        "SN"
      ],
      "severityScore": 53,
      "metarRaw": "METAR EDSB 251120Z 03004KT 4300 BR OVC008 M01/M02 Q0999",
      "tafRaw": "TAF EDSB 251100Z 2512/2612 03004KT 6000 OVC010 \n  TEMPO 2512/2518 3000 BR BKN008 \n  TEMPO 2518/2606 2000 -SN BR OVC003 \n  BECMG 2600/2603 21006KT"
    },
    {
      "icao": "EGGW",
      "iata": "LTN",
      "name": "London Luton Airport",
      "lat": 51.874699,
      "lon": -0.368333,
      "updatedAt": "251120Z",
      "visibility_m": 7000,
      "taf_visibility_m": null,
      "worst_visibility_m": 7000,
      "ceiling_ft": 300,
      "hazards": [
        "RA"
      ],
      "severityScore": 52,
      "metarRaw": "METAR EGGW 251120Z AUTO 11009KT 7000 -RA OVC003 06/05 Q0993",
      "tafRaw": null
    },
    {
      "icao": "LZKZ",
      "iata": "KSC",
      "name": "Košice International Airport",
      "lat": 48.663101,
      "lon": 21.2411,
      "updatedAt": "251130Z",
      "visibility_m": 10000,
      "taf_visibility_m": 1400,
      "worst_visibility_m": 1400,
      "ceiling_ft": 3000,
      "hazards": [
        "FG",
        "BR",
        "RA"
      ],
      "severityScore": 52,
      "metarRaw": "METAR LZKZ 251130Z 02004KT 9999 MIFG BKN030 05/04 Q1008 NOSIG",
      "tafRaw": "TAF LZKZ 251115Z 2512/2612 34005KT 9999 BKN028 \n  TEMPO 2514/2518 4000 -RA BR OVC011 \n  BECMG 2523/2601 3000 -RA BR SCT002 OVC006 \n  BECMG 2604/2606 20005KT \n  PROB40 \n  TEMPO 2607/2612 1400 RA BR OVC003"
    },
    {
      "icao": "LIPY",
      "iata": "AOI",
      "name": "Marche Airport",
      "lat": 43.616299,
      "lon": 13.3623,
      "updatedAt": "251120Z",
      "visibility_m": 10000,
      "taf_visibility_m": 4000,
      "worst_visibility_m": 4000,
      "ceiling_ft": 800,
      "hazards": [
        "SHRA",
        "RA"
      ],
      "severityScore": 51,
      "metarRaw": "METAR LIPY 251120Z AUTO 27004KT 9999 FEW039/// BKN075/// 11/06 Q0999",
      "tafRaw": "TAF LIPY 251100Z 2512/2612 VRB06KT 8000 SCT050 \n  PROB40 \n  TEMPO 2519/2524 4000 SHRA BKN008 \n  BECMG 2610/2612 35010KT"
    },
    {
      "icao": "EPRA",
      "iata": "RDO",
      "name": "Warsaw Radom Airport",
      "lat": 51.38937,
      "lon": 21.214742,
      "updatedAt": "251130Z",
      "visibility_m": 9000,
      "taf_visibility_m": 4000,
      "worst_visibility_m": 4000,
      "ceiling_ft": 800,
      "hazards": [
        "RA",
        "BR"
      ],
      "severityScore": 47,
      "metarRaw": "METAR EPRA 251130Z 09011KT 9000 BKN008 M04/M06 Q1009",
      "tafRaw": "TAF EPRA 251130Z 2512/2521 10010KT 8000 BKN007 \n  BECMG 2515/2517 4000 BR OVC005"
    },
    {
      "icao": "LIBP",
      "iata": "PSR",
      "name": "Abruzzo Airport",
      "lat": 42.431079,
      "lon": 14.182981,
      "updatedAt": "251120Z",
      "visibility_m": 10000,
      "taf_visibility_m": 4000,
      "worst_visibility_m": 4000,
      "ceiling_ft": 400,
      "hazards": [
        "RA"
      ],
      "severityScore": 47,
      "metarRaw": "METAR LIBP 251120Z AUTO VRB02KT 9999 BKN014/// BKN027/// BKN230/// 12/09 Q0999",
      "tafRaw": "TAF LIBP 251100Z 2512/2612 VRB05KT 8000 SCT030 \n  TEMPO 2520/2524 4000 -RA BKN004 \n  BECMG 2521/2523 24013KT \n  BECMG 2604/2606 VRB05KT"
    },
    {
      "icao": "EGKK",
      "iata": "LGW",
      "name": "London Gatwick Airport",
      "lat": 51.148771,
      "lon": -0.192089,
      "updatedAt": "251120Z",
      "visibility_m": 10000,
      "taf_visibility_m": 4000,
      "worst_visibility_m": 4000,
      "ceiling_ft": 2500,
      "hazards": [
        "BR",
        "SHRA",
        "RA",
        "DZ"
      ],
      "severityScore": 46,
      "metarRaw": "METAR EGKK 251120Z 12007KT 100V160 9999 SCT010 BKN025 08/06 Q0992",
      "tafRaw": "TAF EGKK 251056Z 2512/2618 09005KT 9999 SCT010 BKN030 \n  PROB40 \n  TEMPO 2512/2516 7000 SHRA BKN009 \n  TEMPO 2516/2610 7000 -RADZ BKN010 \n  PROB30 \n  TEMPO 2602/2610 4000 RADZ BR BKN006 \n  PROB30 \n  TEMPO 2610/2618 7000 SHRA -RADZ \n  BECMG 2615/2618 16010KT \n  PROB30 \n  TEMPO 2616/2618 BKN010"
    },
    {
      "icao": "EKBI",
      "iata": "BLL",
      "name": "Billund Airport",
      "lat": 55.740335,
      "lon": 9.157019,
      "updatedAt": "251120Z",
      "visibility_m": 5000,
      "taf_visibility_m": 4000,
      "worst_visibility_m": 4000,
      "ceiling_ft": 400,
      "hazards": [
        "BR"
      ],
      "severityScore": 45,
      "metarRaw": "METAR EKBI 251120Z AUTO 09012KT 5000 BR OVC005/// M00/M01 Q1007",
      "tafRaw": "TAF EKBI 251127Z 2512/2612 08012KT 7000 BKN010 \n  TEMPO 2512/2524 4000 BR BKN004 \n  TEMPO 2600/2612 06015G25KT BKN015"
    },
    {
      "icao": "EGBB",
      "iata": "BHX",
      "name": "Birmingham Airport",
      "lat": 52.453899,
      "lon": -1.74803,
      "updatedAt": "251120Z",
      "visibility_m": 10000,
      "taf_visibility_m": 5000,
      "worst_visibility_m": 5000,
      "ceiling_ft": 1100,
      "hazards": [
        "BR",
        "RA",
        "DZ"
      ],
      "severityScore": 44,
      "metarRaw": "METAR EGBB 251120Z 10009KT 080V140 9999 BKN011 07/06 Q0993",
      "tafRaw": "TAF EGBB 251056Z 2512/2612 11010KT 9999 SCT009 \n  TEMPO 2512/2518 6000 RA -RADZ BKN009 \n  BECMG 2516/2519 05007KT \n  TEMPO 2518/2612 BKN008 \n  PROB30 \n  TEMPO 2518/2606 7000 -DZ BKN004 \n  PROB40 2606/2612 5000 BR \n  BECMG 2609/2612 12010KT"
    },
    {
      "icao": "EETN",
      "iata": "TLL",
      "name": "Lennart Meri Tallinn Airport",
      "lat": 59.413246,
      "lon": 24.83264,
      "updatedAt": "251120Z",
      "visibility_m": 10000,
      "taf_visibility_m": 2000,
      "worst_visibility_m": 2000,
      "ceiling_ft": 800,
      "hazards": [
        "SN"
      ],
      "severityScore": 43,
      "metarRaw": "METAR EETN 251120Z 15004KT 120V190 CAVOK M13/M14 Q1021 NOSIG",
      "tafRaw": "TAF EETN 251130Z 2512/2612 17008KT 9999 FEW030 \n  TEMPO 2522/2609 2000 SN BKN008"
    },
    {
      "icao": "EKCH",
      "iata": "CPH",
      "name": "Copenhagen Kastrup Airport",
      "lat": 55.617900848389,
      "lon": 12.656000137329,
      "updatedAt": "251120Z",
      "visibility_m": 10000,
      "taf_visibility_m": 2000,
      "worst_visibility_m": 2000,
      "ceiling_ft": 800,
      "hazards": [
        "SN"
      ],
      "severityScore": 43,
      "metarRaw": "METAR EKCH 251120Z 10009KT 9999 OVC011 01/M02 Q1010 TEMPO OVC008",
      "tafRaw": "TAF EKCH 251127Z 2512/2612 10012KT 9999 OVC012 \n  TEMPO 2512/2524 2500 SN OVC008 \n  BECMG 2522/2524 04015KT \n  TEMPO 2600/2608 05018G28KT OVC015 \n  TEMPO 2608/2612 05020G30KT 2000 SN OVC008"
    },
    {
      "icao": "LHBP",
      "iata": "BUD",
      "name": "Budapest Liszt Ferenc International Airport",
      "lat": 47.43018,
      "lon": 19.262393,
      "updatedAt": "251130Z",
      "visibility_m": 9000,
      "taf_visibility_m": 1400,
      "worst_visibility_m": 1400,
      "ceiling_ft": 8500,
      "hazards": [
        "RA",
        "BR",
        "DZ"
      ],
      "severityScore": 42,
      "metarRaw": "METAR LHBP 251130Z 08008KT 9000 -RA SCT047 BKN085 04/02 Q1005 TEMPO TL1200 RA",
      "tafRaw": "TAF LHBP 251115Z 2512/2612 07010KT 7000 -RA SCT020 BKN060 \n  TEMPO 2512/2515 CAVOK \n  TEMPO 2514/2521 10016G26KT \n  TEMPO 2515/2603 4000 RA BKN008 OVC030 \n  TEMPO 2603/2609 04005KT 1400 RADZ BR OVC004 \n  BECMG 2609/2612 VRB02KT 3000 BR BKN004 OVC010"
    },
    {
      "icao": "UBBB",
      "iata": "GYD",
      "name": "Heydar Aliyev International Airport",
      "lat": 40.467498779296875,
      "lon": 50.04669952392578,
      "updatedAt": "251130Z",
      "visibility_m": 10000,
      "taf_visibility_m": 4000,
      "worst_visibility_m": 4000,
      "ceiling_ft": 3400,
      "hazards": [
        "BR",
        "RA",
        "FG"
      ],
      "severityScore": 42,
      "metarRaw": "METAR UBBB 251130Z 06004KT 9999 BKN034 07/03 Q1018 NOSIG",
      "tafRaw": "TAF UBBB 251048Z 2512/2612 34008KT 9999 SCT012 BKN030 TX07/2512Z TN02/2601Z \n  TEMPO 2514/2519 36012KT -RA SCT007 OVC020 \n  BECMG 2523/2601 VRB04KT SCT013 \n  TEMPO 2601/2603 4000 BR BCFG SCT007 \n  BECMG 2603/2605 19008KT \n  TEMPO 2606/2612 22016KT SCT025"
    },
    {
      "icao": "ENTO",
      "iata": "TRF",
      "name": "Sandefjord Airport, Torp",
      "lat": 59.186699,
      "lon": 10.2586,
      "updatedAt": "251120Z",
      "visibility_m": 10000,
      "taf_visibility_m": 4000,
      "worst_visibility_m": 4000,
      "ceiling_ft": 1200,
      "hazards": [
        "SHSN",
        "SN"
      ],
      "severityScore": 40,
      "metarRaw": "METAR ENTO 251120Z 03005KT 360V060 9999 -SHSN BKN012 M04/M06 Q1015 RESN BECMG FEW014 BKN040",
      "tafRaw": "TAF ENTO 251100Z 2512/2612 02008KT 9999 -SN FEW012 BKN040 \n  TEMPO 2512/2514 4000 BKN012"
    },
    {
      "icao": "EGPD",
      "iata": "ABZ",
      "name": "Aberdeen International Airport",
      "lat": 57.2019,
      "lon": -2.19778,
      "updatedAt": "251120Z",
      "visibility_m": 6000,
      "taf_visibility_m": 4000,
      "worst_visibility_m": 4000,
      "ceiling_ft": 1200,
      "hazards": [
        "RA",
        "DZ"
      ],
      "severityScore": 34,
      "metarRaw": "METAR EGPD 251120Z AUTO 12014KT 6000 -RA BKN015 OVC027 06/03 Q1002 RERA TEMPO BKN012",
      "tafRaw": "TAF EGPD 251056Z 2512/2612 11012KT 9999 SCT014 BKN025 \n  TEMPO 2512/2612 6000 -RADZ BKN012 \n  PROB40 \n  TEMPO 2512/2521 12015G25KT 4000 RADZ \n  PROB40 \n  TEMPO 2604/2612 4000 RADZ"
    },
    {
      "icao": "LZTT",
      "iata": "TAT",
      "name": "Poprad-Tatry Airport",
      "lat": 49.073601,
      "lon": 20.2411,
      "updatedAt": "251130Z",
      "visibility_m": 10000,
      "taf_visibility_m": 1000,
      "worst_visibility_m": 1000,
      "ceiling_ft": 3000,
      "hazards": [
        "BR",
        "RA"
      ],
      "severityScore": 32,
      "metarRaw": "METAR LZTT 251130Z VRB02KT 9999 FEW009 BKN030 03/01 Q1006 NOSIG",
      "tafRaw": "TAF LZTT 251115Z 2512/2612 18004KT 9999 FEW005 BKN040 \n  BECMG 2512/2514 3000 -RA BR BKN004 OVC008 \n  TEMPO 2523/2604 1000 RA BR OVC003"
    },
    {
      "icao": "EFTU",
      "iata": "TKU",
      "name": "Turku Airport",
      "lat": 60.514099,
      "lon": 22.2628,
      "updatedAt": "251120Z",
      "visibility_m": 10000,
      "taf_visibility_m": 2000,
      "worst_visibility_m": 2000,
      "ceiling_ft": 1200,
      "hazards": [
        "SN"
      ],
      "severityScore": 30,
      "metarRaw": "METAR EFTU 251120Z AUTO 17005KT 130V230 9999 -SN OVC012 M08/M11 Q1020",
      "tafRaw": "TAF EFTU 251137Z 2512/2612 16005KT 9999 -SN OVC015 \n  TEMPO 2512/2524 4000 BKN014 \n  PROB40 \n  TEMPO 2516/2524 2000 \n  TEMPO 2600/2606 BKN012"
    },
    {
      "icao": "ESMS",
      "iata": "MMX",
      "name": "Malmö Sturup Airport",
      "lat": 55.535564,
      "lon": 13.376327,
      "updatedAt": "251120Z",
      "visibility_m": 10000,
      "taf_visibility_m": 2000,
      "worst_visibility_m": 2000,
      "ceiling_ft": 1200,
      "hazards": [
        "SN"
      ],
      "severityScore": 30,
      "metarRaw": "METAR ESMS 251120Z 09014KT 9999 OVC012 01/M02 Q1009",
      "tafRaw": "TAF ESMS 251127Z 2512/2612 10013KT 9000 OVC008 \n  TEMPO 2512/2605 OVC012 \n  BECMG 2603/2605 07020G32KT \n  TEMPO 2605/2608 06020KT BKN012 \n  TEMPO 2608/2612 05020KT 2000 SN"
    },
    {
      "icao": "ESSA",
      "iata": "ARN",
      "name": "Stockholm-Arlanda Airport",
      "lat": 59.64849,
      "lon": 17.928829,
      "updatedAt": null,
      "visibility_m": null,
      "taf_visibility_m": 4000,
      "worst_visibility_m": 4000,
      "ceiling_ft": 1400,
      "hazards": [
        "SN"
      ],
      "severityScore": 30,
      "metarRaw": null,
      "tafRaw": "TAF ESSA 251130Z 2512/2612 06007KT 9999 -SN BKN035 \n  PROB40 2512/2518 4000 SN VV014"
    },
    {
      "icao": "LEBL",
      "iata": "BCN",
      "name": "Josep Tarradellas Barcelona-El Prat Airport",
      "lat": 41.2971,
      "lon": 2.07846,
      "updatedAt": "251130Z",
      "visibility_m": 10000,
      "taf_visibility_m": 4000,
      "worst_visibility_m": 4000,
      "ceiling_ft": 3000,
      "hazards": [
        "SHRA",
        "RA"
      ],
      "severityScore": 26,
      "metarRaw": "METAR LEBL 251130Z 28022KT 260V320 CAVOK 13/04 Q1002 NOSIG",
      "tafRaw": "TAF LEBL 251100Z 2512/2612 26012KT CAVOK TX15/2512Z TN09/2606Z \n  TEMPO 2514/2516 25015G25KT \n  PROB40 \n  TEMPO 2516/2519 4000 SHRA FEW020TCU BKN030 \n  BECMG 2521/2524 31020KT \n  TEMPO 2522/2609 31028G42KT \n  BECMG 2608/2611 27010KT"
    },
    {
      "icao": "LEZG",
      "iata": "ZAZ",
      "name": "Zaragoza Airport",
      "lat": 41.666199,
      "lon": -1.04155,
      "updatedAt": "251130Z",
      "visibility_m": 10000,
      "taf_visibility_m": 3000,
      "worst_visibility_m": 3000,
      "ceiling_ft": null,
      "hazards": [
        "RA",
        "SHRA"
      ],
      "severityScore": 26,
      "metarRaw": "METAR LEZG 251130Z 25014KT 220V280 9999 FEW060 12/04 Q1003 NOSIG",
      "tafRaw": "TAF LEZG 251100Z 2512/2612 26018KT 9999 FEW040 TX14/2513Z TN06/2607Z \n  TEMPO 2512/2518 26025G35KT \n  TEMPO 2512/2516 26030G48KT \n  TEMPO 2515/2521 3000 RA SHRA FEW040TCU \n  BECMG 2518/2520 25008KT \n  TEMPO 2602/2612 25020G30KT"
    },
    {
      "icao": "LICA",
      "iata": "SUF",
      "name": "Lamezia Terme Sant'Eufemia International Airport",
      "lat": 38.906214,
      "lon": 16.246007,
      "updatedAt": "251120Z",
      "visibility_m": 10000,
      "taf_visibility_m": 10000,
      "worst_visibility_m": 10000,
      "ceiling_ft": null,
      "hazards": [
        "RA",
        "SHRA"
      ],
      "severityScore": 26,
      "metarRaw": "METAR LICA 251120Z AUTO 28013KT 9999 -RA OVC020/// 14/12 Q1003",
      "tafRaw": "TAF LICA 251100Z 2512/2612 27016KT 9999 SCT020 \n  TEMPO 2512/2518 RA \n  TEMPO 2523/2607 SHRA \n  BECMG 2605/2607 VRB05KT"
    },
    {
      "icao": "LIRZ",
      "iata": "PEG",
      "name": "Perugia San Francesco d'Assisi – Umbria International Airport",
      "lat": 43.095901,
      "lon": 12.5132,
      "updatedAt": "251120Z",
      "visibility_m": 10000,
      "taf_visibility_m": 4000,
      "worst_visibility_m": 4000,
      "ceiling_ft": 3000,
      "hazards": [
        "SHRA",
        "RA"
      ],
      "severityScore": 26,
      "metarRaw": "METAR LIRZ 251120Z AUTO 16004KT 140V200 9999 BKN031/// 09/06 Q1000",
      "tafRaw": "TAF LIRZ 251100Z 2512/2612 17012KT 9999 BKN030 \n  TEMPO 2516/2524 4000 SHRA \n  BECMG 2519/2521 VRB05KT"
    },
    {
      "icao": "LRSB",
      "iata": "SBZ",
      "name": "Sibiu International Airport",
      "lat": 45.785841,
      "lon": 24.086666,
      "updatedAt": "251130Z",
      "visibility_m": 10000,
      "taf_visibility_m": 5000,
      "worst_visibility_m": 5000,
      "ceiling_ft": 5000,
      "hazards": [
        "SHRA",
        "RA"
      ],
      "severityScore": 26,
      "metarRaw": "METAR LRSB 251130Z 26003KT 220V320 9999 FEW085 05/02 Q1009",
      "tafRaw": "TAF LRSB 251100Z 2512/2612 VRB04KT 9999 SCT070 \n  TEMPO 2513/2516 13010KT \n  BECMG 2516/2518 13012KT \n  PROB30 \n  TEMPO 2609/2612 5000 -SHRA SCT015 FEW030CB BKN050"
    },
    {
      "icao": "LTFM",
      "iata": "IST",
      "name": "İstanbul Airport",
      "lat": 41.261297,
      "lon": 28.741951,
      "updatedAt": "251120Z",
      "visibility_m": 10000,
      "taf_visibility_m": 10000,
      "worst_visibility_m": 10000,
      "ceiling_ft": 18000,
      "hazards": [
        "SHRA",
        "RA"
      ],
      "severityScore": 26,
      "metarRaw": "METAR LTFM 251120Z 21014KT 9999 FEW040 SCT100 BKN180 15/11 Q1016 NOSIG",
      "tafRaw": "TAF LTFM 251040Z 2512/2618 19012KT 9999 FEW040 BKN100 \n  BECMG 2512/2514 CAVOK \n  BECMG 2607/2609 12007KT \n  BECMG 2612/2615 SCT035 BKN090 \n  PROB30 \n  TEMPO 2615/2618 -SHRA BKN025 BKN080"
    },
    {
      "icao": "OMAA",
      "iata": "AUH",
      "name": "Zayed International Airport",
      "lat": 24.440966,
      "lon": 54.649237,
      "updatedAt": "251130Z",
      "visibility_m": 10000,
      "taf_visibility_m": 3000,
      "worst_visibility_m": 3000,
      "ceiling_ft": null,
      "hazards": [
        "SHRA",
        "RA"
      ],
      "severityScore": 26,
      "metarRaw": "METAR OMAA 251130Z 18012KT 150V210 9999 FEW040 25/09 Q1013 NOSIG",
      "tafRaw": "TAF OMAA 251100Z 2512/2618 18012KT 8000 FEW035 \n  PROB30 \n  TEMPO 2512/2519 VRB18G28KT 3000 SHRA BLDU FEW030TCU \n  BECMG 2514/2516 VRB02KT \n  BECMG 2518/2520 31015KT"
    },
    {
      "icao": "OMDB",
      "iata": "DXB",
      "name": "Dubai International Airport",
      "lat": 25.2527999878,
      "lon": 55.3643989563,
      "updatedAt": "251130Z",
      "visibility_m": 10000,
      "taf_visibility_m": 4000,
      "worst_visibility_m": 4000,
      "ceiling_ft": null,
      "hazards": [
        "SHRA",
        "RA"
      ],
      "severityScore": 26,
      "metarRaw": "METAR OMDB 251130Z 19008KT 160V230 CAVOK 25/11 Q1013 NOSIG",
      "tafRaw": "TAF OMDB 251100Z 2512/2618 18012KT 8000 NSC \n  PROB30 \n  TEMPO 2512/2606 VRB17G27KT 4000 SHRA BLDU FEW035TCU \n  BECMG 2512/2514 35010KT \n  BECMG 2515/2517 VRB02KT \n  BECMG 2600/2602 29010KT"
    },
    {
      "icao": "GCTS",
      "iata": "TFS",
      "name": "Tenerife Sur Airport",
      "lat": 28.0445,
      "lon": -16.5725,
      "updatedAt": "251130Z",
      "visibility_m": 10000,
      "taf_visibility_m": 10000,
      "worst_visibility_m": 10000,
      "ceiling_ft": null,
      "hazards": [
        "TS"
      ],
      "severityScore": 25,
      "metarRaw": "METAR GCTS 251130Z 12007KT 070V160 9999 SCT040 20/09 Q1030 NOSIG",
      "tafRaw": "TAF GCTS 250800Z 2509/2609 09010KT 9999 FEW040 TX22/2514Z TN15/2606Z \n  TEMPO 2509/2511 02007KT \n  BECMG 2520/2522 01007KT"
    },
    {
      "icao": "LWSK",
      "iata": "SKP",
      "name": "Skopje International Airport",
      "lat": 41.958087,
      "lon": 21.622581,
      "updatedAt": "251120Z",
      "visibility_m": 7000,
      "taf_visibility_m": 5000,
      "worst_visibility_m": 5000,
      "ceiling_ft": 1400,
      "hazards": [
        "RA"
      ],
      "severityScore": 24,
      "metarRaw": "METAR LWSK 251120Z VRB01KT 7000 OVC014 06/04 Q1012 NOSIG",
      "tafRaw": "TAF LWSK 251140Z 2512/2612 VRB02KT 7000 OVC015 \n  BECMG 2512/2514 16012KT 9999 BKN020 BKN050 \n  TEMPO 2513/2521 16015G25KT \n  BECMG 2601/2603 5000 RA BKN015 OVC040"
    },
    {
      "icao": "EHEH",
      "iata": "EIN",
      "name": "Eindhoven Airport",
      "lat": 51.4500999451,
      "lon": 5.37452983856,
      "updatedAt": null,
      "visibility_m": null,
      "taf_visibility_m": 3000,
      "worst_visibility_m": 3000,
      "ceiling_ft": 1200,
      "hazards": [
        "BR"
      ],
      "severityScore": 22,
      "metarRaw": null,
      "tafRaw": "TAF EHEH 250520Z 2506/2612 10005KT 6000 HZ NSC \n  BECMG 2601/2604 01003KT 3000 BR SCT008 BKN012"
    },
    {
      "icao": "LATI",
      "iata": "TIA",
      "name": "Tirana International Airport Mother Teresa",
      "lat": 41.4147,
      "lon": 19.7206,
      "updatedAt": "251120Z",
      "visibility_m": 10000,
      "taf_visibility_m": 4000,
      "worst_visibility_m": 4000,
      "ceiling_ft": 13000,
      "hazards": [
        "BR",
        "RA"
      ],
      "severityScore": 22,
      "metarRaw": "METAR LATI 251120Z VRB02KT 9999 BKN130 15/09 Q1005 NOSIG",
      "tafRaw": "TAF LATI 251100Z 2512/2612 VRB05KT 9999 FEW040 BKN080 TX18/2512Z TN10/2605Z \n  TEMPO 2514/2601 16014KT \n  PROB40 \n  TEMPO 2516/2523 18014G25KT \n  BECMG 2523/2601 4000 RA BR SCT015 OVC025 \n  BECMG 2607/2609 9999 NSW SCT040"
    },
    {
      "icao": "LBSF",
      "iata": "SOF",
      "name": "Sofia Airport",
      "lat": 42.696357,
      "lon": 23.417671,
      "updatedAt": "251130Z",
      "visibility_m": 8000,
      "taf_visibility_m": 3000,
      "worst_visibility_m": 3000,
      "ceiling_ft": 5000,
      "hazards": [
        "BR",
        "RA"
      ],
      "severityScore": 22,
      "metarRaw": "METAR LBSF 251130Z VRB02KT 8000 FEW008 BKN050 03/01 Q1013 NOSIG",
      "tafRaw": "TAF LBSF 251100Z 2512/2612 09010KT 9999 SCT020 BKN040 \n  TEMPO 2513/2519 12016G26KT \n  PROB30 \n  TEMPO 2521/2602 3000 BR BKN003 \n  TEMPO 2606/2610 4000 RA BKN012 OVC030"
    },
    {
      "icao": "LRBV",
      "iata": "GHV",
      "name": "Brașov-Ghimbav International Airport",
      "lat": 45.70558,
      "lon": 25.522871,
      "updatedAt": "251130Z",
      "visibility_m": 10000,
      "taf_visibility_m": 5000,
      "worst_visibility_m": 5000,
      "ceiling_ft": 1500,
      "hazards": [
        "BR"
      ],
      "severityScore": 22,
      "metarRaw": "METAR LRBV 251130Z VRB02KT CAVOK 06/01 Q1010",
      "tafRaw": "TAF LRBV 251100Z 2512/2521 VRB04KT CAVOK \n  TEMPO 2515/2521 20010KT 5000 BR BKN015"
    },
    {
      "icao": "LRSM",
      "iata": "SUJ",
      "name": "Satu Mare International Airport",
      "lat": 47.7033,
      "lon": 22.8857,
      "updatedAt": "251130Z",
      "visibility_m": 10000,
      "taf_visibility_m": 5000,
      "worst_visibility_m": 5000,
      "ceiling_ft": 4500,
      "hazards": [
        "BR",
        "RA"
      ],
      "severityScore": 22,
      "metarRaw": "METAR LRSM 251130Z VRB02KT CAVOK 08/02 Q1009",
      "tafRaw": "TAF LRSM 251100Z 2512/2521 12006KT 9999 BKN045 \n  PROB40 \n  TEMPO 2514/2518 5000 -RA BR"
    },
    {
      "icao": "UAAA",
      "iata": "ALA",
      "name": "Almaty International Airport",
      "lat": 43.354267,
      "lon": 77.042828,
      "updatedAt": "251130Z",
      "visibility_m": 3600,
      "taf_visibility_m": 1500,
      "worst_visibility_m": 1500,
      "ceiling_ft": 20000,
      "hazards": [
        "BR"
      ],
      "severityScore": 20,
      "metarRaw": "METAR UAAA 251130Z 36002MPS 3600 FU SCT100 BKN200 M02/M06 Q1022 NOSIG",
      "tafRaw": "TAF UAAA 251103Z 2512/2612 17003MPS 3100 BR FU BKN050 OVC100 TXM01/2608Z TNM07/2602Z \n  TEMPO 2512/2524 1500 \n  FM260600 01003MPS 9999 SCT050 BKN100"
    },
    {
      "icao": "ENGM",
      "iata": "OSL",
      "name": "Oslo-Gardermoen International Airport",
      "lat": 60.193901,
      "lon": 11.1004,
      "updatedAt": "251120Z",
      "visibility_m": 4000,
      "taf_visibility_m": 10000,
      "worst_visibility_m": 4000,
      "ceiling_ft": 3700,
      "hazards": [
        "SN"
      ],
      "severityScore": 18,
      "metarRaw": "METAR ENGM 251120Z 02004KT 6000 -SN SCT020 BKN037 M06/M08 Q1016 TEMPO 4000",
      "tafRaw": "TAF ENGM 251100Z 2512/2612 36005KT 9999 FEW015 BKN040"
    },
    {
      "icao": "ESGG",
      "iata": "GOT",
      "name": "Göteborg Landvetter Airport",
      "lat": 57.6628,
      "lon": 12.2798,
      "updatedAt": "251120Z",
      "visibility_m": 10000,
      "taf_visibility_m": 10000,
      "worst_visibility_m": 10000,
      "ceiling_ft": 3800,
      "hazards": [
        "SN"
      ],
      "severityScore": 18,
      "metarRaw": "METAR ESGG 251120Z 09007KT 9999 -SN FEW017 SCT030 BKN038 M03/M07 Q1012",
      "tafRaw": "TAF ESGG 251130Z 2512/2612 07008KT 9999 -SG -SN OVC030 \n  TEMPO 2512/2604 VV014"
    },
    {
      "icao": "ESKN",
      "iata": "NYO",
      "name": "Stockholm Skavsta Airport",
      "lat": 58.789656,
      "lon": 16.911479,
      "updatedAt": "251120Z",
      "visibility_m": 2100,
      "taf_visibility_m": 2500,
      "worst_visibility_m": 2100,
      "ceiling_ft": 2200,
      "hazards": [
        "SN"
      ],
      "severityScore": 18,
      "metarRaw": "METAR ESKN 251120Z 03005KT 360V060 2100 SN FEW007 SCT016 BKN022 M04/M05 Q1016",
      "tafRaw": "TAF ESKN 251130Z 2512/2612 03010KT 9999 -SN SCT015 BKN030 \n  PROB40 2512/2522 2500 SN VV010"
    },
    {
      "icao": "EGGP",
      "iata": "LPL",
      "name": "Liverpool John Lennon Airport",
      "lat": 53.334863,
      "lon": -2.849637,
      "updatedAt": "251120Z",
      "visibility_m": 10000,
      "taf_visibility_m": 6000,
      "worst_visibility_m": 6000,
      "ceiling_ft": 2700,
      "hazards": [
        "RA"
      ],
      "severityScore": 12,
      "metarRaw": "METAR EGGP 251120Z 10010KT 9999 FEW015 BKN027 07/05 Q0993",
      "tafRaw": "TAF EGGP 251058Z 2512/2612 09010KT 9999 SCT015 \n  TEMPO 2512/2521 BKN014 \n  PROB30 \n  TEMPO 2512/2521 8000 -RA BKN008 \n  TEMPO 2521/2610 6000 \n  BECMG 2601/2604 15005KT"
    },
    {
      "icao": "EGPF",
      "iata": "GLA",
      "name": "Glasgow Airport",
      "lat": 55.871899,
      "lon": -4.43306,
      "updatedAt": "251120Z",
      "visibility_m": 9000,
      "taf_visibility_m": 7000,
      "worst_visibility_m": 7000,
      "ceiling_ft": 2700,
      "hazards": [
        "RA"
      ],
      "severityScore": 12,
      "metarRaw": "METAR EGPF 251120Z AUTO 08013KT 9000 -RA SCT022 BKN027 OVC046 07/04 Q0997",
      "tafRaw": "TAF EGPF 251100Z 2512/2612 08014KT 9999 BKN025 \n  TEMPO 2512/2524 8000 -RA \n  PROB30 \n  TEMPO 2512/2524 BKN014 \n  PROB30 2600/2612 7000"
    },
    {
      "icao": "LEMG",
      "iata": "AGP",
      "name": "Málaga-Costa del Sol Airport",
      "lat": 36.6749,
      "lon": -4.49911,
      "updatedAt": "251130Z",
      "visibility_m": 10000,
      "taf_visibility_m": 10000,
      "worst_visibility_m": 10000,
      "ceiling_ft": 5100,
      "hazards": [
        "RA"
      ],
      "severityScore": 12,
      "metarRaw": "METAR LEMG 251130Z 16003KT 130V190 9999 FEW028 BKN051 15/08 Q1018 NOSIG",
      "tafRaw": "TAF LEMG 251100Z 2512/2612 27005KT 9999 BKN045 TX16/2514Z TN12/2607Z \n  PROB30 \n  TEMPO 2512/2515 RA \n  PROB30 \n  TEMPO 2523/2602 RA \n  BECMG 2609/2611 33010KT"
    },
    {
      "icao": "LHDC",
      "iata": "DEB",
      "name": "Debrecen International Airport",
      "lat": 47.488899,
      "lon": 21.615299,
      "updatedAt": "251115Z",
      "visibility_m": 10000,
      "taf_visibility_m": 8000,
      "worst_visibility_m": 8000,
      "ceiling_ft": 3500,
      "hazards": [
        "RA"
      ],
      "severityScore": 12,
      "metarRaw": "METAR LHDC 251115Z AUTO 08007KT CAVOK 10/04 Q1007 NOSIG",
      "tafRaw": "TAF LHDC 251115Z 2512/2521 08008KT CAVOK \n  BECMG 2512/2515 11014KT \n  TEMPO 2512/2521 8000 RA BKN035 BKN080"
    },
    {
      "icao": "LIPQ",
      "iata": "TRS",
      "name": "Trieste–Friuli Venezia Giulia Airport",
      "lat": 45.827499,
      "lon": 13.4722,
      "updatedAt": "251120Z",
      "visibility_m": 10000,
      "taf_visibility_m": 4000,
      "worst_visibility_m": 4000,
      "ceiling_ft": 2000,
      "hazards": [
        "RA"
      ],
      "severityScore": 12,
      "metarRaw": "METAR LIPQ 251120Z AUTO 32004KT 270V040 9999 -RA OVC025/// 09/08 Q0996",
      "tafRaw": "TAF LIPQ 251100Z 2512/2612 VRB06KT 4500 -RA BKN020 \n  BECMG 2515/2517 8000 \n  TEMPO 2520/2607 4000 RA"
    },
    {
      "icao": "LWOH",
      "iata": "OHD",
      "name": "Ohrid St. Paul the Apostle Airport",
      "lat": 41.18,
      "lon": 20.7423,
      "updatedAt": "251120Z",
      "visibility_m": 10000,
      "taf_visibility_m": 5000,
      "worst_visibility_m": 5000,
      "ceiling_ft": 9000,
      "hazards": [
        "RA"
      ],
      "severityScore": 12,
      "metarRaw": "METAR LWOH 251120Z 17004KT 130V210 9999 SCT035 BKN090 10/07 Q1010",
      "tafRaw": "TAF LWOH 251140Z 2512/2612 16010KT 9999 SCT040 BKN090 \n  BECMG 2600/2602 5000 RA BKN010 OVC030"
    },
    {
      "icao": "ENBR",
      "iata": "BGO",
      "name": "Bergen Airport, Flesland",
      "lat": 60.2934,
      "lon": 5.21814,
      "updatedAt": "251120Z",
      "visibility_m": 10000,
      "taf_visibility_m": 10000,
      "worst_visibility_m": 10000,
      "ceiling_ft": 4500,
      "hazards": [
        "BR"
      ],
      "severityScore": 10,
      "metarRaw": "METAR ENBR 251120Z 08002KT 9999 SCT037 BKN045 M03/M09 Q1013 NOSIG RMK WIND 1200FT 13003KT",
      "tafRaw": "TAF ENBR 251100Z 2512/2612 04005KT 9999 BKN040"
    },
    {
      "icao": "LEZL",
      "iata": "SVQ",
      "name": "Sevilla Airport",
      "lat": 37.417999,
      "lon": -5.89311,
      "updatedAt": "251130Z",
      "visibility_m": 10000,
      "taf_visibility_m": 4000,
      "worst_visibility_m": 4000,
      "ceiling_ft": 3000,
      "hazards": [
        "DZ"
      ],
      "severityScore": 10,
      "metarRaw": "METAR LEZL 251130Z 26012KT 9999 SCT020 BKN030 15/12 Q1018 NOSIG",
      "tafRaw": "TAF LEZL 250800Z 2509/2609 24010KT CAVOK TX18/2515Z TN13/2607Z \n  PROB40 \n  TEMPO 2509/2511 4000 DZ BKN012 \n  TEMPO 2519/2524 4000 DZ BKN008"
    },
    {
      "icao": "LRTM",
      "iata": "TGM",
      "name": "Târgu Mureş Transilvania International Airport",
      "lat": 46.467701,
      "lon": 24.4125,
      "updatedAt": "251130Z",
      "visibility_m": 7000,
      "taf_visibility_m": 3000,
      "worst_visibility_m": 3000,
      "ceiling_ft": null,
      "hazards": [
        "BR"
      ],
      "severityScore": 10,
      "metarRaw": "METAR LRTM 251130Z 11004KT 080V140 7000 NSC 04/01 Q1010",
      "tafRaw": "TAF LRTM 251100Z 2512/2521 VRB04KT 7000 NSC \n  TEMPO 2516/2519 3000 BR"
    },
    {
      "icao": "LCLK",
      "iata": "LCA",
      "name": "Larnaca International Airport",
      "lat": 34.875099,
      "lon": 33.624901,
      "updatedAt": "251130Z",
      "visibility_m": 10000,
      "taf_visibility_m": null,
      "worst_visibility_m": 10000,
      "ceiling_ft": null,
      "hazards": [],
      "severityScore": 5,
      "metarRaw": "METAR LCLK 251130Z 07006KT 9999 FEW018 SCT030 19/14 Q1021 NOSIG",
      "tafRaw": null
    },
    {
      "icao": "LCPH",
      "iata": "PFO",
      "name": "Paphos International Airport",
      "lat": 34.717999,
      "lon": 32.485699,
      "updatedAt": "251130Z",
      "visibility_m": 8000,
      "taf_visibility_m": null,
      "worst_visibility_m": 8000,
      "ceiling_ft": null,
      "hazards": [],
      "severityScore": 5,
      "metarRaw": "METAR LCPH 251130Z 15011KT 8000 FEW020 18/11 Q1021 NOSIG",
      "tafRaw": null
    },
    {
      "icao": "LECH",
      "iata": "CDT",
      "name": "Castellón-Costa Azahar Airport",
      "lat": 40.213889,
      "lon": 0.073333,
      "updatedAt": "251130Z",
      "visibility_m": 10000,
      "taf_visibility_m": null,
      "worst_visibility_m": 10000,
      "ceiling_ft": null,
      "hazards": [],
      "severityScore": 5,
      "metarRaw": "METAR LECH 251130Z AUTO 20008KT 170V240 CAVOK 13/01 Q1005",
      "tafRaw": null
    },
    {
      "icao": "LEXJ",
      "iata": "SDR",
      "name": "Seve Ballesteros-Santander Airport",
      "lat": 43.427101,
      "lon": -3.82001,
      "updatedAt": "251130Z",
      "visibility_m": 10000,
      "taf_visibility_m": null,
      "worst_visibility_m": 10000,
      "ceiling_ft": 3200,
      "hazards": [],
      "severityScore": 5,
      "metarRaw": "METAR LEXJ 251130Z 31011KT 270V350 9999 FEW022 BKN032 10/06 Q1000",
      "tafRaw": null
    },
    {
      "icao": "LFLS",
      "iata": "GNB",
      "name": "Grenoble Alpes Isère Airport",
      "lat": 45.3629,
      "lon": 5.32937,
      "updatedAt": "251130Z",
      "visibility_m": 10000,
      "taf_visibility_m": null,
      "worst_visibility_m": 10000,
      "ceiling_ft": null,
      "hazards": [],
      "severityScore": 5,
      "metarRaw": "METAR LFLS 251130Z AUTO 08008KT CAVOK 06/05 Q0997 NOSIG",
      "tafRaw": null
    },
    {
      "icao": "LQBK",
      "iata": "BNX",
      "name": "Banja Luka International Airport",
      "lat": 44.941399,
      "lon": 17.297501,
      "updatedAt": "251130Z",
      "visibility_m": 7000,
      "taf_visibility_m": null,
      "worst_visibility_m": 7000,
      "ceiling_ft": null,
      "hazards": [],
      "severityScore": 5,
      "metarRaw": "METAR LQBK 251130Z 32005KT 290V360 7000 SCT047 08/06 Q0999 NOSIG",
      "tafRaw": null
    },
    {
      "icao": "UGKO",
      "iata": "KUT",
      "name": "David the Builder Kutaisi International Airport",
      "lat": 42.177448,
      "lon": 42.485353,
      "updatedAt": "251130Z",
      "visibility_m": 10000,
      "taf_visibility_m": null,
      "worst_visibility_m": 10000,
      "ceiling_ft": 5300,
      "hazards": [],
      "severityScore": 5,
      "metarRaw": "METAR UGKO 251130Z 09005KT 9999 BKN053 08/06 Q1021 NOSIG",
      "tafRaw": null
    },
    {
      "icao": "BIKF",
      "iata": "KEF",
      "name": "Keflavik International Airport",
      "lat": 63.985001,
      "lon": -22.6056,
      "updatedAt": "251130Z",
      "visibility_m": 10000,
      "taf_visibility_m": 10000,
      "worst_visibility_m": 10000,
      "ceiling_ft": 11000,
      "hazards": [],
      "severityScore": 0,
      "metarRaw": "METAR BIKF 251130Z 08014KT 9999 FEW030 BKN110 04/M01 Q1006",
      "tafRaw": "TAF BIKF 251036Z 2512/2612 09015KT 9999 FEW025 TX05/2513Z TN01/2602Z \n  TEMPO 2513/2612 09020G30KT"
    },
    {
      "icao": "BKPR",
      "iata": "PRN",
      "name": "Priština Adem Jashari International Airport",
      "lat": 42.5728,
      "lon": 21.035801,
      "updatedAt": "251130Z",
      "visibility_m": 10000,
      "taf_visibility_m": 10000,
      "worst_visibility_m": 10000,
      "ceiling_ft": null,
      "hazards": [],
      "severityScore": 0,
      "metarRaw": "METAR BKPR 251130Z 16015KT CAVOK 11/06 Q1009 NOSIG",
      "tafRaw": "TAF BKPR 251130Z 2512/2612 17010KT 9999 FEW040 SCT070 \n  TEMPO 2512/2604 17022G32KT"
    },
    {
      "icao": "GCFV",
      "iata": "FUE",
      "name": "Fuerteventura Airport",
      "lat": 28.4527,
      "lon": -13.8638,
      "updatedAt": "251130Z",
      "visibility_m": 10000,
      "taf_visibility_m": 10000,
      "worst_visibility_m": 10000,
      "ceiling_ft": null,
      "hazards": [],
      "severityScore": 0,
      "metarRaw": "METAR GCFV 251130Z 04008KT 9999 FEW040 19/10 Q1029",
      "tafRaw": "TAF GCFV 250800Z 2509/2609 05010KT 9999 FEW035 TX20/2514Z TN14/2606Z \n  TEMPO 2509/2511 35008KT \n  BECMG 2519/2521 33005KT"
    },
    {
      "icao": "GCLP",
      "iata": "LPA",
      "name": "Gran Canaria Airport",
      "lat": 27.9319,
      "lon": -15.3866,
      "updatedAt": "251130Z",
      "visibility_m": 10000,
      "taf_visibility_m": 10000,
      "worst_visibility_m": 10000,
      "ceiling_ft": null,
      "hazards": [],
      "severityScore": 0,
      "metarRaw": "METAR GCLP 251130Z 04008KT 010V080 9999 FEW037 20/10 Q1029 NOSIG",
      "tafRaw": "TAF GCLP 250800Z 2509/2609 04012KT 9999 FEW035 TX20/2514Z TN13/2606Z \n  TEMPO 2509/2511 33007KT \n  BECMG 2519/2521 33008KT"
    },
    {
      "icao": "GMAD",
      "iata": "AGA",
      "name": "Al Massira Airport",
      "lat": 30.322478,
      "lon": -9.412003,
      "updatedAt": "251130Z",
      "visibility_m": 10000,
      "taf_visibility_m": 8000,
      "worst_visibility_m": 8000,
      "ceiling_ft": null,
      "hazards": [],
      "severityScore": 0,
      "metarRaw": "METAR GMAD 251130Z 03005KT 340V080 CAVOK 14/09 Q1027 NOSIG",
      "tafRaw": "TAF GMAD 251100Z 2512/2618 28010KT 8000 SCT016"
    },
    {
      "icao": "GMMN",
      "iata": "CMN",
      "name": "Mohammed V International Airport",
      "lat": 33.3675,
      "lon": -7.58997,
      "updatedAt": "251130Z",
      "visibility_m": 10000,
      "taf_visibility_m": 10000,
      "worst_visibility_m": 10000,
      "ceiling_ft": 8000,
      "hazards": [],
      "severityScore": 0,
      "metarRaw": "METAR GMMN 251130Z 23015KT 190V260 9999 FEW023 BKN080 15/11 Q1026 NOSIG",
      "tafRaw": "TAF GMMN 251100Z 2512/2618 22014KT 9999 FEW023 SCT080 \n  TEMPO 2518/2618 24020G35KT"
    },
    {
      "icao": "GMMX",
      "iata": "RAK",
      "name": "Marrakesh Menara Airport",
      "lat": 31.604807,
      "lon": -8.035788,
      "updatedAt": "251130Z",
      "visibility_m": 10000,
      "taf_visibility_m": 8000,
      "worst_visibility_m": 8000,
      "ceiling_ft": null,
      "hazards": [],
      "severityScore": 0,
      "metarRaw": "METAR GMMX 251130Z VRB01KT CAVOK 14/06 Q1027 NOSIG",
      "tafRaw": "TAF GMMX 251100Z 2512/2618 12006KT 8000 NSC \n  TEMPO 2516/2520 34016KT"
    },
    {
      "icao": "ENAL",
      "iata": "AES",
      "name": "Ålesund Airport, Vigra",
      "lat": 62.5625,
      "lon": 6.1197,
      "updatedAt": "251120Z",
      "visibility_m": 10000,
      "taf_visibility_m": 10000,
      "worst_visibility_m": 10000,
      "ceiling_ft": 5100,
      "hazards": [],
      "severityScore": 0,
      "metarRaw": "METAR ENAL 251120Z 14008KT 9999 SCT027 BKN051 00/M07 Q1013",
      "tafRaw": "TAF ENAL 251100Z 2512/2521 14012KT 9999 SCT030 BKN050 \n  BECMG 2512/2514 06012KT"
    },
    {
      "icao": "ENHD",
      "iata": "HAU",
      "name": "Haugesund Airport, Karmøy",
      "lat": 59.345299,
      "lon": 5.20836,
      "updatedAt": "251120Z",
      "visibility_m": 10000,
      "taf_visibility_m": 10000,
      "worst_visibility_m": 10000,
      "ceiling_ft": null,
      "hazards": [],
      "severityScore": 0,
      "metarRaw": "METAR ENHD 251120Z /////KT 9999 SCT048 M01/M12 Q1012 RMK WIND RWY 31 10014KT",
      "tafRaw": "TAF ENHD 251100Z 2512/2521 11009KT CAVOK"
    },
    {
      "icao": "ENVA",
      "iata": "TRD",
      "name": "Trondheim Airport, Værnes",
      "lat": 63.457802,
      "lon": 10.924,
      "updatedAt": "251120Z",
      "visibility_m": 10000,
      "taf_visibility_m": 10000,
      "worst_visibility_m": 10000,
      "ceiling_ft": 5000,
      "hazards": [],
      "severityScore": 0,
      "metarRaw": "METAR ENVA 251120Z 11006KT 9999 NCD M09/M14 Q1015 NOSIG RMK WIND 670FT 14003KT",
      "tafRaw": "TAF ENVA 251100Z 2512/2612 10005KT 9999 BKN050"
    },
    {
      "icao": "ENZV",
      "iata": "SVG",
      "name": "Stavanger Airport, Sola",
      "lat": 58.876701,
      "lon": 5.63778,
      "updatedAt": "251120Z",
      "visibility_m": 10000,
      "taf_visibility_m": 10000,
      "worst_visibility_m": 10000,
      "ceiling_ft": null,
      "hazards": [],
      "severityScore": 0,
      "metarRaw": "METAR ENZV 251120Z 09007KT CAVOK M01/M13 Q1012 NOSIG",
      "tafRaw": "TAF ENZV 251100Z 2512/2612 08008KT 9999 FEW050"
    },
    {
      "icao": "HEGN",
      "iata": "HRG",
      "name": "Hurghada International Airport",
      "lat": 27.176776,
      "lon": 33.796692,
      "updatedAt": null,
      "visibility_m": null,
      "taf_visibility_m": 10000,
      "worst_visibility_m": 10000,
      "ceiling_ft": null,
      "hazards": [],
      "severityScore": 0,
      "metarRaw": null,
      "tafRaw": "TAF HEGN 251100Z 2512/2618 01012KT CAVOK"
    },
    {
      "icao": "HEMA",
      "iata": "RMF",
      "name": "Marsa Alam International Airport",
      "lat": 25.555548,
      "lon": 34.59245,
      "updatedAt": null,
      "visibility_m": null,
      "taf_visibility_m": 10000,
      "worst_visibility_m": 10000,
      "ceiling_ft": null,
      "hazards": [],
      "severityScore": 0,
      "metarRaw": null,
      "tafRaw": "TAF HEMA 251100Z 2512/2618 02014KT CAVOK"
    },
    {
      "icao": "HESH",
      "iata": "SSH",
      "name": "Sharm El Sheikh International Airport",
      "lat": 27.977272,
      "lon": 34.394717,
      "updatedAt": null,
      "visibility_m": null,
      "taf_visibility_m": 10000,
      "worst_visibility_m": 10000,
      "ceiling_ft": null,
      "hazards": [],
      "severityScore": 0,
      "metarRaw": null,
      "tafRaw": "TAF HESH 251100Z 2512/2618 03012KT CAVOK"
    },
    {
      "icao": "HESX",
      "iata": "SPX",
      "name": "Sphinx International Airport",
      "lat": 30.108179,
      "lon": 30.895728,
      "updatedAt": null,
      "visibility_m": null,
      "taf_visibility_m": 6000,
      "worst_visibility_m": 6000,
      "ceiling_ft": null,
      "hazards": [],
      "severityScore": 0,
      "metarRaw": null,
      "tafRaw": "TAF HESX 251100Z 2512/2618 17009KT 6000 FEW025"
    },
    {
      "icao": "LEAL",
      "iata": "ALC",
      "name": "Alicante-Elche Miguel Hernández Airport",
      "lat": 38.2822,
      "lon": -0.558156,
      "updatedAt": "251130Z",
      "visibility_m": 10000,
      "taf_visibility_m": 10000,
      "worst_visibility_m": 10000,
      "ceiling_ft": null,
      "hazards": [],
      "severityScore": 0,
      "metarRaw": "METAR LEAL 251130Z 21013KT 170V240 9999 SCT035 15/02 Q1011 NOSIG",
      "tafRaw": "TAF LEAL 251100Z 2512/2612 23008KT CAVOK TX17/2513Z TN11/2606Z \n  BECMG 2513/2515 27018KT \n  TEMPO 2514/2524 28020G30KT \n  BECMG 2600/2602 24008KT"
    },
    {
      "icao": "LEVC",
      "iata": "VLC",
      "name": "Valencia Airport",
      "lat": 39.4893,
      "lon": -0.481625,
      "updatedAt": "251130Z",
      "visibility_m": 10000,
      "taf_visibility_m": 10000,
      "worst_visibility_m": 10000,
      "ceiling_ft": null,
      "hazards": [],
      "severityScore": 0,
      "metarRaw": "METAR LEVC 251130Z 27018KT 230V290 9999 FEW040 14/04 Q1007 NOSIG",
      "tafRaw": "TAF LEVC 251100Z 2512/2612 27018KT 9999 FEW050 TX17/2513Z TN11/2606Z \n  TEMPO 2512/2518 27023G35KT \n  PROB40 \n  TEMPO 2512/2517 27025G43KT \n  TEMPO 2517/2602 28015G25KT \n  BECMG 2602/2604 26008KT"
    },
    {
      "icao": "LFMN",
      "iata": "NCE",
      "name": "Nice-Côte d'Azur Airport",
      "lat": 43.658401,
      "lon": 7.21587,
      "updatedAt": "251130Z",
      "visibility_m": 10000,
      "taf_visibility_m": 10000,
      "worst_visibility_m": 10000,
      "ceiling_ft": 2500,
      "hazards": [],
      "severityScore": 0,
      "metarRaw": "METAR LFMN 251130Z VRB03KT 9999 FEW055 SCT260 12/04 Q0998 NOSIG",
      "tafRaw": "TAF LFMN 250800Z 2509/2615 VRB05KT 9999 SCT050 BKN120 \n  BECMG 2511/2513 21010KT NSC \n  BECMG 2521/2523 33010KT \n  PROB40 \n  TEMPO 2605/2608 BKN025 \n  BECMG 2611/2613 20010KT"
    },
    {
      "icao": "LLBG",
      "iata": "TLV",
      "name": "Ben Gurion International Airport",
      "lat": 32.011398,
      "lon": 34.8867,
      "updatedAt": "251120Z",
      "visibility_m": 10000,
      "taf_visibility_m": 10000,
      "worst_visibility_m": 10000,
      "ceiling_ft": null,
      "hazards": [],
      "severityScore": 0,
      "metarRaw": "METAR LLBG 251120Z VRB02KT CAVOK 21/04 Q1020 NOSIG",
      "tafRaw": "TAF LLBG 251103Z 2512/2612 32010KT CAVOK \n  BECMG 2514/2516 02005KT \n  BECMG 2520/2522 VRB04KT \n  PROB40 \n  TEMPO 2522/2607 14007KT \n  BECMG 2607/2609 29010KT TX22/2512Z TN09/2603Z"
    },
    {
      "icao": "LPMA",
      "iata": "FNC",
      "name": "Cristiano Ronaldo International Airport",
      "lat": 32.697812,
      "lon": -16.774613,
      "updatedAt": "251130Z",
      "visibility_m": 10000,
      "taf_visibility_m": 10000,
      "worst_visibility_m": 10000,
      "ceiling_ft": null,
      "hazards": [],
      "severityScore": 0,
      "metarRaw": "METAR LPMA 251130Z 04005KT 340V100 9999 FEW015 19/08 Q1028",
      "tafRaw": "TAF LPMA 251100Z 2512/2612 VRB05KT 9999 SCT015 \n  BECMG 2610/2612 23015KT"
    },
    {
      "icao": "LPPS",
      "iata": "PXO",
      "name": "Porto Santo Airport",
      "lat": 33.0733985901,
      "lon": -16.3500003815,
      "updatedAt": "251130Z",
      "visibility_m": 10000,
      "taf_visibility_m": 10000,
      "worst_visibility_m": 10000,
      "ceiling_ft": 2500,
      "hazards": [],
      "severityScore": 0,
      "metarRaw": "METAR LPPS 251130Z 27015KT 9999 FEW015 SCT030 18/11 Q1027",
      "tafRaw": "TAF LPPS 251100Z 2512/2618 27012KT 9999 SCT015 \n  BECMG 2522/2524 26007KT \n  BECMG 2612/2614 20012KT SCT012 BKN025"
    },
    {
      "icao": "LRCL",
      "iata": "CLJ",
      "name": "Cluj Avram Iancu International Airport",
      "lat": 46.787425,
      "lon": 23.684292,
      "updatedAt": "251130Z",
      "visibility_m": 10000,
      "taf_visibility_m": 10000,
      "worst_visibility_m": 10000,
      "ceiling_ft": null,
      "hazards": [],
      "severityScore": 0,
      "metarRaw": "METAR LRCL 251130Z 06006KT CAVOK 04/00 Q1010",
      "tafRaw": "TAF LRCL 251100Z 2512/2521 08006KT CAVOK"
    },
    {
      "icao": "LYBE",
      "iata": "BEG",
      "name": "Belgrade Nikola Tesla Airport",
      "lat": 44.818401,
      "lon": 20.309099,
      "updatedAt": "251130Z",
      "visibility_m": 10000,
      "taf_visibility_m": 10000,
      "worst_visibility_m": 10000,
      "ceiling_ft": null,
      "hazards": [],
      "severityScore": 0,
      "metarRaw": "METAR LYBE 251130Z 13014KT CAVOK 12/06 Q1004 NOSIG",
      "tafRaw": "TAF LYBE 251100Z 2512/2612 13014KT CAVOK TX13/2513Z TN05/2606Z \n  TEMPO 2512/2522 13018G30KT \n  TEMPO 2522/2605 13015G25KT \n  BECMG 2610/2612 13004KT"
    },
    {
      "icao": "LYNI",
      "iata": "INI",
      "name": "Niš Constantine the Great Airport",
      "lat": 43.336538,
      "lon": 21.856242,
      "updatedAt": "251130Z",
      "visibility_m": 10000,
      "taf_visibility_m": 10000,
      "worst_visibility_m": 10000,
      "ceiling_ft": null,
      "hazards": [],
      "severityScore": 0,
      "metarRaw": "METAR LYNI 251130Z VRB02KT 9999 FEW033 SCT090 12/06 Q1010 NOSIG",
      "tafRaw": "TAF LYNI 251100Z 2512/2612 10008KT 9999 SCT040 SCT090 TX12/2513Z TN06/2606Z"
    },
    {
      "icao": "OEJN",
      "iata": "JED",
      "name": "King Abdulaziz International Airport",
      "lat": 21.6796,
      "lon": 39.156502,
      "updatedAt": "251100Z",
      "visibility_m": 10000,
      "taf_visibility_m": 3000,
      "worst_visibility_m": 3000,
      "ceiling_ft": null,
      "hazards": [],
      "severityScore": 0,
      "metarRaw": "METAR OEJN 251100Z 29011KT CAVOK 28/12 Q1013 NOSIG",
      "tafRaw": "TAF OEJN 251100Z 2512/2618 30012KT 7000 FEW040 \n  BECMG 2520/2522 09016KT \n  PROB40 \n  TEMPO 2520/2608 3000 BLDU \n  BECMG 2608/2610 26012KT 9999 SCT040"
    },
    {
      "icao": "OEMA",
      "iata": "MED",
      "name": "Prince Mohammad Bin Abdulaziz Airport",
      "lat": 24.5534,
      "lon": 39.705101,
      "updatedAt": "251100Z",
      "visibility_m": 10000,
      "taf_visibility_m": 7000,
      "worst_visibility_m": 7000,
      "ceiling_ft": null,
      "hazards": [],
      "severityScore": 0,
      "metarRaw": "METAR OEMA 251100Z 08009KT CAVOK 21/M06 Q1020 NOSIG",
      "tafRaw": "TAF OEMA 251100Z 2512/2618 08012KT 7000 NSC \n  BECMG 2520/2522 VRB03KT CAVOK \n  BECMG 2606/2608 09012KT 9999 FEW045"
    },
    {
      "icao": "OJAI",
      "iata": "AMM",
      "name": "Queen Alia International Airport",
      "lat": 31.7226009369,
      "lon": 35.9931983948,
      "updatedAt": "251100Z",
      "visibility_m": 5000,
      "taf_visibility_m": 4000,
      "worst_visibility_m": 4000,
      "ceiling_ft": null,
      "hazards": [],
      "severityScore": 0,
      "metarRaw": "METAR OJAI 251100Z 11005KT 5000 HZ NSC 15/04 Q1023 NOSIG",
      "tafRaw": "TAF OJAI 251100Z 2512/2618 13008KT 5000 HZ NSC \n  PROB30 2512/2518 4000 DU"
    }
  ],
  "stats": {
    "icaoCount": 159,
    "metarReturned": 153,
    "tafReturned": 151,
    "stationsWritten": 159,
    "missingMetar": 6,
    "missingTaf": 8
  },
  "errors": []
}