{
  "generatedAt": "2026-01-19T19:30:25.146Z",
  "stations": [
    {
      "icao": "EDDS",
      "iata": "STR",
      "name": "Stuttgart Airport",
      "lat": 48.689899,
      "lon": 9.22196,
      "updatedAt": "191920Z",
      "visibility_m": 10000,
      "taf_visibility_m": 600,
      "worst_visibility_m": 600,
      "ceiling_ft": 100,
      "hazards": [
        "FZFG",
        "FG"
      ],
      "severityScore": 100,
      "metarRaw": "METAR EDDS 191920Z AUTO VRB01KT CAVOK M01/M02 Q1019 NOSIG",
      "tafRaw": "TAF EDDS 191700Z 1918/2018 VRB03KT CAVOK \n  PROB40 \n  TEMPO 2000/2012 0600 FZFG BKN001"
    },
    {
      "icao": "EDFH",
      "iata": "HHN",
      "name": "Frankfurt-Hahn Airport",
      "lat": 49.946353,
      "lon": 7.261734,
      "updatedAt": "191920Z",
      "visibility_m": 250,
      "taf_visibility_m": 100,
      "worst_visibility_m": 100,
      "ceiling_ft": 100,
      "hazards": [
        "FZFG",
        "FG"
      ],
      "severityScore": 100,
      "metarRaw": "METAR EDFH 191920Z 13008KT 100V160 0250 R21/0300N FZFG VV/// M02/M02 Q1018",
      "tafRaw": "TAF EDFH 191700Z 1918/2018 14010KT 0400 FZFG OVC001 \n  TEMPO 1918/2011 0100 FZFG \n  PROB30 \n  TEMPO 2013/2017 1300 BCFG BKN003"
    },
    {
      "icao": "EDJA",
      "iata": "FMM",
      "name": "Memmingen Allgau Airport",
      "lat": 47.988092,
      "lon": 10.238248,
      "updatedAt": "191920Z",
      "visibility_m": 5000,
      "taf_visibility_m": 500,
      "worst_visibility_m": 500,
      "ceiling_ft": 200,
      "hazards": [
        "FZFG",
        "FG"
      ],
      "severityScore": 100,
      "metarRaw": "METAR EDJA 191920Z VRB02KT 5000 FEW004 M02/M02 Q1019",
      "tafRaw": "TAF EDJA 191700Z 1918/2003 05004KT CAVOK \n  BECMG 1918/1921 0500 FZFG OVC002"
    },
    {
      "icao": "EDNY",
      "iata": "FDH",
      "name": "Bodensee Airport Friedrichshafen",
      "lat": 47.671299,
      "lon": 9.51149,
      "updatedAt": "191920Z",
      "visibility_m": 5000,
      "taf_visibility_m": 600,
      "worst_visibility_m": 600,
      "ceiling_ft": 200,
      "hazards": [
        "BR",
        "FZFG",
        "FG"
      ],
      "severityScore": 100,
      "metarRaw": "METAR EDNY 191920Z 05003KT 010V080 5000 BR OVC002 M01/M01 Q1020",
      "tafRaw": "TAF EDNY 191700Z 1918/2003 04003KT CAVOK \n  BECMG 1918/1920 4000 BR BKN004 \n  BECMG 1920/1922 2000 BR \n  PROB40 \n  TEMPO 1922/2003 0600 FZFG OVC001"
    },
    {
      "icao": "EDSB",
      "iata": "FKB",
      "name": "Karlsruhe Baden-Baden Airport",
      "lat": 48.7794,
      "lon": 8.0805,
      "updatedAt": "191920Z",
      "visibility_m": 6000,
      "taf_visibility_m": 100,
      "worst_visibility_m": 100,
      "ceiling_ft": 500,
      "hazards": [
        "FZFG",
        "BR",
        "FG"
      ],
      "severityScore": 100,
      "metarRaw": "METAR EDSB 191920Z 02005KT 360V060 6000 OVC005 01/00 Q1020",
      "tafRaw": "TAF EDSB 191700Z 1918/2018 07005KT 7000 OVC006 \n  BECMG 1918/1921 2500 BR BKN002 \n  BECMG 1921/1923 0600 FZFG OVC001 \n  TEMPO 1921/2010 0100 FZFG \n  PROB30 \n  TEMPO 2014/2017 3000 BR SCT001 BKN003"
    },
    {
      "icao": "EGNM",
      "iata": "LBA",
      "name": "Leeds Bradford Airport",
      "lat": 53.865898,
      "lon": -1.66057,
      "updatedAt": "191920Z",
      "visibility_m": 100,
      "taf_visibility_m": 300,
      "worst_visibility_m": 100,
      "ceiling_ft": 400,
      "hazards": [
        "FG",
        "BR",
        "RA",
        "DZ"
      ],
      "severityScore": 100,
      "metarRaw": "METAR EGNM 191920Z 12007KT 0100 R32/0400N FG VV/// 08/07 Q1011",
      "tafRaw": "TAF EGNM 191704Z 1918/2018 14007KT 0300 FG VV/// \n  PROB30 \n  TEMPO 1918/1924 2000 RADZ BR BKN005 \n  BECMG 2000/2003 9999 NSW SCT015 \n  TEMPO 2003/2008 7000 -RADZ BKN008 \n  PROB30 \n  TEMPO 2003/2004 4000 -RADZ BKN004 \n  PROB30 \n  TEMPO 2008/2013 7000 -RADZ BKN008 \n  BECMG 2014/2017 14017G27KT"
    },
    {
      "icao": "ENTC",
      "iata": "TOS",
      "name": "Tromsø Airport, Langnes",
      "lat": 69.683296,
      "lon": 18.9189,
      "updatedAt": "191920Z",
      "visibility_m": 200,
      "taf_visibility_m": null,
      "worst_visibility_m": 200,
      "ceiling_ft": 100,
      "hazards": [
        "FZFG",
        "FG"
      ],
      "severityScore": 100,
      "metarRaw": "METAR ENTC 191920Z 06003KT 020V110 0200 R36/0800N R18/0550N FZFG VV001 M01/M02 Q1027 NOSIG RMK WIND 2600FT 09006KT",
      "tafRaw": null
    },
    {
      "icao": "EPKK",
      "iata": "KRK",
      "name": "Kraków John Paul II International Airport",
      "lat": 50.077702,
      "lon": 19.7848,
      "updatedAt": "191900Z",
      "visibility_m": 3500,
      "taf_visibility_m": 400,
      "worst_visibility_m": 400,
      "ceiling_ft": 100,
      "hazards": [
        "BR",
        "FZFG",
        "FG"
      ],
      "severityScore": 100,
      "metarRaw": "METAR EPKK 191900Z 02003KT 3500 BR NSC M09/M12 Q1032",
      "tafRaw": "TAF EPKK 191730Z 1918/2018 VRB02KT 4000 BR NSC \n  TEMPO 1919/2008 2500 BR \n  PROB30 2001/2007 0400 FZFG BKN001 \n  BECMG 2008/2010 6000 \n  BECMG 2015/2018 3500 HZ BR"
    },
    {
      "icao": "EPMO",
      "iata": "WMI",
      "name": "Modlin Airport",
      "lat": 52.451099,
      "lon": 20.6518,
      "updatedAt": "191900Z",
      "visibility_m": 3000,
      "taf_visibility_m": 300,
      "worst_visibility_m": 300,
      "ceiling_ft": null,
      "hazards": [
        "BR",
        "FZFG",
        "FG"
      ],
      "severityScore": 100,
      "metarRaw": "METAR EPMO 191900Z 08004KT 3000 BR NSC M13/M14 Q1033",
      "tafRaw": "TAF EPMO 191730Z 1918/2018 12006KT 5000 BR NSC \n  TEMPO 1918/2008 2000 BR \n  PROB40 \n  TEMPO 1921/2007 0300 FZFG"
    },
    {
      "icao": "ESKN",
      "iata": "NYO",
      "name": "Stockholm Skavsta Airport",
      "lat": 58.789656,
      "lon": 16.911479,
      "updatedAt": "191920Z",
      "visibility_m": 9000,
      "taf_visibility_m": 300,
      "worst_visibility_m": 300,
      "ceiling_ft": 700,
      "hazards": [
        "FZFG",
        "FG"
      ],
      "severityScore": 100,
      "metarRaw": "METAR ESKN 191920Z 19006KT 9000 OVC007 00/M01 Q1028",
      "tafRaw": "TAF ESKN 191730Z 1918/2018 16005KT 9999 BKN007 \n  BECMG 1918/1919 BKN004 \n  PROB40 1921/2010 0300 FZFG VV002 \n  PROB40 2012/2018 BKN007"
    },
    {
      "icao": "ESSA",
      "iata": "ARN",
      "name": "Stockholm-Arlanda Airport",
      "lat": 59.64849,
      "lon": 17.928829,
      "updatedAt": "191920Z",
      "visibility_m": 10000,
      "taf_visibility_m": 300,
      "worst_visibility_m": 300,
      "ceiling_ft": 900,
      "hazards": [
        "FZFG",
        "FG"
      ],
      "severityScore": 100,
      "metarRaw": "METAR ESSA 191920Z 18007KT 9999 BKN009 M01/M02 Q1028 NOSIG",
      "tafRaw": "TAF ESSA 191730Z 1918/2018 16007KT 9999 OVC007 \n  PROB40 1918/1919 OVC010 \n  BECMG 1919/1921 OVC004 \n  PROB40 1923/2006 0300 FZFG VV002 \n  PROB40 2008/2018 OVC006"
    },
    {
      "icao": "LFLL",
      "iata": "LYS",
      "name": "Lyon Saint-Exupéry Airport",
      "lat": 45.725996,
      "lon": 5.090139,
      "updatedAt": "191900Z",
      "visibility_m": 650,
      "taf_visibility_m": 300,
      "worst_visibility_m": 300,
      "ceiling_ft": 100,
      "hazards": [
        "FG",
        "BR"
      ],
      "severityScore": 100,
      "metarRaw": "METAR LFLL 191900Z 09004KT 040V120 0650 R35L/0550N R17R/0800N R35R/0600N R17L/1100D FG VV/// 03/03 Q1019 NOSIG",
      "tafRaw": "TAF LFLL 191700Z 1918/2024 VRB02KT 1200 BR OVC001 \n  TEMPO 1918/2009 0300 FG VV/// \n  TEMPO 2010/2017 3000 BR OVC003 \n  BECMG 2022/2024 16010KT CAVOK"
    },
    {
      "icao": "LFSB",
      "iata": "BSL",
      "name": "EuroAirport Basel–Mulhouse–Freiburg",
      "lat": 47.60068,
      "lon": 7.521117,
      "updatedAt": "191900Z",
      "visibility_m": 300,
      "taf_visibility_m": null,
      "worst_visibility_m": 300,
      "ceiling_ft": 400,
      "hazards": [
        "FZFG",
        "FG"
      ],
      "severityScore": 100,
      "metarRaw": "METAR LFSB 191900Z AUTO VRB03KT 6000 OVC004 01/01 Q1020 TEMPO 0300 FZFG VV///",
      "tafRaw": null
    },
    {
      "icao": "LHBP",
      "iata": "BUD",
      "name": "Budapest Liszt Ferenc International Airport",
      "lat": 47.43018,
      "lon": 19.262393,
      "updatedAt": "191900Z",
      "visibility_m": 2000,
      "taf_visibility_m": 400,
      "worst_visibility_m": 400,
      "ceiling_ft": 200,
      "hazards": [
        "BR",
        "FZFG",
        "FZDZ",
        "FG",
        "DZ"
      ],
      "severityScore": 100,
      "metarRaw": "METAR LHBP 191900Z 08004KT 050V110 3500 BR OVC003 M07/M07 Q1037 TEMPO 2000 BR OVC002",
      "tafRaw": "TAF LHBP 191715Z 1918/2018 09005KT 5000 BR BKN007 \n  TEMPO 1918/2009 VRB03KT 1200 -SG BR OVC003 \n  PROB30 \n  TEMPO 1920/2009 0400 -FZDZ FZFG VV001 \n  BECMG 2009/2012 6000 NSW SCT010 \n  TEMPO 2012/2018 NSC"
    },
    {
      "icao": "LHDC",
      "iata": "DEB",
      "name": "Debrecen International Airport",
      "lat": 47.488899,
      "lon": 21.615299,
      "updatedAt": "191845Z",
      "visibility_m": 5000,
      "taf_visibility_m": 800,
      "worst_visibility_m": 800,
      "ceiling_ft": 300,
      "hazards": [
        "BR",
        "FZFG",
        "FG"
      ],
      "severityScore": 100,
      "metarRaw": "METAR LHDC 191845Z AUTO VRB01KT 5000 BR OVC003 M06/M07 Q1038 BECMG 6000 NSW NSC",
      "tafRaw": "TAF LHDC 191715Z 1918/2003 VRB02KT 3000 BR OVC002 \n  TEMPO 1918/1921 5000 BR OVC005 \n  TEMPO 1921/2003 0800 FZFG VV001"
    },
    {
      "icao": "LMML",
      "iata": "MLA",
      "name": "Malta International Airport",
      "lat": 35.857498,
      "lon": 14.4775,
      "updatedAt": "191915Z",
      "visibility_m": 10000,
      "taf_visibility_m": 4000,
      "worst_visibility_m": 4000,
      "ceiling_ft": 1700,
      "hazards": [
        "TSRA",
        "TSGS",
        "RA",
        "TS"
      ],
      "severityScore": 100,
      "metarRaw": "METAR LMML 191915Z 10029G41KT 9999 BKN017 16/12 Q1011 NOSIG",
      "tafRaw": "TAF LMML 191700Z 1918/2018 11032G42KT 9999 BKN016 \n  TEMPO 1920/2016 8000 RA BKN011 \n  PROB30 \n  TEMPO 1920/2018 BKN008 \n  PROB40 \n  TEMPO 2004/2018 4000 TSRA TSGS BKN012CB \n  BECMG 2014/2017 19018KT"
    },
    {
      "icao": "LQSA",
      "iata": "SJJ",
      "name": "Sarajevo International Airport",
      "lat": 43.8246,
      "lon": 18.331499,
      "updatedAt": "191900Z",
      "visibility_m": 6000,
      "taf_visibility_m": 500,
      "worst_visibility_m": 500,
      "ceiling_ft": 200,
      "hazards": [
        "FZFG",
        "BR",
        "FG"
      ],
      "severityScore": 100,
      "metarRaw": "METAR LQSA 191900Z 14001KT 6000 NSC M05/M05 Q1029 NOSIG",
      "tafRaw": "TAF LQSA 191700Z 1918/2018 VRB02KT 9999 FEW035 TX00/2013Z TNM09/2006Z \n  PROB40 \n  TEMPO 1919/2009 4000 BR \n  PROB30 \n  TEMPO 1921/2008 0500 FZFG BKN002"
    },
    {
      "icao": "LQTZ",
      "iata": "TZL",
      "name": "Tuzla International Airport",
      "lat": 44.459858,
      "lon": 18.723627,
      "updatedAt": "191900Z",
      "visibility_m": 6000,
      "taf_visibility_m": 400,
      "worst_visibility_m": 400,
      "ceiling_ft": 200,
      "hazards": [
        "FZFG",
        "BR",
        "FG"
      ],
      "severityScore": 100,
      "metarRaw": "METAR LQTZ 191900Z VRB02KT 6000 NSC M05/M05 Q1033",
      "tafRaw": "TAF LQTZ 191700Z 1918/2018 10005KT 8000 NSC TX02/2013Z TNM09/2006Z \n  TEMPO 1921/2009 3000 BR \n  PROB30 \n  TEMPO 2000/2008 0400 FZFG BKN002"
    },
    {
      "icao": "LRTM",
      "iata": "TGM",
      "name": "Târgu Mureş Transilvania International Airport",
      "lat": 46.467701,
      "lon": 24.4125,
      "updatedAt": "191900Z",
      "visibility_m": 3600,
      "taf_visibility_m": 600,
      "worst_visibility_m": 600,
      "ceiling_ft": 200,
      "hazards": [
        "BR",
        "FZFG",
        "FG"
      ],
      "severityScore": 100,
      "metarRaw": "METAR LRTM 191900Z AUTO 32001KT 3600 BR NCD M14/M15 Q1037",
      "tafRaw": "TAF LRTM 191400Z 1915/1924 VRB04KT 5000 BR FEW010 \n  BECMG 1915/1917 1500 BR BKN005 \n  BECMG 1917/1919 0600 FZFG OVC002"
    },
    {
      "icao": "LZKZ",
      "iata": "KSC",
      "name": "Košice International Airport",
      "lat": 48.663101,
      "lon": 21.2411,
      "updatedAt": "191900Z",
      "visibility_m": 2800,
      "taf_visibility_m": 500,
      "worst_visibility_m": 500,
      "ceiling_ft": 200,
      "hazards": [
        "BR",
        "FZFG",
        "FG"
      ],
      "severityScore": 100,
      "metarRaw": "METAR LZKZ 191900Z 34001KT 3500 BR NSC M10/M11 Q1036 BECMG 2800 BR",
      "tafRaw": "TAF LZKZ 191715Z 1918/2018 20004KT CAVOK \n  BECMG 1918/1920 2500 BR \n  PROB40 \n  TEMPO 1920/2008 0500 FZFG BKN002 \n  BECMG 2009/2011 CAVOK"
    },
    {
      "icao": "UAAA",
      "iata": "ALA",
      "name": "Almaty International Airport",
      "lat": 43.354267,
      "lon": 77.042828,
      "updatedAt": "191900Z",
      "visibility_m": 1100,
      "taf_visibility_m": 200,
      "worst_visibility_m": 200,
      "ceiling_ft": 100,
      "hazards": [
        "BR",
        "FZFG",
        "FG"
      ],
      "severityScore": 100,
      "metarRaw": "METAR UAAA 191900Z 12001MPS 1100 R05R/P2000 BR SCT100 M14/M16 Q1025 NOSIG",
      "tafRaw": "TAF UAAA 191703Z 1918/2018 22003MPS 1100 BR FU SCT011 BKN030 TXM07/2008Z TNM17/2003Z \n  TEMPO 1918/2005 16002MPS 0200 FZFG VV001 \n  FM200500 34003MPS 6000 SCT050 BKN100 \n  TEMPO 2005/2012 04003G08MPS 3100 BR FU \n  FM201200 04003MPS 1500 BR FU SCT030 BKN100 \n  TEMPO 2014/2018 10003MPS 0300 FZFG VV002"
    },
    {
      "icao": "UDYZ",
      "iata": "EVN",
      "name": "Zvartnots International Airport",
      "lat": 40.148941,
      "lon": 44.397887,
      "updatedAt": "191900Z",
      "visibility_m": 6000,
      "taf_visibility_m": 200,
      "worst_visibility_m": 200,
      "ceiling_ft": 4300,
      "hazards": [
        "FZFG",
        "BR",
        "SN",
        "FG"
      ],
      "severityScore": 100,
      "metarRaw": "METAR UDYZ 191900Z 18003KT 6000 BKN043 00/M01 Q1012 NOSIG",
      "tafRaw": "TAF UDYZ 191700Z 1918/2018 VRB06KT 2000 BR OVC020 \n  TEMPO 1918/2008 0200 SN FZFG VV001"
    },
    {
      "icao": "LUKK",
      "iata": "RMO",
      "name": "Chişinău International Airport",
      "lat": 46.9277,
      "lon": 28.931,
      "updatedAt": "191900Z",
      "visibility_m": 10000,
      "taf_visibility_m": 400,
      "worst_visibility_m": 400,
      "ceiling_ft": null,
      "hazards": [
        "FZFG",
        "BR",
        "FG"
      ],
      "severityScore": 95,
      "metarRaw": "METAR LUKK 191900Z VRB02KT CAVOK M10/M13 Q1038 NOSIG",
      "tafRaw": "TAF LUKK 191716Z 1918/2018 VRB04KT CAVOK \n  BECMG 1922/1924 3000 BR \n  TEMPO 2000/2003 0800 FZFG VV/// \n  BECMG 2003/2005 0400 FZFG VV/// \n  BECMG 2006/2008 3000 BR SCT006 \n  BECMG 2009/2011 CAVOK"
    },
    {
      "icao": "LFOB",
      "iata": "BVA",
      "name": "Beauvais Tillé airport",
      "lat": 49.454399,
      "lon": 2.11278,
      "updatedAt": "191900Z",
      "visibility_m": 4000,
      "taf_visibility_m": 700,
      "worst_visibility_m": 700,
      "ceiling_ft": 100,
      "hazards": [
        "BR",
        "FG"
      ],
      "severityScore": 90,
      "metarRaw": "METAR LFOB 191900Z AUTO 13004KT 100V170 CAVOK 07/06 Q1017 TEMPO 4000 BR",
      "tafRaw": "TAF LFOB 191700Z 1918/2018 12005KT 8000 NSC \n  PROB40 1919/2004 4000 BR \n  PROB30 2000/2004 2000 BR \n  BECMG 2004/2006 3000 BR BKN005 BKN014 \n  PROB40 2004/2008 0700 FG BKN001 \n  TEMPO 2008/2011 1200 BR OVC002 \n  BECMG 2012/2014 9999 NSW BKN008 \n  PROB40 2015/2018 16010G20KT SCT010 OVC060"
    },
    {
      "icao": "LFPO",
      "iata": "ORY",
      "name": "Paris-Orly Airport",
      "lat": 48.72333,
      "lon": 2.37944,
      "updatedAt": "191900Z",
      "visibility_m": 10000,
      "taf_visibility_m": 800,
      "worst_visibility_m": 800,
      "ceiling_ft": 200,
      "hazards": [
        "FG",
        "BR"
      ],
      "severityScore": 90,
      "metarRaw": "METAR LFPO 191900Z AUTO VRB03KT CAVOK 08/06 Q1018",
      "tafRaw": "TAF LFPO 191700Z 1918/2024 11005KT CAVOK \n  BECMG 2002/2004 4000 BR BKN009 \n  PROB30 \n  TEMPO 2004/2010 0800 FG VV/// \n  PROB40 \n  TEMPO 2010/2012 BKN002 \n  BECMG 2010/2013 CAVOK"
    },
    {
      "icao": "EETN",
      "iata": "TLL",
      "name": "Lennart Meri Tallinn Airport",
      "lat": 59.413246,
      "lon": 24.83264,
      "updatedAt": "191920Z",
      "visibility_m": 600,
      "taf_visibility_m": null,
      "worst_visibility_m": 600,
      "ceiling_ft": 200,
      "hazards": [
        "FG"
      ],
      "severityScore": 85,
      "metarRaw": "METAR EETN 191920Z 18003KT 0600 R08/1400U FG VV002 M07/M08 Q1032 NOSIG",
      "tafRaw": null
    },
    {
      "icao": "EPWA",
      "iata": "WAW",
      "name": "Warsaw Chopin Airport",
      "lat": 52.165699,
      "lon": 20.9671,
      "updatedAt": "191900Z",
      "visibility_m": 7000,
      "taf_visibility_m": 600,
      "worst_visibility_m": 600,
      "ceiling_ft": null,
      "hazards": [
        "FZFG",
        "BR",
        "FG"
      ],
      "severityScore": 85,
      "metarRaw": "METAR EPWA 191900Z 14006KT 7000 NSC M10/M12 Q1033 NOSIG",
      "tafRaw": "TAF EPWA 191730Z 1918/2018 13005KT 7000 NSC \n  TEMPO 1922/2007 3000 BR \n  PROB30 2000/2006 0600 FZFG"
    },
    {
      "icao": "EFTU",
      "iata": "TKU",
      "name": "Turku Airport",
      "lat": 60.514099,
      "lon": 22.2628,
      "updatedAt": "191920Z",
      "visibility_m": 10000,
      "taf_visibility_m": 3000,
      "worst_visibility_m": 3000,
      "ceiling_ft": 1000,
      "hazards": [
        "BR",
        "SN",
        "FZDZ",
        "DZ"
      ],
      "severityScore": 78,
      "metarRaw": "METAR EFTU 191920Z AUTO 13005KT 9999 OVC010 M01/M02 Q1030",
      "tafRaw": "TAF EFTU 191737Z 1918/2018 15005KT 9999 BKN008 \n  PROB30 \n  TEMPO 1918/1921 BKN010 \n  TEMPO 2001/2012 BKN004 \n  PROB30 2001/2012 3000 -FZDZSN BR \n  PROB30 2015/2018 BKN010"
    },
    {
      "icao": "EGPF",
      "iata": "GLA",
      "name": "Glasgow Airport",
      "lat": 55.871899,
      "lon": -4.43306,
      "updatedAt": "191920Z",
      "visibility_m": 7000,
      "taf_visibility_m": 1200,
      "worst_visibility_m": 1200,
      "ceiling_ft": 300,
      "hazards": [
        "BR",
        "RA",
        "DZ"
      ],
      "severityScore": 77,
      "metarRaw": "METAR EGPF 191920Z AUTO 08005KT 030V100 7000 NCD 03/02 Q1011",
      "tafRaw": "TAF EGPF 191704Z 1918/2018 07006KT 9999 FEW015 SCT030 \n  TEMPO 1918/1924 3000 -DZ BR BKN006 \n  PROB30 \n  TEMPO 1918/1924 1200 RADZ BKN003 \n  TEMPO 2000/2010 6000 RA -RADZ BKN012 \n  PROB30 \n  TEMPO 2000/2009 3000 RADZ BKN005 \n  BECMG 2015/2018 08015G27KT \n  PROB30 \n  TEMPO 2017/2018 7000 RA"
    },
    {
      "icao": "LPPR",
      "iata": "OPO",
      "name": "Francisco de Sá Carneiro Airport",
      "lat": 41.2481002808,
      "lon": -8.68138980865,
      "updatedAt": "191900Z",
      "visibility_m": 10000,
      "taf_visibility_m": 3000,
      "worst_visibility_m": 3000,
      "ceiling_ft": 600,
      "hazards": [
        "FG",
        "BR",
        "RA",
        "DZ"
      ],
      "severityScore": 77,
      "metarRaw": "METAR LPPR 191900Z 33005KT 9999 MIFG FEW024 09/08 Q1021",
      "tafRaw": "TAF LPPR 191700Z 1918/2018 VRB02KT 9999 FEW012 \n  PROB30 \n  TEMPO 2000/2005 3000 BR SCT002 \n  BECMG 2005/2007 15010KT 8000 -RA SCT012 BKN030 \n  TEMPO 2007/2018 3000 RADZ BR SCT003 BKN006"
    },
    {
      "icao": "LEBL",
      "iata": "BCN",
      "name": "Josep Tarradellas Barcelona-El Prat Airport",
      "lat": 41.2971,
      "lon": 2.07846,
      "updatedAt": "191900Z",
      "visibility_m": 10000,
      "taf_visibility_m": 3000,
      "worst_visibility_m": 3000,
      "ceiling_ft": 3000,
      "hazards": [
        "RA",
        "TSRA",
        "SHRA",
        "TS"
      ],
      "severityScore": 76,
      "metarRaw": "METAR LEBL 191900Z 02008KT 9999 -RA SCT023 BKN030 BKN045 12/10 Q1014 NOSIG",
      "tafRaw": "TAF LEBL 191700Z 1918/2018 01013KT 9999 SCT020 BKN030 TX14/2013Z TN09/2006Z \n  PROB30 \n  TEMPO 1918/1924 03018G30KT \n  PROB40 \n  TEMPO 2000/2018 02018G30KT \n  TEMPO 1918/2018 3000 RA SHRA BKN014 FEW020TCU \n  PROB30 \n  TEMPO 1918/2008 4000 TSRA FEW020CB BKN030"
    },
    {
      "icao": "LFBD",
      "iata": "BOD",
      "name": "Bordeaux–Mérignac Airport",
      "lat": 44.82865,
      "lon": -0.715356,
      "updatedAt": "191900Z",
      "visibility_m": 5000,
      "taf_visibility_m": 300,
      "worst_visibility_m": 300,
      "ceiling_ft": null,
      "hazards": [
        "BR",
        "FG"
      ],
      "severityScore": 75,
      "metarRaw": "METAR LFBD 191900Z AUTO 17003KT 5000 BR NSC 09/08 Q1017 NOSIG",
      "tafRaw": "TAF LFBD 191700Z 1918/2024 VRB03KT 9999 SCT030 TX12/2013Z TN04/2007Z \n  BECMG 1923/2001 4000 BR \n  BECMG 2001/2003 2000 BR \n  PROB40 \n  TEMPO 2003/2010 0500 FG VV/// \n  PROB30 \n  TEMPO 2008/2010 0300 \n  BECMG 2010/2012 CAVOK \n  BECMG 2012/2014 15010KT"
    },
    {
      "icao": "LICC",
      "iata": "CTA",
      "name": "Catania-Fontanarossa Airport",
      "lat": 37.466801,
      "lon": 15.0664,
      "updatedAt": "191920Z",
      "visibility_m": 5000,
      "taf_visibility_m": 4000,
      "worst_visibility_m": 4000,
      "ceiling_ft": 1500,
      "hazards": [
        "RA",
        "TSRA",
        "TS"
      ],
      "severityScore": 74,
      "metarRaw": "METAR LICC 191920Z 10023G33KT 5000 R08/1400N -RA BKN015 BKN040 14/11 Q1016",
      "tafRaw": "TAF LICC 191700Z 1918/2018 10023G40KT 4000 RA BKN015 \n  TEMPO 2006/2018 TSRA BKN008 \n  BECMG 2007/2009 09025G50KT"
    },
    {
      "icao": "HESX",
      "iata": "SPX",
      "name": "Sphinx International Airport",
      "lat": 30.108179,
      "lon": 30.895728,
      "updatedAt": "191900Z",
      "visibility_m": 10000,
      "taf_visibility_m": 500,
      "worst_visibility_m": 500,
      "ceiling_ft": null,
      "hazards": [
        "FG",
        "BR"
      ],
      "severityScore": 65,
      "metarRaw": "METAR HESX 191900Z 36006KT CAVOK 12/08 Q1020 NOSIG",
      "tafRaw": "TAF HESX 191700Z 1918/2024 01008KT CAVOK \n  TEMPO 2000/2008 VBR03KT 3000 BR NSC \n  TEMPO 2002/2006 1000 \n  PROB30 \n  TEMPO 2003/2006 0500 FG"
    },
    {
      "icao": "LFLS",
      "iata": "GNB",
      "name": "Grenoble Alpes Isère Airport",
      "lat": 45.3629,
      "lon": 5.32937,
      "updatedAt": "191900Z",
      "visibility_m": 600,
      "taf_visibility_m": null,
      "worst_visibility_m": 600,
      "ceiling_ft": null,
      "hazards": [
        "FG",
        "BR"
      ],
      "severityScore": 60,
      "metarRaw": "METAR LFLS 191900Z AUTO 16003KT 1800 1300 R09/2400D R27/2200N BR NSC 03/03 Q1018 TEMPO 0600 FG VV///",
      "tafRaw": null
    },
    {
      "icao": "UDSG",
      "iata": "LWN",
      "name": "Shirak International Airport",
      "lat": 40.750401,
      "lon": 43.859299,
      "updatedAt": "191900Z",
      "visibility_m": 10000,
      "taf_visibility_m": 1000,
      "worst_visibility_m": 1000,
      "ceiling_ft": 4300,
      "hazards": [
        "BR",
        "SN",
        "BLSN"
      ],
      "severityScore": 60,
      "metarRaw": "METAR UDSG 191900Z 07015KT 9999 BKN043 M05/M10 Q1012 NOSIG",
      "tafRaw": "TAF UDSG 191658Z 1918/2018 36006KT 5000 BR BKN030 \n  TEMPO 1918/1924 06016G26KT 1000 SN BLSN OVC010"
    },
    {
      "icao": "EGBB",
      "iata": "BHX",
      "name": "Birmingham Airport",
      "lat": 52.453899,
      "lon": -1.74803,
      "updatedAt": "191920Z",
      "visibility_m": 7000,
      "taf_visibility_m": 3000,
      "worst_visibility_m": 3000,
      "ceiling_ft": 700,
      "hazards": [
        "DZ",
        "BR",
        "RA"
      ],
      "severityScore": 57,
      "metarRaw": "METAR EGBB 191920Z 14007KT 7000 BKN007 09/08 Q1011 REDZ",
      "tafRaw": "TAF EGBB 191656Z 1918/2018 14005KT 9999 SCT018 \n  TEMPO 1918/1922 3000 RADZ BR BKN008 \n  PROB30 \n  TEMPO 1918/1922 BKN003 \n  PROB30 \n  TEMPO 1922/1924 BKN008 \n  TEMPO 2000/2007 4000 RADZ BKN008 \n  PROB30 \n  TEMPO 2007/2012 BKN014 \n  BECMG 2009/2012 15015G27KT"
    },
    {
      "icao": "LRBV",
      "iata": "GHV",
      "name": "Brașov-Ghimbav International Airport",
      "lat": 45.70558,
      "lon": 25.522871,
      "updatedAt": "191900Z",
      "visibility_m": 10000,
      "taf_visibility_m": 1500,
      "worst_visibility_m": 1500,
      "ceiling_ft": 200,
      "hazards": [
        "BR"
      ],
      "severityScore": 55,
      "metarRaw": "METAR LRBV 191900Z 21007KT CAVOK M09/M10 Q1034",
      "tafRaw": "TAF LRBV 191700Z 1918/2003 20008KT CAVOK \n  BECMG 1920/1922 5000 BR \n  BECMG 1922/1924 3000 BR BKN005 \n  BECMG 2000/2002 1500 BR OVC002"
    },
    {
      "icao": "OJAI",
      "iata": "AMM",
      "name": "Queen Alia International Airport",
      "lat": 31.7226009369,
      "lon": 35.9931983948,
      "updatedAt": "191900Z",
      "visibility_m": 5000,
      "taf_visibility_m": 800,
      "worst_visibility_m": 800,
      "ceiling_ft": null,
      "hazards": [
        "FG",
        "BR"
      ],
      "severityScore": 55,
      "metarRaw": "METAR OJAI 191900Z 31006KT 5000 HZ SCT035 06/04 Q1020 NOSIG",
      "tafRaw": "TAF OJAI 191652Z 1918/2024 29006KT 7000 FEW035 \n  PROB30 2000/2006 VRB02KT 3000 BR \n  PROB30 2001/2005 VRB02KT 0800 FG \n  BECMG 2006/2008 31014KT 5000 HZ NSC"
    },
    {
      "icao": "EGPD",
      "iata": "ABZ",
      "name": "Aberdeen International Airport",
      "lat": 57.2019,
      "lon": -2.19778,
      "updatedAt": "191920Z",
      "visibility_m": 800,
      "taf_visibility_m": null,
      "worst_visibility_m": 800,
      "ceiling_ft": null,
      "hazards": [
        "FG"
      ],
      "severityScore": 50,
      "metarRaw": "METAR EGPD 191920Z VRB01KT 0800 R16/0650D FG VV/// 06/06 Q1012",
      "tafRaw": null
    },
    {
      "icao": "LTFM",
      "iata": "IST",
      "name": "İstanbul Airport",
      "lat": 41.261297,
      "lon": 28.741951,
      "updatedAt": "191920Z",
      "visibility_m": 3400,
      "taf_visibility_m": 4000,
      "worst_visibility_m": 3400,
      "ceiling_ft": 900,
      "hazards": [
        "BR",
        "RA"
      ],
      "severityScore": 47,
      "metarRaw": "METAR LTFM 191920Z 01025KT 3400 -RA BR BKN009 BKN022 02/01 Q1033 BECMG TL2000 9999 RMK RWY17L 01022KT RWY34L 01023KT RWY16R 01022KT RWY36 01026KT RWY18 01022KT",
      "tafRaw": "TAF LTFM 191640Z 1918/2024 34022G37KT 7000 -RA BKN011 BKN022 \n  BECMG 1918/1921 03017G27KT \n  TEMPO 1918/1922 4000 RA BR \n  BECMG 2001/2004 04013KT \n  BECMG 2010/2013 SCT016 BKN032 \n  BECMG 2019/2022 10008KT"
    },
    {
      "icao": "ESGG",
      "iata": "GOT",
      "name": "Göteborg Landvetter Airport",
      "lat": 57.6628,
      "lon": 12.2798,
      "updatedAt": "191920Z",
      "visibility_m": 10000,
      "taf_visibility_m": 2000,
      "worst_visibility_m": 2000,
      "ceiling_ft": 300,
      "hazards": [
        "BR"
      ],
      "severityScore": 45,
      "metarRaw": "METAR ESGG 191920Z 10008KT CAVOK M04/M05 Q1024",
      "tafRaw": "TAF ESGG 191730Z 1918/2018 11009KT 9999 FEW007 \n  PROB40 1918/1924 2000 BR BKN003 \n  PROB40 2000/2018 BKN010"
    },
    {
      "icao": "LRCL",
      "iata": "CLJ",
      "name": "Cluj Avram Iancu International Airport",
      "lat": 46.787425,
      "lon": 23.684292,
      "updatedAt": "191900Z",
      "visibility_m": 10000,
      "taf_visibility_m": 1500,
      "worst_visibility_m": 1500,
      "ceiling_ft": 500,
      "hazards": [
        "BR"
      ],
      "severityScore": 45,
      "metarRaw": "METAR LRCL 191900Z 00000KT CAVOK M10/M12 Q1036",
      "tafRaw": "TAF LRCL 191700Z 1918/2003 VRB04KT CAVOK \n  BECMG 1919/1921 5000 BR \n  BECMG 1922/1924 3000 BR \n  PROB30 \n  TEMPO 2000/2003 1500 BR BKN005"
    },
    {
      "icao": "LRSB",
      "iata": "SBZ",
      "name": "Sibiu International Airport",
      "lat": 45.785841,
      "lon": 24.086666,
      "updatedAt": "191900Z",
      "visibility_m": 5000,
      "taf_visibility_m": 1500,
      "worst_visibility_m": 1500,
      "ceiling_ft": 500,
      "hazards": [
        "BR"
      ],
      "severityScore": 45,
      "metarRaw": "METAR LRSB 191900Z 25006KT 5000 BR NSC M12/M12 Q1035",
      "tafRaw": "TAF LRSB 191700Z 1918/2018 VRB04KT CAVOK \n  BECMG 1920/1922 5000 BR \n  BECMG 1922/1924 3000 BR \n  TEMPO 2000/2007 1500 BR BKN005 \n  BECMG 2007/2009 CAVOK \n  BECMG 2016/2018 3000 BR BKN005"
    },
    {
      "icao": "LZIB",
      "iata": "BTS",
      "name": "M. R. Štefánik Airport",
      "lat": 48.1702,
      "lon": 17.2127,
      "updatedAt": "191900Z",
      "visibility_m": 10000,
      "taf_visibility_m": 2500,
      "worst_visibility_m": 2500,
      "ceiling_ft": 400,
      "hazards": [
        "BR"
      ],
      "severityScore": 45,
      "metarRaw": "METAR LZIB 191900Z 12008KT 9999 FEW010 M05/M07 Q1035 NOSIG",
      "tafRaw": "TAF LZIB 191715Z 1918/2018 12009KT 9999 FEW015 \n  TEMPO 2000/2008 2500 BR BKN004"
    },
    {
      "icao": "BIKF",
      "iata": "KEF",
      "name": "Keflavik International Airport",
      "lat": 63.985001,
      "lon": -22.6056,
      "updatedAt": "191900Z",
      "visibility_m": 10000,
      "taf_visibility_m": 3500,
      "worst_visibility_m": 3500,
      "ceiling_ft": 2600,
      "hazards": [
        "SHRA",
        "SN",
        "RA"
      ],
      "severityScore": 44,
      "metarRaw": "METAR BIKF 191900Z 15026G37KT 9999 VCSH SCT012CB BKN026 03/M00 Q0994",
      "tafRaw": "TAF BIKF 191659Z 1918/2018 15020G30KT 9999 -SHRA FEW015 BKN035 TX06/2010Z TN02/2018Z \n  TEMPO 1918/2008 16028G40KT \n  TEMPO 1918/2016 3500 SHRASN BKN010CB \n  BECMG 2012/2014 13015KT \n  BECMG 2016/2018 06012KT"
    },
    {
      "icao": "LPPS",
      "iata": "PXO",
      "name": "Porto Santo Airport",
      "lat": 33.0733985901,
      "lon": -16.3500003815,
      "updatedAt": "191900Z",
      "visibility_m": 10000,
      "taf_visibility_m": 4000,
      "worst_visibility_m": 4000,
      "ceiling_ft": 1200,
      "hazards": [
        "BR",
        "RA",
        "DZ"
      ],
      "severityScore": 44,
      "metarRaw": "METAR LPPS 191900Z 33007KT 9999 SCT015 15/12 Q1026",
      "tafRaw": "TAF LPPS 191700Z 1918/2024 36010KT 9999 SCT015 \n  PROB30 \n  TEMPO 1921/2012 4000 -RADZ BR SCT006 BKN012 \n  BECMG 2016/2018 30015KT"
    },
    {
      "icao": "LPPT",
      "iata": "LIS",
      "name": "Lisbon Humberto Delgado Airport",
      "lat": 38.7813,
      "lon": -9.13592,
      "updatedAt": "191900Z",
      "visibility_m": 10000,
      "taf_visibility_m": 5000,
      "worst_visibility_m": 5000,
      "ceiling_ft": 1200,
      "hazards": [
        "BR",
        "RA",
        "DZ"
      ],
      "severityScore": 44,
      "metarRaw": "METAR LPPT 191900Z 33008KT 9999 FEW008 11/09 Q1021",
      "tafRaw": "TAF LPPT 191700Z 1918/2024 29007KT 9999 FEW012 SCT025 \n  BECMG 2012/2014 26010KT SCT015 BKN025 \n  TEMPO 2014/2024 5000 DZRA BR SCT006 BKN012"
    },
    {
      "icao": "GMMX",
      "iata": "RAK",
      "name": "Marrakesh Menara Airport",
      "lat": 31.604807,
      "lon": -8.035788,
      "updatedAt": "191900Z",
      "visibility_m": 8000,
      "taf_visibility_m": 4000,
      "worst_visibility_m": 4000,
      "ceiling_ft": 1500,
      "hazards": [
        "SHRA",
        "RA"
      ],
      "severityScore": 38,
      "metarRaw": "METAR GMMX 191900Z VRB02KT 8000 NSC 10/06 Q1021 NOSIG",
      "tafRaw": "TAF GMMX 191700Z 1918/2024 06006KT 8000 BKN023 SCT080 \n  PROB30 \n  TEMPO 1918/1920 24016KT 4000 SHRA SCT010 BKN015"
    },
    {
      "icao": "LEXJ",
      "iata": "SDR",
      "name": "Seve Ballesteros-Santander Airport",
      "lat": 43.427101,
      "lon": -3.82001,
      "updatedAt": "191900Z",
      "visibility_m": 10000,
      "taf_visibility_m": 1500,
      "worst_visibility_m": 1500,
      "ceiling_ft": 5500,
      "hazards": [
        "RA",
        "SHRA"
      ],
      "severityScore": 36,
      "metarRaw": "METAR LEXJ 191900Z 27009KT 9999 FEW035 SCT045 BKN055 11/05 Q1020",
      "tafRaw": "TAF LEXJ 191400Z 1915/2015 22009KT 9999 SCT040 TX13/2014Z TN05/2006Z \n  TEMPO 1915/1920 30010KT \n  TEMPO 1916/1923 3000 RA \n  PROB30 \n  TEMPO 1916/1922 1500 SHRA SCT025TCU \n  PROB40 \n  TEMPO 2010/2015 20018G33KT"
    },
    {
      "icao": "UGKO",
      "iata": "KUT",
      "name": "David the Builder Kutaisi International Airport",
      "lat": 42.177448,
      "lon": 42.485353,
      "updatedAt": "191900Z",
      "visibility_m": 10000,
      "taf_visibility_m": 2000,
      "worst_visibility_m": 2000,
      "ceiling_ft": 6600,
      "hazards": [
        "BR",
        "SHRA",
        "RA"
      ],
      "severityScore": 36,
      "metarRaw": "METAR UGKO 191900Z VRB02KT 9999 BKN066 02/02 Q1020 NOSIG",
      "tafRaw": "TAF UGKO 191700Z 1918/2018 08006KT 9999 SCT020 OVC050 TX06/2012Z TNM01/2002Z \n  TEMPO 1918/1923 2000 BR BKN017 \n  TEMPO 2011/2018 26017KT 3000 SHRA SCT010 BKN015CB OVC030"
    },
    {
      "icao": "LOWW",
      "iata": "VIE",
      "name": "Vienna International Airport",
      "lat": 48.110298,
      "lon": 16.5697,
      "updatedAt": "191920Z",
      "visibility_m": 10000,
      "taf_visibility_m": 4000,
      "worst_visibility_m": 4000,
      "ceiling_ft": 900,
      "hazards": [
        "BR"
      ],
      "severityScore": 35,
      "metarRaw": "METAR LOWW 191920Z 14015KT CAVOK M05/M07 Q1033 NOSIG",
      "tafRaw": "TAF LOWW 191715Z 1918/2024 14013KT 9999 FEW015 TXM04/1918Z TNM07/2007Z \n  TEMPO 2000/2011 BKN012 \n  PROB30 \n  TEMPO 2005/2011 4000 BR BKN009 \n  TEMPO 2009/2017 14023KT"
    },
    {
      "icao": "LRTR",
      "iata": "TSR",
      "name": "Timişoara Traian Vuia Airport",
      "lat": 45.809898,
      "lon": 21.3379,
      "updatedAt": "191900Z",
      "visibility_m": 7000,
      "taf_visibility_m": 3000,
      "worst_visibility_m": 3000,
      "ceiling_ft": 500,
      "hazards": [
        "BR"
      ],
      "severityScore": 35,
      "metarRaw": "METAR LRTR 191900Z 04004KT 7000 NSC M05/M05 Q1036",
      "tafRaw": "TAF LRTR 191700Z 1918/2018 VRB04KT CAVOK \n  BECMG 1918/1920 5000 BR \n  TEMPO 2001/2006 3000 BR BKN005 \n  BECMG 2006/2008 CAVOK"
    },
    {
      "icao": "EGGW",
      "iata": "LTN",
      "name": "London Luton Airport",
      "lat": 51.874699,
      "lon": -0.368333,
      "updatedAt": "191920Z",
      "visibility_m": 10000,
      "taf_visibility_m": 3000,
      "worst_visibility_m": 3000,
      "ceiling_ft": 1000,
      "hazards": [
        "RA",
        "DZ"
      ],
      "severityScore": 34,
      "metarRaw": "METAR EGGW 191920Z AUTO 16007KT 9999 -RA OVC010 08/08 Q1013",
      "tafRaw": "TAF EGGW 191657Z 1918/2018 16010KT 9999 SCT010 BKN020 \n  TEMPO 1918/2011 6000 -RADZ BKN007 \n  PROB30 \n  TEMPO 1918/2005 3000 RADZ BKN004 \n  BECMG 2009/2012 15018G28KT"
    },
    {
      "icao": "EHEH",
      "iata": "EIN",
      "name": "Eindhoven Airport",
      "lat": 51.4500999451,
      "lon": 5.37452983856,
      "updatedAt": "191855Z",
      "visibility_m": 10000,
      "taf_visibility_m": 2000,
      "worst_visibility_m": 2000,
      "ceiling_ft": 10000,
      "hazards": [
        "BR",
        "FG"
      ],
      "severityScore": 30,
      "metarRaw": "METAR EHEH 191855Z AUTO 13006KT 110V200 9999 OVC100 03/01 Q1019 BLU NOSIG RMK TREND REMOTE BY EHWX",
      "tafRaw": "TAF EHEH 191712Z 1918/2024 14005KT CAVOK \n  TEMPO 1922/2008 VRB02KT 2000 BR MIFG \n  PROB40 \n  TEMPO 2008/2010 SCT003 BKN005"
    },
    {
      "icao": "ENGM",
      "iata": "OSL",
      "name": "Oslo-Gardermoen International Airport",
      "lat": 60.193901,
      "lon": 11.1004,
      "updatedAt": "191920Z",
      "visibility_m": 10000,
      "taf_visibility_m": 10000,
      "worst_visibility_m": 10000,
      "ceiling_ft": 1400,
      "hazards": [
        "SN"
      ],
      "severityScore": 30,
      "metarRaw": "METAR ENGM 191920Z VRB02KT 9999 OVC020 M01/M03 Q1026 TEMPO BKN014",
      "tafRaw": "TAF ENGM 191700Z 1918/2018 14005KT 9999 -SN FEW008 BKN020 \n  TEMPO 1918/2018 BKN008 \n  BECMG 1923/2001 03010KT"
    },
    {
      "icao": "UBBB",
      "iata": "GYD",
      "name": "Heydar Aliyev International Airport",
      "lat": 40.467498779296875,
      "lon": 50.04669952392578,
      "updatedAt": "191900Z",
      "visibility_m": 10000,
      "taf_visibility_m": 5000,
      "worst_visibility_m": 5000,
      "ceiling_ft": 2600,
      "hazards": [
        "SN",
        "RA"
      ],
      "severityScore": 30,
      "metarRaw": "METAR UBBB 191900Z 01010KT 9999 BKN026 02/M02 Q1025 NOSIG",
      "tafRaw": "TAF UBBB 191700Z 1918/2018 02012KT 9999 OVC025 TX03/2010Z TN00/2001Z \n  TEMPO 1918/1924 36016KT -RASN SCT008 OVC017 \n  TEMPO 2000/2006 35016G26KT 5000 -SN BKN007 OVC017 \n  BECMG 2006/2007 36018G28KT \n  TEMPO 2007/2016 35024G34KT -RASN SCT010 OVC017"
    },
    {
      "icao": "EGKK",
      "iata": "LGW",
      "name": "London Gatwick Airport",
      "lat": 51.148771,
      "lon": -0.192089,
      "updatedAt": "191920Z",
      "visibility_m": 10000,
      "taf_visibility_m": null,
      "worst_visibility_m": 10000,
      "ceiling_ft": 1200,
      "hazards": [
        "RA"
      ],
      "severityScore": 29,
      "metarRaw": "METAR EGKK 191920Z 13005KT 9999 -RA SCT009 BKN012 09/09 Q1014",
      "tafRaw": null
    },
    {
      "icao": "LEAL",
      "iata": "ALC",
      "name": "Alicante-Elche Miguel Hernández Airport",
      "lat": 38.2822,
      "lon": -0.558156,
      "updatedAt": "191900Z",
      "visibility_m": 10000,
      "taf_visibility_m": 10000,
      "worst_visibility_m": 10000,
      "ceiling_ft": 6000,
      "hazards": [
        "RA",
        "SHRA"
      ],
      "severityScore": 26,
      "metarRaw": "METAR LEAL 191900Z 31007KT 9999 FEW012 OVC060 13/07 Q1013 NOSIG",
      "tafRaw": "TAF LEAL 191700Z 1918/2018 32005KT 9999 FEW035 TX17/2013Z TN10/2006Z \n  TEMPO 1918/1923 VRB04KT \n  PROB30 \n  TEMPO 2006/2012 RA SHRA FEW030TCU"
    },
    {
      "icao": "LEVC",
      "iata": "VLC",
      "name": "Valencia Airport",
      "lat": 39.4893,
      "lon": -0.481625,
      "updatedAt": "191900Z",
      "visibility_m": 10000,
      "taf_visibility_m": 10000,
      "worst_visibility_m": 10000,
      "ceiling_ft": 6700,
      "hazards": [
        "RA",
        "SHRA"
      ],
      "severityScore": 26,
      "metarRaw": "METAR LEVC 191900Z 33003KT 290V350 9999 -RA FEW019 SCT046 BKN067 12/09 Q1014 NOSIG",
      "tafRaw": "TAF LEVC 191700Z 1918/2018 30007KT 9999 SCT035 TX15/2013Z TN07/2006Z \n  PROB40 \n  TEMPO 2004/2017 RA SHRA FEW030TCU"
    },
    {
      "icao": "LICJ",
      "iata": "PMO",
      "name": "Falcone–Borsellino Airport",
      "lat": 38.175999,
      "lon": 13.091,
      "updatedAt": "191920Z",
      "visibility_m": 10000,
      "taf_visibility_m": 4000,
      "worst_visibility_m": 4000,
      "ceiling_ft": 7000,
      "hazards": [
        "RA",
        "SHRA"
      ],
      "severityScore": 26,
      "metarRaw": "METAR LICJ 191920Z 08021KT 9999 -RA SCT040 BKN070 15/10 Q1011",
      "tafRaw": "TAF LICJ 191700Z 1918/2018 10025G45KT 9999 SCT040 BKN060 \n  TEMPO 1918/2018 4000 SHRA \n  BECMG 2009/2011 08030G55KT"
    },
    {
      "icao": "GCTS",
      "iata": "TFS",
      "name": "Tenerife Sur Airport",
      "lat": 28.0445,
      "lon": -16.5725,
      "updatedAt": "191900Z",
      "visibility_m": 10000,
      "taf_visibility_m": 10000,
      "worst_visibility_m": 10000,
      "ceiling_ft": null,
      "hazards": [
        "TS"
      ],
      "severityScore": 25,
      "metarRaw": "METAR GCTS 191900Z 07018KT 9999 FEW040 17/08 Q1023 NOSIG",
      "tafRaw": "TAF GCTS 191400Z 1915/2015 08020KT 9999 SCT040 TX22/2014Z TN14/2006Z \n  TEMPO 1915/1921 08020G30KT \n  BECMG 1921/1924 03008KT \n  BECMG 2009/2011 10010KT"
    },
    {
      "icao": "EDDK",
      "iata": "CGN",
      "name": "Cologne Bonn Airport",
      "lat": 50.865898,
      "lon": 7.14274,
      "updatedAt": "191920Z",
      "visibility_m": 8000,
      "taf_visibility_m": 10000,
      "worst_visibility_m": 8000,
      "ceiling_ft": 800,
      "hazards": [],
      "severityScore": 25,
      "metarRaw": "METAR EDDK 191920Z AUTO 13010KT 8000 OVC008 01/M01 Q1021 NOSIG",
      "tafRaw": "TAF EDDK 191700Z 1918/2024 12007KT 9999 OVC010 \n  PROB40 \n  TEMPO 1918/2008 BKN008 \n  BECMG 2008/2012 CAVOK"
    },
    {
      "icao": "LGTS",
      "iata": "SKG",
      "name": "Thessaloniki Macedonia International Airport",
      "lat": 40.51928,
      "lon": 22.970009,
      "updatedAt": "191920Z",
      "visibility_m": 10000,
      "taf_visibility_m": 10000,
      "worst_visibility_m": 10000,
      "ceiling_ft": 2500,
      "hazards": [
        "TS"
      ],
      "severityScore": 25,
      "metarRaw": "METAR LGTS 191920Z 12006KT 9999 FEW020 SCT035 01/M05 Q1035 NOSIG",
      "tafRaw": "TAF LGTS 191700Z 1918/2018 11008KT 9999 SCT030 \n  BECMG 2016/2018 BKN025"
    },
    {
      "icao": "GMMN",
      "iata": "CMN",
      "name": "Mohammed V International Airport",
      "lat": 33.3675,
      "lon": -7.58997,
      "updatedAt": "191900Z",
      "visibility_m": 10000,
      "taf_visibility_m": 4000,
      "worst_visibility_m": 4000,
      "ceiling_ft": 1600,
      "hazards": [
        "RA"
      ],
      "severityScore": 24,
      "metarRaw": "METAR GMMN 191900Z 29003KT 9999 SCT030 10/07 Q1022 NOSIG",
      "tafRaw": "TAF GMMN 191700Z 1918/2024 34008KT 9999 SCT030 \n  BECMG 1919/1922 18006KT BKN016 \n  TEMPO 2010/2020 20010KT 4000 RA SCT013 BKN016"
    },
    {
      "icao": "EGGP",
      "iata": "LPL",
      "name": "Liverpool John Lennon Airport",
      "lat": 53.334863,
      "lon": -2.849637,
      "updatedAt": "191920Z",
      "visibility_m": 4500,
      "taf_visibility_m": 4000,
      "worst_visibility_m": 4000,
      "ceiling_ft": 3300,
      "hazards": [
        "RA",
        "DZ"
      ],
      "severityScore": 22,
      "metarRaw": "METAR EGGP 191920Z 11004KT 4500 -RADZ SCT005 BKN033 06/05 Q1010",
      "tafRaw": "TAF EGGP 191701Z 1918/2018 15008KT 9999 FEW010 SCT020 \n  TEMPO 1918/1923 7000 -RADZ BKN010 \n  PROB40 \n  TEMPO 1918/1922 4000 RA RADZ BKN003 \n  TEMPO 1923/2006 8000 -RA BKN010 \n  PROB30 \n  TEMPO 2002/2006 4000 RA BKN008 \n  PROB40 \n  TEMPO 2006/2012 BKN014 \n  BECMG 2010/2013 14018G28KT"
    },
    {
      "icao": "LBWN",
      "iata": "VAR",
      "name": "Varna Airport",
      "lat": 43.232101,
      "lon": 27.8251,
      "updatedAt": "191900Z",
      "visibility_m": 10000,
      "taf_visibility_m": 4000,
      "worst_visibility_m": 4000,
      "ceiling_ft": 1000,
      "hazards": [
        "BR"
      ],
      "severityScore": 22,
      "metarRaw": "METAR LBWN 191900Z AUTO 29006KT 9999 OVC014/// M04/M06 Q1037 NOSIG",
      "tafRaw": "TAF LBWN 191700Z 1918/2018 32010KT 9999 BKN010 \n  BECMG 2002/2004 VRB04KT \n  PROB40 \n  TEMPO 2004/2007 4000 BR \n  BECMG 2008/2010 SCT010 BKN030"
    },
    {
      "icao": "LEBB",
      "iata": "BIO",
      "name": "Bilbao Airport",
      "lat": 43.301102,
      "lon": -2.91061,
      "updatedAt": "191900Z",
      "visibility_m": 10000,
      "taf_visibility_m": 3000,
      "worst_visibility_m": 3000,
      "ceiling_ft": 5000,
      "hazards": [
        "RA",
        "BR"
      ],
      "severityScore": 22,
      "metarRaw": "METAR LEBB 191900Z 28006KT 9999 SCT039 BKN050 10/08 Q1019 TEMPO RA",
      "tafRaw": "TAF LEBB 191700Z 1918/2018 VRB03KT 9999 BKN030 TX13/2013Z TN02/2007Z \n  PROB30 \n  TEMPO 1918/2001 3000 RA \n  PROB30 \n  TEMPO 2001/2006 3000 BR \n  PROB40 \n  TEMPO 2012/2018 20015G25KT"
    },
    {
      "icao": "LEZG",
      "iata": "ZAZ",
      "name": "Zaragoza Airport",
      "lat": 41.666199,
      "lon": -1.04155,
      "updatedAt": "191900Z",
      "visibility_m": 10000,
      "taf_visibility_m": 4000,
      "worst_visibility_m": 4000,
      "ceiling_ft": null,
      "hazards": [
        "RA",
        "DZ"
      ],
      "severityScore": 22,
      "metarRaw": "METAR LEZG 191900Z 27010KT 9999 SCT050 10/05 Q1016 NOSIG",
      "tafRaw": "TAF LEZG 191700Z 1918/2018 30010KT 9999 SCT030 TX10/2015Z TN03/2006Z \n  PROB30 \n  TEMPO 1918/1923 4000 DZRA FEW020TCU \n  PROB30 \n  TEMPO 2004/2009 4000 DZRA \n  BECMG 2015/2017 VRB04KT"
    },
    {
      "icao": "LICA",
      "iata": "SUF",
      "name": "Lamezia Terme Sant'Eufemia International Airport",
      "lat": 38.906214,
      "lon": 16.246007,
      "updatedAt": "191920Z",
      "visibility_m": 10000,
      "taf_visibility_m": 4000,
      "worst_visibility_m": 4000,
      "ceiling_ft": 6000,
      "hazards": [
        "RA",
        "DZ"
      ],
      "severityScore": 22,
      "metarRaw": "METAR LICA 191920Z AUTO 08020KT 9999 -DZRA BKN038/// BKN110/// 13/09 Q1019",
      "tafRaw": "TAF LICA 191700Z 1918/2018 09024G40KT 9999 SCT020 BKN060 \n  TEMPO 1918/2012 RA \n  BECMG 2003/2005 09028G50KT \n  TEMPO 2012/2018 4000 RA"
    },
    {
      "icao": "LIRF",
      "iata": "FCO",
      "name": "Rome–Fiumicino Leonardo da Vinci International Airport",
      "lat": 41.804532,
      "lon": 12.251998,
      "updatedAt": "191920Z",
      "visibility_m": 10000,
      "taf_visibility_m": 10000,
      "worst_visibility_m": 10000,
      "ceiling_ft": 5500,
      "hazards": [
        "DZ",
        "RA"
      ],
      "severityScore": 22,
      "metarRaw": "METAR LIRF 191920Z 06011KT 9999 -DZ SCT045 BKN055 11/07 Q1018 NOSIG",
      "tafRaw": "TAF LIRF 191700Z 1918/2024 06013KT 9999 SCT050 \n  PROB40 \n  TEMPO 1918/1922 RA \n  BECMG 2010/2012 VRB05KT \n  BECMG 2018/2020 04010KT"
    },
    {
      "icao": "LRIA",
      "iata": "IAS",
      "name": "Iaşi Airport",
      "lat": 47.180278,
      "lon": 27.620833,
      "updatedAt": "191900Z",
      "visibility_m": 6000,
      "taf_visibility_m": 3000,
      "worst_visibility_m": 3000,
      "ceiling_ft": 1000,
      "hazards": [
        "BR"
      ],
      "severityScore": 22,
      "metarRaw": "METAR LRIA 191900Z VRB01KT 6000 NSC M11/M13 Q1038",
      "tafRaw": "TAF LRIA 191700Z 1918/2003 VRB04KT CAVOK \n  TEMPO 1923/2003 3000 BR BKN010"
    },
    {
      "icao": "LRBC",
      "iata": "BCM",
      "name": "Bacău George Enescu International  Airport",
      "lat": 46.5219,
      "lon": 26.910299,
      "updatedAt": "191900Z",
      "visibility_m": 6000,
      "taf_visibility_m": 3000,
      "worst_visibility_m": 3000,
      "ceiling_ft": 1000,
      "hazards": [
        "BR"
      ],
      "severityScore": 22,
      "metarRaw": "METAR LRBC 191900Z 00000KT 6000 NSC M08/M11 Q1037",
      "tafRaw": "TAF LRBC 191700Z 1918/2003 VRB04KT CAVOK \n  PROB30 \n  TEMPO 2000/2003 3000 BR BKN010"
    },
    {
      "icao": "LRSV",
      "iata": "SCV",
      "name": "Suceava Stefan cel Mare Airport",
      "lat": 47.6875,
      "lon": 26.35409927368164,
      "updatedAt": "191900Z",
      "visibility_m": 10000,
      "taf_visibility_m": 3000,
      "worst_visibility_m": 3000,
      "ceiling_ft": 1000,
      "hazards": [
        "BR"
      ],
      "severityScore": 22,
      "metarRaw": "METAR LRSV 191900Z 16005KT CAVOK M09/M10 Q1034",
      "tafRaw": "TAF LRSV 191700Z 1918/2003 VRB04KT CAVOK \n  TEMPO 1922/2003 3000 BR BKN010"
    },
    {
      "icao": "EHBK",
      "iata": "MST",
      "name": "Maastricht Aachen Airport",
      "lat": 50.911701,
      "lon": 5.77014,
      "updatedAt": "191925Z",
      "visibility_m": 10000,
      "taf_visibility_m": 6000,
      "worst_visibility_m": 6000,
      "ceiling_ft": null,
      "hazards": [
        "FG"
      ],
      "severityScore": 20,
      "metarRaw": "METAR EHBK 191925Z AUTO 10003KT 9999 NSC 02/00 Q1019 NOSIG",
      "tafRaw": "TAF EHBK 191711Z 1918/2024 11003KT CAVOK \n  PROB30 \n  TEMPO 1920/2008 6000 MIFG \n  PROB30 \n  TEMPO 2020/2024 6000 MIFG"
    },
    {
      "icao": "EPGD",
      "iata": "GDN",
      "name": "Gdańsk Lech Wałęsa Airport",
      "lat": 54.377602,
      "lon": 18.4662,
      "updatedAt": "191900Z",
      "visibility_m": 7000,
      "taf_visibility_m": 1200,
      "worst_visibility_m": 1200,
      "ceiling_ft": null,
      "hazards": [
        "BR"
      ],
      "severityScore": 20,
      "metarRaw": "METAR EPGD 191900Z 19004KT 140V200 7000 NSC M07/M10 Q1030",
      "tafRaw": "TAF EPGD 191730Z 1918/2018 16006KT 7000 NSC \n  PROB40 1918/2007 2000 BR \n  PROB40 2015/2018 1200 BR"
    },
    {
      "icao": "EPLB",
      "iata": "LUZ",
      "name": "Lublin Airport",
      "lat": 51.240157,
      "lon": 22.713461,
      "updatedAt": "191900Z",
      "visibility_m": 4400,
      "taf_visibility_m": 1200,
      "worst_visibility_m": 1200,
      "ceiling_ft": null,
      "hazards": [
        "BR"
      ],
      "severityScore": 20,
      "metarRaw": "METAR EPLB 191900Z 13002KT 4400 BR NSC M13/M14 Q1034",
      "tafRaw": "TAF EPLB 191730Z 1918/2018 10004KT 5000 BR NSC \n  TEMPO 1918/2007 4000 BR \n  PROB40 1920/2007 1200 BR"
    },
    {
      "icao": "LRBS",
      "iata": "BBU",
      "name": "Bucharest Băneasa Aurel Vlaicu International Airport",
      "lat": 44.503133,
      "lon": 26.102944,
      "updatedAt": "191900Z",
      "visibility_m": 5000,
      "taf_visibility_m": 1500,
      "worst_visibility_m": 1500,
      "ceiling_ft": null,
      "hazards": [
        "BR"
      ],
      "severityScore": 20,
      "metarRaw": "METAR LRBS 191900Z 27004KT 6000 NSC M06/M07 Q1038 BECMG 5000 BR",
      "tafRaw": "TAF LRBS 191700Z 1918/2018 25006KT CAVOK \n  BECMG 1920/1922 5000 BR \n  BECMG 1922/1924 3000 BR \n  PROB30 \n  TEMPO 2000/2005 1500 BR \n  BECMG 2006/2008 CAVOK \n  BECMG 2016/2018 3000 BR"
    },
    {
      "icao": "LRCV",
      "iata": "CRA",
      "name": "Craiova International Airport",
      "lat": 44.3181,
      "lon": 23.888599,
      "updatedAt": "191900Z",
      "visibility_m": 6000,
      "taf_visibility_m": 1500,
      "worst_visibility_m": 1500,
      "ceiling_ft": 3800,
      "hazards": [
        "BR"
      ],
      "severityScore": 20,
      "metarRaw": "METAR LRCV 191900Z 24006KT 6000 OVC038 M04/M07 Q1038",
      "tafRaw": "TAF LRCV 191700Z 1918/2003 VRB04KT 5000 BR BKN035 \n  BECMG 1921/1923 3000 BR \n  PROB30 \n  TEMPO 2000/2003 1500 BR"
    },
    {
      "icao": "LROP",
      "iata": "OTP",
      "name": "Bucharest Henri Coandă International Airport",
      "lat": 44.571792,
      "lon": 26.103285,
      "updatedAt": "191900Z",
      "visibility_m": 5000,
      "taf_visibility_m": 1500,
      "worst_visibility_m": 1500,
      "ceiling_ft": null,
      "hazards": [
        "BR"
      ],
      "severityScore": 20,
      "metarRaw": "METAR LROP 191900Z 24004KT 5000 BR NSC M07/M08 Q1038 NOSIG",
      "tafRaw": "TAF LROP 191700Z 1918/2018 25006KT CAVOK \n  BECMG 1920/1922 5000 BR \n  BECMG 1922/1924 3000 BR \n  PROB30 \n  TEMPO 2000/2005 1500 BR \n  BECMG 2006/2008 CAVOK \n  BECMG 2016/2018 3000 BR"
    },
    {
      "icao": "ENBR",
      "iata": "BGO",
      "name": "Bergen Airport, Flesland",
      "lat": 60.2934,
      "lon": 5.21814,
      "updatedAt": "191920Z",
      "visibility_m": 10000,
      "taf_visibility_m": null,
      "worst_visibility_m": 10000,
      "ceiling_ft": null,
      "hazards": [
        "BR"
      ],
      "severityScore": 15,
      "metarRaw": "METAR ENBR 191920Z 07002KT CAVOK 02/02 Q1020 NOSIG RMK WIND 1200FT 17005KT",
      "tafRaw": null
    },
    {
      "icao": "ENAL",
      "iata": "AES",
      "name": "Ålesund Airport, Vigra",
      "lat": 62.5625,
      "lon": 6.1197,
      "updatedAt": "191920Z",
      "visibility_m": 10000,
      "taf_visibility_m": 10000,
      "worst_visibility_m": 10000,
      "ceiling_ft": 4000,
      "hazards": [
        "RA"
      ],
      "severityScore": 12,
      "metarRaw": "METAR ENAL 191920Z 10003KT 9999 FEW053 04/02 Q1020",
      "tafRaw": "TAF ENAL 191700Z 1918/2003 VRB05KT 9999 -RA FEW010 BKN040"
    },
    {
      "icao": "ENTO",
      "iata": "TRF",
      "name": "Sandefjord Airport, Torp",
      "lat": 59.186699,
      "lon": 10.2586,
      "updatedAt": "191920Z",
      "visibility_m": 10000,
      "taf_visibility_m": 10000,
      "worst_visibility_m": 10000,
      "ceiling_ft": 1200,
      "hazards": [],
      "severityScore": 12,
      "metarRaw": "METAR ENTO 191920Z 03003KT 010V070 9999 OVC022 M00/M00 Q1026 TEMPO BKN012",
      "tafRaw": "TAF ENTO 191700Z 1918/2018 03008KT 9999 BKN018 \n  TEMPO 1918/2018 BKN008"
    },
    {
      "icao": "EPRA",
      "iata": "RDO",
      "name": "Warsaw Radom Airport",
      "lat": 51.38937,
      "lon": 21.214742,
      "updatedAt": "191900Z",
      "visibility_m": 10000,
      "taf_visibility_m": 10000,
      "worst_visibility_m": 10000,
      "ceiling_ft": null,
      "hazards": [
        "RA"
      ],
      "severityScore": 12,
      "metarRaw": "METAR EPRA 191900Z 17008KT CAVOK M08/M13 Q1033",
      "tafRaw": "TAF EPRA 191730Z 1918/2003 15008KT CAVOK"
    },
    {
      "icao": "LIPR",
      "iata": "RMI",
      "name": "Federico Fellini International Airport",
      "lat": 44.020024,
      "lon": 12.612198,
      "updatedAt": "191920Z",
      "visibility_m": 10000,
      "taf_visibility_m": 4000,
      "worst_visibility_m": 4000,
      "ceiling_ft": 3000,
      "hazards": [
        "RA"
      ],
      "severityScore": 12,
      "metarRaw": "METAR LIPR 191920Z 09010KT 9999 BKN030 SCT060 10/04 Q1025",
      "tafRaw": "TAF LIPR 191700Z 1918/2018 10012KT 9999 BKN030 \n  BECMG 2004/2006 30010KT \n  TEMPO 2009/2015 4000 -RA"
    },
    {
      "icao": "LIPY",
      "iata": "AOI",
      "name": "Marche Airport",
      "lat": 43.616299,
      "lon": 13.3623,
      "updatedAt": "191920Z",
      "visibility_m": 10000,
      "taf_visibility_m": 10000,
      "worst_visibility_m": 10000,
      "ceiling_ft": 4000,
      "hazards": [
        "RA"
      ],
      "severityScore": 12,
      "metarRaw": "METAR LIPY 191920Z AUTO 11006KT 9999 SCT054/// 11/04 Q1024",
      "tafRaw": "TAF LIPY 191700Z 1918/2018 09011KT 9999 BKN040 \n  TEMPO 1922/2015 RA"
    },
    {
      "icao": "LPMA",
      "iata": "FNC",
      "name": "Cristiano Ronaldo International Airport",
      "lat": 32.697812,
      "lon": -16.774613,
      "updatedAt": "191900Z",
      "visibility_m": 10000,
      "taf_visibility_m": 10000,
      "worst_visibility_m": 10000,
      "ceiling_ft": 1300,
      "hazards": [],
      "severityScore": 12,
      "metarRaw": "METAR LPMA 191900Z 30004KT 260V350 9999 FEW015 16/10 Q1026",
      "tafRaw": "TAF LPMA 191700Z 1918/2018 02008KT 9999 SCT015 \n  BECMG 1918/1921 VRB05KT \n  PROB40 \n  TEMPO 1921/2012 BKN013"
    },
    {
      "icao": "EKBI",
      "iata": "BLL",
      "name": "Billund Airport",
      "lat": 55.740335,
      "lon": 9.157019,
      "updatedAt": "191920Z",
      "visibility_m": 10000,
      "taf_visibility_m": 4000,
      "worst_visibility_m": 4000,
      "ceiling_ft": null,
      "hazards": [
        "BR"
      ],
      "severityScore": 10,
      "metarRaw": "METAR EKBI 191920Z AUTO 10005KT 9999 NCD M01/M03 Q1021",
      "tafRaw": "TAF EKBI 191727Z 1918/2018 12008KT CAVOK \n  PROB40 2000/2008 4000 BR"
    },
    {
      "icao": "EPKT",
      "iata": "KTW",
      "name": "Katowice Wojciech Korfanty International Airport",
      "lat": 50.476015,
      "lon": 19.080705,
      "updatedAt": "191900Z",
      "visibility_m": 5000,
      "taf_visibility_m": 3000,
      "worst_visibility_m": 3000,
      "ceiling_ft": null,
      "hazards": [
        "BR"
      ],
      "severityScore": 10,
      "metarRaw": "METAR EPKT 191900Z 15006KT 5000 BR NSC M05/M09 Q1032",
      "tafRaw": "TAF EPKT 191730Z 1918/2018 14006KT 6000 NSC \n  TEMPO 1919/2007 3000 BR"
    },
    {
      "icao": "EPPO",
      "iata": "POZ",
      "name": "Poznań-Ławica Airport",
      "lat": 52.421598,
      "lon": 16.823359,
      "updatedAt": "191900Z",
      "visibility_m": 10000,
      "taf_visibility_m": 4500,
      "worst_visibility_m": 4500,
      "ceiling_ft": null,
      "hazards": [
        "BR"
      ],
      "severityScore": 10,
      "metarRaw": "METAR EPPO 191900Z 13013KT CAVOK M00/M05 Q1028",
      "tafRaw": "TAF EPPO 191730Z 1918/2018 11010KT CAVOK \n  PROB40 \n  TEMPO 2000/2006 4500 BR"
    },
    {
      "icao": "EPRZ",
      "iata": "RZE",
      "name": "Rzeszów-Jasionka Airport",
      "lat": 50.109791,
      "lon": 22.024155,
      "updatedAt": "191900Z",
      "visibility_m": 5000,
      "taf_visibility_m": 3000,
      "worst_visibility_m": 3000,
      "ceiling_ft": null,
      "hazards": [
        "BR"
      ],
      "severityScore": 10,
      "metarRaw": "METAR EPRZ 191900Z 08006KT 5000 BR NSC M10/M13 Q1034",
      "tafRaw": "TAF EPRZ 191730Z 1918/2018 10008KT 7000 NSC \n  TEMPO 1918/2007 3000 BR"
    },
    {
      "icao": "EPSC",
      "iata": "SZZ",
      "name": "Solidarity Szczecin–Goleniów Airport",
      "lat": 53.584702,
      "lon": 14.9022,
      "updatedAt": "191900Z",
      "visibility_m": 10000,
      "taf_visibility_m": 3000,
      "worst_visibility_m": 3000,
      "ceiling_ft": null,
      "hazards": [
        "BR"
      ],
      "severityScore": 10,
      "metarRaw": "METAR EPSC 191900Z 14012KT CAVOK M00/M06 Q1026",
      "tafRaw": "TAF EPSC 191730Z 1918/2018 14010KT CAVOK \n  PROB40 2015/2018 3000 BR"
    },
    {
      "icao": "EPSY",
      "iata": "SZY",
      "name": "Olsztyn-Mazury Airport",
      "lat": 53.481899,
      "lon": 20.9377,
      "updatedAt": "191900Z",
      "visibility_m": 8000,
      "taf_visibility_m": 4000,
      "worst_visibility_m": 4000,
      "ceiling_ft": null,
      "hazards": [
        "BR"
      ],
      "severityScore": 10,
      "metarRaw": "METAR EPSY 191900Z VRB01KT 8000 NSC M17/M19 Q1033",
      "tafRaw": "TAF EPSY 191730Z 1918/2003 VRB02KT 8000 NSC \n  TEMPO 1918/1922 4000 BR"
    },
    {
      "icao": "EYKA",
      "iata": "KUN",
      "name": "Kaunas International Airport",
      "lat": 54.963965,
      "lon": 24.08582,
      "updatedAt": "191920Z",
      "visibility_m": 9000,
      "taf_visibility_m": 5000,
      "worst_visibility_m": 5000,
      "ceiling_ft": null,
      "hazards": [
        "BR"
      ],
      "severityScore": 10,
      "metarRaw": "METAR EYKA 191920Z 16003KT 120V220 9000 NSC M12/M14 Q1034",
      "tafRaw": "TAF EYKA 191700Z 1918/2018 VRB04KT 9000 NSC \n  TEMPO 1918/2006 5000 BR"
    },
    {
      "icao": "EYVI",
      "iata": "VNO",
      "name": "Vilnius International Airport",
      "lat": 54.634102,
      "lon": 25.285801,
      "updatedAt": "191920Z",
      "visibility_m": 7000,
      "taf_visibility_m": 3000,
      "worst_visibility_m": 3000,
      "ceiling_ft": null,
      "hazards": [
        "BR"
      ],
      "severityScore": 10,
      "metarRaw": "METAR EYVI 191920Z 18006KT 7000 NSC M14/M16 Q1034 NOSIG",
      "tafRaw": "TAF EYVI 191700Z 1918/2018 17008KT 5000 BR NSC \n  PROB40 \n  TEMPO 1918/2006 3000 SCT002 \n  BECMG 2006/2009 9000 NSW"
    },
    {
      "icao": "LEMD",
      "iata": "MAD",
      "name": "Adolfo Suárez Madrid–Barajas Airport",
      "lat": 40.471926,
      "lon": -3.56264,
      "updatedAt": "191900Z",
      "visibility_m": 10000,
      "taf_visibility_m": 4000,
      "worst_visibility_m": 4000,
      "ceiling_ft": null,
      "hazards": [
        "BR"
      ],
      "severityScore": 10,
      "metarRaw": "METAR LEMD 191900Z 35006KT CAVOK 07/02 Q1017 NOSIG",
      "tafRaw": "TAF LEMD 191700Z 1918/2024 VRB04KT CAVOK TX12/2014Z TNM03/2006Z \n  TEMPO 1918/1921 01010KT \n  PROB30 \n  TEMPO 2006/2008 4000 BR"
    },
    {
      "icao": "LIBR",
      "iata": "BDS",
      "name": "Brindisi Airport",
      "lat": 40.6576,
      "lon": 17.947001,
      "updatedAt": "191920Z",
      "visibility_m": 10000,
      "taf_visibility_m": 10000,
      "worst_visibility_m": 10000,
      "ceiling_ft": null,
      "hazards": [
        "BR"
      ],
      "severityScore": 10,
      "metarRaw": "METAR LIBR 191920Z 16004KT CAVOK 10/04 Q1024",
      "tafRaw": "TAF LIBR 191700Z 1918/2018 VRB05KT 9999 SCT040 \n  BECMG 2006/2008 10010KT"
    },
    {
      "icao": "LRSM",
      "iata": "SUJ",
      "name": "Satu Mare International Airport",
      "lat": 47.7033,
      "lon": 22.8857,
      "updatedAt": "191900Z",
      "visibility_m": 5000,
      "taf_visibility_m": 10000,
      "worst_visibility_m": 5000,
      "ceiling_ft": null,
      "hazards": [
        "BR"
      ],
      "severityScore": 10,
      "metarRaw": "METAR LRSM 191900Z AUTO 00000KT 5000 BR NCD M11/M13 Q1038",
      "tafRaw": "TAF LRSM 191400Z 1915/1924 VRB04KT CAVOK"
    },
    {
      "icao": "LTAC",
      "iata": "ESB",
      "name": "Esenboğa International Airport",
      "lat": 40.128101,
      "lon": 32.995098,
      "updatedAt": "191920Z",
      "visibility_m": 10000,
      "taf_visibility_m": 4000,
      "worst_visibility_m": 4000,
      "ceiling_ft": 2500,
      "hazards": [
        "BR"
      ],
      "severityScore": 10,
      "metarRaw": "METAR LTAC 191920Z 34005KT 310V030 9999 FEW035 M04/M08 Q1024 NOSIG RMK RWY21C VRB02KT RWY03L 32003KT 290V040 RWY21R VRB02KT RWY03R 01004KT 330V040 RWY21L 11003KT 060V120",
      "tafRaw": "TAF LTAC 191640Z 1918/2018 VRB02KT 9999 SCT035 \n  PROB30 \n  TEMPO 2000/2004 4000 BR SCT008 BKN025"
    },
    {
      "icao": "LBSF",
      "iata": "SOF",
      "name": "Sofia Airport",
      "lat": 42.696357,
      "lon": 23.417671,
      "updatedAt": "191900Z",
      "visibility_m": 10000,
      "taf_visibility_m": null,
      "worst_visibility_m": 10000,
      "ceiling_ft": null,
      "hazards": [],
      "severityScore": 5,
      "metarRaw": "METAR LBSF 191900Z AUTO 11009KT 9999 NCD M07/M09 Q1034 NOSIG",
      "tafRaw": null
    },
    {
      "icao": "LECH",
      "iata": "CDT",
      "name": "Castellón-Costa Azahar Airport",
      "lat": 40.213889,
      "lon": 0.073333,
      "updatedAt": "191900Z",
      "visibility_m": 9000,
      "taf_visibility_m": null,
      "worst_visibility_m": 9000,
      "ceiling_ft": 5000,
      "hazards": [],
      "severityScore": 5,
      "metarRaw": "METAR LECH 191900Z AUTO 02010KT 340V060 9000 BKN050 OVC060 11/05 Q1014",
      "tafRaw": null
    },
    {
      "icao": "LFMN",
      "iata": "NCE",
      "name": "Nice-Côte d'Azur Airport",
      "lat": 43.658401,
      "lon": 7.21587,
      "updatedAt": "191900Z",
      "visibility_m": 10000,
      "taf_visibility_m": null,
      "worst_visibility_m": 10000,
      "ceiling_ft": null,
      "hazards": [],
      "severityScore": 5,
      "metarRaw": "METAR LFMN 191900Z 08011KT CAVOK 14/04 Q1017 NOSIG",
      "tafRaw": null
    },
    {
      "icao": "LGAV",
      "iata": "ATH",
      "name": "Athens Eleftherios Venizelos International Airport",
      "lat": 37.936401,
      "lon": 23.9445,
      "updatedAt": "191920Z",
      "visibility_m": 10000,
      "taf_visibility_m": null,
      "worst_visibility_m": 10000,
      "ceiling_ft": 4000,
      "hazards": [],
      "severityScore": 5,
      "metarRaw": "METAR LGAV 191920Z 01014KT 9999 FEW020 BKN040 05/M00 Q1030 NOSIG",
      "tafRaw": null
    },
    {
      "icao": "BKPR",
      "iata": "PRN",
      "name": "Priština Adem Jashari International Airport",
      "lat": 42.5728,
      "lon": 21.035801,
      "updatedAt": "191930Z",
      "visibility_m": 10000,
      "taf_visibility_m": 10000,
      "worst_visibility_m": 10000,
      "ceiling_ft": null,
      "hazards": [],
      "severityScore": 0,
      "metarRaw": "METAR BKPR 191930Z 35008KT CAVOK M04/M07 Q1031 NOSIG",
      "tafRaw": "TAF BKPR 191730Z 1918/2018 02008KT CAVOK"
    },
    {
      "icao": "GCFV",
      "iata": "FUE",
      "name": "Fuerteventura Airport",
      "lat": 28.4527,
      "lon": -13.8638,
      "updatedAt": "191900Z",
      "visibility_m": 10000,
      "taf_visibility_m": 10000,
      "worst_visibility_m": 10000,
      "ceiling_ft": null,
      "hazards": [],
      "severityScore": 0,
      "metarRaw": "METAR GCFV 191900Z 01017KT 9999 SCT029 17/10 Q1022",
      "tafRaw": "TAF GCFV 191400Z 1915/2015 02020KT 9999 SCT035 TX21/2014Z TN14/2006Z \n  PROB30 \n  TEMPO 1915/1921 02018G28KT \n  BECMG 1921/1923 36009KT"
    },
    {
      "icao": "GCLP",
      "iata": "LPA",
      "name": "Gran Canaria Airport",
      "lat": 27.9319,
      "lon": -15.3866,
      "updatedAt": "191900Z",
      "visibility_m": 10000,
      "taf_visibility_m": 10000,
      "worst_visibility_m": 10000,
      "ceiling_ft": 3500,
      "hazards": [],
      "severityScore": 0,
      "metarRaw": "METAR GCLP 191900Z 02020KT 9999 SCT035 17/10 Q1023 NOSIG",
      "tafRaw": "TAF GCLP 191400Z 1915/2015 02023KT 9999 BKN035 TX20/2014Z TN16/2006Z \n  PROB30 \n  TEMPO 1915/2015 02015G25KT \n  PROB40 \n  TEMPO 1915/1921 02025G35KT"
    },
    {
      "icao": "GMAD",
      "iata": "AGA",
      "name": "Al Massira Airport",
      "lat": 30.322478,
      "lon": -9.412003,
      "updatedAt": "191900Z",
      "visibility_m": 10000,
      "taf_visibility_m": 8000,
      "worst_visibility_m": 8000,
      "ceiling_ft": null,
      "hazards": [],
      "severityScore": 0,
      "metarRaw": "METAR GMAD 191900Z 06004KT CAVOK 13/04 Q1017 NOSIG",
      "tafRaw": "TAF GMAD 191700Z 1918/2024 20008KT 8000 SCT020"
    },
    {
      "icao": "EBCI",
      "iata": "CRL",
      "name": "Brussels South Charleroi Airport",
      "lat": 50.461963,
      "lon": 4.459562,
      "updatedAt": "191920Z",
      "visibility_m": 10000,
      "taf_visibility_m": 10000,
      "worst_visibility_m": 10000,
      "ceiling_ft": null,
      "hazards": [],
      "severityScore": 0,
      "metarRaw": "METAR EBCI 191920Z 16006KT 150V210 CAVOK 06/04 Q1018 NOSIG",
      "tafRaw": "TAF EBCI 191710Z 1918/2024 17007KT CAVOK"
    },
    {
      "icao": "EDDB",
      "iata": "BER",
      "name": "Berlin Brandenburg Willy Brandt Airport",
      "lat": 52.361738,
      "lon": 13.502341,
      "updatedAt": "191920Z",
      "visibility_m": 10000,
      "taf_visibility_m": 10000,
      "worst_visibility_m": 10000,
      "ceiling_ft": null,
      "hazards": [],
      "severityScore": 0,
      "metarRaw": "METAR EDDB 191920Z AUTO 13006KT CAVOK M00/M07 Q1024 NOSIG",
      "tafRaw": "TAF EDDB 191700Z 1918/2018 14007KT CAVOK"
    },
    {
      "icao": "EDDH",
      "iata": "HAM",
      "name": "Hamburg Helmut Schmidt Airport",
      "lat": 53.630402,
      "lon": 9.98823,
      "updatedAt": "191920Z",
      "visibility_m": 10000,
      "taf_visibility_m": 10000,
      "worst_visibility_m": 10000,
      "ceiling_ft": null,
      "hazards": [],
      "severityScore": 0,
      "metarRaw": "METAR EDDH 191920Z AUTO 12006KT CAVOK M01/M04 Q1021 NOSIG",
      "tafRaw": "TAF EDDH 191700Z 1918/2024 11006KT CAVOK"
    },
    {
      "icao": "EDDN",
      "iata": "NUE",
      "name": "Nuremberg Airport",
      "lat": 49.498699,
      "lon": 11.078056,
      "updatedAt": "191920Z",
      "visibility_m": 10000,
      "taf_visibility_m": 10000,
      "worst_visibility_m": 10000,
      "ceiling_ft": null,
      "hazards": [],
      "severityScore": 0,
      "metarRaw": "METAR EDDN 191920Z AUTO 11008KT CAVOK M01/M06 Q1021 NOSIG",
      "tafRaw": "TAF EDDN 191700Z 1918/2018 11008KT CAVOK"
    },
    {
      "icao": "EDLW",
      "iata": "DTM",
      "name": "Dortmund Airport",
      "lat": 51.518299,
      "lon": 7.61224,
      "updatedAt": "191920Z",
      "visibility_m": 10000,
      "taf_visibility_m": 10000,
      "worst_visibility_m": 10000,
      "ceiling_ft": null,
      "hazards": [],
      "severityScore": 0,
      "metarRaw": "METAR EDLW 191920Z 16007KT CAVOK 01/M02 Q1019",
      "tafRaw": "TAF EDLW 191700Z 1918/2018 14004KT CAVOK"
    },
    {
      "icao": "EKCH",
      "iata": "CPH",
      "name": "Copenhagen Kastrup Airport",
      "lat": 55.617900848389,
      "lon": 12.656000137329,
      "updatedAt": "191920Z",
      "visibility_m": 10000,
      "taf_visibility_m": 10000,
      "worst_visibility_m": 10000,
      "ceiling_ft": null,
      "hazards": [],
      "severityScore": 0,
      "metarRaw": "METAR EKCH 191920Z AUTO 15013KT 9999 NCD 02/M01 Q1024 NOSIG",
      "tafRaw": "TAF EKCH 191727Z 1918/2018 11015KT CAVOK"
    },
    {
      "icao": "ENHD",
      "iata": "HAU",
      "name": "Haugesund Airport, Karmøy",
      "lat": 59.345299,
      "lon": 5.20836,
      "updatedAt": "191920Z",
      "visibility_m": 10000,
      "taf_visibility_m": 10000,
      "worst_visibility_m": 10000,
      "ceiling_ft": null,
      "hazards": [],
      "severityScore": 0,
      "metarRaw": "METAR ENHD 191920Z 16005KT CAVOK 02/01 Q1020",
      "tafRaw": "TAF ENHD 191400Z 1915/1923 16008KT 9999 FEW050"
    },
    {
      "icao": "ENVA",
      "iata": "TRD",
      "name": "Trondheim Airport, Værnes",
      "lat": 63.457802,
      "lon": 10.924,
      "updatedAt": "191920Z",
      "visibility_m": 10000,
      "taf_visibility_m": 10000,
      "worst_visibility_m": 10000,
      "ceiling_ft": null,
      "hazards": [],
      "severityScore": 0,
      "metarRaw": "METAR ENVA 191920Z VRB02KT CAVOK M01/M03 Q1023 NOSIG RMK WIND 670FT 13006KT",
      "tafRaw": "TAF ENVA 191700Z 1918/2018 09005KT CAVOK"
    },
    {
      "icao": "ENZV",
      "iata": "SVG",
      "name": "Stavanger Airport, Sola",
      "lat": 58.876701,
      "lon": 5.63778,
      "updatedAt": "191920Z",
      "visibility_m": 10000,
      "taf_visibility_m": 10000,
      "worst_visibility_m": 10000,
      "ceiling_ft": null,
      "hazards": [],
      "severityScore": 0,
      "metarRaw": "METAR ENZV 191920Z 18005KT CAVOK 02/M02 Q1021 NOSIG",
      "tafRaw": "TAF ENZV 191700Z 1918/2018 12005KT CAVOK"
    },
    {
      "icao": "EPWR",
      "iata": "WRO",
      "name": "Copernicus Wrocław Airport",
      "lat": 51.103719,
      "lon": 16.882096,
      "updatedAt": "191900Z",
      "visibility_m": 10000,
      "taf_visibility_m": 10000,
      "worst_visibility_m": 10000,
      "ceiling_ft": null,
      "hazards": [],
      "severityScore": 0,
      "metarRaw": "METAR EPWR 191900Z 14016KT CAVOK 00/M07 Q1029",
      "tafRaw": "TAF EPWR 191730Z 1918/2018 15010KT CAVOK"
    },
    {
      "icao": "ESMS",
      "iata": "MMX",
      "name": "Malmö Sturup Airport",
      "lat": 55.535564,
      "lon": 13.376327,
      "updatedAt": "191920Z",
      "visibility_m": 10000,
      "taf_visibility_m": 10000,
      "worst_visibility_m": 10000,
      "ceiling_ft": null,
      "hazards": [],
      "severityScore": 0,
      "metarRaw": "METAR ESMS 191920Z 15009KT CAVOK 01/M01 Q1024",
      "tafRaw": "TAF ESMS 191727Z 1918/2018 12010KT CAVOK"
    },
    {
      "icao": "EYPA",
      "iata": "PLQ",
      "name": "Palanga International Airport",
      "lat": 55.973202,
      "lon": 21.093901,
      "updatedAt": "191920Z",
      "visibility_m": 10000,
      "taf_visibility_m": 9000,
      "worst_visibility_m": 9000,
      "ceiling_ft": null,
      "hazards": [],
      "severityScore": 0,
      "metarRaw": "METAR EYPA 191920Z 16007KT CAVOK M10/M13 Q1032",
      "tafRaw": "TAF EYPA 191700Z 1918/2018 15008KT 9000 NSC \n  TEMPO 1918/2009 SCT005 \n  TEMPO 2015/2018 SCT010"
    },
    {
      "icao": "HEGN",
      "iata": "HRG",
      "name": "Hurghada International Airport",
      "lat": 27.176776,
      "lon": 33.796692,
      "updatedAt": "191900Z",
      "visibility_m": 10000,
      "taf_visibility_m": 10000,
      "worst_visibility_m": 10000,
      "ceiling_ft": null,
      "hazards": [],
      "severityScore": 0,
      "metarRaw": "METAR HEGN 191900Z 33010KT CAVOK 17/06 Q1019 NOSIG",
      "tafRaw": "TAF HEGN 191700Z 1918/2024 30012KT CAVOK"
    },
    {
      "icao": "HEMA",
      "iata": "RMF",
      "name": "Marsa Alam International Airport",
      "lat": 25.555548,
      "lon": 34.59245,
      "updatedAt": "191900Z",
      "visibility_m": 10000,
      "taf_visibility_m": 10000,
      "worst_visibility_m": 10000,
      "ceiling_ft": null,
      "hazards": [],
      "severityScore": 0,
      "metarRaw": "METAR HEMA 191900Z 28008KT CAVOK 17/08 Q1018 NOSIG",
      "tafRaw": "TAF HEMA 191700Z 1918/2024 31012KT CAVOK"
    },
    {
      "icao": "HESH",
      "iata": "SSH",
      "name": "Sharm El Sheikh International Airport",
      "lat": 27.977272,
      "lon": 34.394717,
      "updatedAt": "191900Z",
      "visibility_m": 10000,
      "taf_visibility_m": 10000,
      "worst_visibility_m": 10000,
      "ceiling_ft": null,
      "hazards": [],
      "severityScore": 0,
      "metarRaw": "METAR HESH 191900Z 34006KT CAVOK 18/07 Q1018 NOSIG",
      "tafRaw": "TAF HESH 191700Z 1918/2024 33010KT CAVOK"
    },
    {
      "icao": "LATI",
      "iata": "TIA",
      "name": "Tirana International Airport Mother Teresa",
      "lat": 41.4147,
      "lon": 19.7206,
      "updatedAt": "191920Z",
      "visibility_m": 10000,
      "taf_visibility_m": 10000,
      "worst_visibility_m": 10000,
      "ceiling_ft": null,
      "hazards": [],
      "severityScore": 0,
      "metarRaw": "METAR LATI 191920Z 00000KT CAVOK 02/M04 Q1026 NOSIG",
      "tafRaw": "TAF LATI 191700Z 1918/2018 VRB05KT CAVOK TX13/2012Z TNM05/2005Z"
    },
    {
      "icao": "LBPD",
      "iata": "PDV",
      "name": "Plovdiv International Airport",
      "lat": 42.067799,
      "lon": 24.8508,
      "updatedAt": "191900Z",
      "visibility_m": 10000,
      "taf_visibility_m": 10000,
      "worst_visibility_m": 10000,
      "ceiling_ft": null,
      "hazards": [],
      "severityScore": 0,
      "metarRaw": "METAR LBPD 191900Z AUTO VRB02KT 9999 OVC054/// M02/M06 Q1036 NOSIG",
      "tafRaw": "TAF LBPD 191700Z 1918/2018 VRB03KT 9999 SCT030"
    },
    {
      "icao": "LCLK",
      "iata": "LCA",
      "name": "Larnaca International Airport",
      "lat": 34.875099,
      "lon": 33.624901,
      "updatedAt": "191900Z",
      "visibility_m": 10000,
      "taf_visibility_m": 10000,
      "worst_visibility_m": 10000,
      "ceiling_ft": null,
      "hazards": [],
      "severityScore": 0,
      "metarRaw": "METAR LCLK 191900Z 32005KT CAVOK 05/00 Q1023 NOSIG",
      "tafRaw": "TAF LCLK 191730Z 1918/2018 34009KT 9999 FEW030 \n  PROB30 \n  TEMPO 1918/2007 35008G18KT \n  BECMG 2007/2010 04014KT \n  BECMG 2013/2016 34008KT"
    },
    {
      "icao": "LCPH",
      "iata": "PFO",
      "name": "Paphos International Airport",
      "lat": 34.717999,
      "lon": 32.485699,
      "updatedAt": "191900Z",
      "visibility_m": 10000,
      "taf_visibility_m": 10000,
      "worst_visibility_m": 10000,
      "ceiling_ft": null,
      "hazards": [],
      "severityScore": 0,
      "metarRaw": "METAR LCPH 191900Z 07009KT 9999 FEW035 SCT050 09/01 Q1022 NOSIG",
      "tafRaw": "TAF LCPH 191730Z 1918/2018 06008KT 9999 FEW030 SCT045 \n  BECMG 2008/2011 17010KT \n  BECMG 2014/2017 05008KT"
    },
    {
      "icao": "LEMG",
      "iata": "AGP",
      "name": "Málaga-Costa del Sol Airport",
      "lat": 36.6749,
      "lon": -4.49911,
      "updatedAt": "191900Z",
      "visibility_m": 10000,
      "taf_visibility_m": 10000,
      "worst_visibility_m": 10000,
      "ceiling_ft": null,
      "hazards": [],
      "severityScore": 0,
      "metarRaw": "METAR LEMG 191900Z 28011KT 9999 FEW050 11/03 Q1016 NOSIG",
      "tafRaw": "TAF LEMG 191700Z 1918/2018 29012KT CAVOK TX14/2014Z TN05/2006Z \n  PROB30 \n  TEMPO 1918/1920 30015G25KT"
    },
    {
      "icao": "LEZL",
      "iata": "SVQ",
      "name": "Sevilla Airport",
      "lat": 37.417999,
      "lon": -5.89311,
      "updatedAt": "191900Z",
      "visibility_m": 10000,
      "taf_visibility_m": 10000,
      "worst_visibility_m": 10000,
      "ceiling_ft": null,
      "hazards": [],
      "severityScore": 0,
      "metarRaw": "METAR LEZL 191900Z 36006KT CAVOK 12/04 Q1018 NOSIG",
      "tafRaw": "TAF LEZL 191400Z 1915/2015 36003KT CAVOK TX16/1915Z TN04/2007Z"
    },
    {
      "icao": "LIBD",
      "iata": "BRI",
      "name": "Bari Karol Wojtyła International Airport",
      "lat": 41.138901,
      "lon": 16.760599,
      "updatedAt": "191920Z",
      "visibility_m": 10000,
      "taf_visibility_m": 10000,
      "worst_visibility_m": 10000,
      "ceiling_ft": 4500,
      "hazards": [],
      "severityScore": 0,
      "metarRaw": "METAR LIBD 191920Z 12006KT 9999 BKN045 10/05 Q1024",
      "tafRaw": "TAF LIBD 191700Z 1918/2018 16008KT 9999 SCT040 \n  BECMG 2009/2011 10010KT"
    },
    {
      "icao": "LIBG",
      "iata": "TAR",
      "name": "Taranto-Grottaglie Marcello Arlotta Airport",
      "lat": 40.517502,
      "lon": 17.4032,
      "updatedAt": "191850Z",
      "visibility_m": 10000,
      "taf_visibility_m": 10000,
      "worst_visibility_m": 10000,
      "ceiling_ft": null,
      "hazards": [],
      "severityScore": 0,
      "metarRaw": "METAR LIBG 191850Z 07006KT CAVOK 10/07 Q1023",
      "tafRaw": "TAF LIBG 191700Z 1918/2003 11008KT 9999 SCT030"
    },
    {
      "icao": "LIBP",
      "iata": "PSR",
      "name": "Abruzzo Airport",
      "lat": 42.431079,
      "lon": 14.182981,
      "updatedAt": "191920Z",
      "visibility_m": 10000,
      "taf_visibility_m": 10000,
      "worst_visibility_m": 10000,
      "ceiling_ft": 3000,
      "hazards": [],
      "severityScore": 0,
      "metarRaw": "METAR LIBP 191920Z AUTO VRB01KT 9999 FEW031/// OVC053/// 09/08 Q1024",
      "tafRaw": "TAF LIBP 191700Z 1918/2018 10010KT 9999 BKN030 \n  BECMG 1918/1920 VRB05KT"
    },
    {
      "icao": "LIMC",
      "iata": "MXP",
      "name": "Milan Malpensa International Airport",
      "lat": 45.6306,
      "lon": 8.72811,
      "updatedAt": "191920Z",
      "visibility_m": 10000,
      "taf_visibility_m": 10000,
      "worst_visibility_m": 10000,
      "ceiling_ft": null,
      "hazards": [],
      "severityScore": 0,
      "metarRaw": "METAR LIMC 191920Z 21002KT 9999 SCT040 SCT060 05/01 Q1027 NOSIG",
      "tafRaw": "TAF LIMC 191700Z 1918/2024 VRB04KT 9999 SCT050 SCT090"
    },
    {
      "icao": "LIME",
      "iata": "BGY",
      "name": "Milan Bergamo Airport / Antonio Locatelli Air Base",
      "lat": 45.670725,
      "lon": 9.709223,
      "updatedAt": "191920Z",
      "visibility_m": 10000,
      "taf_visibility_m": 10000,
      "worst_visibility_m": 10000,
      "ceiling_ft": 4500,
      "hazards": [],
      "severityScore": 0,
      "metarRaw": "METAR LIME 191920Z 19003KT 160V230 9999 BKN045 05/M02 Q1027 NOSIG",
      "tafRaw": "TAF LIME 191700Z 1918/2018 VRB04KT 9999 BKN040"
    },
    {
      "icao": "LIMF",
      "iata": "TRN",
      "name": "Turin Airport",
      "lat": 45.200802,
      "lon": 7.64963,
      "updatedAt": "191920Z",
      "visibility_m": 10000,
      "taf_visibility_m": 8000,
      "worst_visibility_m": 8000,
      "ceiling_ft": 4000,
      "hazards": [],
      "severityScore": 0,
      "metarRaw": "METAR LIMF 191920Z 01002KT 9999 BKN040 OVC060 05/00 Q1027",
      "tafRaw": "TAF LIMF 191700Z 1918/2018 VRB04KT 8000 BKN060"
    },
    {
      "icao": "LIMJ",
      "iata": "GOA",
      "name": "Genoa Cristoforo Colombo Airport",
      "lat": 44.412039,
      "lon": 8.840732,
      "updatedAt": "191920Z",
      "visibility_m": 10000,
      "taf_visibility_m": 10000,
      "worst_visibility_m": 10000,
      "ceiling_ft": null,
      "hazards": [],
      "severityScore": 0,
      "metarRaw": "METAR LIMJ 191920Z 03011KT 340V060 CAVOK 08/01 Q1022",
      "tafRaw": "TAF LIMJ 191700Z 1918/2018 02015KT CAVOK \n  TEMPO 2009/2015 02015G28KT"
    },
    {
      "icao": "LIPE",
      "iata": "BLQ",
      "name": "Bologna Guglielmo Marconi Airport",
      "lat": 44.5354,
      "lon": 11.2887,
      "updatedAt": "191920Z",
      "visibility_m": 8000,
      "taf_visibility_m": 9000,
      "worst_visibility_m": 8000,
      "ceiling_ft": 3300,
      "hazards": [],
      "severityScore": 0,
      "metarRaw": "METAR LIPE 191920Z 27004KT 8000 BKN033 05/03 Q1027",
      "tafRaw": "TAF LIPE 191700Z 1918/2018 28006KT 9000 BKN020"
    },
    {
      "icao": "LIPH",
      "iata": "TSF",
      "name": "Treviso Antonio Canova Airport",
      "lat": 45.648399,
      "lon": 12.1944,
      "updatedAt": "191920Z",
      "visibility_m": 10000,
      "taf_visibility_m": 10000,
      "worst_visibility_m": 10000,
      "ceiling_ft": null,
      "hazards": [],
      "severityScore": 0,
      "metarRaw": "METAR LIPH 191920Z 03004KT CAVOK 03/M06 Q1028",
      "tafRaw": "TAF LIPH 191700Z 1918/2018 06008KT CAVOK"
    },
    {
      "icao": "LIPQ",
      "iata": "TRS",
      "name": "Trieste–Friuli Venezia Giulia Airport",
      "lat": 45.827499,
      "lon": 13.4722,
      "updatedAt": "191920Z",
      "visibility_m": 10000,
      "taf_visibility_m": 10000,
      "worst_visibility_m": 10000,
      "ceiling_ft": null,
      "hazards": [],
      "severityScore": 0,
      "metarRaw": "METAR LIPQ 191920Z AUTO 10005KT 050V140 9999 NCD 03/M08 Q1028",
      "tafRaw": "TAF LIPQ 191700Z 1918/2018 08010KT CAVOK \n  BECMG 1919/1921 VRB05KT"
    },
    {
      "icao": "LIPX",
      "iata": "VRN",
      "name": "Verona Villafranca Valerio Catullo Airport",
      "lat": 45.394955,
      "lon": 10.887303,
      "updatedAt": "191920Z",
      "visibility_m": 10000,
      "taf_visibility_m": 10000,
      "worst_visibility_m": 10000,
      "ceiling_ft": null,
      "hazards": [],
      "severityScore": 0,
      "metarRaw": "METAR LIPX 191920Z 27003KT 220V300 9999 FEW040 SCT060 03/M03 Q1027",
      "tafRaw": "TAF LIPX 191700Z 1918/2018 VRB05KT 9999 SCT050"
    },
    {
      "icao": "LIPZ",
      "iata": "VCE",
      "name": "Venice Marco Polo Airport",
      "lat": 45.505299,
      "lon": 12.3519,
      "updatedAt": "191920Z",
      "visibility_m": 10000,
      "taf_visibility_m": 10000,
      "worst_visibility_m": 10000,
      "ceiling_ft": null,
      "hazards": [],
      "severityScore": 0,
      "metarRaw": "METAR LIPZ 191920Z 04007KT 9999 FEW050 02/M05 Q1028 NOSIG",
      "tafRaw": "TAF LIPZ 191700Z 1918/2024 05011KT CAVOK \n  BECMG 2014/2016 VRB05KT"
    },
    {
      "icao": "LIRN",
      "iata": "NAP",
      "name": "Naples International Airport",
      "lat": 40.886002,
      "lon": 14.2908,
      "updatedAt": "191920Z",
      "visibility_m": 10000,
      "taf_visibility_m": 10000,
      "worst_visibility_m": 10000,
      "ceiling_ft": 7000,
      "hazards": [],
      "severityScore": 0,
      "metarRaw": "METAR LIRN 191920Z 01007KT 260V040 9999 BKN070 11/06 Q1019 NOSIG",
      "tafRaw": "TAF LIRN 191700Z 1918/2018 05012KT 9999 SCT060 \n  TEMPO 2010/2018 05015G25KT"
    },
    {
      "icao": "LIRP",
      "iata": "PSA",
      "name": "Pisa International Airport",
      "lat": 43.683899,
      "lon": 10.3927,
      "updatedAt": "191915Z",
      "visibility_m": 10000,
      "taf_visibility_m": 10000,
      "worst_visibility_m": 10000,
      "ceiling_ft": 5000,
      "hazards": [],
      "severityScore": 0,
      "metarRaw": "METAR LIRP 191915Z 07013KT 9999 FEW080 10/03 Q1021 NOSIG",
      "tafRaw": "TAF LIRP 191700Z 1918/2018 07016KT 9999 SCT060 \n  TEMPO 2003/2006 SCT020 BKN050 \n  TEMPO 2007/2017 07018G30KT"
    },
    {
      "icao": "LIRZ",
      "iata": "PEG",
      "name": "Perugia San Francesco d'Assisi – Umbria International Airport",
      "lat": 43.095901,
      "lon": 12.5132,
      "updatedAt": "191920Z",
      "visibility_m": 10000,
      "taf_visibility_m": 10000,
      "worst_visibility_m": 10000,
      "ceiling_ft": null,
      "hazards": [],
      "severityScore": 0,
      "metarRaw": "METAR LIRZ 191920Z AUTO 05011KT 9999 BKN088/// 10/03 Q1020",
      "tafRaw": "TAF LIRZ 191700Z 1918/2018 04015KT 9999 SCT070 \n  TEMPO 2009/2016 04018G28KT"
    },
    {
      "icao": "LJLJ",
      "iata": "LJU",
      "name": "Ljubljana Jože Pučnik Airport",
      "lat": 46.223701,
      "lon": 14.4576,
      "updatedAt": "191900Z",
      "visibility_m": 10000,
      "taf_visibility_m": 10000,
      "worst_visibility_m": 10000,
      "ceiling_ft": 2400,
      "hazards": [],
      "severityScore": 0,
      "metarRaw": "METAR LJLJ 191900Z 13007KT 9999 FEW003 OVC024 M02/M06 Q1032 NOSIG",
      "tafRaw": "TAF LJLJ 191700Z 1918/2018 12006KT 9999 BKN025"
    },
    {
      "icao": "LKMT",
      "iata": "OSR",
      "name": "Leoš Janáček Airport Ostrava",
      "lat": 49.696301,
      "lon": 18.111099,
      "updatedAt": "191900Z",
      "visibility_m": 10000,
      "taf_visibility_m": 10000,
      "worst_visibility_m": 10000,
      "ceiling_ft": null,
      "hazards": [],
      "severityScore": 0,
      "metarRaw": "METAR LKMT 191900Z 27012KT CAVOK M04/M08 Q1032 NOSIG",
      "tafRaw": "TAF LKMT 191700Z 1918/2018 23012KT CAVOK"
    },
    {
      "icao": "LKPR",
      "iata": "PRG",
      "name": "Václav Havel Airport Prague",
      "lat": 50.100874,
      "lon": 14.259911,
      "updatedAt": "191900Z",
      "visibility_m": 10000,
      "taf_visibility_m": 10000,
      "worst_visibility_m": 10000,
      "ceiling_ft": null,
      "hazards": [],
      "severityScore": 0,
      "metarRaw": "METAR LKPR 191900Z 12007KT CAVOK M05/M07 Q1026 NOSIG",
      "tafRaw": "TAF LKPR 191700Z 1918/2024 11007KT CAVOK"
    },
    {
      "icao": "LLBG",
      "iata": "TLV",
      "name": "Ben Gurion International Airport",
      "lat": 32.011398,
      "lon": 34.8867,
      "updatedAt": "191920Z",
      "visibility_m": 10000,
      "taf_visibility_m": 10000,
      "worst_visibility_m": 10000,
      "ceiling_ft": null,
      "hazards": [],
      "severityScore": 0,
      "metarRaw": "METAR LLBG 191920Z VRB02KT CAVOK 10/03 Q1021 NOSIG RMK FEW075",
      "tafRaw": "TAF LLBG 191714Z 1918/2018 03006KT 9999 FEW040 \n  BECMG 1920/1922 VRB04KT SCT040 \n  PROB40 \n  TEMPO 1922/2009 06008KT \n  BECMG 2009/2011 36012KT \n  BECMG 2015/2017 04006KT TX15/2012Z TN07/2004Z"
    },
    {
      "icao": "LPFR",
      "iata": "FAO",
      "name": "Faro - Gago Coutinho International Airport",
      "lat": 37.015909,
      "lon": -7.970939,
      "updatedAt": "191900Z",
      "visibility_m": 10000,
      "taf_visibility_m": 10000,
      "worst_visibility_m": 10000,
      "ceiling_ft": 3500,
      "hazards": [],
      "severityScore": 0,
      "metarRaw": "METAR LPFR 191900Z 29006KT 9999 FEW018 12/06 Q1019",
      "tafRaw": "TAF LPFR 191700Z 1918/2018 33013KT CAVOK \n  BECMG 1918/1921 33005KT \n  BECMG 2012/2014 25010KT 9999 FEW020 BKN035"
    },
    {
      "icao": "LQBK",
      "iata": "BNX",
      "name": "Banja Luka International Airport",
      "lat": 44.941399,
      "lon": 17.297501,
      "updatedAt": "191900Z",
      "visibility_m": 10000,
      "taf_visibility_m": 10000,
      "worst_visibility_m": 10000,
      "ceiling_ft": 2000,
      "hazards": [],
      "severityScore": 0,
      "metarRaw": "METAR LQBK 191900Z 00000KT 9999 OVC020 M02/M06 Q1034 NOSIG",
      "tafRaw": "TAF LQBK 191700Z 1918/2018 VRB04KT 9999 BKN020 TXM01/2014Z TNM05/2006Z \n  PROB40 \n  TEMPO 2000/2010 BKN012 OVC020"
    },
    {
      "icao": "LWOH",
      "iata": "OHD",
      "name": "Ohrid St. Paul the Apostle Airport",
      "lat": 41.18,
      "lon": 20.7423,
      "updatedAt": "191920Z",
      "visibility_m": 10000,
      "taf_visibility_m": 10000,
      "worst_visibility_m": 10000,
      "ceiling_ft": null,
      "hazards": [],
      "severityScore": 0,
      "metarRaw": "METAR LWOH 191920Z VRB04KT CAVOK M00/M06 Q1029",
      "tafRaw": "TAF LWOH 191750Z 1918/2018 04006KT 9999 FEW040"
    },
    {
      "icao": "LWSK",
      "iata": "SKP",
      "name": "Skopje International Airport",
      "lat": 41.958087,
      "lon": 21.622581,
      "updatedAt": "191920Z",
      "visibility_m": 10000,
      "taf_visibility_m": 10000,
      "worst_visibility_m": 10000,
      "ceiling_ft": null,
      "hazards": [],
      "severityScore": 0,
      "metarRaw": "METAR LWSK 191920Z 04003KT 350V060 CAVOK M04/M07 Q1033 NOSIG",
      "tafRaw": "TAF LWSK 191750Z 1918/2018 VRB03KT CAVOK"
    },
    {
      "icao": "LYBE",
      "iata": "BEG",
      "name": "Belgrade Nikola Tesla Airport",
      "lat": 44.818401,
      "lon": 20.309099,
      "updatedAt": "191900Z",
      "visibility_m": 10000,
      "taf_visibility_m": 10000,
      "worst_visibility_m": 10000,
      "ceiling_ft": null,
      "hazards": [],
      "severityScore": 0,
      "metarRaw": "METAR LYBE 191900Z 11009KT CAVOK M03/M08 Q1035 NOSIG",
      "tafRaw": "TAF LYBE 191700Z 1918/2018 10013KT CAVOK TX03/2013Z TNM06/2005Z"
    },
    {
      "icao": "LYNI",
      "iata": "INI",
      "name": "Niš Constantine the Great Airport",
      "lat": 43.336538,
      "lon": 21.856242,
      "updatedAt": "191900Z",
      "visibility_m": 10000,
      "taf_visibility_m": 10000,
      "worst_visibility_m": 10000,
      "ceiling_ft": null,
      "hazards": [],
      "severityScore": 0,
      "metarRaw": "METAR LYNI 191900Z 05010KT CAVOK M03/M08 Q1034 NOSIG",
      "tafRaw": "TAF LYNI 191700Z 1918/2018 06006KT CAVOK TX04/2013Z TNM09/2005Z"
    },
    {
      "icao": "LYPG",
      "iata": "TGD",
      "name": "Podgorica Airport / Podgorica Golubovci Airbase",
      "lat": 42.359402,
      "lon": 19.2519,
      "updatedAt": "191900Z",
      "visibility_m": 10000,
      "taf_visibility_m": 10000,
      "worst_visibility_m": 10000,
      "ceiling_ft": null,
      "hazards": [],
      "severityScore": 0,
      "metarRaw": "METAR LYPG 191900Z 25004KT CAVOK 01/M04 Q1027 NOSIG",
      "tafRaw": "TAF LYPG 191700Z 1918/2018 35005KT CAVOK TX10/2013Z TNM03/2005Z"
    },
    {
      "icao": "LZTT",
      "iata": "TAT",
      "name": "Poprad-Tatry Airport",
      "lat": 49.073601,
      "lon": 20.2411,
      "updatedAt": "191900Z",
      "visibility_m": 10000,
      "taf_visibility_m": 10000,
      "worst_visibility_m": 10000,
      "ceiling_ft": null,
      "hazards": [],
      "severityScore": 0,
      "metarRaw": "METAR LZTT 191900Z 28006KT CAVOK M11/M12 Q1032",
      "tafRaw": "TAF LZTT 191715Z 1918/2018 27005KT CAVOK"
    },
    {
      "icao": "OEJN",
      "iata": "JED",
      "name": "King Abdulaziz International Airport",
      "lat": 21.6796,
      "lon": 39.156502,
      "updatedAt": "191900Z",
      "visibility_m": 10000,
      "taf_visibility_m": 10000,
      "worst_visibility_m": 10000,
      "ceiling_ft": null,
      "hazards": [],
      "severityScore": 0,
      "metarRaw": "METAR OEJN 191900Z 36006KT CAVOK 23/11 Q1015 NOSIG",
      "tafRaw": "TAF OEJN 191700Z 1918/2024 02008KT 9999 FEW040 \n  BECMG 2000/2002 VRB03KT \n  BECMG 2006/2008 34012KT CAVOK \n  BECMG 2018/2020 02006KT"
    },
    {
      "icao": "OEMA",
      "iata": "MED",
      "name": "Prince Mohammad Bin Abdulaziz Airport",
      "lat": 24.5534,
      "lon": 39.705101,
      "updatedAt": "191900Z",
      "visibility_m": 10000,
      "taf_visibility_m": 10000,
      "worst_visibility_m": 10000,
      "ceiling_ft": null,
      "hazards": [],
      "severityScore": 0,
      "metarRaw": "METAR OEMA 191900Z 35004KT CAVOK 18/M06 Q1018 NOSIG",
      "tafRaw": "TAF OEMA 191700Z 1918/2024 34008KT CAVOK \n  BECMG 2000/2002 VRB03KT \n  BECMG 2006/2008 32010KT \n  BECMG 2018/2020 10006KT"
    },
    {
      "icao": "OMAA",
      "iata": "AUH",
      "name": "Zayed International Airport",
      "lat": 24.440966,
      "lon": 54.649237,
      "updatedAt": "191900Z",
      "visibility_m": 10000,
      "taf_visibility_m": 8000,
      "worst_visibility_m": 8000,
      "ceiling_ft": null,
      "hazards": [],
      "severityScore": 0,
      "metarRaw": "METAR OMAA 191900Z 07004KT CAVOK 18/12 Q1015 NOSIG",
      "tafRaw": "TAF OMAA 191700Z 1918/2100 08005KT 8000 NSC \n  BECMG 2007/2009 30012KT \n  BECMG 2016/2018 24006KT"
    },
    {
      "icao": "OMDB",
      "iata": "DXB",
      "name": "Dubai International Airport",
      "lat": 25.2527999878,
      "lon": 55.3643989563,
      "updatedAt": "191930Z",
      "visibility_m": 10000,
      "taf_visibility_m": 4000,
      "worst_visibility_m": 4000,
      "ceiling_ft": null,
      "hazards": [],
      "severityScore": 0,
      "metarRaw": "METAR OMDB 191930Z 10005KT CAVOK 20/15 Q1015 NOSIG",
      "tafRaw": "TAF OMDB 191700Z 1918/2100 13005KT 8000 NSC \n  PROB30 2002/2006 4000 HZ \n  BECMG 2007/2009 27010KT \n  PROB30 2018/2100 21007KT"
    }
  ],
  "stats": {
    "icaoCount": 159,
    "metarReturned": 159,
    "tafReturned": 148,
    "stationsWritten": 159,
    "missingMetar": 0,
    "missingTaf": 11
  },
  "errors": []
}