{
  "generatedAt": "2026-01-21T18:22:34.369Z",
  "stations": [
    {
      "icao": "EDNY",
      "iata": "FDH",
      "name": "Bodensee Airport Friedrichshafen",
      "lat": 47.671299,
      "lon": 9.51149,
      "updatedAt": "211750Z",
      "visibility_m": 350,
      "taf_visibility_m": 500,
      "worst_visibility_m": 350,
      "ceiling_ft": 100,
      "hazards": [
        "FZFG",
        "FG",
        "BR"
      ],
      "severityScore": 100,
      "metarRaw": "METAR EDNY 211750Z VRB02KT 0400 0350 R24/0400N FZFG VV/// M02/M02 Q1002",
      "tafRaw": "TAF EDNY 211700Z 2118/2203 VRB03KT 2500 BR OVC002 \n  BECMG 2118/2120 0500 FZFG VV001"
    },
    {
      "icao": "EDSB",
      "iata": "FKB",
      "name": "Karlsruhe Baden-Baden Airport",
      "lat": 48.7794,
      "lon": 8.0805,
      "updatedAt": "211750Z",
      "visibility_m": 2700,
      "taf_visibility_m": 300,
      "worst_visibility_m": 300,
      "ceiling_ft": 300,
      "hazards": [
        "BR",
        "FZFG",
        "FG"
      ],
      "severityScore": 100,
      "metarRaw": "METAR EDSB 211750Z VRB02KT 2700 BR OVC003 M01/M01 Q1002",
      "tafRaw": "TAF EDSB 211700Z 2118/2218 03004KT 3000 BR OVC003 \n  TEMPO 2118/2212 0300 FZFG OVC001 \n  BECMG 2212/2215 BKN008"
    },
    {
      "icao": "EGNM",
      "iata": "LBA",
      "name": "Leeds Bradford Airport",
      "lat": 53.865898,
      "lon": -1.66057,
      "updatedAt": "211750Z",
      "visibility_m": 7000,
      "taf_visibility_m": 300,
      "worst_visibility_m": 300,
      "ceiling_ft": 500,
      "hazards": [
        "RA",
        "FG",
        "BR",
        "DZ"
      ],
      "severityScore": 100,
      "metarRaw": "METAR EGNM 211750Z 12013KT 7000 -RA SCT003 BKN005 07/07 Q0986",
      "tafRaw": "TAF EGNM 211701Z 2118/2218 13016G26KT 9999 BKN008 \n  TEMPO 2118/2121 4000 RA BR BKN003 \n  BECMG 2121/2124 4000 BR OVC003 \n  TEMPO 2121/2218 RADZ \n  PROB40 \n  TEMPO 2121/2218 0300 FG OVC000 \n  BECMG 2122/2201 12010KT"
    },
    {
      "icao": "EPGD",
      "iata": "GDN",
      "name": "Gdańsk Lech Wałęsa Airport",
      "lat": 54.377602,
      "lon": 18.4662,
      "updatedAt": "211800Z",
      "visibility_m": 1500,
      "taf_visibility_m": 500,
      "worst_visibility_m": 500,
      "ceiling_ft": 100,
      "hazards": [
        "BR",
        "FG",
        "FZFG"
      ],
      "severityScore": 100,
      "metarRaw": "METAR EPGD 211800Z 34002KT 1500 0100W BCFG BR NSC M10/M11 Q1009",
      "tafRaw": "TAF EPGD 211730Z 2118/2218 VRB02KT 2000 BR NSC \n  TEMPO 2118/2208 0800 FZFG \n  PROB40 2118/2207 0500 FZFG OVC001 \n  BECMG 2209/2212 09010KT 9999 \n  PROB40 \n  TEMPO 2212/2218 10015G25KT"
    },
    {
      "icao": "EPMO",
      "iata": "WMI",
      "name": "Modlin Airport",
      "lat": 52.451099,
      "lon": 20.6518,
      "updatedAt": "211800Z",
      "visibility_m": 5000,
      "taf_visibility_m": 300,
      "worst_visibility_m": 300,
      "ceiling_ft": 100,
      "hazards": [
        "BR",
        "FZFG",
        "FG"
      ],
      "severityScore": 100,
      "metarRaw": "METAR EPMO 211800Z 13005KT 5000 BR NSC M06/M08 Q1010",
      "tafRaw": "TAF EPMO 211730Z 2118/2218 11003KT 4500 BR NSC \n  TEMPO 2120/2208 2000 BR \n  PROB40 2121/2208 0300 FZFG VV001 \n  BECMG 2208/2211 11013KT 7000"
    },
    {
      "icao": "EPSC",
      "iata": "SZZ",
      "name": "Solidarity Szczecin–Goleniów Airport",
      "lat": 53.584702,
      "lon": 14.9022,
      "updatedAt": "211800Z",
      "visibility_m": 10000,
      "taf_visibility_m": 600,
      "worst_visibility_m": 600,
      "ceiling_ft": 100,
      "hazards": [
        "FZFG",
        "BR",
        "FG"
      ],
      "severityScore": 100,
      "metarRaw": "METAR EPSC 211800Z VRB02KT CAVOK M06/M08 Q1008",
      "tafRaw": "TAF EPSC 211730Z 2118/2218 VRB02KT CAVOK \n  TEMPO 2118/2209 3000 BR \n  PROB40 2119/2208 0600 FZFG BKN001 \n  BECMG 2208/2211 10010KT"
    },
    {
      "icao": "LBPD",
      "iata": "PDV",
      "name": "Plovdiv International Airport",
      "lat": 42.067799,
      "lon": 24.8508,
      "updatedAt": "211800Z",
      "visibility_m": 10000,
      "taf_visibility_m": 1200,
      "worst_visibility_m": 1200,
      "ceiling_ft": 300,
      "hazards": [
        "FZRA",
        "SN",
        "RA"
      ],
      "severityScore": 100,
      "metarRaw": "METAR LBPD 211800Z AUTO 33003KT 300V360 9999 OVC017/// M01/M03 Q1017 NOSIG",
      "tafRaw": "TAF LBPD 211700Z 2118/2218 VRB04KT 4000 SN BKN025 OVC040 \n  TEMPO 2120/2201 1200 +SN BKN003 OVC010 \n  PROB30 \n  TEMPO 2204/2206 3000 FZRA \n  BECMG 2206/2208 6000 NSW BKN015"
    },
    {
      "icao": "LFSB",
      "iata": "BSL",
      "name": "EuroAirport Basel–Mulhouse–Freiburg",
      "lat": 47.60068,
      "lon": 7.521117,
      "updatedAt": "211800Z",
      "visibility_m": 300,
      "taf_visibility_m": 300,
      "worst_visibility_m": 300,
      "ceiling_ft": 100,
      "hazards": [
        "FZFG",
        "FG",
        "BR"
      ],
      "severityScore": 100,
      "metarRaw": "METAR LFSB 211800Z AUTO 32007KT 0550 R15/0700N R33/0750N FZFG VV/// M00/M00 Q1000 TEMPO 0300 FZFG",
      "tafRaw": "TAF LFSB 211700Z 2118/2218 33004KT 1500 BR OVC001 \n  TEMPO 2118/2209 0300 FZFG VV/// \n  BECMG 2209/2212 8000 NSW FEW005"
    },
    {
      "icao": "LIMC",
      "iata": "MXP",
      "name": "Milan Malpensa International Airport",
      "lat": 45.6306,
      "lon": 8.72811,
      "updatedAt": "211750Z",
      "visibility_m": 8000,
      "taf_visibility_m": 500,
      "worst_visibility_m": 500,
      "ceiling_ft": 200,
      "hazards": [
        "FZFG",
        "FG"
      ],
      "severityScore": 100,
      "metarRaw": "METAR LIMC 211750Z VRB01KT 8000 NSC 03/00 Q1006 NOSIG",
      "tafRaw": "TAF LIMC 211700Z 2118/2224 VRB04KT 7000 FEW020 \n  BECMG 2121/2123 4000 BCFG \n  TEMPO 2203/2210 0500 FZFG OVC002 \n  BECMG 2210/2212 7000 \n  TEMPO 2222/2224 4000 BCFG"
    },
    {
      "icao": "LIMF",
      "iata": "TRN",
      "name": "Turin Airport",
      "lat": 45.200802,
      "lon": 7.64963,
      "updatedAt": "211750Z",
      "visibility_m": 10000,
      "taf_visibility_m": 800,
      "worst_visibility_m": 800,
      "ceiling_ft": 300,
      "hazards": [
        "FZFG",
        "BR",
        "FG"
      ],
      "severityScore": 100,
      "metarRaw": "METAR LIMF 211750Z 01002KT CAVOK 04/00 Q1006",
      "tafRaw": "TAF LIMF 211700Z 2118/2218 VRB04KT 6000 FEW050 \n  BECMG 2120/2122 3000 BR \n  PROB40 \n  TEMPO 2203/2208 0800 FZFG BKN003 \n  BECMG 2208/2210 6000"
    },
    {
      "icao": "LQSA",
      "iata": "SJJ",
      "name": "Sarajevo International Airport",
      "lat": 43.8246,
      "lon": 18.331499,
      "updatedAt": "211800Z",
      "visibility_m": 4000,
      "taf_visibility_m": 500,
      "worst_visibility_m": 500,
      "ceiling_ft": 5500,
      "hazards": [
        "BR",
        "FZFG",
        "FZRA",
        "FG",
        "RA"
      ],
      "severityScore": 100,
      "metarRaw": "METAR LQSA 211800Z VRB01KT 4000 BR BKN055 M03/M05 Q1008 NOSIG",
      "tafRaw": "TAF LQSA 211700Z 2118/2218 VRB02KT 4000 BR SCT010 BKN020 TXM00/2214Z TNM06/2200Z \n  TEMPO 2118/2209 2000 BKN008 \n  PROB30 \n  TEMPO 2121/2206 0500 FZFG BKN004 \n  PROB30 \n  TEMPO 2209/2218 5000 -FZRA"
    },
    {
      "icao": "LRBS",
      "iata": "BBU",
      "name": "Bucharest Băneasa Aurel Vlaicu International Airport",
      "lat": 44.503133,
      "lon": 26.102944,
      "updatedAt": "211800Z",
      "visibility_m": 3000,
      "taf_visibility_m": 600,
      "worst_visibility_m": 600,
      "ceiling_ft": 100,
      "hazards": [
        "BR",
        "FZFG",
        "FZRA",
        "RA",
        "SN",
        "FG"
      ],
      "severityScore": 100,
      "metarRaw": "METAR LRBS 211800Z 05005KT 010V070 5000 BR FEW003 M03/M04 Q1017 BECMG 3000 BR",
      "tafRaw": "TAF LRBS 211700Z 2118/2218 06006KT 3000 BR BKN002 \n  BECMG 2119/2121 1500 BR \n  PROB40 \n  TEMPO 2121/2123 0600 FZFG OVC001 \n  BECMG 2123/2201 3000 -RASN BR BKN005 OVC025 \n  PROB40 \n  TEMPO 2202/2206 1500 -FZRA BR OVC002 \n  BECMG 2206/2208 5000 -RA BR BKN010 BKN030 \n  TEMPO 2210/2212 3000 RA OVC005 \n  BECMG 2215/2217 3000 BR OVC005"
    },
    {
      "icao": "LROP",
      "iata": "OTP",
      "name": "Bucharest Henri Coandă International Airport",
      "lat": 44.571792,
      "lon": 26.103285,
      "updatedAt": "211800Z",
      "visibility_m": 5000,
      "taf_visibility_m": 600,
      "worst_visibility_m": 600,
      "ceiling_ft": 100,
      "hazards": [
        "BR",
        "FZFG",
        "FZRA",
        "RA",
        "SN",
        "FG"
      ],
      "severityScore": 100,
      "metarRaw": "METAR LROP 211800Z COR 05008KT 5000 BR NSC M03/M04 Q1017 NOSIG",
      "tafRaw": "TAF LROP 211700Z 2118/2218 06006KT 3000 BR BKN002 \n  BECMG 2119/2121 1500 BR \n  PROB40 \n  TEMPO 2121/2123 0600 FZFG OVC001 \n  BECMG 2123/2201 3000 -RASN BR BKN005 OVC025 \n  PROB40 \n  TEMPO 2202/2206 1500 -FZRA BR OVC002 \n  BECMG 2206/2208 5000 -RA BR BKN010 BKN030 \n  TEMPO 2210/2212 3000 RA OVC005 \n  BECMG 2215/2217 3000 BR OVC005"
    },
    {
      "icao": "LRSV",
      "iata": "SCV",
      "name": "Suceava Stefan cel Mare Airport",
      "lat": 47.6875,
      "lon": 26.35409927368164,
      "updatedAt": "211800Z",
      "visibility_m": 100,
      "taf_visibility_m": 100,
      "worst_visibility_m": 100,
      "ceiling_ft": 100,
      "hazards": [
        "FZFG",
        "FG"
      ],
      "severityScore": 100,
      "metarRaw": "METAR LRSV 211800Z 12005KT 0100 R34/0300N FZFG VV001 M09/M10 Q1012",
      "tafRaw": "TAF LRSV 211700Z 2118/2203 VRB04KT 0100 FZFG VV001 \n  PROB30 \n  TEMPO 2119/2123 0600 VV002 \n  BECMG 2201/2203 16010KT 0600 VV002"
    },
    {
      "icao": "LUKK",
      "iata": "RMO",
      "name": "Chişinău International Airport",
      "lat": 46.9277,
      "lon": 28.931,
      "updatedAt": "211800Z",
      "visibility_m": 10000,
      "taf_visibility_m": 800,
      "worst_visibility_m": 800,
      "ceiling_ft": 1300,
      "hazards": [
        "FZFG",
        "BR",
        "FZRA",
        "SN",
        "FG",
        "RA"
      ],
      "severityScore": 100,
      "metarRaw": "METAR LUKK 211800Z 20011KT 9999 OVC013 M01/M03 Q1018 NOSIG",
      "tafRaw": "TAF LUKK 211724Z 2118/2218 16008KT 9999 BKN010 \n  BECMG 2119/2121 5000 BR BKN006 \n  BECMG 2121/2123 3000 BR BKN004 \n  TEMPO 2123/2207 0800 FZFG VV/// \n  TEMPO 2215/2218 1500 -RASN BR \n  PROB40 \n  TEMPO 2215/2218 -FZRA"
    },
    {
      "icao": "LYBE",
      "iata": "BEG",
      "name": "Belgrade Nikola Tesla Airport",
      "lat": 44.818401,
      "lon": 20.309099,
      "updatedAt": "211800Z",
      "visibility_m": 7000,
      "taf_visibility_m": 500,
      "worst_visibility_m": 500,
      "ceiling_ft": 600,
      "hazards": [
        "FZFG",
        "BR",
        "FG"
      ],
      "severityScore": 100,
      "metarRaw": "METAR LYBE 211800Z 30005KT 7000 SCT007 BKN022 M05/M06 Q1012 TEMPO BKN006",
      "tafRaw": "TAF LYBE 211700Z 2118/2218 30005KT 5000 BR BKN006 TX02/2212Z TNM06/2205Z \n  BECMG 2119/2121 2500 BKN003 \n  PROB30 \n  TEMPO 2202/2209 0500 FZFG \n  BECMG 2210/2212 5000 SCT004 SCT040 \n  BECMG 2216/2218 2500"
    },
    {
      "icao": "LZIB",
      "iata": "BTS",
      "name": "M. R. Štefánik Airport",
      "lat": 48.1702,
      "lon": 17.2127,
      "updatedAt": "211800Z",
      "visibility_m": 10000,
      "taf_visibility_m": 700,
      "worst_visibility_m": 700,
      "ceiling_ft": 400,
      "hazards": [
        "FZFG",
        "BR",
        "FG"
      ],
      "severityScore": 100,
      "metarRaw": "METAR LZIB 211800Z 09003KT 9999 FEW010 M05/M07 Q1011 NOSIG",
      "tafRaw": "TAF LZIB 211724Z 2118/2218 12005KT 9999 FEW011 \n  TEMPO 2200/2208 2500 BR BKN009 \n  PROB30 \n  TEMPO 2203/2208 0700 FZFG OVC004 \n  BECMG 2210/2212 CAVOK"
    },
    {
      "icao": "UAAA",
      "iata": "ALA",
      "name": "Almaty International Airport",
      "lat": 43.354267,
      "lon": 77.042828,
      "updatedAt": "211818Z",
      "visibility_m": 1400,
      "taf_visibility_m": 200,
      "worst_visibility_m": 200,
      "ceiling_ft": 500,
      "hazards": [
        "BR",
        "FZFG",
        "FG"
      ],
      "severityScore": 100,
      "metarRaw": "SPECI UAAA 211818Z 25004MPS 1400 R05R/P2000 BR BKN005 M13/M15 Q1012 NOSIG RMK QBB160",
      "tafRaw": "TAF UAAA 211700Z 2118/2218 24003MPS 1000 BR FU SCT011 BKN050 TXM04/2208Z TNM12/2202Z \n  TEMPO 2118/2206 0200 FZFG VV001 \n  FM220600 32003MPS 3100 BR FU SCT050CB BKN100 \n  TEMPO 2206/2218 26003G08MPS 1200"
    },
    {
      "icao": "EPPO",
      "iata": "POZ",
      "name": "Poznań-Ławica Airport",
      "lat": 52.421598,
      "lon": 16.823359,
      "updatedAt": "211800Z",
      "visibility_m": 6000,
      "taf_visibility_m": 500,
      "worst_visibility_m": 500,
      "ceiling_ft": null,
      "hazards": [
        "FZFG",
        "BR",
        "FG"
      ],
      "severityScore": 95,
      "metarRaw": "METAR EPPO 211800Z 05003KT 6000 NSC M04/M07 Q1008",
      "tafRaw": "TAF EPPO 211730Z 2118/2218 11005KT 5000 BR NSC \n  TEMPO 2118/2120 2500 HZ BR \n  BECMG 2120/2123 1200 BR \n  TEMPO 2120/2207 0500 FZFG \n  BECMG 2207/2209 CAVOK"
    },
    {
      "icao": "LEXJ",
      "iata": "SDR",
      "name": "Seve Ballesteros-Santander Airport",
      "lat": 43.427101,
      "lon": -3.82001,
      "updatedAt": "211800Z",
      "visibility_m": 10000,
      "taf_visibility_m": 1500,
      "worst_visibility_m": 1500,
      "ceiling_ft": null,
      "hazards": [
        "RA",
        "TSRA",
        "SHRA",
        "TS"
      ],
      "severityScore": 86,
      "metarRaw": "METAR LEXJ 211800Z 16003KT 120V260 9999 -RA SCT010 10/08 Q0991",
      "tafRaw": "TAF LEXJ 211400Z 2115/2215 24009KT 9999 SCT040 TX16/2115Z TN08/2206Z \n  TEMPO 2115/2119 3000 SHRA SCT030TCU \n  TEMPO 2115/2116 20019G29KT \n  PROB30 \n  TEMPO 2116/2119 VRB19G29KT 1500 TSRA SCT030CB \n  TEMPO 2119/2122 26019G29KT \n  PROB40 \n  TEMPO 2200/2207 RA"
    },
    {
      "icao": "LFBD",
      "iata": "BOD",
      "name": "Bordeaux–Mérignac Airport",
      "lat": 44.82865,
      "lon": -0.715356,
      "updatedAt": "211800Z",
      "visibility_m": 3500,
      "taf_visibility_m": 1500,
      "worst_visibility_m": 1500,
      "ceiling_ft": null,
      "hazards": [
        "RA",
        "SHRA",
        "TSRA",
        "TS"
      ],
      "severityScore": 86,
      "metarRaw": "METAR LFBD 211800Z AUTO 16011KT 8000 RA NSC 12/09 Q0991 TEMPO 20015G25KT 3500 -SHRA BKN035TCU",
      "tafRaw": "TAF LFBD 211700Z 2118/2224 18010KT CAVOK TX12/2214Z TN07/2221Z \n  TEMPO 2118/2218 3500 -SHRA BKN035TCU \n  PROB40 \n  TEMPO 2118/2207 20015G25KT \n  PROB30 \n  TEMPO 2122/2206 2000 -TSRA BKN020CB \n  PROB30 \n  TEMPO 2207/2214 24020G40KT 1500 TSRA BKN025CB"
    },
    {
      "icao": "EPSY",
      "iata": "SZY",
      "name": "Olsztyn-Mazury Airport",
      "lat": 53.481899,
      "lon": 20.9377,
      "updatedAt": "211800Z",
      "visibility_m": 2000,
      "taf_visibility_m": 600,
      "worst_visibility_m": 600,
      "ceiling_ft": null,
      "hazards": [
        "BR",
        "FZFG",
        "FG"
      ],
      "severityScore": 85,
      "metarRaw": "METAR EPSY 211800Z 02002KT 2000 BR NSC M13/M14 Q1010",
      "tafRaw": "TAF EPSY 211730Z 2118/2203 VRB02KT 2000 BR NSC \n  TEMPO 2118/2122 4000 BR \n  PROB40 \n  TEMPO 2200/2203 0600 FZFG"
    },
    {
      "icao": "EPWR",
      "iata": "WRO",
      "name": "Copernicus Wrocław Airport",
      "lat": 51.103719,
      "lon": 16.882096,
      "updatedAt": "211800Z",
      "visibility_m": 10000,
      "taf_visibility_m": 800,
      "worst_visibility_m": 800,
      "ceiling_ft": null,
      "hazards": [
        "FZFG",
        "BR",
        "FG"
      ],
      "severityScore": 85,
      "metarRaw": "METAR EPWR 211800Z 15004KT CAVOK 00/M09 Q1008",
      "tafRaw": "TAF EPWR 211730Z 2118/2218 17005KT CAVOK \n  PROB40 2123/2207 2000 BR \n  PROB30 \n  TEMPO 2200/2207 0800 FZFG \n  BECMG 2207/2209 11010KT"
    },
    {
      "icao": "LWSK",
      "iata": "SKP",
      "name": "Skopje International Airport",
      "lat": 41.958087,
      "lon": 21.622581,
      "updatedAt": "211820Z",
      "visibility_m": 3500,
      "taf_visibility_m": 800,
      "worst_visibility_m": 800,
      "ceiling_ft": 1000,
      "hazards": [
        "BR",
        "FG",
        "SN"
      ],
      "severityScore": 85,
      "metarRaw": "METAR LWSK 211820Z VRB02KT 3500 BR SCT004 BKN010 OVC030 M00/M01 Q1013 NOSIG",
      "tafRaw": "TAF LWSK 211730Z 2118/2218 VRB02KT 4000 BR SCT020 OVC060 \n  TEMPO 2118/2122 2000 BR SN SCT004 BKN010 OVC030 \n  PROB30 \n  TEMPO 2203/2207 0800 FG BKN004 OVC010"
    },
    {
      "icao": "LIBG",
      "iata": "TAR",
      "name": "Taranto-Grottaglie Marcello Arlotta Airport",
      "lat": 40.517502,
      "lon": 17.4032,
      "updatedAt": "211750Z",
      "visibility_m": 5000,
      "taf_visibility_m": 2000,
      "worst_visibility_m": 2000,
      "ceiling_ft": 2500,
      "hazards": [
        "SHRA",
        "RA",
        "TSRA",
        "TS"
      ],
      "severityScore": 76,
      "metarRaw": "METAR LIBG 211750Z 10006KT 5000 SHRA BKN025 10/10 Q1002",
      "tafRaw": "TAF LIBG 211700Z 2118/2203 07012KT 7000 SCT015 BKN030 \n  TEMPO 2118/2124 2000 TSRA BKN010 \n  BECMG 2120/2122 VRB05KT"
    },
    {
      "icao": "LMML",
      "iata": "MLA",
      "name": "Malta International Airport",
      "lat": 35.857498,
      "lon": 14.4775,
      "updatedAt": "211815Z",
      "visibility_m": 10000,
      "taf_visibility_m": 4000,
      "worst_visibility_m": 4000,
      "ceiling_ft": 3000,
      "hazards": [
        "RA",
        "TSRA",
        "SHRA",
        "TS"
      ],
      "severityScore": 76,
      "metarRaw": "METAR LMML 211815Z VRB02KT 9999 -RA SCT019 BKN030 11/10 Q1000 NOSIG",
      "tafRaw": "TAF LMML 211700Z 2118/2218 20010KT 9999 SCT015 \n  TEMPO 2118/2218 8000 SHRA BKN015 \n  PROB40 \n  TEMPO 2118/2218 VRB20G30KT 4000 TSRA TSRAGS BKN015CB \n  BECMG 2203/2206 31010KT \n  BECMG 2212/2215 25010KT"
    },
    {
      "icao": "LKPR",
      "iata": "PRG",
      "name": "Václav Havel Airport Prague",
      "lat": 50.100874,
      "lon": 14.259911,
      "updatedAt": "211800Z",
      "visibility_m": 9000,
      "taf_visibility_m": 1200,
      "worst_visibility_m": 1200,
      "ceiling_ft": 400,
      "hazards": [
        "BR",
        "FG"
      ],
      "severityScore": 75,
      "metarRaw": "METAR LKPR 211800Z 33004KT 280V350 9000 NSC M08/M09 Q1007 NOSIG",
      "tafRaw": "TAF LKPR 211700Z 2118/2224 16005KT CAVOK \n  BECMG 2122/2124 5000 BR SCT005 BKN015 \n  TEMPO 2200/2210 2500 BR BKN005 \n  PROB30 \n  TEMPO 2204/2209 VRB02KT 1200 BR MIFG OVC004 \n  BECMG 2210/2212 VRB02KT 9999 \n  TEMPO 2212/2222 SCT020"
    },
    {
      "icao": "LPPT",
      "iata": "LIS",
      "name": "Lisbon Humberto Delgado Airport",
      "lat": 38.7813,
      "lon": -9.13592,
      "updatedAt": "211800Z",
      "visibility_m": 7000,
      "taf_visibility_m": 3000,
      "worst_visibility_m": 3000,
      "ceiling_ft": 600,
      "hazards": [
        "BR",
        "SHRA",
        "RA",
        "DZ"
      ],
      "severityScore": 71,
      "metarRaw": "METAR LPPT 211800Z 27007KT 230V310 7000 FEW010 SCT018 14/10 Q1006",
      "tafRaw": "TAF LPPT 211700Z 2118/2224 30012KT 9999 SCT020 \n  TEMPO 2118/2124 29015G25KT 8000 SHRA SCT006 BKN012 FEW020CB \n  BECMG 2204/2206 25008KT \n  BECMG 2210/2212 21013KT SCT008 BKN020 \n  TEMPO 2212/2218 21018G30KT 3000 RADZ BR SCT003 BKN006 \n  BECMG 2218/2220 29018G30KT SCT018"
    },
    {
      "icao": "LZKZ",
      "iata": "KSC",
      "name": "Košice International Airport",
      "lat": 48.663101,
      "lon": 21.2411,
      "updatedAt": "211800Z",
      "visibility_m": 10000,
      "taf_visibility_m": 2500,
      "worst_visibility_m": 2500,
      "ceiling_ft": 400,
      "hazards": [
        "BR",
        "FG"
      ],
      "severityScore": 65,
      "metarRaw": "METAR LZKZ 211800Z 28002KT CAVOK M03/M08 Q1011 NOSIG",
      "tafRaw": "TAF LZKZ 211724Z 2118/2218 VRB02KT CAVOK \n  PROB30 \n  TEMPO 2200/2209 2500 BR BCFG FEW001 BKN004"
    },
    {
      "icao": "LZTT",
      "iata": "TAT",
      "name": "Poprad-Tatry Airport",
      "lat": 49.073601,
      "lon": 20.2411,
      "updatedAt": "211800Z",
      "visibility_m": 10000,
      "taf_visibility_m": 2500,
      "worst_visibility_m": 2500,
      "ceiling_ft": 100,
      "hazards": [
        "BR",
        "FG"
      ],
      "severityScore": 65,
      "metarRaw": "METAR LZTT 211800Z 19007KT 160V220 CAVOK M04/M15 Q1009 NOSIG",
      "tafRaw": "TAF LZTT 211724Z 2118/2218 27005KT CAVOK \n  TEMPO 2200/2209 9999 BKN004 BKN014 \n  PROB30 \n  TEMPO 2200/2209 2500 BR BCFG BKN001 OVC009 \n  BECMG 2216/2218 VRB02KT 9999 FEW020 BKN030"
    },
    {
      "icao": "EFTU",
      "iata": "TKU",
      "name": "Turku Airport",
      "lat": 60.514099,
      "lon": 22.2628,
      "updatedAt": "211820Z",
      "visibility_m": 10000,
      "taf_visibility_m": 5000,
      "worst_visibility_m": 5000,
      "ceiling_ft": 600,
      "hazards": [
        "FZDZ",
        "DZ"
      ],
      "severityScore": 63,
      "metarRaw": "METAR EFTU 211820Z AUTO 09011KT 9999 OVC006 M04/M05 Q1024",
      "tafRaw": "TAF EFTU 211734Z 2118/2218 09009KT 9999 OVC007 \n  PROB40 \n  TEMPO 2118/2122 5000 -FZDZ OVC004 \n  TEMPO 2122/2208 SCT008 OVC020 \n  BECMG 2208/2210 BKN010"
    },
    {
      "icao": "ESSA",
      "iata": "ARN",
      "name": "Stockholm-Arlanda Airport",
      "lat": 59.64849,
      "lon": 17.928829,
      "updatedAt": "211750Z",
      "visibility_m": 4000,
      "taf_visibility_m": 2500,
      "worst_visibility_m": 2500,
      "ceiling_ft": 400,
      "hazards": [
        "SN",
        "SHSN"
      ],
      "severityScore": 63,
      "metarRaw": "METAR ESSA 211750Z 07011KT 4000 -SN BKN007 M01/M01 Q1020 TEMPO SHSN OVC004",
      "tafRaw": "TAF ESSA 211730Z 2118/2218 06012KT 6000 -SN OVC020 \n  TEMPO 2118/2218 2500 -SHSN BKN006 BKN020TCU"
    },
    {
      "icao": "LRSB",
      "iata": "SBZ",
      "name": "Sibiu International Airport",
      "lat": 45.785841,
      "lon": 24.086666,
      "updatedAt": "211800Z",
      "visibility_m": 4500,
      "taf_visibility_m": 1500,
      "worst_visibility_m": 1500,
      "ceiling_ft": 500,
      "hazards": [
        "BR",
        "SN"
      ],
      "severityScore": 63,
      "metarRaw": "METAR LRSB 211800Z VRB02KT 4500 BR SCT070 M06/M07 Q1011",
      "tafRaw": "TAF LRSB 211700Z 2118/2218 VRB04KT 5000 BR NSC \n  BECMG 2118/2120 14010KT \n  BECMG 2200/2202 VRB04KT 3000 BR \n  BECMG 2209/2211 5000 -SN BR BKN015 BKN030 \n  TEMPO 2212/2218 1500 -SN BR BKN005 OVC025"
    },
    {
      "icao": "LGAV",
      "iata": "ATH",
      "name": "Athens Eleftherios Venizelos International Airport",
      "lat": 37.936401,
      "lon": 23.9445,
      "updatedAt": "211750Z",
      "visibility_m": 3000,
      "taf_visibility_m": 2000,
      "worst_visibility_m": 2000,
      "ceiling_ft": 2500,
      "hazards": [
        "TSRA",
        "TS",
        "RA"
      ],
      "severityScore": 62,
      "metarRaw": "METAR LGAV 211750Z 04006KT 350V070 3000 TSRA SCT015CB BKN025 10/07 Q1007 NOSIG",
      "tafRaw": "TAF LGAV 211700Z 2118/2218 22010G25KT 6000 FEW012 BKN025 BKN070 \n  PROB40 \n  TEMPO 2118/2124 3000 RA SCT012 FEW018TCU BKN020 BKN070 \n  PROB40 \n  TEMPO 2118/2121 2000 TSRA SCT008 SCT018CB BKN020 OVC050 \n  PROB30 \n  TEMPO 2121/2124 4000 TSRA SCT008 FEW018CB BKN020 \n  BECMG 2200/2202 02010KT FEW015 BKN020"
    },
    {
      "icao": "EGBB",
      "iata": "BHX",
      "name": "Birmingham Airport",
      "lat": 52.453899,
      "lon": -1.74803,
      "updatedAt": "211750Z",
      "visibility_m": 8000,
      "taf_visibility_m": 3000,
      "worst_visibility_m": 3000,
      "ceiling_ft": 800,
      "hazards": [
        "RA",
        "SHRA",
        "DZ"
      ],
      "severityScore": 61,
      "metarRaw": "METAR EGBB 211750Z COR 14019KT 8000 -RA OVC008 08/07 Q0985",
      "tafRaw": "TAF EGBB 211704Z 2118/2218 14014KT 9999 BKN012 \n  TEMPO 2118/2124 6000 RA -RADZ BKN008 \n  PROB30 \n  TEMPO 2118/2124 4000 RADZ BKN004 \n  BECMG 2200/2203 BKN008 \n  TEMPO 2200/2212 6000 RA -RADZ BKN004 \n  PROB40 \n  TEMPO 2200/2212 3000 RADZ \n  BECMG 2209/2212 BKN030 \n  TEMPO 2212/2218 7000 RA SHRA BKN012 \n  PROB30 \n  TEMPO 2216/2218 BKN008"
    },
    {
      "icao": "LIBD",
      "iata": "BRI",
      "name": "Bari Karol Wojtyła International Airport",
      "lat": 41.138901,
      "lon": 16.760599,
      "updatedAt": "211750Z",
      "visibility_m": 5000,
      "taf_visibility_m": 4000,
      "worst_visibility_m": 4000,
      "ceiling_ft": 500,
      "hazards": [
        "BR",
        "RA",
        "SHRA"
      ],
      "severityScore": 61,
      "metarRaw": "METAR LIBD 211750Z 09015KT 5000 RA BR BKN005 OVC008 11/10 Q1002",
      "tafRaw": "TAF LIBD 211700Z 2118/2218 11015KT 7000 BKN020 \n  TEMPO 2118/2203 4000 SHRA BKN008 \n  BECMG 2121/2123 25006KT"
    },
    {
      "icao": "EYKA",
      "iata": "KUN",
      "name": "Kaunas International Airport",
      "lat": 54.963965,
      "lon": 24.08582,
      "updatedAt": "211820Z",
      "visibility_m": 5000,
      "taf_visibility_m": 1500,
      "worst_visibility_m": 1500,
      "ceiling_ft": 200,
      "hazards": [
        "BR"
      ],
      "severityScore": 55,
      "metarRaw": "METAR EYKA 211820Z VRB06KT 5000 BR NSC M10/M12 Q1014",
      "tafRaw": "TAF EYKA 211110Z 2112/2212 VRB04KT 5000 BR NSC \n  TEMPO 2115/2120 1500 BKN002 \n  BECMG 2120/2122 09012KT BKN005"
    },
    {
      "icao": "LRIA",
      "iata": "IAS",
      "name": "Iaşi Airport",
      "lat": 47.180278,
      "lon": 27.620833,
      "updatedAt": "211800Z",
      "visibility_m": 10000,
      "taf_visibility_m": 1500,
      "worst_visibility_m": 1500,
      "ceiling_ft": 200,
      "hazards": [
        "BR"
      ],
      "severityScore": 55,
      "metarRaw": "METAR LRIA 211800Z 12008KT CAVOK M04/M05 Q1016",
      "tafRaw": "TAF LRIA 211700Z 2118/2203 12008KT CAVOK \n  BECMG 2119/2121 5000 BR BKN010 \n  PROB40 \n  TEMPO 2121/2203 1500 BR OVC002"
    },
    {
      "icao": "LRBC",
      "iata": "BCM",
      "name": "Bacău George Enescu International  Airport",
      "lat": 46.5219,
      "lon": 26.910299,
      "updatedAt": "211800Z",
      "visibility_m": 7000,
      "taf_visibility_m": 1500,
      "worst_visibility_m": 1500,
      "ceiling_ft": 400,
      "hazards": [
        "BR"
      ],
      "severityScore": 55,
      "metarRaw": "METAR LRBC 211800Z 16012KT 7000 OVC004 M02/M04 Q1015",
      "tafRaw": "TAF LRBC 211700Z 2118/2203 17012KT 8000 OVC005 \n  BECMG 2120/2122 3000 BR OVC002 \n  TEMPO 2122/2203 1500 BR"
    },
    {
      "icao": "LRTM",
      "iata": "TGM",
      "name": "Târgu Mureş Transilvania International Airport",
      "lat": 46.467701,
      "lon": 24.4125,
      "updatedAt": "211800Z",
      "visibility_m": 3100,
      "taf_visibility_m": 1500,
      "worst_visibility_m": 1500,
      "ceiling_ft": 200,
      "hazards": [
        "BR"
      ],
      "severityScore": 55,
      "metarRaw": "METAR LRTM 211800Z AUTO VRB02KT 3100 BR NCD M14/M16 Q1013",
      "tafRaw": "TAF LRTM 211400Z 2115/2124 VRB04KT 1500 BR BKN002 \n  TEMPO 2115/2117 3000 BKN005"
    },
    {
      "icao": "ESKN",
      "iata": "NYO",
      "name": "Stockholm Skavsta Airport",
      "lat": 58.789656,
      "lon": 16.911479,
      "updatedAt": "211750Z",
      "visibility_m": 2100,
      "taf_visibility_m": 2500,
      "worst_visibility_m": 2100,
      "ceiling_ft": 600,
      "hazards": [
        "BR",
        "SN"
      ],
      "severityScore": 53,
      "metarRaw": "METAR ESKN 211750Z 07010KT 2100 -SN BR BKN006 BKN012 00/M00 Q1018",
      "tafRaw": "TAF ESKN 211730Z 2118/2218 07010KT 9999 OVC020 \n  PROB40 2118/2218 2500 -SN BR BKN009 BKN020TCU"
    },
    {
      "icao": "LFPO",
      "iata": "ORY",
      "name": "Paris-Orly Airport",
      "lat": 48.72333,
      "lon": 2.37944,
      "updatedAt": "211800Z",
      "visibility_m": 10000,
      "taf_visibility_m": 4500,
      "worst_visibility_m": 4500,
      "ceiling_ft": 800,
      "hazards": [
        "RA",
        "SHRA"
      ],
      "severityScore": 51,
      "metarRaw": "METAR LFPO 211800Z AUTO 14010KT CAVOK 12/04 Q0993",
      "tafRaw": "TAF LFPO 211700Z 2118/2224 14010KT CAVOK \n  TEMPO 2118/2203 4500 -RA \n  PROB40 \n  TEMPO 2209/2214 BKN012 \n  PROB30 \n  TEMPO 2209/2214 BKN008 \n  BECMG 2211/2214 20010KT \n  PROB40 \n  TEMPO 2214/2219 4500 -SHRA SCT020TCU"
    },
    {
      "icao": "EGPD",
      "iata": "ABZ",
      "name": "Aberdeen International Airport",
      "lat": 57.2019,
      "lon": -2.19778,
      "updatedAt": "211750Z",
      "visibility_m": 4000,
      "taf_visibility_m": 3000,
      "worst_visibility_m": 3000,
      "ceiling_ft": 600,
      "hazards": [
        "RA",
        "DZ"
      ],
      "severityScore": 47,
      "metarRaw": "METAR EGPD 211750Z 12017KT 6000 -RA BKN008 07/06 Q0993 TEMPO 4000 RA BKN006",
      "tafRaw": "TAF EGPD 211703Z 2118/2218 14018KT 9999 SCT012 BKN015 \n  BECMG 2118/2120 13022G38KT \n  TEMPO 2118/2208 5000 RA -RADZ BKN012 \n  PROB30 \n  TEMPO 2118/2123 3000 +RA BKN006 \n  PROB30 \n  TEMPO 2208/2218 8000 -RA BKN014"
    },
    {
      "icao": "EGPF",
      "iata": "GLA",
      "name": "Glasgow Airport",
      "lat": 55.871899,
      "lon": -4.43306,
      "updatedAt": "211750Z",
      "visibility_m": 10000,
      "taf_visibility_m": 4000,
      "worst_visibility_m": 4000,
      "ceiling_ft": 800,
      "hazards": [
        "RA",
        "DZ"
      ],
      "severityScore": 47,
      "metarRaw": "METAR EGPF 211750Z AUTO 07014KT 9999 -RA BKN019/// //////TCU 07/05 Q0985",
      "tafRaw": "TAF EGPF 211700Z 2118/2218 08016G28KT 9999 BKN025 \n  TEMPO 2118/2218 6000 RA -RADZ BKN012 \n  PROB30 \n  TEMPO 2118/2212 4000 +RA RADZ BKN008 \n  BECMG 2203/2206 10011KT \n  PROB30 \n  TEMPO 2206/2218 09018G28KT"
    },
    {
      "icao": "LEMD",
      "iata": "MAD",
      "name": "Adolfo Suárez Madrid–Barajas Airport",
      "lat": 40.471926,
      "lon": -3.56264,
      "updatedAt": "211800Z",
      "visibility_m": 6000,
      "taf_visibility_m": 3000,
      "worst_visibility_m": 3000,
      "ceiling_ft": 600,
      "hazards": [
        "DZ",
        "RA"
      ],
      "severityScore": 47,
      "metarRaw": "METAR LEMD 211800Z 20006KT 6000 DZ BKN006 OVC012 08/07 Q0999 NOSIG",
      "tafRaw": "TAF LEMD 211700Z 2118/2224 VRB05KT 9999 BKN010 TX10/2215Z TN04/2207Z \n  TEMPO 2118/2124 VRB15G25KT 3000 RA \n  BECMG 2200/2202 NSC"
    },
    {
      "icao": "EGKK",
      "iata": "LGW",
      "name": "London Gatwick Airport",
      "lat": 51.148771,
      "lon": -0.192089,
      "updatedAt": "211750Z",
      "visibility_m": 3700,
      "taf_visibility_m": 3000,
      "worst_visibility_m": 3000,
      "ceiling_ft": 2500,
      "hazards": [
        "RA",
        "BR",
        "SHRA",
        "DZ"
      ],
      "severityScore": 46,
      "metarRaw": "METAR EGKK 211750Z 13009KT 3700 -RA SCT010 BKN025 09/08 Q0988 RERA",
      "tafRaw": "TAF EGKK 211704Z 2118/2224 13012KT 9999 SCT016 \n  TEMPO 2118/2210 6000 RA -DZ BKN012 \n  PROB40 \n  TEMPO 2118/2121 14015G25KT \n  PROB30 \n  TEMPO 2118/2210 3000 +RA RADZ BKN008 \n  TEMPO 2210/2218 6000 SHRA BKN008 \n  PROB40 \n  TEMPO 2210/2218 3000 +SHRA \n  PROB30 \n  TEMPO 2222/2224 5000 BR"
    },
    {
      "icao": "LPPR",
      "iata": "OPO",
      "name": "Francisco de Sá Carneiro Airport",
      "lat": 41.2481002808,
      "lon": -8.68138980865,
      "updatedAt": "211800Z",
      "visibility_m": 9000,
      "taf_visibility_m": 3000,
      "worst_visibility_m": 3000,
      "ceiling_ft": 3000,
      "hazards": [
        "SHRA",
        "RA",
        "BR",
        "DZ"
      ],
      "severityScore": 46,
      "metarRaw": "METAR LPPR 211800Z 30014G25KT 260V340 9000 -SHRA SCT022 SCT025CB BKN030 12/08 Q1000",
      "tafRaw": "TAF LPPR 211700Z 2118/2218 30013KT 9999 SCT020 \n  TEMPO 2118/2206 29018G32KT 8000 SHRAGS SCT008 BKN012 FEW020CB \n  BECMG 2207/2209 25010KT \n  BECMG 2212/2214 18015KT 6000 -RA SCT012 BKN025 \n  TEMPO 2214/2218 18018G33KT 3000 RADZ BR SCT004 BKN008"
    },
    {
      "icao": "EDFH",
      "iata": "HHN",
      "name": "Frankfurt-Hahn Airport",
      "lat": 49.946353,
      "lon": 7.261734,
      "updatedAt": "211750Z",
      "visibility_m": 6000,
      "taf_visibility_m": 1200,
      "worst_visibility_m": 1200,
      "ceiling_ft": 500,
      "hazards": [
        "BR"
      ],
      "severityScore": 45,
      "metarRaw": "METAR EDFH 211750Z 13013KT 6000 NSC M03/M04 Q1000",
      "tafRaw": "TAF EDFH 211700Z 2118/2218 14013KT 5000 BR NSC \n  TEMPO 2118/2203 1200 BR BKN005 \n  BECMG 2217/2218 BKN010"
    },
    {
      "icao": "EETN",
      "iata": "TLL",
      "name": "Lennart Meri Tallinn Airport",
      "lat": 59.413246,
      "lon": 24.83264,
      "updatedAt": "211820Z",
      "visibility_m": 9000,
      "taf_visibility_m": 3000,
      "worst_visibility_m": 3000,
      "ceiling_ft": 400,
      "hazards": [
        "BR"
      ],
      "severityScore": 45,
      "metarRaw": "METAR EETN 211820Z 09017KT 9000 OVC006 M04/M05 Q1023 TEMPO OVC004",
      "tafRaw": "TAF EETN 211730Z 2118/2218 10012KT 9999 BKN006 OVC015 \n  TEMPO 2118/2123 SCT006 OVC015 \n  PROB40 \n  TEMPO 2123/2206 3000 BR OVC003"
    },
    {
      "icao": "EYVI",
      "iata": "VNO",
      "name": "Vilnius International Airport",
      "lat": 54.634102,
      "lon": 25.285801,
      "updatedAt": "211820Z",
      "visibility_m": 5000,
      "taf_visibility_m": 1500,
      "worst_visibility_m": 1500,
      "ceiling_ft": 500,
      "hazards": [
        "BR"
      ],
      "severityScore": 45,
      "metarRaw": "METAR EYVI 211820Z 07005KT 5000 BR NSC M11/M13 Q1014 NOSIG",
      "tafRaw": "TAF EYVI 211714Z 2118/2218 09008KT 5000 BR NSC \n  TEMPO 2118/2203 3000 \n  PROB30 \n  TEMPO 2118/2203 1500 \n  TEMPO 2203/2207 1500 BKN005 \n  BECMG 2207/2209 9000 NSW BKN010 \n  TEMPO 2209/2212 SCT010"
    },
    {
      "icao": "LIME",
      "iata": "BGY",
      "name": "Milan Bergamo Airport / Antonio Locatelli Air Base",
      "lat": 45.670725,
      "lon": 9.709223,
      "updatedAt": "211750Z",
      "visibility_m": 10000,
      "taf_visibility_m": 4000,
      "worst_visibility_m": 4000,
      "ceiling_ft": 800,
      "hazards": [
        "FG"
      ],
      "severityScore": 45,
      "metarRaw": "METAR LIME 211750Z 08002KT CAVOK 02/M01 Q1006 NOSIG",
      "tafRaw": "TAF LIME 211700Z 2118/2218 VRB04KT 7000 FEW020 \n  TEMPO 2121/2205 4000 BCFG BKN008"
    },
    {
      "icao": "LPPS",
      "iata": "PXO",
      "name": "Porto Santo Airport",
      "lat": 33.0733985901,
      "lon": -16.3500003815,
      "updatedAt": "211800Z",
      "visibility_m": 10000,
      "taf_visibility_m": 3000,
      "worst_visibility_m": 3000,
      "ceiling_ft": 1000,
      "hazards": [
        "BR",
        "RA",
        "DZ"
      ],
      "severityScore": 44,
      "metarRaw": "METAR LPPS 211800Z 30013KT 9999 SCT004 BKN010 17/16 Q1018",
      "tafRaw": "TAF LPPS 211700Z 2118/2224 29015KT 9999 SCT015 \n  TEMPO 2118/2224 30017G27KT 3000 -RADZ BR SCT003 BKN006"
    },
    {
      "icao": "BKPR",
      "iata": "PRN",
      "name": "Priština Adem Jashari International Airport",
      "lat": 42.5728,
      "lon": 21.035801,
      "updatedAt": "211800Z",
      "visibility_m": 10000,
      "taf_visibility_m": 4000,
      "worst_visibility_m": 4000,
      "ceiling_ft": 1500,
      "hazards": [
        "BR",
        "SN"
      ],
      "severityScore": 40,
      "metarRaw": "METAR BKPR 211800Z 16005KT 9999 FEW025 SCT080 00/M01 Q1009 NOSIG",
      "tafRaw": "TAF BKPR 211730Z 2118/2218 17008KT 9999 SCT030 \n  PROB30 \n  TEMPO 2205/2209 4000 -SN BR BKN015"
    },
    {
      "icao": "LBSF",
      "iata": "SOF",
      "name": "Sofia Airport",
      "lat": 42.696357,
      "lon": 23.417671,
      "updatedAt": "211800Z",
      "visibility_m": 5000,
      "taf_visibility_m": 1500,
      "worst_visibility_m": 1500,
      "ceiling_ft": 1500,
      "hazards": [
        "SN"
      ],
      "severityScore": 40,
      "metarRaw": "METAR LBSF 211800Z AUTO 12008KT 9999 -SN SCT014/// OVC017/// M01/M04 Q1014 TEMPO 5000 -SN BKN015 OVC020",
      "tafRaw": "TAF LBSF 211700Z 2118/2218 12010KT 8000 SCT015 BKN020 OVC050 \n  TEMPO 2118/2121 1500 SN BKN010 OVC020 \n  PROB40 \n  TEMPO 2121/2205 5000 -SN BKN015 OVC030"
    },
    {
      "icao": "LTAC",
      "iata": "ESB",
      "name": "Esenboğa International Airport",
      "lat": 40.128101,
      "lon": 32.995098,
      "updatedAt": "211750Z",
      "visibility_m": 10000,
      "taf_visibility_m": 4000,
      "worst_visibility_m": 4000,
      "ceiling_ft": 10000,
      "hazards": [
        "BR",
        "SN",
        "RA"
      ],
      "severityScore": 40,
      "metarRaw": "METAR LTAC 211750Z 03005KT 9999 FEW040 BKN100 M03/M07 Q1021 NOSIG RMK RWY21C 05004KT RWY03L 03006KT RWY21R 03004KT RWY03R 03004KT RWY21L 06003KT 030V090",
      "tafRaw": "TAF LTAC 211640Z 2118/2218 VRB02KT 9999 SCT040 BKN100 \n  PROB30 \n  TEMPO 2203/2206 4000 BR \n  TEMPO 2208/2212 4000 -SN SCT010 BKN030 BKN080 \n  TEMPO 2212/2216 4000 -SNRA SCT010 BKN030 BKN080"
    },
    {
      "icao": "LFOB",
      "iata": "BVA",
      "name": "Beauvais Tillé airport",
      "lat": 49.454399,
      "lon": 2.11278,
      "updatedAt": "211800Z",
      "visibility_m": 4000,
      "taf_visibility_m": 4000,
      "worst_visibility_m": 4000,
      "ceiling_ft": 1400,
      "hazards": [
        "SHRA",
        "RA"
      ],
      "severityScore": 38,
      "metarRaw": "METAR LFOB 211800Z AUTO 14015KT 9999 OVC049 11/05 Q0992 TEMPO 4000 SHRA BKN014 BKN020TCU",
      "tafRaw": "TAF LFOB 211700Z 2118/2218 15014KT CAVOK \n  TEMPO 2119/2124 4000 SHRA BKN014 BKN020TCU \n  BECMG 2201/2204 BKN014 BKN020 \n  PROB30 \n  TEMPO 2214/2218 4000 -SHRA BKN012TCU"
    },
    {
      "icao": "LRCV",
      "iata": "CRA",
      "name": "Craiova International Airport",
      "lat": 44.3181,
      "lon": 23.888599,
      "updatedAt": "211800Z",
      "visibility_m": 7000,
      "taf_visibility_m": 1500,
      "worst_visibility_m": 1500,
      "ceiling_ft": 3300,
      "hazards": [
        "BR",
        "SN"
      ],
      "severityScore": 38,
      "metarRaw": "METAR LRCV 211800Z 09004KT 060V120 7000 BKN033 M03/M05 Q1016",
      "tafRaw": "TAF LRCV 211700Z 2118/2203 11008KT CAVOK \n  BECMG 2119/2121 5000 BR \n  PROB40 \n  TEMPO 2121/2124 1500 BR BKN005 \n  BECMG 2201/2203 3000 -SN BR BKN010 OVC025"
    },
    {
      "icao": "LEZL",
      "iata": "SVQ",
      "name": "Sevilla Airport",
      "lat": 37.417999,
      "lon": -5.89311,
      "updatedAt": "211800Z",
      "visibility_m": 4500,
      "taf_visibility_m": 4000,
      "worst_visibility_m": 4000,
      "ceiling_ft": 500,
      "hazards": [
        "RA"
      ],
      "severityScore": 37,
      "metarRaw": "METAR LEZL 211800Z 23013KT 4500 -RA BKN005 OVC014 16/16 Q1005 NOSIG",
      "tafRaw": "TAF LEZL 211400Z 2115/2215 20014KT 9999 SCT030 TX15/2115Z TN09/2207Z \n  TEMPO 2115/2120 4000 RA BKN010 \n  PROB40 2115/2118 20015G25KT \n  BECMG 2117/2119 26009KT"
    },
    {
      "icao": "LGTS",
      "iata": "SKG",
      "name": "Thessaloniki Macedonia International Airport",
      "lat": 40.51928,
      "lon": 22.970009,
      "updatedAt": "211750Z",
      "visibility_m": 10000,
      "taf_visibility_m": 5000,
      "worst_visibility_m": 5000,
      "ceiling_ft": 3500,
      "hazards": [
        "RA",
        "TS"
      ],
      "severityScore": 37,
      "metarRaw": "METAR LGTS 211750Z 28010KT 9999 -RA SCT006 BKN035 06/06 Q1012 NOSIG",
      "tafRaw": "TAF LGTS 211700Z 2118/2218 34013KT 9999 FEW010 BKN025 \n  TEMPO 2118/2122 5000 RA \n  BECMG 2210/2212 VRB03KT SCT025"
    },
    {
      "icao": "LEZG",
      "iata": "ZAZ",
      "name": "Zaragoza Airport",
      "lat": 41.666199,
      "lon": -1.04155,
      "updatedAt": "211800Z",
      "visibility_m": 4000,
      "taf_visibility_m": 3000,
      "worst_visibility_m": 3000,
      "ceiling_ft": 8000,
      "hazards": [
        "SHRA",
        "RA",
        "BR"
      ],
      "severityScore": 36,
      "metarRaw": "METAR LEZG 211800Z 15011KT 9999 BKN080 09/07 Q0999 TEMPO 4000 SHRA FEW040TCU",
      "tafRaw": "TAF LEZG 211700Z 2118/2218 13010KT 9999 FEW040 TX13/2215Z TN05/2206Z \n  TEMPO 2118/2124 4000 RA SHRA FEW020TCU BKN030 \n  BECMG 2119/2123 28008KT \n  PROB40 \n  TEMPO 2123/2210 3000 BR BKN005"
    },
    {
      "icao": "LIBR",
      "iata": "BDS",
      "name": "Brindisi Airport",
      "lat": 40.6576,
      "lon": 17.947001,
      "updatedAt": "211750Z",
      "visibility_m": 10000,
      "taf_visibility_m": 8000,
      "worst_visibility_m": 8000,
      "ceiling_ft": 4500,
      "hazards": [
        "BR",
        "SHRA",
        "RA"
      ],
      "severityScore": 36,
      "metarRaw": "METAR LIBR 211750Z 15010KT 130V190 9999 SCT025 BKN045 12/09 Q1002",
      "tafRaw": "TAF LIBR 211700Z 2118/2218 12012KT 8000 BKN030 \n  TEMPO 2118/2206 SHRA \n  BECMG 2206/2208 VRB05KT"
    },
    {
      "icao": "EYPA",
      "iata": "PLQ",
      "name": "Palanga International Airport",
      "lat": 55.973202,
      "lon": 21.093901,
      "updatedAt": "211820Z",
      "visibility_m": 5000,
      "taf_visibility_m": 3000,
      "worst_visibility_m": 3000,
      "ceiling_ft": 500,
      "hazards": [
        "BR"
      ],
      "severityScore": 35,
      "metarRaw": "METAR EYPA 211820Z 09009KT 5000 BR NSC M11/M15 Q1013",
      "tafRaw": "TAF EYPA 211714Z 2118/2218 08010KT 5000 BR NSC \n  TEMPO 2118/2202 3000 \n  PROB40 \n  TEMPO 2118/2202 BKN005 \n  TEMPO 2202/2206 3000 BKN010 \n  TEMPO 2206/2218 BKN010"
    },
    {
      "icao": "LOWW",
      "iata": "VIE",
      "name": "Vienna International Airport",
      "lat": 48.110298,
      "lon": 16.5697,
      "updatedAt": "211750Z",
      "visibility_m": 4000,
      "taf_visibility_m": 2000,
      "worst_visibility_m": 2000,
      "ceiling_ft": 700,
      "hazards": [
        "BR"
      ],
      "severityScore": 35,
      "metarRaw": "METAR LOWW 211750Z 14010KT 6000 FEW006 OVC007 M06/M07 Q1010 BECMG 4000 BR",
      "tafRaw": "TAF LOWW 211715Z 2118/2224 14013KT 4000 BR OVC006 TXM03/2214Z TNM07/2205Z \n  PROB40 \n  TEMPO 2118/2208 2000 OVC004 \n  TEMPO 2212/2224 8000 OVC010 \n  BECMG 2216/2218 14006KT"
    },
    {
      "icao": "EGGP",
      "iata": "LPL",
      "name": "Liverpool John Lennon Airport",
      "lat": 53.334863,
      "lon": -2.849637,
      "updatedAt": "211750Z",
      "visibility_m": 10000,
      "taf_visibility_m": 3000,
      "worst_visibility_m": 3000,
      "ceiling_ft": 1200,
      "hazards": [
        "RA",
        "DZ"
      ],
      "severityScore": 34,
      "metarRaw": "METAR EGGP 211750Z 13017KT 9999 BKN012 OVC015 09/07 Q0983",
      "tafRaw": "TAF EGGP 211702Z 2118/2218 12018G30KT 9999 BKN012 \n  PROB40 \n  TEMPO 2118/2206 7000 RA -RADZ BKN008 \n  BECMG 2200/2203 13012KT \n  TEMPO 2206/2218 7000 RA -RADZ BKN008 \n  PROB30 \n  TEMPO 2206/2218 3000 RADZ +RA BKN004"
    },
    {
      "icao": "LBWN",
      "iata": "VAR",
      "name": "Varna Airport",
      "lat": 43.232101,
      "lon": 27.8251,
      "updatedAt": "211800Z",
      "visibility_m": 10000,
      "taf_visibility_m": 2000,
      "worst_visibility_m": 2000,
      "ceiling_ft": 1500,
      "hazards": [
        "BR",
        "RA"
      ],
      "severityScore": 34,
      "metarRaw": "METAR LBWN 211800Z AUTO 13003KT 080V160 9999 FEW021/// SCT024/// 03/02 Q1017 NOSIG",
      "tafRaw": "TAF LBWN 211700Z 2118/2218 11010KT 9999 BKN020 \n  TEMPO 2123/2208 5000 RA BKN015 OVC030 \n  TEMPO 2211/2216 2000 BR"
    },
    {
      "icao": "LCLK",
      "iata": "LCA",
      "name": "Larnaca International Airport",
      "lat": 34.875099,
      "lon": 33.624901,
      "updatedAt": "211800Z",
      "visibility_m": 10000,
      "taf_visibility_m": 5000,
      "worst_visibility_m": 5000,
      "ceiling_ft": null,
      "hazards": [
        "SHRA",
        "RA"
      ],
      "severityScore": 26,
      "metarRaw": "METAR LCLK 211800Z 05012KT CAVOK 12/06 Q1022 NOSIG",
      "tafRaw": "TAF LCLK 211730Z 2118/2218 05016KT CAVOK \n  PROB30 \n  TEMPO 2118/2121 35009KT \n  PROB30 \n  TEMPO 2201/2218 5000 SHRA \n  PROB30 \n  TEMPO 2202/2206 05017G27KT"
    },
    {
      "icao": "LCPH",
      "iata": "PFO",
      "name": "Paphos International Airport",
      "lat": 34.717999,
      "lon": 32.485699,
      "updatedAt": "211800Z",
      "visibility_m": 5000,
      "taf_visibility_m": 5000,
      "worst_visibility_m": 5000,
      "ceiling_ft": null,
      "hazards": [
        "RA",
        "SHRA"
      ],
      "severityScore": 26,
      "metarRaw": "METAR LCPH 211800Z 12018KT 090V160 9999 FEW030 14/03 Q1020 TEMPO 5000 RA",
      "tafRaw": "TAF LCPH 211730Z 2118/2218 12020KT CAVOK \n  PROB30 \n  TEMPO 2118/2218 12023G33KT \n  PROB30 \n  TEMPO 2121/2218 5000 SHRA"
    },
    {
      "icao": "LEAL",
      "iata": "ALC",
      "name": "Alicante-Elche Miguel Hernández Airport",
      "lat": 38.2822,
      "lon": -0.558156,
      "updatedAt": "211800Z",
      "visibility_m": 10000,
      "taf_visibility_m": 4000,
      "worst_visibility_m": 4000,
      "ceiling_ft": 2500,
      "hazards": [
        "RA",
        "SHRA"
      ],
      "severityScore": 26,
      "metarRaw": "METAR LEAL 211800Z 20004KT 160V250 CAVOK 14/07 Q1005 NOSIG",
      "tafRaw": "TAF LEAL 211700Z 2118/2218 29010KT 9999 BKN040 TX18/2213Z TN10/2206Z \n  BECMG 2118/2120 VRB04KT \n  PROB40 \n  TEMPO 2120/2204 4000 RA SHRA FEW020TCU BKN025 \n  BECMG 2204/2207 29015KT \n  PROB40 \n  TEMPO 2209/2212 30030G45KT"
    },
    {
      "icao": "LEBL",
      "iata": "BCN",
      "name": "Josep Tarradellas Barcelona-El Prat Airport",
      "lat": 41.2971,
      "lon": 2.07846,
      "updatedAt": "211800Z",
      "visibility_m": 9000,
      "taf_visibility_m": 4000,
      "worst_visibility_m": 4000,
      "ceiling_ft": 3200,
      "hazards": [
        "SHRA",
        "RA"
      ],
      "severityScore": 26,
      "metarRaw": "METAR LEBL 211800Z 24011KT 9000 SCT020 BKN032 13/11 Q1001 NOSIG",
      "tafRaw": "TAF LEBL 211700Z 2118/2218 23010KT 9999 BKN020 TX15/2213Z TN07/2206Z \n  TEMPO 2120/2202 22017G27KT \n  PROB40 \n  TEMPO 2120/2204 4000 SHRA FEW015TCU \n  BECMG 2201/2203 35010KT \n  TEMPO 2212/2216 23008KT"
    },
    {
      "icao": "LEVC",
      "iata": "VLC",
      "name": "Valencia Airport",
      "lat": 39.4893,
      "lon": -0.481625,
      "updatedAt": "211800Z",
      "visibility_m": 10000,
      "taf_visibility_m": 4000,
      "worst_visibility_m": 4000,
      "ceiling_ft": 4800,
      "hazards": [
        "RA",
        "SHRA"
      ],
      "severityScore": 26,
      "metarRaw": "METAR LEVC 211800Z 25005KT 9999 BKN048 12/06 Q1002 NOSIG",
      "tafRaw": "TAF LEVC 211700Z 2118/2218 27006KT 9999 BKN040 TX18/2213Z TN09/2205Z \n  TEMPO 2118/2203 4000 RA SHRA FEW020TCU BKN025 \n  BECMG 2207/2210 27012KT \n  TEMPO 2212/2218 27018G30KT"
    },
    {
      "icao": "LTFM",
      "iata": "IST",
      "name": "İstanbul Airport",
      "lat": 41.261297,
      "lon": 28.741951,
      "updatedAt": "211750Z",
      "visibility_m": 10000,
      "taf_visibility_m": 4000,
      "worst_visibility_m": 4000,
      "ceiling_ft": 9000,
      "hazards": [
        "RA",
        "SHRA"
      ],
      "severityScore": 26,
      "metarRaw": "METAR LTFM 211750Z 20004KT 140V250 9999 SCT035 BKN090 06/M01 Q1018 NOSIG RMK RWY17L VRB02KT RWY34L 21003KT 150V300 RWY16R 00000KT RWY36 15003KT 050V210 RWY18 18003KT",
      "tafRaw": "TAF LTFM 211640Z 2118/2224 VRB02KT 9999 -RA BKN032 BKN080 \n  PROB30 \n  TEMPO 2121/2201 4000 RA \n  BECMG 2206/2208 17015KT \n  BECMG 2218/2221 -SHRA BKN025 BKN080 \n  TEMPO 2221/2224 4000 SHRA"
    },
    {
      "icao": "GCTS",
      "iata": "TFS",
      "name": "Tenerife Sur Airport",
      "lat": 28.0445,
      "lon": -16.5725,
      "updatedAt": "211800Z",
      "visibility_m": 10000,
      "taf_visibility_m": 10000,
      "worst_visibility_m": 10000,
      "ceiling_ft": null,
      "hazards": [
        "TS"
      ],
      "severityScore": 25,
      "metarRaw": "METAR GCTS 211800Z 19003KT 160V240 9999 FEW035 18/11 Q1021 NOSIG",
      "tafRaw": "TAF GCTS 211400Z 2115/2215 20007KT 9999 SCT035 TX22/2214Z TN15/2206Z \n  PROB40 2116/2121 09010KT"
    },
    {
      "icao": "EKBI",
      "iata": "BLL",
      "name": "Billund Airport",
      "lat": 55.740335,
      "lon": 9.157019,
      "updatedAt": "211750Z",
      "visibility_m": 10000,
      "taf_visibility_m": 10000,
      "worst_visibility_m": 10000,
      "ceiling_ft": 900,
      "hazards": [],
      "severityScore": 25,
      "metarRaw": "METAR EKBI 211750Z AUTO 08016KT 9999 OVC014/// M00/M03 Q1009",
      "tafRaw": "TAF EKBI 211727Z 2118/2218 09015KT 9999 OVC016 \n  TEMPO 2118/2123 09017G27KT BKN014 \n  TEMPO 2123/2203 08015G25KT BKN009 \n  TEMPO 2203/2218 08018G28KT"
    },
    {
      "icao": "LFLS",
      "iata": "GNB",
      "name": "Grenoble Alpes Isère Airport",
      "lat": 45.3629,
      "lon": 5.32937,
      "updatedAt": "211800Z",
      "visibility_m": 10000,
      "taf_visibility_m": 4000,
      "worst_visibility_m": 4000,
      "ceiling_ft": 1200,
      "hazards": [
        "RA"
      ],
      "severityScore": 24,
      "metarRaw": "METAR LFLS 211800Z AUTO 20005KT CAVOK 06/03 Q0999 NOSIG",
      "tafRaw": "TAF LFLS 211400Z 2115/2215 23010KT CAVOK \n  BECMG 2118/2120 VRB03KT \n  BECMG 2200/2203 BKN070 \n  TEMPO 2203/2209 -RA BKN018 OVC060 \n  FM220900 09006KT 8000 -RA FEW018 BKN060 \n  TEMPO 2209/2213 4000 RA BKN012 OVC040"
    },
    {
      "icao": "LPMA",
      "iata": "FNC",
      "name": "Cristiano Ronaldo International Airport",
      "lat": 32.697812,
      "lon": -16.774613,
      "updatedAt": "211800Z",
      "visibility_m": 10000,
      "taf_visibility_m": 6000,
      "worst_visibility_m": 6000,
      "ceiling_ft": 1300,
      "hazards": [
        "RA"
      ],
      "severityScore": 24,
      "metarRaw": "METAR LPMA 211800Z VRB02KT 9999 FEW016 19/14 Q1018",
      "tafRaw": "TAF LPMA 211700Z 2118/2218 VRB05KT 9999 SCT015 \n  PROB40 \n  TEMPO 2118/2218 6000 -RA SCT008 BKN013"
    },
    {
      "icao": "BIKF",
      "iata": "KEF",
      "name": "Keflavik International Airport",
      "lat": 63.985001,
      "lon": -22.6056,
      "updatedAt": "211800Z",
      "visibility_m": 10000,
      "taf_visibility_m": 4500,
      "worst_visibility_m": 4500,
      "ceiling_ft": 4400,
      "hazards": [
        "BR",
        "RA"
      ],
      "severityScore": 22,
      "metarRaw": "METAR BIKF 211800Z 05013KT 9999 BKN044 BKN110 05/03 Q0993",
      "tafRaw": "TAF BIKF 211658Z 2118/2218 05010KT 9999 FEW020 BKN045 TX08/2218Z TN04/2205Z \n  BECMG 2121/2123 07015G25KT \n  BECMG 2210/2212 RA BKN014 OVC022 \n  PROB40 \n  TEMPO 2212/2216 4500 RA BR OVC012 \n  BECMG 2213/2215 10020G38KT"
    },
    {
      "icao": "EHBK",
      "iata": "MST",
      "name": "Maastricht Aachen Airport",
      "lat": 50.911701,
      "lon": 5.77014,
      "updatedAt": "211755Z",
      "visibility_m": 10000,
      "taf_visibility_m": 7000,
      "worst_visibility_m": 7000,
      "ceiling_ft": null,
      "hazards": [
        "RA",
        "DZ"
      ],
      "severityScore": 22,
      "metarRaw": "METAR EHBK 211755Z AUTO 11007KT 9999 NSC 04/02 Q0999 NOSIG",
      "tafRaw": "TAF EHBK 211653Z 2118/2224 09007KT CAVOK \n  PROB30 \n  TEMPO 2217/2222 7000 -RADZ"
    },
    {
      "icao": "EPRA",
      "iata": "RDO",
      "name": "Warsaw Radom Airport",
      "lat": 51.38937,
      "lon": 21.214742,
      "updatedAt": "211800Z",
      "visibility_m": 9000,
      "taf_visibility_m": 4000,
      "worst_visibility_m": 4000,
      "ceiling_ft": null,
      "hazards": [
        "RA",
        "BR"
      ],
      "severityScore": 22,
      "metarRaw": "METAR EPRA 211800Z 14003KT 9000 NSC M06/M10 Q1010",
      "tafRaw": "TAF EPRA 211730Z 2118/2203 13006KT CAVOK \n  PROB40 2121/2203 4000 BR"
    },
    {
      "icao": "LIBP",
      "iata": "PSR",
      "name": "Abruzzo Airport",
      "lat": 42.431079,
      "lon": 14.182981,
      "updatedAt": "211750Z",
      "visibility_m": 5000,
      "taf_visibility_m": 4000,
      "worst_visibility_m": 4000,
      "ceiling_ft": 4000,
      "hazards": [
        "DZ",
        "RA"
      ],
      "severityScore": 22,
      "metarRaw": "METAR LIBP 211750Z AUTO 23005KT 5000 -DZ OVC020/// 07/07 Q1006 REDZ",
      "tafRaw": "TAF LIBP 211700Z 2118/2218 28006KT 9999 BKN040 \n  TEMPO 2118/2122 4000 RA \n  TEMPO 2215/2218 RA"
    },
    {
      "icao": "LPFR",
      "iata": "FAO",
      "name": "Faro - Gago Coutinho International Airport",
      "lat": 37.015909,
      "lon": -7.970939,
      "updatedAt": "211800Z",
      "visibility_m": 10000,
      "taf_visibility_m": 5000,
      "worst_visibility_m": 5000,
      "ceiling_ft": 4000,
      "hazards": [
        "BR",
        "RA"
      ],
      "severityScore": 22,
      "metarRaw": "METAR LPFR 211800Z 27012KT 9999 SCT015 BKN040 15/14 Q1007",
      "tafRaw": "TAF LPFR 211700Z 2118/2218 29015KT 9999 SCT020 \n  TEMPO 2118/2120 29020G32KT 5000 -RA BR SCT004 BKN008 \n  BECMG 2201/2203 29008KT \n  BECMG 2205/2207 VRB02KT \n  BECMG 2212/2214 24015KT BKN035 \n  TEMPO 2215/2218 24018G30KT 6000 -RA SCT012 BKN025"
    },
    {
      "icao": "LQBK",
      "iata": "BNX",
      "name": "Banja Luka International Airport",
      "lat": 44.941399,
      "lon": 17.297501,
      "updatedAt": "211800Z",
      "visibility_m": 7000,
      "taf_visibility_m": 4000,
      "worst_visibility_m": 4000,
      "ceiling_ft": 1200,
      "hazards": [
        "BR"
      ],
      "severityScore": 22,
      "metarRaw": "METAR LQBK 211800Z 02003KT 7000 OVC012 M03/M05 Q1011 NOSIG",
      "tafRaw": "TAF LQBK 211700Z 2118/2218 VRB03KT 7000 BKN012 OVC024 TX01/2213Z TNM04/2205Z \n  TEMPO 2118/2210 4000 BR BKN008 OVC016 \n  PROB40 \n  TEMPO 2212/2218 SCT014 OVC030"
    },
    {
      "icao": "LYPG",
      "iata": "TGD",
      "name": "Podgorica Airport / Podgorica Golubovci Airbase",
      "lat": 42.359402,
      "lon": 19.2519,
      "updatedAt": "211800Z",
      "visibility_m": 7000,
      "taf_visibility_m": 3000,
      "worst_visibility_m": 3000,
      "ceiling_ft": 5000,
      "hazards": [
        "RA",
        "BR"
      ],
      "severityScore": 22,
      "metarRaw": "METAR LYPG 211800Z 01002KT 7000 -RA FEW013 BKN050 OVC070 04/04 Q1008 NOSIG",
      "tafRaw": "TAF LYPG 211700Z 2118/2218 02005KT 8000 FEW010 BKN040 OVC070 TX11/2213Z TN04/2120Z \n  TEMPO 2118/2208 3000 RA BR \n  PROB40 \n  TEMPO 2208/2218 5000 RA"
    },
    {
      "icao": "EPKK",
      "iata": "KRK",
      "name": "Kraków John Paul II International Airport",
      "lat": 50.077702,
      "lon": 19.7848,
      "updatedAt": "211800Z",
      "visibility_m": 5000,
      "taf_visibility_m": 1200,
      "worst_visibility_m": 1200,
      "ceiling_ft": null,
      "hazards": [
        "BR"
      ],
      "severityScore": 20,
      "metarRaw": "METAR EPKK 211800Z VRB01KT 5000 BR NSC M06/M10 Q1009",
      "tafRaw": "TAF EPKK 211730Z 2118/2218 VRB02KT 5000 HZ NSC \n  BECMG 2118/2121 3000 BR \n  TEMPO 2118/2207 1200 BR \n  BECMG 2209/2212 6000 \n  TEMPO 2209/2216 4000 HZ \n  TEMPO 2216/2218 2800 BR"
    },
    {
      "icao": "LRBV",
      "iata": "GHV",
      "name": "Brașov-Ghimbav International Airport",
      "lat": 45.70558,
      "lon": 25.522871,
      "updatedAt": "211800Z",
      "visibility_m": 8000,
      "taf_visibility_m": 1500,
      "worst_visibility_m": 1500,
      "ceiling_ft": null,
      "hazards": [
        "BR"
      ],
      "severityScore": 20,
      "metarRaw": "METAR LRBV 211800Z 15002KT 8000 NSC M07/M09 Q1013",
      "tafRaw": "TAF LRBV 211700Z 2118/2203 VRB04KT 5000 BR NSC \n  TEMPO 2118/2124 1500 BR"
    },
    {
      "icao": "LRCL",
      "iata": "CLJ",
      "name": "Cluj Avram Iancu International Airport",
      "lat": 46.787425,
      "lon": 23.684292,
      "updatedAt": "211800Z",
      "visibility_m": 5000,
      "taf_visibility_m": 1500,
      "worst_visibility_m": 1500,
      "ceiling_ft": null,
      "hazards": [
        "BR"
      ],
      "severityScore": 20,
      "metarRaw": "METAR LRCL 211800Z 00000KT 5000 BR NSC M10/M11 Q1013",
      "tafRaw": "TAF LRCL 211700Z 2118/2203 VRB04KT 5000 BR NSC \n  TEMPO 2118/2124 1500 BR"
    },
    {
      "icao": "LRTR",
      "iata": "TSR",
      "name": "Timişoara Traian Vuia Airport",
      "lat": 45.809898,
      "lon": 21.3379,
      "updatedAt": "211800Z",
      "visibility_m": 8000,
      "taf_visibility_m": 1500,
      "worst_visibility_m": 1500,
      "ceiling_ft": null,
      "hazards": [
        "BR"
      ],
      "severityScore": 20,
      "metarRaw": "METAR LRTR 211800Z 10004KT 8000 NSC M02/M05 Q1011",
      "tafRaw": "TAF LRTR 211700Z 2118/2218 10006KT 7000 NSC \n  BECMG 2120/2122 5000 BR \n  TEMPO 2201/2206 1500 BR \n  BECMG 2207/2209 CAVOK"
    },
    {
      "icao": "UDYZ",
      "iata": "EVN",
      "name": "Zvartnots International Airport",
      "lat": 40.148941,
      "lon": 44.397887,
      "updatedAt": "211800Z",
      "visibility_m": 10000,
      "taf_visibility_m": 1000,
      "worst_visibility_m": 1000,
      "ceiling_ft": null,
      "hazards": [
        "BR"
      ],
      "severityScore": 20,
      "metarRaw": "METAR UDYZ 211800Z 10002KT 9999 NSC M06/M09 Q1027 NOSIG",
      "tafRaw": "TAF UDYZ 211700Z 2118/2218 VRB04KT 6000 NSC \n  TEMPO 2121/2206 1000 BR"
    },
    {
      "icao": "ENGM",
      "iata": "OSL",
      "name": "Oslo-Gardermoen International Airport",
      "lat": 60.193901,
      "lon": 11.1004,
      "updatedAt": "211750Z",
      "visibility_m": 10000,
      "taf_visibility_m": 4000,
      "worst_visibility_m": 4000,
      "ceiling_ft": 2700,
      "hazards": [
        "SN"
      ],
      "severityScore": 18,
      "metarRaw": "METAR ENGM 211750Z 01006KT 9999 BKN027 M02/M05 Q1020 NOSIG",
      "tafRaw": "TAF ENGM 211700Z 2118/2218 02008KT 9999 -SN OVC022 \n  PROB40 \n  TEMPO 2118/2212 4000 BKN014"
    },
    {
      "icao": "ENTO",
      "iata": "TRF",
      "name": "Sandefjord Airport, Torp",
      "lat": 59.186699,
      "lon": 10.2586,
      "updatedAt": "211750Z",
      "visibility_m": 10000,
      "taf_visibility_m": 4000,
      "worst_visibility_m": 4000,
      "ceiling_ft": 2200,
      "hazards": [
        "SN"
      ],
      "severityScore": 18,
      "metarRaw": "METAR ENTO 211750Z 04008KT 9999 OVC022 M01/M05 Q1018 NOSIG",
      "tafRaw": "TAF ENTO 211700Z 2118/2218 05012KT 9999 OVC015 \n  TEMPO 2118/2206 4000 -SN BKN012 \n  PROB40 \n  TEMPO 2206/2218 4000 -SN BKN012"
    },
    {
      "icao": "EGGW",
      "iata": "LTN",
      "name": "London Luton Airport",
      "lat": 51.874699,
      "lon": -0.368333,
      "updatedAt": "211750Z",
      "visibility_m": 8000,
      "taf_visibility_m": null,
      "worst_visibility_m": 8000,
      "ceiling_ft": null,
      "hazards": [
        "RA"
      ],
      "severityScore": 17,
      "metarRaw": "METAR EGGW 211750Z AUTO 14012KT 8000 -RA BKN009/// OVC012/// //////TCU 08/07 Q0988",
      "tafRaw": null
    },
    {
      "icao": "LEBB",
      "iata": "BIO",
      "name": "Bilbao Airport",
      "lat": 43.301102,
      "lon": -2.91061,
      "updatedAt": "211806Z",
      "visibility_m": 3000,
      "taf_visibility_m": null,
      "worst_visibility_m": 3000,
      "ceiling_ft": 3600,
      "hazards": [
        "RA"
      ],
      "severityScore": 17,
      "metarRaw": "SPECI LEBB 211806Z VRB04KT 7000 -RA FEW010 SCT017 BKN036 10/10 Q0991 RERA TEMPO 3000 RA",
      "tafRaw": null
    },
    {
      "icao": "LQTZ",
      "iata": "TZL",
      "name": "Tuzla International Airport",
      "lat": 44.459858,
      "lon": 18.723627,
      "updatedAt": "211800Z",
      "visibility_m": 6000,
      "taf_visibility_m": null,
      "worst_visibility_m": 6000,
      "ceiling_ft": 1000,
      "hazards": [],
      "severityScore": 17,
      "metarRaw": "METAR LQTZ 211800Z VRB01KT 6000 BKN010 OVC050 M04/M05 Q1011",
      "tafRaw": null
    },
    {
      "icao": "LHDC",
      "iata": "DEB",
      "name": "Debrecen International Airport",
      "lat": 47.488899,
      "lon": 21.615299,
      "updatedAt": "211745Z",
      "visibility_m": 5000,
      "taf_visibility_m": null,
      "worst_visibility_m": 5000,
      "ceiling_ft": null,
      "hazards": [
        "BR"
      ],
      "severityScore": 15,
      "metarRaw": "METAR LHDC 211745Z AUTO 07003KT 040V100 5000 BR NSC M05/M07 Q1012 NOSIG",
      "tafRaw": null
    },
    {
      "icao": "GMMN",
      "iata": "CMN",
      "name": "Mohammed V International Airport",
      "lat": 33.3675,
      "lon": -7.58997,
      "updatedAt": "211800Z",
      "visibility_m": 10000,
      "taf_visibility_m": 4000,
      "worst_visibility_m": 4000,
      "ceiling_ft": 3000,
      "hazards": [
        "RA"
      ],
      "severityScore": 12,
      "metarRaw": "METAR GMMN 211800Z 22011KT 9999 BKN030 13/10 Q1016 NOSIG",
      "tafRaw": "TAF GMMN 211700Z 2118/2224 22014KT 9999 BKN030 \n  TEMPO 2118/2209 22016G26KT 4000 RA BKN003 BKN020TCU"
    },
    {
      "icao": "GMMX",
      "iata": "RAK",
      "name": "Marrakesh Menara Airport",
      "lat": 31.604807,
      "lon": -8.035788,
      "updatedAt": "211800Z",
      "visibility_m": 10000,
      "taf_visibility_m": 5000,
      "worst_visibility_m": 5000,
      "ceiling_ft": 2000,
      "hazards": [
        "RA"
      ],
      "severityScore": 12,
      "metarRaw": "METAR GMMX 211800Z 24004KT 210V290 9999 FEW026 SCT080 14/07 Q1017 NOSIG",
      "tafRaw": "TAF GMMX 211700Z 2118/2224 24014KT 8000 SCT023 SCT080 \n  TEMPO 2205/2210 5000 RA SCT013 BKN020"
    },
    {
      "icao": "EKCH",
      "iata": "CPH",
      "name": "Copenhagen Kastrup Airport",
      "lat": 55.617900848389,
      "lon": 12.656000137329,
      "updatedAt": "211750Z",
      "visibility_m": 10000,
      "taf_visibility_m": 10000,
      "worst_visibility_m": 10000,
      "ceiling_ft": 1200,
      "hazards": [],
      "severityScore": 12,
      "metarRaw": "METAR EKCH 211750Z AUTO 04011KT 9999 OVC029/// 00/M02 Q1011 TEMPO BKN012",
      "tafRaw": "TAF EKCH 211727Z 2118/2218 05010KT 9999 OVC020 \n  TEMPO 2118/2121 BKN012 \n  BECMG 2201/2204 05020KT \n  TEMPO 2208/2213 BKN014 \n  TEMPO 2215/2218 08020G30KT"
    },
    {
      "icao": "ESGG",
      "iata": "GOT",
      "name": "Göteborg Landvetter Airport",
      "lat": 57.6628,
      "lon": 12.2798,
      "updatedAt": "211750Z",
      "visibility_m": 10000,
      "taf_visibility_m": 10000,
      "worst_visibility_m": 10000,
      "ceiling_ft": 1500,
      "hazards": [],
      "severityScore": 12,
      "metarRaw": "METAR ESGG 211750Z 06014KT 9999 BKN015 M02/M05 Q1014",
      "tafRaw": "TAF ESGG 211730Z 2118/2218 05010KT 9999 OVC018 \n  TEMPO 2118/2218 BKN012"
    },
    {
      "icao": "LEMG",
      "iata": "AGP",
      "name": "Málaga-Costa del Sol Airport",
      "lat": 36.6749,
      "lon": -4.49911,
      "updatedAt": "211800Z",
      "visibility_m": 10000,
      "taf_visibility_m": 4000,
      "worst_visibility_m": 4000,
      "ceiling_ft": 3100,
      "hazards": [
        "RA"
      ],
      "severityScore": 12,
      "metarRaw": "METAR LEMG 211800Z 26008KT 180V290 9999 FEW020 BKN031 15/10 Q1008 NOSIG",
      "tafRaw": "TAF LEMG 211700Z 2118/2218 VRB03KT 9999 FEW040 TX17/2214Z TN11/2207Z \n  PROB40 \n  TEMPO 2118/2123 4000 RA BKN014 \n  PROB30 \n  TEMPO 2118/2120 24010KT \n  BECMG 2200/2202 30010KT"
    },
    {
      "icao": "LFLL",
      "iata": "LYS",
      "name": "Lyon Saint-Exupéry Airport",
      "lat": 45.725996,
      "lon": 5.090139,
      "updatedAt": "211800Z",
      "visibility_m": 10000,
      "taf_visibility_m": 4000,
      "worst_visibility_m": 4000,
      "ceiling_ft": 3000,
      "hazards": [
        "RA"
      ],
      "severityScore": 12,
      "metarRaw": "METAR LFLL 211800Z 14008KT CAVOK 07/03 Q0999 NOSIG",
      "tafRaw": "TAF LFLL 211700Z 2118/2224 17008KT CAVOK \n  TEMPO 2203/2210 4000 RA SCT014 OVC030 \n  PROB40 \n  TEMPO 2210/2214 -RA SCT012 OVC040"
    },
    {
      "icao": "LICJ",
      "iata": "PMO",
      "name": "Falcone–Borsellino Airport",
      "lat": 38.175999,
      "lon": 13.091,
      "updatedAt": "211750Z",
      "visibility_m": 10000,
      "taf_visibility_m": 10000,
      "worst_visibility_m": 10000,
      "ceiling_ft": null,
      "hazards": [
        "RA"
      ],
      "severityScore": 12,
      "metarRaw": "METAR LICJ 211750Z 16006KT 9999 -RA FEW015 SCT060 13/10 Q0999",
      "tafRaw": "TAF LICJ 211700Z 2118/2218 34012KT 9999 SCT030"
    },
    {
      "icao": "LIPY",
      "iata": "AOI",
      "name": "Marche Airport",
      "lat": 43.616299,
      "lon": 13.3623,
      "updatedAt": "211750Z",
      "visibility_m": 10000,
      "taf_visibility_m": 10000,
      "worst_visibility_m": 10000,
      "ceiling_ft": 3000,
      "hazards": [
        "RA"
      ],
      "severityScore": 12,
      "metarRaw": "METAR LIPY 211750Z AUTO 24003KT 210V280 9999 FEW016/// OVC033/// 05/02 Q1006",
      "tafRaw": "TAF LIPY 211700Z 2118/2218 26006KT 9999 SCT015 BKN030 \n  TEMPO 2118/2123 RA"
    },
    {
      "icao": "LIRP",
      "iata": "PSA",
      "name": "Pisa International Airport",
      "lat": 43.683899,
      "lon": 10.3927,
      "updatedAt": "211745Z",
      "visibility_m": 10000,
      "taf_visibility_m": 10000,
      "worst_visibility_m": 10000,
      "ceiling_ft": 1500,
      "hazards": [],
      "severityScore": 12,
      "metarRaw": "METAR LIRP 211745Z 12007KT CAVOK 06/03 Q1004 NOSIG",
      "tafRaw": "TAF LIRP 211700Z 2118/2218 11006KT CAVOK \n  PROB30 \n  TEMPO 2205/2207 BKN015"
    },
    {
      "icao": "LJLJ",
      "iata": "LJU",
      "name": "Ljubljana Jože Pučnik Airport",
      "lat": 46.223701,
      "lon": 14.4576,
      "updatedAt": "211800Z",
      "visibility_m": 8000,
      "taf_visibility_m": 10000,
      "worst_visibility_m": 8000,
      "ceiling_ft": 1300,
      "hazards": [],
      "severityScore": 12,
      "metarRaw": "METAR LJLJ 211800Z 19001KT 8000 OVC013 M06/M09 Q1009 NOSIG",
      "tafRaw": "TAF LJLJ 211700Z 2118/2218 12003KT 9999 OVC015 \n  PROB40 \n  TEMPO 2121/2209 OVC010"
    },
    {
      "icao": "LLBG",
      "iata": "TLV",
      "name": "Ben Gurion International Airport",
      "lat": 32.011398,
      "lon": 34.8867,
      "updatedAt": "211750Z",
      "visibility_m": 10000,
      "taf_visibility_m": 10000,
      "worst_visibility_m": 10000,
      "ceiling_ft": 8000,
      "hazards": [
        "RA"
      ],
      "severityScore": 12,
      "metarRaw": "METAR LLBG 211750Z 06005KT CAVOK 16/M02 Q1017 NOSIG RMK FEW095",
      "tafRaw": "TAF LLBG 211703Z 2118/2218 11010KT CAVOK \n  PROB40 \n  TEMPO 2123/2215 11020G35KT 9999 -RA BKN080 TX21/2211Z TN14/2204Z"
    },
    {
      "icao": "ENBR",
      "iata": "BGO",
      "name": "Bergen Airport, Flesland",
      "lat": 60.2934,
      "lon": 5.21814,
      "updatedAt": "211750Z",
      "visibility_m": 10000,
      "taf_visibility_m": 10000,
      "worst_visibility_m": 10000,
      "ceiling_ft": null,
      "hazards": [
        "BR"
      ],
      "severityScore": 10,
      "metarRaw": "METAR ENBR 211750Z 01003KT 340V040 CAVOK M00/M03 Q1008 NOSIG RMK WIND 1200FT 12009KT",
      "tafRaw": "TAF ENBR 211700Z 2118/2218 VRB03KT CAVOK \n  PROB30 2118/2218 09010KT"
    },
    {
      "icao": "EPKT",
      "iata": "KTW",
      "name": "Katowice Wojciech Korfanty International Airport",
      "lat": 50.476015,
      "lon": 19.080705,
      "updatedAt": "211800Z",
      "visibility_m": 8000,
      "taf_visibility_m": 2500,
      "worst_visibility_m": 2500,
      "ceiling_ft": null,
      "hazards": [
        "BR"
      ],
      "severityScore": 10,
      "metarRaw": "METAR EPKT 211800Z VRB01KT 8000 NSC M05/M09 Q1009",
      "tafRaw": "TAF EPKT 211730Z 2118/2218 15004KT 8000 NSC \n  TEMPO 2118/2208 2500 BR \n  TEMPO 2208/2216 4000 BR HZ"
    },
    {
      "icao": "EPLB",
      "iata": "LUZ",
      "name": "Lublin Airport",
      "lat": 51.240157,
      "lon": 22.713461,
      "updatedAt": "211800Z",
      "visibility_m": 3800,
      "taf_visibility_m": 2000,
      "worst_visibility_m": 2000,
      "ceiling_ft": null,
      "hazards": [
        "BR"
      ],
      "severityScore": 10,
      "metarRaw": "METAR EPLB 211800Z 06005KT 3800 BR NSC M10/M11 Q1011",
      "tafRaw": "TAF EPLB 211730Z 2118/2218 09003KT 4000 BR NSC \n  TEMPO 2120/2208 2000 BR \n  BECMG 2208/2210 09013KT 7000"
    },
    {
      "icao": "EPRZ",
      "iata": "RZE",
      "name": "Rzeszów-Jasionka Airport",
      "lat": 50.109791,
      "lon": 22.024155,
      "updatedAt": "211800Z",
      "visibility_m": 10000,
      "taf_visibility_m": 2500,
      "worst_visibility_m": 2500,
      "ceiling_ft": null,
      "hazards": [
        "BR"
      ],
      "severityScore": 10,
      "metarRaw": "METAR EPRZ 211800Z 07005KT CAVOK M01/M11 Q1011",
      "tafRaw": "TAF EPRZ 211730Z 2118/2218 08003KT CAVOK \n  TEMPO 2118/2207 2500 BR \n  TEMPO 2207/2218 4000 HZ BR"
    },
    {
      "icao": "EPWA",
      "iata": "WAW",
      "name": "Warsaw Chopin Airport",
      "lat": 52.165699,
      "lon": 20.9671,
      "updatedAt": "211800Z",
      "visibility_m": 10000,
      "taf_visibility_m": 3000,
      "worst_visibility_m": 3000,
      "ceiling_ft": null,
      "hazards": [
        "BR"
      ],
      "severityScore": 10,
      "metarRaw": "METAR EPWA 211800Z 15007KT CAVOK M05/M08 Q1011 NOSIG",
      "tafRaw": "TAF EPWA 211730Z 2118/2218 14005KT 8000 NSC \n  TEMPO 2122/2208 3000 BR"
    },
    {
      "icao": "LHBP",
      "iata": "BUD",
      "name": "Budapest Liszt Ferenc International Airport",
      "lat": 47.43018,
      "lon": 19.262393,
      "updatedAt": "211800Z",
      "visibility_m": 10000,
      "taf_visibility_m": 4000,
      "worst_visibility_m": 4000,
      "ceiling_ft": 4300,
      "hazards": [
        "BR"
      ],
      "severityScore": 10,
      "metarRaw": "METAR LHBP 211800Z VRB02KT 9999 BKN043 M03/M06 Q1012 NOSIG",
      "tafRaw": "TAF LHBP 211715Z 2118/2218 09005KT CAVOK \n  BECMG 2121/2124 VRB02KT \n  PROB40 \n  TEMPO 2122/2208 4000 BR \n  BECMG 2206/2209 10006KT"
    },
    {
      "icao": "LIPX",
      "iata": "VRN",
      "name": "Verona Villafranca Valerio Catullo Airport",
      "lat": 45.394955,
      "lon": 10.887303,
      "updatedAt": "211750Z",
      "visibility_m": 10000,
      "taf_visibility_m": 4000,
      "worst_visibility_m": 4000,
      "ceiling_ft": null,
      "hazards": [
        "BR"
      ],
      "severityScore": 10,
      "metarRaw": "METAR LIPX 211750Z 31001KT CAVOK M00/M05 Q1007",
      "tafRaw": "TAF LIPX 211700Z 2118/2218 VRB04KT 9000 FEW050 \n  TEMPO 2203/2207 4000 BR"
    },
    {
      "icao": "LIRZ",
      "iata": "PEG",
      "name": "Perugia San Francesco d'Assisi – Umbria International Airport",
      "lat": 43.095901,
      "lon": 12.5132,
      "updatedAt": "211750Z",
      "visibility_m": 10000,
      "taf_visibility_m": 3000,
      "worst_visibility_m": 3000,
      "ceiling_ft": null,
      "hazards": [
        "BR"
      ],
      "severityScore": 10,
      "metarRaw": "METAR LIRZ 211750Z AUTO 01010KT 9999 BKN150/// 06/02 Q1003",
      "tafRaw": "TAF LIRZ 211700Z 2118/2218 02015KT 9999 SCT060 \n  BECMG 2121/2123 VRB05KT \n  TEMPO 2202/2206 3000 BR"
    },
    {
      "icao": "UDSG",
      "iata": "LWN",
      "name": "Shirak International Airport",
      "lat": 40.750401,
      "lon": 43.859299,
      "updatedAt": "211800Z",
      "visibility_m": 10000,
      "taf_visibility_m": 5000,
      "worst_visibility_m": 5000,
      "ceiling_ft": null,
      "hazards": [
        "BR"
      ],
      "severityScore": 10,
      "metarRaw": "METAR UDSG 211800Z 35001KT 9999 NSC M12/M16 Q1025 NOSIG",
      "tafRaw": "TAF UDSG 211700Z 2118/2218 VRB06KT 9999 FEW050 \n  TEMPO 2118/2203 5000 BR"
    },
    {
      "icao": "GMAD",
      "iata": "AGA",
      "name": "Al Massira Airport",
      "lat": 30.322478,
      "lon": -9.412003,
      "updatedAt": "211800Z",
      "visibility_m": 10000,
      "taf_visibility_m": null,
      "worst_visibility_m": 10000,
      "ceiling_ft": null,
      "hazards": [],
      "severityScore": 5,
      "metarRaw": "METAR GMAD 211800Z 20008KT 9999 SCT033 15/11 Q1017 NOSIG",
      "tafRaw": null
    },
    {
      "icao": "LECH",
      "iata": "CDT",
      "name": "Castellón-Costa Azahar Airport",
      "lat": 40.213889,
      "lon": 0.073333,
      "updatedAt": "211800Z",
      "visibility_m": 9000,
      "taf_visibility_m": null,
      "worst_visibility_m": 9000,
      "ceiling_ft": null,
      "hazards": [],
      "severityScore": 5,
      "metarRaw": "METAR LECH 211800Z AUTO 19008KT 170V240 9000 NSC 10/05 Q1000",
      "tafRaw": null
    },
    {
      "icao": "GCFV",
      "iata": "FUE",
      "name": "Fuerteventura Airport",
      "lat": 28.4527,
      "lon": -13.8638,
      "updatedAt": "211800Z",
      "visibility_m": 10000,
      "taf_visibility_m": 10000,
      "worst_visibility_m": 10000,
      "ceiling_ft": null,
      "hazards": [],
      "severityScore": 0,
      "metarRaw": "METAR GCFV 211800Z 31006KT 280V350 9999 FEW035 18/10 Q1020",
      "tafRaw": "TAF GCFV 211400Z 2115/2215 32012KT 9999 FEW040 TX21/2214Z TN15/2206Z \n  PROB30 \n  TEMPO 2115/2118 30015G25KT"
    },
    {
      "icao": "GCLP",
      "iata": "LPA",
      "name": "Gran Canaria Airport",
      "lat": 27.9319,
      "lon": -15.3866,
      "updatedAt": "211800Z",
      "visibility_m": 10000,
      "taf_visibility_m": 10000,
      "worst_visibility_m": 10000,
      "ceiling_ft": null,
      "hazards": [],
      "severityScore": 0,
      "metarRaw": "METAR GCLP 211800Z 36010KT 330V030 9999 FEW035 19/12 Q1020 NOSIG",
      "tafRaw": "TAF GCLP 211400Z 2115/2215 36015KT 9999 FEW035 TX21/2214Z TN15/2206Z \n  PROB30 \n  TEMPO 2115/2118 36015G25KT \n  BECMG 2120/2123 28005KT \n  PROB40 2211/2215 04010KT"
    },
    {
      "icao": "EBCI",
      "iata": "CRL",
      "name": "Brussels South Charleroi Airport",
      "lat": 50.461963,
      "lon": 4.459562,
      "updatedAt": "211750Z",
      "visibility_m": 10000,
      "taf_visibility_m": 10000,
      "worst_visibility_m": 10000,
      "ceiling_ft": null,
      "hazards": [],
      "severityScore": 0,
      "metarRaw": "METAR EBCI 211750Z 12009KT 090V150 CAVOK 06/02 Q0996 NOSIG",
      "tafRaw": "TAF EBCI 211720Z 2118/2224 14010KT CAVOK"
    },
    {
      "icao": "EDDB",
      "iata": "BER",
      "name": "Berlin Brandenburg Willy Brandt Airport",
      "lat": 52.361738,
      "lon": 13.502341,
      "updatedAt": "211750Z",
      "visibility_m": 10000,
      "taf_visibility_m": 10000,
      "worst_visibility_m": 10000,
      "ceiling_ft": null,
      "hazards": [],
      "severityScore": 0,
      "metarRaw": "METAR EDDB 211750Z AUTO 08005KT CAVOK M03/M07 Q1007 NOSIG",
      "tafRaw": "TAF EDDB 211700Z 2118/2218 07006KT CAVOK"
    },
    {
      "icao": "EDDH",
      "iata": "HAM",
      "name": "Hamburg Helmut Schmidt Airport",
      "lat": 53.630402,
      "lon": 9.98823,
      "updatedAt": "211750Z",
      "visibility_m": 10000,
      "taf_visibility_m": 10000,
      "worst_visibility_m": 10000,
      "ceiling_ft": null,
      "hazards": [],
      "severityScore": 0,
      "metarRaw": "METAR EDDH 211750Z AUTO 09008KT CAVOK M02/M05 Q1006 NOSIG",
      "tafRaw": "TAF EDDH 211700Z 2118/2224 08010KT CAVOK"
    },
    {
      "icao": "EDDK",
      "iata": "CGN",
      "name": "Cologne Bonn Airport",
      "lat": 50.865898,
      "lon": 7.14274,
      "updatedAt": "211750Z",
      "visibility_m": 10000,
      "taf_visibility_m": 10000,
      "worst_visibility_m": 10000,
      "ceiling_ft": null,
      "hazards": [],
      "severityScore": 0,
      "metarRaw": "METAR EDDK 211750Z AUTO 12007KT 090V150 CAVOK 04/M02 Q1001 NOSIG",
      "tafRaw": "TAF EDDK 211700Z 2118/2224 12008KT CAVOK"
    },
    {
      "icao": "EDDN",
      "iata": "NUE",
      "name": "Nuremberg Airport",
      "lat": 49.498699,
      "lon": 11.078056,
      "updatedAt": "211750Z",
      "visibility_m": 10000,
      "taf_visibility_m": 10000,
      "worst_visibility_m": 10000,
      "ceiling_ft": null,
      "hazards": [],
      "severityScore": 0,
      "metarRaw": "METAR EDDN 211750Z AUTO 11007KT CAVOK M04/M08 Q1004 NOSIG",
      "tafRaw": "TAF EDDN 211700Z 2118/2218 11006KT CAVOK"
    },
    {
      "icao": "EDDS",
      "iata": "STR",
      "name": "Stuttgart Airport",
      "lat": 48.689899,
      "lon": 9.22196,
      "updatedAt": "211750Z",
      "visibility_m": 10000,
      "taf_visibility_m": 10000,
      "worst_visibility_m": 10000,
      "ceiling_ft": null,
      "hazards": [],
      "severityScore": 0,
      "metarRaw": "METAR EDDS 211750Z AUTO VRB02KT CAVOK 01/M03 Q1000 NOSIG",
      "tafRaw": "TAF EDDS 211700Z 2118/2218 VRB03KT CAVOK"
    },
    {
      "icao": "EDJA",
      "iata": "FMM",
      "name": "Memmingen Allgau Airport",
      "lat": 47.988092,
      "lon": 10.238248,
      "updatedAt": "211750Z",
      "visibility_m": 10000,
      "taf_visibility_m": 10000,
      "worst_visibility_m": 10000,
      "ceiling_ft": null,
      "hazards": [],
      "severityScore": 0,
      "metarRaw": "METAR EDJA 211750Z 02007KT CAVOK M00/M02 Q1001",
      "tafRaw": "TAF EDJA 211700Z 2118/2203 VRB03KT CAVOK"
    },
    {
      "icao": "EDLW",
      "iata": "DTM",
      "name": "Dortmund Airport",
      "lat": 51.518299,
      "lon": 7.61224,
      "updatedAt": "211750Z",
      "visibility_m": 10000,
      "taf_visibility_m": 10000,
      "worst_visibility_m": 10000,
      "ceiling_ft": null,
      "hazards": [],
      "severityScore": 0,
      "metarRaw": "METAR EDLW 211750Z 09005KT CAVOK 07/M01 Q1000",
      "tafRaw": "TAF EDLW 211700Z 2118/2218 08006KT CAVOK \n  TEMPO 2118/2121 14005KT"
    },
    {
      "icao": "EHEH",
      "iata": "EIN",
      "name": "Eindhoven Airport",
      "lat": 51.4500999451,
      "lon": 5.37452983856,
      "updatedAt": "211755Z",
      "visibility_m": 10000,
      "taf_visibility_m": 10000,
      "worst_visibility_m": 10000,
      "ceiling_ft": 29000,
      "hazards": [],
      "severityScore": 0,
      "metarRaw": "METAR EHEH 211755Z AUTO 12008KT 080V160 9999 BKN290 06/01 Q0998 BLU NOSIG",
      "tafRaw": "TAF EHEH 211717Z 2118/2224 12008KT CAVOK \n  BECMG 2203/2206 10007KT \n  BECMG 2217/2219 13006KT \n  TEMPO 2218/2221 SCT013 BKN017 \n  PROB30 \n  TEMPO 2222/2224 SCT015CB"
    },
    {
      "icao": "ENAL",
      "iata": "AES",
      "name": "Ålesund Airport, Vigra",
      "lat": 62.5625,
      "lon": 6.1197,
      "updatedAt": "211750Z",
      "visibility_m": 10000,
      "taf_visibility_m": 10000,
      "worst_visibility_m": 10000,
      "ceiling_ft": null,
      "hazards": [],
      "severityScore": 0,
      "metarRaw": "METAR ENAL 211750Z 14013KT CAVOK 05/M07 Q1010",
      "tafRaw": "TAF ENAL 211700Z 2118/2203 14010KT CAVOK"
    },
    {
      "icao": "ENHD",
      "iata": "HAU",
      "name": "Haugesund Airport, Karmøy",
      "lat": 59.345299,
      "lon": 5.20836,
      "updatedAt": "211750Z",
      "visibility_m": 10000,
      "taf_visibility_m": 10000,
      "worst_visibility_m": 10000,
      "ceiling_ft": null,
      "hazards": [],
      "severityScore": 0,
      "metarRaw": "METAR ENHD 211750Z 10021KT CAVOK 03/M10 Q1008",
      "tafRaw": "TAF ENHD 211400Z 2115/2123 10018KT CAVOK \n  TEMPO 2115/2123 11020G32KT"
    },
    {
      "icao": "ENTC",
      "iata": "TOS",
      "name": "Tromsø Airport, Langnes",
      "lat": 69.683296,
      "lon": 18.9189,
      "updatedAt": "211750Z",
      "visibility_m": 10000,
      "taf_visibility_m": 10000,
      "worst_visibility_m": 10000,
      "ceiling_ft": null,
      "hazards": [],
      "severityScore": 0,
      "metarRaw": "METAR ENTC 211750Z 08002KT CAVOK M08/M10 Q1025 NOSIG RMK WIND 2600FT 09004KT",
      "tafRaw": "TAF ENTC 211700Z 2118/2218 VRB02KT 9999 FEW001"
    },
    {
      "icao": "ENVA",
      "iata": "TRD",
      "name": "Trondheim Airport, Værnes",
      "lat": 63.457802,
      "lon": 10.924,
      "updatedAt": "211750Z",
      "visibility_m": 10000,
      "taf_visibility_m": 10000,
      "worst_visibility_m": 10000,
      "ceiling_ft": null,
      "hazards": [],
      "severityScore": 0,
      "metarRaw": "METAR ENVA 211750Z 09011KT CAVOK 01/M06 Q1019 TEMPO 14015G25KT RMK WIND 670FT 13015KT",
      "tafRaw": "TAF ENVA 211700Z 2118/2218 11010KT CAVOK \n  PROB40 \n  TEMPO 2118/2218 14020G35KT"
    },
    {
      "icao": "ENZV",
      "iata": "SVG",
      "name": "Stavanger Airport, Sola",
      "lat": 58.876701,
      "lon": 5.63778,
      "updatedAt": "211750Z",
      "visibility_m": 10000,
      "taf_visibility_m": 10000,
      "worst_visibility_m": 10000,
      "ceiling_ft": null,
      "hazards": [],
      "severityScore": 0,
      "metarRaw": "METAR ENZV 211750Z 08010KT CAVOK 03/M08 Q1009 TEMPO 12018G28KT",
      "tafRaw": "TAF ENZV 211700Z 2118/2218 08015KT CAVOK \n  TEMPO 2118/2218 10018G28KT"
    },
    {
      "icao": "ESMS",
      "iata": "MMX",
      "name": "Malmö Sturup Airport",
      "lat": 55.535564,
      "lon": 13.376327,
      "updatedAt": "211750Z",
      "visibility_m": 9000,
      "taf_visibility_m": 9000,
      "worst_visibility_m": 9000,
      "ceiling_ft": 2800,
      "hazards": [],
      "severityScore": 0,
      "metarRaw": "METAR ESMS 211750Z 04008KT 9000 FEW013 BKN028 M00/M01 Q1010",
      "tafRaw": "TAF ESMS 211727Z 2118/2218 05010KT 9000 BKN018 \n  TEMPO 2118/2202 BKN009 \n  TEMPO 2209/2218 08016G28KT"
    },
    {
      "icao": "HEGN",
      "iata": "HRG",
      "name": "Hurghada International Airport",
      "lat": 27.176776,
      "lon": 33.796692,
      "updatedAt": "211700Z",
      "visibility_m": 10000,
      "taf_visibility_m": 10000,
      "worst_visibility_m": 10000,
      "ceiling_ft": null,
      "hazards": [],
      "severityScore": 0,
      "metarRaw": "METAR HEGN 211700Z 00000KT CAVOK 19/10 Q1017 NOSIG",
      "tafRaw": "TAF HEGN 211700Z 2118/2224 17010KT CAVOK"
    },
    {
      "icao": "HEMA",
      "iata": "RMF",
      "name": "Marsa Alam International Airport",
      "lat": 25.555548,
      "lon": 34.59245,
      "updatedAt": "211700Z",
      "visibility_m": 10000,
      "taf_visibility_m": 10000,
      "worst_visibility_m": 10000,
      "ceiling_ft": null,
      "hazards": [],
      "severityScore": 0,
      "metarRaw": "METAR HEMA 211700Z 31012KT CAVOK 19/14 Q1017 NOSIG",
      "tafRaw": "TAF HEMA 211700Z 2118/2224 30012KT CAVOK"
    },
    {
      "icao": "HESH",
      "iata": "SSH",
      "name": "Sharm El Sheikh International Airport",
      "lat": 27.977272,
      "lon": 34.394717,
      "updatedAt": "211700Z",
      "visibility_m": 10000,
      "taf_visibility_m": 10000,
      "worst_visibility_m": 10000,
      "ceiling_ft": null,
      "hazards": [],
      "severityScore": 0,
      "metarRaw": "METAR HESH 211700Z 30010KT CAVOK 19/09 Q1016 NOSIG",
      "tafRaw": "TAF HESH 211700Z 2118/2224 35010KT CAVOK"
    },
    {
      "icao": "HESX",
      "iata": "SPX",
      "name": "Sphinx International Airport",
      "lat": 30.108179,
      "lon": 30.895728,
      "updatedAt": "211700Z",
      "visibility_m": 10000,
      "taf_visibility_m": 10000,
      "worst_visibility_m": 10000,
      "ceiling_ft": null,
      "hazards": [],
      "severityScore": 0,
      "metarRaw": "METAR HESX 211700Z 35008KT CAVOK 15/06 Q1015 NOSIG",
      "tafRaw": "TAF HESX 211700Z 2118/2224 04009KT CAVOK \n  BECMG 2203/2205 18010KT"
    },
    {
      "icao": "LATI",
      "iata": "TIA",
      "name": "Tirana International Airport Mother Teresa",
      "lat": 41.4147,
      "lon": 19.7206,
      "updatedAt": "211820Z",
      "visibility_m": 10000,
      "taf_visibility_m": 10000,
      "worst_visibility_m": 10000,
      "ceiling_ft": 6400,
      "hazards": [],
      "severityScore": 0,
      "metarRaw": "METAR LATI 211820Z 35004KT 9999 BKN064 08/04 Q1005 NOSIG",
      "tafRaw": "TAF LATI 211700Z 2118/2218 VRB05KT 9999 SCT030 BKN050 TX13/2212Z TN04/2205Z"
    },
    {
      "icao": "LFMN",
      "iata": "NCE",
      "name": "Nice-Côte d'Azur Airport",
      "lat": 43.658401,
      "lon": 7.21587,
      "updatedAt": "211800Z",
      "visibility_m": 10000,
      "taf_visibility_m": 10000,
      "worst_visibility_m": 10000,
      "ceiling_ft": null,
      "hazards": [],
      "severityScore": 0,
      "metarRaw": "METAR LFMN 211800Z 32007KT CAVOK 09/04 Q1004 NOSIG",
      "tafRaw": "TAF LFMN 211400Z 2115/2221 14006KT CAVOK \n  BECMG 2117/2120 34010KT \n  BECMG 2209/2211 08012KT \n  BECMG 2217/2219 35010KT"
    },
    {
      "icao": "LICA",
      "iata": "SUF",
      "name": "Lamezia Terme Sant'Eufemia International Airport",
      "lat": 38.906214,
      "lon": 16.246007,
      "updatedAt": "211750Z",
      "visibility_m": 10000,
      "taf_visibility_m": 10000,
      "worst_visibility_m": 10000,
      "ceiling_ft": 4000,
      "hazards": [],
      "severityScore": 0,
      "metarRaw": "METAR LICA 211750Z AUTO 06011KT 9999 BKN066/// 12/10 Q1000",
      "tafRaw": "TAF LICA 211700Z 2118/2218 08018G30KT 9999 BKN040 \n  BECMG 2119/2121 08010KT \n  BECMG 2207/2209 25012KT"
    },
    {
      "icao": "LICC",
      "iata": "CTA",
      "name": "Catania-Fontanarossa Airport",
      "lat": 37.466801,
      "lon": 15.0664,
      "updatedAt": "211750Z",
      "visibility_m": 10000,
      "taf_visibility_m": 7000,
      "worst_visibility_m": 7000,
      "ceiling_ft": null,
      "hazards": [],
      "severityScore": 0,
      "metarRaw": "METAR LICC 211750Z 28005KT 9999 SCT070 11/09 Q0999",
      "tafRaw": "TAF LICC 211700Z 2118/2218 VRB05KT 7000 SCT020 \n  BECMG 2204/2206 26012KT"
    },
    {
      "icao": "LIMJ",
      "iata": "GOA",
      "name": "Genoa Cristoforo Colombo Airport",
      "lat": 44.412039,
      "lon": 8.840732,
      "updatedAt": "211750Z",
      "visibility_m": 10000,
      "taf_visibility_m": 10000,
      "worst_visibility_m": 10000,
      "ceiling_ft": null,
      "hazards": [],
      "severityScore": 0,
      "metarRaw": "METAR LIMJ 211750Z 02012KT 350V050 CAVOK 06/00 Q1005",
      "tafRaw": "TAF LIMJ 211700Z 2118/2218 02015KT CAVOK"
    },
    {
      "icao": "LIPE",
      "iata": "BLQ",
      "name": "Bologna Guglielmo Marconi Airport",
      "lat": 44.5354,
      "lon": 11.2887,
      "updatedAt": "211750Z",
      "visibility_m": 10000,
      "taf_visibility_m": 7000,
      "worst_visibility_m": 7000,
      "ceiling_ft": 4000,
      "hazards": [],
      "severityScore": 0,
      "metarRaw": "METAR LIPE 211750Z VRB01KT 9999 BKN040 04/M00 Q1007",
      "tafRaw": "TAF LIPE 211700Z 2118/2218 VRB05KT 7000 BKN040"
    },
    {
      "icao": "LIPH",
      "iata": "TSF",
      "name": "Treviso Antonio Canova Airport",
      "lat": 45.648399,
      "lon": 12.1944,
      "updatedAt": "211750Z",
      "visibility_m": 10000,
      "taf_visibility_m": 10000,
      "worst_visibility_m": 10000,
      "ceiling_ft": null,
      "hazards": [],
      "severityScore": 0,
      "metarRaw": "METAR LIPH 211750Z VRB01KT CAVOK 02/M05 Q1007",
      "tafRaw": "TAF LIPH 211700Z 2118/2218 VRB05KT CAVOK"
    },
    {
      "icao": "LIPQ",
      "iata": "TRS",
      "name": "Trieste–Friuli Venezia Giulia Airport",
      "lat": 45.827499,
      "lon": 13.4722,
      "updatedAt": "211750Z",
      "visibility_m": 10000,
      "taf_visibility_m": 10000,
      "worst_visibility_m": 10000,
      "ceiling_ft": null,
      "hazards": [],
      "severityScore": 0,
      "metarRaw": "METAR LIPQ 211750Z AUTO 04004KT 9999 NCD M00/M06 Q1007",
      "tafRaw": "TAF LIPQ 211700Z 2118/2218 VRB05KT CAVOK"
    },
    {
      "icao": "LIPR",
      "iata": "RMI",
      "name": "Federico Fellini International Airport",
      "lat": 44.020024,
      "lon": 12.612198,
      "updatedAt": "211750Z",
      "visibility_m": 10000,
      "taf_visibility_m": 10000,
      "worst_visibility_m": 10000,
      "ceiling_ft": 2000,
      "hazards": [],
      "severityScore": 0,
      "metarRaw": "METAR LIPR 211750Z 29005KT 9999 BKN020 04/M00 Q1007",
      "tafRaw": "TAF LIPR 211700Z 2118/2218 30008KT 9999 BKN025"
    },
    {
      "icao": "LIPZ",
      "iata": "VCE",
      "name": "Venice Marco Polo Airport",
      "lat": 45.505299,
      "lon": 12.3519,
      "updatedAt": "211750Z",
      "visibility_m": 10000,
      "taf_visibility_m": 10000,
      "worst_visibility_m": 10000,
      "ceiling_ft": null,
      "hazards": [],
      "severityScore": 0,
      "metarRaw": "METAR LIPZ 211750Z VRB02KT CAVOK 01/M04 Q1007 NOSIG",
      "tafRaw": "TAF LIPZ 211700Z 2118/2224 02006KT CAVOK"
    },
    {
      "icao": "LIRF",
      "iata": "FCO",
      "name": "Rome–Fiumicino Leonardo da Vinci International Airport",
      "lat": 41.804532,
      "lon": 12.251998,
      "updatedAt": "211750Z",
      "visibility_m": 10000,
      "taf_visibility_m": 10000,
      "worst_visibility_m": 10000,
      "ceiling_ft": null,
      "hazards": [],
      "severityScore": 0,
      "metarRaw": "METAR LIRF 211750Z 36002KT CAVOK 08/04 Q1002 NOSIG",
      "tafRaw": "TAF LIRF 211700Z 2118/2224 34007KT 9999 SCT050 \n  BECMG 2200/2202 05010KT \n  BECMG 2209/2211 VRB05KT"
    },
    {
      "icao": "LIRN",
      "iata": "NAP",
      "name": "Naples International Airport",
      "lat": 40.886002,
      "lon": 14.2908,
      "updatedAt": "211750Z",
      "visibility_m": 10000,
      "taf_visibility_m": 10000,
      "worst_visibility_m": 10000,
      "ceiling_ft": 6000,
      "hazards": [],
      "severityScore": 0,
      "metarRaw": "METAR LIRN 211750Z 01007KT 290V020 9999 FEW080 09/04 Q1001 NOSIG",
      "tafRaw": "TAF LIRN 211700Z 2118/2218 05012KT 9999 BKN060 \n  BECMG 2120/2122 VRB05KT"
    },
    {
      "icao": "LKMT",
      "iata": "OSR",
      "name": "Leoš Janáček Airport Ostrava",
      "lat": 49.696301,
      "lon": 18.111099,
      "updatedAt": "211800Z",
      "visibility_m": 10000,
      "taf_visibility_m": 10000,
      "worst_visibility_m": 10000,
      "ceiling_ft": null,
      "hazards": [],
      "severityScore": 0,
      "metarRaw": "METAR LKMT 211800Z 21005KT CAVOK M04/M09 Q1009 NOSIG",
      "tafRaw": "TAF LKMT 211700Z 2118/2218 23014KT CAVOK \n  BECMG 2200/2202 VRB02KT \n  BECMG 2210/2212 03004KT"
    },
    {
      "icao": "LRSM",
      "iata": "SUJ",
      "name": "Satu Mare International Airport",
      "lat": 47.7033,
      "lon": 22.8857,
      "updatedAt": "211800Z",
      "visibility_m": 9000,
      "taf_visibility_m": 10000,
      "worst_visibility_m": 9000,
      "ceiling_ft": null,
      "hazards": [],
      "severityScore": 0,
      "metarRaw": "METAR LRSM 211800Z AUTO 17003KT 060V230 9000 NCD M06/M09 Q1012",
      "tafRaw": "TAF LRSM 211400Z 2115/2124 VRB04KT CAVOK"
    },
    {
      "icao": "LWOH",
      "iata": "OHD",
      "name": "Ohrid St. Paul the Apostle Airport",
      "lat": 41.18,
      "lon": 20.7423,
      "updatedAt": "211750Z",
      "visibility_m": 10000,
      "taf_visibility_m": 10000,
      "worst_visibility_m": 10000,
      "ceiling_ft": 4000,
      "hazards": [],
      "severityScore": 0,
      "metarRaw": "METAR LWOH 211750Z 05009KT 360V090 9999 FEW020 BKN040 03/M01 Q1009",
      "tafRaw": "TAF LWOH 211730Z 2118/2218 03010KT 9999 SCT020 BKN040"
    },
    {
      "icao": "LYNI",
      "iata": "INI",
      "name": "Niš Constantine the Great Airport",
      "lat": 43.336538,
      "lon": 21.856242,
      "updatedAt": "211800Z",
      "visibility_m": 10000,
      "taf_visibility_m": 10000,
      "worst_visibility_m": 10000,
      "ceiling_ft": null,
      "hazards": [],
      "severityScore": 0,
      "metarRaw": "METAR LYNI 211800Z 09012KT 9999 FEW050 03/M04 Q1012 NOSIG",
      "tafRaw": "TAF LYNI 211700Z 2118/2218 10015KT 9999 SCT040 SCT080 TX05/2213Z TN01/2205Z \n  BECMG 2210/2212 10005KT"
    },
    {
      "icao": "OEJN",
      "iata": "JED",
      "name": "King Abdulaziz International Airport",
      "lat": 21.6796,
      "lon": 39.156502,
      "updatedAt": "211800Z",
      "visibility_m": 10000,
      "taf_visibility_m": 2000,
      "worst_visibility_m": 2000,
      "ceiling_ft": null,
      "hazards": [],
      "severityScore": 0,
      "metarRaw": "METAR OEJN 211800Z 36006KT CAVOK 25/17 Q1014 NOSIG",
      "tafRaw": "TAF OEJN 211700Z 2118/2224 03006KT CAVOK \n  BECMG 2122/2200 09015KT 7000 NSC \n  TEMPO 2122/2206 2000 BLDU \n  BECMG 2208/2210 21010KT"
    },
    {
      "icao": "OEMA",
      "iata": "MED",
      "name": "Prince Mohammad Bin Abdulaziz Airport",
      "lat": 24.5534,
      "lon": 39.705101,
      "updatedAt": "211800Z",
      "visibility_m": 10000,
      "taf_visibility_m": 3000,
      "worst_visibility_m": 3000,
      "ceiling_ft": null,
      "hazards": [],
      "severityScore": 0,
      "metarRaw": "METAR OEMA 211800Z 06014KT CAVOK 18/M04 Q1023 NOSIG",
      "tafRaw": "TAF OEMA 211700Z 2118/2224 09015KT 7000 NSC \n  PROB30 \n  TEMPO 2118/2208 3000 BLDU"
    },
    {
      "icao": "OJAI",
      "iata": "AMM",
      "name": "Queen Alia International Airport",
      "lat": 31.7226009369,
      "lon": 35.9931983948,
      "updatedAt": "211800Z",
      "visibility_m": 4000,
      "taf_visibility_m": 3000,
      "worst_visibility_m": 3000,
      "ceiling_ft": null,
      "hazards": [],
      "severityScore": 0,
      "metarRaw": "METAR OJAI 211800Z 09017KT 4000 BLDU NSC 07/M02 Q1024 NOSIG",
      "tafRaw": "TAF OJAI 211700Z 2118/2224 11014KT 5000 HZ FEW030 \n  TEMPO 2118/2121 14022KT 3000 BLDU \n  PROB40 \n  TEMPO 2209/2218 14022KT 3000 BLDU"
    },
    {
      "icao": "OMAA",
      "iata": "AUH",
      "name": "Zayed International Airport",
      "lat": 24.440966,
      "lon": 54.649237,
      "updatedAt": "211800Z",
      "visibility_m": 10000,
      "taf_visibility_m": 8000,
      "worst_visibility_m": 8000,
      "ceiling_ft": null,
      "hazards": [],
      "severityScore": 0,
      "metarRaw": "METAR OMAA 211800Z 29013KT 9999 SCT035 18/10 Q1019 NOSIG",
      "tafRaw": "TAF OMAA 211700Z 2118/2300 30012KT 8000 SCT040 \n  PROB30 \n  TEMPO 2204/2213 32015G25KT \n  BECMG 2218/2220 07005KT"
    },
    {
      "icao": "OMDB",
      "iata": "DXB",
      "name": "Dubai International Airport",
      "lat": 25.2527999878,
      "lon": 55.3643989563,
      "updatedAt": "211800Z",
      "visibility_m": 10000,
      "taf_visibility_m": 8000,
      "worst_visibility_m": 8000,
      "ceiling_ft": null,
      "hazards": [],
      "severityScore": 0,
      "metarRaw": "METAR OMDB 211800Z 27016KT 9999 FEW045 18/06 Q1019 NOSIG",
      "tafRaw": "TAF OMDB 211700Z 2118/2300 28016KT 8000 SCT035 \n  BECMG 2204/2206 35014KT \n  PROB30 \n  TEMPO 2207/2213 35017G27KT \n  BECMG 2216/2218 06006KT"
    },
    {
      "icao": "UBBB",
      "iata": "GYD",
      "name": "Heydar Aliyev International Airport",
      "lat": 40.467498779296875,
      "lon": 50.04669952392578,
      "updatedAt": "211800Z",
      "visibility_m": 10000,
      "taf_visibility_m": 10000,
      "worst_visibility_m": 10000,
      "ceiling_ft": null,
      "hazards": [],
      "severityScore": 0,
      "metarRaw": "METAR UBBB 211800Z 24004KT CAVOK M01/M03 Q1028 NOSIG",
      "tafRaw": "TAF UBBB 211708Z 2118/2218 20010KT 9999 SCT015 TX06/2210Z TN00/2201Z \n  TEMPO 2118/2120 24006KT \n  TEMPO 2120/2124 18006KT \n  TEMPO 2200/2212 22016KT"
    },
    {
      "icao": "UGKO",
      "iata": "KUT",
      "name": "David the Builder Kutaisi International Airport",
      "lat": 42.177448,
      "lon": 42.485353,
      "updatedAt": "211800Z",
      "visibility_m": 10000,
      "taf_visibility_m": 10000,
      "worst_visibility_m": 10000,
      "ceiling_ft": 8000,
      "hazards": [],
      "severityScore": 0,
      "metarRaw": "METAR UGKO 211800Z 08007KT CAVOK M01/M01 Q1027 NOSIG",
      "tafRaw": "TAF UGKO 211700Z 2118/2218 08010KT CAVOK TX08/2211Z TNM01/2204Z \n  BECMG 2202/2205 08020KT \n  TEMPO 2209/2215 08025G35KT \n  TEMPO 2210/2218 BKN080"
    }
  ],
  "stats": {
    "icaoCount": 159,
    "metarReturned": 159,
    "tafReturned": 153,
    "stationsWritten": 159,
    "missingMetar": 0,
    "missingTaf": 6
  },
  "errors": []
}