{
  "generatedAt": "2026-01-17T11:21:42.627Z",
  "stations": [
    {
      "icao": "EDJA",
      "iata": "FMM",
      "name": "Memmingen Allgau Airport",
      "updatedAt": "171050Z",
      "visibility_m": 500,
      "taf_visibility_m": 600,
      "worst_visibility_m": 500,
      "ceiling_ft": 200,
      "hazards": [
        "FZFG",
        "FG",
        "BR"
      ],
      "severityScore": 100,
      "metarRaw": "METAR EDJA 171050Z 05004KT 020V090 0500 R06/0700U FZFG VV/// M02/M02 Q1019",
      "tafRaw": "TAF EDJA 170800Z 1709/1718 05005KT 0600 FZFG VV002 \n  PROB30 \n  TEMPO 1711/1714 3000 BR"
    },
    {
      "icao": "EFTU",
      "iata": "TKU",
      "name": "Turku Airport",
      "updatedAt": "171120Z",
      "visibility_m": 2500,
      "taf_visibility_m": 300,
      "worst_visibility_m": 300,
      "ceiling_ft": 100,
      "hazards": [
        "DZ",
        "FG",
        "BR"
      ],
      "severityScore": 100,
      "metarRaw": "METAR EFTU 171120Z AUTO 19007KT 2500 DZ OVC001 02/01 Q1028",
      "tafRaw": "TAF EFTU 170824Z 1709/1809 18010KT 2500 +DZ BR OVC002 \n  TEMPO 1709/1713 5000 -DZ OVC001 \n  BECMG 1713/1715 24006KT 0300 FG VV001 \n  TEMPO 1715/1807 0800 VV003 \n  BECMG 1807/1809 2500 BR OVC003"
    },
    {
      "icao": "EGBB",
      "iata": "BHX",
      "name": "Birmingham Airport",
      "updatedAt": "171050Z",
      "visibility_m": 10000,
      "taf_visibility_m": 300,
      "worst_visibility_m": 300,
      "ceiling_ft": 100,
      "hazards": [
        "FG",
        "BR",
        "RA",
        "DZ"
      ],
      "severityScore": 100,
      "metarRaw": "METAR EGBB 171050Z 14006KT CAVOK 07/06 Q1014",
      "tafRaw": "TAF EGBB 171103Z 1712/1812 15005KT 9999 FEW020 \n  PROB30 \n  TEMPO 1712/1718 BKN014 \n  BECMG 1718/1721 7000 BKN006 \n  BECMG 1721/1724 3000 BR BKN004 \n  PROB30 1722/1807 0300 FG BKN001 \n  BECMG 1807/1810 9999 NSW BKN006 \n  TEMPO 1807/1812 2000 RADZ BR BKN002"
    },
    {
      "icao": "EGGW",
      "iata": "LTN",
      "name": "London Luton Airport",
      "updatedAt": "171050Z",
      "visibility_m": 10000,
      "taf_visibility_m": 300,
      "worst_visibility_m": 300,
      "ceiling_ft": 100,
      "hazards": [
        "FG",
        "BR"
      ],
      "severityScore": 100,
      "metarRaw": "METAR EGGW 171050Z AUTO 16009KT 9999 BKN009/// BKN013/// BKN028/// //////TCU 08/07 Q1014",
      "tafRaw": "TAF EGGW 171057Z 1712/1812 13007KT 9000 BKN009 \n  BECMG 1712/1715 9999 SCT009 \n  PROB30 \n  TEMPO 1715/1718 BKN008 \n  BECMG 1718/1721 6000 BKN003 \n  PROB40 \n  TEMPO 1718/1722 1400 BR BKN001 \n  PROB40 1722/1810 0300 FG BKN001 \n  BECMG 1810/1812 SCT006"
    },
    {
      "icao": "EGNM",
      "iata": "LBA",
      "name": "Leeds Bradford Airport",
      "updatedAt": "171050Z",
      "visibility_m": 100,
      "taf_visibility_m": 300,
      "worst_visibility_m": 100,
      "ceiling_ft": 100,
      "hazards": [
        "FG",
        "BR",
        "RA",
        "DZ"
      ],
      "severityScore": 100,
      "metarRaw": "METAR EGNM 171050Z 13004KT 090V160 0100 R14/0200N FG VV/// 06/06 Q1014",
      "tafRaw": "TAF EGNM 171059Z 1712/1812 13004KT 0300 FG OVC001 \n  BECMG 1712/1714 6000 NSW SCT008 \n  PROB40 \n  TEMPO 1712/1713 RA -RADZ \n  TEMPO 1714/1718 3000 BR BKN004 \n  BECMG 1718/1720 0300 FG VV/// \n  TEMPO 1804/1812 RA -RADZ"
    },
    {
      "icao": "EGPD",
      "iata": "ABZ",
      "name": "Aberdeen International Airport",
      "updatedAt": "171050Z",
      "visibility_m": 10000,
      "taf_visibility_m": 300,
      "worst_visibility_m": 300,
      "ceiling_ft": 600,
      "hazards": [
        "FG",
        "BR",
        "RA",
        "DZ"
      ],
      "severityScore": 100,
      "metarRaw": "METAR EGPD 171050Z 13009KT 9999 BKN009 07/06 Q1016 TEMPO BKN006",
      "tafRaw": "TAF EGPD 171054Z 1712/1812 13010KT 9999 SCT008 BKN015 \n  TEMPO 1712/1721 6000 RA -RADZ BKN008 \n  PROB40 \n  TEMPO 1712/1721 3000 +RA RADZ BKN004 \n  BECMG 1718/1721 VRB03KT \n  TEMPO 1721/1812 3000 BR BKN004 \n  PROB30 \n  TEMPO 1721/1812 0300 FG BKN001"
    },
    {
      "icao": "ENGM",
      "iata": "OSL",
      "name": "Oslo-Gardermoen International Airport",
      "updatedAt": "171050Z",
      "visibility_m": 1300,
      "taf_visibility_m": 500,
      "worst_visibility_m": 500,
      "ceiling_ft": 200,
      "hazards": [
        "BR",
        "FG",
        "FZFG",
        "SN",
        "RA"
      ],
      "severityScore": 100,
      "metarRaw": "METAR ENGM 171050Z 00000KT 1300 R19R/1400D R01R/P2000N R19L/1100N R01L/1900U BR BKN002 00/M00 Q1027 TEMPO 2000 BCFG BKN005",
      "tafRaw": "TAF ENGM 170500Z 1706/1806 VRB03KT 6000 SCT003 \n  BECMG 1706/1708 0500 FZFG VV002 \n  TEMPO 1708/1721 6000 NSW BKN005 \n  TEMPO 1721/1806 4000 -RASN BR BKN005"
    },
    {
      "icao": "ENTO",
      "iata": "TRF",
      "name": "Sandefjord Airport, Torp",
      "updatedAt": "171050Z",
      "visibility_m": 250,
      "taf_visibility_m": null,
      "worst_visibility_m": 250,
      "ceiling_ft": 100,
      "hazards": [
        "FZFG",
        "FG"
      ],
      "severityScore": 100,
      "metarRaw": "METAR ENTO 171050Z 01006KT 0250 R18/0500N R36/0550N FZFG VV001 M01/M01 Q1027 NOSIG",
      "tafRaw": null
    },
    {
      "icao": "EPGD",
      "iata": "GDN",
      "name": "Gdańsk Lech Wałęsa Airport",
      "updatedAt": "171100Z",
      "visibility_m": 900,
      "taf_visibility_m": null,
      "worst_visibility_m": 900,
      "ceiling_ft": 100,
      "hazards": [
        "FZFG",
        "FG"
      ],
      "severityScore": 100,
      "metarRaw": "METAR EPGD 171100Z 17007KT 0900 R29/1000N FZFG OVC001 M04/M04 Q1030",
      "tafRaw": null
    },
    {
      "icao": "EPKT",
      "iata": "KTW",
      "name": "Katowice Wojciech Korfanty International Airport",
      "updatedAt": "171100Z",
      "visibility_m": 10000,
      "taf_visibility_m": 200,
      "worst_visibility_m": 200,
      "ceiling_ft": 100,
      "hazards": [
        "FZFG",
        "BR",
        "FG"
      ],
      "severityScore": 100,
      "metarRaw": "METAR EPKT 171100Z 10007KT CAVOK 02/M00 Q1028",
      "tafRaw": "TAF EPKT 170530Z 1706/1806 11008KT 0200 FZFG OVC001 \n  TEMPO 1706/1708 3000 BR OVC005 \n  BECMG 1708/1711 CAVOK"
    },
    {
      "icao": "EPWR",
      "iata": "WRO",
      "name": "Copernicus Wrocław Airport",
      "updatedAt": "171100Z",
      "visibility_m": 1000,
      "taf_visibility_m": 300,
      "worst_visibility_m": 300,
      "ceiling_ft": 200,
      "hazards": [
        "BR",
        "FZFG",
        "FG"
      ],
      "severityScore": 100,
      "metarRaw": "METAR EPWR 171100Z 12009KT 1000 R29/1600N BR OVC002 01/01 Q1028",
      "tafRaw": "TAF EPWR 170830Z 1709/1809 13013KT 0500 FG OVC001 \n  BECMG 1709/1712 9999 BKN010 \n  BECMG 1712/1715 CAVOK \n  BECMG 1716/1719 2500 BR BKN006 \n  TEMPO 1720/1724 0600 FG BKN002 \n  TEMPO 1800/1809 0300 FZFG BKN001"
    },
    {
      "icao": "ESKN",
      "iata": "NYO",
      "name": "Stockholm Skavsta Airport",
      "updatedAt": "171050Z",
      "visibility_m": 300,
      "taf_visibility_m": 150,
      "worst_visibility_m": 150,
      "ceiling_ft": 200,
      "hazards": [
        "FG",
        "BR"
      ],
      "severityScore": 100,
      "metarRaw": "METAR ESKN 171050Z 08002KT 0300 R08/0800N R26/0400N FG VV002 02/02 Q1029",
      "tafRaw": "TAF ESKN 170830Z 1709/1809 19005KT 0150 FG VV002 \n  TEMPO 1709/1809 3000 BR SCT002"
    },
    {
      "icao": "ESMS",
      "iata": "MMX",
      "name": "Malmö Sturup Airport",
      "updatedAt": "171050Z",
      "visibility_m": 200,
      "taf_visibility_m": 100,
      "worst_visibility_m": 100,
      "ceiling_ft": 200,
      "hazards": [
        "FG",
        "BR"
      ],
      "severityScore": 100,
      "metarRaw": "METAR ESMS 171050Z 13009KT 100V160 0200 R17/0500N R35/0550N FG VV002 02/02 Q1027",
      "tafRaw": "TAF ESMS 170827Z 1709/1809 13008KT 0100 FG VV001 \n  TEMPO 1709/1710 3000 BR BKN005 \n  BECMG 1710/1712 2000 BR BKN005 \n  TEMPO 1712/1806 6000 NSW BKN002 \n  BECMG 1806/1808 4000 NSC"
    },
    {
      "icao": "LFBD",
      "iata": "BOD",
      "name": "Bordeaux–Mérignac Airport",
      "updatedAt": "171100Z",
      "visibility_m": 1500,
      "taf_visibility_m": 300,
      "worst_visibility_m": 300,
      "ceiling_ft": 200,
      "hazards": [
        "BR",
        "FG",
        "SHRA",
        "RA"
      ],
      "severityScore": 100,
      "metarRaw": "METAR LFBD 171100Z AUTO 09003KT 070V140 CAVOK 08/08 Q1012 TEMPO 1500 BR BKN025TCU",
      "tafRaw": "TAF LFBD 170500Z 1706/1812 VRB03KT CAVOK TX10/1812Z TN05/1706Z \n  TEMPO 1706/1712 1500 BR BKN002 \n  PROB30 \n  TEMPO 1706/1710 0400 FG VV/// \n  TEMPO 1712/1716 -SHRA BKN025TCU \n  TEMPO 1716/1812 2000 BR BKN003 \n  PROB40 \n  TEMPO 1802/1811 0300 FG VV///"
    },
    {
      "icao": "LIBP",
      "iata": "PSR",
      "name": "Abruzzo Airport",
      "updatedAt": "171050Z",
      "visibility_m": 10000,
      "taf_visibility_m": 300,
      "worst_visibility_m": 300,
      "ceiling_ft": 200,
      "hazards": [
        "FG",
        "BR"
      ],
      "severityScore": 100,
      "metarRaw": "METAR LIBP 171050Z AUTO 07003KT 020V090 9999 SCT052/// 12/09 Q1022",
      "tafRaw": "TAF LIBP 171100Z 1712/1812 VRB03KT 6000 SCT030 \n  BECMG 1718/1720 3000 BR \n  PROB40 \n  TEMPO 1722/1806 0300 FG OVC002 \n  BECMG 1806/1808 7000"
    },
    {
      "icao": "LIPE",
      "iata": "BLQ",
      "name": "Bologna Guglielmo Marconi Airport",
      "updatedAt": "171050Z",
      "visibility_m": 1600,
      "taf_visibility_m": 300,
      "worst_visibility_m": 300,
      "ceiling_ft": 300,
      "hazards": [
        "BR",
        "FG"
      ],
      "severityScore": 100,
      "metarRaw": "METAR LIPE 171050Z 28005KT 240V320 1600 BR BKN003 BKN010 07/07 Q1023",
      "tafRaw": "TAF LIPE 171100Z 1712/1812 VRB04KT 2000 BR BKN020 \n  TEMPO 1718/1806 0300 FG OVC003"
    },
    {
      "icao": "LIPR",
      "iata": "RMI",
      "name": "Federico Fellini International Airport",
      "updatedAt": "171050Z",
      "visibility_m": 2500,
      "taf_visibility_m": 300,
      "worst_visibility_m": 300,
      "ceiling_ft": 300,
      "hazards": [
        "BR",
        "FG"
      ],
      "severityScore": 100,
      "metarRaw": "METAR LIPR 171050Z 29008KT 2500 BR BKN003 08/08 Q1022",
      "tafRaw": "TAF LIPR 171100Z 1712/1812 VRB04KT 4000 BR BKN008 \n  BECMG 1721/1723 0300 FG OVC003 \n  BECMG 1808/1810 6000"
    },
    {
      "icao": "LIPY",
      "iata": "AOI",
      "name": "Marche Airport",
      "updatedAt": "171050Z",
      "visibility_m": 2600,
      "taf_visibility_m": 300,
      "worst_visibility_m": 300,
      "ceiling_ft": 100,
      "hazards": [
        "BR",
        "DZ",
        "FG"
      ],
      "severityScore": 100,
      "metarRaw": "METAR LIPY 171050Z AUTO 35004KT 2600 R22/1400D +DZ BR OVC005/// 10/09 Q1022",
      "tafRaw": "TAF LIPY 171100Z 1712/1812 VRB05KT 4000 BR OVC010 \n  BECMG 1718/1720 0300 FG OVC001 \n  BECMG 1804/1806 3000 BR OVC010"
    },
    {
      "icao": "LKMT",
      "iata": "OSR",
      "name": "Ostrava Leos Janáček Airport",
      "updatedAt": "171100Z",
      "visibility_m": 150,
      "taf_visibility_m": 200,
      "worst_visibility_m": 150,
      "ceiling_ft": 200,
      "hazards": [
        "FZFG",
        "FG",
        "BR"
      ],
      "severityScore": 100,
      "metarRaw": "METAR LKMT 171100Z VRB01KT 0150 R22/0275N R04/0275N FZFG VV002 M01/M01 Q1028 NOSIG",
      "tafRaw": "TAF LKMT 171100Z 1712/1812 VRB02KT 0200 FZFG VV002 \n  PROB30 \n  TEMPO 1713/1717 2500 BR OVC006 \n  TEMPO 1809/1812 1500 BR SCT004"
    },
    {
      "icao": "LQSA",
      "iata": "SJJ",
      "name": "Sarajevo International Airport",
      "updatedAt": "171100Z",
      "visibility_m": 400,
      "taf_visibility_m": 500,
      "worst_visibility_m": 400,
      "ceiling_ft": 300,
      "hazards": [
        "FZFG",
        "FG",
        "BR"
      ],
      "severityScore": 100,
      "metarRaw": "METAR LQSA 171100Z VRB02KT 0400 R11/0400N FZFG VV003 M01/M01 Q1024 BECMG 0700",
      "tafRaw": "TAF LQSA 171100Z 1712/1812 VRB02KT 0500 FZFG BKN002 TX01/1714Z TNM03/1806Z \n  PROB30 \n  TEMPO 1712/1716 4000 BR SCT008 \n  PROB40 \n  TEMPO 1722/1812 4000 BR BKN012"
    },
    {
      "icao": "LRTR",
      "iata": "TSR",
      "name": "Timişoara Traian Vuia Airport",
      "updatedAt": "171100Z",
      "visibility_m": 10000,
      "taf_visibility_m": 600,
      "worst_visibility_m": 600,
      "ceiling_ft": 200,
      "hazards": [
        "FZFG",
        "BR",
        "FG"
      ],
      "severityScore": 100,
      "metarRaw": "METAR LRTR 171100Z 11008KT CAVOK 02/M04 Q1030",
      "tafRaw": "TAF LRTR 170500Z 1706/1806 08006KT 9999 BKN045 \n  BECMG 1718/1720 5000 BR \n  BECMG 1722/1724 3000 BR BKN005 \n  PROB40 \n  TEMPO 1801/1806 0600 FZFG OVC002"
    },
    {
      "icao": "LYPG",
      "iata": "TGD",
      "name": "Podgorica Airport / Podgorica Golubovci Airbase",
      "updatedAt": "171100Z",
      "visibility_m": 10000,
      "taf_visibility_m": 200,
      "worst_visibility_m": 200,
      "ceiling_ft": null,
      "hazards": [
        "FZFG",
        "FG"
      ],
      "severityScore": 100,
      "metarRaw": "METAR LYPG 171100Z 13003KT 080V200 CAVOK 13/04 Q1023 NOSIG",
      "tafRaw": "TAF LYPG 171100Z 1712/1812 17007KT CAVOK TX13/1713Z TNM01/1802Z \n  BECMG 1718/1720 0500 FG \n  TEMPO 1720/1807 0200 \n  BECMG 1801/1803 FZFG \n  BECMG 1807/1809 9999 NSW"
    },
    {
      "icao": "EPPO",
      "iata": "POZ",
      "name": "Poznań-Ławica Airport",
      "updatedAt": "171100Z",
      "visibility_m": 350,
      "taf_visibility_m": null,
      "worst_visibility_m": 350,
      "ceiling_ft": 200,
      "hazards": [
        "FG"
      ],
      "severityScore": 95,
      "metarRaw": "METAR EPPO 171100Z 11010KT 0350 R28/0700N FG VV002 01/01 Q1028",
      "tafRaw": null
    },
    {
      "icao": "EETN",
      "iata": "TLL",
      "name": "Lennart Meri Tallinn Airport",
      "updatedAt": "171120Z",
      "visibility_m": 5000,
      "taf_visibility_m": 3000,
      "worst_visibility_m": 3000,
      "ceiling_ft": 500,
      "hazards": [
        "BR",
        "FZDZ",
        "DZ",
        "SN"
      ],
      "severityScore": 91,
      "metarRaw": "METAR EETN 171120Z 18011KT 8000 OVC006 M07/M08 Q1033 TEMPO 5000 -FZDZ BR OVC005",
      "tafRaw": "TAF EETN 170530Z 1706/1806 18010KT 9999 OVC010 \n  PROB40 \n  TEMPO 1706/1711 4000 -FZDZ SN BKN004 OVC008 \n  TEMPO 1711/1718 OVC007 \n  TEMPO 1713/1723 3000 SG FZDZ \n  TEMPO 1718/1806 SCT010 OVC020"
    },
    {
      "icao": "LKPR",
      "iata": "PRG",
      "name": "Václav Havel Airport Prague",
      "updatedAt": "171100Z",
      "visibility_m": 2600,
      "taf_visibility_m": 800,
      "worst_visibility_m": 800,
      "ceiling_ft": 400,
      "hazards": [
        "BR",
        "FG"
      ],
      "severityScore": 90,
      "metarRaw": "METAR LKPR 171100Z 06006KT 2600 0900NE R24/2000U R30/P2000N BR BCFG SCT002 BKN004 OVC012 02/02 Q1023 NOSIG",
      "tafRaw": "TAF LKPR 171100Z 1712/1818 11007KT 2500 BR BKN012 \n  TEMPO 1712/1714 0800 PRFG BKN004 \n  BECMG 1714/1716 5000 BR BKN007 \n  BECMG 1714/1716 12012KT \n  TEMPO 1716/1720 8000 BKN015 \n  TEMPO 1720/1724 9999 SCT015 \n  BECMG 1800/1802 CAVOK"
    },
    {
      "icao": "ESSA",
      "iata": "ARN",
      "name": "Stockholm-Arlanda Airport",
      "updatedAt": "171050Z",
      "visibility_m": 10000,
      "taf_visibility_m": 300,
      "worst_visibility_m": 300,
      "ceiling_ft": 1400,
      "hazards": [
        "FG",
        "BR"
      ],
      "severityScore": 87,
      "metarRaw": "METAR ESSA 171050Z 22007KT 9999 BKN014 03/02 Q1028 NOSIG",
      "tafRaw": "TAF ESSA 170830Z 1709/1809 18010KT 9999 OVC020 \n  PROB40 1709/1713 BKN008 \n  BECMG 1713/1715 4000 BR BKN005 \n  TEMPO 1715/1807 0300 FG VV002 \n  BECMG 1807/1809 9999 NSW BKN010"
    },
    {
      "icao": "LFLL",
      "iata": "LYS",
      "name": "Lyon Saint-Exupéry Airport",
      "updatedAt": "171100Z",
      "visibility_m": 9000,
      "taf_visibility_m": 300,
      "worst_visibility_m": 300,
      "ceiling_ft": 5000,
      "hazards": [
        "RA",
        "FG",
        "BR"
      ],
      "severityScore": 87,
      "metarRaw": "METAR LFLL 171100Z 14008KT 9000 -RA NSC 09/06 Q1017 TEMPO RA BKN050",
      "tafRaw": "TAF LFLL 171100Z 1712/1818 14010KT CAVOK \n  TEMPO 1712/1715 RA BKN050 \n  BECMG 1717/1719 VRB03KT \n  PROB40 \n  TEMPO 1719/1724 0800 BCFG \n  BECMG 1721/1724 0600 FG VV/// \n  PROB40 1800/1810 0300 \n  BECMG 1810/1812 3000 BR OVC002 \n  BECMG 1812/1814 6000 NSW OVC005 \n  PROB30 1815/1818 OVC010"
    },
    {
      "icao": "EKCH",
      "iata": "CPH",
      "name": "Copenhagen Kastrup Airport",
      "updatedAt": "171050Z",
      "visibility_m": 700,
      "taf_visibility_m": null,
      "worst_visibility_m": 700,
      "ceiling_ft": 200,
      "hazards": [
        "FG"
      ],
      "severityScore": 85,
      "metarRaw": "METAR EKCH 171050Z 13012KT 0700 R22L/0900D R04L/1200U R12/1000N FG VV002 02/02 Q1027 BECMG 2000",
      "tafRaw": null
    },
    {
      "icao": "LHBP",
      "iata": "BUD",
      "name": "Budapest Liszt Ferenc International Airport",
      "updatedAt": "171100Z",
      "visibility_m": 8000,
      "taf_visibility_m": 4000,
      "worst_visibility_m": 4000,
      "ceiling_ft": 2800,
      "hazards": [
        "BR",
        "FZRA",
        "FG",
        "RA"
      ],
      "severityScore": 77,
      "metarRaw": "METAR LHBP 171100Z 09006KT 8000 FEW007 BKN028 02/00 Q1030 NOSIG",
      "tafRaw": "TAF LHBP 170515Z 1706/1806 08007KT 9999 BKN030 \n  PROB30 \n  TEMPO 1706/1708 -FZRA \n  TEMPO 1710/1716 VRB03KT 4500 BR BKN006 \n  BECMG 1716/1719 CAVOK \n  TEMPO 1802/1806 VRB02KT 4000 MIFG BR"
    },
    {
      "icao": "LCLK",
      "iata": "LCA",
      "name": "Larnaca International Airport",
      "updatedAt": "171100Z",
      "visibility_m": 10000,
      "taf_visibility_m": 3000,
      "worst_visibility_m": 3000,
      "ceiling_ft": 4500,
      "hazards": [
        "TSRA",
        "RA",
        "SHRA",
        "TS"
      ],
      "severityScore": 76,
      "metarRaw": "METAR LCLK 171100Z VRB02KT 9999 FEW023 SCT030 BKN045 18/11 Q1015 NOSIG",
      "tafRaw": "TAF LCLK 170530Z 1706/1806 31006KT 9999 -RA FEW030 SCT045 \n  PROB30 \n  TEMPO 1711/1806 5000 SHRA SCT025TCU FEW030CB \n  PROB30 \n  TEMPO 1711/1720 VRB13G23KT 3000 TSRA FEW030CB \n  BECMG 1711/1715 01014KT"
    },
    {
      "icao": "LCPH",
      "iata": "PFO",
      "name": "Paphos International Airport",
      "updatedAt": "171100Z",
      "visibility_m": 10000,
      "taf_visibility_m": 3000,
      "worst_visibility_m": 3000,
      "ceiling_ft": 4500,
      "hazards": [
        "TSRA",
        "RA",
        "SHRA",
        "TS"
      ],
      "severityScore": 76,
      "metarRaw": "METAR LCPH 171100Z 31011KT 9999 FEW025 SCT080 18/09 Q1015 NOSIG",
      "tafRaw": "TAF LCPH 170530Z 1706/1806 04007KT 8000 -RA FEW020 SCT030 BKN045 \n  PROB30 \n  TEMPO 1706/1806 5000 SHRA SCT025TCU FEW030CB \n  BECMG 1707/1711 31012KT \n  PROB30 \n  TEMPO 1709/1722 VRB13G23KT 3000 TSRA FEW030CB \n  BECMG 1714/1717 05010KT"
    },
    {
      "icao": "LEBL",
      "iata": "BCN",
      "name": "Josep Tarradellas Barcelona-El Prat Airport",
      "updatedAt": "171100Z",
      "visibility_m": 10000,
      "taf_visibility_m": 2000,
      "worst_visibility_m": 2000,
      "ceiling_ft": 2500,
      "hazards": [
        "TSRA",
        "SHRA",
        "TS",
        "RA"
      ],
      "severityScore": 76,
      "metarRaw": "METAR LEBL 171100Z 11013KT 9999 SCT012 BKN025 BKN050 14/13 Q1011 NOSIG",
      "tafRaw": "TAF LEBL 170500Z 1706/1806 11012KT 9000 SCT010 BKN050 TX16/1712Z TN14/1706Z \n  TEMPO 1707/1716 12015G25KT \n  TEMPO 1706/1806 3000 SHRA BKN015 SCT020TCU \n  PROB40 \n  TEMPO 1714/1806 2000 TSRA BKN015 SCT020CB"
    },
    {
      "icao": "LLBG",
      "iata": "TLV",
      "name": "Ben Gurion International Airport",
      "updatedAt": "171050Z",
      "visibility_m": 10000,
      "taf_visibility_m": 5000,
      "worst_visibility_m": 5000,
      "ceiling_ft": 3000,
      "hazards": [
        "TSRA",
        "RA",
        "SHRA",
        "TS"
      ],
      "severityScore": 76,
      "metarRaw": "METAR LLBG 171050Z 27004KT 220V360 9999 SCT050 19/08 Q1016 NOSIG",
      "tafRaw": "TAF LLBG 171107Z 1712/1812 28008KT 9999 SCT045 \n  BECMG 1715/1717 15006KT SCT040 \n  PROB40 \n  TEMPO 1800/1804 17012KT 7000 RA FEW025TCU BKN030 \n  PROB40 \n  TEMPO 1804/1809 21015G25KT 5000 SHRA FEW025CB BKN030 \n  BECMG 1809/1811 23010KT SCT030 BKN040 \n  PROB40 \n  TEMPO 1811/1812 26016G26KT 5000 TSRA SCT015 FEW020CB BKN030 TX19/1712Z TN09/1805Z"
    },
    {
      "icao": "EPSC",
      "iata": "SZZ",
      "name": "Solidarity Szczecin–Goleniów Airport",
      "updatedAt": "171100Z",
      "visibility_m": 3000,
      "taf_visibility_m": 900,
      "worst_visibility_m": 900,
      "ceiling_ft": 200,
      "hazards": [
        "BR",
        "FG"
      ],
      "severityScore": 75,
      "metarRaw": "METAR EPSC 171100Z 13012KT 3000 BR OVC002 01/01 Q1027",
      "tafRaw": "TAF EPSC 170530Z 1706/1806 13012KT 1500 BR OVC002 \n  TEMPO 1706/1709 0900 FG BKN001 \n  BECMG 1710/1712 4000 BR \n  BECMG 1717/1719 8000 SCT007 \n  PROB40 1719/1724 3000 BR"
    },
    {
      "icao": "LFOB",
      "iata": "BVA",
      "name": "Beauvais Tillé airport",
      "updatedAt": "171100Z",
      "visibility_m": 4000,
      "taf_visibility_m": 900,
      "worst_visibility_m": 900,
      "ceiling_ft": 400,
      "hazards": [
        "BR",
        "FG"
      ],
      "severityScore": 75,
      "metarRaw": "METAR LFOB 171100Z AUTO 14005KT 9999 OVC004 08/08 Q1015 TEMPO 4000 BR OVC009",
      "tafRaw": "TAF LFOB 170500Z 1706/1806 11005KT 8000 OVC006 \n  TEMPO 1706/1712 4000 BR BKN003 OVC026 \n  PROB40 \n  TEMPO 1706/1711 0900 FG VV/// \n  BECMG 1712/1716 CAVOK \n  PROB40 \n  TEMPO 1712/1716 OVC009"
    },
    {
      "icao": "OJAI",
      "iata": "AMM",
      "name": "Queen Alia International Airport",
      "updatedAt": "171100Z",
      "visibility_m": 5000,
      "taf_visibility_m": 2000,
      "worst_visibility_m": 2000,
      "ceiling_ft": 3000,
      "hazards": [
        "BR",
        "TSRA",
        "RA",
        "TS"
      ],
      "severityScore": 72,
      "metarRaw": "METAR OJAI 171100Z 16002KT 5000 HZ NSC 13/04 Q1017 NOSIG",
      "tafRaw": "TAF OJAI 171100Z 1712/1818 28010KT 5000 HZ SCT035 \n  TEMPO 1807/1818 23016KT 3000 RA BR SCT025TCU BKN035 \n  PROB30 \n  TEMPO 1809/1816 27015G25KT 2000 TSRA FEW020CB BKN030"
    },
    {
      "icao": "LPPS",
      "iata": "PXO",
      "name": "Porto Santo Airport",
      "updatedAt": "171100Z",
      "visibility_m": 10000,
      "taf_visibility_m": 3000,
      "worst_visibility_m": 3000,
      "ceiling_ft": 800,
      "hazards": [
        "BR",
        "SHRA",
        "RA",
        "DZ"
      ],
      "severityScore": 71,
      "metarRaw": "METAR LPPS 171100Z 36018KT 9999 SCT015 16/11 Q1023",
      "tafRaw": "TAF LPPS 171100Z 1712/1818 34018KT 9999 SCT015 \n  BECMG 1716/1718 30018KT SCT015 BKN030 \n  TEMPO 1718/1803 31023G35KT 3000 RADZ BR SCT004 BKN008 \n  PROB30 \n  TEMPO 1722/1803 31028G40KT \n  BECMG 1803/1805 36018KT SCT015 \n  TEMPO 1805/1812 36020G32KT 8000 SHRA BKN012"
    },
    {
      "icao": "LPPT",
      "iata": "LIS",
      "name": "Lisbon Humberto Delgado Airport",
      "updatedAt": "171100Z",
      "visibility_m": 10000,
      "taf_visibility_m": 2000,
      "worst_visibility_m": 2000,
      "ceiling_ft": 300,
      "hazards": [
        "BR",
        "SHRA",
        "RA"
      ],
      "severityScore": 71,
      "metarRaw": "METAR LPPT 171100Z 29004KT 250V340 9999 FEW020 FEW025TCU 12/06 Q1014",
      "tafRaw": "TAF LPPT 171100Z 1712/1818 29007KT 9999 SCT020 \n  TEMPO 1712/1724 8000 SHRA SCT015 FEW025CB BKN030 \n  BECMG 1718/1720 34007KT \n  BECMG 1804/1806 04007KT SCT004 \n  PROB30 \n  TEMPO 1806/1809 2000 BR BKN003 \n  BECMG 1810/1812 SCT030"
    },
    {
      "icao": "LEZG",
      "iata": "ZAZ",
      "name": "Zaragoza Airport",
      "updatedAt": "171100Z",
      "visibility_m": 1500,
      "taf_visibility_m": null,
      "worst_visibility_m": 1500,
      "ceiling_ft": 200,
      "hazards": [
        "BR",
        "DZ"
      ],
      "severityScore": 70,
      "metarRaw": "METAR LEZG 171100Z 26006KT 1500 DZ BR BKN002 OVC006 07/07 Q1009 NOSIG",
      "tafRaw": null
    },
    {
      "icao": "EDDB",
      "iata": "BER",
      "name": "Berlin Brandenburg Airport",
      "updatedAt": "171050Z",
      "visibility_m": 1400,
      "taf_visibility_m": null,
      "worst_visibility_m": 1400,
      "ceiling_ft": 200,
      "hazards": [
        "BR"
      ],
      "severityScore": 60,
      "metarRaw": "METAR EDDB 171050Z AUTO 10008KT 2400 1400 R06L/P2000N R06R/P2000N BR OVC002 01/01 Q1025 TEMPO 3000 BR",
      "tafRaw": null
    },
    {
      "icao": "EGKK",
      "iata": "LGW",
      "name": "London Gatwick Airport",
      "updatedAt": "171050Z",
      "visibility_m": 10000,
      "taf_visibility_m": 3000,
      "worst_visibility_m": 3000,
      "ceiling_ft": 1800,
      "hazards": [
        "BR",
        "SHRA",
        "DZ",
        "RA"
      ],
      "severityScore": 58,
      "metarRaw": "METAR EGKK 171050Z 14004KT 100V170 9999 FEW010 BKN018 09/08 Q1015",
      "tafRaw": "TAF EGKK 171055Z 1712/1818 15006KT 9999 SCT025 \n  TEMPO 1712/1716 7000 SHRA BKN009 \n  PROB30 \n  TEMPO 1716/1721 BKN007 \n  TEMPO 1721/1807 5000 -DZ BR BKN005 \n  PROB30 \n  TEMPO 1722/1806 3000 DZ BKN003 \n  BECMG 1804/1807 09010KT \n  PROB30 1807/1810 7000 \n  PROB30 \n  TEMPO 1807/1813 BKN013"
    },
    {
      "icao": "LPMA",
      "iata": "FNC",
      "name": "Madeira International Airport Cristiano Ronaldo",
      "updatedAt": "171100Z",
      "visibility_m": 10000,
      "taf_visibility_m": 5000,
      "worst_visibility_m": 5000,
      "ceiling_ft": 1300,
      "hazards": [
        "BR",
        "SHRA",
        "RA",
        "DZ"
      ],
      "severityScore": 58,
      "metarRaw": "METAR LPMA 171100Z 35014G25KT 300V060 9999 SCT015 17/09 Q1023",
      "tafRaw": "TAF LPMA 171100Z 1712/1812 33012KT 9999 SCT015 \n  PROB40 \n  TEMPO 1712/1715 34015G25KT 8000 SHRA BKN013 \n  BECMG 1715/1717 VRB05KT SCT015 BKN030 \n  TEMPO 1717/1809 5000 -RADZ BR SCT006 BKN013 \n  PROB30 \n  TEMPO 1717/1723 21012KT \n  BECMG 1723/1801 31018KT \n  BECMG 1801/1803 35018KT \n  TEMPO 1803/1812 35023G35KT"
    },
    {
      "icao": "LPPR",
      "iata": "OPO",
      "name": "Francisco de Sá Carneiro Airport",
      "updatedAt": "171100Z",
      "visibility_m": 10000,
      "taf_visibility_m": 3000,
      "worst_visibility_m": 3000,
      "ceiling_ft": 4500,
      "hazards": [
        "SHRA",
        "RA",
        "BR",
        "FG"
      ],
      "severityScore": 56,
      "metarRaw": "METAR LPPR 171100Z 13007KT 9999 -SHRA FEW013 FEW020CB BKN045 08/06 Q1012",
      "tafRaw": "TAF LPPR 171100Z 1712/1812 12007KT 9999 SCT020 BKN040 \n  TEMPO 1712/1720 5000 SHRA SCT012 FEW020CB BKN030 \n  BECMG 1713/1715 VRB05KT \n  BECMG 1722/1724 06007KT FEW012 \n  PROB30 \n  TEMPO 1800/1807 3000 BCFG BR SCT003"
    },
    {
      "icao": "EDFH",
      "iata": "HHN",
      "name": "Frankfurt-Hahn Airport",
      "updatedAt": "171050Z",
      "visibility_m": 10000,
      "taf_visibility_m": 1200,
      "worst_visibility_m": 1200,
      "ceiling_ft": 300,
      "hazards": [
        "BR"
      ],
      "severityScore": 55,
      "metarRaw": "METAR EDFH 171050Z COR 14012KT CAVOK 05/02 Q1018",
      "tafRaw": "TAF EDFH 170500Z 1706/1806 14008KT CAVOK \n  TEMPO 1706/1714 14013KT \n  PROB30 \n  TEMPO 1801/1806 1200 BR BKN003"
    },
    {
      "icao": "ENTC",
      "iata": "TOS",
      "name": "Tromsø Airport, Langnes",
      "updatedAt": "171050Z",
      "visibility_m": 10000,
      "taf_visibility_m": 1800,
      "worst_visibility_m": 1800,
      "ceiling_ft": 800,
      "hazards": [
        "SN",
        "RA"
      ],
      "severityScore": 55,
      "metarRaw": "METAR ENTC 171050Z 23008KT CAVOK M04/M06 Q1016 NOSIG RMK WIND 2600FT 28006KT",
      "tafRaw": "TAF ENTC 170500Z 1706/1806 06010KT CAVOK \n  BECMG 1706/1709 20009KT \n  TEMPO 1721/1806 20015G25KT 1800 SHSNRA BKN008 FEW015CB"
    },
    {
      "icao": "EGGP",
      "iata": "LPL",
      "name": "Liverpool John Lennon Airport",
      "updatedAt": "171050Z",
      "visibility_m": 10000,
      "taf_visibility_m": 3000,
      "worst_visibility_m": 3000,
      "ceiling_ft": 1100,
      "hazards": [
        "RA",
        "FG",
        "DZ"
      ],
      "severityScore": 54,
      "metarRaw": "METAR EGGP 171050Z 15006KT 9999 BKN011 06/05 Q1013",
      "tafRaw": "TAF EGGP 171057Z 1712/1812 14006KT 9999 SCT018 \n  PROB30 \n  TEMPO 1712/1721 BKN014 \n  TEMPO 1721/1808 6000 BKN010 \n  PROB40 \n  TEMPO 1802/1808 3000 MIFG BKN003 \n  TEMPO 1808/1812 7000 -RA BKN007 \n  PROB30 \n  TEMPO 1808/1812 4000 RA -RADZ BKN004"
    },
    {
      "icao": "LTFM",
      "iata": "IST",
      "name": "İstanbul Airport",
      "updatedAt": "171050Z",
      "visibility_m": 6000,
      "taf_visibility_m": 4000,
      "worst_visibility_m": 4000,
      "ceiling_ft": 2800,
      "hazards": [
        "SHRA",
        "RA",
        "SHSN",
        "SN"
      ],
      "severityScore": 54,
      "metarRaw": "METAR LTFM 171050Z 06016KT 030V090 6000 -SHRA SCT010 BKN028 03/01 Q1028 NOSIG RMK RWY17L 04018KT RWY34L 03014G25KT 350V080 RWY16R 03017KT RWY36 05014KT RWY18 05014KT",
      "tafRaw": "TAF LTFM 171040Z 1712/1818 03018KT 9999 SCT012 BKN026 \n  TEMPO 1713/1716 -SHRA \n  BECMG 1716/1719 -SHSNRA \n  TEMPO 1720/1724 4000 -SHSN BKN006 BKN020 \n  PROB40 \n  TEMPO 1800/1804 4000 -SHSN BKN006 BKN020 \n  BECMG 1807/1810 35024G36KT -SHSN BKN006 BKN020"
    },
    {
      "icao": "UGKO",
      "iata": "KUT",
      "name": "David the Builder Kutaisi International Airport",
      "updatedAt": "171100Z",
      "visibility_m": 10000,
      "taf_visibility_m": 2000,
      "worst_visibility_m": 2000,
      "ceiling_ft": 2800,
      "hazards": [
        "BR",
        "SHRA",
        "SN",
        "RA"
      ],
      "severityScore": 54,
      "metarRaw": "METAR UGKO 171100Z 07006KT 9999 FEW014 SCT017 BKN028 05/02 Q1021 NOSIG",
      "tafRaw": "TAF UGKO 171100Z 1712/1812 25007KT 9999 SCT012 OVC040 TX06/1811Z TN00/1803Z \n  TEMPO 1712/1716 4000 SHRA BKN015CB \n  TEMPO 1717/1724 2000 SNRA BR BKN008 OVC025 \n  TEMPO 1723/1805 08010KT"
    },
    {
      "icao": "UAAA",
      "iata": "ALA",
      "name": "Almaty International Airport",
      "updatedAt": "171100Z",
      "visibility_m": 5000,
      "taf_visibility_m": 1200,
      "worst_visibility_m": 1200,
      "ceiling_ft": 10000,
      "hazards": [
        "BR",
        "SHSN",
        "SN"
      ],
      "severityScore": 48,
      "metarRaw": "METAR UAAA 171100Z 32002MPS 5000 -SHSN BR BKN050CB OVC100 M17/M20 Q1031 NOSIG",
      "tafRaw": "TAF UAAA 171102Z 1712/1812 33003MPS 3100 BR BKN011CB OVC020 TXM15/1808Z TNM22/1803Z \n  TEMPO 1712/1724 1200 -SN BR BKN005 OVC011 \n  BECMG 1804/1805 6000 NSW \n  TEMPO 1804/1812 02003G08MPS 3100 BR BKN008 OVC011"
    },
    {
      "icao": "LEBB",
      "iata": "BIO",
      "name": "Bilbao Airport",
      "updatedAt": "171100Z",
      "visibility_m": 10000,
      "taf_visibility_m": 3000,
      "worst_visibility_m": 3000,
      "ceiling_ft": 500,
      "hazards": [
        "BR",
        "RA"
      ],
      "severityScore": 47,
      "metarRaw": "METAR LEBB 171100Z 10003KT 070V130 9999 FEW025 SCT036 09/06 Q1012 NOSIG",
      "tafRaw": "TAF LEBB 170500Z 1706/1806 10005KT 9999 FEW020 BKN040 TX09/1712Z TN05/1706Z \n  PROB40 \n  TEMPO 1712/1723 30010KT 3000 RA BKN005 \n  PROB40 \n  TEMPO 1723/1806 16010KT 3000 RA BR BKN010"
    },
    {
      "icao": "LJLJ",
      "iata": "LJU",
      "name": "Ljubljana Jože Pučnik Airport",
      "updatedAt": "171100Z",
      "visibility_m": 4000,
      "taf_visibility_m": 4000,
      "worst_visibility_m": 4000,
      "ceiling_ft": 700,
      "hazards": [
        "BR",
        "RA"
      ],
      "severityScore": 47,
      "metarRaw": "METAR LJLJ 171100Z 07002KT 4000 BR SCT004 BKN007 OVC013 04/03 Q1025 NOSIG",
      "tafRaw": "TAF LJLJ 171100Z 1712/1812 VRB02KT 6000 FEW005 OVC012 \n  TEMPO 1712/1804 4000 -RA BR BKN004 OVC010"
    },
    {
      "icao": "EDDH",
      "iata": "HAM",
      "name": "Hamburg Helmut Schmidt Airport",
      "updatedAt": "171050Z",
      "visibility_m": 10000,
      "taf_visibility_m": 3500,
      "worst_visibility_m": 3500,
      "ceiling_ft": 500,
      "hazards": [
        "BR",
        "DZ"
      ],
      "severityScore": 45,
      "metarRaw": "METAR EDDH 171050Z AUTO 13010KT CAVOK 02/00 Q1023 BECMG BKN005",
      "tafRaw": "TAF EDDH 170500Z 1706/1812 11005KT CAVOK \n  BECMG 1709/1711 12010KT \n  BECMG 1712/1714 BKN007 \n  PROB30 \n  TEMPO 1718/1809 3500 -DZ BR BKN004 \n  BECMG 1810/1812 BKN013"
    },
    {
      "icao": "EDNY",
      "iata": "FDH",
      "name": "Friedrichshafen Airport",
      "updatedAt": "171050Z",
      "visibility_m": 10000,
      "taf_visibility_m": 3000,
      "worst_visibility_m": 3000,
      "ceiling_ft": 400,
      "hazards": [
        "BR"
      ],
      "severityScore": 45,
      "metarRaw": "METAR EDNY 171050Z 02008KT CAVOK 02/00 Q1019",
      "tafRaw": "TAF EDNY 170800Z 1709/1718 05004KT CAVOK \n  PROB30 \n  TEMPO 1709/1712 4000 BR OVC004 \n  BECMG 1716/1718 OVC005 \n  TEMPO 1716/1718 3000 BR"
    },
    {
      "icao": "EDSB",
      "iata": "FKB",
      "name": "Karlsruhe Baden-Baden Airport",
      "updatedAt": "171050Z",
      "visibility_m": 10000,
      "taf_visibility_m": 2000,
      "worst_visibility_m": 2000,
      "ceiling_ft": 400,
      "hazards": [
        "BR"
      ],
      "severityScore": 45,
      "metarRaw": "METAR EDSB 171050Z 03009KT CAVOK 04/01 Q1019",
      "tafRaw": "TAF EDSB 170500Z 1706/1806 VRB03KT CAVOK \n  BECMG 1706/1709 02005KT \n  TEMPO 1721/1806 2000 BR BKN004"
    },
    {
      "icao": "EKBI",
      "iata": "BLL",
      "name": "Billund Airport",
      "updatedAt": "171050Z",
      "visibility_m": 5000,
      "taf_visibility_m": 1200,
      "worst_visibility_m": 1200,
      "ceiling_ft": 600,
      "hazards": [
        "BR"
      ],
      "severityScore": 45,
      "metarRaw": "METAR EKBI 171050Z 11009KT 5000 BKN006 05/04 Q1023",
      "tafRaw": "TAF EKBI 170827Z 1709/1809 11010KT 9000 SCT035 \n  TEMPO 1709/1712 2500 BR BKN004 \n  BECMG 1712/1714 1200 BR VV002 \n  TEMPO 1714/1809 5000 BKN006"
    },
    {
      "icao": "EPRZ",
      "iata": "RZE",
      "name": "Rzeszów-Jasionka Airport",
      "updatedAt": "171100Z",
      "visibility_m": 10000,
      "taf_visibility_m": 3000,
      "worst_visibility_m": 3000,
      "ceiling_ft": 400,
      "hazards": [
        "BR"
      ],
      "severityScore": 45,
      "metarRaw": "METAR EPRZ 171100Z 10012KT CAVOK M06/M11 Q1033",
      "tafRaw": "TAF EPRZ 170530Z 1706/1806 09012KT CAVOK \n  PROB40 1706/1708 3000 BR OVC004"
    },
    {
      "icao": "LEMD",
      "iata": "MAD",
      "name": "Adolfo Suárez Madrid–Barajas Airport",
      "updatedAt": "171100Z",
      "visibility_m": 10000,
      "taf_visibility_m": null,
      "worst_visibility_m": 10000,
      "ceiling_ft": 600,
      "hazards": [
        "RA"
      ],
      "severityScore": 42,
      "metarRaw": "METAR LEMD 171100Z VRB02KT 9999 -RA BKN006 BKN026 02/02 Q1009 NOSIG",
      "tafRaw": null
    },
    {
      "icao": "ESGG",
      "iata": "GOT",
      "name": "Göteborg Landvetter Airport",
      "updatedAt": "171050Z",
      "visibility_m": 10000,
      "taf_visibility_m": null,
      "worst_visibility_m": 10000,
      "ceiling_ft": 300,
      "hazards": [],
      "severityScore": 40,
      "metarRaw": "METAR ESGG 171050Z 11006KT 9999 BKN003 OVC015 03/03 Q1026",
      "tafRaw": null
    },
    {
      "icao": "UDSG",
      "iata": "LWN",
      "name": "Shirak International Airport",
      "updatedAt": "171100Z",
      "visibility_m": 9000,
      "taf_visibility_m": 1000,
      "worst_visibility_m": 1000,
      "ceiling_ft": 4000,
      "hazards": [
        "BR",
        "SN"
      ],
      "severityScore": 38,
      "metarRaw": "METAR UDSG 171100Z 12001KT 9000 BKN040 M05/M10 Q1018 NOSIG",
      "tafRaw": "TAF UDSG 171100Z 1712/1812 VRB06KT 3000 BR BKN020 \n  TEMPO 1712/1721 1000 SN BR OVC010"
    },
    {
      "icao": "UDYZ",
      "iata": "EVN",
      "name": "Zvartnots International Airport",
      "updatedAt": "171100Z",
      "visibility_m": 10000,
      "taf_visibility_m": 2300,
      "worst_visibility_m": 2300,
      "ceiling_ft": null,
      "hazards": [
        "BR",
        "SHSN",
        "SN"
      ],
      "severityScore": 38,
      "metarRaw": "METAR UDYZ 171100Z 14003KT 9999 FEW046 01/M09 Q1020 NOSIG",
      "tafRaw": "TAF UDYZ 171100Z 1712/1812 VRB06KT 6000 SCT040 \n  TEMPO 1718/1724 2300 -SHSN BR BKN020CB"
    },
    {
      "icao": "LGTS",
      "iata": "SKG",
      "name": "Thessaloniki Macedonia International Airport",
      "updatedAt": "171050Z",
      "visibility_m": 10000,
      "taf_visibility_m": 5000,
      "worst_visibility_m": 5000,
      "ceiling_ft": 3000,
      "hazards": [
        "TS",
        "RA"
      ],
      "severityScore": 37,
      "metarRaw": "METAR LGTS 171050Z VRB03KT 9999 FEW012 BKN030 07/01 Q1029 NOSIG",
      "tafRaw": "TAF LGTS 171100Z 1712/1812 VRB03KT 9999 FEW012 BKN025 \n  PROB30 1712/1716 5000 RA \n  BECMG 1722/1724 14013KT"
    },
    {
      "icao": "EBCI",
      "iata": "CRL",
      "name": "Brussels South Charleroi Airport",
      "updatedAt": "171050Z",
      "visibility_m": 10000,
      "taf_visibility_m": 3500,
      "worst_visibility_m": 3500,
      "ceiling_ft": 600,
      "hazards": [
        "DZ"
      ],
      "severityScore": 35,
      "metarRaw": "METAR EBCI 171050Z 14006KT CAVOK 10/06 Q1017 NOSIG",
      "tafRaw": "TAF EBCI 170516Z 1706/1812 13004KT 9999 SCT012 BKN014 \n  PROB40 \n  TEMPO 1706/1710 3500 -DZ SCT004 BKN006 \n  BECMG 1710/1712 FEW018 SCT035"
    },
    {
      "icao": "EDDN",
      "iata": "NUE",
      "name": "Nuremberg Airport",
      "updatedAt": "171050Z",
      "visibility_m": 10000,
      "taf_visibility_m": 3000,
      "worst_visibility_m": 3000,
      "ceiling_ft": 900,
      "hazards": [
        "BR"
      ],
      "severityScore": 35,
      "metarRaw": "METAR EDDN 171050Z AUTO 13008KT 9999 OVC009 01/M01 Q1022 TEMPO OVC012",
      "tafRaw": "TAF EDDN 170500Z 1706/1806 11006KT 9999 OVC008 \n  PROB30 \n  TEMPO 1712/1717 SCT008 \n  PROB30 \n  TEMPO 1722/1806 3000 BR"
    },
    {
      "icao": "EYKA",
      "iata": "KUN",
      "name": "Kaunas International Airport",
      "updatedAt": "171120Z",
      "visibility_m": 10000,
      "taf_visibility_m": 5000,
      "worst_visibility_m": 5000,
      "ceiling_ft": 500,
      "hazards": [
        "BR"
      ],
      "severityScore": 35,
      "metarRaw": "METAR EYKA 171120Z 15010KT 130V220 CAVOK M07/M14 Q1038",
      "tafRaw": "TAF EYKA 171101Z 1712/1812 16010KT 9000 NSC \n  TEMPO 1722/1806 5000 BR BKN005"
    },
    {
      "icao": "EYVI",
      "iata": "VNO",
      "name": "Vilnius International Airport",
      "updatedAt": "171120Z",
      "visibility_m": 10000,
      "taf_visibility_m": 5000,
      "worst_visibility_m": 5000,
      "ceiling_ft": 500,
      "hazards": [
        "BR"
      ],
      "severityScore": 35,
      "metarRaw": "METAR EYVI 171120Z 17009KT CAVOK M09/M15 Q1038 NOSIG",
      "tafRaw": "TAF EYVI 171102Z 1712/1812 17008KT 9000 NSC \n  TEMPO 1721/1806 5000 BR BKN005"
    },
    {
      "icao": "LOWW",
      "iata": "VIE",
      "name": "Vienna International Airport",
      "updatedAt": "171050Z",
      "visibility_m": 10000,
      "taf_visibility_m": 4000,
      "worst_visibility_m": 4000,
      "ceiling_ft": 800,
      "hazards": [
        "BR"
      ],
      "severityScore": 35,
      "metarRaw": "METAR LOWW 171050Z 13016KT 9999 FEW006 BKN008 01/M01 Q1027 BECMG FEW005 BKN020",
      "tafRaw": "TAF LOWW 171115Z 1712/1818 13012KT 9000 BKN020 TX01/1712Z TNM03/1818Z \n  PROB30 1712/1713 BKN012 \n  TEMPO 1712/1716 12016G26KT \n  TEMPO 1808/1812 4000 BR FEW006 BKN012"
    },
    {
      "icao": "LIMC",
      "iata": "MXP",
      "name": "Milan Malpensa International Airport",
      "updatedAt": "171050Z",
      "visibility_m": 6000,
      "taf_visibility_m": 1200,
      "worst_visibility_m": 1200,
      "ceiling_ft": 2000,
      "hazards": [
        "RA",
        "BR"
      ],
      "severityScore": 32,
      "metarRaw": "METAR LIMC 171050Z 01006KT 6000 -RA OVC020 08/07 Q1023 NOSIG",
      "tafRaw": "TAF LIMC 171100Z 1712/1818 VRB05KT 3000 BR BKN020 \n  TEMPO 1712/1802 1200 -RA BKN005 \n  TEMPO 1809/1815 1500 -RA"
    },
    {
      "icao": "EDDS",
      "iata": "STR",
      "name": "Stuttgart Airport",
      "updatedAt": "171050Z",
      "visibility_m": 10000,
      "taf_visibility_m": 1200,
      "worst_visibility_m": 1200,
      "ceiling_ft": null,
      "hazards": [
        "FG"
      ],
      "severityScore": 30,
      "metarRaw": "METAR EDDS 171050Z AUTO 09003KT 060V140 CAVOK 03/M01 Q1019 NOSIG",
      "tafRaw": "TAF EDDS 170500Z 1706/1806 VRB03KT CAVOK \n  TEMPO 1715/1722 05005KT \n  PROB30 \n  TEMPO 1722/1806 1200 BCFG"
    },
    {
      "icao": "LFPO",
      "iata": "ORY",
      "name": "Paris-Orly Airport",
      "updatedAt": "171100Z",
      "visibility_m": 10000,
      "taf_visibility_m": null,
      "worst_visibility_m": 10000,
      "ceiling_ft": 500,
      "hazards": [],
      "severityScore": 30,
      "metarRaw": "METAR LFPO 171100Z AUTO 11005KT 9999 BKN005 BKN056 09/08 Q1015",
      "tafRaw": null
    },
    {
      "icao": "GMAD",
      "iata": "AGA",
      "name": "Al Massira Airport",
      "updatedAt": "171100Z",
      "visibility_m": 10000,
      "taf_visibility_m": 4000,
      "worst_visibility_m": 4000,
      "ceiling_ft": 2000,
      "hazards": [
        "SHRA",
        "RA"
      ],
      "severityScore": 26,
      "metarRaw": "METAR GMAD 171100Z 27011KT 9999 FEW026 SCT033 16/09 Q1018 NOSIG",
      "tafRaw": "TAF GMAD 171100Z 1712/1818 28014KT 6000 SCT008 BKN020 \n  TEMPO 1721/1812 4000 SHRA SCT016TCU FEW030CB"
    },
    {
      "icao": "GMMX",
      "iata": "RAK",
      "name": "Menara Airport",
      "updatedAt": "171100Z",
      "visibility_m": 10000,
      "taf_visibility_m": 3000,
      "worst_visibility_m": 3000,
      "ceiling_ft": 2000,
      "hazards": [
        "SHRA",
        "RA"
      ],
      "severityScore": 26,
      "metarRaw": "METAR GMMX 171100Z 26009KT 230V290 9999 SCT026 SCT080 13/07 Q1018 NOSIG",
      "tafRaw": "TAF GMMX 170500Z 1706/1812 34017KT 3000 SHRA SCT013 BKN020 FEW030TCU \n  BECMG 1712/1716 04008KT 6000 NSW BKN023 SCT080"
    },
    {
      "icao": "ENVA",
      "iata": "TRD",
      "name": "Trondheim Airport, Værnes",
      "updatedAt": "171050Z",
      "visibility_m": 10000,
      "taf_visibility_m": 10000,
      "worst_visibility_m": 10000,
      "ceiling_ft": 4100,
      "hazards": [
        "SHRA",
        "RA"
      ],
      "severityScore": 26,
      "metarRaw": "METAR ENVA 171050Z VRB02KT 9999 SCT032 BKN041 06/01 Q1024 NOSIG RMK WIND 670FT 22010KT",
      "tafRaw": "TAF ENVA 170500Z 1706/1806 22008KT 9999 FEW012 BKN025 \n  PROB30 \n  TEMPO 1706/1708 SHRA BKN018CB \n  BECMG 1709/1711 10010KT"
    },
    {
      "icao": "LEXJ",
      "iata": "SDR",
      "name": "Seve Ballesteros-Santander Airport",
      "updatedAt": "171100Z",
      "visibility_m": 10000,
      "taf_visibility_m": 3000,
      "worst_visibility_m": 3000,
      "ceiling_ft": 4000,
      "hazards": [
        "RA",
        "SHRA"
      ],
      "severityScore": 26,
      "metarRaw": "METAR LEXJ 171100Z 27003KT 240V310 9999 -RA FEW030 BKN040 09/07 Q1012",
      "tafRaw": "TAF LEXJ 170800Z 1709/1809 22007KT 9999 BKN040 TX10/1712Z TN07/1724Z \n  TEMPO 1714/1802 3000 SHRA BKN010 SCT020TCU \n  PROB40 \n  TEMPO 1802/1807 3000 SHRA SCT020TCU \n  PROB40 1715/1717 31010KT"
    },
    {
      "icao": "LICC",
      "iata": "CTA",
      "name": "Catania-Fontanarossa Airport",
      "updatedAt": "171050Z",
      "visibility_m": 7000,
      "taf_visibility_m": 4000,
      "worst_visibility_m": 4000,
      "ceiling_ft": 4000,
      "hazards": [
        "SHRA",
        "RA"
      ],
      "severityScore": 26,
      "metarRaw": "METAR LICC 171050Z 05015KT 7000 -SHRA SCT015 SCT030 15/13 Q1017",
      "tafRaw": "TAF LICC 171100Z 1712/1812 06012KT 8000 SCT020 BKN040 \n  TEMPO 1712/1812 4000 RA"
    },
    {
      "icao": "LPFR",
      "iata": "FAO",
      "name": "Faro Airport",
      "updatedAt": "171100Z",
      "visibility_m": 10000,
      "taf_visibility_m": 8000,
      "worst_visibility_m": 8000,
      "ceiling_ft": 3500,
      "hazards": [
        "SHRA",
        "RA"
      ],
      "severityScore": 26,
      "metarRaw": "METAR LPFR 171100Z 28005KT 9999 FEW018 FEW025CB 12/07 Q1015",
      "tafRaw": "TAF LPFR 171100Z 1712/1812 29005KT 9999 SCT030 \n  TEMPO 1712/1810 8000 SHRA SCT015 FEW025CB BKN035 \n  BECMG 1713/1715 25010KT \n  BECMG 1717/1719 30008KT \n  BECMG 1723/1801 VRB02KT \n  BECMG 1809/1811 03010KT"
    },
    {
      "icao": "UBBB",
      "iata": "GYD",
      "name": "Heydar Aliyev International Airport",
      "updatedAt": "171100Z",
      "visibility_m": 10000,
      "taf_visibility_m": 5000,
      "worst_visibility_m": 5000,
      "ceiling_ft": 3900,
      "hazards": [
        "SHRA",
        "RA"
      ],
      "severityScore": 26,
      "metarRaw": "METAR UBBB 171100Z 32010KT 9999 FEW011 BKN039 06/04 Q1024 NOSIG",
      "tafRaw": "TAF UBBB 171049Z 1712/1812 33010KT 9999 SCT012 BKN025 TX06/1712Z TN02/1801Z \n  TEMPO 1712/1715 01012KT BKN018 \n  TEMPO 1718/1804 36008KT 5000 -SHRA SCT012 SCT030CB OVC030 \n  BECMG 1804/1806 08005KT \n  TEMPO 1806/1812 06012KT BKN030"
    },
    {
      "icao": "GCTS",
      "iata": "TFS",
      "name": "Tenerife Sur Airport",
      "updatedAt": "171100Z",
      "visibility_m": 10000,
      "taf_visibility_m": 10000,
      "worst_visibility_m": 10000,
      "ceiling_ft": null,
      "hazards": [
        "TS"
      ],
      "severityScore": 25,
      "metarRaw": "METAR GCTS 171100Z 22005KT 160V290 9999 SCT035 20/10 Q1024 NOSIG",
      "tafRaw": "TAF GCTS 170800Z 1709/1809 VRB04KT 9999 FEW035 TX22/1714Z TN15/1806Z \n  PROB40 \n  TEMPO 1710/1719 24010KT \n  PROB40 \n  TEMPO 1713/1717 10010KT"
    },
    {
      "icao": "EPMO",
      "iata": "WMI",
      "name": "Modlin Airport",
      "updatedAt": "171100Z",
      "visibility_m": 10000,
      "taf_visibility_m": 8000,
      "worst_visibility_m": 8000,
      "ceiling_ft": 800,
      "hazards": [],
      "severityScore": 25,
      "metarRaw": "METAR EPMO 171100Z 11009KT CAVOK M04/M09 Q1033",
      "tafRaw": "TAF EPMO 170530Z 1706/1806 10009KT 8000 FEW010 \n  TEMPO 1706/1710 BKN008"
    },
    {
      "icao": "EYPA",
      "iata": "PLQ",
      "name": "Palanga International Airport",
      "updatedAt": "171120Z",
      "visibility_m": 10000,
      "taf_visibility_m": 9000,
      "worst_visibility_m": 9000,
      "ceiling_ft": 900,
      "hazards": [],
      "severityScore": 25,
      "metarRaw": "METAR EYPA 171120Z 15011KT 9999 OVC009 M07/M10 Q1034",
      "tafRaw": "TAF EYPA 171101Z 1712/1812 15011KT 9000 BKN010 \n  BECMG 1712/1714 NSC"
    },
    {
      "icao": "LHDC",
      "iata": "DEB",
      "name": "Debrecen International Airport",
      "updatedAt": "171045Z",
      "visibility_m": 10000,
      "taf_visibility_m": 8000,
      "worst_visibility_m": 8000,
      "ceiling_ft": 800,
      "hazards": [],
      "severityScore": 25,
      "metarRaw": "METAR LHDC 171045Z AUTO 04005KT 9999 BKN008 02/M02 Q1030 BECMG SCT010",
      "tafRaw": "TAF LHDC 170815Z 1709/1718 06005KT 8000 BKN005 \n  BECMG 1709/1712 CAVOK"
    },
    {
      "icao": "ENZV",
      "iata": "SVG",
      "name": "Stavanger Airport, Sola",
      "updatedAt": "171050Z",
      "visibility_m": 10000,
      "taf_visibility_m": 10000,
      "worst_visibility_m": 10000,
      "ceiling_ft": 1400,
      "hazards": [
        "RA"
      ],
      "severityScore": 24,
      "metarRaw": "METAR ENZV 171050Z 00000KT CAVOK 02/01 Q1024 NOSIG",
      "tafRaw": "TAF ENZV 170500Z 1706/1806 12008KT 9999 FEW025 SCT040 \n  PROB40 \n  TEMPO 1718/1802 RA BKN014"
    },
    {
      "icao": "LEAL",
      "iata": "ALC",
      "name": "Alicante-Elche Miguel Hernández Airport",
      "updatedAt": "171100Z",
      "visibility_m": 10000,
      "taf_visibility_m": 10000,
      "worst_visibility_m": 10000,
      "ceiling_ft": 1400,
      "hazards": [
        "RA"
      ],
      "severityScore": 24,
      "metarRaw": "METAR LEAL 171100Z 29006KT 260V320 9999 FEW032 14/10 Q1009 NOSIG",
      "tafRaw": "TAF LEAL 170500Z 1706/1806 VRB04KT 9999 FEW020 TX14/1713Z TN07/1706Z \n  PROB40 \n  TEMPO 1706/1721 RA BKN014 \n  TEMPO 1713/1806 31010KT"
    },
    {
      "icao": "BIKF",
      "iata": "KEF",
      "name": "Keflavik International Airport",
      "updatedAt": "171100Z",
      "visibility_m": 10000,
      "taf_visibility_m": 4000,
      "worst_visibility_m": 4000,
      "ceiling_ft": 2100,
      "hazards": [
        "RA",
        "DZ"
      ],
      "severityScore": 22,
      "metarRaw": "METAR BIKF 171100Z 09011KT 9999 BKN021 BKN290 01/M01 Q1011",
      "tafRaw": "TAF BIKF 171053Z 1712/1812 12012KT 9999 BKN020 TX07/1801Z TN01/1712Z \n  TEMPO 1712/1721 BKN008 \n  BECMG 1713/1715 12022G32KT \n  BECMG 1717/1719 13030G52KT \n  BECMG 1800/1802 4000 RADZ BKN008 OVC012"
    },
    {
      "icao": "ENBR",
      "iata": "BGO",
      "name": "Bergen Airport, Flesland",
      "updatedAt": "171050Z",
      "visibility_m": 10000,
      "taf_visibility_m": 10000,
      "worst_visibility_m": 10000,
      "ceiling_ft": 3900,
      "hazards": [
        "BR",
        "RA"
      ],
      "severityScore": 22,
      "metarRaw": "METAR ENBR 171050Z 11004KT 9999 BKN039 06/01 Q1024 NOSIG RMK WIND 1200FT 13013KT",
      "tafRaw": "TAF ENBR 170500Z 1706/1806 11008KT 9999 BKN025 \n  PROB40 \n  TEMPO 1802/1806 RA BKN014"
    },
    {
      "icao": "LQTZ",
      "iata": "TZL",
      "name": "Tuzla International Airport",
      "updatedAt": "171100Z",
      "visibility_m": 10000,
      "taf_visibility_m": 4000,
      "worst_visibility_m": 4000,
      "ceiling_ft": 1000,
      "hazards": [
        "BR"
      ],
      "severityScore": 22,
      "metarRaw": "METAR LQTZ 171100Z 11005KT CAVOK 04/01 Q1025",
      "tafRaw": "TAF LQTZ 171100Z 1712/1812 12005KT 9999 SCT015 BKN025 TX06/1713Z TNM03/1805Z \n  PROB40 1723/1807 4000 BR BKN010"
    },
    {
      "icao": "LRBS",
      "iata": "BBU",
      "name": "Bucharest Băneasa Aurel Vlaicu International Airport",
      "updatedAt": "171100Z",
      "visibility_m": 10000,
      "taf_visibility_m": 5000,
      "worst_visibility_m": 5000,
      "ceiling_ft": 1500,
      "hazards": [
        "BR"
      ],
      "severityScore": 22,
      "metarRaw": "METAR LRBS 171100Z VRB02KT CAVOK M03/M09 Q1034 NOSIG",
      "tafRaw": "TAF LRBS 170500Z 1706/1806 VRB04KT CAVOK \n  PROB30 \n  TEMPO 1706/1707 5000 BR \n  TEMPO 1715/1722 BKN015 \n  BECMG 1716/1718 07010KT \n  TEMPO 1802/1806 BKN015"
    },
    {
      "icao": "LROP",
      "iata": "OTP",
      "name": "Bucharest Henri Coandă International Airport",
      "updatedAt": "171100Z",
      "visibility_m": 10000,
      "taf_visibility_m": 5000,
      "worst_visibility_m": 5000,
      "ceiling_ft": 1500,
      "hazards": [
        "BR"
      ],
      "severityScore": 22,
      "metarRaw": "METAR LROP 171100Z 29005KT CAVOK M03/M12 Q1034 NOSIG",
      "tafRaw": "TAF LROP 170500Z 1706/1806 VRB04KT CAVOK \n  PROB30 \n  TEMPO 1706/1707 5000 BR \n  TEMPO 1715/1722 BKN015 \n  BECMG 1716/1718 07010KT \n  TEMPO 1802/1806 BKN015"
    },
    {
      "icao": "LIRP",
      "iata": "PSA",
      "name": "Pisa International Airport",
      "updatedAt": "171045Z",
      "visibility_m": 10000,
      "taf_visibility_m": 5000,
      "worst_visibility_m": 5000,
      "ceiling_ft": null,
      "hazards": [
        "FG"
      ],
      "severityScore": 20,
      "metarRaw": "METAR LIRP 171045Z 11010KT CAVOK 13/07 Q1020 NOSIG",
      "tafRaw": "TAF LIRP 170500Z 1706/1806 12005KT CAVOK \n  PROB30 \n  TEMPO 1706/1707 5000 MIFG NSC"
    },
    {
      "icao": "LWSK",
      "iata": "SKP",
      "name": "Skopje International Airport",
      "updatedAt": "171120Z",
      "visibility_m": 3000,
      "taf_visibility_m": 1500,
      "worst_visibility_m": 1500,
      "ceiling_ft": 2600,
      "hazards": [
        "BR"
      ],
      "severityScore": 20,
      "metarRaw": "METAR LWSK 171120Z VRB02KT 3000 BR SCT013 OVC026 03/01 Q1027 NOSIG",
      "tafRaw": "TAF LWSK 171120Z 1712/1812 VRB02KT 5000 BR SCT015 OVC025 \n  TEMPO 1712/1716 1500"
    },
    {
      "icao": "LTAC",
      "iata": "ESB",
      "name": "Esenboğa International Airport",
      "updatedAt": "171050Z",
      "visibility_m": 10000,
      "taf_visibility_m": 10000,
      "worst_visibility_m": 10000,
      "ceiling_ft": 3000,
      "hazards": [
        "SN"
      ],
      "severityScore": 18,
      "metarRaw": "METAR LTAC 171050Z 32006KT 250V010 9999 SCT040 M00/M08 Q1021 NOSIG RMK RWY21C 28008KT 240V300 RWY03L 31006KT 250V360 RWY21R 27007KT 230V310 RWY03R 29008G18KT 240V340 RWY21L 29006KT 240V340",
      "tafRaw": "TAF LTAC 171040Z 1712/1812 VRB02KT 9999 SCT040 SCT100 \n  TEMPO 1712/1716 34012KT \n  TEMPO 1800/1804 -SN BKN030 BKN080"
    },
    {
      "icao": "GCLP",
      "iata": "LPA",
      "name": "Gran Canaria Airport",
      "updatedAt": "171100Z",
      "visibility_m": 10000,
      "taf_visibility_m": 10000,
      "worst_visibility_m": 10000,
      "ceiling_ft": null,
      "hazards": [
        "RA"
      ],
      "severityScore": 12,
      "metarRaw": "METAR GCLP 171100Z 36013KT 9999 FEW020 SCT035 18/14 Q1023 NOSIG",
      "tafRaw": "TAF GCLP 170800Z 1709/1809 36017KT 9999 SCT030 TX20/1714Z TN15/1806Z \n  PROB30 \n  TEMPO 1709/1711 35007KT \n  PROB40 \n  TEMPO 1710/1719 35020G30KT \n  PROB30 \n  TEMPO 1710/1719 RA \n  PROB40 \n  TEMPO 1807/1809 34020G30KT"
    },
    {
      "icao": "GMMN",
      "iata": "CMN",
      "name": "Mohammed V International Airport",
      "updatedAt": "171100Z",
      "visibility_m": 8000,
      "taf_visibility_m": 3000,
      "worst_visibility_m": 3000,
      "ceiling_ft": 2300,
      "hazards": [
        "RA"
      ],
      "severityScore": 12,
      "metarRaw": "METAR GMMN 171100Z 25010KT 190V250 8000 BKN023 11/08 Q1018 NOSIG",
      "tafRaw": "TAF GMMN 170500Z 1706/1812 24008KT 8000 SCT006 BKN020 \n  TEMPO 1706/1806 22016KT 3000 RA SCT003 BKN016 BKN023TCU"
    },
    {
      "icao": "EPRA",
      "iata": "RDO",
      "name": "Warsaw Radom Airport",
      "updatedAt": "171100Z",
      "visibility_m": 10000,
      "taf_visibility_m": 10000,
      "worst_visibility_m": 10000,
      "ceiling_ft": null,
      "hazards": [
        "RA"
      ],
      "severityScore": 12,
      "metarRaw": "METAR EPRA 171100Z 13010KT CAVOK M04/M11 Q1032",
      "tafRaw": "TAF EPRA 170830Z 1709/1718 13010KT CAVOK"
    },
    {
      "icao": "EPSY",
      "iata": "SZY",
      "name": "Olsztyn-Mazury Airport",
      "updatedAt": "171100Z",
      "visibility_m": 10000,
      "taf_visibility_m": 10000,
      "worst_visibility_m": 10000,
      "ceiling_ft": 1000,
      "hazards": [],
      "severityScore": 12,
      "metarRaw": "METAR EPSY 171100Z 13006KT 090V180 CAVOK M06/M12 Q1034",
      "tafRaw": "TAF EPSY 170830Z 1709/1718 15008KT CAVOK \n  PROB40 \n  TEMPO 1709/1711 BKN010"
    },
    {
      "icao": "LEVC",
      "iata": "VLC",
      "name": "Valencia Airport",
      "updatedAt": "171100Z",
      "visibility_m": 10000,
      "taf_visibility_m": 4000,
      "worst_visibility_m": 4000,
      "ceiling_ft": 4200,
      "hazards": [
        "RA"
      ],
      "severityScore": 12,
      "metarRaw": "METAR LEVC 171100Z COR 24005KT 9999 FEW025 OVC042 11/08 Q1009 NOSIG",
      "tafRaw": "TAF LEVC 170500Z 1706/1806 VRB04KT 9999 FEW060 TX13/1712Z TN04/1706Z \n  TEMPO 1706/1713 4000 RA BKN014 \n  TEMPO 1711/1722 27009KT"
    },
    {
      "icao": "LEZL",
      "iata": "SVQ",
      "name": "Sevilla Airport",
      "updatedAt": "171100Z",
      "visibility_m": 10000,
      "taf_visibility_m": 10000,
      "worst_visibility_m": 10000,
      "ceiling_ft": 2000,
      "hazards": [
        "RA"
      ],
      "severityScore": 12,
      "metarRaw": "METAR LEZL 171100Z 29004KT 240V320 9999 FEW020 10/06 Q1014 NOSIG",
      "tafRaw": "TAF LEZL 170800Z 1709/1809 23005KT CAVOK TX14/1715Z TN04/1807Z \n  PROB30 \n  TEMPO 1801/1806 RA BKN020"
    },
    {
      "icao": "LFLS",
      "iata": "GNB",
      "name": "Grenoble Alpes Isère Airport",
      "updatedAt": "171100Z",
      "visibility_m": 4000,
      "taf_visibility_m": 4000,
      "worst_visibility_m": 4000,
      "ceiling_ft": 6000,
      "hazards": [
        "RA"
      ],
      "severityScore": 12,
      "metarRaw": "METAR LFLS 171100Z AUTO 07006KT 9999 -RA OVC054/// ///CB 07/06 Q1017 TEMPO 4000 RA BECMG BKN060",
      "tafRaw": "TAF LFLS 170800Z 1709/1809 09009KT 9999 BKN060 \n  TEMPO 1709/1714 4000 RA"
    },
    {
      "icao": "LFMN",
      "iata": "NCE",
      "name": "Nice-Côte d'Azur Airport",
      "updatedAt": "171100Z",
      "visibility_m": 10000,
      "taf_visibility_m": 10000,
      "worst_visibility_m": 10000,
      "ceiling_ft": 8600,
      "hazards": [
        "RA"
      ],
      "severityScore": 12,
      "metarRaw": "METAR LFMN 171100Z 33007KT 9999 -RA OVC086 13/09 Q1018 NOSIG",
      "tafRaw": "TAF LFMN 170800Z 1709/1815 35010KT 9999 BKN080 \n  TEMPO 1709/1713 RA \n  BECMG 1715/1718 09020G30KT \n  TEMPO 1718/1803 09025G35KT \n  TEMPO 1807/1815 RA"
    },
    {
      "icao": "LIBG",
      "iata": "TAR",
      "name": "Taranto-Grottaglie Marcello Arlotta Airport",
      "updatedAt": "171050Z",
      "visibility_m": 10000,
      "taf_visibility_m": 10000,
      "worst_visibility_m": 10000,
      "ceiling_ft": null,
      "hazards": [
        "RA"
      ],
      "severityScore": 12,
      "metarRaw": "METAR LIBG 171050Z 12009KT 090V170 9999 SCT025 16/16 Q1020",
      "tafRaw": "TAF LIBG 171100Z 1712/1721 08009KT 9999 FEW025 \n  TEMPO 1712/1715 RA"
    },
    {
      "icao": "LICA",
      "iata": "SUF",
      "name": "Lamezia Terme Sant'Eufemia International Airport",
      "updatedAt": "171050Z",
      "visibility_m": 10000,
      "taf_visibility_m": 10000,
      "worst_visibility_m": 10000,
      "ceiling_ft": 4000,
      "hazards": [
        "RA"
      ],
      "severityScore": 12,
      "metarRaw": "METAR LICA 171050Z AUTO 06016KT 9999 -RA OVC064/// 14/10 Q1018",
      "tafRaw": "TAF LICA 171100Z 1712/1812 08013KT 9999 BKN040"
    },
    {
      "icao": "LIMF",
      "iata": "TRN",
      "name": "Turin Airport",
      "updatedAt": "171050Z",
      "visibility_m": 7000,
      "taf_visibility_m": 10000,
      "worst_visibility_m": 7000,
      "ceiling_ft": 3000,
      "hazards": [
        "RA"
      ],
      "severityScore": 12,
      "metarRaw": "METAR LIMF 171050Z 30004KT 7000 -RA OVC030 07/06 Q1024",
      "tafRaw": "TAF LIMF 171100Z 1712/1812 VRB03KT 9999 -RA BKN012 BKN040"
    },
    {
      "icao": "LRIA",
      "iata": "IAS",
      "name": "Iaşi Airport",
      "updatedAt": "171100Z",
      "visibility_m": 10000,
      "taf_visibility_m": 10000,
      "worst_visibility_m": 10000,
      "ceiling_ft": 1500,
      "hazards": [],
      "severityScore": 12,
      "metarRaw": "METAR LRIA 171100Z 34008KT CAVOK M10/M14 Q1036",
      "tafRaw": "TAF LRIA 170800Z 1709/1718 34008KT 9999 SCT020 \n  BECMG 1714/1716 OVC015"
    },
    {
      "icao": "LRBC",
      "iata": "BCM",
      "name": "Bacău George Enescu International  Airport",
      "updatedAt": "171100Z",
      "visibility_m": 10000,
      "taf_visibility_m": 10000,
      "worst_visibility_m": 10000,
      "ceiling_ft": 1500,
      "hazards": [],
      "severityScore": 12,
      "metarRaw": "METAR LRBC 171100Z 36010KT CAVOK M06/M13 Q1035",
      "tafRaw": "TAF LRBC 170800Z 1709/1718 36008KT CAVOK \n  TEMPO 1715/1718 BKN015"
    },
    {
      "icao": "LUKK",
      "iata": "RMO",
      "name": "Chişinău International Airport",
      "updatedAt": "171100Z",
      "visibility_m": 10000,
      "taf_visibility_m": 10000,
      "worst_visibility_m": 10000,
      "ceiling_ft": 1500,
      "hazards": [],
      "severityScore": 12,
      "metarRaw": "METAR LUKK 171100Z VRB07KT CAVOK M11/M15 Q1035 BECMG BKN015",
      "tafRaw": "TAF LUKK 171108Z 1712/1812 01009KT 9999 BKN020 \n  TEMPO 1803/1809 BKN008"
    },
    {
      "icao": "LWOH",
      "iata": "OHD",
      "name": "Ohrid St. Paul the Apostle Airport",
      "updatedAt": "171120Z",
      "visibility_m": 10000,
      "taf_visibility_m": 5000,
      "worst_visibility_m": 5000,
      "ceiling_ft": 3000,
      "hazards": [
        "RA"
      ],
      "severityScore": 12,
      "metarRaw": "METAR LWOH 171120Z 13004KT 100V160 9999 BKN030 07/03 Q1023",
      "tafRaw": "TAF LWOH 171120Z 1712/1812 VRB02KT 9999 BKN030 \n  PROB40 \n  TEMPO 1712/1716 5000 RA SCT010 OVC035"
    },
    {
      "icao": "GCFV",
      "iata": "FUE",
      "name": "Fuerteventura Airport",
      "updatedAt": "171100Z",
      "visibility_m": 10000,
      "taf_visibility_m": 10000,
      "worst_visibility_m": 10000,
      "ceiling_ft": null,
      "hazards": [
        "DZ"
      ],
      "severityScore": 10,
      "metarRaw": "METAR GCFV 171100Z 32016KT 290V350 9999 FEW030 19/09 Q1022",
      "tafRaw": "TAF GCFV 170800Z 1709/1809 34009KT 9999 SCT035 TX20/1714Z TN15/1806Z \n  PROB30 \n  TEMPO 1715/1718 DZ \n  BECMG 1805/1807 28017KT"
    },
    {
      "icao": "EDLW",
      "iata": "DTM",
      "name": "Dortmund Airport",
      "updatedAt": "171050Z",
      "visibility_m": 10000,
      "taf_visibility_m": 3000,
      "worst_visibility_m": 3000,
      "ceiling_ft": null,
      "hazards": [
        "BR"
      ],
      "severityScore": 10,
      "metarRaw": "METAR EDLW 171050Z 10007KT CAVOK 10/03 Q1018",
      "tafRaw": "TAF EDLW 170500Z 1706/1806 10004KT CAVOK \n  PROB30 \n  TEMPO 1802/1806 3000 BR"
    },
    {
      "icao": "EGPF",
      "iata": "GLA",
      "name": "Glasgow Airport",
      "updatedAt": "171050Z",
      "visibility_m": 9000,
      "taf_visibility_m": 4000,
      "worst_visibility_m": 4000,
      "ceiling_ft": 3000,
      "hazards": [
        "BR"
      ],
      "severityScore": 10,
      "metarRaw": "METAR EGPF 171050Z AUTO 08004KT 9000 BKN030 05/04 Q1014",
      "tafRaw": "TAF EGPF 171058Z 1712/1812 07008KT 9999 SCT030 \n  TEMPO 1712/1812 7000 BKN010 \n  PROB30 1716/1812 4000 BR BKN006"
    },
    {
      "icao": "HESX",
      "iata": "SPX",
      "name": "Sphinx International Airport",
      "updatedAt": "171100Z",
      "visibility_m": 10000,
      "taf_visibility_m": 2000,
      "worst_visibility_m": 2000,
      "ceiling_ft": null,
      "hazards": [
        "BR"
      ],
      "severityScore": 10,
      "metarRaw": "METAR HESX 171100Z 36006KT CAVOK 19/08 Q1017 NOSIG",
      "tafRaw": "TAF HESX 171100Z 1712/1818 36010KT 9999 FEW025 \n  TEMPO 1800/1808 VRB03KT 2000 BR NSC"
    },
    {
      "icao": "LIBR",
      "iata": "BDS",
      "name": "Brindisi Airport",
      "updatedAt": "171050Z",
      "visibility_m": 10000,
      "taf_visibility_m": 7000,
      "worst_visibility_m": 7000,
      "ceiling_ft": null,
      "hazards": [
        "BR"
      ],
      "severityScore": 10,
      "metarRaw": "METAR LIBR 171050Z 34004KT 300V030 CAVOK 14/12 Q1021",
      "tafRaw": "TAF LIBR 171100Z 1712/1812 12008KT 7000 SCT030 \n  BECMG 1806/1808 22010KT"
    },
    {
      "icao": "LIPX",
      "iata": "VRN",
      "name": "Verona Villafranca Valerio Catullo Airport",
      "updatedAt": "171050Z",
      "visibility_m": 5000,
      "taf_visibility_m": 6000,
      "worst_visibility_m": 5000,
      "ceiling_ft": null,
      "hazards": [
        "BR"
      ],
      "severityScore": 10,
      "metarRaw": "METAR LIPX 171050Z 18005KT 150V220 5000 BR NSC 09/06 Q1023",
      "tafRaw": "TAF LIPX 171100Z 1712/1812 VRB05KT 6000 SCT020"
    },
    {
      "icao": "LZIB",
      "iata": "BTS",
      "name": "M. R. Štefánik Airport",
      "updatedAt": "171100Z",
      "visibility_m": 10000,
      "taf_visibility_m": 4000,
      "worst_visibility_m": 4000,
      "ceiling_ft": 2800,
      "hazards": [
        "BR"
      ],
      "severityScore": 10,
      "metarRaw": "METAR LZIB 171100Z 05008KT 9999 FEW009 BKN028 02/01 Q1029 NOSIG",
      "tafRaw": "TAF LZIB 171115Z 1712/1812 10008KT 9999 FEW009 BKN030 \n  PROB40 \n  TEMPO 1721/1808 4000 BR FEW007 BKN012"
    },
    {
      "icao": "LZTT",
      "iata": "TAT",
      "name": "Poprad-Tatry Airport",
      "updatedAt": "171100Z",
      "visibility_m": 10000,
      "taf_visibility_m": 4000,
      "worst_visibility_m": 4000,
      "ceiling_ft": null,
      "hazards": [
        "BR"
      ],
      "severityScore": 10,
      "metarRaw": "METAR LZTT 171100Z 36002KT 9999 FEW005 01/M03 Q1028 NOSIG",
      "tafRaw": "TAF LZTT 171115Z 1712/1812 VRB02KT 9999 FEW007 SCT013 \n  PROB30 \n  TEMPO 1712/1718 4000 BR SCT007"
    },
    {
      "icao": "BKPR",
      "iata": "PRN",
      "name": "Priština Adem Jashari International Airport",
      "updatedAt": null,
      "visibility_m": null,
      "taf_visibility_m": null,
      "worst_visibility_m": null,
      "ceiling_ft": null,
      "hazards": [],
      "severityScore": 5,
      "metarRaw": null,
      "tafRaw": null
    },
    {
      "icao": "EPKK",
      "iata": "KRK",
      "name": "Kraków John Paul II International Airport",
      "updatedAt": "171100Z",
      "visibility_m": 6000,
      "taf_visibility_m": null,
      "worst_visibility_m": 6000,
      "ceiling_ft": null,
      "hazards": [],
      "severityScore": 5,
      "metarRaw": "METAR EPKK 171100Z 07008KT 6000 NSC M04/M05 Q1029",
      "tafRaw": null
    },
    {
      "icao": "LECH",
      "iata": "CDT",
      "name": "Castellón-Costa Azahar Airport",
      "updatedAt": "171100Z",
      "visibility_m": 10000,
      "taf_visibility_m": null,
      "worst_visibility_m": 10000,
      "ceiling_ft": 3600,
      "hazards": [],
      "severityScore": 5,
      "metarRaw": "METAR LECH 171100Z AUTO VRB02KT 9999 FEW008 BKN036 OVC050 10/09 Q1009",
      "tafRaw": null
    },
    {
      "icao": "LFSB",
      "iata": "BSL",
      "name": "EuroAirport Basel–Mulhouse–Freiburg",
      "updatedAt": "171100Z",
      "visibility_m": 10000,
      "taf_visibility_m": null,
      "worst_visibility_m": 10000,
      "ceiling_ft": null,
      "hazards": [],
      "severityScore": 5,
      "metarRaw": "METAR LFSB 171100Z AUTO 11003KT 050V140 CAVOK 08/02 Q1018 NOSIG",
      "tafRaw": null
    },
    {
      "icao": "LQBK",
      "iata": "BNX",
      "name": "Banja Luka International Airport",
      "updatedAt": "171100Z",
      "visibility_m": 7000,
      "taf_visibility_m": null,
      "worst_visibility_m": 7000,
      "ceiling_ft": null,
      "hazards": [],
      "severityScore": 5,
      "metarRaw": "METAR LQBK 171100Z 34004KT 280V020 7000 FEW017 04/02 Q1027 NOSIG",
      "tafRaw": null
    },
    {
      "icao": "LRSM",
      "iata": "SUJ",
      "name": "Satu Mare International Airport",
      "updatedAt": "171100Z",
      "visibility_m": 10000,
      "taf_visibility_m": null,
      "worst_visibility_m": 10000,
      "ceiling_ft": null,
      "hazards": [],
      "severityScore": 5,
      "metarRaw": "METAR LRSM 171100Z AUTO 05008KT 9999 NCD 00/M06 Q1031",
      "tafRaw": null
    },
    {
      "icao": "EDDK",
      "iata": "CGN",
      "name": "Cologne Bonn Airport",
      "updatedAt": "171050Z",
      "visibility_m": 10000,
      "taf_visibility_m": 10000,
      "worst_visibility_m": 10000,
      "ceiling_ft": null,
      "hazards": [],
      "severityScore": 0,
      "metarRaw": "METAR EDDK 171050Z AUTO 13010KT CAVOK 09/03 Q1019 NOSIG",
      "tafRaw": "TAF EDDK 170500Z 1706/1812 12007KT CAVOK"
    },
    {
      "icao": "EHBK",
      "iata": "MST",
      "name": "Maastricht Aachen Airport",
      "updatedAt": "171055Z",
      "visibility_m": 10000,
      "taf_visibility_m": 7000,
      "worst_visibility_m": 7000,
      "ceiling_ft": 4000,
      "hazards": [],
      "severityScore": 0,
      "metarRaw": "METAR EHBK 171055Z AUTO 11007KT 9999 NSC 11/07 Q1017 NOSIG",
      "tafRaw": "TAF EHBK 170502Z 1706/1812 16006KT 9999 BKN040 \n  PROB30 1800/1808 7000"
    },
    {
      "icao": "EHEH",
      "iata": "EIN",
      "name": "Eindhoven Airport",
      "updatedAt": "171055Z",
      "visibility_m": 10000,
      "taf_visibility_m": 10000,
      "worst_visibility_m": 10000,
      "ceiling_ft": 33000,
      "hazards": [],
      "severityScore": 0,
      "metarRaw": "METAR EHEH 171055Z AUTO 13004KT 100V200 9999 BKN330 10/06 Q1018 BLU NOSIG RMK TREND REMOTE BY EHWX",
      "tafRaw": "TAF EHEH 170517Z 1706/1812 13005KT CAVOK \n  BECMG 1714/1716 10005KT"
    },
    {
      "icao": "ENAL",
      "iata": "AES",
      "name": "Ålesund Airport, Vigra",
      "updatedAt": "171050Z",
      "visibility_m": 10000,
      "taf_visibility_m": 10000,
      "worst_visibility_m": 10000,
      "ceiling_ft": null,
      "hazards": [],
      "severityScore": 0,
      "metarRaw": "METAR ENAL 171050Z 16006KT CAVOK 06/02 Q1024",
      "tafRaw": "TAF ENAL 170800Z 1709/1718 16008KT 9999 SCT050"
    },
    {
      "icao": "ENHD",
      "iata": "HAU",
      "name": "Haugesund Airport, Karmøy",
      "updatedAt": "171050Z",
      "visibility_m": 10000,
      "taf_visibility_m": 10000,
      "worst_visibility_m": 10000,
      "ceiling_ft": 4700,
      "hazards": [],
      "severityScore": 0,
      "metarRaw": "METAR ENHD 171050Z 09006KT 9999 BKN047 05/01 Q1024",
      "tafRaw": "TAF ENHD 170800Z 1709/1718 12012KT 9999 FEW025 BKN040"
    },
    {
      "icao": "EPLB",
      "iata": "LUZ",
      "name": "Lublin Airport",
      "updatedAt": "171100Z",
      "visibility_m": 10000,
      "taf_visibility_m": 10000,
      "worst_visibility_m": 10000,
      "ceiling_ft": null,
      "hazards": [],
      "severityScore": 0,
      "metarRaw": "METAR EPLB 171100Z 12010KT CAVOK M06/M13 Q1035",
      "tafRaw": "TAF EPLB 170530Z 1706/1806 11010KT CAVOK"
    },
    {
      "icao": "EPWA",
      "iata": "WAW",
      "name": "Warsaw Chopin Airport",
      "updatedAt": "171100Z",
      "visibility_m": 10000,
      "taf_visibility_m": 10000,
      "worst_visibility_m": 10000,
      "ceiling_ft": null,
      "hazards": [],
      "severityScore": 0,
      "metarRaw": "METAR EPWA 171100Z 12012KT CAVOK M04/M11 Q1033 NOSIG",
      "tafRaw": "TAF EPWA 170830Z 1709/1809 11010KT CAVOK \n  PROB40 \n  TEMPO 1709/1801 12015G25KT"
    },
    {
      "icao": "HEGN",
      "iata": "HRG",
      "name": "Hurghada International Airport",
      "updatedAt": "171100Z",
      "visibility_m": 10000,
      "taf_visibility_m": 10000,
      "worst_visibility_m": 10000,
      "ceiling_ft": null,
      "hazards": [],
      "severityScore": 0,
      "metarRaw": "METAR HEGN 171100Z 36008KT CAVOK 21/06 Q1015 NOSIG",
      "tafRaw": "TAF HEGN 171100Z 1712/1818 02010KT CAVOK"
    },
    {
      "icao": "HEMA",
      "iata": "RMF",
      "name": "Marsa Alam International Airport",
      "updatedAt": "171100Z",
      "visibility_m": 10000,
      "taf_visibility_m": 10000,
      "worst_visibility_m": 10000,
      "ceiling_ft": null,
      "hazards": [],
      "severityScore": 0,
      "metarRaw": "METAR HEMA 171100Z 34012KT CAVOK 23/09 Q1016 NOSIG",
      "tafRaw": "TAF HEMA 171100Z 1712/1818 03010KT CAVOK"
    },
    {
      "icao": "HESH",
      "iata": "SSH",
      "name": "Sharm El Sheikh International Airport",
      "updatedAt": "171100Z",
      "visibility_m": 10000,
      "taf_visibility_m": 10000,
      "worst_visibility_m": 10000,
      "ceiling_ft": null,
      "hazards": [],
      "severityScore": 0,
      "metarRaw": "METAR HESH 171100Z 36010KT CAVOK 23/11 Q1016 NOSIG",
      "tafRaw": "TAF HESH 171100Z 1712/1818 04010KT CAVOK"
    },
    {
      "icao": "LATI",
      "iata": "TIA",
      "name": "Tirana International Airport Mother Teresa",
      "updatedAt": "171120Z",
      "visibility_m": 10000,
      "taf_visibility_m": 10000,
      "worst_visibility_m": 10000,
      "ceiling_ft": null,
      "hazards": [],
      "severityScore": 0,
      "metarRaw": "METAR LATI 171120Z VRB02KT CAVOK 18/01 Q1021 NOSIG",
      "tafRaw": "TAF LATI 171100Z 1712/1812 VRB05KT CAVOK TX17/1712Z TN00/1805Z"
    },
    {
      "icao": "LBPD",
      "iata": "PDV",
      "name": "Plovdiv International Airport",
      "updatedAt": "171100Z",
      "visibility_m": 10000,
      "taf_visibility_m": 10000,
      "worst_visibility_m": 10000,
      "ceiling_ft": null,
      "hazards": [],
      "severityScore": 0,
      "metarRaw": "METAR LBPD 171100Z AUTO VRB02KT 9999 NCD M00/M04 Q1032 NOSIG",
      "tafRaw": "TAF LBPD 171100Z 1712/1812 10010KT 9999 SCT040 \n  BECMG 1721/1723 12010KT"
    },
    {
      "icao": "LBSF",
      "iata": "SOF",
      "name": "Sofia Airport",
      "updatedAt": "171100Z",
      "visibility_m": 10000,
      "taf_visibility_m": 10000,
      "worst_visibility_m": 10000,
      "ceiling_ft": 3600,
      "hazards": [],
      "severityScore": 0,
      "metarRaw": "METAR LBSF 171100Z 10013KT 9999 BKN036 01/M05 Q1028 NOSIG",
      "tafRaw": "TAF LBSF 171100Z 1712/1812 10012KT 9999 SCT018 SCT030 \n  BECMG 1721/1723 VRB04KT"
    },
    {
      "icao": "LBWN",
      "iata": "VAR",
      "name": "Varna Airport",
      "updatedAt": "171100Z",
      "visibility_m": 10000,
      "taf_visibility_m": 10000,
      "worst_visibility_m": 10000,
      "ceiling_ft": 2000,
      "hazards": [],
      "severityScore": 0,
      "metarRaw": "METAR LBWN 171100Z 34007KT 300V040 CAVOK M01/M07 Q1032 NOSIG",
      "tafRaw": "TAF LBWN 171100Z 1712/1812 35012KT 9999 BKN020 \n  BECMG 1719/1720 01022KT \n  TEMPO 1722/1804 36024G34KT \n  BECMG 1808/1810 34012KT"
    },
    {
      "icao": "LEMG",
      "iata": "AGP",
      "name": "Málaga-Costa del Sol Airport",
      "updatedAt": "171100Z",
      "visibility_m": 10000,
      "taf_visibility_m": 10000,
      "worst_visibility_m": 10000,
      "ceiling_ft": null,
      "hazards": [],
      "severityScore": 0,
      "metarRaw": "METAR LEMG 171100Z 32008KT 300V360 9999 FEW040 12/05 Q1013 NOSIG",
      "tafRaw": "TAF LEMG 170500Z 1706/1806 27006KT 9999 FEW030 TX15/1714Z TN06/1806Z \n  BECMG 1710/1712 33010KT \n  BECMG 1718/1720 27005KT"
    },
    {
      "icao": "LGAV",
      "iata": "ATH",
      "name": "Athens Eleftherios Venizelos International Airport",
      "updatedAt": "171050Z",
      "visibility_m": 10000,
      "taf_visibility_m": 10000,
      "worst_visibility_m": 10000,
      "ceiling_ft": null,
      "hazards": [],
      "severityScore": 0,
      "metarRaw": "METAR LGAV 171050Z 03015KT 9999 FEW020 SCT025 09/02 Q1024 NOSIG",
      "tafRaw": "TAF LGAV 171100Z 1712/1812 03016KT 9999 FEW015 SCT025 \n  TEMPO 1712/1718 03017G27KT \n  TEMPO 1806/1812 03018G28KT"
    },
    {
      "icao": "LIBD",
      "iata": "BRI",
      "name": "Bari Karol Wojtyła International Airport",
      "updatedAt": "171050Z",
      "visibility_m": 10000,
      "taf_visibility_m": 10000,
      "worst_visibility_m": 10000,
      "ceiling_ft": null,
      "hazards": [],
      "severityScore": 0,
      "metarRaw": "METAR LIBD 171050Z AUTO 35005KT 320V020 9999 SCT014/// 14/10 Q1021",
      "tafRaw": "TAF LIBD 171100Z 1712/1812 VRB05KT 9999 FEW030"
    },
    {
      "icao": "LICJ",
      "iata": "PMO",
      "name": "Falcone–Borsellino Airport",
      "updatedAt": "171050Z",
      "visibility_m": 10000,
      "taf_visibility_m": 10000,
      "worst_visibility_m": 10000,
      "ceiling_ft": null,
      "hazards": [],
      "severityScore": 0,
      "metarRaw": "METAR LICJ 171050Z 25005KT CAVOK 16/11 Q1015",
      "tafRaw": "TAF LICJ 171100Z 1712/1812 20008KT 9999 SCT060"
    },
    {
      "icao": "LIME",
      "iata": "BGY",
      "name": "Milan Bergamo Airport / Antonio Locatelli Air Base",
      "updatedAt": "171050Z",
      "visibility_m": 6000,
      "taf_visibility_m": 6000,
      "worst_visibility_m": 6000,
      "ceiling_ft": 6500,
      "hazards": [],
      "severityScore": 0,
      "metarRaw": "METAR LIME 171050Z 25003KT 6000 FEW010 BKN065 09/06 Q1023 NOSIG",
      "tafRaw": "TAF LIME 171100Z 1712/1812 VRB04KT 6000 SCT050"
    },
    {
      "icao": "LIMJ",
      "iata": "GOA",
      "name": "Genoa Cristoforo Colombo Airport",
      "updatedAt": "171050Z",
      "visibility_m": 10000,
      "taf_visibility_m": 8000,
      "worst_visibility_m": 8000,
      "ceiling_ft": null,
      "hazards": [],
      "severityScore": 0,
      "metarRaw": "METAR LIMJ 171050Z 04014KT CAVOK 11/05 Q1020",
      "tafRaw": "TAF LIMJ 171100Z 1712/1812 03017KT 8000 SCT030"
    },
    {
      "icao": "LIPH",
      "iata": "TSF",
      "name": "Treviso Antonio Canova Airport",
      "updatedAt": "171050Z",
      "visibility_m": 10000,
      "taf_visibility_m": 7000,
      "worst_visibility_m": 7000,
      "ceiling_ft": null,
      "hazards": [],
      "severityScore": 0,
      "metarRaw": "METAR LIPH 171050Z 03004KT 360V080 9999 FEW070 13/06 Q1023",
      "tafRaw": "TAF LIPH 171100Z 1712/1812 03007KT 7000 SCT040"
    },
    {
      "icao": "LIPQ",
      "iata": "TRS",
      "name": "Trieste–Friuli Venezia Giulia Airport",
      "updatedAt": "171050Z",
      "visibility_m": 10000,
      "taf_visibility_m": 10000,
      "worst_visibility_m": 10000,
      "ceiling_ft": null,
      "hazards": [],
      "severityScore": 0,
      "metarRaw": "METAR LIPQ 171050Z AUTO 02005KT 9999 NCD 15/08 Q1022",
      "tafRaw": "TAF LIPQ 171100Z 1712/1812 03007KT 9999 FEW025 \n  BECMG 1808/1810 06015KT"
    },
    {
      "icao": "LIPZ",
      "iata": "VCE",
      "name": "Venice Marco Polo Airport",
      "updatedAt": "171050Z",
      "visibility_m": 10000,
      "taf_visibility_m": 10000,
      "worst_visibility_m": 10000,
      "ceiling_ft": null,
      "hazards": [],
      "severityScore": 0,
      "metarRaw": "METAR LIPZ 171050Z 04006KT 010V070 9999 FEW060 12/06 Q1023 NOSIG",
      "tafRaw": "TAF LIPZ 171100Z 1712/1818 04007KT 9999 FEW025 \n  BECMG 1718/1720 04015KT"
    },
    {
      "icao": "LIRF",
      "iata": "FCO",
      "name": "Rome–Fiumicino Leonardo da Vinci International Airport",
      "updatedAt": "171050Z",
      "visibility_m": 10000,
      "taf_visibility_m": 10000,
      "worst_visibility_m": 10000,
      "ceiling_ft": null,
      "hazards": [],
      "severityScore": 0,
      "metarRaw": "METAR LIRF 171050Z 05008KT CAVOK 14/06 Q1018 NOSIG",
      "tafRaw": "TAF LIRF 171100Z 1712/1818 05010KT CAVOK \n  BECMG 1714/1716 10006KT"
    },
    {
      "icao": "LIRN",
      "iata": "NAP",
      "name": "Naples International Airport",
      "updatedAt": "171050Z",
      "visibility_m": 10000,
      "taf_visibility_m": 10000,
      "worst_visibility_m": 10000,
      "ceiling_ft": null,
      "hazards": [],
      "severityScore": 0,
      "metarRaw": "METAR LIRN 171050Z 05009KT CAVOK 16/07 Q1018 NOSIG",
      "tafRaw": "TAF LIRN 171100Z 1712/1812 05010KT CAVOK"
    },
    {
      "icao": "LIRZ",
      "iata": "PEG",
      "name": "Perugia San Francesco d'Assisi – Umbria International Airport",
      "updatedAt": "171050Z",
      "visibility_m": 10000,
      "taf_visibility_m": 8000,
      "worst_visibility_m": 8000,
      "ceiling_ft": null,
      "hazards": [],
      "severityScore": 0,
      "metarRaw": "METAR LIRZ 171050Z AUTO 16003KT 9999 NCD 08/06 Q1019",
      "tafRaw": "TAF LIRZ 171100Z 1712/1812 VRB05KT 8000 NSC"
    },
    {
      "icao": "LMML",
      "iata": "MLA",
      "name": "Malta International Airport",
      "updatedAt": "171115Z",
      "visibility_m": 10000,
      "taf_visibility_m": 10000,
      "worst_visibility_m": 10000,
      "ceiling_ft": null,
      "hazards": [],
      "severityScore": 0,
      "metarRaw": "METAR LMML 171115Z 07009KT 040V130 9999 FEW016 17/13 Q1015 NOSIG",
      "tafRaw": "TAF LMML 171100Z 1712/1812 09006KT 9999 FEW017"
    },
    {
      "icao": "LRBV",
      "iata": "GHV",
      "name": "Brașov-Ghimbav International Airport",
      "updatedAt": "171100Z",
      "visibility_m": 10000,
      "taf_visibility_m": 10000,
      "worst_visibility_m": 10000,
      "ceiling_ft": null,
      "hazards": [],
      "severityScore": 0,
      "metarRaw": "METAR LRBV 171100Z 18003KT 150V260 CAVOK M03/M07 Q1029",
      "tafRaw": "TAF LRBV 170800Z 1709/1718 VRB04KT CAVOK"
    },
    {
      "icao": "LRCL",
      "iata": "CLJ",
      "name": "Cluj Avram Iancu International Airport",
      "updatedAt": "171100Z",
      "visibility_m": 10000,
      "taf_visibility_m": 10000,
      "worst_visibility_m": 10000,
      "ceiling_ft": null,
      "hazards": [],
      "severityScore": 0,
      "metarRaw": "METAR LRCL 171100Z 07005KT CAVOK M03/M08 Q1031",
      "tafRaw": "TAF LRCL 170800Z 1709/1718 09004KT CAVOK"
    },
    {
      "icao": "LRCV",
      "iata": "CRA",
      "name": "Craiova International Airport",
      "updatedAt": "171100Z",
      "visibility_m": 10000,
      "taf_visibility_m": 10000,
      "worst_visibility_m": 10000,
      "ceiling_ft": null,
      "hazards": [],
      "severityScore": 0,
      "metarRaw": "METAR LRCV 171100Z 05004KT 020V090 CAVOK M02/M08 Q1033",
      "tafRaw": "TAF LRCV 170800Z 1709/1718 10008KT CAVOK"
    },
    {
      "icao": "LRSB",
      "iata": "SBZ",
      "name": "Sibiu International Airport",
      "updatedAt": "171100Z",
      "visibility_m": 10000,
      "taf_visibility_m": 10000,
      "worst_visibility_m": 10000,
      "ceiling_ft": null,
      "hazards": [],
      "severityScore": 0,
      "metarRaw": "METAR LRSB 171100Z 27003KT CAVOK M02/M05 Q1029",
      "tafRaw": "TAF LRSB 170500Z 1706/1806 VRB04KT CAVOK"
    },
    {
      "icao": "LRSV",
      "iata": "SCV",
      "name": "Suceava Stefan cel Mare Airport",
      "updatedAt": "171100Z",
      "visibility_m": 10000,
      "taf_visibility_m": 10000,
      "worst_visibility_m": 10000,
      "ceiling_ft": null,
      "hazards": [],
      "severityScore": 0,
      "metarRaw": "METAR LRSV 171100Z 06006KT CAVOK M09/M13 Q1033",
      "tafRaw": "TAF LRSV 170800Z 1709/1718 36008KT CAVOK"
    },
    {
      "icao": "LRTM",
      "iata": "TGM",
      "name": "Târgu Mureş Transilvania International Airport",
      "updatedAt": "171100Z",
      "visibility_m": 7000,
      "taf_visibility_m": 10000,
      "worst_visibility_m": 7000,
      "ceiling_ft": null,
      "hazards": [],
      "severityScore": 0,
      "metarRaw": "METAR LRTM 171100Z 24004KT 7000 NSC M07/M10 Q1031",
      "tafRaw": "TAF LRTM 170800Z 1709/1718 VRB04KT CAVOK"
    },
    {
      "icao": "LYBE",
      "iata": "BEG",
      "name": "Belgrade Nikola Tesla Airport",
      "updatedAt": "171100Z",
      "visibility_m": 10000,
      "taf_visibility_m": 10000,
      "worst_visibility_m": 10000,
      "ceiling_ft": null,
      "hazards": [],
      "severityScore": 0,
      "metarRaw": "METAR LYBE 171100Z 12014KT CAVOK 03/M05 Q1029 NOSIG",
      "tafRaw": "TAF LYBE 171100Z 1712/1812 12016KT CAVOK TX04/1713ZZ TNM05/1806Z"
    },
    {
      "icao": "LYNI",
      "iata": "INI",
      "name": "Niš Constantine the Great Airport",
      "updatedAt": "171100Z",
      "visibility_m": 10000,
      "taf_visibility_m": 10000,
      "worst_visibility_m": 10000,
      "ceiling_ft": null,
      "hazards": [],
      "severityScore": 0,
      "metarRaw": "METAR LYNI 171100Z 05007KT 020V100 9999 FEW023 SCT040 03/M04 Q1029 NOSIG",
      "tafRaw": "TAF LYNI 171100Z 1712/1812 05008KT CAVOK TX05/1713Z TNM04/1805Z"
    },
    {
      "icao": "LZKZ",
      "iata": "KSC",
      "name": "Košice International Airport",
      "updatedAt": "171100Z",
      "visibility_m": 10000,
      "taf_visibility_m": 10000,
      "worst_visibility_m": 10000,
      "ceiling_ft": null,
      "hazards": [],
      "severityScore": 0,
      "metarRaw": "METAR LZKZ 171100Z 36003KT CAVOK 04/M07 Q1031 NOSIG",
      "tafRaw": "TAF LZKZ 171115Z 1712/1812 35006KT CAVOK \n  BECMG 1720/1722 VRB02KT"
    },
    {
      "icao": "OEJN",
      "iata": "JED",
      "name": "King Abdulaziz International Airport",
      "updatedAt": "171100Z",
      "visibility_m": 10000,
      "taf_visibility_m": 3000,
      "worst_visibility_m": 3000,
      "ceiling_ft": null,
      "hazards": [],
      "severityScore": 0,
      "metarRaw": "METAR OEJN 171100Z 26007KT 9999 FEW040 28/14 Q1012 NOSIG",
      "tafRaw": "TAF OEJN 171100Z 1712/1818 30010KT 7000 FEW040 \n  BECMG 1720/1722 03006KT \n  PROB30 \n  TEMPO 1723/1806 3000 HZ \n  BECMG 1810/1812 30010KT"
    },
    {
      "icao": "OEMA",
      "iata": "MED",
      "name": "Prince Mohammad Bin Abdulaziz Airport",
      "updatedAt": "171100Z",
      "visibility_m": 7000,
      "taf_visibility_m": 7000,
      "worst_visibility_m": 7000,
      "ceiling_ft": null,
      "hazards": [],
      "severityScore": 0,
      "metarRaw": "METAR OEMA 171100Z 13003KT 7000 NSC 23/04 Q1016 NOSIG",
      "tafRaw": "TAF OEMA 171100Z 1712/1818 12012KT 7000 NSC \n  BECMG 1716/1718 25006KT \n  BECMG 1810/1812 25016KT"
    },
    {
      "icao": "OMAA",
      "iata": "AUH",
      "name": "Zayed International Airport",
      "updatedAt": "171100Z",
      "visibility_m": 10000,
      "taf_visibility_m": 10000,
      "worst_visibility_m": 10000,
      "ceiling_ft": null,
      "hazards": [],
      "severityScore": 0,
      "metarRaw": "METAR OMAA 171100Z 29012KT 260V350 9999 SCT035 22/11 Q1016 NOSIG",
      "tafRaw": "TAF OMAA 171100Z 1712/1818 30011KT 9999 SCT040 \n  BECMG 1814/1816 23005KT"
    },
    {
      "icao": "OMDB",
      "iata": "DXB",
      "name": "Dubai International Airport",
      "updatedAt": "171100Z",
      "visibility_m": 10000,
      "taf_visibility_m": 8000,
      "worst_visibility_m": 8000,
      "ceiling_ft": null,
      "hazards": [],
      "severityScore": 0,
      "metarRaw": "METAR OMDB 171100Z 29013KT 250V320 9999 SCT040 22/11 Q1016 NOSIG",
      "tafRaw": "TAF OMDB 171100Z 1712/1818 28012KT 8000 SCT040 \n  BECMG 1718/1720 22006KT \n  BECMG 1806/1808 29012KT \n  BECMG 1816/1818 22005KT"
    }
  ],
  "stats": {
    "icaoCount": 159,
    "metarReturned": 158,
    "tafReturned": 144,
    "stationsWritten": 159,
    "missingMetar": 1,
    "missingTaf": 15
  },
  "errors": []
}