{
  "generatedAt": "2026-02-03T14:51:38.929Z",
  "stations": [
    {
      "icao": "EDDS",
      "iata": "STR",
      "name": "Stuttgart Airport",
      "lat": 48.689899,
      "lon": 9.22196,
      "updatedAt": "031420Z",
      "visibility_m": 10000,
      "taf_visibility_m": 300,
      "worst_visibility_m": 300,
      "ceiling_ft": 100,
      "hazards": [
        "FZFG",
        "FG"
      ],
      "severityScore": 100,
      "metarRaw": "METAR EDDS 031420Z AUTO 21005KT 150V260 CAVOK 08/04 Q0999 NOSIG",
      "tafRaw": "TAF EDDS 031100Z 0312/0412 18003KT 9999 FEW040 \n  TEMPO 0321/0408 0600 FZFG OVC002 \n  PROB40 \n  TEMPO 0321/0406 0300 FZFG OVC001",
      "minima": {
        "best": {
          "cig_ft": 0,
          "vis_m": 75
        },
        "alt": {
          "cig_ft": 100,
          "vis_m": 300
        },
        "wind": {
          "threshold_kt": 29,
          "use_gust": false,
          "apply": true
        },
        "approach_category": null
      }
    },
    {
      "icao": "EDFH",
      "iata": "HHN",
      "name": "Frankfurt-Hahn Airport",
      "lat": 49.946353,
      "lon": 7.261734,
      "updatedAt": "031420Z",
      "visibility_m": 3000,
      "taf_visibility_m": null,
      "worst_visibility_m": 3000,
      "ceiling_ft": 100,
      "hazards": [
        "BR",
        "SN",
        "FZRA",
        "RA"
      ],
      "severityScore": 100,
      "metarRaw": "METAR EDFH 031420Z 14018KT 3000 -SN BR OVC001 M01/M01 Q0997 REFZRA",
      "tafRaw": null,
      "minima": {
        "best": {
          "cig_ft": 0,
          "vis_m": 75
        },
        "alt": {
          "cig_ft": 100,
          "vis_m": 300
        },
        "wind": {
          "threshold_kt": 29,
          "use_gust": false,
          "apply": true
        },
        "approach_category": null
      }
    },
    {
      "icao": "EDSB",
      "iata": "FKB",
      "name": "Karlsruhe Baden-Baden Airport",
      "lat": 48.7794,
      "lon": 8.0805,
      "updatedAt": "031420Z",
      "visibility_m": 4200,
      "taf_visibility_m": 200,
      "worst_visibility_m": 200,
      "ceiling_ft": 700,
      "hazards": [
        "BR",
        "DZ",
        "FZFG",
        "FG"
      ],
      "severityScore": 100,
      "metarRaw": "METAR EDSB 031420Z VRB01KT 4200 -DZ BR OVC007 02/01 Q1001",
      "tafRaw": "TAF EDSB 031100Z 0312/0412 35003KT 6000 BKN015 \n  TEMPO 0312/0317 1500 BR BKN005 \n  TEMPO 0317/0409 0800 FZFG OVC002 \n  PROB30 \n  TEMPO 0318/0409 0200 FZFG OVC001 \n  TEMPO 0409/0412 BKN005",
      "minima": {
        "best": {
          "cig_ft": 0,
          "vis_m": 75
        },
        "alt": {
          "cig_ft": 100,
          "vis_m": 300
        },
        "wind": {
          "threshold_kt": 29,
          "use_gust": false,
          "apply": true
        },
        "approach_category": null
      }
    },
    {
      "icao": "EGBB",
      "iata": "BHX",
      "name": "Birmingham Airport",
      "lat": 52.453899,
      "lon": -1.74803,
      "updatedAt": "031420Z",
      "visibility_m": 5000,
      "taf_visibility_m": 300,
      "worst_visibility_m": 300,
      "ceiling_ft": 700,
      "hazards": [
        "FG",
        "BR",
        "SN",
        "RA",
        "DZ"
      ],
      "severityScore": 100,
      "metarRaw": "METAR EGBB 031420Z 08010KT 020V110 5000 HZ OVC007 02/00 Q0994",
      "tafRaw": "TAF EGBB 031057Z 0312/0412 08011KT 7000 BKN012 \n  TEMPO 0312/0404 4000 RADZ BR BKN008 \n  PROB40 \n  TEMPO 0321/0401 1200 RASN BKN002 \n  TEMPO 0404/0412 4000 BR BKN004 \n  PROB30 \n  TEMPO 0404/0411 0300 FG BKN001",
      "minima": {
        "best": {
          "cig_ft": 0,
          "vis_m": 75
        },
        "alt": {
          "cig_ft": 100,
          "vis_m": 300
        },
        "wind": {
          "threshold_kt": 29,
          "use_gust": false,
          "apply": true
        },
        "approach_category": null
      }
    },
    {
      "icao": "EGKK",
      "iata": "LGW",
      "name": "London Gatwick Airport",
      "lat": 51.148771,
      "lon": -0.192089,
      "updatedAt": "031420Z",
      "visibility_m": 9000,
      "taf_visibility_m": 300,
      "worst_visibility_m": 300,
      "ceiling_ft": 700,
      "hazards": [
        "RA",
        "DZ",
        "FG",
        "BR"
      ],
      "severityScore": 100,
      "metarRaw": "METAR EGKK 031420Z 04007KT 360V100 9000 -RADZ BKN007 05/05 Q0991",
      "tafRaw": "TAF EGKK 031100Z 0312/0418 08010KT 9999 BKN010 \n  TEMPO 0312/0322 6000 -RADZ BKN007 \n  PROB40 \n  TEMPO 0312/0318 3000 RADZ \n  BECMG 0314/0317 VRB03KT \n  PROB40 \n  TEMPO 0318/0322 4000 BR BKN003 \n  BECMG 0319/0322 SCT010 \n  TEMPO 0322/0410 3000 BR BKN003 \n  PROB40 \n  TEMPO 0400/0410 0300 FG BKN001 \n  BECMG 0408/0411 12010KT \n  PROB30 \n  TEMPO 0410/0412 4000 BR BKN006",
      "minima": {
        "best": {
          "cig_ft": 0,
          "vis_m": 75
        },
        "alt": {
          "cig_ft": 100,
          "vis_m": 300
        },
        "wind": {
          "threshold_kt": 29,
          "use_gust": false,
          "apply": true
        },
        "approach_category": null
      }
    },
    {
      "icao": "EGNM",
      "iata": "LBA",
      "name": "Leeds Bradford Airport",
      "lat": 53.865898,
      "lon": -1.66057,
      "updatedAt": "031420Z",
      "visibility_m": 6000,
      "taf_visibility_m": 600,
      "worst_visibility_m": 600,
      "ceiling_ft": 700,
      "hazards": [
        "FG",
        "BR",
        "SN",
        "RA",
        "DZ"
      ],
      "severityScore": 100,
      "metarRaw": "METAR EGNM 031420Z 07007KT 030V090 6000 OVC007 00/M01 Q0996",
      "tafRaw": "TAF EGNM 031055Z 0312/0412 08010KT 9999 SCT008 BKN010 \n  TEMPO 0312/0315 6000 -RA BKN006 \n  PROB30 \n  TEMPO 0312/0315 4000 -SN BR BKN004 \n  TEMPO 0315/0321 3000 RASN BKN003 \n  BECMG 0321/0324 2000 BR BKN003 \n  PROB40 \n  TEMPO 0321/0408 0600 -RASN FG BKN001 \n  PROB30 \n  TEMPO 0408/0412 5000 -DZ BKN005",
      "minima": {
        "best": {
          "cig_ft": 0,
          "vis_m": 75
        },
        "alt": {
          "cig_ft": 100,
          "vis_m": 300
        },
        "wind": {
          "threshold_kt": 29,
          "use_gust": false,
          "apply": true
        },
        "approach_category": null
      }
    },
    {
      "icao": "EPKK",
      "iata": "KRK",
      "name": "Kraków John Paul II International Airport",
      "lat": 50.077702,
      "lon": 19.7848,
      "updatedAt": "031430Z",
      "visibility_m": 10000,
      "taf_visibility_m": 1500,
      "worst_visibility_m": 1500,
      "ceiling_ft": 300,
      "hazards": [
        "BR",
        "FZRA",
        "SN",
        "RA"
      ],
      "severityScore": 100,
      "metarRaw": "METAR EPKK 031430Z 06011KT 9999 SCT057 M06/M10 Q1012",
      "tafRaw": "TAF EPKK 031430Z 0315/0415 06012KT CAVOK \n  BECMG 0319/0322 4000 -SN BR OVC012 \n  TEMPO 0321/0406 2500 -FZRA -SNRA BR OVC006 \n  PROB30 \n  TEMPO 0406/0408 VRB02KT 1500 BR BKN003 \n  TEMPO 0408/0415 9999 BKN030",
      "minima": {
        "best": {
          "cig_ft": 230,
          "vis_m": 550
        },
        "alt": {
          "cig_ft": 350,
          "vis_m": 900
        },
        "wind": {
          "threshold_kt": 29,
          "use_gust": false,
          "apply": true
        },
        "approach_category": null
      }
    },
    {
      "icao": "EPKT",
      "iata": "KTW",
      "name": "Katowice Wojciech Korfanty International Airport",
      "lat": 50.476015,
      "lon": 19.080705,
      "updatedAt": "031430Z",
      "visibility_m": 10000,
      "taf_visibility_m": 1400,
      "worst_visibility_m": 1400,
      "ceiling_ft": 100,
      "hazards": [
        "BR",
        "FZRA",
        "SN",
        "FZDZ",
        "RA",
        "DZ"
      ],
      "severityScore": 100,
      "metarRaw": "METAR EPKT 031430Z 07011KT CAVOK M05/M09 Q1011",
      "tafRaw": "TAF EPKT 031130Z 0312/0412 08010KT CAVOK \n  BECMG 0319/0321 4000 -SN BR OVC009 \n  TEMPO 0321/0324 2500 -FZRA -SNRA BR OVC002 \n  TEMPO 0400/0407 1400 -FZDZ BR OVC001 \n  BECMG 0408/0411 9999 BKN030",
      "minima": {
        "best": {
          "cig_ft": 109,
          "vis_m": 300
        },
        "alt": {
          "cig_ft": 220,
          "vis_m": 550
        },
        "wind": {
          "threshold_kt": 29,
          "use_gust": false,
          "apply": true
        },
        "approach_category": null
      }
    },
    {
      "icao": "EPRZ",
      "iata": "RZE",
      "name": "Rzeszów-Jasionka Airport",
      "lat": 50.109791,
      "lon": 22.024155,
      "updatedAt": "031430Z",
      "visibility_m": 10000,
      "taf_visibility_m": 1500,
      "worst_visibility_m": 1500,
      "ceiling_ft": 3300,
      "hazards": [
        "BR",
        "FZRA",
        "SN",
        "FZDZ",
        "RA",
        "DZ"
      ],
      "severityScore": 100,
      "metarRaw": "METAR EPRZ 031430Z 09011KT 9999 BKN033 M06/M10 Q1015",
      "tafRaw": "TAF EPRZ 031130Z 0312/0412 10010KT 9999 BKN018 \n  BECMG 0320/0323 4000 -SN BR OVC009 \n  TEMPO 0321/0403 1500 SN BR OVC004 \n  PROB40 \n  TEMPO 0403/0406 -FZRA \n  TEMPO 0406/0409 -FZDZ BR BKN003 \n  TEMPO 0409/0412 BKN004",
      "minima": {
        "best": {
          "cig_ft": 112,
          "vis_m": 300
        },
        "alt": {
          "cig_ft": 200,
          "vis_m": 550
        },
        "wind": {
          "threshold_kt": 29,
          "use_gust": false,
          "apply": true
        },
        "approach_category": null
      }
    },
    {
      "icao": "EPWR",
      "iata": "WRO",
      "name": "Copernicus Wrocław Airport",
      "lat": 51.103719,
      "lon": 16.882096,
      "updatedAt": "031430Z",
      "visibility_m": 10000,
      "taf_visibility_m": 2000,
      "worst_visibility_m": 2000,
      "ceiling_ft": 200,
      "hazards": [
        "BR",
        "FZRA",
        "SN",
        "FZDZ",
        "RA",
        "DZ"
      ],
      "severityScore": 100,
      "metarRaw": "METAR EPWR 031430Z 10009KT 9999 FEW034 M04/M10 Q1012",
      "tafRaw": "TAF EPWR 031430Z 0315/0415 09010KT 9999 BKN035 \n  BECMG 0318/0321 BKN005 \n  TEMPO 0321/0402 2000 SN BR OVC002 \n  TEMPO 0402/0409 2000 FZDZ -SNRA OVC004 \n  BECMG 0409/0412 BKN015 \n  PROB40 \n  TEMPO 0409/0412 3000 FZDZ FZRA BKN005",
      "minima": {
        "best": {
          "cig_ft": 102,
          "vis_m": 300
        },
        "alt": {
          "cig_ft": 200,
          "vis_m": 550
        },
        "wind": {
          "threshold_kt": 29,
          "use_gust": false,
          "apply": true
        },
        "approach_category": null
      }
    },
    {
      "icao": "LBPD",
      "iata": "PDV",
      "name": "Plovdiv International Airport",
      "lat": 42.067799,
      "lon": 24.8508,
      "updatedAt": "031430Z",
      "visibility_m": 10000,
      "taf_visibility_m": 600,
      "worst_visibility_m": 600,
      "ceiling_ft": 200,
      "hazards": [
        "FZFG",
        "BR",
        "FG"
      ],
      "severityScore": 100,
      "metarRaw": "METAR LBPD 031430Z AUTO 00000KT 9999 OVC019/// 00/M01 Q1021 NOSIG",
      "tafRaw": "TAF LBPD 031100Z 0312/0412 10010KT 9999 SCT012 BKN030 \n  BECMG 0320/0322 VRB03KT 4000 BR SCT005 BKN010 \n  BECMG 0322/0324 1500 BR \n  TEMPO 0401/0407 0600 FZFG BKN002 \n  BECMG 0407/0409 3000 BR BKN007 \n  BECMG 0409/0411 8000 NSW BKN012",
      "minima": {
        "best": {
          "cig_ft": 200,
          "vis_m": 550
        },
        "alt": {
          "cig_ft": 260,
          "vis_m": 800
        },
        "wind": {
          "threshold_kt": 29,
          "use_gust": false,
          "apply": true
        },
        "approach_category": null
      }
    },
    {
      "icao": "LBSF",
      "iata": "SOF",
      "name": "Sofia Airport",
      "lat": 42.696357,
      "lon": 23.417671,
      "updatedAt": "031430Z",
      "visibility_m": 10000,
      "taf_visibility_m": 800,
      "worst_visibility_m": 800,
      "ceiling_ft": 300,
      "hazards": [
        "FZFG",
        "BR",
        "FG"
      ],
      "severityScore": 100,
      "metarRaw": "METAR LBSF 031430Z 11010KT CAVOK 02/M01 Q1017 NOSIG",
      "tafRaw": "TAF LBSF 031100Z 0312/0412 10010KT 9999 SCT010 BKN020 \n  BECMG 0322/0324 VRB03KT \n  TEMPO 0401/0407 3000 BR SCT007 BKN015 \n  PROB30 0403/0406 0800 FZFG BKN003 \n  BECMG 0408/0410 10010KT",
      "minima": {
        "best": {
          "cig_ft": 0,
          "vis_m": 75
        },
        "alt": {
          "cig_ft": 100,
          "vis_m": 300
        },
        "wind": {
          "threshold_kt": 29,
          "use_gust": false,
          "apply": true
        },
        "approach_category": null
      }
    },
    {
      "icao": "LHBP",
      "iata": "BUD",
      "name": "Budapest Liszt Ferenc International Airport",
      "lat": 47.43018,
      "lon": 19.262393,
      "updatedAt": "031430Z",
      "visibility_m": 5000,
      "taf_visibility_m": 1000,
      "worst_visibility_m": 1000,
      "ceiling_ft": 800,
      "hazards": [
        "FZRA",
        "PL",
        "SN",
        "RA",
        "BR"
      ],
      "severityScore": 100,
      "metarRaw": "METAR LHBP 031430Z 10012KT 5000 -SN -PL OVC008 M00/M02 Q1012 BECMG 8000 -PL -FZRA",
      "tafRaw": "TAF LHBP 031115Z 0312/0412 10011KT 1000 +SN DRSN VV004 \n  TEMPO 0312/0313 5000 -SN SCT008 OVC020 \n  BECMG 0313/0317 7000 -PL -FZRA -SNRA SCT008 OVC030 \n  BECMG 0317/0320 -RA \n  TEMPO 0317/0412 3500 RA BR BKN004 OVC020",
      "minima": {
        "best": {
          "cig_ft": 0,
          "vis_m": 75
        },
        "alt": {
          "cig_ft": 107,
          "vis_m": 300
        },
        "wind": {
          "threshold_kt": 29,
          "use_gust": false,
          "apply": true
        },
        "approach_category": null
      }
    },
    {
      "icao": "LKPR",
      "iata": "PRG",
      "name": "Václav Havel Airport Prague",
      "lat": 50.100874,
      "lon": 14.259911,
      "updatedAt": "031430Z",
      "visibility_m": 10000,
      "taf_visibility_m": 700,
      "worst_visibility_m": 700,
      "ceiling_ft": 1100,
      "hazards": [
        "FZFG",
        "BR",
        "FZRA",
        "RA",
        "FG"
      ],
      "severityScore": 100,
      "metarRaw": "METAR LKPR 031430Z 11012KT 9999 OVC011 M01/M02 Q1004 NOSIG",
      "tafRaw": "TAF LKPR 031400Z 0315/0421 11010KT 9999 OVC011 \n  TEMPO 0315/0324 BKN015 \n  BECMG 0319/0321 15005KT \n  BECMG 0400/0402 4000 BR SCT002 OVC009 \n  TEMPO 0402/0409 2000 BR BKN002 \n  PROB30 \n  TEMPO 0402/0408 0700 FZFG \n  BECMG 0410/0412 08008KT 6000 SCT007 OVC010 \n  BECMG 0415/0417 11010KT 5000 -RA BR OVC005 \n  TEMPO 0417/0421 2000 -FZRA BR OVC002",
      "minima": {
        "best": {
          "cig_ft": 0,
          "vis_m": 75
        },
        "alt": {
          "cig_ft": 100,
          "vis_m": 300
        },
        "wind": {
          "threshold_kt": 29,
          "use_gust": false,
          "apply": true
        },
        "approach_category": null
      }
    },
    {
      "icao": "LZIB",
      "iata": "BTS",
      "name": "M. R. Štefánik Airport",
      "lat": 48.1702,
      "lon": 17.2127,
      "updatedAt": "031430Z",
      "visibility_m": 10000,
      "taf_visibility_m": 1500,
      "worst_visibility_m": 1500,
      "ceiling_ft": 700,
      "hazards": [
        "BR",
        "FZRA",
        "RA",
        "FZDZ",
        "DZ"
      ],
      "severityScore": 100,
      "metarRaw": "METAR LZIB 031430Z 09012KT 9999 BKN007 OVC008 M00/M01 Q1009 NOSIG",
      "tafRaw": "TAF LZIB 031115Z 0312/0412 11014KT 9999 SCT008 OVC016 \n  TEMPO 0312/0319 12015G25KT -FZRA BKN008 OVC011 \n  TEMPO 0319/0407 1500 -FZDZ BR BKN004 OVC007 \n  TEMPO 0407/0412 2500 RA BKN005 OVC010",
      "minima": {
        "best": {
          "cig_ft": 0,
          "vis_m": 200
        },
        "alt": {
          "cig_ft": 103,
          "vis_m": 300
        },
        "wind": {
          "threshold_kt": 29,
          "use_gust": false,
          "apply": true
        },
        "approach_category": null
      }
    },
    {
      "icao": "OJAI",
      "iata": "AMM",
      "name": "Queen Alia International Airport",
      "lat": 31.7226009369,
      "lon": 35.9931983948,
      "updatedAt": "031400Z",
      "visibility_m": 6000,
      "taf_visibility_m": 500,
      "worst_visibility_m": 500,
      "ceiling_ft": 2500,
      "hazards": [
        "FG",
        "BR",
        "TSRA",
        "RA",
        "TS"
      ],
      "severityScore": 100,
      "metarRaw": "METAR OJAI 031400Z 27014KT 6000 SCT025 SCT030 12/08 Q1019 NOSIG",
      "tafRaw": "TAF OJAI 031100Z 0312/0418 24014KT 4000 -RA BR SCT015 SCT035 \n  PROB30 \n  TEMPO 0312/0317 25020G30KT 1000 -TSRA BLDU FEW020CB BKN025 \n  PROB40 0400/0406 0500 FG \n  BECMG 0406/0408 29012KT 5000 HZ FEW030",
      "minima": {
        "best": {
          "cig_ft": 119,
          "vis_m": 300
        },
        "alt": {
          "cig_ft": 200,
          "vis_m": 550
        },
        "wind": {
          "threshold_kt": 29,
          "use_gust": false,
          "apply": true
        },
        "approach_category": null
      }
    },
    {
      "icao": "UAAA",
      "iata": "ALA",
      "name": "Almaty International Airport",
      "lat": 43.354267,
      "lon": 77.042828,
      "updatedAt": "031430Z",
      "visibility_m": 4300,
      "taf_visibility_m": 800,
      "worst_visibility_m": 800,
      "ceiling_ft": 10000,
      "hazards": [
        "BR",
        "FZFG",
        "FZRA",
        "SN",
        "FG",
        "RA"
      ],
      "severityScore": 100,
      "metarRaw": "METAR UAAA 031430Z 00000MPS 4300 BR SCT050 OVC100 04/01 Q1020 NOSIG",
      "tafRaw": "TAF UAAA 031105Z 0312/0412 26003MPS 3100 BR FU BKN011CB OVC050 TX05/0409Z TNM01/0402Z \n  TEMPO 0316/0320 32003MPS 1500 -SHRASN BR BKN006 OVC011CB \n  TEMPO 0320/0403 20003MPS 0800 -FZRA -SN FZFG BKN006 OVC011 \n  TEMPO 0403/0406 04003G08MPS 1300 FEW006 SCT011 \n  FM040600 04003G08MPS 6000 SCT030CB BKN100",
      "minima": {
        "best": {
          "cig_ft": 0,
          "vis_m": 75
        },
        "alt": {
          "cig_ft": 110,
          "vis_m": 300
        },
        "wind": {
          "threshold_kt": 29,
          "use_gust": false,
          "apply": true
        },
        "approach_category": null
      }
    },
    {
      "icao": "LOWW",
      "iata": "VIE",
      "name": "Vienna International Airport",
      "lat": 48.110298,
      "lon": 16.5697,
      "updatedAt": "031420Z",
      "visibility_m": 10000,
      "taf_visibility_m": 2000,
      "worst_visibility_m": 2000,
      "ceiling_ft": 900,
      "hazards": [
        "BR",
        "RA",
        "FZDZ",
        "DZ"
      ],
      "severityScore": 85,
      "metarRaw": "METAR LOWW 031420Z 12016KT 9999 BKN009 M00/M02 Q1006 NOSIG",
      "tafRaw": "TAF LOWW 031415Z 0315/0421 12010KT 9999 OVC010 TX01/0421Z TNM00/0400Z \n  TEMPO 0315/0317 12015G25KT BKN009 \n  BECMG 0317/0319 BKN009 \n  TEMPO 0318/0405 3000 BR BKN004 \n  TEMPO 0403/0407 -RADZ \n  PROB30 \n  TEMPO 0403/0405 2000 -FZDZ \n  BECMG 0405/0407 3000 BR OVC004 \n  TEMPO 0407/0413 2500 RA BKN006 \n  TEMPO 0418/0421 2000 RA BKN006",
      "minima": {
        "best": {
          "cig_ft": 0,
          "vis_m": 75
        },
        "alt": {
          "cig_ft": 100,
          "vis_m": 300
        },
        "wind": {
          "threshold_kt": 29,
          "use_gust": false,
          "apply": true
        },
        "approach_category": null
      }
    },
    {
      "icao": "EBCI",
      "iata": "CRL",
      "name": "Brussels South Charleroi Airport",
      "lat": 50.461963,
      "lon": 4.459562,
      "updatedAt": "031420Z",
      "visibility_m": 2500,
      "taf_visibility_m": 4500,
      "worst_visibility_m": 2500,
      "ceiling_ft": 400,
      "hazards": [
        "BR",
        "DZ",
        "RA",
        "SHRA"
      ],
      "severityScore": 81,
      "metarRaw": "METAR EBCI 031420Z 18008KT 3200 -DZ BR FEW004 BKN006 06/05 Q0993 TEMPO 2500 RADZ BKN004",
      "tafRaw": "TAF EBCI 031120Z 0312/0418 14008KT 9999 SCT020 BKN030 \n  TEMPO 0312/0317 4500 -RADZ SCT008 BKN014 \n  PROB30 \n  TEMPO 0312/0317 BKN006 \n  BECMG 0314/0317 20010KT \n  PROB40 \n  TEMPO 0317/0320 4500 SHRA SCT007 BKN012TCU \n  BECMG 0408/0410 13006KT",
      "minima": {
        "best": {
          "cig_ft": 0,
          "vis_m": 150
        },
        "alt": {
          "cig_ft": 100,
          "vis_m": 300
        },
        "wind": {
          "threshold_kt": 29,
          "use_gust": false,
          "apply": true
        },
        "approach_category": null
      }
    },
    {
      "icao": "LPFR",
      "iata": "FAO",
      "name": "Faro - Gago Coutinho International Airport",
      "lat": 37.015909,
      "lon": -7.970939,
      "updatedAt": "031430Z",
      "visibility_m": 10000,
      "taf_visibility_m": 2000,
      "worst_visibility_m": 2000,
      "ceiling_ft": 400,
      "hazards": [
        "BR",
        "RA",
        "SHRA",
        "DZ"
      ],
      "severityScore": 81,
      "metarRaw": "METAR LPFR 031430Z 26014KT 9999 FEW012 14/10 Q1005",
      "tafRaw": "TAF LPFR 031100Z 0312/0412 26013KT 9999 FEW015 SCT030 \n  TEMPO 0312/0317 26017G27KT 8000 SHRA SCT012 FEW020CB BKN030 \n  BECMG 0317/0320 24020KT 6000 -RA SCT008 BKN015 \n  TEMPO 0320/0412 25025G38KT 2000 DZRA BR SCT002 BKN004 \n  PROB30 \n  TEMPO 0322/0406 25030G45KT",
      "minima": {
        "best": {
          "cig_ft": 100,
          "vis_m": 300
        },
        "alt": {
          "cig_ft": 200,
          "vis_m": 750
        },
        "wind": {
          "threshold_kt": 29,
          "use_gust": false,
          "apply": true
        },
        "approach_category": null
      }
    },
    {
      "icao": "LPPR",
      "iata": "OPO",
      "name": "Francisco de Sá Carneiro Airport",
      "lat": 41.2481002808,
      "lon": -8.68138980865,
      "updatedAt": "031430Z",
      "visibility_m": 10000,
      "taf_visibility_m": 2000,
      "worst_visibility_m": 2000,
      "ceiling_ft": 400,
      "hazards": [
        "BR",
        "RA",
        "SHRA",
        "DZ"
      ],
      "severityScore": 81,
      "metarRaw": "METAR LPPR 031430Z 20007KT 9999 FEW023 SCT032 12/08 Q0999",
      "tafRaw": "TAF LPPR 031100Z 0312/0412 23010KT 9999 FEW020 SCT040 \n  TEMPO 0312/0318 8000 SHRA SCT012 FEW020CB BKN030 \n  BECMG 0318/0320 16013KT 6000 -RA SCT012 BKN025 \n  TEMPO 0320/0402 2000 RADZ BR SCT002 BKN004 \n  TEMPO 0320/0324 16017G27KT \n  BECMG 0400/0402 26012KT \n  TEMPO 0402/0412 26015G25KT",
      "minima": {
        "best": {
          "cig_ft": 100,
          "vis_m": 300
        },
        "alt": {
          "cig_ft": 200,
          "vis_m": 550
        },
        "wind": {
          "threshold_kt": 29,
          "use_gust": false,
          "apply": true
        },
        "approach_category": null
      }
    },
    {
      "icao": "LPPT",
      "iata": "LIS",
      "name": "Lisbon Humberto Delgado Airport",
      "lat": 38.7813,
      "lon": -9.13592,
      "updatedAt": "031430Z",
      "visibility_m": 10000,
      "taf_visibility_m": 2000,
      "worst_visibility_m": 2000,
      "ceiling_ft": 300,
      "hazards": [
        "RA",
        "BR",
        "SHRA",
        "DZ"
      ],
      "severityScore": 81,
      "metarRaw": "METAR LPPT 031430Z 24010KT 9999 -RA FEW025 13/08 Q1002",
      "tafRaw": "TAF LPPT 031100Z 0312/0418 25010KT 9999 SCT020 \n  TEMPO 0312/0317 5000 SHRA SCT012 FEW025CB BKN030 \n  BECMG 0317/0319 25017KT 6000 -RA SCT006 BKN012 \n  TEMPO 0319/0409 25020G32KT 2000 DZRA BR SCT002 BKN003 \n  BECMG 0409/0411 23010KT \n  PROB40 \n  TEMPO 0409/0416 9999 NSW BKN020",
      "minima": {
        "best": {
          "cig_ft": 0,
          "vis_m": 75
        },
        "alt": {
          "cig_ft": 100,
          "vis_m": 300
        },
        "wind": {
          "threshold_kt": 29,
          "use_gust": false,
          "apply": true
        },
        "approach_category": null
      }
    },
    {
      "icao": "UDYZ",
      "iata": "EVN",
      "name": "Zvartnots International Airport",
      "lat": 40.148941,
      "lon": 44.397887,
      "updatedAt": "031430Z",
      "visibility_m": 2600,
      "taf_visibility_m": 600,
      "worst_visibility_m": 600,
      "ceiling_ft": 3000,
      "hazards": [
        "BR",
        "FG",
        "SHRA",
        "RA"
      ],
      "severityScore": 81,
      "metarRaw": "METAR UDYZ 031430Z 33003KT 2600 R08/P2000N BR BKN043CB 05/04 Q1010 NOSIG",
      "tafRaw": "TAF UDYZ 031100Z 0312/0412 06006KT 2000 BR BKN030 \n  TEMPO 0314/0321 0600 SHRA FG SCT005 BKN015CB",
      "minima": {
        "best": {
          "cig_ft": 100,
          "vis_m": 300
        },
        "alt": {
          "cig_ft": 200,
          "vis_m": 550
        },
        "wind": {
          "threshold_kt": 29,
          "use_gust": false,
          "apply": true
        },
        "approach_category": null
      }
    },
    {
      "icao": "EHEH",
      "iata": "EIN",
      "name": "Eindhoven Airport",
      "lat": 51.4500999451,
      "lon": 5.37452983856,
      "updatedAt": null,
      "visibility_m": null,
      "taf_visibility_m": 1200,
      "worst_visibility_m": 1200,
      "ceiling_ft": 800,
      "hazards": [
        "BR",
        "RA",
        "FG"
      ],
      "severityScore": 77,
      "metarRaw": null,
      "tafRaw": "TAF EHEH 031151Z 0312/0418 07012KT 8000 BR BKN045 \n  TEMPO 0312/0313 3000 RA \n  BECMG 0314/0317 SCT012 BKN015 \n  TEMPO 0317/0323 3000 RA BKN008 OVC012 \n  BECMG 0319/0321 19008KT \n  BECMG 0323/0401 4000 BR NSC \n  TEMPO 0401/0403 1200 BCFG SCT008 BKN012 \n  BECMG 0408/0410 6000 BR \n  BECMG 0410/0412 09006KT",
      "minima": {
        "best": {
          "cig_ft": 200,
          "vis_m": 550
        },
        "alt": {
          "cig_ft": 260,
          "vis_m": 600
        },
        "wind": {
          "threshold_kt": 29,
          "use_gust": false,
          "apply": true
        },
        "approach_category": null
      }
    },
    {
      "icao": "LFMN",
      "iata": "NCE",
      "name": "Nice-Côte d'Azur Airport",
      "lat": 43.658401,
      "lon": 7.21587,
      "updatedAt": "031430Z",
      "visibility_m": 10000,
      "taf_visibility_m": 2000,
      "worst_visibility_m": 2000,
      "ceiling_ft": 5600,
      "hazards": [
        "TSRA",
        "SHRA",
        "TS",
        "RA"
      ],
      "severityScore": 76,
      "metarRaw": "METAR LFMN 031430Z 08015KT 9999 BKN023TCU BKN056 13/10 Q1004 NOSIG",
      "tafRaw": "TAF LFMN 031400Z 0315/0421 10012KT 9999 BKN024 \n  TEMPO 0317/0401 2500 SHRA BKN015TCU \n  PROB40 \n  TEMPO 0318/0401 2000 TSRA BKN020CB \n  BECMG 0321/0324 36008KT \n  PROB30 \n  TEMPO 0413/0421 SHRA BKN090TCU",
      "minima": {
        "best": {
          "cig_ft": 200,
          "vis_m": 1200
        },
        "alt": {
          "cig_ft": 290,
          "vis_m": 1400
        },
        "wind": {
          "threshold_kt": 29,
          "use_gust": false,
          "apply": true
        },
        "approach_category": null
      }
    },
    {
      "icao": "LIRF",
      "iata": "FCO",
      "name": "Rome–Fiumicino Leonardo da Vinci International Airport",
      "lat": 41.804532,
      "lon": 12.251998,
      "updatedAt": "031420Z",
      "visibility_m": 10000,
      "taf_visibility_m": 4000,
      "worst_visibility_m": 4000,
      "ceiling_ft": null,
      "hazards": [
        "TSRA",
        "SHRA",
        "TS",
        "RA"
      ],
      "severityScore": 76,
      "metarRaw": "METAR LIRF 031420Z 13014KT 9999 SCT020 14/12 Q1006 NOSIG",
      "tafRaw": "TAF LIRF 031100Z 0312/0418 15015KT 9999 SCT030 \n  TEMPO 0312/0316 15016G26KT \n  TEMPO 0312/0409 4000 SHRA \n  BECMG 0404/0406 14018G30KT \n  TEMPO 0412/0418 TSRA \n  BECMG 0413/0415 23016G26KT",
      "minima": {
        "best": {
          "cig_ft": 0,
          "vis_m": 75
        },
        "alt": {
          "cig_ft": 100,
          "vis_m": 300
        },
        "wind": {
          "threshold_kt": 29,
          "use_gust": false,
          "apply": true
        },
        "approach_category": null
      }
    },
    {
      "icao": "EDNY",
      "iata": "FDH",
      "name": "Bodensee Airport Friedrichshafen",
      "lat": 47.671299,
      "lon": 9.51149,
      "updatedAt": "031420Z",
      "visibility_m": 10000,
      "taf_visibility_m": 800,
      "worst_visibility_m": 800,
      "ceiling_ft": 3200,
      "hazards": [
        "FZFG",
        "FG"
      ],
      "severityScore": 75,
      "metarRaw": "METAR EDNY 031420Z COR 25014KT 9999 OVC032 09/03 Q1002",
      "tafRaw": "TAF EDNY 031400Z 0315/0324 27005KT 9999 SCT040 \n  BECMG 0315/0317 04003KT \n  TEMPO 0320/0324 2000 BCFG \n  PROB30 \n  TEMPO 0322/0324 0800 FZFG",
      "minima": {
        "best": {
          "cig_ft": 0,
          "vis_m": 75
        },
        "alt": {
          "cig_ft": 100,
          "vis_m": 300
        },
        "wind": {
          "threshold_kt": 29,
          "use_gust": false,
          "apply": true
        },
        "approach_category": null
      }
    },
    {
      "icao": "EPLB",
      "iata": "LUZ",
      "name": "Lublin Airport",
      "lat": 51.240157,
      "lon": 22.713461,
      "updatedAt": "031430Z",
      "visibility_m": 10000,
      "taf_visibility_m": 1500,
      "worst_visibility_m": 1500,
      "ceiling_ft": 500,
      "hazards": [
        "SN",
        "BLSN"
      ],
      "severityScore": 75,
      "metarRaw": "METAR EPLB 031430Z 08006KT CAVOK M10/M17 Q1018",
      "tafRaw": "TAF EPLB 031130Z 0312/0412 09010KT CAVOK \n  BECMG 0400/0402 4000 -SN BKN010 \n  TEMPO 0401/0406 09015G25KT 1500 SN BLSN BKN005 \n  BECMG 0406/0409 9999 \n  TEMPO 0406/0412 DRSN BKN005",
      "minima": {
        "best": {
          "cig_ft": 100,
          "vis_m": 300
        },
        "alt": {
          "cig_ft": 250,
          "vis_m": 800
        },
        "wind": {
          "threshold_kt": 29,
          "use_gust": false,
          "apply": true
        },
        "approach_category": null
      }
    },
    {
      "icao": "EPMO",
      "iata": "WMI",
      "name": "Modlin Airport",
      "lat": 52.451099,
      "lon": 20.6518,
      "updatedAt": "031430Z",
      "visibility_m": 10000,
      "taf_visibility_m": 1500,
      "worst_visibility_m": 1500,
      "ceiling_ft": 500,
      "hazards": [
        "SN",
        "BLSN"
      ],
      "severityScore": 75,
      "metarRaw": "METAR EPMO 031430Z 07010KT CAVOK M10/M16 Q1018",
      "tafRaw": "TAF EPMO 031130Z 0312/0412 09009KT CAVOK \n  BECMG 0402/0404 4000 -SN BKN012 \n  TEMPO 0403/0409 09015G25KT 1500 SN BLSN BKN005 \n  BECMG 0406/0409 9999 \n  TEMPO 0409/0412 4000 -SN DRSN BKN005",
      "minima": null
    },
    {
      "icao": "EPWA",
      "iata": "WAW",
      "name": "Warsaw Chopin Airport",
      "lat": 52.165699,
      "lon": 20.9671,
      "updatedAt": "031430Z",
      "visibility_m": 10000,
      "taf_visibility_m": 1500,
      "worst_visibility_m": 1500,
      "ceiling_ft": 500,
      "hazards": [
        "SN",
        "BLSN"
      ],
      "severityScore": 75,
      "metarRaw": "METAR EPWA 031430Z 10009KT CAVOK M07/M18 Q1018 NOSIG",
      "tafRaw": "TAF EPWA 031430Z 0315/0415 09010KT CAVOK \n  BECMG 0401/0403 4000 -SN BKN010 \n  TEMPO 0403/0409 09015G25KT 1500 SN BLSN BKN005 \n  BECMG 0406/0409 9999 \n  TEMPO 0409/0415 4000 -SN DRSN BKN005",
      "minima": {
        "best": {
          "cig_ft": 0,
          "vis_m": 175
        },
        "alt": {
          "cig_ft": 101,
          "vis_m": 300
        },
        "wind": {
          "threshold_kt": 29,
          "use_gust": false,
          "apply": true
        },
        "approach_category": null
      }
    },
    {
      "icao": "LKMT",
      "iata": "OSR",
      "name": "Leoš Janáček Airport Ostrava",
      "lat": 49.696301,
      "lon": 18.111099,
      "updatedAt": "031430Z",
      "visibility_m": 8000,
      "taf_visibility_m": 4500,
      "worst_visibility_m": 4500,
      "ceiling_ft": 4500,
      "hazards": [
        "BR",
        "FZRA",
        "SN",
        "RA"
      ],
      "severityScore": 75,
      "metarRaw": "METAR LKMT 031430Z 03006KT 8000 SCT039 OVC045 M05/M09 Q1010 NOSIG",
      "tafRaw": "TAF LKMT 031100Z 0312/0412 02006KT 9000 OVC030 \n  TEMPO 0315/0323 4500 -SN BR BKN018 \n  PROB30 \n  TEMPO 0318/0323 6000 -FZRA \n  BECMG 0323/0401 22008KT \n  BECMG 0409/0411 02004KT OVC018",
      "minima": null
    },
    {
      "icao": "LZKZ",
      "iata": "KSC",
      "name": "Košice International Airport",
      "lat": 48.663101,
      "lon": 21.2411,
      "updatedAt": "031430Z",
      "visibility_m": 10000,
      "taf_visibility_m": 1000,
      "worst_visibility_m": 1000,
      "ceiling_ft": 3200,
      "hazards": [
        "SN",
        "FZRA",
        "RA"
      ],
      "severityScore": 75,
      "metarRaw": "METAR LZKZ 031430Z VRB02KT 9999 -SN OVC032 M00/M03 Q1014 NOSIG",
      "tafRaw": "TAF LZKZ 031115Z 0312/0412 VRB02KT 9999 BKN017 OVC025 \n  TEMPO 0314/0400 2500 -SN BKN007 OVC012 \n  PROB40 \n  TEMPO 0316/0323 1000 SN OVC004 \n  TEMPO 0400/0412 4000 -RASN BKN008 OVC014 \n  PROB40 \n  TEMPO 0400/0407 -FZRA",
      "minima": {
        "best": {
          "cig_ft": 102,
          "vis_m": 350
        },
        "alt": {
          "cig_ft": 200,
          "vis_m": 550
        },
        "wind": {
          "threshold_kt": 29,
          "use_gust": false,
          "apply": true
        },
        "approach_category": null
      }
    },
    {
      "icao": "LIME",
      "iata": "BGY",
      "name": "Milan Bergamo Airport / Antonio Locatelli Air Base",
      "lat": 45.670725,
      "lon": 9.709223,
      "updatedAt": "031420Z",
      "visibility_m": 10000,
      "taf_visibility_m": 700,
      "worst_visibility_m": 700,
      "ceiling_ft": 2000,
      "hazards": [
        "FG",
        "BR",
        "RA"
      ],
      "severityScore": 67,
      "metarRaw": "METAR LIME 031420Z 23007KT 200V260 9999 SCT007 BKN020 05/04 Q1007 NOSIG",
      "tafRaw": "TAF LIME 031100Z 0312/0412 VRB05KT 6000 SCT008 BKN020 \n  BECMG 0316/0318 3000 BR \n  TEMPO 0400/0409 0700 FG OVC005 \n  BECMG 0407/0409 RA",
      "minima": {
        "best": {
          "cig_ft": 0,
          "vis_m": 75
        },
        "alt": {
          "cig_ft": 111,
          "vis_m": 300
        },
        "wind": {
          "threshold_kt": 29,
          "use_gust": false,
          "apply": true
        },
        "approach_category": null
      }
    },
    {
      "icao": "EGPD",
      "iata": "ABZ",
      "name": "Aberdeen International Airport",
      "lat": 57.2019,
      "lon": -2.19778,
      "updatedAt": "031420Z",
      "visibility_m": 8000,
      "taf_visibility_m": 2000,
      "worst_visibility_m": 2000,
      "ceiling_ft": 800,
      "hazards": [
        "RA",
        "SN",
        "DZ"
      ],
      "severityScore": 65,
      "metarRaw": "METAR EGPD 031420Z 10014KT 8000 SCT010 BKN018 03/01 Q1003 RERA TEMPO BKN008",
      "tafRaw": "TAF EGPD 031056Z 0312/0412 09012KT 9999 SCT012 BKN020 \n  TEMPO 0312/0412 10015G25KT \n  TEMPO 0312/0318 4000 -RASN BKN008 \n  PROB30 \n  TEMPO 0312/0318 2000 RASN BKN004 \n  TEMPO 0318/0412 6000 -RADZ BKN010 \n  PROB40 \n  TEMPO 0318/0412 3000 RADZ BKN006",
      "minima": {
        "best": {
          "cig_ft": 200,
          "vis_m": 550
        },
        "alt": {
          "cig_ft": 500,
          "vis_m": 1500
        },
        "wind": {
          "threshold_kt": 29,
          "use_gust": false,
          "apply": true
        },
        "approach_category": null
      }
    },
    {
      "icao": "EETN",
      "iata": "TLL",
      "name": "Lennart Meri Tallinn Airport",
      "lat": 59.413246,
      "lon": 24.83264,
      "updatedAt": "031450Z",
      "visibility_m": 10000,
      "taf_visibility_m": 2000,
      "worst_visibility_m": 2000,
      "ceiling_ft": 400,
      "hazards": [
        "BR",
        "SN"
      ],
      "severityScore": 63,
      "metarRaw": "METAR EETN 031450Z 01004KT 9999 FEW020 M08/M13 Q1028 NOSIG",
      "tafRaw": "TAF EETN 031130Z 0312/0412 03010KT 9999 SCT015 \n  PROB40 \n  TEMPO 0312/0320 BKN008 \n  PROB40 \n  TEMPO 0320/0407 2000 SN BR BKN004 \n  BECMG 0406/0408 09006KT \n  TEMPO 0407/0412 3000 SN BR BKN006",
      "minima": {
        "best": {
          "cig_ft": 111,
          "vis_m": 300
        },
        "alt": {
          "cig_ft": 200,
          "vis_m": 550
        },
        "wind": {
          "threshold_kt": 29,
          "use_gust": false,
          "apply": true
        },
        "approach_category": null
      }
    },
    {
      "icao": "EPGD",
      "iata": "GDN",
      "name": "Gdańsk Lech Wałęsa Airport",
      "lat": 54.377602,
      "lon": 18.4662,
      "updatedAt": "031430Z",
      "visibility_m": 10000,
      "taf_visibility_m": 2500,
      "worst_visibility_m": 2500,
      "ceiling_ft": 300,
      "hazards": [
        "BR",
        "SN"
      ],
      "severityScore": 63,
      "metarRaw": "METAR EPGD 031430Z 09009KT CAVOK M09/M15 Q1019",
      "tafRaw": "TAF EPGD 031130Z 0312/0412 11012KT CAVOK \n  BECMG 0407/0410 -SN OVC010 \n  TEMPO 0410/0412 2500 -SN DRSN BR BKN003 BKN006",
      "minima": {
        "best": {
          "cig_ft": 0,
          "vis_m": 75
        },
        "alt": {
          "cig_ft": 100,
          "vis_m": 300
        },
        "wind": {
          "threshold_kt": 29,
          "use_gust": false,
          "apply": true
        },
        "approach_category": null
      }
    },
    {
      "icao": "EPPO",
      "iata": "POZ",
      "name": "Poznań-Ławica Airport",
      "lat": 52.421598,
      "lon": 16.823359,
      "updatedAt": "031430Z",
      "visibility_m": 10000,
      "taf_visibility_m": 1500,
      "worst_visibility_m": 1500,
      "ceiling_ft": 400,
      "hazards": [
        "SN"
      ],
      "severityScore": 63,
      "metarRaw": "METAR EPPO 031430Z 08013KT CAVOK M05/M18 Q1014",
      "tafRaw": "TAF EPPO 031130Z 0312/0412 09014KT CAVOK \n  TEMPO 0312/0318 10015G25KT \n  BECMG 0323/0401 4000 -SN BKN009 \n  TEMPO 0401/0410 1500 SN BKN004",
      "minima": {
        "best": {
          "cig_ft": 126,
          "vis_m": 400
        },
        "alt": {
          "cig_ft": 220,
          "vis_m": 800
        },
        "wind": {
          "threshold_kt": 29,
          "use_gust": false,
          "apply": true
        },
        "approach_category": null
      }
    },
    {
      "icao": "LICJ",
      "iata": "PMO",
      "name": "Falcone–Borsellino Airport",
      "lat": 38.175999,
      "lon": 13.091,
      "updatedAt": "031420Z",
      "visibility_m": 9000,
      "taf_visibility_m": 10000,
      "worst_visibility_m": 9000,
      "ceiling_ft": null,
      "hazards": [
        "TSRA",
        "TS",
        "RA"
      ],
      "severityScore": 62,
      "metarRaw": "METAR LICJ 031420Z 20014KT 9000 NSC 20/07 Q1008",
      "tafRaw": "TAF LICJ 031100Z 0312/0412 18015KT 9999 SCT030 \n  TEMPO 0404/0412 TSRA \n  BECMG 0406/0408 24018KT",
      "minima": {
        "best": {
          "cig_ft": 350,
          "vis_m": 1200
        },
        "alt": {
          "cig_ft": 430,
          "vis_m": 1600
        },
        "wind": {
          "threshold_kt": 29,
          "use_gust": false,
          "apply": true
        },
        "approach_category": null
      }
    },
    {
      "icao": "LFOB",
      "iata": "BVA",
      "name": "Beauvais Tillé airport",
      "lat": 49.454399,
      "lon": 2.11278,
      "updatedAt": "031430Z",
      "visibility_m": 4000,
      "taf_visibility_m": 2000,
      "worst_visibility_m": 2000,
      "ceiling_ft": 900,
      "hazards": [
        "SHRA",
        "RA",
        "BR"
      ],
      "severityScore": 61,
      "metarRaw": "METAR LFOB 031430Z AUTO 21011KT 9999 BKN014 BKN035 OVC052 09/08 Q0993 TEMPO 4000 SHRA BKN009 BKN014TCU",
      "tafRaw": "TAF LFOB 031100Z 0312/0412 23011KT 9999 OVC013 \n  TEMPO 0312/0314 4000 RA BKN008 \n  BECMG 0312/0314 BKN016 \n  PROB40 \n  TEMPO 0314/0320 4000 SHRA BKN009 BKN014TCU \n  PROB40 \n  TEMPO 0401/0406 2000 BR OVC002 \n  BECMG 0402/0406 12006KT",
      "minima": {
        "best": {
          "cig_ft": 0,
          "vis_m": 75
        },
        "alt": {
          "cig_ft": 200,
          "vis_m": 550
        },
        "wind": {
          "threshold_kt": 29,
          "use_gust": false,
          "apply": true
        },
        "approach_category": null
      }
    },
    {
      "icao": "UGKO",
      "iata": "KUT",
      "name": "David the Builder Kutaisi International Airport",
      "lat": 42.177448,
      "lon": 42.485353,
      "updatedAt": "031430Z",
      "visibility_m": 3100,
      "taf_visibility_m": 3000,
      "worst_visibility_m": 3000,
      "ceiling_ft": 600,
      "hazards": [
        "BR",
        "RA",
        "SHRA"
      ],
      "severityScore": 61,
      "metarRaw": "METAR UGKO 031430Z 28010KT 3100 -RA BR SCT004 BKN006 06/05 Q1018 NOSIG",
      "tafRaw": "TAF UGKO 031100Z 0312/0412 25010KT 9000 SCT030 OVC050 TX08/0312Z TN04/0403Z \n  TEMPO 0312/0318 27021G37KT 4000 SHRA SCT015 BKN023CB \n  TEMPO 0318/0402 3000 SHRA SCT012 BKN026CB \n  TEMPO 0402/0408 RA BKN015",
      "minima": {
        "best": {
          "cig_ft": 200,
          "vis_m": 550
        },
        "alt": {
          "cig_ft": 340,
          "vis_m": 800
        },
        "wind": {
          "threshold_kt": 29,
          "use_gust": false,
          "apply": true
        },
        "approach_category": null
      }
    },
    {
      "icao": "LIPE",
      "iata": "BLQ",
      "name": "Bologna Guglielmo Marconi Airport",
      "lat": 44.5354,
      "lon": 11.2887,
      "updatedAt": "031420Z",
      "visibility_m": 2000,
      "taf_visibility_m": 3000,
      "worst_visibility_m": 2000,
      "ceiling_ft": 300,
      "hazards": [
        "BR",
        "RA"
      ],
      "severityScore": 57,
      "metarRaw": "METAR LIPE 031420Z 28007KT 2000 BR BKN003 BKN005 07/07 Q1007",
      "tafRaw": "TAF LIPE 031100Z 0312/0412 27010KT 6000 BKN015 \n  TEMPO 0312/0314 VRB05KT 3000 RA BR",
      "minima": {
        "best": {
          "cig_ft": 0,
          "vis_m": 75
        },
        "alt": {
          "cig_ft": 100,
          "vis_m": 300
        },
        "wind": {
          "threshold_kt": 29,
          "use_gust": false,
          "apply": true
        },
        "approach_category": null
      }
    },
    {
      "icao": "LIPY",
      "iata": "AOI",
      "name": "Marche Airport",
      "lat": 43.616299,
      "lon": 13.3623,
      "updatedAt": "031420Z",
      "visibility_m": 10000,
      "taf_visibility_m": 800,
      "worst_visibility_m": 800,
      "ceiling_ft": null,
      "hazards": [
        "FG",
        "RA"
      ],
      "severityScore": 57,
      "metarRaw": "METAR LIPY 031420Z AUTO VRB01KT 9999 OVC054/// 13/08 Q1006",
      "tafRaw": "TAF LIPY 031100Z 0312/0412 15010KT 9999 SCT050 \n  BECMG 0312/0314 RA \n  TEMPO 0400/0410 0800 FG",
      "minima": {
        "best": {
          "cig_ft": 250,
          "vis_m": 1000
        },
        "alt": {
          "cig_ft": 370,
          "vis_m": 1500
        },
        "wind": {
          "threshold_kt": 29,
          "use_gust": false,
          "apply": true
        },
        "approach_category": null
      }
    },
    {
      "icao": "LJLJ",
      "iata": "LJU",
      "name": "Ljubljana Jože Pučnik Airport",
      "lat": 46.223701,
      "lon": 14.4576,
      "updatedAt": "031430Z",
      "visibility_m": 7000,
      "taf_visibility_m": 2500,
      "worst_visibility_m": 2500,
      "ceiling_ft": 300,
      "hazards": [
        "RA",
        "BR"
      ],
      "severityScore": 57,
      "metarRaw": "METAR LJLJ 031430Z 29003KT 260V330 7000 -RA BKN003 OVC023 03/02 Q1007 NOSIG",
      "tafRaw": "TAF LJLJ 031100Z 0312/0412 11002KT 5000 -RA BR BKN004 OVC020 \n  TEMPO 0312/0318 2500 RA BKN007 OVC020 \n  BECMG 0320/0322 BR \n  PROB30 \n  TEMPO 0322/0402 2500 -RA BR BKN007 OVC020 \n  BECMG 0402/0404 -RA BR \n  TEMPO 0404/0412 2500 RA BR BKN010 OVC020",
      "minima": {
        "best": {
          "cig_ft": 0,
          "vis_m": 125
        },
        "alt": {
          "cig_ft": 100,
          "vis_m": 300
        },
        "wind": {
          "threshold_kt": 29,
          "use_gust": false,
          "apply": true
        },
        "approach_category": null
      }
    },
    {
      "icao": "EPSC",
      "iata": "SZZ",
      "name": "Solidarity Szczecin–Goleniów Airport",
      "lat": 53.584702,
      "lon": 14.9022,
      "updatedAt": "031430Z",
      "visibility_m": 10000,
      "taf_visibility_m": 4000,
      "worst_visibility_m": 4000,
      "ceiling_ft": 800,
      "hazards": [
        "BR",
        "SN"
      ],
      "severityScore": 53,
      "metarRaw": "METAR EPSC 031430Z 08012KT CAVOK M05/M15 Q1015",
      "tafRaw": "TAF EPSC 031130Z 0312/0412 09012KT CAVOK \n  TEMPO 0312/0320 10015G27KT \n  TEMPO 0400/0412 -SN BKN010 \n  PROB40 \n  TEMPO 0401/0406 4000 -SN DRSN BR BKN008",
      "minima": {
        "best": {
          "cig_ft": 210,
          "vis_m": 550
        },
        "alt": {
          "cig_ft": 280,
          "vis_m": 600
        },
        "wind": {
          "threshold_kt": 29,
          "use_gust": false,
          "apply": true
        },
        "approach_category": null
      }
    },
    {
      "icao": "LUKK",
      "iata": "RMO",
      "name": "Chişinău International Airport",
      "lat": 46.9277,
      "lon": 28.931,
      "updatedAt": "031430Z",
      "visibility_m": 10000,
      "taf_visibility_m": 1500,
      "worst_visibility_m": 1500,
      "ceiling_ft": 500,
      "hazards": [
        "SN"
      ],
      "severityScore": 53,
      "metarRaw": "METAR LUKK 031430Z 15007KT CAVOK M04/M12 Q1022 NOSIG",
      "tafRaw": "TAF LUKK 031118Z 0312/0412 VRB06KT CAVOK \n  BECMG 0407/0409 12012KT OVC012 \n  TEMPO 0410/0412 1500 SN BKN005",
      "minima": {
        "best": {
          "cig_ft": 0,
          "vis_m": 75
        },
        "alt": {
          "cig_ft": 100,
          "vis_m": 300
        },
        "wind": {
          "threshold_kt": 29,
          "use_gust": false,
          "apply": true
        },
        "approach_category": null
      }
    },
    {
      "icao": "UBBB",
      "iata": "GYD",
      "name": "Heydar Aliyev International Airport",
      "lat": 40.467498779296875,
      "lon": 50.04669952392578,
      "updatedAt": "031430Z",
      "visibility_m": 10000,
      "taf_visibility_m": 6000,
      "worst_visibility_m": 6000,
      "ceiling_ft": 500,
      "hazards": [
        "SHRA",
        "RA"
      ],
      "severityScore": 51,
      "metarRaw": "METAR UBBB 031430Z 33016KT CAVOK 07/05 Q1009 NOSIG",
      "tafRaw": "TAF UBBB 031054Z 0312/0412 32020G30KT 9999 BKN010 BKN030 TX07/0312Z TN03/0403Z \n  TEMPO 0314/0320 33026G36KT 6000 BKN006 \n  BECMG 0320/0322 34034G44KT SCT030CB \n  TEMPO 0400/0412 34040G50KT -SHRA BKN005 SCT017CB OVC017",
      "minima": {
        "best": {
          "cig_ft": 0,
          "vis_m": 175
        },
        "alt": {
          "cig_ft": 100,
          "vis_m": 300
        },
        "wind": {
          "threshold_kt": 29,
          "use_gust": false,
          "apply": true
        },
        "approach_category": null
      }
    },
    {
      "icao": "EDLW",
      "iata": "DTM",
      "name": "Dortmund Airport",
      "lat": 51.518299,
      "lon": 7.61224,
      "updatedAt": "031420Z",
      "visibility_m": 4300,
      "taf_visibility_m": 4000,
      "worst_visibility_m": 4000,
      "ceiling_ft": 3800,
      "hazards": [
        "BR",
        "RA",
        "SN",
        "DZ"
      ],
      "severityScore": 50,
      "metarRaw": "METAR EDLW 031420Z 04011KT 4300 -RA BR FEW018 BKN038 OVC043 01/00 Q0998",
      "tafRaw": "TAF EDLW 031100Z 0312/0412 07011KT 9999 SCT020 BKN040 \n  TEMPO 0313/0318 RA \n  PROB30 \n  TEMPO 0313/0316 4000 RASN \n  BECMG 0317/0320 11006KT \n  PROB40 \n  TEMPO 0318/0324 4000 -RADZ BKN010",
      "minima": {
        "best": {
          "cig_ft": 100,
          "vis_m": 300
        },
        "alt": {
          "cig_ft": 200,
          "vis_m": 550
        },
        "wind": {
          "threshold_kt": 29,
          "use_gust": false,
          "apply": true
        },
        "approach_category": null
      }
    },
    {
      "icao": "UDSG",
      "iata": "LWN",
      "name": "Shirak International Airport",
      "lat": 40.750401,
      "lon": 43.859299,
      "updatedAt": "031430Z",
      "visibility_m": 3600,
      "taf_visibility_m": 1000,
      "worst_visibility_m": 1000,
      "ceiling_ft": 3300,
      "hazards": [
        "BR",
        "SN",
        "RA"
      ],
      "severityScore": 50,
      "metarRaw": "METAR UDSG 031430Z 31001KT 3600 BR BKN033 02/02 Q1011 NOSIG",
      "tafRaw": "TAF UDSG 031058Z 0312/0412 VRB06KT 5000 BR OVC030 \n  TEMPO 0312/0320 1000 SNRA BR OVC010",
      "minima": {
        "best": {
          "cig_ft": 200,
          "vis_m": 550
        },
        "alt": {
          "cig_ft": 410,
          "vis_m": 1200
        },
        "wind": {
          "threshold_kt": 29,
          "use_gust": false,
          "apply": true
        },
        "approach_category": null
      }
    },
    {
      "icao": "LFLS",
      "iata": "GNB",
      "name": "Grenoble Alpes Isère Airport",
      "lat": 45.3629,
      "lon": 5.32937,
      "updatedAt": "031430Z",
      "visibility_m": 4000,
      "taf_visibility_m": 4000,
      "worst_visibility_m": 4000,
      "ceiling_ft": 1400,
      "hazards": [
        "SHRA",
        "RA",
        "BR"
      ],
      "severityScore": 48,
      "metarRaw": "METAR LFLS 031430Z AUTO 24007KT CAVOK 11/06 Q1000 TEMPO 4000 -SHRA SCT045CB",
      "tafRaw": "TAF LFLS 031400Z 0315/0415 24008KT CAVOK \n  TEMPO 0316/0320 4000 -SHRA SCT045CB \n  PROB40 \n  TEMPO 0320/0324 4000 BR BKN014",
      "minima": {
        "best": {
          "cig_ft": 210,
          "vis_m": 750
        },
        "alt": {
          "cig_ft": 290,
          "vis_m": 900
        },
        "wind": {
          "threshold_kt": 29,
          "use_gust": false,
          "apply": true
        },
        "approach_category": null
      }
    },
    {
      "icao": "EDDN",
      "iata": "NUE",
      "name": "Nuremberg Airport",
      "lat": 49.498699,
      "lon": 11.078056,
      "updatedAt": "031420Z",
      "visibility_m": 10000,
      "taf_visibility_m": 10000,
      "worst_visibility_m": 10000,
      "ceiling_ft": null,
      "hazards": [
        "FZRA",
        "RA"
      ],
      "severityScore": 47,
      "metarRaw": "METAR EDDN 031420Z AUTO 07008KT 040V100 CAVOK 03/M02 Q1001 NOSIG",
      "tafRaw": "TAF EDDN 031100Z 0312/0412 10010KT 9999 FEW020 \n  BECMG 0316/0318 12005KT \n  PROB30 \n  TEMPO 0318/0321 -FZRA",
      "minima": {
        "best": {
          "cig_ft": 0,
          "vis_m": 75
        },
        "alt": {
          "cig_ft": 100,
          "vis_m": 300
        },
        "wind": {
          "threshold_kt": 29,
          "use_gust": false,
          "apply": true
        },
        "approach_category": null
      }
    },
    {
      "icao": "EYVI",
      "iata": "VNO",
      "name": "Vilnius International Airport",
      "lat": 54.634102,
      "lon": 25.285801,
      "updatedAt": "031450Z",
      "visibility_m": 10000,
      "taf_visibility_m": 3000,
      "worst_visibility_m": 3000,
      "ceiling_ft": 200,
      "hazards": [
        "BR"
      ],
      "severityScore": 45,
      "metarRaw": "METAR EYVI 031450Z 07001KT CAVOK M12/M15 Q1022 NOSIG",
      "tafRaw": "TAF EYVI 031100Z 0312/0412 VRB04KT 9000 NSC \n  BECMG 0318/0321 5000 BR SCT005 \n  TEMPO 0321/0408 3000 BKN002 \n  BECMG 0408/0410 10010KT 9000 NSW NSC",
      "minima": {
        "best": {
          "cig_ft": 152,
          "vis_m": 450
        },
        "alt": {
          "cig_ft": 250,
          "vis_m": 550
        },
        "wind": {
          "threshold_kt": 29,
          "use_gust": false,
          "apply": true
        },
        "approach_category": null
      }
    },
    {
      "icao": "LBWN",
      "iata": "VAR",
      "name": "Varna Airport",
      "lat": 43.232101,
      "lon": 27.8251,
      "updatedAt": "031430Z",
      "visibility_m": 10000,
      "taf_visibility_m": 1500,
      "worst_visibility_m": 1500,
      "ceiling_ft": 500,
      "hazards": [
        "BR"
      ],
      "severityScore": 45,
      "metarRaw": "METAR LBWN 031430Z 12009KT CAVOK 00/M04 Q1021 NOSIG",
      "tafRaw": "TAF LBWN 031100Z 0312/0412 10010KT 9999 SCT020 BKN040 \n  BECMG 0316/0318 VRB03KT \n  BECMG 0318/0320 BKN010 OVC020 \n  TEMPO 0323/0407 4000 BR \n  PROB30 0403/0406 1500 BR BKN005 \n  BECMG 0407/0409 12010KT SCT020 OVC040",
      "minima": {
        "best": {
          "cig_ft": 200,
          "vis_m": 750
        },
        "alt": {
          "cig_ft": 260,
          "vis_m": 800
        },
        "wind": {
          "threshold_kt": 29,
          "use_gust": false,
          "apply": true
        },
        "approach_category": null
      }
    },
    {
      "icao": "OMDB",
      "iata": "DXB",
      "name": "Dubai International Airport",
      "lat": 25.2527999878,
      "lon": 55.3643989563,
      "updatedAt": "031430Z",
      "visibility_m": 10000,
      "taf_visibility_m": 3000,
      "worst_visibility_m": 3000,
      "ceiling_ft": 300,
      "hazards": [
        "BR"
      ],
      "severityScore": 45,
      "metarRaw": "METAR OMDB 031430Z 33007KT CAVOK 24/15 Q1015 NOSIG",
      "tafRaw": "TAF OMDB 031100Z 0312/0418 31010KT 8000 NSC \n  BECMG 0315/0317 10005KT \n  PROB30 0323/0406 3000 BR BKN003 \n  BECMG 0404/0406 16010KT \n  BECMG 0410/0412 30010KT \n  BECMG 0415/0417 VRB02KT",
      "minima": {
        "best": {
          "cig_ft": 0,
          "vis_m": 75
        },
        "alt": {
          "cig_ft": 100,
          "vis_m": 300
        },
        "wind": {
          "threshold_kt": 29,
          "use_gust": false,
          "apply": true
        },
        "approach_category": null
      }
    },
    {
      "icao": "EGGP",
      "iata": "LPL",
      "name": "Liverpool John Lennon Airport",
      "lat": 53.334863,
      "lon": -2.849637,
      "updatedAt": "031420Z",
      "visibility_m": 10000,
      "taf_visibility_m": 4000,
      "worst_visibility_m": 4000,
      "ceiling_ft": 1500,
      "hazards": [
        "BR",
        "RA",
        "DZ"
      ],
      "severityScore": 44,
      "metarRaw": "METAR EGGP 031420Z 09014KT 9999 OVC015 02/M01 Q0994",
      "tafRaw": "TAF EGGP 031058Z 0312/0412 09014KT 9999 BKN018 \n  PROB40 \n  TEMPO 0312/0316 7000 -RA BKN012 \n  TEMPO 0316/0405 6000 RA -RADZ BKN009 \n  PROB40 \n  TEMPO 0321/0405 4000 RADZ BKN005 \n  TEMPO 0405/0412 7000 BKN010 \n  PROB40 \n  TEMPO 0405/0410 4000 -DZ BR BKN005",
      "minima": {
        "best": {
          "cig_ft": 0,
          "vis_m": 75
        },
        "alt": {
          "cig_ft": 100,
          "vis_m": 300
        },
        "wind": {
          "threshold_kt": 29,
          "use_gust": false,
          "apply": true
        },
        "approach_category": null
      }
    },
    {
      "icao": "LRSM",
      "iata": "SUJ",
      "name": "Satu Mare International Airport",
      "lat": 47.7033,
      "lon": 22.8857,
      "updatedAt": "031430Z",
      "visibility_m": 10000,
      "taf_visibility_m": 5000,
      "worst_visibility_m": 5000,
      "ceiling_ft": 1000,
      "hazards": [
        "BR",
        "RA",
        "DZ"
      ],
      "severityScore": 44,
      "metarRaw": "METAR LRSM 031430Z 14008KT CAVOK 05/M01 Q1015",
      "tafRaw": "TAF LRSM 031400Z 0315/0324 VRB04KT 9999 BKN040 \n  TEMPO 0316/0321 5000 -RADZ BR BKN010 OVC025",
      "minima": {
        "best": {
          "cig_ft": 121,
          "vis_m": 400
        },
        "alt": {
          "cig_ft": 200,
          "vis_m": 550
        },
        "wind": {
          "threshold_kt": 29,
          "use_gust": false,
          "apply": true
        },
        "approach_category": null
      }
    },
    {
      "icao": "LRTR",
      "iata": "TSR",
      "name": "Timişoara Traian Vuia Airport",
      "lat": 45.809898,
      "lon": 21.3379,
      "updatedAt": "031430Z",
      "visibility_m": 10000,
      "taf_visibility_m": 3000,
      "worst_visibility_m": 3000,
      "ceiling_ft": 1000,
      "hazards": [
        "BR",
        "RA",
        "DZ"
      ],
      "severityScore": 44,
      "metarRaw": "METAR LRTR 031430Z 10011KT CAVOK 04/01 Q1014 NOSIG",
      "tafRaw": "TAF LRTR 031100Z 0312/0412 10010KT CAVOK \n  BECMG 0400/0402 5000 -RADZ BR BKN015 BKN035 \n  TEMPO 0403/0408 3000 -RA BR BKN010 OVC025 \n  BECMG 0409/0411 9999 NSW BKN040",
      "minima": {
        "best": {
          "cig_ft": 0,
          "vis_m": 175
        },
        "alt": {
          "cig_ft": 128,
          "vis_m": 400
        },
        "wind": {
          "threshold_kt": 29,
          "use_gust": false,
          "apply": true
        },
        "approach_category": null
      }
    },
    {
      "icao": "ENTC",
      "iata": "TOS",
      "name": "Tromsø Airport, Langnes",
      "lat": 69.683296,
      "lon": 18.9189,
      "updatedAt": "031420Z",
      "visibility_m": 10000,
      "taf_visibility_m": 4000,
      "worst_visibility_m": 4000,
      "ceiling_ft": 1200,
      "hazards": [
        "SN",
        "RA"
      ],
      "severityScore": 42,
      "metarRaw": "METAR ENTC 031420Z 18008KT 9999 FEW033 SCT042 M01/M05 Q1023 NOSIG RMK WIND 2600FT 24010KT",
      "tafRaw": "TAF ENTC 031100Z 0312/0412 19009KT 9999 FEW025 BKN045 \n  PROB40 \n  TEMPO 0322/0412 4000 -SHSNRA VV012",
      "minima": {
        "best": {
          "cig_ft": 300,
          "vis_m": 650
        },
        "alt": {
          "cig_ft": 310,
          "vis_m": 700
        },
        "wind": {
          "threshold_kt": 29,
          "use_gust": false,
          "apply": true
        },
        "approach_category": null
      }
    },
    {
      "icao": "EPRA",
      "iata": "RDO",
      "name": "Warsaw Radom Airport",
      "lat": 51.38937,
      "lon": 21.214742,
      "updatedAt": "031430Z",
      "visibility_m": 10000,
      "taf_visibility_m": 3000,
      "worst_visibility_m": 3000,
      "ceiling_ft": 1600,
      "hazards": [
        "RA",
        "SN"
      ],
      "severityScore": 42,
      "metarRaw": "METAR EPRA 031430Z 07010KT 9999 BKN016 M08/M17 Q1016",
      "tafRaw": "TAF EPRA 031430Z 0315/0324 08008KT 9999 BKN015 \n  BECMG 0316/0318 CAVOK \n  BECMG 0321/0323 6000 -SN BKN014 \n  PROB40 \n  TEMPO 0322/0324 3000 SN OVC007",
      "minima": {
        "best": {
          "cig_ft": 210,
          "vis_m": 550
        },
        "alt": {
          "cig_ft": 250,
          "vis_m": 550
        },
        "wind": {
          "threshold_kt": 29,
          "use_gust": false,
          "apply": true
        },
        "approach_category": null
      }
    },
    {
      "icao": "LRCL",
      "iata": "CLJ",
      "name": "Cluj Avram Iancu International Airport",
      "lat": 46.787425,
      "lon": 23.684292,
      "updatedAt": "031430Z",
      "visibility_m": 10000,
      "taf_visibility_m": 5000,
      "worst_visibility_m": 5000,
      "ceiling_ft": 1500,
      "hazards": [
        "SN",
        "RA"
      ],
      "severityScore": 42,
      "metarRaw": "METAR LRCL 031430Z 13008KT CAVOK 03/M02 Q1015",
      "tafRaw": "TAF LRCL 031400Z 0315/0324 13008KT CAVOK \n  TEMPO 0320/0324 5000 -SN -RASN BKN015 OVC040",
      "minima": {
        "best": {
          "cig_ft": 114,
          "vis_m": 300
        },
        "alt": {
          "cig_ft": 200,
          "vis_m": 550
        },
        "wind": {
          "threshold_kt": 29,
          "use_gust": false,
          "apply": true
        },
        "approach_category": null
      }
    },
    {
      "icao": "EGGW",
      "iata": "LTN",
      "name": "London Luton Airport",
      "lat": 51.874699,
      "lon": -0.368333,
      "updatedAt": "031420Z",
      "visibility_m": 3400,
      "taf_visibility_m": null,
      "worst_visibility_m": 3400,
      "ceiling_ft": 600,
      "hazards": [
        "DZ"
      ],
      "severityScore": 40,
      "metarRaw": "METAR EGGW 031420Z 06009KT 3400 -DZ OVC006 02/02 Q0992",
      "tafRaw": null,
      "minima": {
        "best": {
          "cig_ft": 0,
          "vis_m": 75
        },
        "alt": {
          "cig_ft": 100,
          "vis_m": 300
        },
        "wind": {
          "threshold_kt": 29,
          "use_gust": false,
          "apply": true
        },
        "approach_category": null
      }
    },
    {
      "icao": "LHDC",
      "iata": "DEB",
      "name": "Debrecen International Airport",
      "lat": 47.488899,
      "lon": 21.615299,
      "updatedAt": "031415Z",
      "visibility_m": 10000,
      "taf_visibility_m": 1400,
      "worst_visibility_m": 1400,
      "ceiling_ft": 3000,
      "hazards": [
        "RA",
        "SN"
      ],
      "severityScore": 40,
      "metarRaw": "METAR LHDC 031415Z AUTO 08006KT 9999 -RA OVC030 02/M00 Q1015 NOSIG",
      "tafRaw": "TAF LHDC 031415Z 0315/0324 08006KT 7000 -SN OVC030 \n  TEMPO 0315/0317 1400 SN SNRA BKN008 OVC025 \n  BECMG 0315/0318 -RA \n  TEMPO 0315/0324 3500 RA RASN BKN012 OVC025",
      "minima": {
        "best": {
          "cig_ft": 210,
          "vis_m": 550
        },
        "alt": {
          "cig_ft": 260,
          "vis_m": 1300
        },
        "wind": {
          "threshold_kt": 29,
          "use_gust": false,
          "apply": true
        },
        "approach_category": null
      }
    },
    {
      "icao": "LIMC",
      "iata": "MXP",
      "name": "Milan Malpensa International Airport",
      "lat": 45.6306,
      "lon": 8.72811,
      "updatedAt": "031420Z",
      "visibility_m": 3000,
      "taf_visibility_m": null,
      "worst_visibility_m": 3000,
      "ceiling_ft": 500,
      "hazards": [
        "BR"
      ],
      "severityScore": 40,
      "metarRaw": "METAR LIMC 031420Z 02003KT 3000 BR BKN005 04/04 Q1007 NOSIG",
      "tafRaw": null,
      "minima": {
        "best": {
          "cig_ft": 0,
          "vis_m": 75
        },
        "alt": {
          "cig_ft": 100,
          "vis_m": 300
        },
        "wind": {
          "threshold_kt": 29,
          "use_gust": false,
          "apply": true
        },
        "approach_category": null
      }
    },
    {
      "icao": "LTAC",
      "iata": "ESB",
      "name": "Esenboğa International Airport",
      "lat": 40.128101,
      "lon": 32.995098,
      "updatedAt": "031420Z",
      "visibility_m": 10000,
      "taf_visibility_m": 1000,
      "worst_visibility_m": 1000,
      "ceiling_ft": 4000,
      "hazards": [
        "BR",
        "FG"
      ],
      "severityScore": 40,
      "metarRaw": "METAR LTAC 031420Z 32006KT 290V350 9999 BKN040 05/M01 Q1017 NOSIG",
      "tafRaw": "TAF LTAC 031040Z 0312/0412 VRB02KT 9999 SCT040 \n  TEMPO 0312/0315 30012KT \n  BECMG 0318/0320 CAVOK \n  BECMG 0400/0403 4000 BR \n  PROB30 \n  TEMPO 0403/0407 1000 BCFG BKN002 \n  BECMG 0407/0409 9999 NSW SCT040 SCT100",
      "minima": {
        "best": {
          "cig_ft": 0,
          "vis_m": 75
        },
        "alt": {
          "cig_ft": 100,
          "vis_m": 300
        },
        "wind": {
          "threshold_kt": 29,
          "use_gust": false,
          "apply": true
        },
        "approach_category": null
      }
    },
    {
      "icao": "LZTT",
      "iata": "TAT",
      "name": "Poprad-Tatry Airport",
      "lat": 49.073601,
      "lon": 20.2411,
      "updatedAt": "031430Z",
      "visibility_m": 10000,
      "taf_visibility_m": 1000,
      "worst_visibility_m": 1000,
      "ceiling_ft": 2600,
      "hazards": [
        "SN",
        "RA"
      ],
      "severityScore": 40,
      "metarRaw": "METAR LZTT 031430Z 14006KT 9999 FEW010 BKN026 M03/M05 Q1010 NOSIG",
      "tafRaw": "TAF LZTT 031115Z 0312/0412 17005KT 9999 SCT010 OVC020 \n  TEMPO 0312/0402 2500 -SN BKN009 OVC014 \n  PROB40 \n  TEMPO 0315/0400 1000 SN OVC004 \n  TEMPO 0410/0412 2800 SNRA OVC010",
      "minima": {
        "best": {
          "cig_ft": 200,
          "vis_m": 650
        },
        "alt": {
          "cig_ft": 330,
          "vis_m": 800
        },
        "wind": {
          "threshold_kt": 29,
          "use_gust": false,
          "apply": true
        },
        "approach_category": null
      }
    },
    {
      "icao": "LGTS",
      "iata": "SKG",
      "name": "Thessaloniki Macedonia International Airport",
      "lat": 40.51928,
      "lon": 22.970009,
      "updatedAt": "031420Z",
      "visibility_m": 10000,
      "taf_visibility_m": 5000,
      "worst_visibility_m": 5000,
      "ceiling_ft": 3000,
      "hazards": [
        "TS",
        "RA"
      ],
      "severityScore": 37,
      "metarRaw": "METAR LGTS 031420Z 27004KT 9999 SCT030 12/08 Q1020 NOSIG",
      "tafRaw": "TAF LGTS 031100Z 0312/0412 VRB03KT 9999 SCT030 \n  BECMG 0320/0322 BKN030 \n  PROB30 \n  TEMPO 0410/0412 5000 RA",
      "minima": {
        "best": {
          "cig_ft": 100,
          "vis_m": 300
        },
        "alt": {
          "cig_ft": 200,
          "vis_m": 550
        },
        "wind": {
          "threshold_kt": 29,
          "use_gust": false,
          "apply": true
        },
        "approach_category": null
      }
    },
    {
      "icao": "LEMD",
      "iata": "MAD",
      "name": "Adolfo Suárez Madrid–Barajas Airport",
      "lat": 40.471926,
      "lon": -3.56264,
      "updatedAt": "031430Z",
      "visibility_m": 10000,
      "taf_visibility_m": 3000,
      "worst_visibility_m": 3000,
      "ceiling_ft": 3500,
      "hazards": [
        "RA",
        "SHRA",
        "DZ"
      ],
      "severityScore": 36,
      "metarRaw": "METAR LEMD 031430Z 22009KT 190V260 9999 -RA SCT028 BKN035 08/03 Q1000 NOSIG",
      "tafRaw": "TAF LEMD 031100Z 0312/0418 22010KT 9999 SCT020 TX08/0314Z TN04/0407Z \n  TEMPO 0312/0318 23015G25KT DZRA \n  PROB30 \n  TEMPO 0312/0318 SHRA FEW030TCU \n  TEMPO 0318/0406 DZRA BKN010 \n  TEMPO 0400/0406 3000 RA BKN010",
      "minima": {
        "best": {
          "cig_ft": 0,
          "vis_m": 75
        },
        "alt": {
          "cig_ft": 110,
          "vis_m": 300
        },
        "wind": {
          "threshold_kt": 29,
          "use_gust": false,
          "apply": true
        },
        "approach_category": null
      }
    },
    {
      "icao": "EHBK",
      "iata": "MST",
      "name": "Maastricht Aachen Airport",
      "lat": 50.911701,
      "lon": 5.77014,
      "updatedAt": "031425Z",
      "visibility_m": 10000,
      "taf_visibility_m": 6000,
      "worst_visibility_m": 6000,
      "ceiling_ft": 1200,
      "hazards": [
        "RA",
        "DZ"
      ],
      "severityScore": 34,
      "metarRaw": "METAR EHBK 031425Z AUTO 09009KT 9999 FEW023/// OVC028/// 05/03 Q0994 NOSIG",
      "tafRaw": "TAF EHBK 031122Z 0312/0418 08010KT 9999 BKN045 \n  BECMG 0314/0317 18008KT \n  TEMPO 0317/0321 6000 RADZ BKN012",
      "minima": {
        "best": {
          "cig_ft": 0,
          "vis_m": 75
        },
        "alt": {
          "cig_ft": 100,
          "vis_m": 300
        },
        "wind": {
          "threshold_kt": 29,
          "use_gust": false,
          "apply": true
        },
        "approach_category": null
      }
    },
    {
      "icao": "LIPH",
      "iata": "TSF",
      "name": "Treviso Antonio Canova Airport",
      "lat": 45.648399,
      "lon": 12.1944,
      "updatedAt": "031420Z",
      "visibility_m": 10000,
      "taf_visibility_m": 2000,
      "worst_visibility_m": 2000,
      "ceiling_ft": 1400,
      "hazards": [
        "BR",
        "RA"
      ],
      "severityScore": 34,
      "metarRaw": "METAR LIPH 031420Z 03004KT 350V080 9999 SCT020 10/08 Q1006",
      "tafRaw": "TAF LIPH 031100Z 0312/0412 VRB06KT 6000 SCT004 BKN014 \n  TEMPO 0312/0314 2000 RA BR \n  BECMG 0406/0408 04012KT RA",
      "minima": {
        "best": {
          "cig_ft": 135,
          "vis_m": 400
        },
        "alt": {
          "cig_ft": 230,
          "vis_m": 550
        },
        "wind": {
          "threshold_kt": 29,
          "use_gust": false,
          "apply": true
        },
        "approach_category": null
      }
    },
    {
      "icao": "EKBI",
      "iata": "BLL",
      "name": "Billund Airport",
      "lat": 55.740335,
      "lon": 9.157019,
      "updatedAt": "031420Z",
      "visibility_m": 10000,
      "taf_visibility_m": 4000,
      "worst_visibility_m": 4000,
      "ceiling_ft": 1200,
      "hazards": [
        "SN"
      ],
      "severityScore": 30,
      "metarRaw": "METAR EKBI 031420Z AUTO 09021G33KT 9999 NCD M01/M11 Q1012",
      "tafRaw": "TAF EKBI 031427Z 0315/0415 10022G38KT 9999 FEW030 \n  TEMPO 0315/0411 10020KT \n  TEMPO 0411/0415 10020KT 4000 SN BKN012",
      "minima": {
        "best": {
          "cig_ft": 0,
          "vis_m": 75
        },
        "alt": {
          "cig_ft": 100,
          "vis_m": 300
        },
        "wind": {
          "threshold_kt": 29,
          "use_gust": false,
          "apply": true
        },
        "approach_category": null
      }
    },
    {
      "icao": "EDDB",
      "iata": "BER",
      "name": "Berlin Brandenburg Willy Brandt Airport",
      "lat": 52.361738,
      "lon": 13.502341,
      "updatedAt": "031420Z",
      "visibility_m": 10000,
      "taf_visibility_m": 2000,
      "worst_visibility_m": 2000,
      "ceiling_ft": 3900,
      "hazards": [
        "BR",
        "SN"
      ],
      "severityScore": 28,
      "metarRaw": "METAR EDDB 031420Z AUTO 09013KT 9999 BKN039 M04/M12 Q1010 TEMPO 09015G25KT",
      "tafRaw": "TAF EDDB 031100Z 0312/0412 08012KT 9999 BKN035 \n  TEMPO 0312/0316 08015G25KT \n  BECMG 0400/0403 BKN007 \n  TEMPO 0401/0407 2000 -SN \n  PROB40 \n  TEMPO 0407/0412 4000 -SG BR \n  PROB30 \n  TEMPO 0410/0412 BKN010",
      "minima": {
        "best": {
          "cig_ft": 0,
          "vis_m": 75
        },
        "alt": {
          "cig_ft": 100,
          "vis_m": 300
        },
        "wind": {
          "threshold_kt": 29,
          "use_gust": false,
          "apply": true
        },
        "approach_category": null
      }
    },
    {
      "icao": "ENTO",
      "iata": "TRF",
      "name": "Sandefjord Airport, Torp",
      "lat": 59.186699,
      "lon": 10.2586,
      "updatedAt": "031420Z",
      "visibility_m": 10000,
      "taf_visibility_m": 10000,
      "worst_visibility_m": 10000,
      "ceiling_ft": 4200,
      "hazards": [
        "SHSN",
        "SN"
      ],
      "severityScore": 28,
      "metarRaw": "METAR ENTO 031420Z 05008KT 020V080 9999 -SHSN BKN042 M04/M07 Q1024 NOSIG",
      "tafRaw": "TAF ENTO 031100Z 0312/0412 08005KT 9999 BKN040 \n  BECMG 0319/0321 02012KT",
      "minima": {
        "best": {
          "cig_ft": 100,
          "vis_m": 300
        },
        "alt": {
          "cig_ft": 200,
          "vis_m": 550
        },
        "wind": {
          "threshold_kt": 29,
          "use_gust": false,
          "apply": true
        },
        "approach_category": null
      }
    },
    {
      "icao": "LEXJ",
      "iata": "SDR",
      "name": "Seve Ballesteros-Santander Airport",
      "lat": 43.427101,
      "lon": -3.82001,
      "updatedAt": "031430Z",
      "visibility_m": 10000,
      "taf_visibility_m": 3000,
      "worst_visibility_m": 3000,
      "ceiling_ft": null,
      "hazards": [
        "RA",
        "SHRA"
      ],
      "severityScore": 26,
      "metarRaw": "METAR LEXJ 031430Z 20009G21KT 160V260 CAVOK 14/03 Q0994",
      "tafRaw": "TAF LEXJ 031400Z 0315/0415 21009KT 9999 FEW060 TX16/0415Z TN08/0407Z \n  TEMPO 0315/0415 22018G30KT \n  PROB30 \n  TEMPO 0315/0318 28010KT 3000 SHRA SCT030TCU \n  PROB30 \n  TEMPO 0402/0407 22025G43KT \n  PROB30 \n  TEMPO 0404/0409 RA \n  PROB30 \n  TEMPO 0412/0415 30010KT 3000 RA",
      "minima": {
        "best": {
          "cig_ft": 330,
          "vis_m": 1500
        },
        "alt": {
          "cig_ft": 360,
          "vis_m": 1500
        },
        "wind": {
          "threshold_kt": 29,
          "use_gust": false,
          "apply": true
        },
        "approach_category": null
      }
    },
    {
      "icao": "LFBD",
      "iata": "BOD",
      "name": "Bordeaux–Mérignac Airport",
      "lat": 44.82865,
      "lon": -0.715356,
      "updatedAt": "031430Z",
      "visibility_m": 10000,
      "taf_visibility_m": 3000,
      "worst_visibility_m": 3000,
      "ceiling_ft": null,
      "hazards": [
        "SHRA",
        "RA"
      ],
      "severityScore": 26,
      "metarRaw": "METAR LFBD 031430Z AUTO 24012KT CAVOK 14/04 Q0997 BECMG 14005KT",
      "tafRaw": "TAF LFBD 031100Z 0312/0418 17010KT CAVOK TX14/0314Z TN05/0406Z \n  BECMG 0316/0318 14005KT \n  PROB30 \n  TEMPO 0320/0324 4000 SHRA BKN040TCU \n  TEMPO 0407/0418 17015G25KT 3000 SHRA BKN030TCU",
      "minima": {
        "best": {
          "cig_ft": 0,
          "vis_m": 75
        },
        "alt": {
          "cig_ft": 100,
          "vis_m": 300
        },
        "wind": {
          "threshold_kt": 29,
          "use_gust": false,
          "apply": true
        },
        "approach_category": null
      }
    },
    {
      "icao": "LFLL",
      "iata": "LYS",
      "name": "Lyon Saint-Exupéry Airport",
      "lat": 45.725996,
      "lon": 5.090139,
      "updatedAt": "031430Z",
      "visibility_m": 10000,
      "taf_visibility_m": 4000,
      "worst_visibility_m": 4000,
      "ceiling_ft": null,
      "hazards": [
        "SHRA",
        "RA"
      ],
      "severityScore": 26,
      "metarRaw": "METAR LFLL 031430Z 20013KT 9999 FEW028 13/04 Q1000 NOSIG",
      "tafRaw": "TAF LFLL 031100Z 0312/0418 18015G25KT CAVOK \n  BECMG 0314/0316 18012KT \n  BECMG 0316/0318 15006KT \n  PROB30 \n  TEMPO 0317/0320 4000 SHRA BKN040TCU \n  BECMG 0416/0418 18012KT",
      "minima": {
        "best": {
          "cig_ft": 0,
          "vis_m": 75
        },
        "alt": {
          "cig_ft": 100,
          "vis_m": 300
        },
        "wind": {
          "threshold_kt": 29,
          "use_gust": false,
          "apply": true
        },
        "approach_category": null
      }
    },
    {
      "icao": "LFPO",
      "iata": "ORY",
      "name": "Paris-Orly Airport",
      "lat": 48.72333,
      "lon": 2.37944,
      "updatedAt": "031430Z",
      "visibility_m": 4000,
      "taf_visibility_m": 3500,
      "worst_visibility_m": 3500,
      "ceiling_ft": 2200,
      "hazards": [
        "SHRA",
        "RA"
      ],
      "severityScore": 26,
      "metarRaw": "METAR LFPO 031430Z 20009KT 9999 BKN022 10/07 Q0995 TEMPO 4000 -SHRA BKN020TCU",
      "tafRaw": "TAF LFPO 031100Z 0312/0418 21010G20KT 9999 SCT011 BKN018 \n  PROB40 \n  TEMPO 0312/0313 3500 -RA BKN012 \n  PROB40 \n  TEMPO 0315/0320 4000 -SHRA BKN025TCU \n  BECMG 0321/0323 CAVOK \n  BECMG 0402/0404 13005KT",
      "minima": {
        "best": {
          "cig_ft": 0,
          "vis_m": 75
        },
        "alt": {
          "cig_ft": 100,
          "vis_m": 300
        },
        "wind": {
          "threshold_kt": 29,
          "use_gust": false,
          "apply": true
        },
        "approach_category": null
      }
    },
    {
      "icao": "LFSB",
      "iata": "BSL",
      "name": "EuroAirport Basel–Mulhouse–Freiburg",
      "lat": 47.60068,
      "lon": 7.521117,
      "updatedAt": "031430Z",
      "visibility_m": 10000,
      "taf_visibility_m": 10000,
      "worst_visibility_m": 10000,
      "ceiling_ft": 6200,
      "hazards": [
        "SHRA",
        "RA"
      ],
      "severityScore": 26,
      "metarRaw": "METAR LFSB 031430Z AUTO 11005KT 9999 SCT046 BKN062 BKN074 10/06 Q1001 NOSIG",
      "tafRaw": "TAF LFSB 031100Z 0312/0412 17006KT CAVOK \n  PROB40 \n  TEMPO 0312/0314 23012G22KT -SHRA FEW030TCU BKN035",
      "minima": {
        "best": {
          "cig_ft": 0,
          "vis_m": 75
        },
        "alt": {
          "cig_ft": 100,
          "vis_m": 300
        },
        "wind": {
          "threshold_kt": 29,
          "use_gust": false,
          "apply": true
        },
        "approach_category": null
      }
    },
    {
      "icao": "LICA",
      "iata": "SUF",
      "name": "Lamezia Terme Sant'Eufemia International Airport",
      "lat": 38.906214,
      "lon": 16.246007,
      "updatedAt": "031420Z",
      "visibility_m": 10000,
      "taf_visibility_m": 10000,
      "worst_visibility_m": 10000,
      "ceiling_ft": null,
      "hazards": [
        "SHRA",
        "RA"
      ],
      "severityScore": 26,
      "metarRaw": "METAR LICA 031420Z AUTO 08013KT 9999 NCD 18/11 Q1010",
      "tafRaw": "TAF LICA 031100Z 0312/0412 07015KT 9999 SCT025 \n  BECMG 0318/0320 07020G30KT \n  TEMPO 0409/0412 SHRA",
      "minima": {
        "best": {
          "cig_ft": 210,
          "vis_m": 550
        },
        "alt": {
          "cig_ft": 340,
          "vis_m": 800
        },
        "wind": {
          "threshold_kt": 29,
          "use_gust": false,
          "apply": true
        },
        "approach_category": null
      }
    },
    {
      "icao": "LICC",
      "iata": "CTA",
      "name": "Catania-Fontanarossa Airport",
      "lat": 37.466801,
      "lon": 15.0664,
      "updatedAt": "031420Z",
      "visibility_m": 10000,
      "taf_visibility_m": 10000,
      "worst_visibility_m": 10000,
      "ceiling_ft": null,
      "hazards": [
        "SHRA",
        "RA"
      ],
      "severityScore": 26,
      "metarRaw": "METAR LICC 031420Z 26006KT CAVOK 19/16 Q1012",
      "tafRaw": "TAF LICC 031100Z 0312/0412 VRB05KT 9999 FEW030 \n  BECMG 0402/0404 05012KT \n  BECMG 0409/0411 24015G25KT \n  TEMPO 0409/0412 SHRA",
      "minima": {
        "best": {
          "cig_ft": 250,
          "vis_m": 1000
        },
        "alt": {
          "cig_ft": 450,
          "vis_m": 1900
        },
        "wind": {
          "threshold_kt": 29,
          "use_gust": false,
          "apply": true
        },
        "approach_category": null
      }
    },
    {
      "icao": "LIRN",
      "iata": "NAP",
      "name": "Naples International Airport",
      "lat": 40.886002,
      "lon": 14.2908,
      "updatedAt": "031420Z",
      "visibility_m": 10000,
      "taf_visibility_m": 10000,
      "worst_visibility_m": 10000,
      "ceiling_ft": null,
      "hazards": [
        "SHRA",
        "RA"
      ],
      "severityScore": 26,
      "metarRaw": "METAR LIRN 031420Z 18008KT 130V210 CAVOK 16/08 Q1009 NOSIG",
      "tafRaw": "TAF LIRN 031100Z 0312/0412 17015KT 9999 SCT030 \n  TEMPO 0406/0412 SHRA",
      "minima": {
        "best": {
          "cig_ft": 320,
          "vis_m": 1000
        },
        "alt": {
          "cig_ft": 470,
          "vis_m": 1800
        },
        "wind": {
          "threshold_kt": 29,
          "use_gust": false,
          "apply": true
        },
        "approach_category": null
      }
    },
    {
      "icao": "LIRP",
      "iata": "PSA",
      "name": "Pisa International Airport",
      "lat": 43.683899,
      "lon": 10.3927,
      "updatedAt": "031415Z",
      "visibility_m": 10000,
      "taf_visibility_m": 3000,
      "worst_visibility_m": 3000,
      "ceiling_ft": 2000,
      "hazards": [
        "RA",
        "SHRA"
      ],
      "severityScore": 26,
      "metarRaw": "METAR LIRP 031415Z 11006KT 9999 FEW040 SCT060 14/13 Q1006 NOSIG",
      "tafRaw": "TAF LIRP 031100Z 0312/0412 06005KT 9999 SCT020 SCT050 \n  TEMPO 0312/0314 RA \n  BECMG 0322/0400 06010KT 5000 RA BKN020 \n  TEMPO 0404/0408 3000 SHRA",
      "minima": {
        "best": {
          "cig_ft": 140,
          "vis_m": 400
        },
        "alt": {
          "cig_ft": 230,
          "vis_m": 550
        },
        "wind": {
          "threshold_kt": 29,
          "use_gust": false,
          "apply": true
        },
        "approach_category": null
      }
    },
    {
      "icao": "LIRZ",
      "iata": "PEG",
      "name": "Perugia San Francesco d'Assisi – Umbria International Airport",
      "lat": 43.095901,
      "lon": 12.5132,
      "updatedAt": "031420Z",
      "visibility_m": 10000,
      "taf_visibility_m": 4000,
      "worst_visibility_m": 4000,
      "ceiling_ft": 3500,
      "hazards": [
        "SHRA",
        "RA"
      ],
      "severityScore": 26,
      "metarRaw": "METAR LIRZ 031420Z AUTO 19004KT 9999 BKN022/// BKN065/// 12/09 Q1006",
      "tafRaw": "TAF LIRZ 031100Z 0312/0412 18010KT 9999 BKN035 \n  TEMPO 0312/0406 4000 SHRA \n  BECMG 0315/0317 VRB05KT",
      "minima": {
        "best": {
          "cig_ft": 290,
          "vis_m": 900
        },
        "alt": {
          "cig_ft": 390,
          "vis_m": 1400
        },
        "wind": {
          "threshold_kt": 29,
          "use_gust": false,
          "apply": true
        },
        "approach_category": null
      }
    },
    {
      "icao": "LMML",
      "iata": "MLA",
      "name": "Malta International Airport",
      "lat": 35.857498,
      "lon": 14.4775,
      "updatedAt": "031445Z",
      "visibility_m": 10000,
      "taf_visibility_m": 8000,
      "worst_visibility_m": 8000,
      "ceiling_ft": null,
      "hazards": [
        "SHRA",
        "RA"
      ],
      "severityScore": 26,
      "metarRaw": "METAR LMML 031445Z 15008KT 110V180 CAVOK 18/13 Q1012 NOSIG",
      "tafRaw": "TAF LMML 031100Z 0312/0412 18012KT CAVOK \n  BECMG 0403/0406 14020KT 9999 FEW020 \n  TEMPO 0406/0415 8000 SHRA BKN015TCU \n  BECMG0406/0409 21020G30KT",
      "minima": {
        "best": {
          "cig_ft": 200,
          "vis_m": 550
        },
        "alt": {
          "cig_ft": 300,
          "vis_m": 650
        },
        "wind": {
          "threshold_kt": 29,
          "use_gust": false,
          "apply": true
        },
        "approach_category": null
      }
    },
    {
      "icao": "GCTS",
      "iata": "TFS",
      "name": "Tenerife Sur Airport",
      "lat": 28.0445,
      "lon": -16.5725,
      "updatedAt": "031430Z",
      "visibility_m": 10000,
      "taf_visibility_m": 10000,
      "worst_visibility_m": 10000,
      "ceiling_ft": 3000,
      "hazards": [
        "TS"
      ],
      "severityScore": 25,
      "metarRaw": "METAR GCTS 031430Z 21006KT 180V250 9999 BKN030 19/13 Q1018 NOSIG",
      "tafRaw": "TAF GCTS 031400Z 0315/0415 07006KT 9999 FEW035 TX24/0414Z TN16/0406Z \n  BECMG 0412/0414 26014KT",
      "minima": {
        "best": {
          "cig_ft": 230,
          "vis_m": 550
        },
        "alt": {
          "cig_ft": 280,
          "vis_m": 600
        },
        "wind": {
          "threshold_kt": 29,
          "use_gust": false,
          "apply": true
        },
        "approach_category": null
      }
    },
    {
      "icao": "LEAL",
      "iata": "ALC",
      "name": "Alicante-Elche Miguel Hernández Airport",
      "lat": 38.2822,
      "lon": -0.558156,
      "updatedAt": "031430Z",
      "visibility_m": 10000,
      "taf_visibility_m": 4000,
      "worst_visibility_m": 4000,
      "ceiling_ft": 1400,
      "hazards": [
        "RA"
      ],
      "severityScore": 24,
      "metarRaw": "METAR LEAL 031430Z 19008KT 150V230 9999 FEW030 16/06 Q1002 NOSIG",
      "tafRaw": "TAF LEAL 031100Z 0312/0412 26008KT 9999 FEW030 TX17/0313Z TN07/0407Z \n  TEMPO 0312/0316 FEW020TCU \n  TEMPO 0401/0407 4000 RA BKN014",
      "minima": {
        "best": {
          "cig_ft": 270,
          "vis_m": 600
        },
        "alt": {
          "cig_ft": 360,
          "vis_m": 900
        },
        "wind": {
          "threshold_kt": 29,
          "use_gust": false,
          "apply": true
        },
        "approach_category": null
      }
    },
    {
      "icao": "LEMG",
      "iata": "AGP",
      "name": "Málaga-Costa del Sol Airport",
      "lat": 36.6749,
      "lon": -4.49911,
      "updatedAt": "031430Z",
      "visibility_m": 10000,
      "taf_visibility_m": 3000,
      "worst_visibility_m": 3000,
      "ceiling_ft": 1000,
      "hazards": [
        "RA"
      ],
      "severityScore": 24,
      "metarRaw": "METAR LEMG 031430Z 17001KT 9999 FEW025 SCT065 13/08 Q1006 NOSIG",
      "tafRaw": "TAF LEMG 031100Z 0312/0412 29005KT 9999 FEW025 SCT040 TX17/0314Z TN10/0407Z \n  PROB30 \n  TEMPO 0318/0322 4000 RA \n  TEMPO 0321/0412 10010KT 3000 +RA BKN010",
      "minima": {
        "best": {
          "cig_ft": 220,
          "vis_m": 550
        },
        "alt": {
          "cig_ft": 480,
          "vis_m": 1500
        },
        "wind": {
          "threshold_kt": 29,
          "use_gust": false,
          "apply": true
        },
        "approach_category": null
      }
    },
    {
      "icao": "LEZL",
      "iata": "SVQ",
      "name": "Sevilla Airport",
      "lat": 37.417999,
      "lon": -5.89311,
      "updatedAt": "031430Z",
      "visibility_m": 10000,
      "taf_visibility_m": 3000,
      "worst_visibility_m": 3000,
      "ceiling_ft": 1000,
      "hazards": [
        "RA"
      ],
      "severityScore": 24,
      "metarRaw": "METAR LEZL 031430Z 25012KT 230V290 9999 FEW040 14/07 Q1005 NOSIG",
      "tafRaw": "TAF LEZL 031400Z 0315/0415 26010KT 9999 SCT020 TX15/0315Z TN12/0407Z \n  BECMG 0315/0318 20005KT \n  PROB30 \n  TEMPO 0315/0321 4000 RA \n  BECMG 0320/0322 24015KT \n  TEMPO 0320/0415 24016G28KT 3000 +RA BKN010",
      "minima": {
        "best": {
          "cig_ft": 210,
          "vis_m": 550
        },
        "alt": {
          "cig_ft": 400,
          "vis_m": 1100
        },
        "wind": {
          "threshold_kt": 29,
          "use_gust": false,
          "apply": true
        },
        "approach_category": null
      }
    },
    {
      "icao": "LIMF",
      "iata": "TRN",
      "name": "Turin Airport",
      "lat": 45.200802,
      "lon": 7.64963,
      "updatedAt": "031420Z",
      "visibility_m": 10000,
      "taf_visibility_m": 4000,
      "worst_visibility_m": 4000,
      "ceiling_ft": 1000,
      "hazards": [
        "RA"
      ],
      "severityScore": 24,
      "metarRaw": "METAR LIMF 031420Z 11003KT 9999 BKN010 BKN025 05/02 Q1006",
      "tafRaw": "TAF LIMF 031100Z 0312/0412 VRB05KT 6000 SCT030 \n  BECMG 0408/0410 4000 RA",
      "minima": {
        "best": {
          "cig_ft": 0,
          "vis_m": 75
        },
        "alt": {
          "cig_ft": 100,
          "vis_m": 300
        },
        "wind": {
          "threshold_kt": 29,
          "use_gust": false,
          "apply": true
        },
        "approach_category": null
      }
    },
    {
      "icao": "EDDK",
      "iata": "CGN",
      "name": "Cologne Bonn Airport",
      "lat": 50.865898,
      "lon": 7.14274,
      "updatedAt": "031420Z",
      "visibility_m": 9000,
      "taf_visibility_m": 4500,
      "worst_visibility_m": 4500,
      "ceiling_ft": 2400,
      "hazards": [
        "RA",
        "DZ"
      ],
      "severityScore": 22,
      "metarRaw": "METAR EDDK 031420Z AUTO 12008KT 070V150 9000 -RA BKN024 BKN042 02/01 Q0998 NOSIG",
      "tafRaw": "TAF EDDK 031100Z 0312/0418 12008KT 9999 SCT020 BKN030 \n  TEMPO 0312/0315 RA \n  PROB30 \n  TEMPO 0316/0322 4500 -RADZ BKN012",
      "minima": {
        "best": {
          "cig_ft": 0,
          "vis_m": 75
        },
        "alt": {
          "cig_ft": 100,
          "vis_m": 300
        },
        "wind": {
          "threshold_kt": 29,
          "use_gust": false,
          "apply": true
        },
        "approach_category": null
      }
    },
    {
      "icao": "EGPF",
      "iata": "GLA",
      "name": "Glasgow Airport",
      "lat": 55.871899,
      "lon": -4.43306,
      "updatedAt": "031420Z",
      "visibility_m": 10000,
      "taf_visibility_m": 6000,
      "worst_visibility_m": 6000,
      "ceiling_ft": 2300,
      "hazards": [
        "RA",
        "DZ"
      ],
      "severityScore": 22,
      "metarRaw": "METAR EGPF 031420Z AUTO 08017KT 9999 BKN023 OVC038 05/00 Q0999",
      "tafRaw": "TAF EGPF 031103Z 0312/0412 08012KT 9999 SCT020 \n  PROB30 \n  TEMPO 0312/0403 8000 -RADZ \n  PROB30 \n  TEMPO 0312/0324 09018G28KT \n  PROB30 \n  TEMPO 0321/0403 BKN014 \n  TEMPO 0403/0412 6000 -RADZ RA BKN014 \n  PROB30 \n  TEMPO 0403/0412 BKN008",
      "minima": {
        "best": {
          "cig_ft": 0,
          "vis_m": 75
        },
        "alt": {
          "cig_ft": 100,
          "vis_m": 300
        },
        "wind": {
          "threshold_kt": 29,
          "use_gust": false,
          "apply": true
        },
        "approach_category": null
      }
    },
    {
      "icao": "LEZG",
      "iata": "ZAZ",
      "name": "Zaragoza Airport",
      "lat": 41.666199,
      "lon": -1.04155,
      "updatedAt": "031430Z",
      "visibility_m": 10000,
      "taf_visibility_m": 2000,
      "worst_visibility_m": 2000,
      "ceiling_ft": 2000,
      "hazards": [
        "RA",
        "BR"
      ],
      "severityScore": 22,
      "metarRaw": "METAR LEZG 031430Z 12003KT 100V160 9999 FEW050 11/04 Q1000 TEMPO RA FEW020TCU",
      "tafRaw": "TAF LEZG 031100Z 0312/0412 23009KT 9999 FEW020 TX12/0314Z TN05/0406Z \n  TEMPO 0314/0318 RA FEW020TCU \n  TEMPO 0402/0408 2000 RA BR BKN020",
      "minima": {
        "best": {
          "cig_ft": 0,
          "vis_m": 75
        },
        "alt": {
          "cig_ft": 100,
          "vis_m": 400
        },
        "wind": {
          "threshold_kt": 29,
          "use_gust": false,
          "apply": true
        },
        "approach_category": null
      }
    },
    {
      "icao": "LIPX",
      "iata": "VRN",
      "name": "Verona Villafranca Valerio Catullo Airport",
      "lat": 45.394955,
      "lon": 10.887303,
      "updatedAt": "031420Z",
      "visibility_m": 10000,
      "taf_visibility_m": 2000,
      "worst_visibility_m": 2000,
      "ceiling_ft": 7000,
      "hazards": [
        "BR",
        "RA"
      ],
      "severityScore": 22,
      "metarRaw": "METAR LIPX 031420Z 31005KT 280V350 9999 BKN070 09/07 Q1006",
      "tafRaw": "TAF LIPX 031100Z 0312/0412 VRB05KT 8000 BKN020 \n  BECMG 0318/0320 4000 BR \n  TEMPO 0400/0408 2000 \n  BECMG 0404/0406 RA",
      "minima": {
        "best": {
          "cig_ft": 0,
          "vis_m": 75
        },
        "alt": {
          "cig_ft": 133,
          "vis_m": 400
        },
        "wind": {
          "threshold_kt": 29,
          "use_gust": false,
          "apply": true
        },
        "approach_category": null
      }
    },
    {
      "icao": "LQBK",
      "iata": "BNX",
      "name": "Banja Luka International Airport",
      "lat": 44.941399,
      "lon": 17.297501,
      "updatedAt": "031430Z",
      "visibility_m": 10000,
      "taf_visibility_m": 4000,
      "worst_visibility_m": 4000,
      "ceiling_ft": null,
      "hazards": [
        "BR",
        "RA"
      ],
      "severityScore": 22,
      "metarRaw": "METAR LQBK 031430Z 32003KT 280V360 CAVOK 07/04 Q1008 NOSIG",
      "tafRaw": "TAF LQBK 031100Z 0312/0412 06005KT CAVOK TX08/0314Z TN04/0406Z \n  PROB40 \n  TEMPO 0322/0410 4000 -RA BR",
      "minima": {
        "best": {
          "cig_ft": 200,
          "vis_m": 550
        },
        "alt": {
          "cig_ft": 350,
          "vis_m": 900
        },
        "wind": {
          "threshold_kt": 29,
          "use_gust": false,
          "apply": true
        },
        "approach_category": null
      }
    },
    {
      "icao": "LYPG",
      "iata": "TGD",
      "name": "Podgorica Airport / Podgorica Golubovci Airbase",
      "lat": 42.359402,
      "lon": 19.2519,
      "updatedAt": "031430Z",
      "visibility_m": 3000,
      "taf_visibility_m": 4000,
      "worst_visibility_m": 3000,
      "ceiling_ft": 4000,
      "hazards": [
        "BR",
        "RA"
      ],
      "severityScore": 22,
      "metarRaw": "METAR LYPG 031430Z 26002KT 3000 -RA BR FEW010 BKN040 OVC070 08/07 Q1016 NOSIG",
      "tafRaw": "TAF LYPG 031100Z 0312/0412 14008KT 9999 FEW030 BKN040 OVC080 TX12/0316Z TN08/0406Z \n  TEMPO 0312/0319 4000 RA",
      "minima": {
        "best": {
          "cig_ft": 200,
          "vis_m": 550
        },
        "alt": {
          "cig_ft": 260,
          "vis_m": 600
        },
        "wind": {
          "threshold_kt": 29,
          "use_gust": false,
          "apply": true
        },
        "approach_category": null
      }
    },
    {
      "icao": "EDDH",
      "iata": "HAM",
      "name": "Hamburg Helmut Schmidt Airport",
      "lat": 53.630402,
      "lon": 9.98823,
      "updatedAt": "031420Z",
      "visibility_m": 10000,
      "taf_visibility_m": 4000,
      "worst_visibility_m": 4000,
      "ceiling_ft": 4100,
      "hazards": [
        "SN"
      ],
      "severityScore": 18,
      "metarRaw": "METAR EDDH 031420Z AUTO 10015KT 070V130 9999 FEW028 OVC041 M04/M11 Q1008 TEMPO 10015G25KT",
      "tafRaw": "TAF EDDH 031100Z 0312/0418 09013KT 9999 BKN020 \n  TEMPO 0312/0404 10015G25KT \n  TEMPO 0404/0410 4000 -SN BKN012 \n  PROB40 \n  TEMPO 0404/0410 BKN007 \n  TEMPO 0410/0418 OVC012",
      "minima": {
        "best": {
          "cig_ft": 0,
          "vis_m": 75
        },
        "alt": {
          "cig_ft": 147,
          "vis_m": 450
        },
        "wind": {
          "threshold_kt": 29,
          "use_gust": false,
          "apply": true
        },
        "approach_category": null
      }
    },
    {
      "icao": "EFTU",
      "iata": "TKU",
      "name": "Turku Airport",
      "lat": 60.514099,
      "lon": 22.2628,
      "updatedAt": "031450Z",
      "visibility_m": 10000,
      "taf_visibility_m": 6000,
      "worst_visibility_m": 6000,
      "ceiling_ft": 3400,
      "hazards": [
        "SN"
      ],
      "severityScore": 18,
      "metarRaw": "METAR EFTU 031450Z AUTO 28003KT 9999 BKN034 M12/M14 Q1029",
      "tafRaw": "TAF EFTU 031436Z 0315/0415 VRB02KT 9999 SCT030 \n  PROB40 \n  TEMPO 0315/0320 6000 -SN \n  PROB40 \n  TEMPO 0320/0407 BKN013",
      "minima": {
        "best": {
          "cig_ft": 200,
          "vis_m": 550
        },
        "alt": {
          "cig_ft": 300,
          "vis_m": 650
        },
        "wind": {
          "threshold_kt": 29,
          "use_gust": false,
          "apply": true
        },
        "approach_category": null
      }
    },
    {
      "icao": "ENGM",
      "iata": "OSL",
      "name": "Oslo-Gardermoen International Airport",
      "lat": 60.193901,
      "lon": 11.1004,
      "updatedAt": "031420Z",
      "visibility_m": 10000,
      "taf_visibility_m": 10000,
      "worst_visibility_m": 10000,
      "ceiling_ft": 4100,
      "hazards": [
        "SN"
      ],
      "severityScore": 18,
      "metarRaw": "METAR ENGM 031420Z 02004KT 9999 -SN OVC041 M08/M10 Q1025 NOSIG",
      "tafRaw": "TAF ENGM 031100Z 0312/0412 02002KT 9999 -SN FEW030 BKN040 \n  BECMG 0406/0408 02012KT",
      "minima": {
        "best": {
          "cig_ft": 0,
          "vis_m": 75
        },
        "alt": {
          "cig_ft": 100,
          "vis_m": 300
        },
        "wind": {
          "threshold_kt": 29,
          "use_gust": false,
          "apply": true
        },
        "approach_category": null
      }
    },
    {
      "icao": "ESKN",
      "iata": "NYO",
      "name": "Stockholm Skavsta Airport",
      "lat": 58.789656,
      "lon": 16.911479,
      "updatedAt": "031420Z",
      "visibility_m": 10000,
      "taf_visibility_m": 4000,
      "worst_visibility_m": 4000,
      "ceiling_ft": null,
      "hazards": [
        "SN"
      ],
      "severityScore": 18,
      "metarRaw": "METAR ESKN 031420Z 04006KT CAVOK M06/M09 Q1027",
      "tafRaw": "TAF ESKN 031430Z 0315/0415 06005KT CAVOK \n  PROB40 0406/0408 4000 -SN",
      "minima": {
        "best": {
          "cig_ft": 200,
          "vis_m": 550
        },
        "alt": {
          "cig_ft": 390,
          "vis_m": 1400
        },
        "wind": {
          "threshold_kt": 29,
          "use_gust": false,
          "apply": true
        },
        "approach_category": null
      }
    },
    {
      "icao": "GMMN",
      "iata": "CMN",
      "name": "Mohammed V International Airport",
      "lat": 33.3675,
      "lon": -7.58997,
      "updatedAt": "031430Z",
      "visibility_m": 8000,
      "taf_visibility_m": 4000,
      "worst_visibility_m": 4000,
      "ceiling_ft": 2000,
      "hazards": [
        "RA"
      ],
      "severityScore": 12,
      "metarRaw": "METAR GMMN 031430Z 24018KT 8000 SCT016TCU BKN020 15/11 Q1012 NOSIG",
      "tafRaw": "TAF GMMN 031100Z 0312/0418 22018KT 9999 SCT012 BKN020 \n  TEMPO 0312/0408 4000 RA BKN012 \n  BECMG 0319/0322 BKN010 \n  TEMPO 0400/0418 22016G30KT",
      "minima": {
        "best": {
          "cig_ft": 0,
          "vis_m": 200
        },
        "alt": {
          "cig_ft": 135,
          "vis_m": 400
        },
        "wind": {
          "threshold_kt": 29,
          "use_gust": false,
          "apply": true
        },
        "approach_category": null
      }
    },
    {
      "icao": "ESMS",
      "iata": "MMX",
      "name": "Malmö Sturup Airport",
      "lat": 55.535564,
      "lon": 13.376327,
      "updatedAt": "031420Z",
      "visibility_m": 10000,
      "taf_visibility_m": 10000,
      "worst_visibility_m": 10000,
      "ceiling_ft": 1200,
      "hazards": [],
      "severityScore": 12,
      "metarRaw": "METAR ESMS 031420Z 10020KT CAVOK M01/M08 Q1017",
      "tafRaw": "TAF ESMS 031427Z 0315/0415 11018KT 9999 FEW020 \n  TEMPO 0315/0319 11020G30KT \n  TEMPO 0319/0409 10022G35KT BKN012 \n  TEMPO 0409/0415 09022G35KT",
      "minima": {
        "best": {
          "cig_ft": 100,
          "vis_m": 350
        },
        "alt": {
          "cig_ft": 200,
          "vis_m": 550
        },
        "wind": {
          "threshold_kt": 29,
          "use_gust": false,
          "apply": true
        },
        "approach_category": null
      }
    },
    {
      "icao": "ESSA",
      "iata": "ARN",
      "name": "Stockholm-Arlanda Airport",
      "lat": 59.64849,
      "lon": 17.928829,
      "updatedAt": "031420Z",
      "visibility_m": 10000,
      "taf_visibility_m": 10000,
      "worst_visibility_m": 10000,
      "ceiling_ft": 1400,
      "hazards": [],
      "severityScore": 12,
      "metarRaw": "METAR ESSA 031420Z 03006KT CAVOK M07/M11 Q1029 NOSIG",
      "tafRaw": "TAF ESSA 031430Z 0315/0415 03005KT 9999 SCT025 \n  PROB40 0401/0408 BKN014",
      "minima": {
        "best": {
          "cig_ft": 0,
          "vis_m": 75
        },
        "alt": {
          "cig_ft": 100,
          "vis_m": 300
        },
        "wind": {
          "threshold_kt": 29,
          "use_gust": false,
          "apply": true
        },
        "approach_category": null
      }
    },
    {
      "icao": "LEBB",
      "iata": "BIO",
      "name": "Bilbao Airport",
      "lat": 43.301102,
      "lon": -2.91061,
      "updatedAt": "031430Z",
      "visibility_m": 10000,
      "taf_visibility_m": 10000,
      "worst_visibility_m": 10000,
      "ceiling_ft": null,
      "hazards": [
        "RA"
      ],
      "severityScore": 12,
      "metarRaw": "METAR LEBB 031430Z VRB08G25KT 9999 FEW045 13/02 Q0996 NOSIG",
      "tafRaw": "TAF LEBB 031100Z 0312/0412 20009KT 9999 FEW040 TX16/0314Z TN07/0406Z \n  TEMPO 0312/0314 19017G27KT \n  PROB40 \n  TEMPO 0314/0323 21015G25KT \n  PROB40 \n  TEMPO 0400/0406 14010KT \n  PROB30 \n  TEMPO 0405/0412 RA \n  PROB30 \n  TEMPO 0406/0412 18015G27KT",
      "minima": {
        "best": {
          "cig_ft": 300,
          "vis_m": 650
        },
        "alt": {
          "cig_ft": 680,
          "vis_m": 2400
        },
        "wind": {
          "threshold_kt": 29,
          "use_gust": false,
          "apply": true
        },
        "approach_category": null
      }
    },
    {
      "icao": "LEVC",
      "iata": "VLC",
      "name": "Valencia Airport",
      "lat": 39.4893,
      "lon": -0.481625,
      "updatedAt": "031430Z",
      "visibility_m": 10000,
      "taf_visibility_m": 10000,
      "worst_visibility_m": 10000,
      "ceiling_ft": 3000,
      "hazards": [
        "RA"
      ],
      "severityScore": 12,
      "metarRaw": "METAR LEVC 031430Z 27012KT 9999 FEW020 SCT050 15/03 Q1001 NOSIG",
      "tafRaw": "TAF LEVC 031100Z 0312/0412 25009KT 9999 FEW030 TX16/0313Z TN08/0406Z \n  TEMPO 0402/0408 RA BKN030",
      "minima": {
        "best": {
          "cig_ft": 210,
          "vis_m": 550
        },
        "alt": {
          "cig_ft": 320,
          "vis_m": 700
        },
        "wind": {
          "threshold_kt": 29,
          "use_gust": false,
          "apply": true
        },
        "approach_category": null
      }
    },
    {
      "icao": "LIBP",
      "iata": "PSR",
      "name": "Abruzzo Airport",
      "lat": 42.431079,
      "lon": 14.182981,
      "updatedAt": "031420Z",
      "visibility_m": 10000,
      "taf_visibility_m": 10000,
      "worst_visibility_m": 10000,
      "ceiling_ft": null,
      "hazards": [
        "RA"
      ],
      "severityScore": 12,
      "metarRaw": "METAR LIBP 031420Z AUTO VRB05KT 9999 SCT083/// 18/08 Q1005",
      "tafRaw": "TAF LIBP 031100Z 0312/0412 VRB05KT 9999 SCT050 \n  TEMPO 0402/0406 RA",
      "minima": {
        "best": {
          "cig_ft": 240,
          "vis_m": 800
        },
        "alt": {
          "cig_ft": 480,
          "vis_m": 1800
        },
        "wind": {
          "threshold_kt": 29,
          "use_gust": false,
          "apply": true
        },
        "approach_category": null
      }
    },
    {
      "icao": "LIMJ",
      "iata": "GOA",
      "name": "Genoa Cristoforo Colombo Airport",
      "lat": 44.412039,
      "lon": 8.840732,
      "updatedAt": "031420Z",
      "visibility_m": 10000,
      "taf_visibility_m": 10000,
      "worst_visibility_m": 10000,
      "ceiling_ft": 3500,
      "hazards": [
        "RA"
      ],
      "severityScore": 12,
      "metarRaw": "METAR LIMJ 031420Z 04011KT 9999 BKN035 BKN055 08/04 Q1005",
      "tafRaw": "TAF LIMJ 031100Z 0312/0412 04013KT 9999 BKN030 \n  TEMPO 0320/0412 04015G28KT \n  BECMG 0405/0407 RA",
      "minima": {
        "best": {
          "cig_ft": 880,
          "vis_m": 2400
        },
        "alt": {
          "cig_ft": 1040,
          "vis_m": 2400
        },
        "wind": {
          "threshold_kt": 29,
          "use_gust": false,
          "apply": true
        },
        "approach_category": null
      }
    },
    {
      "icao": "LIPQ",
      "iata": "TRS",
      "name": "Trieste–Friuli Venezia Giulia Airport",
      "lat": 45.827499,
      "lon": 13.4722,
      "updatedAt": "031420Z",
      "visibility_m": 10000,
      "taf_visibility_m": 9000,
      "worst_visibility_m": 9000,
      "ceiling_ft": 2000,
      "hazards": [
        "RA"
      ],
      "severityScore": 12,
      "metarRaw": "METAR LIPQ 031420Z AUTO 20015G27KT 9999 RA BKN011/// OVC013/// 11/11 Q1006",
      "tafRaw": "TAF LIPQ 031100Z 0312/0412 VRB05KT 9000 OVC020 \n  TEMPO 0312/0314 RA \n  BECMG 0406/0408 04012KT RA",
      "minima": {
        "best": {
          "cig_ft": 100,
          "vis_m": 300
        },
        "alt": {
          "cig_ft": 200,
          "vis_m": 550
        },
        "wind": {
          "threshold_kt": 29,
          "use_gust": false,
          "apply": true
        },
        "approach_category": null
      }
    },
    {
      "icao": "LIPR",
      "iata": "RMI",
      "name": "Federico Fellini International Airport",
      "lat": 44.020024,
      "lon": 12.612198,
      "updatedAt": "031420Z",
      "visibility_m": 10000,
      "taf_visibility_m": 10000,
      "worst_visibility_m": 10000,
      "ceiling_ft": 6000,
      "hazards": [
        "RA"
      ],
      "severityScore": 12,
      "metarRaw": "METAR LIPR 031420Z 30005KT 9999 FEW030 BKN060 11/08 Q1006",
      "tafRaw": "TAF LIPR 031100Z 0312/0412 16012KT 9999 BKN040 \n  BECMG 0314/0316 32010KT \n  BECMG 0321/0323 RA",
      "minima": {
        "best": {
          "cig_ft": 250,
          "vis_m": 1300
        },
        "alt": {
          "cig_ft": 380,
          "vis_m": 1300
        },
        "wind": {
          "threshold_kt": 29,
          "use_gust": false,
          "apply": true
        },
        "approach_category": null
      }
    },
    {
      "icao": "LLBG",
      "iata": "TLV",
      "name": "Ben Gurion International Airport",
      "lat": 32.011398,
      "lon": 34.8867,
      "updatedAt": "031450Z",
      "visibility_m": 10000,
      "taf_visibility_m": 7000,
      "worst_visibility_m": 7000,
      "ceiling_ft": 3000,
      "hazards": [
        "RA"
      ],
      "severityScore": 12,
      "metarRaw": "METAR LLBG 031450Z 29012KT 9999 FEW025TCU SCT033 18/11 Q1019 NOSIG",
      "tafRaw": "TAF LLBG 031102Z 0312/0412 29012KT 9999 SCT035 \n  PROB40 \n  TEMPO 0312/0315 31018KT 7000 RA FEW025TCU BKN030 \n  BECMG 0317/0319 VRB04KT \n  PROB40 \n  TEMPO 0400/0407 14005KT BKN030 \n  BECMG 0407/0409 27010KT TX19/0312Z TN11/0404Z",
      "minima": {
        "best": {
          "cig_ft": 200,
          "vis_m": 550
        },
        "alt": {
          "cig_ft": 290,
          "vis_m": 650
        },
        "wind": {
          "threshold_kt": 29,
          "use_gust": false,
          "apply": true
        },
        "approach_category": null
      }
    },
    {
      "icao": "LPMA",
      "iata": "FNC",
      "name": "Cristiano Ronaldo International Airport",
      "lat": 32.697812,
      "lon": -16.774613,
      "updatedAt": "031430Z",
      "visibility_m": 10000,
      "taf_visibility_m": 10000,
      "worst_visibility_m": 10000,
      "ceiling_ft": 1400,
      "hazards": [],
      "severityScore": 12,
      "metarRaw": "METAR LPMA 031430Z 02006KT 350V070 9999 FEW015 19/12 Q1014",
      "tafRaw": "TAF LPMA 031100Z 0312/0412 VRB05KT 9999 SCT015 \n  TEMPO 0312/0318 21010KT \n  BECMG 0402/0404 24013KT \n  TEMPO 0403/0412 24015G25KT BKN014",
      "minima": {
        "best": {
          "cig_ft": 300,
          "vis_m": 1200
        },
        "alt": {
          "cig_ft": 770,
          "vis_m": 2400
        },
        "wind": {
          "threshold_kt": 29,
          "use_gust": false,
          "apply": true
        },
        "approach_category": null
      }
    },
    {
      "icao": "LRIA",
      "iata": "IAS",
      "name": "Iaşi Airport",
      "lat": 47.180278,
      "lon": 27.620833,
      "updatedAt": "031430Z",
      "visibility_m": 10000,
      "taf_visibility_m": 10000,
      "worst_visibility_m": 10000,
      "ceiling_ft": 1500,
      "hazards": [],
      "severityScore": 12,
      "metarRaw": "METAR LRIA 031430Z 11011KT CAVOK M04/M12 Q1021",
      "tafRaw": "TAF LRIA 031400Z 0315/0324 11011KT CAVOK \n  PROB30 \n  TEMPO 0316/0321 BKN015",
      "minima": {
        "best": {
          "cig_ft": 200,
          "vis_m": 550
        },
        "alt": {
          "cig_ft": 290,
          "vis_m": 750
        },
        "wind": {
          "threshold_kt": 29,
          "use_gust": false,
          "apply": true
        },
        "approach_category": null
      }
    },
    {
      "icao": "LRBC",
      "iata": "BCM",
      "name": "Bacău George Enescu International  Airport",
      "lat": 46.5219,
      "lon": 26.910299,
      "updatedAt": "031430Z",
      "visibility_m": 10000,
      "taf_visibility_m": 10000,
      "worst_visibility_m": 10000,
      "ceiling_ft": 1500,
      "hazards": [],
      "severityScore": 12,
      "metarRaw": "METAR LRBC 031430Z 16007KT CAVOK M02/M09 Q1020",
      "tafRaw": "TAF LRBC 031400Z 0315/0324 16010KT CAVOK \n  PROB30 \n  TEMPO 0315/0321 BKN015",
      "minima": {
        "best": {
          "cig_ft": 200,
          "vis_m": 550
        },
        "alt": {
          "cig_ft": 330,
          "vis_m": 800
        },
        "wind": {
          "threshold_kt": 29,
          "use_gust": false,
          "apply": true
        },
        "approach_category": null
      }
    },
    {
      "icao": "LRSV",
      "iata": "SCV",
      "name": "Suceava Stefan cel Mare Airport",
      "lat": 47.6875,
      "lon": 26.35409927368164,
      "updatedAt": "031430Z",
      "visibility_m": 10000,
      "taf_visibility_m": 10000,
      "worst_visibility_m": 10000,
      "ceiling_ft": 1500,
      "hazards": [],
      "severityScore": 12,
      "metarRaw": "METAR LRSV 031430Z 06004KT CAVOK M06/M10 Q1017",
      "tafRaw": "TAF LRSV 031400Z 0315/0324 11006KT CAVOK \n  PROB30 \n  TEMPO 0315/0319 BKN015",
      "minima": {
        "best": {
          "cig_ft": 100,
          "vis_m": 300
        },
        "alt": {
          "cig_ft": 200,
          "vis_m": 550
        },
        "wind": {
          "threshold_kt": 29,
          "use_gust": false,
          "apply": true
        },
        "approach_category": null
      }
    },
    {
      "icao": "BKPR",
      "iata": "PRN",
      "name": "Priština Adem Jashari International Airport",
      "lat": 42.5728,
      "lon": 21.035801,
      "updatedAt": "031430Z",
      "visibility_m": 10000,
      "taf_visibility_m": 3000,
      "worst_visibility_m": 3000,
      "ceiling_ft": 4000,
      "hazards": [
        "BR"
      ],
      "severityScore": 10,
      "metarRaw": "METAR BKPR 031430Z 18013KT 9999 BKN040 05/02 Q1015 NOSIG",
      "tafRaw": "TAF BKPR 031130Z 0312/0412 17012KT 9999 SCT040 \n  TEMPO 0403/0407 3000 BR",
      "minima": {
        "best": {
          "cig_ft": 0,
          "vis_m": 75
        },
        "alt": {
          "cig_ft": 100,
          "vis_m": 300
        },
        "wind": {
          "threshold_kt": 29,
          "use_gust": false,
          "apply": true
        },
        "approach_category": null
      }
    },
    {
      "icao": "ENBR",
      "iata": "BGO",
      "name": "Bergen Airport, Flesland",
      "lat": 60.2934,
      "lon": 5.21814,
      "updatedAt": "031420Z",
      "visibility_m": 10000,
      "taf_visibility_m": 10000,
      "worst_visibility_m": 10000,
      "ceiling_ft": null,
      "hazards": [
        "BR"
      ],
      "severityScore": 10,
      "metarRaw": "METAR ENBR 031420Z 09005KT CAVOK M03/M17 Q1018 NOSIG RMK WIND 1200FT 10010KT",
      "tafRaw": "TAF ENBR 031100Z 0312/0412 07005KT CAVOK",
      "minima": {
        "best": {
          "cig_ft": 110,
          "vis_m": 300
        },
        "alt": {
          "cig_ft": 200,
          "vis_m": 750
        },
        "wind": {
          "threshold_kt": 29,
          "use_gust": false,
          "apply": true
        },
        "approach_category": null
      }
    },
    {
      "icao": "EYKA",
      "iata": "KUN",
      "name": "Kaunas International Airport",
      "lat": 54.963965,
      "lon": 24.08582,
      "updatedAt": "031450Z",
      "visibility_m": 10000,
      "taf_visibility_m": 3000,
      "worst_visibility_m": 3000,
      "ceiling_ft": null,
      "hazards": [
        "BR"
      ],
      "severityScore": 10,
      "metarRaw": "METAR EYKA 031450Z 01004KT 340V040 CAVOK M12/M16 Q1024",
      "tafRaw": "TAF EYKA 031100Z 0312/0412 VRB03KT 9000 NSC \n  BECMG 0321/0323 5000 BR \n  TEMPO 0323/0409 3000 SCT002 \n  BECMG 0409/0410 9000 NSW",
      "minima": {
        "best": {
          "cig_ft": 178,
          "vis_m": 450
        },
        "alt": {
          "cig_ft": 260,
          "vis_m": 600
        },
        "wind": {
          "threshold_kt": 29,
          "use_gust": false,
          "apply": true
        },
        "approach_category": null
      }
    },
    {
      "icao": "HESX",
      "iata": "SPX",
      "name": "Sphinx International Airport",
      "lat": 30.108179,
      "lon": 30.895728,
      "updatedAt": "031400Z",
      "visibility_m": 10000,
      "taf_visibility_m": 3000,
      "worst_visibility_m": 3000,
      "ceiling_ft": null,
      "hazards": [
        "BR"
      ],
      "severityScore": 10,
      "metarRaw": "METAR HESX 031400Z 31010KT CAVOK 19/08 Q1020 NOSIG",
      "tafRaw": "TAF HESX 031345Z 0314/0418 28010KT CAVOK \n  TEMPO 0314/0318 26010G20KT 3000 SA NSC \n  TEMPO 0400/0406 VRB03KT 3000 BR NSC",
      "minima": {
        "best": {
          "cig_ft": 230,
          "vis_m": 550
        },
        "alt": {
          "cig_ft": 310,
          "vis_m": 750
        },
        "wind": {
          "threshold_kt": 29,
          "use_gust": false,
          "apply": true
        },
        "approach_category": null
      }
    },
    {
      "icao": "LIBR",
      "iata": "BDS",
      "name": "Brindisi Airport",
      "lat": 40.6576,
      "lon": 17.947001,
      "updatedAt": "031420Z",
      "visibility_m": 10000,
      "taf_visibility_m": 10000,
      "worst_visibility_m": 10000,
      "ceiling_ft": 3500,
      "hazards": [
        "BR"
      ],
      "severityScore": 10,
      "metarRaw": "METAR LIBR 031420Z 18014KT 9999 BKN035 16/11 Q1012",
      "tafRaw": "TAF LIBR 031100Z 0312/0412 16025G35KT 9999 SCT030 \n  BECMG 0406/0408 16035G45KT",
      "minima": {
        "best": {
          "cig_ft": 260,
          "vis_m": 1500
        },
        "alt": {
          "cig_ft": 580,
          "vis_m": 1900
        },
        "wind": {
          "threshold_kt": 29,
          "use_gust": false,
          "apply": true
        },
        "approach_category": null
      }
    },
    {
      "icao": "LRBS",
      "iata": "BBU",
      "name": "Bucharest Băneasa Aurel Vlaicu International Airport",
      "lat": 44.503133,
      "lon": 26.102944,
      "updatedAt": "031430Z",
      "visibility_m": 10000,
      "taf_visibility_m": 3000,
      "worst_visibility_m": 3000,
      "ceiling_ft": null,
      "hazards": [
        "BR"
      ],
      "severityScore": 10,
      "metarRaw": "METAR LRBS 031430Z 15004KT CAVOK M01/M10 Q1021 NOSIG",
      "tafRaw": "TAF LRBS 031100Z 0312/0412 29010KT CAVOK \n  BECMG 0316/0318 06008KT \n  TEMPO 0401/0407 3000 BR",
      "minima": {
        "best": {
          "cig_ft": 100,
          "vis_m": 350
        },
        "alt": {
          "cig_ft": 200,
          "vis_m": 550
        },
        "wind": {
          "threshold_kt": 29,
          "use_gust": false,
          "apply": true
        },
        "approach_category": null
      }
    },
    {
      "icao": "LROP",
      "iata": "OTP",
      "name": "Bucharest Henri Coandă International Airport",
      "lat": 44.571792,
      "lon": 26.103285,
      "updatedAt": "031430Z",
      "visibility_m": 10000,
      "taf_visibility_m": 3000,
      "worst_visibility_m": 3000,
      "ceiling_ft": null,
      "hazards": [
        "BR"
      ],
      "severityScore": 10,
      "metarRaw": "METAR LROP 031430Z 28003KT CAVOK M03/M13 Q1021 NOSIG",
      "tafRaw": "TAF LROP 031100Z 0312/0412 29010KT CAVOK \n  BECMG 0316/0318 06008KT \n  TEMPO 0401/0407 3000 BR",
      "minima": {
        "best": {
          "cig_ft": 50,
          "vis_m": 200
        },
        "alt": {
          "cig_ft": 100,
          "vis_m": 300
        },
        "wind": {
          "threshold_kt": 29,
          "use_gust": false,
          "apply": true
        },
        "approach_category": null
      }
    },
    {
      "icao": "LECH",
      "iata": "CDT",
      "name": "Castellón-Costa Azahar Airport",
      "lat": 40.213889,
      "lon": 0.073333,
      "updatedAt": "031430Z",
      "visibility_m": 10000,
      "taf_visibility_m": null,
      "worst_visibility_m": 10000,
      "ceiling_ft": null,
      "hazards": [],
      "severityScore": 5,
      "metarRaw": "METAR LECH 031430Z AUTO 26009KT 220V290 CAVOK 13/03 Q1000",
      "tafRaw": null,
      "minima": {
        "best": {
          "cig_ft": 330,
          "vis_m": 1100
        },
        "alt": {
          "cig_ft": 380,
          "vis_m": 1100
        },
        "wind": {
          "threshold_kt": 29,
          "use_gust": false,
          "apply": true
        },
        "approach_category": null
      }
    },
    {
      "icao": "LIPZ",
      "iata": "VCE",
      "name": "Venice Marco Polo Airport",
      "lat": 45.505299,
      "lon": 12.3519,
      "updatedAt": "031420Z",
      "visibility_m": 10000,
      "taf_visibility_m": null,
      "worst_visibility_m": 10000,
      "ceiling_ft": null,
      "hazards": [],
      "severityScore": 5,
      "metarRaw": "METAR LIPZ 031420Z 06004KT 9999 FEW020 08/07 Q1006 NOSIG",
      "tafRaw": null,
      "minima": {
        "best": {
          "cig_ft": 0,
          "vis_m": 75
        },
        "alt": {
          "cig_ft": 100,
          "vis_m": 300
        },
        "wind": {
          "threshold_kt": 29,
          "use_gust": false,
          "apply": true
        },
        "approach_category": null
      }
    },
    {
      "icao": "LQSA",
      "iata": "SJJ",
      "name": "Sarajevo International Airport",
      "lat": 43.8246,
      "lon": 18.331499,
      "updatedAt": "031430Z",
      "visibility_m": 10000,
      "taf_visibility_m": null,
      "worst_visibility_m": 10000,
      "ceiling_ft": 4500,
      "hazards": [],
      "severityScore": 5,
      "metarRaw": "METAR LQSA 031430Z 13017KT 9999 BKN045 10/05 Q1011 NOSIG",
      "tafRaw": null,
      "minima": {
        "best": {
          "cig_ft": 230,
          "vis_m": 550
        },
        "alt": {
          "cig_ft": 660,
          "vis_m": 2300
        },
        "wind": {
          "threshold_kt": 29,
          "use_gust": false,
          "apply": true
        },
        "approach_category": null
      }
    },
    {
      "icao": "BIKF",
      "iata": "KEF",
      "name": "Keflavik International Airport",
      "lat": 63.985001,
      "lon": -22.6056,
      "updatedAt": "031430Z",
      "visibility_m": 10000,
      "taf_visibility_m": 10000,
      "worst_visibility_m": 10000,
      "ceiling_ft": 2400,
      "hazards": [],
      "severityScore": 0,
      "metarRaw": "METAR BIKF 031430Z 12024KT 9999 BKN024 BKN330 07/03 Q1007",
      "tafRaw": "TAF BIKF 031332Z 0315/0415 11018G28KT 9999 SCT018 BKN028 TX06/0315Z TN01/0406Z \n  BECMG 0318/0320 07015KT",
      "minima": {
        "best": {
          "cig_ft": 100,
          "vis_m": 300
        },
        "alt": {
          "cig_ft": 200,
          "vis_m": 550
        },
        "wind": {
          "threshold_kt": 29,
          "use_gust": false,
          "apply": true
        },
        "approach_category": null
      }
    },
    {
      "icao": "GCFV",
      "iata": "FUE",
      "name": "Fuerteventura Airport",
      "lat": 28.4527,
      "lon": -13.8638,
      "updatedAt": "031430Z",
      "visibility_m": 10000,
      "taf_visibility_m": 10000,
      "worst_visibility_m": 10000,
      "ceiling_ft": null,
      "hazards": [],
      "severityScore": 0,
      "metarRaw": "METAR GCFV 031430Z 32014KT 9999 FEW035 21/09 Q1017",
      "tafRaw": "TAF GCFV 031400Z 0315/0415 32010KT 9999 FEW030 TX22/0414Z TN16/0406Z \n  BECMG 0319/0321 26005KT",
      "minima": {
        "best": {
          "cig_ft": 260,
          "vis_m": 600
        },
        "alt": {
          "cig_ft": 450,
          "vis_m": 1400
        },
        "wind": {
          "threshold_kt": 29,
          "use_gust": false,
          "apply": true
        },
        "approach_category": null
      }
    },
    {
      "icao": "GCLP",
      "iata": "LPA",
      "name": "Gran Canaria Airport",
      "lat": 27.9319,
      "lon": -15.3866,
      "updatedAt": "031430Z",
      "visibility_m": 10000,
      "taf_visibility_m": 10000,
      "worst_visibility_m": 10000,
      "ceiling_ft": null,
      "hazards": [],
      "severityScore": 0,
      "metarRaw": "METAR GCLP 031430Z 14008KT 090V170 9999 FEW040 21/12 Q1017 NOSIG",
      "tafRaw": "TAF GCLP 031400Z 0315/0415 01010KT 9999 SCT030 TX22/0414Z TN14/0406Z \n  TEMPO 0315/0319 VRB07KT \n  PROB40 \n  TEMPO 0315/0317 18010KT \n  BECMG 0320/0322 30005KT",
      "minima": {
        "best": {
          "cig_ft": 300,
          "vis_m": 650
        },
        "alt": {
          "cig_ft": 330,
          "vis_m": 800
        },
        "wind": {
          "threshold_kt": 29,
          "use_gust": false,
          "apply": true
        },
        "approach_category": null
      }
    },
    {
      "icao": "GMAD",
      "iata": "AGA",
      "name": "Al Massira Airport",
      "lat": 30.322478,
      "lon": -9.412003,
      "updatedAt": "031430Z",
      "visibility_m": 10000,
      "taf_visibility_m": 8000,
      "worst_visibility_m": 8000,
      "ceiling_ft": null,
      "hazards": [],
      "severityScore": 0,
      "metarRaw": "METAR GMAD 031430Z 24013KT 9999 FEW023 SCT233 18/14 Q1014 NOSIG",
      "tafRaw": "TAF GMAD 031100Z 0312/0418 27012KT 8000 SCT016",
      "minima": {
        "best": {
          "cig_ft": 210,
          "vis_m": 550
        },
        "alt": {
          "cig_ft": 380,
          "vis_m": 1700
        },
        "wind": {
          "threshold_kt": 29,
          "use_gust": false,
          "apply": true
        },
        "approach_category": null
      }
    },
    {
      "icao": "GMMX",
      "iata": "RAK",
      "name": "Marrakesh Menara Airport",
      "lat": 31.604807,
      "lon": -8.035788,
      "updatedAt": "031430Z",
      "visibility_m": 10000,
      "taf_visibility_m": 8000,
      "worst_visibility_m": 8000,
      "ceiling_ft": 2600,
      "hazards": [],
      "severityScore": 0,
      "metarRaw": "METAR GMMX 031430Z 27011KT 250V310 9999 BKN026 BKN090 14/10 Q1014 NOSIG",
      "tafRaw": "TAF GMMX 031100Z 0312/0418 26008KT 8000 SCT023 SCT080 \n  TEMPO 0314/0321 34020KT",
      "minima": {
        "best": {
          "cig_ft": 320,
          "vis_m": 1000
        },
        "alt": {
          "cig_ft": 380,
          "vis_m": 1300
        },
        "wind": {
          "threshold_kt": 29,
          "use_gust": false,
          "apply": true
        },
        "approach_category": null
      }
    },
    {
      "icao": "EDJA",
      "iata": "FMM",
      "name": "Memmingen Allgau Airport",
      "lat": 47.988092,
      "lon": 10.238248,
      "updatedAt": "031420Z",
      "visibility_m": 10000,
      "taf_visibility_m": 10000,
      "worst_visibility_m": 10000,
      "ceiling_ft": null,
      "hazards": [],
      "severityScore": 0,
      "metarRaw": "METAR EDJA 031420Z 23012KT 9999 FEW028 06/01 Q1000",
      "tafRaw": "TAF EDJA 031400Z 0315/0324 26008KT CAVOK \n  BECMG 0317/0320 13004KT",
      "minima": {
        "best": {
          "cig_ft": 200,
          "vis_m": 550
        },
        "alt": {
          "cig_ft": 270,
          "vis_m": 600
        },
        "wind": {
          "threshold_kt": 29,
          "use_gust": false,
          "apply": true
        },
        "approach_category": null
      }
    },
    {
      "icao": "EKCH",
      "iata": "CPH",
      "name": "Copenhagen Kastrup Airport",
      "lat": 55.617900848389,
      "lon": 12.656000137329,
      "updatedAt": "031420Z",
      "visibility_m": 10000,
      "taf_visibility_m": 10000,
      "worst_visibility_m": 10000,
      "ceiling_ft": null,
      "hazards": [],
      "severityScore": 0,
      "metarRaw": "METAR EKCH 031420Z AUTO 09020KT 9999 NCD 00/M07 Q1018 TEMPO 10020G33KT",
      "tafRaw": "TAF EKCH 031427Z 0315/0415 11023G34KT 9999 FEW030 \n  TEMPO 0315/0415 09018KT",
      "minima": {
        "best": {
          "cig_ft": 0,
          "vis_m": 75
        },
        "alt": {
          "cig_ft": 100,
          "vis_m": 300
        },
        "wind": {
          "threshold_kt": 29,
          "use_gust": false,
          "apply": true
        },
        "approach_category": null
      }
    },
    {
      "icao": "ENAL",
      "iata": "AES",
      "name": "Ålesund Airport, Vigra",
      "lat": 62.5625,
      "lon": 6.1197,
      "updatedAt": "031420Z",
      "visibility_m": 10000,
      "taf_visibility_m": 10000,
      "worst_visibility_m": 10000,
      "ceiling_ft": 4100,
      "hazards": [],
      "severityScore": 0,
      "metarRaw": "METAR ENAL 031420Z 14015KT 9999 SCT033 BKN041 M01/M09 Q1019",
      "tafRaw": "TAF ENAL 031400Z 0315/0324 14012KT 9999 SCT030",
      "minima": {
        "best": {
          "cig_ft": 230,
          "vis_m": 800
        },
        "alt": {
          "cig_ft": 250,
          "vis_m": 800
        },
        "wind": {
          "threshold_kt": 29,
          "use_gust": false,
          "apply": true
        },
        "approach_category": null
      }
    },
    {
      "icao": "ENHD",
      "iata": "HAU",
      "name": "Haugesund Airport, Karmøy",
      "lat": 59.345299,
      "lon": 5.20836,
      "updatedAt": "031420Z",
      "visibility_m": 10000,
      "taf_visibility_m": 10000,
      "worst_visibility_m": 10000,
      "ceiling_ft": null,
      "hazards": [],
      "severityScore": 0,
      "metarRaw": "METAR ENHD 031420Z 10022KT CAVOK M01/M13 Q1017",
      "tafRaw": "TAF ENHD 031400Z 0315/0323 09015KT CAVOK \n  TEMPO 0315/0323 10018G28KT",
      "minima": {
        "best": {
          "cig_ft": 200,
          "vis_m": 750
        },
        "alt": {
          "cig_ft": 280,
          "vis_m": 900
        },
        "wind": {
          "threshold_kt": 29,
          "use_gust": false,
          "apply": true
        },
        "approach_category": null
      }
    },
    {
      "icao": "ENVA",
      "iata": "TRD",
      "name": "Trondheim Airport, Værnes",
      "lat": 63.457802,
      "lon": 10.924,
      "updatedAt": "031420Z",
      "visibility_m": 10000,
      "taf_visibility_m": 10000,
      "worst_visibility_m": 10000,
      "ceiling_ft": null,
      "hazards": [],
      "severityScore": 0,
      "metarRaw": "METAR ENVA 031420Z 10005KT 070V130 CAVOK M06/M17 Q1022 NOSIG RMK WIND 670FT 15013KT",
      "tafRaw": "TAF ENVA 031100Z 0312/0412 09007KT CAVOK \n  PROB30 \n  TEMPO 0409/0412 16015G25KT",
      "minima": {
        "best": {
          "cig_ft": 220,
          "vis_m": 800
        },
        "alt": {
          "cig_ft": 430,
          "vis_m": 1600
        },
        "wind": {
          "threshold_kt": 29,
          "use_gust": false,
          "apply": true
        },
        "approach_category": null
      }
    },
    {
      "icao": "ENZV",
      "iata": "SVG",
      "name": "Stavanger Airport, Sola",
      "lat": 58.876701,
      "lon": 5.63778,
      "updatedAt": "031420Z",
      "visibility_m": 10000,
      "taf_visibility_m": 10000,
      "worst_visibility_m": 10000,
      "ceiling_ft": null,
      "hazards": [],
      "severityScore": 0,
      "metarRaw": "METAR ENZV 031420Z 10017KT CAVOK M00/M10 Q1017 TEMPO 10018G28KT",
      "tafRaw": "TAF ENZV 031100Z 0312/0412 09015KT CAVOK \n  TEMPO 0312/0412 10018G28KT",
      "minima": {
        "best": {
          "cig_ft": 100,
          "vis_m": 300
        },
        "alt": {
          "cig_ft": 200,
          "vis_m": 750
        },
        "wind": {
          "threshold_kt": 29,
          "use_gust": false,
          "apply": true
        },
        "approach_category": null
      }
    },
    {
      "icao": "EPSY",
      "iata": "SZY",
      "name": "Olsztyn-Mazury Airport",
      "lat": 53.481899,
      "lon": 20.9377,
      "updatedAt": "031430Z",
      "visibility_m": 10000,
      "taf_visibility_m": 10000,
      "worst_visibility_m": 10000,
      "ceiling_ft": null,
      "hazards": [],
      "severityScore": 0,
      "metarRaw": "METAR EPSY 031430Z 08006KT 050V110 CAVOK M10/M16 Q1020",
      "tafRaw": "TAF EPSY 031430Z 0315/0324 08005KT CAVOK",
      "minima": {
        "best": {
          "cig_ft": 116,
          "vis_m": 300
        },
        "alt": {
          "cig_ft": 200,
          "vis_m": 550
        },
        "wind": {
          "threshold_kt": 29,
          "use_gust": false,
          "apply": true
        },
        "approach_category": null
      }
    },
    {
      "icao": "ESGG",
      "iata": "GOT",
      "name": "Göteborg Landvetter Airport",
      "lat": 57.6628,
      "lon": 12.2798,
      "updatedAt": "031420Z",
      "visibility_m": 10000,
      "taf_visibility_m": 10000,
      "worst_visibility_m": 10000,
      "ceiling_ft": null,
      "hazards": [],
      "severityScore": 0,
      "metarRaw": "METAR ESGG 031420Z 12016KT 080V140 9999 FEW038 M02/M11 Q1021",
      "tafRaw": "TAF ESGG 031430Z 0315/0415 10013KT 9999 SCT040",
      "minima": {
        "best": {
          "cig_ft": 0,
          "vis_m": 75
        },
        "alt": {
          "cig_ft": 100,
          "vis_m": 300
        },
        "wind": {
          "threshold_kt": 29,
          "use_gust": false,
          "apply": true
        },
        "approach_category": null
      }
    },
    {
      "icao": "EYPA",
      "iata": "PLQ",
      "name": "Palanga International Airport",
      "lat": 55.973202,
      "lon": 21.093901,
      "updatedAt": "031450Z",
      "visibility_m": 10000,
      "taf_visibility_m": 9000,
      "worst_visibility_m": 9000,
      "ceiling_ft": null,
      "hazards": [],
      "severityScore": 0,
      "metarRaw": "METAR EYPA 031450Z 11006KT CAVOK M08/M14 Q1025",
      "tafRaw": "TAF EYPA 031100Z 0312/0412 08007KT 9000 NSC",
      "minima": {
        "best": {
          "cig_ft": 240,
          "vis_m": 550
        },
        "alt": {
          "cig_ft": 270,
          "vis_m": 900
        },
        "wind": {
          "threshold_kt": 29,
          "use_gust": false,
          "apply": true
        },
        "approach_category": null
      }
    },
    {
      "icao": "HEGN",
      "iata": "HRG",
      "name": "Hurghada International Airport",
      "lat": 27.176776,
      "lon": 33.796692,
      "updatedAt": "031400Z",
      "visibility_m": 10000,
      "taf_visibility_m": 2000,
      "worst_visibility_m": 2000,
      "ceiling_ft": null,
      "hazards": [],
      "severityScore": 0,
      "metarRaw": "METAR HEGN 031400Z 35017KT CAVOK 23/07 Q1018",
      "tafRaw": "TAF HEGN 031100Z 0312/0418 34013G26KT 6000 NSC \n  TEMPO 0312/0321 4000 SA \n  TEMPO 0312/0315 2000",
      "minima": {
        "best": {
          "cig_ft": 250,
          "vis_m": 550
        },
        "alt": {
          "cig_ft": 260,
          "vis_m": 750
        },
        "wind": {
          "threshold_kt": 29,
          "use_gust": false,
          "apply": true
        },
        "approach_category": null
      }
    },
    {
      "icao": "HEMA",
      "iata": "RMF",
      "name": "Marsa Alam International Airport",
      "lat": 25.555548,
      "lon": 34.59245,
      "updatedAt": "031400Z",
      "visibility_m": 4000,
      "taf_visibility_m": 4000,
      "worst_visibility_m": 4000,
      "ceiling_ft": null,
      "hazards": [],
      "severityScore": 0,
      "metarRaw": "METAR HEMA 031400Z 36014KT 4000 SA NSC 23/09 Q1017 NOSIG",
      "tafRaw": "TAF HEMA 031100Z 0312/0418 35010G22KT 6000 NSC \n  TEMPO 0312/0318 4000 SA",
      "minima": {
        "best": {
          "cig_ft": 350,
          "vis_m": 900
        },
        "alt": {
          "cig_ft": 390,
          "vis_m": 1400
        },
        "wind": {
          "threshold_kt": 29,
          "use_gust": false,
          "apply": true
        },
        "approach_category": null
      }
    },
    {
      "icao": "HESH",
      "iata": "SSH",
      "name": "Sharm El Sheikh International Airport",
      "lat": 27.977272,
      "lon": 34.394717,
      "updatedAt": "031400Z",
      "visibility_m": 10000,
      "taf_visibility_m": 4000,
      "worst_visibility_m": 4000,
      "ceiling_ft": null,
      "hazards": [],
      "severityScore": 0,
      "metarRaw": "METAR HESH 031400Z 35010KT CAVOK 22/07 Q1017 NOSIG",
      "tafRaw": "TAF HESH 031100Z 0312/0418 01006G18KT CAVOK \n  PROB30 \n  TEMPO 0312/0318 4000 SA NSC",
      "minima": {
        "best": {
          "cig_ft": 250,
          "vis_m": 550
        },
        "alt": {
          "cig_ft": 270,
          "vis_m": 750
        },
        "wind": {
          "threshold_kt": 29,
          "use_gust": false,
          "apply": true
        },
        "approach_category": null
      }
    },
    {
      "icao": "LATI",
      "iata": "TIA",
      "name": "Tirana International Airport Mother Teresa",
      "lat": 41.4147,
      "lon": 19.7206,
      "updatedAt": "031450Z",
      "visibility_m": 10000,
      "taf_visibility_m": 10000,
      "worst_visibility_m": 10000,
      "ceiling_ft": 6500,
      "hazards": [],
      "severityScore": 0,
      "metarRaw": "METAR LATI 031450Z 14004KT 9999 BKN065 16/05 Q1015 NOSIG",
      "tafRaw": "TAF LATI 031100Z 0312/0412 14012KT 9999 FEW030 BKN060 TX19/0412Z TN08/0405Z \n  BECMG 0317/0319 VRB05KT \n  BECMG 0409/0411 16012KT",
      "minima": {
        "best": {
          "cig_ft": 250,
          "vis_m": 550
        },
        "alt": {
          "cig_ft": 340,
          "vis_m": 800
        },
        "wind": {
          "threshold_kt": 29,
          "use_gust": false,
          "apply": true
        },
        "approach_category": null
      }
    },
    {
      "icao": "LCLK",
      "iata": "LCA",
      "name": "Larnaca International Airport",
      "lat": 34.875099,
      "lon": 33.624901,
      "updatedAt": "031430Z",
      "visibility_m": 10000,
      "taf_visibility_m": 10000,
      "worst_visibility_m": 10000,
      "ceiling_ft": null,
      "hazards": [],
      "severityScore": 0,
      "metarRaw": "METAR LCLK 031430Z 32013KT 9999 FEW020 17/09 Q1016 NOSIG",
      "tafRaw": "TAF LCLK 031130Z 0312/0412 31020KT 9999 FEW020 \n  BECMG 0318/0320 29008KT \n  BECMG 0409/0411 17010KT",
      "minima": {
        "best": {
          "cig_ft": 210,
          "vis_m": 1000
        },
        "alt": {
          "cig_ft": 290,
          "vis_m": 1000
        },
        "wind": {
          "threshold_kt": 29,
          "use_gust": false,
          "apply": true
        },
        "approach_category": null
      }
    },
    {
      "icao": "LCPH",
      "iata": "PFO",
      "name": "Paphos International Airport",
      "lat": 34.717999,
      "lon": 32.485699,
      "updatedAt": "031430Z",
      "visibility_m": 10000,
      "taf_visibility_m": 10000,
      "worst_visibility_m": 10000,
      "ceiling_ft": null,
      "hazards": [],
      "severityScore": 0,
      "metarRaw": "METAR LCPH 031430Z 32014KT 9999 FEW030 17/08 Q1017 NOSIG",
      "tafRaw": "TAF LCPH 031130Z 0312/0412 29022KT 9999 FEW020 \n  BECMG 0315/0317 30012KT \n  BECMG 0321/0323 02009KT \n  BECMG 0408/0410 30012KT",
      "minima": {
        "best": {
          "cig_ft": 200,
          "vis_m": 550
        },
        "alt": {
          "cig_ft": 310,
          "vis_m": 700
        },
        "wind": {
          "threshold_kt": 29,
          "use_gust": false,
          "apply": true
        },
        "approach_category": null
      }
    },
    {
      "icao": "LEBL",
      "iata": "BCN",
      "name": "Josep Tarradellas Barcelona-El Prat Airport",
      "lat": 41.2971,
      "lon": 2.07846,
      "updatedAt": "031430Z",
      "visibility_m": 10000,
      "taf_visibility_m": 10000,
      "worst_visibility_m": 10000,
      "ceiling_ft": null,
      "hazards": [],
      "severityScore": 0,
      "metarRaw": "METAR LEBL 031430Z 21012KT 9999 FEW025 14/08 Q1000 NOSIG",
      "tafRaw": "TAF LEBL 031100Z 0312/0412 22010KT 9999 FEW020 TX15/0314Z TN05/0406Z \n  BECMG 0316/0318 VRB04KT \n  BECMG 0322/0324 35007KT \n  BECMG 0408/0410 24012KT",
      "minima": {
        "best": {
          "cig_ft": 0,
          "vis_m": 75
        },
        "alt": {
          "cig_ft": 109,
          "vis_m": 300
        },
        "wind": {
          "threshold_kt": 29,
          "use_gust": false,
          "apply": true
        },
        "approach_category": null
      }
    },
    {
      "icao": "LGAV",
      "iata": "ATH",
      "name": "Athens Eleftherios Venizelos International Airport",
      "lat": 37.936401,
      "lon": 23.9445,
      "updatedAt": "031420Z",
      "visibility_m": 10000,
      "taf_visibility_m": 10000,
      "worst_visibility_m": 10000,
      "ceiling_ft": null,
      "hazards": [],
      "severityScore": 0,
      "metarRaw": "METAR LGAV 031420Z 21007KT 9999 FEW025 16/06 Q1019 NOSIG",
      "tafRaw": "TAF LGAV 031100Z 0312/0412 VRB05KT 9999 FEW025 \n  BECMG 0406/0408 19012KT",
      "minima": {
        "best": {
          "cig_ft": 100,
          "vis_m": 300
        },
        "alt": {
          "cig_ft": 200,
          "vis_m": 550
        },
        "wind": {
          "threshold_kt": 29,
          "use_gust": false,
          "apply": true
        },
        "approach_category": null
      }
    },
    {
      "icao": "LIBD",
      "iata": "BRI",
      "name": "Bari Karol Wojtyła International Airport",
      "lat": 41.138901,
      "lon": 16.760599,
      "updatedAt": "031420Z",
      "visibility_m": 10000,
      "taf_visibility_m": 10000,
      "worst_visibility_m": 10000,
      "ceiling_ft": null,
      "hazards": [],
      "severityScore": 0,
      "metarRaw": "METAR LIBD 031420Z AUTO 17009KT 9999 FEW180/// 15/11 Q1009",
      "tafRaw": "TAF LIBD 031100Z 0312/0412 18012KT CAVOK \n  TEMPO 0314/0318 18018G28KT \n  BECMG 0400/0402 16035G45KT",
      "minima": {
        "best": {
          "cig_ft": 200,
          "vis_m": 550
        },
        "alt": {
          "cig_ft": 280,
          "vis_m": 600
        },
        "wind": {
          "threshold_kt": 29,
          "use_gust": false,
          "apply": true
        },
        "approach_category": null
      }
    },
    {
      "icao": "LIBG",
      "iata": "TAR",
      "name": "Taranto-Grottaglie Marcello Arlotta Airport",
      "lat": 40.517502,
      "lon": 17.4032,
      "updatedAt": "031350Z",
      "visibility_m": 10000,
      "taf_visibility_m": 10000,
      "worst_visibility_m": 10000,
      "ceiling_ft": 2000,
      "hazards": [],
      "severityScore": 0,
      "metarRaw": "METAR LIBG 031350Z 16011KT 9999 SCT010 BKN020 16/13 Q1012",
      "tafRaw": "TAF LIBG 031400Z 0315/0324 17020G30KT 9999 FEW010 SCT020",
      "minima": null
    },
    {
      "icao": "LPPS",
      "iata": "PXO",
      "name": "Porto Santo Airport",
      "lat": 33.0733985901,
      "lon": -16.3500003815,
      "updatedAt": "031430Z",
      "visibility_m": 10000,
      "taf_visibility_m": 10000,
      "worst_visibility_m": 10000,
      "ceiling_ft": null,
      "hazards": [],
      "severityScore": 0,
      "metarRaw": "METAR LPPS 031430Z 27020G30KT 9999 FEW014 18/14 Q1014",
      "tafRaw": "TAF LPPS 031100Z 0312/0418 27017KT 9999 SCT015 \n  TEMPO 0314/0412 27020G33KT",
      "minima": {
        "best": {
          "cig_ft": 790,
          "vis_m": 2400
        },
        "alt": {
          "cig_ft": 850,
          "vis_m": 2400
        },
        "wind": {
          "threshold_kt": 29,
          "use_gust": false,
          "apply": true
        },
        "approach_category": null
      }
    },
    {
      "icao": "LQTZ",
      "iata": "TZL",
      "name": "Tuzla International Airport",
      "lat": 44.459858,
      "lon": 18.723627,
      "updatedAt": "031430Z",
      "visibility_m": 10000,
      "taf_visibility_m": 10000,
      "worst_visibility_m": 10000,
      "ceiling_ft": null,
      "hazards": [],
      "severityScore": 0,
      "metarRaw": "METAR LQTZ 031430Z 13003KT 100V160 9999 FEW050 14/05 Q1009",
      "tafRaw": "TAF LQTZ 031100Z 0312/0412 06005KT 9999 SCT060 TX14/0314Z TN06/0406Z \n  TEMPO 0312/0412 12010KT",
      "minima": {
        "best": {
          "cig_ft": 250,
          "vis_m": 550
        },
        "alt": {
          "cig_ft": 310,
          "vis_m": 700
        },
        "wind": {
          "threshold_kt": 29,
          "use_gust": false,
          "apply": true
        },
        "approach_category": null
      }
    },
    {
      "icao": "LRBV",
      "iata": "GHV",
      "name": "Brașov-Ghimbav International Airport",
      "lat": 45.70558,
      "lon": 25.522871,
      "updatedAt": "031430Z",
      "visibility_m": 10000,
      "taf_visibility_m": 10000,
      "worst_visibility_m": 10000,
      "ceiling_ft": null,
      "hazards": [],
      "severityScore": 0,
      "metarRaw": "METAR LRBV 031430Z 00000KT CAVOK 03/M04 Q1015",
      "tafRaw": "TAF LRBV 031400Z 0315/0324 VRB04KT CAVOK",
      "minima": {
        "best": {
          "cig_ft": 200,
          "vis_m": 550
        },
        "alt": {
          "cig_ft": 440,
          "vis_m": 1300
        },
        "wind": {
          "threshold_kt": 29,
          "use_gust": false,
          "apply": true
        },
        "approach_category": null
      }
    },
    {
      "icao": "LRCV",
      "iata": "CRA",
      "name": "Craiova International Airport",
      "lat": 44.3181,
      "lon": 23.888599,
      "updatedAt": "031430Z",
      "visibility_m": 10000,
      "taf_visibility_m": 10000,
      "worst_visibility_m": 10000,
      "ceiling_ft": 2500,
      "hazards": [],
      "severityScore": 0,
      "metarRaw": "METAR LRCV 031430Z 12005KT 090V150 9999 SCT028 M04/M08 Q1020",
      "tafRaw": "TAF LRCV 031400Z 0315/0324 VRB04KT 9999 BKN025",
      "minima": {
        "best": {
          "cig_ft": 100,
          "vis_m": 350
        },
        "alt": {
          "cig_ft": 200,
          "vis_m": 550
        },
        "wind": {
          "threshold_kt": 29,
          "use_gust": false,
          "apply": true
        },
        "approach_category": null
      }
    },
    {
      "icao": "LRSB",
      "iata": "SBZ",
      "name": "Sibiu International Airport",
      "lat": 45.785841,
      "lon": 24.086666,
      "updatedAt": "031430Z",
      "visibility_m": 10000,
      "taf_visibility_m": 10000,
      "worst_visibility_m": 10000,
      "ceiling_ft": null,
      "hazards": [],
      "severityScore": 0,
      "metarRaw": "METAR LRSB 031430Z 12009KT 9999 SCT080 03/M04 Q1014",
      "tafRaw": "TAF LRSB 031100Z 0312/0412 VRB04KT CAVOK",
      "minima": {
        "best": {
          "cig_ft": 142,
          "vis_m": 450
        },
        "alt": {
          "cig_ft": 200,
          "vis_m": 750
        },
        "wind": {
          "threshold_kt": 29,
          "use_gust": false,
          "apply": true
        },
        "approach_category": null
      }
    },
    {
      "icao": "LRTM",
      "iata": "TGM",
      "name": "Târgu Mureş Transilvania International Airport",
      "lat": 46.467701,
      "lon": 24.4125,
      "updatedAt": "031430Z",
      "visibility_m": 10000,
      "taf_visibility_m": 10000,
      "worst_visibility_m": 10000,
      "ceiling_ft": null,
      "hazards": [],
      "severityScore": 0,
      "metarRaw": "METAR LRTM 031430Z 06003KT CAVOK 04/M01 Q1015",
      "tafRaw": "TAF LRTM 031400Z 0315/0324 VRB04KT CAVOK",
      "minima": {
        "best": {
          "cig_ft": 100,
          "vis_m": 300
        },
        "alt": {
          "cig_ft": 200,
          "vis_m": 550
        },
        "wind": {
          "threshold_kt": 29,
          "use_gust": false,
          "apply": true
        },
        "approach_category": null
      }
    },
    {
      "icao": "LTFM",
      "iata": "IST",
      "name": "İstanbul Airport",
      "lat": 41.261297,
      "lon": 28.741951,
      "updatedAt": "031420Z",
      "visibility_m": 10000,
      "taf_visibility_m": 10000,
      "worst_visibility_m": 10000,
      "ceiling_ft": 2700,
      "hazards": [],
      "severityScore": 0,
      "metarRaw": "METAR LTFM 031420Z 09004KT 050V160 9999 FEW017 BKN027 04/00 Q1022 NOSIG",
      "tafRaw": "TAF LTFM 031040Z 0312/0418 05005KT 9999 BKN017 BKN027 \n  BECMG 0314/0317 14010KT SCT040 \n  BECMG 0400/0403 BKN025 \n  BECMG 0405/0408 CAVOK",
      "minima": {
        "best": {
          "cig_ft": 0,
          "vis_m": 75
        },
        "alt": {
          "cig_ft": 100,
          "vis_m": 300
        },
        "wind": {
          "threshold_kt": 29,
          "use_gust": false,
          "apply": true
        },
        "approach_category": null
      }
    },
    {
      "icao": "LWOH",
      "iata": "OHD",
      "name": "Ohrid St. Paul the Apostle Airport",
      "lat": 41.18,
      "lon": 20.7423,
      "updatedAt": "031420Z",
      "visibility_m": 10000,
      "taf_visibility_m": 10000,
      "worst_visibility_m": 10000,
      "ceiling_ft": 4000,
      "hazards": [],
      "severityScore": 0,
      "metarRaw": "METAR LWOH 031420Z 30003KT 270V340 9999 BKN040 10/04 Q1016",
      "tafRaw": "TAF LWOH 031130Z 0312/0412 VRB02KT 9999 SCT040 \n  TEMPO 0312/0318 15010KT",
      "minima": {
        "best": {
          "cig_ft": 840,
          "vis_m": 2400
        },
        "alt": {
          "cig_ft": 1070,
          "vis_m": 2400
        },
        "wind": {
          "threshold_kt": 29,
          "use_gust": false,
          "apply": true
        },
        "approach_category": null
      }
    },
    {
      "icao": "LWSK",
      "iata": "SKP",
      "name": "Skopje International Airport",
      "lat": 41.958087,
      "lon": 21.622581,
      "updatedAt": "031450Z",
      "visibility_m": 10000,
      "taf_visibility_m": 10000,
      "worst_visibility_m": 10000,
      "ceiling_ft": null,
      "hazards": [],
      "severityScore": 0,
      "metarRaw": "METAR LWSK 031450Z VRB01KT 9999 SCT035 07/02 Q1018 NOSIG",
      "tafRaw": "TAF LWSK 031130Z 0312/0412 VRB02KT 9999 SCT030 SCT080 \n  TEMPO 0312/0318 16010KT",
      "minima": {
        "best": {
          "cig_ft": 220,
          "vis_m": 550
        },
        "alt": {
          "cig_ft": 1320,
          "vis_m": 2400
        },
        "wind": {
          "threshold_kt": 29,
          "use_gust": false,
          "apply": true
        },
        "approach_category": null
      }
    },
    {
      "icao": "LYBE",
      "iata": "BEG",
      "name": "Belgrade Nikola Tesla Airport",
      "lat": 44.818401,
      "lon": 20.309099,
      "updatedAt": "031430Z",
      "visibility_m": 10000,
      "taf_visibility_m": 10000,
      "worst_visibility_m": 10000,
      "ceiling_ft": null,
      "hazards": [],
      "severityScore": 0,
      "metarRaw": "METAR LYBE 031430Z 10009KT 070V140 CAVOK 08/00 Q1012 NOSIG",
      "tafRaw": "TAF LYBE 031100Z 0312/0412 12009KT CAVOK TX09/0412Z TN04/0406Z \n  TEMPO 0406/0412 12019KT",
      "minima": {
        "best": {
          "cig_ft": 0,
          "vis_m": 75
        },
        "alt": {
          "cig_ft": 100,
          "vis_m": 300
        },
        "wind": {
          "threshold_kt": 29,
          "use_gust": false,
          "apply": true
        },
        "approach_category": null
      }
    },
    {
      "icao": "LYNI",
      "iata": "INI",
      "name": "Niš Constantine the Great Airport",
      "lat": 43.336538,
      "lon": 21.856242,
      "updatedAt": "031430Z",
      "visibility_m": 10000,
      "taf_visibility_m": 10000,
      "worst_visibility_m": 10000,
      "ceiling_ft": null,
      "hazards": [],
      "severityScore": 0,
      "metarRaw": "METAR LYNI 031430Z 17004KT 130V220 9999 FEW043 SCT080 10/02 Q1015 NOSIG",
      "tafRaw": "TAF LYNI 031100Z 0312/0412 11006KT 9999 SCT040 TX08/0313Z TN01/0406Z \n  TEMPO 0406/0412 09016KT",
      "minima": {
        "best": {
          "cig_ft": 310,
          "vis_m": 700
        },
        "alt": {
          "cig_ft": 360,
          "vis_m": 1200
        },
        "wind": {
          "threshold_kt": 29,
          "use_gust": false,
          "apply": true
        },
        "approach_category": null
      }
    },
    {
      "icao": "OEJN",
      "iata": "JED",
      "name": "King Abdulaziz International Airport",
      "lat": 21.6796,
      "lon": 39.156502,
      "updatedAt": "031400Z",
      "visibility_m": 10000,
      "taf_visibility_m": 7000,
      "worst_visibility_m": 7000,
      "ceiling_ft": null,
      "hazards": [],
      "severityScore": 0,
      "metarRaw": "METAR OEJN 031400Z 32013KT 9999 FEW040 29/18 Q1014 NOSIG",
      "tafRaw": "TAF OEJN 031100Z 0312/0418 28010KT CAVOK \n  BECMG 0318/0320 34006KT 7000 NSC \n  BECMG 0408/0410 30010KT",
      "minima": {
        "best": {
          "cig_ft": 200,
          "vis_m": 550
        },
        "alt": {
          "cig_ft": 420,
          "vis_m": 1200
        },
        "wind": {
          "threshold_kt": 29,
          "use_gust": false,
          "apply": true
        },
        "approach_category": null
      }
    },
    {
      "icao": "OEMA",
      "iata": "MED",
      "name": "Prince Mohammad Bin Abdulaziz Airport",
      "lat": 24.5534,
      "lon": 39.705101,
      "updatedAt": "031400Z",
      "visibility_m": 10000,
      "taf_visibility_m": 10000,
      "worst_visibility_m": 10000,
      "ceiling_ft": null,
      "hazards": [],
      "severityScore": 0,
      "metarRaw": "METAR OEMA 031400Z 29010KT 9999 FEW040 30/07 Q1016 NOSIG",
      "tafRaw": "TAF OEMA 031100Z 0312/0418 30010KT CAVOK \n  BECMG 0322/0400 35006KT \n  BECMG 0408/0410 09008KT",
      "minima": {
        "best": {
          "cig_ft": 210,
          "vis_m": 750
        },
        "alt": {
          "cig_ft": 660,
          "vis_m": 2300
        },
        "wind": {
          "threshold_kt": 29,
          "use_gust": false,
          "apply": true
        },
        "approach_category": null
      }
    },
    {
      "icao": "OMAA",
      "iata": "AUH",
      "name": "Zayed International Airport",
      "lat": 24.440966,
      "lon": 54.649237,
      "updatedAt": "031430Z",
      "visibility_m": 10000,
      "taf_visibility_m": 8000,
      "worst_visibility_m": 8000,
      "ceiling_ft": null,
      "hazards": [],
      "severityScore": 0,
      "metarRaw": "METAR OMAA 031430Z 34007KT CAVOK 24/09 Q1015 NOSIG",
      "tafRaw": "TAF OMAA 031100Z 0312/0418 35010KT 8000 NSC \n  BECMG 0316/0318 06005KT \n  BECMG 0403/0405 15012KT \n  BECMG 0411/0413 35008KT",
      "minima": {
        "best": {
          "cig_ft": 0,
          "vis_m": 75
        },
        "alt": {
          "cig_ft": 100,
          "vis_m": 300
        },
        "wind": {
          "threshold_kt": 29,
          "use_gust": false,
          "apply": true
        },
        "approach_category": null
      }
    }
  ],
  "stats": {
    "icaoCount": 159,
    "metarReturned": 158,
    "tafReturned": 153,
    "stationsWritten": 159,
    "missingMetar": 1,
    "missingTaf": 6
  },
  "errors": []
}