{
  "generatedAt": "2026-01-23T07:03:07.287Z",
  "stations": [
    {
      "icao": "BKPR",
      "iata": "PRN",
      "name": "Priština Adem Jashari International Airport",
      "lat": 42.5728,
      "lon": 21.035801,
      "updatedAt": "230700Z",
      "visibility_m": 200,
      "taf_visibility_m": 150,
      "worst_visibility_m": 150,
      "ceiling_ft": 200,
      "hazards": [
        "FZFG",
        "FG",
        "BR"
      ],
      "severityScore": 100,
      "metarRaw": "METAR BKPR 230700Z 09003KT 0200 R17/0300N R35/0300N FZFG BKN002 M01/M01 Q1004 NOSIG",
      "tafRaw": "TAF BKPR 230530Z 2306/2406 18007KT 0150 FZFG BKN003 \n  BECMG 2308/2310 1500 BR BKN010 \n  BECMG 2310/2312 9999 NSW SCT040 \n  TEMPO 2402/2406 1200 BCFG BKN008"
    },
    {
      "icao": "EDFH",
      "iata": "HHN",
      "name": "Frankfurt-Hahn Airport",
      "lat": 49.946353,
      "lon": 7.261734,
      "updatedAt": "230650Z",
      "visibility_m": 6000,
      "taf_visibility_m": 400,
      "worst_visibility_m": 400,
      "ceiling_ft": 100,
      "hazards": [
        "FZFG",
        "BR",
        "FZDZ",
        "FG",
        "DZ"
      ],
      "severityScore": 100,
      "metarRaw": "METAR EDFH 230650Z 14013KT 6000 NSC M03/M04 Q0995",
      "tafRaw": "TAF EDFH 230500Z 2306/2406 14014KT 6000 SCT030 \n  TEMPO 2306/2311 1500 BR BKN003 \n  PROB30 \n  TEMPO 2306/2309 0400 FZFG VV001 \n  PROB30 \n  TEMPO 2318/2406 4000 -FZDZ BR BKN008"
    },
    {
      "icao": "EDJA",
      "iata": "FMM",
      "name": "Memmingen Allgau Airport",
      "lat": 47.988092,
      "lon": 10.238248,
      "updatedAt": "230650Z",
      "visibility_m": 8000,
      "taf_visibility_m": 500,
      "worst_visibility_m": 500,
      "ceiling_ft": 100,
      "hazards": [
        "FZFG",
        "FG"
      ],
      "severityScore": 100,
      "metarRaw": "METAR EDJA 230650Z 04005KT 8000 NSC M05/M06 Q0997",
      "tafRaw": "TAF EDJA 230500Z 2306/2315 05004KT CAVOK \n  PROB30 \n  TEMPO 2306/2309 0500 FZFG VV001"
    },
    {
      "icao": "EDSB",
      "iata": "FKB",
      "name": "Karlsruhe Baden-Baden Airport",
      "lat": 48.7794,
      "lon": 8.0805,
      "updatedAt": "230650Z",
      "visibility_m": 5000,
      "taf_visibility_m": 800,
      "worst_visibility_m": 800,
      "ceiling_ft": 100,
      "hazards": [
        "BR",
        "FZFG",
        "FG"
      ],
      "severityScore": 100,
      "metarRaw": "METAR EDSB 230650Z 02005KT 5000 BR NSC M02/M03 Q0997",
      "tafRaw": "TAF EDSB 230500Z 2306/2406 02003KT 5000 BR SCT005 \n  TEMPO 2306/2406 3000 BKN005 \n  PROB30 \n  TEMPO 2306/2312 0800 FZFG BKN001"
    },
    {
      "icao": "EPRZ",
      "iata": "RZE",
      "name": "Rzeszów-Jasionka Airport",
      "lat": 50.109791,
      "lon": 22.024155,
      "updatedAt": "230630Z",
      "visibility_m": 4000,
      "taf_visibility_m": 2000,
      "worst_visibility_m": 2000,
      "ceiling_ft": 1700,
      "hazards": [
        "BR",
        "SN",
        "FZRA",
        "FZDZ",
        "RA",
        "DZ"
      ],
      "severityScore": 100,
      "metarRaw": "METAR EPRZ 230630Z 07008KT 4000 -SN BR OVC017 M06/M07 Q1006",
      "tafRaw": "TAF EPRZ 230530Z 2306/2406 09009KT 4000 -SN BR OVC016 \n  PROB40 \n  TEMPO 2306/2315 2000 -SN BR OVC011 \n  BECMG 2315/2317 2000 -SN BR OVC007 \n  PROB30 \n  TEMPO 2315/2324 -FZDZ OVC004 \n  TEMPO 2400/2406 FZRA OVC002"
    },
    {
      "icao": "LBPD",
      "iata": "PDV",
      "name": "Plovdiv International Airport",
      "lat": 42.067799,
      "lon": 24.8508,
      "updatedAt": "230700Z",
      "visibility_m": 3000,
      "taf_visibility_m": 350,
      "worst_visibility_m": 350,
      "ceiling_ft": 100,
      "hazards": [
        "BR",
        "FZFG",
        "FG"
      ],
      "severityScore": 100,
      "metarRaw": "METAR LBPD 230700Z AUTO 00000KT 4600 BR OVC004/// 01/01 Q1006 TEMPO 3000 BR",
      "tafRaw": "TAF LBPD 230500Z 2306/2406 VRB04KT 4000 BR BKN005 OVC010 \n  BECMG 2309/2310 9999 SCT025 \n  BECMG 2316/2318 3000 BR BKN010 \n  TEMPO 2318/2320 1500 BR BKN005 \n  BECMG 2321/2323 0500 FG BKN002 \n  TEMPO 2402/2406 0350 FZFG OVC001"
    },
    {
      "icao": "LBSF",
      "iata": "SOF",
      "name": "Sofia Airport",
      "lat": 42.696357,
      "lon": 23.417671,
      "updatedAt": "230700Z",
      "visibility_m": 400,
      "taf_visibility_m": 500,
      "worst_visibility_m": 400,
      "ceiling_ft": 400,
      "hazards": [
        "FG",
        "FZFG",
        "BR"
      ],
      "severityScore": 100,
      "metarRaw": "METAR LBSF 230700Z VRB02KT 0900 R27/1000U FG SCT002 BKN004 OVC006 01/00 Q1005 TEMPO 0400 FG",
      "tafRaw": "TAF LBSF 230500Z 2306/2406 VRB04KT 1200 BR BKN005 OVC010 \n  TEMPO 2306/2308 0500 BCFG BKN002 OVC004 \n  BECMG 2308/2310 6000 SCT015 SCT040 \n  BECMG 2316/2318 3000 BR BKN010 \n  TEMPO 2318/2321 1200 BR BKN005 \n  BECMG 2321/2323 0500 FZFG OVC002"
    },
    {
      "icao": "LFLL",
      "iata": "LYS",
      "name": "Lyon Saint-Exupéry Airport",
      "lat": 45.725996,
      "lon": 5.090139,
      "updatedAt": "230630Z",
      "visibility_m": 10000,
      "taf_visibility_m": 200,
      "worst_visibility_m": 200,
      "ceiling_ft": 4300,
      "hazards": [
        "FZFG",
        "FG",
        "BR",
        "RA",
        "SHRA"
      ],
      "severityScore": 100,
      "metarRaw": "METAR LFLL 230630Z 14006KT 9999 FEW020 BKN043 BKN140 05/03 Q0995 NOSIG",
      "tafRaw": "TAF LFLL 230500Z 2306/2412 15010KT 9999 SCT016 BKN200 \n  PROB40 \n  TEMPO 2309/2314 17015G25KT -RA BKN030 FEW070TCU \n  TEMPO 2314/2319 28020G30KT 3000 SHRA BKN014 SCT060TCU \n  PROB40 \n  TEMPO 2319/2323 15015G25KT BKN014 \n  BECMG 2323/2324 VRB03KT \n  TEMPO 2402/2412 3000 BR BKN003 \n  PROB40 \n  TEMPO 2403/2411 0500 FG VV/// \n  PROB30 \n  TEMPO 2404/2410 0200 FZFG"
    },
    {
      "icao": "LGTS",
      "iata": "SKG",
      "name": "Thessaloniki Macedonia International Airport",
      "lat": 40.51928,
      "lon": 22.970009,
      "updatedAt": "230650Z",
      "visibility_m": 1500,
      "taf_visibility_m": 300,
      "worst_visibility_m": 300,
      "ceiling_ft": 100,
      "hazards": [
        "TS",
        "FG",
        "BR"
      ],
      "severityScore": 100,
      "metarRaw": "METAR LGTS 230650Z VRB02KT 1500 0500S R10/0250 R28/1600 BCFG SCT003 SCT020 06/06 Q1006 NOSIG",
      "tafRaw": "TAF LGTS 230500Z 2306/2406 VRB03KT 4000 BR SCT008 \n  PROB40 \n  TEMPO 2306/2309 0300 FG BKN001 \n  BECMG 2309/2311 9999 FEW010 SCT030 \n  PROB40 2400/2406 4000 BR \n  PROB30 2400/2406 0300 FG BKN001"
    },
    {
      "icao": "LHBP",
      "iata": "BUD",
      "name": "Budapest Liszt Ferenc International Airport",
      "lat": 47.43018,
      "lon": 19.262393,
      "updatedAt": "230700Z",
      "visibility_m": 6000,
      "taf_visibility_m": 2500,
      "worst_visibility_m": 2500,
      "ceiling_ft": 800,
      "hazards": [
        "FZRA",
        "RA",
        "BR",
        "SN"
      ],
      "severityScore": 100,
      "metarRaw": "METAR LHBP 230700Z 35003KT 6000 NSC M00/M02 Q1005 TEMPO -FZRA",
      "tafRaw": "TAF LHBP 230515Z 2306/2406 10005KT 8000 SCT030 BKN060 \n  TEMPO 2306/2310 VRB02KT 4000 -PLSN -FZRA BKN025 OVC060 \n  TEMPO 2310/2315 4500 -SNRA -RA BKN025 OVC060 \n  TEMPO 2315/2402 2500 -RASN -RA BKN012 OVC035 \n  TEMPO 2402/2406 2500 BR OVC008"
    },
    {
      "icao": "LIMC",
      "iata": "MXP",
      "name": "Milan Malpensa International Airport",
      "lat": 45.6306,
      "lon": 8.72811,
      "updatedAt": "230650Z",
      "visibility_m": 4000,
      "taf_visibility_m": 400,
      "worst_visibility_m": 400,
      "ceiling_ft": 100,
      "hazards": [
        "BR",
        "FG",
        "FZFG",
        "RA",
        "SN"
      ],
      "severityScore": 100,
      "metarRaw": "METAR LIMC 230650Z 01004KT 4000 BR VCFG SCT090 M03/M03 Q1002 NOSIG",
      "tafRaw": "TAF LIMC 230500Z 2306/2412 VRB04KT 5000 BR BKN060 \n  TEMPO 2306/2310 0800 FZFG OVC002 \n  BECMG 2313/2315 2000 -RA BKN010 \n  TEMPO 2321/2402 1000 -SNRA OVC002 \n  TEMPO 2406/2410 0400 FG OVC001 \n  BECMG 2410/2412 3000 BR"
    },
    {
      "icao": "LIME",
      "iata": "BGY",
      "name": "Milan Bergamo Airport / Antonio Locatelli Air Base",
      "lat": 45.670725,
      "lon": 9.709223,
      "updatedAt": "230650Z",
      "visibility_m": 7000,
      "taf_visibility_m": 800,
      "worst_visibility_m": 800,
      "ceiling_ft": 6000,
      "hazards": [
        "FZFG",
        "RA",
        "SN",
        "FG"
      ],
      "severityScore": 100,
      "metarRaw": "METAR LIME 230650Z 01004KT 7000 FEW025 BKN060 03/M01 Q1002 NOSIG",
      "tafRaw": "TAF LIME 230500Z 2306/2406 VRB04KT 6000 SCT060 \n  TEMPO 2306/2310 0800 FZFG OVC002 \n  BECMG 2314/2316 3000 -RA BKN010 \n  TEMPO 2321/2402 1000 -SNRA OVC002"
    },
    {
      "icao": "LIMF",
      "iata": "TRN",
      "name": "Turin Airport",
      "lat": 45.200802,
      "lon": 7.64963,
      "updatedAt": "230650Z",
      "visibility_m": 3500,
      "taf_visibility_m": 400,
      "worst_visibility_m": 400,
      "ceiling_ft": 11000,
      "hazards": [
        "BR",
        "FZFG",
        "FG",
        "RA",
        "SN"
      ],
      "severityScore": 100,
      "metarRaw": "METAR LIMF 230650Z VRB02KT 3500 BR BKN110 M01/M02 Q1002",
      "tafRaw": "TAF LIMF 230500Z 2306/2406 VRB03KT 0400 FZFG OVC001 \n  BECMG 2308/2310 4000 BR FEW010 BKN060 \n  TEMPO 2315/2317 2000 -RA BKN010 \n  TEMPO 2321/2401 1000 -RASN OVC004 \n  BECMG 2401/2403 0400 FG OVC001"
    },
    {
      "icao": "LQBK",
      "iata": "BNX",
      "name": "Banja Luka International Airport",
      "lat": 44.941399,
      "lon": 17.297501,
      "updatedAt": "230630Z",
      "visibility_m": 800,
      "taf_visibility_m": 300,
      "worst_visibility_m": 300,
      "ceiling_ft": 100,
      "hazards": [
        "FZFG",
        "BR",
        "FG"
      ],
      "severityScore": 100,
      "metarRaw": "METAR LQBK 230630Z COR 30003KT 2500 BR BKN003 M02/M02 Q1004 TEMPO 0800 FZFG BKN001",
      "tafRaw": "TAF LQBK 230500Z 2306/2406 VRB02KT 7000 SCT045 TX03/2313Z TNM01/2306Z \n  PROB40 \n  TEMPO 2306/2311 2500 BR BKN008 OVC020 \n  PROB30 \n  TEMPO 2311/2318 BKN013 \n  TEMPO 2318/2406 3000 BR \n  TEMPO 2322/2406 0300 FG BKN002"
    },
    {
      "icao": "LRBS",
      "iata": "BBU",
      "name": "Bucharest Băneasa Aurel Vlaicu International Airport",
      "lat": 44.503133,
      "lon": 26.102944,
      "updatedAt": "230630Z",
      "visibility_m": 300,
      "taf_visibility_m": 100,
      "worst_visibility_m": 100,
      "ceiling_ft": 200,
      "hazards": [
        "FG",
        "BR"
      ],
      "severityScore": 100,
      "metarRaw": "METAR LRBS 230630Z 05004KT 010V090 0300 R07/0550N FG VV002 01/00 Q1007 NOSIG",
      "tafRaw": "TAF LRBS 230500Z 2306/2406 VRB04KT 0100 FG VV001 \n  BECMG 2308/2310 0600 OVC002 \n  TEMPO 2310/2314 1500 BR BKN005 \n  BECMG 2316/2318 0100 FG VV001"
    },
    {
      "icao": "LRBV",
      "iata": "GHV",
      "name": "Brașov-Ghimbav International Airport",
      "lat": 45.70558,
      "lon": 25.522871,
      "updatedAt": "230630Z",
      "visibility_m": 400,
      "taf_visibility_m": 800,
      "worst_visibility_m": 400,
      "ceiling_ft": 300,
      "hazards": [
        "FG",
        "SN",
        "FZFG",
        "BR"
      ],
      "severityScore": 100,
      "metarRaw": "METAR LRBV 230630Z 08001KT 0400 R21/0550N -SN FG VV003 M00/M00 Q1004",
      "tafRaw": "TAF LRBV 230500Z 2306/2315 VRB04KT 3000 BR BKN010 BKN045 \n  TEMPO 2306/2309 0800 -SN FZFG BKN005 BKN020 \n  BECMG 2310/2312 7000 NSW SCT010 BKN045"
    },
    {
      "icao": "LRCL",
      "iata": "CLJ",
      "name": "Cluj Avram Iancu International Airport",
      "lat": 46.787425,
      "lon": 23.684292,
      "updatedAt": "230630Z",
      "visibility_m": 800,
      "taf_visibility_m": 600,
      "worst_visibility_m": 600,
      "ceiling_ft": 400,
      "hazards": [
        "FZFG",
        "SN",
        "FG",
        "RA",
        "BR"
      ],
      "severityScore": 100,
      "metarRaw": "METAR LRCL 230630Z COR 00000KT 0800 R25/1500N -RASN FZFG FEW003 BKN004 M01/M02 Q1005",
      "tafRaw": "TAF LRCL 230500Z 2306/2315 VRB04KT 1500 -SN BR BKN015 OVC020 \n  TEMPO 2306/2308 0600 -SN FZFG OVC002 \n  BECMG 2308/2310 7000 NSW SCT010 SCT030"
    },
    {
      "icao": "LRCV",
      "iata": "CRA",
      "name": "Craiova International Airport",
      "lat": 44.3181,
      "lon": 23.888599,
      "updatedAt": "230630Z",
      "visibility_m": 200,
      "taf_visibility_m": 150,
      "worst_visibility_m": 150,
      "ceiling_ft": 400,
      "hazards": [
        "FG",
        "FZFG",
        "BR"
      ],
      "severityScore": 100,
      "metarRaw": "METAR LRCV 230630Z 00000KT 0200 R26/0300N FG VV004 00/00 Q1006",
      "tafRaw": "TAF LRCV 230500Z 2306/2315 VRB04KT 0350 FZFG VV002 \n  TEMPO 2306/2309 0150 FZFG VV001 \n  BECMG 2309/2311 0800 \n  TEMPO 2311/2315 1500 BR OVC005"
    },
    {
      "icao": "LROP",
      "iata": "OTP",
      "name": "Bucharest Henri Coandă International Airport",
      "lat": 44.571792,
      "lon": 26.103285,
      "updatedAt": "230630Z",
      "visibility_m": 150,
      "taf_visibility_m": 100,
      "worst_visibility_m": 100,
      "ceiling_ft": 200,
      "hazards": [
        "FG",
        "BR"
      ],
      "severityScore": 100,
      "metarRaw": "METAR LROP 230630Z 06007KT 0150 R08R/0550N R08L/0650N FG VV002 01/01 Q1006 NOSIG",
      "tafRaw": "TAF LROP 230500Z 2306/2406 VRB04KT 0100 FG VV001 \n  BECMG 2308/2310 0600 OVC002 \n  TEMPO 2310/2314 1500 BR BKN005 \n  BECMG 2316/2318 0100 FG VV001"
    },
    {
      "icao": "LRSV",
      "iata": "SCV",
      "name": "Suceava Stefan cel Mare Airport",
      "lat": 47.6875,
      "lon": 26.35409927368164,
      "updatedAt": "230630Z",
      "visibility_m": 300,
      "taf_visibility_m": 200,
      "worst_visibility_m": 200,
      "ceiling_ft": 200,
      "hazards": [
        "FZFG",
        "SN",
        "FG"
      ],
      "severityScore": 100,
      "metarRaw": "METAR LRSV 230630Z 10008KT 0300 R34/1000U -SN FZFG VV002 M02/M02 Q1005",
      "tafRaw": "TAF LRSV 230500Z 2306/2315 10006KT 0200 FZFG VV001 \n  TEMPO 2306/2310 0800 -SN FG BKN002 OVC010 \n  BECMG 2310/2312 7000 NSW BKN015 OVC020"
    },
    {
      "icao": "LRTM",
      "iata": "TGM",
      "name": "Târgu Mureş Transilvania International Airport",
      "lat": 46.467701,
      "lon": 24.4125,
      "updatedAt": "230630Z",
      "visibility_m": 700,
      "taf_visibility_m": 600,
      "worst_visibility_m": 600,
      "ceiling_ft": 700,
      "hazards": [
        "FZFG",
        "SN",
        "FG",
        "BR"
      ],
      "severityScore": 100,
      "metarRaw": "METAR LRTM 230630Z 29002KT 0700 R07/1100D -SN FZFG SCT003 BKN007 BKN022 M02/M03 Q1005",
      "tafRaw": "TAF LRTM 230500Z 2306/2315 VRB04KT 1500 -SN BR BKN015 OVC020 \n  TEMPO 2306/2308 0600 -SN FZFG OVC002 \n  BECMG 2308/2310 7000 NSW SCT010 SCT030"
    },
    {
      "icao": "LUKK",
      "iata": "RMO",
      "name": "Chişinău International Airport",
      "lat": 46.9277,
      "lon": 28.931,
      "updatedAt": "230630Z",
      "visibility_m": 800,
      "taf_visibility_m": 800,
      "worst_visibility_m": 800,
      "ceiling_ft": 200,
      "hazards": [
        "FZFG",
        "BR",
        "SN",
        "FG"
      ],
      "severityScore": 100,
      "metarRaw": "METAR LUKK 230630Z 08012KT 1900 -SN BR OVC002 M02/M02 Q1009 TEMPO 0800 -SN FZFG",
      "tafRaw": "TAF LUKK 230511Z 2306/2406 07009KT 4000 -SN BR OVC003 \n  TEMPO 2306/2323 0800 -SN FZFG VV001 \n  TEMPO 2323/2406 1200 BR OVC001"
    },
    {
      "icao": "LWSK",
      "iata": "SKP",
      "name": "Skopje International Airport",
      "lat": 41.958087,
      "lon": 21.622581,
      "updatedAt": "230650Z",
      "visibility_m": 2000,
      "taf_visibility_m": 600,
      "worst_visibility_m": 600,
      "ceiling_ft": 300,
      "hazards": [
        "BR",
        "FZFG",
        "FG"
      ],
      "severityScore": 100,
      "metarRaw": "METAR LWSK 230650Z 00000KT 2000 BR OVC003 M00/M01 Q1006 NOSIG",
      "tafRaw": "TAF LWSK 230520Z 2306/2406 VRB02KT 1500 BR BKN005 \n  TEMPO 2306/2308 0600 FZFG BKN003 \n  BECMG 2308/2310 3000 SCT008 \n  BECMG 2310/2312 7000 NSW FEW020 SCT050"
    },
    {
      "icao": "LYBE",
      "iata": "BEG",
      "name": "Belgrade Nikola Tesla Airport",
      "lat": 44.818401,
      "lon": 20.309099,
      "updatedAt": "230630Z",
      "visibility_m": 3000,
      "taf_visibility_m": 300,
      "worst_visibility_m": 300,
      "ceiling_ft": 100,
      "hazards": [
        "BR",
        "FZFG",
        "FG"
      ],
      "severityScore": 100,
      "metarRaw": "METAR LYBE 230630Z VRB01KT 3000 BR NSC M02/M03 Q1004 NOSIG",
      "tafRaw": "TAF LYBE 230500Z 2306/2406 25005KT 3000 BR NSC TX04/2313Z TNM02/2306Z \n  PROB30 2306/2308 0300 FZFG VV001 \n  BECMG 2311/2313 6000 NSW"
    },
    {
      "icao": "LZKZ",
      "iata": "KSC",
      "name": "Košice International Airport",
      "lat": 48.663101,
      "lon": 21.2411,
      "updatedAt": "230700Z",
      "visibility_m": 3200,
      "taf_visibility_m": 500,
      "worst_visibility_m": 500,
      "ceiling_ft": 700,
      "hazards": [
        "BR",
        "FZFG",
        "FZRA",
        "SN",
        "FG",
        "RA"
      ],
      "severityScore": 100,
      "metarRaw": "METAR LZKZ 230700Z 00000KT 3200 BR BKN007 OVC020 M01/M01 Q1004 NOSIG",
      "tafRaw": "TAF LZKZ 230515Z 2306/2406 VRB02KT 6000 FEW007 SCT010 OVC030 \n  TEMPO 2306/2311 2500 BR BKN007 \n  PROB30 \n  TEMPO 2306/2308 0500 FZFG FEW001 BKN003 \n  TEMPO 2318/2406 2500 -SN BR BKN007 \n  PROB30 \n  TEMPO 2322/2403 1500 SN BR \n  PROB30 \n  TEMPO 2403/2406 -FZRA"
    },
    {
      "icao": "LZTT",
      "iata": "TAT",
      "name": "Poprad-Tatry Airport",
      "lat": 49.073601,
      "lon": 20.2411,
      "updatedAt": "230700Z",
      "visibility_m": 2200,
      "taf_visibility_m": 500,
      "worst_visibility_m": 500,
      "ceiling_ft": 400,
      "hazards": [
        "BR",
        "FZFG",
        "SN",
        "FG"
      ],
      "severityScore": 100,
      "metarRaw": "METAR LZTT 230700Z VRB02KT 2200 BR OVC004 M02/M02 Q1002 NOSIG",
      "tafRaw": "TAF LZTT 230515Z 2306/2406 VRB02KT 8000 SCT009 BKN016 \n  TEMPO 2306/2310 2500 BR BKN006 \n  PROB30 \n  TEMPO 2306/2307 0500 FZFG BKN002 \n  TEMPO 2321/2406 2500 -SN BR BKN008"
    },
    {
      "icao": "UAAA",
      "iata": "ALA",
      "name": "Almaty International Airport",
      "lat": 43.354267,
      "lon": 77.042828,
      "updatedAt": "230630Z",
      "visibility_m": 10000,
      "taf_visibility_m": 300,
      "worst_visibility_m": 300,
      "ceiling_ft": 10000,
      "hazards": [
        "FZFG",
        "BR",
        "SN",
        "SHSN",
        "FG"
      ],
      "severityScore": 100,
      "metarRaw": "METAR UAAA 230630Z 02006MPS 9999 BKN021CB OVC100 M04/M06 Q1023 NOSIG",
      "tafRaw": "TAF UAAA 230506Z 2306/2406 04003MPS 6000 BKN020CB OVC050 TXM03/2308Z TNM11/2402Z \n  TEMPO 2306/2312 34005G10MPS 3100 -SHSN DRSN BKN005 BKN011CB OVC020 \n  FM231200 04003MPS 3100 BR BKN011CB OVC020 \n  TEMPO 2312/2318 18003MPS 1200 BKN004 OVC011 \n  TEMPO 2318/2405 10003MPS 0300 -SN FZFG VV001"
    },
    {
      "icao": "LIPX",
      "iata": "VRN",
      "name": "Verona Villafranca Valerio Catullo Airport",
      "lat": 45.394955,
      "lon": 10.887303,
      "updatedAt": "230650Z",
      "visibility_m": 5000,
      "taf_visibility_m": 800,
      "worst_visibility_m": 800,
      "ceiling_ft": 6000,
      "hazards": [
        "BR",
        "FZFG",
        "RA",
        "FG"
      ],
      "severityScore": 97,
      "metarRaw": "METAR LIPX 230650Z 17001KT 5000 BR BKN060 01/01 Q1002",
      "tafRaw": "TAF LIPX 230500Z 2306/2406 VRB03KT 2000 BR SCT050 \n  TEMPO 2306/2308 0800 FZFG OVC001 \n  BECMG 2308/2310 4000 SCT010 BKN050 \n  BECMG 2316/2318 2000 -RA BKN010"
    },
    {
      "icao": "LQSA",
      "iata": "SJJ",
      "name": "Sarajevo International Airport",
      "lat": 43.8246,
      "lon": 18.331499,
      "updatedAt": "230630Z",
      "visibility_m": 1200,
      "taf_visibility_m": 500,
      "worst_visibility_m": 500,
      "ceiling_ft": 5000,
      "hazards": [
        "BR",
        "FZFG",
        "FG"
      ],
      "severityScore": 95,
      "metarRaw": "METAR LQSA 230630Z 00000KT 1200 R11/1600D BR SCT005 BKN050 M02/M02 Q1003 NOSIG",
      "tafRaw": "TAF LQSA 230500Z 2306/2406 VRB02KT 2000 BR FEW010 SCT045 TX06/2314Z TNM01/2405Z \n  PROB30 2306/2309 0500 FZFG BKN004 \n  BECMG 2309/2312 6000 NSW \n  PROB40 \n  TEMPO 2320/2406 4000 BR \n  PROB30 2400/2406 0500 FZFG BKN003"
    },
    {
      "icao": "EPKT",
      "iata": "KTW",
      "name": "Katowice Wojciech Korfanty International Airport",
      "lat": 50.476015,
      "lon": 19.080705,
      "updatedAt": "230630Z",
      "visibility_m": 5000,
      "taf_visibility_m": 4000,
      "worst_visibility_m": 4000,
      "ceiling_ft": 800,
      "hazards": [
        "BR",
        "SN",
        "FZDZ",
        "DZ"
      ],
      "severityScore": 91,
      "metarRaw": "METAR EPKT 230630Z 06008KT 5000 BR NSC M07/M10 Q1004",
      "tafRaw": "TAF EPKT 230530Z 2306/2406 06008KT 4000 BR BKN040 \n  BECMG 2307/2310 7000 \n  PROB30 \n  TEMPO 2311/2402 4000 -SN BR OVC008 \n  BECMG 2402/2404 4000 BR OVC008 \n  PROB30 \n  TEMPO 2404/2406 -FZDZ"
    },
    {
      "icao": "LIRF",
      "iata": "FCO",
      "name": "Rome–Fiumicino Leonardo da Vinci International Airport",
      "lat": 41.804532,
      "lon": 12.251998,
      "updatedAt": "230650Z",
      "visibility_m": 10000,
      "taf_visibility_m": 4000,
      "worst_visibility_m": 4000,
      "ceiling_ft": 1000,
      "hazards": [
        "TSRA",
        "RA",
        "SHRA",
        "TS"
      ],
      "severityScore": 88,
      "metarRaw": "METAR LIRF 230650Z 08005KT 9999 FEW055 05/04 Q1002 NOSIG",
      "tafRaw": "TAF LIRF 230500Z 2306/2412 07010KT 9999 FEW040 \n  BECMG 2309/2311 14012KT \n  TEMPO 2312/2318 4000 RA BKN014 \n  TEMPO 2318/2402 4000 SHRA BKN010 \n  TEMPO 2402/2406 4000 TSRA \n  TEMPO 2406/2409 RA"
    },
    {
      "icao": "LQTZ",
      "iata": "TZL",
      "name": "Tuzla International Airport",
      "lat": 44.459858,
      "lon": 18.723627,
      "updatedAt": "230630Z",
      "visibility_m": 1800,
      "taf_visibility_m": 200,
      "worst_visibility_m": 200,
      "ceiling_ft": 5500,
      "hazards": [
        "BR",
        "FG"
      ],
      "severityScore": 85,
      "metarRaw": "METAR LQTZ 230630Z 29002KT 1800 BR SCT004 BKN055 M01/M01 Q1003",
      "tafRaw": "TAF LQTZ 230500Z 2306/2406 VRB02KT 6000 SCT050 TX06/2313Z TNM01/2306Z \n  TEMPO 2306/2311 1500 BR BKN005 \n  BECMG 2316/2318 2000 BR \n  TEMPO 2319/2406 0200 FG BKN001"
    },
    {
      "icao": "LRSB",
      "iata": "SBZ",
      "name": "Sibiu International Airport",
      "lat": 45.785841,
      "lon": 24.086666,
      "updatedAt": "230630Z",
      "visibility_m": 5000,
      "taf_visibility_m": 600,
      "worst_visibility_m": 600,
      "ceiling_ft": 4600,
      "hazards": [
        "BR",
        "FZFG",
        "FG"
      ],
      "severityScore": 85,
      "metarRaw": "METAR LRSB 230630Z 21001KT 5000 BR SCT035 OVC046 M01/M02 Q1004",
      "tafRaw": "TAF LRSB 230500Z 2306/2406 VRB04KT 5000 BR BKN035 BKN060 \n  BECMG 2306/2308 9999 NSW \n  BECMG 2321/2323 3000 BR BKN010 \n  TEMPO 2400/2406 1500 BR \n  PROB40 2401/2406 0600 FZFG OVC002"
    },
    {
      "icao": "LYNI",
      "iata": "INI",
      "name": "Niš Constantine the Great Airport",
      "lat": 43.336538,
      "lon": 21.856242,
      "updatedAt": "230630Z",
      "visibility_m": 1500,
      "taf_visibility_m": 800,
      "worst_visibility_m": 800,
      "ceiling_ft": null,
      "hazards": [
        "BR",
        "FZFG",
        "FG"
      ],
      "severityScore": 85,
      "metarRaw": "METAR LYNI 230630Z VRB02KT 3500 BR NSC M02/M02 Q1005 TEMPO 1500",
      "tafRaw": "TAF LYNI 230500Z 2306/2406 08004KT 5000 BR NSC TX10/2313Z TNM02/2306Z \n  PROB30 2306/2308 0800 FZFG \n  BECMG 2309/2311 8000 NSW"
    },
    {
      "icao": "LZIB",
      "iata": "BTS",
      "name": "M. R. Štefánik Airport",
      "lat": 48.1702,
      "lon": 17.2127,
      "updatedAt": "230700Z",
      "visibility_m": 5000,
      "taf_visibility_m": 2500,
      "worst_visibility_m": 2500,
      "ceiling_ft": 1300,
      "hazards": [
        "BR",
        "SN",
        "FZDZ",
        "DZ"
      ],
      "severityScore": 78,
      "metarRaw": "METAR LZIB 230700Z VRB02KT 5000 BR FEW008 OVC013 M02/M04 Q1004 NOSIG",
      "tafRaw": "TAF LZIB 230515Z 2306/2406 08005KT 6000 FEW008 BKN017 \n  PROB30 \n  TEMPO 2306/2308 2500 BR BKN008 \n  TEMPO 2308/2403 2500 -FZDZ BR BKN007 \n  PROB30 \n  TEMPO 2308/2318 -SN BR"
    },
    {
      "icao": "GMAD",
      "iata": "AGA",
      "name": "Al Massira Airport",
      "lat": 30.322478,
      "lon": -9.412003,
      "updatedAt": "230630Z",
      "visibility_m": 4000,
      "taf_visibility_m": 1500,
      "worst_visibility_m": 1500,
      "ceiling_ft": 400,
      "hazards": [
        "BR",
        "RA",
        "DZ"
      ],
      "severityScore": 77,
      "metarRaw": "METAR GMAD 230630Z 05004KT 4000 BR OVC004 12/12 Q1016 NOSIG",
      "tafRaw": "TAF GMAD 230500Z 2306/2412 07004KT 5000 BKN008 \n  TEMPO 2306/2312 1500 DZ \n  TEMPO 2312/2318 4000 RA BKN013"
    },
    {
      "icao": "LPFR",
      "iata": "FAO",
      "name": "Faro - Gago Coutinho International Airport",
      "lat": 37.015909,
      "lon": -7.970939,
      "updatedAt": "230630Z",
      "visibility_m": 10000,
      "taf_visibility_m": 3000,
      "worst_visibility_m": 3000,
      "ceiling_ft": 3000,
      "hazards": [
        "TSRA",
        "SHRA",
        "TS",
        "RA"
      ],
      "severityScore": 76,
      "metarRaw": "METAR LPFR 230630Z VRB02KT 9999 FEW020 SCT045 11/08 Q1006",
      "tafRaw": "TAF LPFR 230500Z 2306/2406 30012KT 9999 SCT025 \n  BECMG 2309/2311 27018KT \n  TEMPO 2311/2406 27023G35KT 8000 SHRA SCT012 FEW020CB BKN030 \n  PROB30 \n  TEMPO 2312/2321 VRB30G45KT 3000 TSRA SCT015CB"
    },
    {
      "icao": "EPRA",
      "iata": "RDO",
      "name": "Warsaw Radom Airport",
      "lat": 51.38937,
      "lon": 21.214742,
      "updatedAt": "230630Z",
      "visibility_m": 5000,
      "taf_visibility_m": 4000,
      "worst_visibility_m": 4000,
      "ceiling_ft": 400,
      "hazards": [
        "BR",
        "RA",
        "SN"
      ],
      "severityScore": 75,
      "metarRaw": "METAR EPRA 230630Z 07008KT 5000 BR OVC004 M08/M09 Q1008",
      "tafRaw": "TAF EPRA 230530Z 2306/2315 08010KT 7000 OVC006 \n  TEMPO 2306/2315 4000 -SN BR OVC003"
    },
    {
      "icao": "LKMT",
      "iata": "OSR",
      "name": "Leoš Janáček Airport Ostrava",
      "lat": 49.696301,
      "lon": 18.111099,
      "updatedAt": "230630Z",
      "visibility_m": 2000,
      "taf_visibility_m": 800,
      "worst_visibility_m": 800,
      "ceiling_ft": 2900,
      "hazards": [
        "BR",
        "FG",
        "SN"
      ],
      "severityScore": 73,
      "metarRaw": "METAR LKMT 230630Z 03004KT 3500 BR OVC029 M02/M04 Q1003 TEMPO 2000 BR",
      "tafRaw": "TAF LKMT 230500Z 2306/2406 02005KT 9999 BKN025 \n  TEMPO 2306/2310 6000 BKN015 \n  PROB30 \n  TEMPO 2306/2308 3500 -SN BR BKN007 \n  TEMPO 2401/2406 4500 BR BKN012 OVC021 \n  PROB30 \n  TEMPO 2404/2406 0800 -SN FG BKN003"
    },
    {
      "icao": "LIRP",
      "iata": "PSA",
      "name": "Pisa International Airport",
      "lat": 43.683899,
      "lon": 10.3927,
      "updatedAt": "230645Z",
      "visibility_m": 10000,
      "taf_visibility_m": 3000,
      "worst_visibility_m": 3000,
      "ceiling_ft": 2500,
      "hazards": [
        "DZ",
        "TSRA",
        "RA",
        "TS"
      ],
      "severityScore": 72,
      "metarRaw": "METAR LIRP 230645Z COR 10007KT 9999 -DZ SCT040 SCT050 06/05 Q1000 NOSIG",
      "tafRaw": "TAF LIRP 230500Z 2306/2406 11003KT 9999 SCT040 BKN080 \n  BECMG 2308/2310 6000 -RA SCT015 BKN040 \n  PROB40 \n  TEMPO 2316/2322 15010KT 3000 TSRA SCT015CB BKN025"
    },
    {
      "icao": "LYPG",
      "iata": "TGD",
      "name": "Podgorica Airport / Podgorica Golubovci Airbase",
      "lat": 42.359402,
      "lon": 19.2519,
      "updatedAt": "230630Z",
      "visibility_m": 600,
      "taf_visibility_m": 2000,
      "worst_visibility_m": 600,
      "ceiling_ft": 7000,
      "hazards": [
        "FG",
        "BR",
        "RA"
      ],
      "severityScore": 67,
      "metarRaw": "METAR LYPG 230630Z VRB01KT 0900 0500SE R18/1100U R36/0600U FG FEW014 SCT034 BKN070 06/06 Q1004 TEMPO 0600",
      "tafRaw": "TAF LYPG 230500Z 2306/2406 17006KT 9999 FEW015 BKN040 BKN070 TX12/2313Z TN06/2306Z \n  TEMPO 2306/2308 2000 BR \n  TEMPO 2320/2324 5000 BR \n  TEMPO 2400/2406 4000 RA"
    },
    {
      "icao": "LIBR",
      "iata": "BDS",
      "name": "Brindisi Airport",
      "lat": 40.6576,
      "lon": 17.947001,
      "updatedAt": "230650Z",
      "visibility_m": 10000,
      "taf_visibility_m": 1200,
      "worst_visibility_m": 1200,
      "ceiling_ft": null,
      "hazards": [
        "BR",
        "SHRA",
        "FG",
        "RA"
      ],
      "severityScore": 66,
      "metarRaw": "METAR LIBR 230650Z 18001KT CAVOK 09/09 Q1002",
      "tafRaw": "TAF LIBR 230500Z 2306/2406 VRB05KT 7000 SCT020 \n  TEMPO 2306/2308 1200 BCFG \n  TEMPO 2312/2316 SHRA \n  BECMG 2318/2320 17010KT"
    },
    {
      "icao": "LHDC",
      "iata": "DEB",
      "name": "Debrecen International Airport",
      "lat": 47.488899,
      "lon": 21.615299,
      "updatedAt": "230615Z",
      "visibility_m": 6000,
      "taf_visibility_m": 4500,
      "worst_visibility_m": 4500,
      "ceiling_ft": 4000,
      "hazards": [
        "FZRA",
        "SN",
        "RA"
      ],
      "severityScore": 65,
      "metarRaw": "METAR LHDC 230615Z AUTO VRB01KT 6000 NSC M01/M03 Q1005 NOSIG",
      "tafRaw": "TAF LHDC 230515Z 2306/2315 VRB02KT 8000 SCT035 BKN075 \n  TEMPO 2306/2309 4500 -PLSN -FZRA SCT020 BKN040 \n  TEMPO 2309/2312 4500 -RASN SCT020 BKN040"
    },
    {
      "icao": "EPLB",
      "iata": "LUZ",
      "name": "Lublin Airport",
      "lat": 51.240157,
      "lon": 22.713461,
      "updatedAt": "230630Z",
      "visibility_m": 4800,
      "taf_visibility_m": 3000,
      "worst_visibility_m": 3000,
      "ceiling_ft": 300,
      "hazards": [
        "BR",
        "SN"
      ],
      "severityScore": 63,
      "metarRaw": "METAR EPLB 230630Z 06010KT 4800 -SN BR OVC003 M07/M08 Q1008",
      "tafRaw": "TAF EPLB 230530Z 2306/2406 08010KT 6000 BKN009 OVC015 \n  TEMPO 2306/2406 3000 -SN BR BKN003 OVC006"
    },
    {
      "icao": "LPPT",
      "iata": "LIS",
      "name": "Lisbon Humberto Delgado Airport",
      "lat": 38.7813,
      "lon": -9.13592,
      "updatedAt": "230630Z",
      "visibility_m": 10000,
      "taf_visibility_m": 3000,
      "worst_visibility_m": 3000,
      "ceiling_ft": 1500,
      "hazards": [
        "SHRA",
        "TS",
        "RA"
      ],
      "severityScore": 63,
      "metarRaw": "METAR LPPT 230630Z 28006KT 250V320 9999 FEW015 10/06 Q1004",
      "tafRaw": "TAF LPPT 230500Z 2306/2412 29015KT 9999 SCT020 FEW025TCU \n  TEMPO 2306/2412 29018G30KT 5000 SHRA SCT015 FEW025CB BKN035 \n  PROB40 \n  TEMPO 2306/2412 29028G43KT 3000 TSRAGS BKN015 SCT020CB"
    },
    {
      "icao": "LEMG",
      "iata": "AGP",
      "name": "Málaga-Costa del Sol Airport",
      "lat": 36.6749,
      "lon": -4.49911,
      "updatedAt": "230630Z",
      "visibility_m": 10000,
      "taf_visibility_m": 2000,
      "worst_visibility_m": 2000,
      "ceiling_ft": 5500,
      "hazards": [
        "RA",
        "TSRA",
        "TS"
      ],
      "severityScore": 62,
      "metarRaw": "METAR LEMG 230630Z 30004KT 9999 -RA FEW030 SCT045 BKN055 11/11 Q1004 NOSIG",
      "tafRaw": "TAF LEMG 230500Z 2306/2406 30010KT 9999 SCT030 TX18/2314Z TN10/2307Z \n  PROB30 \n  TEMPO 2306/2308 31015G28KT 4000 RA BKN010 \n  PROB30 \n  TEMPO 2317/2323 4000 RA BKN014 \n  PROB30 \n  TEMPO 2318/2322 2000 TSRA FEW030CB \n  BECMG 2403/2405 VRB03KT"
    },
    {
      "icao": "LIRN",
      "iata": "NAP",
      "name": "Naples International Airport",
      "lat": 40.886002,
      "lon": 14.2908,
      "updatedAt": "230650Z",
      "visibility_m": 10000,
      "taf_visibility_m": 3000,
      "worst_visibility_m": 3000,
      "ceiling_ft": null,
      "hazards": [
        "TSRA",
        "TS",
        "RA"
      ],
      "severityScore": 62,
      "metarRaw": "METAR LIRN 230650Z 35003KT CAVOK 06/04 Q1002 NOSIG",
      "tafRaw": "TAF LIRN 230500Z 2306/2406 VRB05KT 9999 SCT050 \n  TEMPO 2400/2406 16015KT 3000 TSRA"
    },
    {
      "icao": "OEMA",
      "iata": "MED",
      "name": "Prince Mohammad Bin Abdulaziz Airport",
      "lat": 24.5534,
      "lon": 39.705101,
      "updatedAt": "230700Z",
      "visibility_m": 7000,
      "taf_visibility_m": 2000,
      "worst_visibility_m": 2000,
      "ceiling_ft": 4000,
      "hazards": [
        "TSRA",
        "TS",
        "RA"
      ],
      "severityScore": 62,
      "metarRaw": "METAR OEMA 230700Z 09007KT 7000 NSC 18/M08 Q1020 NOSIG",
      "tafRaw": "TAF OEMA 230500Z 2306/2412 24015KT 6000 FEW030 \n  TEMPO 2306/2318 VRB25KT 2000 BLDU TSRA FEW030CB BKN040 \n  BECMG 2318/2320 VRB03KT \n  BECMG 2406/2408 24012KT"
    },
    {
      "icao": "EGBB",
      "iata": "BHX",
      "name": "Birmingham Airport",
      "lat": 52.453899,
      "lon": -1.74803,
      "updatedAt": "230650Z",
      "visibility_m": 10000,
      "taf_visibility_m": 6000,
      "worst_visibility_m": 6000,
      "ceiling_ft": 900,
      "hazards": [
        "RA",
        "SHRA",
        "DZ"
      ],
      "severityScore": 61,
      "metarRaw": "METAR EGBB 230650Z 11009KT 9999 BKN009 06/04 Q0984",
      "tafRaw": "TAF EGBB 230502Z 2306/2406 12012KT 9999 SCT020 \n  TEMPO 2306/2307 8000 BKN006 \n  TEMPO 2307/2313 6000 RA -RADZ BKN012 \n  PROB30 \n  TEMPO 2307/2313 RADZ BKN008 \n  PROB30 \n  TEMPO 2307/2311 13015G25KT \n  PROB30 \n  TEMPO 2313/2320 7000 SHRA \n  PROB40 \n  TEMPO 2319/2406 11015G28KT"
    },
    {
      "icao": "LFLS",
      "iata": "GNB",
      "name": "Grenoble Alpes Isère Airport",
      "lat": 45.3629,
      "lon": 5.32937,
      "updatedAt": "230630Z",
      "visibility_m": 400,
      "taf_visibility_m": null,
      "worst_visibility_m": 400,
      "ceiling_ft": null,
      "hazards": [
        "FG"
      ],
      "severityScore": 60,
      "metarRaw": "METAR LFLS 230630Z AUTO 08005KT 1300 0400 R09/1900D R27/0450N BCFG VV/// 01/01 Q0995 NOSIG",
      "tafRaw": null
    },
    {
      "icao": "LJLJ",
      "iata": "LJU",
      "name": "Ljubljana Jože Pučnik Airport",
      "lat": 46.223701,
      "lon": 14.4576,
      "updatedAt": "230630Z",
      "visibility_m": 10000,
      "taf_visibility_m": 4000,
      "worst_visibility_m": 4000,
      "ceiling_ft": 4300,
      "hazards": [
        "BR",
        "FZRA",
        "RA"
      ],
      "severityScore": 57,
      "metarRaw": "METAR LJLJ 230630Z 35001KT 9999 BKN043 M05/M06 Q1002 NOSIG",
      "tafRaw": "TAF LJLJ 230500Z 2306/2406 12003KT 9999 BKN043 \n  PROB30 \n  TEMPO 2315/2318 -FZRA \n  TEMPO 2318/2406 4000 -FZRA BR BKN008 OVC025"
    },
    {
      "icao": "LOWW",
      "iata": "VIE",
      "name": "Vienna International Airport",
      "lat": 48.110298,
      "lon": 16.5697,
      "updatedAt": "230650Z",
      "visibility_m": 2800,
      "taf_visibility_m": 2000,
      "worst_visibility_m": 2000,
      "ceiling_ft": 600,
      "hazards": [
        "BR",
        "FG"
      ],
      "severityScore": 55,
      "metarRaw": "METAR LOWW 230650Z 22004KT 3700 BR FEW005 BKN006 M05/M07 Q1004 TEMPO 2800 BR",
      "tafRaw": "TAF LOWW 230515Z 2306/2412 VRB04KT 6000 OVC010 TX00/2412Z TNM05/2307Z \n  TEMPO 2306/2310 4000 BR OVC006 \n  PROB30 \n  TEMPO 2306/2308 2500 BCFG OVC004 \n  TEMPO 2311/2322 12007KT \n  BECMG 2322/2324 2000 BCFG OVC004"
    },
    {
      "icao": "LIPY",
      "iata": "AOI",
      "name": "Marche Airport",
      "lat": 43.616299,
      "lon": 13.3623,
      "updatedAt": "230650Z",
      "visibility_m": 5000,
      "taf_visibility_m": 2000,
      "worst_visibility_m": 2000,
      "ceiling_ft": 1400,
      "hazards": [
        "BR",
        "RA",
        "FG"
      ],
      "severityScore": 54,
      "metarRaw": "METAR LIPY 230650Z AUTO 19003KT 170V260 5000 BR NCD 05/03 Q1003",
      "tafRaw": "TAF LIPY 230500Z 2306/2406 VRB05KT 7000 BKN040 \n  TEMPO 2306/2308 2000 BCFG BKN014 \n  BECMG 2312/2314 13010KT \n  TEMPO 2318/2406 RA \n  BECMG 2400/2402 VRB05KT"
    },
    {
      "icao": "EPGD",
      "iata": "GDN",
      "name": "Gdańsk Lech Wałęsa Airport",
      "lat": 54.377602,
      "lon": 18.4662,
      "updatedAt": "230630Z",
      "visibility_m": 7000,
      "taf_visibility_m": 2500,
      "worst_visibility_m": 2500,
      "ceiling_ft": 500,
      "hazards": [
        "SN",
        "BR"
      ],
      "severityScore": 53,
      "metarRaw": "METAR EPGD 230630Z 11013KT 7000 -SN OVC005 M10/M11 Q1011",
      "tafRaw": "TAF EPGD 230530Z 2306/2406 10010KT 6000 OVC005 \n  TEMPO 2306/2406 2500 -SG BR OVC003"
    },
    {
      "icao": "EPPO",
      "iata": "POZ",
      "name": "Poznań-Ławica Airport",
      "lat": 52.421598,
      "lon": 16.823359,
      "updatedAt": "230630Z",
      "visibility_m": 4400,
      "taf_visibility_m": 4000,
      "worst_visibility_m": 4000,
      "ceiling_ft": 700,
      "hazards": [
        "BR",
        "SN"
      ],
      "severityScore": 53,
      "metarRaw": "METAR EPPO 230630Z 09009KT 4400 -SN BR BKN007 M09/M11 Q1007",
      "tafRaw": "TAF EPPO 230530Z 2306/2406 09010KT 6000 BKN008 \n  TEMPO 2306/2309 4000 -SN BR \n  TEMPO 2309/2314 4000 -SN BR BKN011 \n  TEMPO 2318/2406 4000 -SN BR BKN003"
    },
    {
      "icao": "EPSY",
      "iata": "SZY",
      "name": "Olsztyn-Mazury Airport",
      "lat": 53.481899,
      "lon": 20.9377,
      "updatedAt": "230630Z",
      "visibility_m": 10000,
      "taf_visibility_m": 4000,
      "worst_visibility_m": 4000,
      "ceiling_ft": 800,
      "hazards": [
        "BR",
        "SN"
      ],
      "severityScore": 53,
      "metarRaw": "METAR EPSY 230630Z 07007KT 010V150 9999 OVC008 M09/M11 Q1011",
      "tafRaw": "TAF EPSY 230530Z 2306/2315 08008KT 8000 BKN011 \n  PROB40 \n  TEMPO 2306/2315 4000 -SN BR OVC007 \n  PROB30 \n  TEMPO 2306/2309 BKN004 \n  TEMPO 2309/2315 BKN017"
    },
    {
      "icao": "EPWA",
      "iata": "WAW",
      "name": "Warsaw Chopin Airport",
      "lat": 52.165699,
      "lon": 20.9671,
      "updatedAt": "230630Z",
      "visibility_m": 9000,
      "taf_visibility_m": 4000,
      "worst_visibility_m": 4000,
      "ceiling_ft": 900,
      "hazards": [
        "BR",
        "SN"
      ],
      "severityScore": 53,
      "metarRaw": "METAR EPWA 230630Z 08009KT 9000 BKN012 M08/M09 Q1009 TEMPO BKN009",
      "tafRaw": "TAF EPWA 230530Z 2306/2406 08010KT 8000 SCT010 BKN018 \n  TEMPO 2306/2406 4000 -SN BR BKN004 OVC010"
    },
    {
      "icao": "LIPE",
      "iata": "BLQ",
      "name": "Bologna Guglielmo Marconi Airport",
      "lat": 44.5354,
      "lon": 11.2887,
      "updatedAt": "230650Z",
      "visibility_m": 1500,
      "taf_visibility_m": 1200,
      "worst_visibility_m": 1200,
      "ceiling_ft": 5500,
      "hazards": [
        "BR",
        "RA",
        "FG"
      ],
      "severityScore": 52,
      "metarRaw": "METAR LIPE 230650Z 25003KT 1500 -RA BR BKN055 02/01 Q1003",
      "tafRaw": "TAF LIPE 230500Z 2306/2406 VRB05KT 6000 SCT040 \n  TEMPO 2306/2308 1200 BCFG BKN003 \n  BECMG 2310/2312 4000 RA BKN012"
    },
    {
      "icao": "EGGW",
      "iata": "LTN",
      "name": "London Luton Airport",
      "lat": 51.874699,
      "lon": -0.368333,
      "updatedAt": "230650Z",
      "visibility_m": 10000,
      "taf_visibility_m": 4000,
      "worst_visibility_m": 4000,
      "ceiling_ft": 600,
      "hazards": [
        "RA",
        "SHRA"
      ],
      "severityScore": 51,
      "metarRaw": "METAR EGGW 230650Z AUTO 12013KT 9999 BKN006 06/05 Q0984",
      "tafRaw": "TAF EGGW 230504Z 2306/2406 12013KT 9999 SCT008 \n  TEMPO 2306/2313 7000 RA BKN008 \n  PROB40 \n  TEMPO 2306/2312 13016G26KT BKN004 \n  PROB30 \n  TEMPO 2312/2318 4000 +SHRA \n  TEMPO 2318/2401 13016G26KT \n  PROB30 \n  TEMPO 2318/2406 9000 -RA BKN012"
    },
    {
      "icao": "LFMN",
      "iata": "NCE",
      "name": "Nice-Côte d'Azur Airport",
      "lat": 43.658401,
      "lon": 7.21587,
      "updatedAt": "230630Z",
      "visibility_m": 10000,
      "taf_visibility_m": 3000,
      "worst_visibility_m": 3000,
      "ceiling_ft": 5000,
      "hazards": [
        "SHRA",
        "TS",
        "RA"
      ],
      "severityScore": 51,
      "metarRaw": "METAR LFMN 230630Z 33009KT 9999 OVC050 08/05 Q1000 NOSIG",
      "tafRaw": "TAF LFMN 230200Z 2303/2409 34010KT 9999 OVC050 \n  TEMPO 2310/2403 6000 SHRA BKN020TCU \n  BECMG 2312/2314 09012KT \n  PROB30 \n  TEMPO 2320/2401 VRB15G25KT 3000 TSRAGR BKN012 BKN020CB \n  BECMG 2321/2323 34012KT \n  TEMPO 2408/2409 -SHRA BKN020TCU"
    },
    {
      "icao": "LMML",
      "iata": "MLA",
      "name": "Malta International Airport",
      "lat": 35.857498,
      "lon": 14.4775,
      "updatedAt": "230645Z",
      "visibility_m": 10000,
      "taf_visibility_m": 5000,
      "worst_visibility_m": 5000,
      "ceiling_ft": null,
      "hazards": [
        "TS",
        "SHRA",
        "RA"
      ],
      "severityScore": 51,
      "metarRaw": "METAR LMML 230645Z 30009KT 250V320 9999 TS SCT015CB 13/11 Q1002 NOSIG",
      "tafRaw": "TAF LMML 230500Z 2306/2406 30014KT 9999 FEW025 \n  TEMPO 2306/2309 29018G28KT 8000 SHRA SCT018TCU \n  PROB40 \n  TEMPO 2306/2309 5000 TSRAGS BKN015CB \n  BECMG 2322/2401 23015KT"
    },
    {
      "icao": "LRBC",
      "iata": "BCM",
      "name": "Bacău George Enescu International  Airport",
      "lat": 46.5219,
      "lon": 26.910299,
      "updatedAt": "230630Z",
      "visibility_m": 1500,
      "taf_visibility_m": 1500,
      "worst_visibility_m": 1500,
      "ceiling_ft": 1200,
      "hazards": [
        "BR",
        "SN"
      ],
      "severityScore": 50,
      "metarRaw": "METAR LRBC 230630Z 15004KT 1500 -SN BR FEW004 OVC012 01/01 Q1007",
      "tafRaw": "TAF LRBC 230500Z 2306/2315 16006KT 5000 -SN BR BKN010 OVC015 \n  TEMPO 2306/2310 1500 -SN BR BKN002 OVC010 \n  BECMG 2310/2312 7000 NSW BKN015 OVC020"
    },
    {
      "icao": "LPPR",
      "iata": "OPO",
      "name": "Francisco de Sá Carneiro Airport",
      "lat": 41.2481002808,
      "lon": -8.68138980865,
      "updatedAt": "230630Z",
      "visibility_m": 10000,
      "taf_visibility_m": 2000,
      "worst_visibility_m": 2000,
      "ceiling_ft": 1200,
      "hazards": [
        "TS",
        "RA"
      ],
      "severityScore": 49,
      "metarRaw": "METAR LPPR 230630Z 26009G19KT 190V320 9999 FEW022 FEW025CB SCT035 10/04 Q0999",
      "tafRaw": "TAF LPPR 230500Z 2306/2406 26015KT 9999 SCT020 FEW025TCU \n  TEMPO 2306/2406 26020G35KT 5000 SHRAGS SCT015 FEW020CB BKN035 \n  PROB40 \n  TEMPO 2306/2406 26028G43KT 2000 +TSRAGR BKN012 SCT018CB"
    },
    {
      "icao": "EDLW",
      "iata": "DTM",
      "name": "Dortmund Airport",
      "lat": 51.518299,
      "lon": 7.61224,
      "updatedAt": "230650Z",
      "visibility_m": 10000,
      "taf_visibility_m": 10000,
      "worst_visibility_m": 10000,
      "ceiling_ft": null,
      "hazards": [
        "FZRA",
        "RA"
      ],
      "severityScore": 47,
      "metarRaw": "METAR EDLW 230650Z 11006KT 080V140 9999 SCT040 05/01 Q0996",
      "tafRaw": "TAF EDLW 230500Z 2306/2406 13007KT 9999 SCT035 \n  BECMG 2309/2312 07008KT \n  PROB30 \n  TEMPO 2402/2406 -FZRA"
    },
    {
      "icao": "EGNM",
      "iata": "LBA",
      "name": "Leeds Bradford Airport",
      "lat": 53.865898,
      "lon": -1.66057,
      "updatedAt": "230650Z",
      "visibility_m": 10000,
      "taf_visibility_m": 3000,
      "worst_visibility_m": 3000,
      "ceiling_ft": 1200,
      "hazards": [
        "BR",
        "RA",
        "DZ"
      ],
      "severityScore": 44,
      "metarRaw": "METAR EGNM 230650Z 10010KT 9999 SCT006 BKN012 05/04 Q0986",
      "tafRaw": "TAF EGNM 230500Z 2306/2406 12012KT 9999 BKN018 \n  TEMPO 2306/2309 BKN014 \n  PROB30 \n  TEMPO 2306/2309 3000 BR RADZ BKN004 \n  TEMPO 2312/2317 6000 RA BKN014 \n  PROB30 \n  TEMPO 2312/2317 BKN008 \n  PROB30 \n  TEMPO 2317/2406 BKN012"
    },
    {
      "icao": "LFOB",
      "iata": "BVA",
      "name": "Beauvais Tillé airport",
      "lat": 49.454399,
      "lon": 2.11278,
      "updatedAt": "230630Z",
      "visibility_m": 4500,
      "taf_visibility_m": 4000,
      "worst_visibility_m": 4000,
      "ceiling_ft": 1400,
      "hazards": [
        "RA",
        "DZ",
        "BR"
      ],
      "severityScore": 44,
      "metarRaw": "METAR LFOB 230630Z AUTO 13010KT 9999 -RADZ FEW008 BKN035 BKN046 05/05 Q0989 TEMPO 4500 -RA SCT010 BKN014 BKN030",
      "tafRaw": "TAF LFOB 230500Z 2306/2406 14010G20KT 9999 BKN006 BKN030 \n  TEMPO 2306/2309 4500 -RA SCT010 BKN014 BKN030 \n  BECMG 2309/2311 BKN020 \n  FM240400 13005KT CAVOK \n  PROB30 2404/2406 4000 BR"
    },
    {
      "icao": "EETN",
      "iata": "TLL",
      "name": "Lennart Meri Tallinn Airport",
      "lat": 59.413246,
      "lon": 24.83264,
      "updatedAt": "230650Z",
      "visibility_m": 4000,
      "taf_visibility_m": 10000,
      "worst_visibility_m": 4000,
      "ceiling_ft": 700,
      "hazards": [
        "SN"
      ],
      "severityScore": 43,
      "metarRaw": "METAR EETN 230650Z 10007KT 9999 -SN OVC007 M09/M10 Q1024 TEMPO 4000 SN",
      "tafRaw": "TAF EETN 230530Z 2306/2406 12010KT 9999 OVC008 \n  PROB40 \n  TEMPO 2308/2317 BKN004 OVC008 \n  BECMG 2318/2320 OVC012 \n  PROB40 \n  TEMPO 2322/2402 BKN015 \n  TEMPO 2402/2406 BKN008"
    },
    {
      "icao": "LIRZ",
      "iata": "PEG",
      "name": "Perugia San Francesco d'Assisi – Umbria International Airport",
      "lat": 43.095901,
      "lon": 12.5132,
      "updatedAt": "230650Z",
      "visibility_m": 10000,
      "taf_visibility_m": 1200,
      "worst_visibility_m": 1200,
      "ceiling_ft": 4500,
      "hazards": [
        "RA",
        "FG"
      ],
      "severityScore": 42,
      "metarRaw": "METAR LIRZ 230650Z AUTO VRB02KT 9999 NCD M00/M00 Q1002",
      "tafRaw": "TAF LIRZ 230500Z 2306/2406 VRB05KT 9999 BKN045 \n  TEMPO 2306/2309 1200 BCFG \n  TEMPO 2312/2403 4000 RA"
    },
    {
      "icao": "EPKK",
      "iata": "KRK",
      "name": "Kraków John Paul II International Airport",
      "lat": 50.077702,
      "lon": 19.7848,
      "updatedAt": "230630Z",
      "visibility_m": 4000,
      "taf_visibility_m": null,
      "worst_visibility_m": 4000,
      "ceiling_ft": 700,
      "hazards": [
        "BR"
      ],
      "severityScore": 40,
      "metarRaw": "METAR EPKK 230630Z 07009KT 4000 BR OVC007 M07/M09 Q1005",
      "tafRaw": null
    },
    {
      "icao": "EPMO",
      "iata": "WMI",
      "name": "Modlin Airport",
      "lat": 52.451099,
      "lon": 20.6518,
      "updatedAt": "230630Z",
      "visibility_m": 7000,
      "taf_visibility_m": 4000,
      "worst_visibility_m": 4000,
      "ceiling_ft": 1700,
      "hazards": [
        "BR",
        "SN"
      ],
      "severityScore": 40,
      "metarRaw": "METAR EPMO 230630Z 07012KT 7000 BKN017 M09/M10 Q1010",
      "tafRaw": "TAF EPMO 230530Z 2306/2406 08012KT 8000 SCT010 BKN020 \n  TEMPO 2306/2406 4000 -SN BR BKN004 OVC008"
    },
    {
      "icao": "EYPA",
      "iata": "PLQ",
      "name": "Palanga International Airport",
      "lat": 55.973202,
      "lon": 21.093901,
      "updatedAt": "230650Z",
      "visibility_m": 10000,
      "taf_visibility_m": 5000,
      "worst_visibility_m": 5000,
      "ceiling_ft": 1900,
      "hazards": [
        "BR",
        "SN"
      ],
      "severityScore": 40,
      "metarRaw": "METAR EYPA 230650Z 10011KT 060V130 9999 OVC019 M05/M09 Q1017",
      "tafRaw": "TAF EYPA 230514Z 2306/2406 10011KT 9000 OVC020 \n  TEMPO 2308/2314 10015G25KT 5000 -SN \n  TEMPO 2323/2406 5000 BR"
    },
    {
      "icao": "LIBP",
      "iata": "PSR",
      "name": "Abruzzo Airport",
      "lat": 42.431079,
      "lon": 14.182981,
      "updatedAt": "230650Z",
      "visibility_m": 4200,
      "taf_visibility_m": 1200,
      "worst_visibility_m": 1200,
      "ceiling_ft": 3000,
      "hazards": [
        "BR",
        "FG"
      ],
      "severityScore": 40,
      "metarRaw": "METAR LIBP 230650Z AUTO 23003KT 4200 BR SCT030/// 07/07 Q1003",
      "tafRaw": "TAF LIBP 230500Z 2306/2406 VRB05KT 6000 BKN030 \n  TEMPO 2306/2308 1200 BCFG"
    },
    {
      "icao": "LTAC",
      "iata": "ESB",
      "name": "Esenboğa International Airport",
      "lat": 40.128101,
      "lon": 32.995098,
      "updatedAt": "230650Z",
      "visibility_m": 3300,
      "taf_visibility_m": 4000,
      "worst_visibility_m": 3300,
      "ceiling_ft": 2500,
      "hazards": [
        "BR",
        "RA",
        "SN"
      ],
      "severityScore": 40,
      "metarRaw": "METAR LTAC 230650Z VRB02KT 3300 BR SCT009 BKN025 BKN080 00/M01 Q1008 BECMG 6000 RMK RWY21C 00000KT RWY03L VRB02KT RWY21R VRB01KT RWY03R 00000KT RWY21L 00000KT",
      "tafRaw": "TAF LTAC 230440Z 2306/2406 VRB02KT 4000 BR SCT010 BKN025 BKN080 \n  BECMG 2306/2308 9999 NSW \n  TEMPO 2314/2318 -RA \n  TEMPO 2318/2322 -RASN \n  TEMPO 2402/2406 4000 BR"
    },
    {
      "icao": "EGGP",
      "iata": "LPL",
      "name": "Liverpool John Lennon Airport",
      "lat": 53.334863,
      "lon": -2.849637,
      "updatedAt": "230650Z",
      "visibility_m": 10000,
      "taf_visibility_m": 6000,
      "worst_visibility_m": 6000,
      "ceiling_ft": 1400,
      "hazards": [
        "RA",
        "SHRA"
      ],
      "severityScore": 38,
      "metarRaw": "METAR EGGP 230650Z 11013KT 9999 FEW035 05/03 Q0984",
      "tafRaw": "TAF EGGP 230500Z 2306/2406 12010KT 9999 SCT025 \n  TEMPO 2306/2315 11015G25KT \n  PROB30 \n  TEMPO 2306/2310 BKN014 \n  TEMPO 2310/2315 6000 RA BKN014 \n  BECMG 2315/2318 11015G30KT \n  PROB30 \n  TEMPO 2315/2318 6000 SHRA BKN014"
    },
    {
      "icao": "EGKK",
      "iata": "LGW",
      "name": "London Gatwick Airport",
      "lat": 51.148771,
      "lon": -0.192089,
      "updatedAt": "230650Z",
      "visibility_m": 10000,
      "taf_visibility_m": 4000,
      "worst_visibility_m": 4000,
      "ceiling_ft": 1200,
      "hazards": [
        "RA",
        "SHRA"
      ],
      "severityScore": 38,
      "metarRaw": "METAR EGKK 230650Z 13011KT 9999 -RA BKN012 07/06 Q0984",
      "tafRaw": "TAF EGKK 230503Z 2306/2412 14006KT 9999 SCT015 \n  TEMPO 2306/2311 6000 SHRA RA BKN014 \n  PROB30 \n  TEMPO 2307/2310 13015G25KT 4000 +RA BKN009 \n  PROB40 \n  TEMPO 2317/2403 14015G25KT 7000 RA \n  PROB30 \n  TEMPO 2403/2412 14015G25KT"
    },
    {
      "icao": "LFBD",
      "iata": "BOD",
      "name": "Bordeaux–Mérignac Airport",
      "lat": 44.82865,
      "lon": -0.715356,
      "updatedAt": "230630Z",
      "visibility_m": 4500,
      "taf_visibility_m": 4500,
      "worst_visibility_m": 4500,
      "ceiling_ft": 1000,
      "hazards": [
        "RA",
        "SHRA"
      ],
      "severityScore": 38,
      "metarRaw": "METAR LFBD 230630Z AUTO 21014KT 180V240 8000 -RA FEW032/// BKN042/// BKN054/// ///CB 07/06 Q0992 TEMPO 18015G30KT 4500 -SHRA BKN010 BKN035",
      "tafRaw": "TAF LFBD 230500Z 2306/2412 20010KT CAVOK TX11/2314Z TN03/2406Z \n  TEMPO 2306/2308 4500 -RA BKN010 BKN035 \n  TEMPO 2308/2310 18015G30KT 4500 -SHRA BKN030TCU \n  TEMPO 2310/2314 20015G25KT \n  TEMPO 2315/2408 4500 -SHRA BKN025TCU \n  PROB40 \n  TEMPO 2314/2317 25020G30KT \n  BECMG 2317/2319 09005KT \n  BECMG 2400/2402 VRB03KT"
    },
    {
      "icao": "LRIA",
      "iata": "IAS",
      "name": "Iaşi Airport",
      "lat": 47.180278,
      "lon": 27.620833,
      "updatedAt": "230630Z",
      "visibility_m": 2500,
      "taf_visibility_m": 1500,
      "worst_visibility_m": 1500,
      "ceiling_ft": 3000,
      "hazards": [
        "BR",
        "SN"
      ],
      "severityScore": 38,
      "metarRaw": "METAR LRIA 230630Z 10009KT 2500 -SN BR SCT002 OVC030 M01/M02 Q1008",
      "tafRaw": "TAF LRIA 230500Z 2306/2315 11007KT 5000 -SN BR BKN010 OVC020 \n  TEMPO 2306/2310 1500 -SN BR BKN002 OVC010 \n  BECMG 2310/2312 7000 NSW OVC020"
    },
    {
      "icao": "UDSG",
      "iata": "LWN",
      "name": "Shirak International Airport",
      "lat": 40.750401,
      "lon": 43.859299,
      "updatedAt": "230630Z",
      "visibility_m": 9000,
      "taf_visibility_m": 1000,
      "worst_visibility_m": 1000,
      "ceiling_ft": 4000,
      "hazards": [
        "BR",
        "SN"
      ],
      "severityScore": 38,
      "metarRaw": "METAR UDSG 230630Z 00000KT 9000 OVC040 M08/M13 Q1014 NOSIG",
      "tafRaw": "TAF UDSG 230458Z 2306/2406 36006KT 5000 BR BKN030 \n  TEMPO 2306/2318 24016KT 1000 SN BR FEW006 OVC010"
    },
    {
      "icao": "UDYZ",
      "iata": "EVN",
      "name": "Zvartnots International Airport",
      "lat": 40.148941,
      "lon": 44.397887,
      "updatedAt": "230630Z",
      "visibility_m": 5000,
      "taf_visibility_m": 1500,
      "worst_visibility_m": 1500,
      "ceiling_ft": 4000,
      "hazards": [
        "BR",
        "SN"
      ],
      "severityScore": 38,
      "metarRaw": "METAR UDYZ 230630Z 13002KT 5000 BR BKN040 M05/M08 Q1017 NOSIG",
      "tafRaw": "TAF UDYZ 230500Z 2306/2406 VRB04KT 3500 BR SCT040 \n  TEMPO 2306/2318 1500 SN BR BKN020"
    },
    {
      "icao": "UBBB",
      "iata": "GYD",
      "name": "Heydar Aliyev International Airport",
      "lat": 40.467498779296875,
      "lon": 50.04669952392578,
      "updatedAt": "230700Z",
      "visibility_m": 10000,
      "taf_visibility_m": 10000,
      "worst_visibility_m": 10000,
      "ceiling_ft": 800,
      "hazards": [
        "RA"
      ],
      "severityScore": 37,
      "metarRaw": "METAR UBBB 230700Z 32006KT 9999 FEW024 05/01 Q1012 NOSIG",
      "tafRaw": "TAF UBBB 230501Z 2306/2406 31005KT 9999 SCT030 TX07/2310Z TN01/2401Z \n  TEMPO 2306/2317 VRB04KT SCT012 \n  BECMG 2317/2319 31012KT BKN020 \n  TEMPO 2318/2406 35018KT -RA BKN008 OVC017"
    },
    {
      "icao": "LFSB",
      "iata": "BSL",
      "name": "EuroAirport Basel–Mulhouse–Freiburg",
      "lat": 47.60068,
      "lon": 7.521117,
      "updatedAt": "230630Z",
      "visibility_m": 4500,
      "taf_visibility_m": 4500,
      "worst_visibility_m": 4500,
      "ceiling_ft": null,
      "hazards": [
        "BR",
        "SHRA",
        "RA"
      ],
      "severityScore": 36,
      "metarRaw": "METAR LFSB 230630Z AUTO 35002KT CAVOK M01/M02 Q0996 TEMPO 4500 BR",
      "tafRaw": "TAF LFSB 230500Z 2306/2406 12005KT CAVOK \n  PROB30 \n  TEMPO 2306/2308 4500 BR \n  PROB30 \n  TEMPO 2321/2403 -SHRA FEW025TCU"
    },
    {
      "icao": "LTFM",
      "iata": "IST",
      "name": "İstanbul Airport",
      "lat": 41.261297,
      "lon": 28.741951,
      "updatedAt": "230650Z",
      "visibility_m": 2700,
      "taf_visibility_m": 2500,
      "worst_visibility_m": 2500,
      "ceiling_ft": 2200,
      "hazards": [
        "BR",
        "SHRA",
        "RA"
      ],
      "severityScore": 36,
      "metarRaw": "METAR LTFM 230650Z VRB01KT 2700 -SHRA BR SCT002 BKN022 09/08 Q1005 NOSIG RMK RWY17L VRB03KT RWY34L 28003KT RWY16R 00000KT RWY36 01003KT RWY18 33003KT 240V350",
      "tafRaw": "TAF LTFM 230440Z 2306/2412 30005KT 9999 BKN004 BKN020 \n  TEMPO 2306/2310 2500 -SHRA BR BKN002 BKN020 \n  BECMG 2310/2312 01010KT -RA \n  TEMPO 2316/2320 2500 RA BR BKN002 BKN020"
    },
    {
      "icao": "EBCI",
      "iata": "CRL",
      "name": "Brussels South Charleroi Airport",
      "lat": 50.461963,
      "lon": 4.459562,
      "updatedAt": "230650Z",
      "visibility_m": 10000,
      "taf_visibility_m": 4000,
      "worst_visibility_m": 4000,
      "ceiling_ft": 500,
      "hazards": [
        "BR"
      ],
      "severityScore": 35,
      "metarRaw": "METAR EBCI 230650Z 14006KT 9999 SCT014 06/04 Q0992 NOSIG",
      "tafRaw": "TAF EBCI 230520Z 2306/2412 16007KT 9999 BKN030 \n  PROB30 \n  TEMPO 2306/2310 4000 BR BKN005 \n  TEMPO 2313/2318 BKN014 \n  PROB30 \n  TEMPO 2400/2409 4000 BR BKN005"
    },
    {
      "icao": "EDDB",
      "iata": "BER",
      "name": "Berlin Brandenburg Willy Brandt Airport",
      "lat": 52.361738,
      "lon": 13.502341,
      "updatedAt": "230650Z",
      "visibility_m": 4300,
      "taf_visibility_m": 3000,
      "worst_visibility_m": 3000,
      "ceiling_ft": 700,
      "hazards": [
        "BR"
      ],
      "severityScore": 35,
      "metarRaw": "METAR EDDB 230650Z AUTO 08010KT 4300 BR SCT029 M08/M10 Q1005 NOSIG",
      "tafRaw": "TAF EDDB 230500Z 2306/2406 08009KT 5000 BR NSC \n  TEMPO 2306/2310 4000 BR \n  PROB30 \n  TEMPO 2308/2312 BKN012 \n  PROB40 \n  TEMPO 2319/2401 4500 BR \n  TEMPO 2401/2406 3000 BR BKN007"
    },
    {
      "icao": "LEMD",
      "iata": "MAD",
      "name": "Adolfo Suárez Madrid–Barajas Airport",
      "lat": 40.471926,
      "lon": -3.56264,
      "updatedAt": "230638Z",
      "visibility_m": 3000,
      "taf_visibility_m": null,
      "worst_visibility_m": 3000,
      "ceiling_ft": null,
      "hazards": [
        "BR",
        "FG"
      ],
      "severityScore": 35,
      "metarRaw": "SPECI LEMD 230638Z 11004KT 080V150 3000 0150SW R32L/0450N R32R/P2000 BR BCFG FEW003 03/03 Q0999 BECMG 9000 NSW",
      "tafRaw": null
    },
    {
      "icao": "LKPR",
      "iata": "PRG",
      "name": "Václav Havel Airport Prague",
      "lat": 50.100874,
      "lon": 14.259911,
      "updatedAt": "230630Z",
      "visibility_m": 8000,
      "taf_visibility_m": 3000,
      "worst_visibility_m": 3000,
      "ceiling_ft": 900,
      "hazards": [
        "BR"
      ],
      "severityScore": 35,
      "metarRaw": "METAR LKPR 230630Z 12005KT 8000 OVC009 M07/M09 Q1002 NOSIG",
      "tafRaw": "TAF LKPR 230500Z 2306/2412 14005KT 8000 BKN015 \n  TEMPO 2306/2308 5000 BR BKN006 \n  BECMG 2312/2314 06006KT CAVOK \n  PROB30 \n  TEMPO 2400/2408 VRB02KT 3000 BR BKN010"
    },
    {
      "icao": "OEJN",
      "iata": "JED",
      "name": "King Abdulaziz International Airport",
      "lat": 21.6796,
      "lon": 39.156502,
      "updatedAt": "230700Z",
      "visibility_m": 7000,
      "taf_visibility_m": 400,
      "worst_visibility_m": 400,
      "ceiling_ft": null,
      "hazards": [],
      "severityScore": 35,
      "metarRaw": "METAR OEJN 230700Z 16014KT 7000 FEW040 29/19 Q1013 NOSIG",
      "tafRaw": "TAF OEJN 230500Z 2306/2412 19017KT 7000 FEW030 \n  TEMPO 2306/2316 2000 BLDU \n  PROB30 \n  TEMPO 2308/2314 0400 \n  BECMG 2318/2320 19008KT"
    },
    {
      "icao": "GCFV",
      "iata": "FUE",
      "name": "Fuerteventura Airport",
      "lat": 28.4527,
      "lon": -13.8638,
      "updatedAt": "230630Z",
      "visibility_m": 10000,
      "taf_visibility_m": 4000,
      "worst_visibility_m": 4000,
      "ceiling_ft": 1400,
      "hazards": [
        "RA",
        "DZ"
      ],
      "severityScore": 34,
      "metarRaw": "METAR GCFV 230630Z 30007KT 9999 FEW028 SCT034 17/14 Q1018",
      "tafRaw": "TAF GCFV 230200Z 2303/2403 30005KT 9999 SCT020 TX22/2314Z TN16/2306Z \n  TEMPO 2312/2320 33015KT \n  TEMPO 2315/2320 30015G25KT \n  PROB40 \n  TEMPO 2316/2320 RA \n  PROB30 \n  TEMPO 2316/2320 4000 DZ BKN014 \n  BECMG 2318/2320 36013KT"
    },
    {
      "icao": "GCLP",
      "iata": "LPA",
      "name": "Gran Canaria Airport",
      "lat": 27.9319,
      "lon": -15.3866,
      "updatedAt": "230630Z",
      "visibility_m": 10000,
      "taf_visibility_m": 3000,
      "worst_visibility_m": 3000,
      "ceiling_ft": 1400,
      "hazards": [
        "RA",
        "DZ"
      ],
      "severityScore": 34,
      "metarRaw": "METAR GCLP 230630Z VRB02KT 9999 FEW025 SCT040 16/14 Q1019 NOSIG",
      "tafRaw": "TAF GCLP 230200Z 2303/2403 28005KT 9999 SCT020 TX23/2314Z TN15/2306Z \n  TEMPO 2310/2318 34010KT \n  TEMPO 2311/2318 17010KT \n  BECMG 2318/2320 36020KT \n  TEMPO 2318/2403 36020G30KT \n  PROB30 \n  TEMPO 2318/2322 3000 RADZ BKN014"
    },
    {
      "icao": "EGPD",
      "iata": "ABZ",
      "name": "Aberdeen International Airport",
      "lat": 57.2019,
      "lon": -2.19778,
      "updatedAt": "230650Z",
      "visibility_m": 9000,
      "taf_visibility_m": 4000,
      "worst_visibility_m": 4000,
      "ceiling_ft": 1400,
      "hazards": [
        "RA",
        "DZ"
      ],
      "severityScore": 34,
      "metarRaw": "METAR EGPD 230650Z AUTO 11020G30KT 9000 -RA BKN014 OVC020 04/02 Q0994 RERA REDZ",
      "tafRaw": "TAF EGPD 230455Z 2306/2406 12018G34KT 9999 BKN016 \n  TEMPO 2306/2406 6000 -RADZ BKN010 \n  PROB40 \n  TEMPO 2306/2406 4000 RADZ BKN008 \n  BECMG 2310/2313 11015KT \n  TEMPO 2313/2406 12018G30KT"
    },
    {
      "icao": "EGPF",
      "iata": "GLA",
      "name": "Glasgow Airport",
      "lat": 55.871899,
      "lon": -4.43306,
      "updatedAt": "230650Z",
      "visibility_m": 10000,
      "taf_visibility_m": 4000,
      "worst_visibility_m": 4000,
      "ceiling_ft": 1400,
      "hazards": [
        "RA",
        "DZ"
      ],
      "severityScore": 34,
      "metarRaw": "METAR EGPF 230650Z AUTO 07016KT 9999 -RA OVC014/// //////TCU 05/03 Q0987",
      "tafRaw": "TAF EGPF 230501Z 2306/2406 08014KT 9999 FEW020 BKN030 \n  TEMPO 2306/2324 09016G26KT 6000 RA -RADZ BKN014 \n  PROB30 \n  TEMPO 2306/2312 4000 +RA RADZ \n  PROB30 \n  TEMPO 2400/2406 BKN014"
    },
    {
      "icao": "LIPR",
      "iata": "RMI",
      "name": "Federico Fellini International Airport",
      "lat": 44.020024,
      "lon": 12.612198,
      "updatedAt": "230650Z",
      "visibility_m": 10000,
      "taf_visibility_m": 3000,
      "worst_visibility_m": 3000,
      "ceiling_ft": 1500,
      "hazards": [
        "BR",
        "RA"
      ],
      "severityScore": 34,
      "metarRaw": "METAR LIPR 230650Z 33002KT 9999 BKN015 05/03 Q1002",
      "tafRaw": "TAF LIPR 230500Z 2306/2406 VRB05KT 8000 SCT030 \n  TEMPO 2306/2308 3000 BR BKN014 \n  BECMG 2316/2318 13010KT \n  TEMPO 2318/2406 RA \n  BECMG 2400/2402 VRB05KT"
    },
    {
      "icao": "ESSA",
      "iata": "ARN",
      "name": "Stockholm-Arlanda Airport",
      "lat": 59.64849,
      "lon": 17.928829,
      "updatedAt": "230650Z",
      "visibility_m": 10000,
      "taf_visibility_m": 4000,
      "worst_visibility_m": 4000,
      "ceiling_ft": 1900,
      "hazards": [
        "SN"
      ],
      "severityScore": 30,
      "metarRaw": "METAR ESSA 230650Z 06006KT 9999 BKN019 M04/M07 Q1021 NOSIG",
      "tafRaw": "TAF ESSA 230530Z 2306/2406 09012KT 9999 OVC018 \n  PROB40 2306/2320 4000 -SN SG BKN012 \n  TEMPO 2320/2406 BKN010"
    },
    {
      "icao": "ENTO",
      "iata": "TRF",
      "name": "Sandefjord Airport, Torp",
      "lat": 59.186699,
      "lon": 10.2586,
      "updatedAt": "230650Z",
      "visibility_m": 10000,
      "taf_visibility_m": 10000,
      "worst_visibility_m": 10000,
      "ceiling_ft": 2100,
      "hazards": [
        "SHSN",
        "SN"
      ],
      "severityScore": 28,
      "metarRaw": "METAR ENTO 230650Z 05012KT 9999 -SHSN OVC021 M03/M07 Q1017 NOSIG",
      "tafRaw": "TAF ENTO 230500Z 2306/2406 04012KT 9999 -SN BKN020 \n  PROB40 \n  TEMPO 2306/2309 03015G25KT"
    },
    {
      "icao": "EPWR",
      "iata": "WRO",
      "name": "Copernicus Wrocław Airport",
      "lat": 51.103719,
      "lon": 16.882096,
      "updatedAt": "230630Z",
      "visibility_m": 6000,
      "taf_visibility_m": 2000,
      "worst_visibility_m": 2000,
      "ceiling_ft": 2500,
      "hazards": [
        "BR",
        "SN"
      ],
      "severityScore": 28,
      "metarRaw": "METAR EPWR 230630Z 08008KT 6000 BKN025 M06/M10 Q1005",
      "tafRaw": "TAF EPWR 230530Z 2306/2406 09005KT 6000 NSC \n  TEMPO 2306/2316 4000 -SN BR BKN012 \n  BECMG 2316/2319 BKN007 \n  TEMPO 2319/2406 4000 -SN BR OVC003 \n  PROB40 \n  TEMPO 2400/2406 2000 SN BR OVC001"
    },
    {
      "icao": "EYKA",
      "iata": "KUN",
      "name": "Kaunas International Airport",
      "lat": 54.963965,
      "lon": 24.08582,
      "updatedAt": "230650Z",
      "visibility_m": 9000,
      "taf_visibility_m": 5000,
      "worst_visibility_m": 5000,
      "ceiling_ft": 2900,
      "hazards": [
        "SN",
        "BR"
      ],
      "severityScore": 28,
      "metarRaw": "METAR EYKA 230650Z 08006KT 9000 -SN OVC029 M09/M12 Q1017",
      "tafRaw": "TAF EYKA 230514Z 2306/2406 10010KT 9000 OVC020 \n  TEMPO 2306/2308 5000 -SN \n  TEMPO 2308/2315 10015G25KT 5000 -SN \n  TEMPO 2321/2406 5000 BR"
    },
    {
      "icao": "EYVI",
      "iata": "VNO",
      "name": "Vilnius International Airport",
      "lat": 54.634102,
      "lon": 25.285801,
      "updatedAt": "230650Z",
      "visibility_m": 5000,
      "taf_visibility_m": 5000,
      "worst_visibility_m": 5000,
      "ceiling_ft": 3000,
      "hazards": [
        "BR",
        "SN"
      ],
      "severityScore": 28,
      "metarRaw": "METAR EYVI 230650Z 10009KT 070V130 5000 -SN BR OVC030 M09/M12 Q1016 NOSIG",
      "tafRaw": "TAF EYVI 230500Z 2306/2406 10012KT 9000 OVC020 \n  TEMPO 2306/2308 5000 SN BR \n  TEMPO 2308/2314 11015G25KT 5000 SN \n  TEMPO 2321/2406 5000 SN BR BKN010"
    },
    {
      "icao": "GMMX",
      "iata": "RAK",
      "name": "Marrakesh Menara Airport",
      "lat": 31.604807,
      "lon": -8.035788,
      "updatedAt": "230630Z",
      "visibility_m": 10000,
      "taf_visibility_m": 4000,
      "worst_visibility_m": 4000,
      "ceiling_ft": 2000,
      "hazards": [
        "SHRA",
        "RA"
      ],
      "severityScore": 26,
      "metarRaw": "METAR GMMX 230630Z 18005KT 140V220 9999 SCT026 SCT080 12/10 Q1015 NOSIG",
      "tafRaw": "TAF GMMX 230500Z 2306/2412 24014KT 8000 SCT020 SCT080 \n  TEMPO 2315/2324 32018KT 4000 SHRA SCT010 BKN020 FEW026CB"
    },
    {
      "icao": "LCLK",
      "iata": "LCA",
      "name": "Larnaca International Airport",
      "lat": 34.875099,
      "lon": 33.624901,
      "updatedAt": "230630Z",
      "visibility_m": 10000,
      "taf_visibility_m": 5000,
      "worst_visibility_m": 5000,
      "ceiling_ft": null,
      "hazards": [
        "SHRA",
        "RA"
      ],
      "severityScore": 26,
      "metarRaw": "METAR LCLK 230630Z 04014KT 9999 FEW014 SCT035 13/11 Q1013 NOSIG",
      "tafRaw": "TAF LCLK 230530Z 2306/2406 04015KT 9999 FEW030 \n  BECMG 2316/2320 34008KT \n  PROB30 \n  TEMPO 2322/2406 5000 SHRA SCT020TCU"
    },
    {
      "icao": "LCPH",
      "iata": "PFO",
      "name": "Paphos International Airport",
      "lat": 34.717999,
      "lon": 32.485699,
      "updatedAt": "230630Z",
      "visibility_m": 10000,
      "taf_visibility_m": 5000,
      "worst_visibility_m": 5000,
      "ceiling_ft": null,
      "hazards": [
        "SHRA",
        "RA"
      ],
      "severityScore": 26,
      "metarRaw": "METAR LCPH 230630Z 07004KT 9999 FEW030 11/09 Q1012 NOSIG",
      "tafRaw": "TAF LCPH 230530Z 2306/2406 06009KT 9999 FEW025 \n  BECMG 2306/2309 12015KT \n  PROB30 \n  TEMPO 2309/2406 5000 SHRA SCT020TCU \n  BECMG 2314/2318 06009KT"
    },
    {
      "icao": "LFPO",
      "iata": "ORY",
      "name": "Paris-Orly Airport",
      "lat": 48.72333,
      "lon": 2.37944,
      "updatedAt": "230630Z",
      "visibility_m": 10000,
      "taf_visibility_m": 4000,
      "worst_visibility_m": 4000,
      "ceiling_ft": 4300,
      "hazards": [
        "RA",
        "SHRA"
      ],
      "severityScore": 26,
      "metarRaw": "METAR LFPO 230630Z 15007KT 9999 -RA BKN043 BKN070 06/05 Q0989 NOSIG",
      "tafRaw": "TAF LFPO 230500Z 2306/2412 14010KT 9999 FEW040 SCT080 BKN100 \n  TEMPO 2306/2309 15015G25KT 4000 -RA BKN014 \n  TEMPO 2309/2318 18015G25KT \n  PROB40 \n  TEMPO 2309/2313 BKN012 \n  PROB30 \n  TEMPO 2314/2316 4000 -SHRA SCT020TCU"
    },
    {
      "icao": "UGKO",
      "iata": "KUT",
      "name": "David the Builder Kutaisi International Airport",
      "lat": 42.177448,
      "lon": 42.485353,
      "updatedAt": "230630Z",
      "visibility_m": 10000,
      "taf_visibility_m": 10000,
      "worst_visibility_m": 10000,
      "ceiling_ft": 7300,
      "hazards": [
        "SHRA",
        "RA"
      ],
      "severityScore": 26,
      "metarRaw": "METAR UGKO 230630Z 10015KT 9999 SCT034 OVC073 09/M05 Q1007 NOSIG",
      "tafRaw": "TAF UGKO 230500Z 2306/2406 09007KT 9999 OVC080 TX10/2311Z TN04/2403Z \n  TEMPO 2306/2308 08017KT \n  TEMPO 2310/2316 25010KT SHRA BKN033CB"
    },
    {
      "icao": "GCTS",
      "iata": "TFS",
      "name": "Tenerife Sur Airport",
      "lat": 28.0445,
      "lon": -16.5725,
      "updatedAt": "230630Z",
      "visibility_m": 10000,
      "taf_visibility_m": 10000,
      "worst_visibility_m": 10000,
      "ceiling_ft": 4000,
      "hazards": [
        "TS"
      ],
      "severityScore": 25,
      "metarRaw": "METAR GCTS 230630Z 02005KT 9999 BKN040 17/11 Q1019 NOSIG",
      "tafRaw": "TAF GCTS 230200Z 2303/2403 34005KT 9999 BKN025 TX23/2314Z TN15/2306Z \n  PROB30 \n  TEMPO 2310/2318 20010KT \n  PROB40 \n  TEMPO 2318/2322 07010KT"
    },
    {
      "icao": "EDDN",
      "iata": "NUE",
      "name": "Nuremberg Airport",
      "lat": 49.498699,
      "lon": 11.078056,
      "updatedAt": "230650Z",
      "visibility_m": 6000,
      "taf_visibility_m": 7000,
      "worst_visibility_m": 6000,
      "ceiling_ft": 900,
      "hazards": [],
      "severityScore": 25,
      "metarRaw": "METAR EDDN 230650Z AUTO 13007KT 6000 FEW011 M07/M10 Q1000 NOSIG",
      "tafRaw": "TAF EDDN 230500Z 2306/2406 11007KT 7000 OVC010 \n  PROB30 \n  TEMPO 2307/2309 SCT010 \n  BECMG 2310/2313 SCT011 \n  BECMG 2319/2321 OVC010 \n  PROB30 \n  TEMPO 2400/2406 OVC009"
    },
    {
      "icao": "GMMN",
      "iata": "CMN",
      "name": "Mohammed V International Airport",
      "lat": 33.3675,
      "lon": -7.58997,
      "updatedAt": "230630Z",
      "visibility_m": 4000,
      "taf_visibility_m": 4000,
      "worst_visibility_m": 4000,
      "ceiling_ft": 1600,
      "hazards": [
        "RA"
      ],
      "severityScore": 24,
      "metarRaw": "METAR GMMN 230630Z 21017KT 8000 SCT004 BKN016 13/11 Q1012 TEMPO 4000 RA",
      "tafRaw": "TAF GMMN 230500Z 2306/2412 22015KT 8000 SCT003 BKN016 \n  TEMPO 2306/2406 26016G26KT 4000 RA SCT004 BKN016 SCT020TCU"
    },
    {
      "icao": "BIKF",
      "iata": "KEF",
      "name": "Keflavik International Airport",
      "lat": 63.985001,
      "lon": -22.6056,
      "updatedAt": "230630Z",
      "visibility_m": 10000,
      "taf_visibility_m": 8000,
      "worst_visibility_m": 8000,
      "ceiling_ft": 7000,
      "hazards": [
        "RA",
        "DZ"
      ],
      "severityScore": 22,
      "metarRaw": "METAR BIKF 230630Z 09013KT 9999 VCSH FEW025 BKN070 06/04 Q0998",
      "tafRaw": "TAF BIKF 230447Z 2306/2406 09015G25KT 9999 BKN017 TX06/2306Z TN01/2324Z \n  TEMPO 2306/2308 8000 RADZ OVC013"
    },
    {
      "icao": "EPSC",
      "iata": "SZZ",
      "name": "Solidarity Szczecin–Goleniów Airport",
      "lat": 53.584702,
      "lon": 14.9022,
      "updatedAt": "230630Z",
      "visibility_m": 5000,
      "taf_visibility_m": 3000,
      "worst_visibility_m": 3000,
      "ceiling_ft": 1000,
      "hazards": [
        "BR"
      ],
      "severityScore": 22,
      "metarRaw": "METAR EPSC 230630Z 10008KT 5000 BR SCT009 BKN010 M11/M13 Q1008",
      "tafRaw": "TAF EPSC 230530Z 2306/2406 09008KT 6000 NSC \n  PROB40 2306/2308 3000 BR \n  BECMG 2307/2309 OVC007 \n  TEMPO 2308/2406 3000 BR BKN004"
    },
    {
      "icao": "LATI",
      "iata": "TIA",
      "name": "Tirana International Airport Mother Teresa",
      "lat": 41.4147,
      "lon": 19.7206,
      "updatedAt": "230650Z",
      "visibility_m": 10000,
      "taf_visibility_m": 2000,
      "worst_visibility_m": 2000,
      "ceiling_ft": 7000,
      "hazards": [
        "FG"
      ],
      "severityScore": 20,
      "metarRaw": "METAR LATI 230650Z 19002KT 9999 FEW046 BKN070 08/05 Q1003 NOSIG",
      "tafRaw": "TAF LATI 230500Z 2306/2406 VRB05KT 9999 SCT040 BKN080 TX14/2313Z TN04/2322Z \n  PROB40 2320/2403 2000 BCFG NSC"
    },
    {
      "icao": "LBWN",
      "iata": "VAR",
      "name": "Varna Airport",
      "lat": 43.232101,
      "lon": 27.8251,
      "updatedAt": "230700Z",
      "visibility_m": 3000,
      "taf_visibility_m": 1200,
      "worst_visibility_m": 1200,
      "ceiling_ft": 2500,
      "hazards": [
        "BR"
      ],
      "severityScore": 20,
      "metarRaw": "METAR LBWN 230700Z 25006KT 3400 BR FEW010 OVC025 03/03 Q1006 TEMPO 3000 BR SCT008",
      "tafRaw": "TAF LBWN 230500Z 2306/2406 VRB04KT 7000 SCT015 BKN030 \n  TEMPO 2306/2307 3000 BR \n  BECMG 2307/2309 28010KT \n  BECMG 2321/2323 VRB04KT \n  TEMPO 2323/2406 3000 BR BKN012 \n  PROB40 2400/2405 1200 BR SCT003 BKN010"
    },
    {
      "icao": "LRSM",
      "iata": "SUJ",
      "name": "Satu Mare International Airport",
      "lat": 47.7033,
      "lon": 22.8857,
      "updatedAt": "230630Z",
      "visibility_m": 2000,
      "taf_visibility_m": 1500,
      "worst_visibility_m": 1500,
      "ceiling_ft": null,
      "hazards": [
        "BR"
      ],
      "severityScore": 20,
      "metarRaw": "METAR LRSM 230630Z 01002KT 2000 BR SCT020 M01/M03 Q1005",
      "tafRaw": "TAF LRSM 230500Z 2306/2315 VRB04KT 3000 BR NSC \n  TEMPO 2306/2308 1500 BR \n  BECMG 2309/2311 9999 NSW"
    },
    {
      "icao": "LRTR",
      "iata": "TSR",
      "name": "Timişoara Traian Vuia Airport",
      "lat": 45.809898,
      "lon": 21.3379,
      "updatedAt": "230630Z",
      "visibility_m": 6000,
      "taf_visibility_m": 1500,
      "worst_visibility_m": 1500,
      "ceiling_ft": null,
      "hazards": [
        "BR"
      ],
      "severityScore": 20,
      "metarRaw": "METAR LRTR 230630Z 11003KT 6000 NSC M01/M01 Q1004",
      "tafRaw": "TAF LRTR 230500Z 2306/2406 VRB04KT 3000 BR NSC \n  TEMPO 2306/2308 1500 BR \n  BECMG 2308/2309 5000 \n  BECMG 2309/2310 9999 NSW \n  BECMG 2320/2322 5000 BR \n  TEMPO 2401/2406 3000 BR"
    },
    {
      "icao": "EFTU",
      "iata": "TKU",
      "name": "Turku Airport",
      "lat": 60.514099,
      "lon": 22.2628,
      "updatedAt": "230650Z",
      "visibility_m": 10000,
      "taf_visibility_m": 5000,
      "worst_visibility_m": 5000,
      "ceiling_ft": 2100,
      "hazards": [
        "SN"
      ],
      "severityScore": 18,
      "metarRaw": "METAR EFTU 230650Z AUTO 08005KT 040V110 9999 -SN OVC021 M08/M10 Q1024",
      "tafRaw": "TAF EFTU 230537Z 2306/2406 08006KT 9999 -SN BKN015 \n  BECMG 2307/2309 BKN012 \n  TEMPO 2309/2319 BKN009 \n  PROB30 \n  TEMPO 2309/2319 5000 \n  BECMG 2319/2321 BKN009"
    },
    {
      "icao": "ENGM",
      "iata": "OSL",
      "name": "Oslo-Gardermoen International Airport",
      "lat": 60.193901,
      "lon": 11.1004,
      "updatedAt": "230650Z",
      "visibility_m": 10000,
      "taf_visibility_m": 10000,
      "worst_visibility_m": 10000,
      "ceiling_ft": 2800,
      "hazards": [
        "SN"
      ],
      "severityScore": 18,
      "metarRaw": "METAR ENGM 230650Z 03008KT 9999 -SN OVC028 M06/M08 Q1019 NOSIG",
      "tafRaw": "TAF ENGM 230500Z 2306/2406 04010KT 9999 -SN BKN025"
    },
    {
      "icao": "ESKN",
      "iata": "NYO",
      "name": "Stockholm Skavsta Airport",
      "lat": 58.789656,
      "lon": 16.911479,
      "updatedAt": "230650Z",
      "visibility_m": 10000,
      "taf_visibility_m": 2000,
      "worst_visibility_m": 2000,
      "ceiling_ft": 2700,
      "hazards": [
        "SN"
      ],
      "severityScore": 18,
      "metarRaw": "METAR ESKN 230650Z 04010KT 010V070 9999 -SN FEW018 BKN027 M03/M05 Q1019",
      "tafRaw": "TAF ESKN 230530Z 2306/2406 05012KT 9999 -SN OVC020 \n  TEMPO 2306/2406 2000 SN SG OVC012"
    },
    {
      "icao": "LWOH",
      "iata": "OHD",
      "name": "Ohrid St. Paul the Apostle Airport",
      "lat": 41.18,
      "lon": 20.7423,
      "updatedAt": "230650Z",
      "visibility_m": 10000,
      "taf_visibility_m": null,
      "worst_visibility_m": 10000,
      "ceiling_ft": 1100,
      "hazards": [],
      "severityScore": 17,
      "metarRaw": "METAR LWOH 230650Z 34002KT 9999 OVC011 03/02 Q1004",
      "tafRaw": null
    },
    {
      "icao": "EDDH",
      "iata": "HAM",
      "name": "Hamburg Helmut Schmidt Airport",
      "lat": 53.630402,
      "lon": 9.98823,
      "updatedAt": "230650Z",
      "visibility_m": 6000,
      "taf_visibility_m": 10000,
      "worst_visibility_m": 6000,
      "ceiling_ft": 1200,
      "hazards": [],
      "severityScore": 12,
      "metarRaw": "METAR EDDH 230650Z AUTO 09008KT 6000 NSC M05/M07 Q1003 NOSIG",
      "tafRaw": "TAF EDDH 230500Z 2306/2412 09011KT 9999 FEW030 \n  TEMPO 2319/2412 BKN012"
    },
    {
      "icao": "EDDK",
      "iata": "CGN",
      "name": "Cologne Bonn Airport",
      "lat": 50.865898,
      "lon": 7.14274,
      "updatedAt": "230650Z",
      "visibility_m": 10000,
      "taf_visibility_m": 10000,
      "worst_visibility_m": 10000,
      "ceiling_ft": 4600,
      "hazards": [
        "RA"
      ],
      "severityScore": 12,
      "metarRaw": "METAR EDDK 230650Z AUTO 11007KT 070V140 9999 OVC046 03/M02 Q0996 NOSIG",
      "tafRaw": "TAF EDDK 230500Z 2306/2412 12009KT 9999 BKN040 \n  PROB30 \n  TEMPO 2403/2409 RA"
    },
    {
      "icao": "EKBI",
      "iata": "BLL",
      "name": "Billund Airport",
      "lat": 55.740335,
      "lon": 9.157019,
      "updatedAt": "230650Z",
      "visibility_m": 10000,
      "taf_visibility_m": 10000,
      "worst_visibility_m": 10000,
      "ceiling_ft": 1800,
      "hazards": [],
      "severityScore": 12,
      "metarRaw": "METAR EKBI 230650Z AUTO 10015KT 9999 OVC017/// 00/M03 Q1006",
      "tafRaw": "TAF EKBI 230527Z 2306/2406 09020G32KT 9999 OVC018 \n  BECMG 2321/2324 10015KT \n  TEMPO 2400/2404 10015G28KT"
    },
    {
      "icao": "ESMS",
      "iata": "MMX",
      "name": "Malmö Sturup Airport",
      "lat": 55.535564,
      "lon": 13.376327,
      "updatedAt": "230650Z",
      "visibility_m": 10000,
      "taf_visibility_m": 10000,
      "worst_visibility_m": 10000,
      "ceiling_ft": 1200,
      "hazards": [],
      "severityScore": 12,
      "metarRaw": "METAR ESMS 230650Z 08022KT 9999 BKN012 M02/M04 Q1009",
      "tafRaw": "TAF ESMS 230527Z 2306/2406 09018G32KT 9999 OVC015 \n  TEMPO 2306/2315 BKN012 \n  BECMG 2318/2321 09012KT"
    },
    {
      "icao": "LEBL",
      "iata": "BCN",
      "name": "Josep Tarradellas Barcelona-El Prat Airport",
      "lat": 41.2971,
      "lon": 2.07846,
      "updatedAt": "230630Z",
      "visibility_m": 10000,
      "taf_visibility_m": 10000,
      "worst_visibility_m": 10000,
      "ceiling_ft": null,
      "hazards": [
        "RA"
      ],
      "severityScore": 12,
      "metarRaw": "METAR LEBL 230630Z VRB04KT 9999 FEW025 SCT035 07/03 Q0996 NOSIG",
      "tafRaw": "TAF LEBL 230500Z 2306/2406 34006KT 9999 FEW030 TX16/2313Z TN07/2306Z \n  PROB30 \n  TEMPO 2306/2307 -RA \n  BECMG 2307/2309 26010KT \n  BECMG 2315/2317 34005KT \n  TEMPO 2319/2321 25004KT \n  TEMPO 2401/2406 RA FEW020TCU"
    },
    {
      "icao": "LEZL",
      "iata": "SVQ",
      "name": "Sevilla Airport",
      "lat": 37.417999,
      "lon": -5.89311,
      "updatedAt": "230630Z",
      "visibility_m": 10000,
      "taf_visibility_m": 4000,
      "worst_visibility_m": 4000,
      "ceiling_ft": 4000,
      "hazards": [
        "RA"
      ],
      "severityScore": 12,
      "metarRaw": "METAR LEZL 230630Z 26005KT 9999 BKN040 10/08 Q1005 NOSIG",
      "tafRaw": "TAF LEZL 230200Z 2303/2403 25007KT 9999 BKN025 TX15/2315Z TN08/2307Z \n  TEMPO 2303/2306 4000 RA BKN010 \n  PROB30 \n  TEMPO 2314/2320 24015G25KT 4000 RA BKN014"
    },
    {
      "icao": "LICC",
      "iata": "CTA",
      "name": "Catania-Fontanarossa Airport",
      "lat": 37.466801,
      "lon": 15.0664,
      "updatedAt": "230650Z",
      "visibility_m": 10000,
      "taf_visibility_m": 10000,
      "worst_visibility_m": 10000,
      "ceiling_ft": null,
      "hazards": [
        "RA"
      ],
      "severityScore": 12,
      "metarRaw": "METAR LICC 230650Z 24004KT 9999 FEW050 SCT110 08/06 Q1001",
      "tafRaw": "TAF LICC 230500Z 2306/2406 26010KT 9999 SCT030 \n  PROB30 \n  TEMPO 2306/2310 RA"
    },
    {
      "icao": "LIMJ",
      "iata": "GOA",
      "name": "Genoa Cristoforo Colombo Airport",
      "lat": 44.412039,
      "lon": 8.840732,
      "updatedAt": "230650Z",
      "visibility_m": 10000,
      "taf_visibility_m": 7000,
      "worst_visibility_m": 7000,
      "ceiling_ft": 3000,
      "hazards": [
        "RA"
      ],
      "severityScore": 12,
      "metarRaw": "METAR LIMJ 230650Z 04009KT 9999 BKN030 08/02 Q1001",
      "tafRaw": "TAF LIMJ 230500Z 2306/2406 03014KT 7000 RA BKN030 \n  BECMG 2404/2406 NSW"
    },
    {
      "icao": "LIPH",
      "iata": "TSF",
      "name": "Treviso Antonio Canova Airport",
      "lat": 45.648399,
      "lon": 12.1944,
      "updatedAt": "230650Z",
      "visibility_m": 10000,
      "taf_visibility_m": 4000,
      "worst_visibility_m": 4000,
      "ceiling_ft": 7000,
      "hazards": [
        "RA"
      ],
      "severityScore": 12,
      "metarRaw": "METAR LIPH 230650Z VRB01KT 9999 BKN070 01/M02 Q1002",
      "tafRaw": "TAF LIPH 230500Z 2306/2406 VRB05KT 9999 BKN050 \n  BECMG 2318/2320 4000 RA \n  TEMPO 2400/2406 7000 NSW"
    },
    {
      "icao": "LIPQ",
      "iata": "TRS",
      "name": "Trieste–Friuli Venezia Giulia Airport",
      "lat": 45.827499,
      "lon": 13.4722,
      "updatedAt": "230650Z",
      "visibility_m": 10000,
      "taf_visibility_m": 4000,
      "worst_visibility_m": 4000,
      "ceiling_ft": 4000,
      "hazards": [
        "RA"
      ],
      "severityScore": 12,
      "metarRaw": "METAR LIPQ 230650Z AUTO 04002KT 9999 BKN045/// BKN100/// 02/M01 Q1002",
      "tafRaw": "TAF LIPQ 230500Z 2306/2406 VRB05KT 9999 BKN040 \n  BECMG 2320/2322 4000 RA"
    },
    {
      "icao": "LIPZ",
      "iata": "VCE",
      "name": "Venice Marco Polo Airport",
      "lat": 45.505299,
      "lon": 12.3519,
      "updatedAt": "230650Z",
      "visibility_m": 10000,
      "taf_visibility_m": 4000,
      "worst_visibility_m": 4000,
      "ceiling_ft": 5000,
      "hazards": [
        "RA"
      ],
      "severityScore": 12,
      "metarRaw": "METAR LIPZ 230650Z 30002KT 9999 BKN050 02/M02 Q1002 NOSIG",
      "tafRaw": "TAF LIPZ 230500Z 2306/2412 VRB05KT 9999 SCT040 \n  BECMG 2316/2318 4000 RA \n  BECMG 2320/2322 03010KT \n  TEMPO 2400/2406 7000 NSW \n  BECMG 2408/2410 VRB05KT"
    },
    {
      "icao": "EDDS",
      "iata": "STR",
      "name": "Stuttgart Airport",
      "lat": 48.689899,
      "lon": 9.22196,
      "updatedAt": "230650Z",
      "visibility_m": 8000,
      "taf_visibility_m": 4000,
      "worst_visibility_m": 4000,
      "ceiling_ft": null,
      "hazards": [
        "BR"
      ],
      "severityScore": 10,
      "metarRaw": "METAR EDDS 230650Z AUTO VRB01KT 8000 NSC M02/M04 Q0996 NOSIG",
      "tafRaw": "TAF EDDS 230500Z 2306/2406 VRB03KT CAVOK \n  PROB30 \n  TEMPO 2306/2309 4000 BR"
    },
    {
      "icao": "EHEH",
      "iata": "EIN",
      "name": "Eindhoven Airport",
      "lat": 51.4500999451,
      "lon": 5.37452983856,
      "updatedAt": "230655Z",
      "visibility_m": 8000,
      "taf_visibility_m": 4000,
      "worst_visibility_m": 4000,
      "ceiling_ft": 5200,
      "hazards": [
        "BR"
      ],
      "severityScore": 10,
      "metarRaw": "METAR EHEH 230655Z AUTO 12006KT 080V150 8000 BR OVC052 05/03 Q0994 BLU NOSIG RMK TREND REMOTE BY EHWX",
      "tafRaw": "TAF EHEH 230548Z 2306/2412 12006KT 8000 NSC \n  BECMG 2306/2308 4000 BR \n  BECMG 2308/2310 9999 NSW \n  TEMPO 2317/2321 SCT015 BKN020"
    },
    {
      "icao": "ENBR",
      "iata": "BGO",
      "name": "Bergen Airport, Flesland",
      "lat": 60.2934,
      "lon": 5.21814,
      "updatedAt": "230650Z",
      "visibility_m": 10000,
      "taf_visibility_m": 10000,
      "worst_visibility_m": 10000,
      "ceiling_ft": null,
      "hazards": [
        "BR"
      ],
      "severityScore": 10,
      "metarRaw": "METAR ENBR 230650Z VRB02KT CAVOK M03/M13 Q1010 NOSIG RMK WIND 1200FT 10010KT",
      "tafRaw": "TAF ENBR 230500Z 2306/2406 05005KT CAVOK"
    },
    {
      "icao": "LIBD",
      "iata": "BRI",
      "name": "Bari Karol Wojtyła International Airport",
      "lat": 41.138901,
      "lon": 16.760599,
      "updatedAt": "230650Z",
      "visibility_m": 8000,
      "taf_visibility_m": 2000,
      "worst_visibility_m": 2000,
      "ceiling_ft": null,
      "hazards": [
        "BR"
      ],
      "severityScore": 10,
      "metarRaw": "METAR LIBD 230650Z 23004KT 8000 FEW010 SCT045 06/06 Q1002",
      "tafRaw": "TAF LIBD 230500Z 2306/2406 VRB05KT 8000 SCT030 \n  TEMPO 2306/2308 2000 BR \n  BECMG 2320/2322 18010KT"
    },
    {
      "icao": "EDNY",
      "iata": "FDH",
      "name": "Bodensee Airport Friedrichshafen",
      "lat": 47.671299,
      "lon": 9.51149,
      "updatedAt": "230650Z",
      "visibility_m": 7000,
      "taf_visibility_m": null,
      "worst_visibility_m": 7000,
      "ceiling_ft": null,
      "hazards": [],
      "severityScore": 5,
      "metarRaw": "METAR EDNY 230650Z 04003KT 360V080 7000 NSC M03/M04 Q0998",
      "tafRaw": null
    },
    {
      "icao": "LECH",
      "iata": "CDT",
      "name": "Castellón-Costa Azahar Airport",
      "lat": 40.213889,
      "lon": 0.073333,
      "updatedAt": "230630Z",
      "visibility_m": 8000,
      "taf_visibility_m": null,
      "worst_visibility_m": 8000,
      "ceiling_ft": null,
      "hazards": [],
      "severityScore": 5,
      "metarRaw": "METAR LECH 230630Z AUTO 20006KT 8000 NSC 05/03 Q0997",
      "tafRaw": null
    },
    {
      "icao": "EHBK",
      "iata": "MST",
      "name": "Maastricht Aachen Airport",
      "lat": 50.911701,
      "lon": 5.77014,
      "updatedAt": "230655Z",
      "visibility_m": 10000,
      "taf_visibility_m": 10000,
      "worst_visibility_m": 10000,
      "ceiling_ft": 4900,
      "hazards": [],
      "severityScore": 0,
      "metarRaw": "METAR EHBK 230655Z AUTO 13006KT 9999 OVC049 05/03 Q0994 NOSIG",
      "tafRaw": "TAF EHBK 230521Z 2306/2412 13004KT 9999 SCT040"
    },
    {
      "icao": "EKCH",
      "iata": "CPH",
      "name": "Copenhagen Kastrup Airport",
      "lat": 55.617900848389,
      "lon": 12.656000137329,
      "updatedAt": "230650Z",
      "visibility_m": 10000,
      "taf_visibility_m": 10000,
      "worst_visibility_m": 10000,
      "ceiling_ft": 2000,
      "hazards": [],
      "severityScore": 0,
      "metarRaw": "METAR EKCH 230650Z AUTO 09022KT 9999 OVC015/// M00/M04 Q1009 NOSIG",
      "tafRaw": "TAF EKCH 230527Z 2306/2406 09020G30KT 9999 BKN020 \n  BECMG 2316/2318 09018KT"
    },
    {
      "icao": "ENAL",
      "iata": "AES",
      "name": "Ålesund Airport, Vigra",
      "lat": 62.5625,
      "lon": 6.1197,
      "updatedAt": "230650Z",
      "visibility_m": 10000,
      "taf_visibility_m": 10000,
      "worst_visibility_m": 10000,
      "ceiling_ft": null,
      "hazards": [],
      "severityScore": 0,
      "metarRaw": "METAR ENAL 230650Z 14013KT CAVOK 01/M11 Q1010",
      "tafRaw": "TAF ENAL 230500Z 2306/2315 12009KT CAVOK"
    },
    {
      "icao": "ENHD",
      "iata": "HAU",
      "name": "Haugesund Airport, Karmøy",
      "lat": 59.345299,
      "lon": 5.20836,
      "updatedAt": "230650Z",
      "visibility_m": 10000,
      "taf_visibility_m": 10000,
      "worst_visibility_m": 10000,
      "ceiling_ft": null,
      "hazards": [],
      "severityScore": 0,
      "metarRaw": "METAR ENHD 230650Z 09011KT CAVOK M02/M11 Q1011",
      "tafRaw": "TAF ENHD 230500Z 2306/2315 08012KT CAVOK"
    },
    {
      "icao": "ENTC",
      "iata": "TOS",
      "name": "Tromsø Airport, Langnes",
      "lat": 69.683296,
      "lon": 18.9189,
      "updatedAt": "230650Z",
      "visibility_m": 10000,
      "taf_visibility_m": 10000,
      "worst_visibility_m": 10000,
      "ceiling_ft": null,
      "hazards": [],
      "severityScore": 0,
      "metarRaw": "METAR ENTC 230650Z 00000KT CAVOK M10/M11 Q1022 NOSIG RMK WIND 2600FT 13003KT",
      "tafRaw": "TAF ENTC 230500Z 2306/2406 VRB03KT CAVOK"
    },
    {
      "icao": "ENVA",
      "iata": "TRD",
      "name": "Trondheim Airport, Værnes",
      "lat": 63.457802,
      "lon": 10.924,
      "updatedAt": "230650Z",
      "visibility_m": 10000,
      "taf_visibility_m": 10000,
      "worst_visibility_m": 10000,
      "ceiling_ft": null,
      "hazards": [],
      "severityScore": 0,
      "metarRaw": "METAR ENVA 230650Z 11012KT 090V150 CAVOK M04/M11 Q1019 NOSIG RMK WIND 670FT 14021KT",
      "tafRaw": "TAF ENVA 230500Z 2306/2406 11010KT CAVOK \n  PROB40 \n  TEMPO 2308/2406 14015G25KT"
    },
    {
      "icao": "ENZV",
      "iata": "SVG",
      "name": "Stavanger Airport, Sola",
      "lat": 58.876701,
      "lon": 5.63778,
      "updatedAt": "230650Z",
      "visibility_m": 10000,
      "taf_visibility_m": 10000,
      "worst_visibility_m": 10000,
      "ceiling_ft": null,
      "hazards": [],
      "severityScore": 0,
      "metarRaw": "METAR ENZV 230650Z 06011KT CAVOK M01/M10 Q1009 NOSIG",
      "tafRaw": "TAF ENZV 230500Z 2306/2406 10012KT CAVOK \n  TEMPO 2306/2318 10018G28KT"
    },
    {
      "icao": "ESGG",
      "iata": "GOT",
      "name": "Göteborg Landvetter Airport",
      "lat": 57.6628,
      "lon": 12.2798,
      "updatedAt": "230650Z",
      "visibility_m": 10000,
      "taf_visibility_m": 10000,
      "worst_visibility_m": 10000,
      "ceiling_ft": 2100,
      "hazards": [],
      "severityScore": 0,
      "metarRaw": "METAR ESGG 230650Z 08015KT 050V110 9999 OVC021 M02/M07 Q1012",
      "tafRaw": "TAF ESGG 230530Z 2306/2406 09015G25KT 9999 OVC020 \n  BECMG 2319/2321 09005KT"
    },
    {
      "icao": "HEGN",
      "iata": "HRG",
      "name": "Hurghada International Airport",
      "lat": 27.176776,
      "lon": 33.796692,
      "updatedAt": "230600Z",
      "visibility_m": 10000,
      "taf_visibility_m": 3000,
      "worst_visibility_m": 3000,
      "ceiling_ft": null,
      "hazards": [],
      "severityScore": 0,
      "metarRaw": "METAR HEGN 230600Z 31006KT CAVOK 19/18 Q1012 NOSIG",
      "tafRaw": "TAF HEGN 230500Z 2306/2412 34010G20KT 6000 NSC \n  PROB30 \n  TEMPO 2309/2315 3000 SA"
    },
    {
      "icao": "HEMA",
      "iata": "RMF",
      "name": "Marsa Alam International Airport",
      "lat": 25.555548,
      "lon": 34.59245,
      "updatedAt": "230600Z",
      "visibility_m": 10000,
      "taf_visibility_m": 10000,
      "worst_visibility_m": 10000,
      "ceiling_ft": null,
      "hazards": [],
      "severityScore": 0,
      "metarRaw": "METAR HEMA 230600Z 23006KT CAVOK 19/14 Q1011 NOSIG",
      "tafRaw": "TAF HEMA 230500Z 2306/2412 03014KT CAVOK"
    },
    {
      "icao": "HESH",
      "iata": "SSH",
      "name": "Sharm El Sheikh International Airport",
      "lat": 27.977272,
      "lon": 34.394717,
      "updatedAt": "230600Z",
      "visibility_m": 10000,
      "taf_visibility_m": 10000,
      "worst_visibility_m": 10000,
      "ceiling_ft": null,
      "hazards": [],
      "severityScore": 0,
      "metarRaw": "METAR HESH 230600Z 25002KT CAVOK 21/14 Q1012 NOSIG",
      "tafRaw": "TAF HESH 230500Z 2306/2412 01014KT CAVOK"
    },
    {
      "icao": "HESX",
      "iata": "SPX",
      "name": "Sphinx International Airport",
      "lat": 30.108179,
      "lon": 30.895728,
      "updatedAt": "230600Z",
      "visibility_m": 10000,
      "taf_visibility_m": 3000,
      "worst_visibility_m": 3000,
      "ceiling_ft": null,
      "hazards": [],
      "severityScore": 0,
      "metarRaw": "METAR HESX 230600Z 20010KT CAVOK 10/06 Q1014 NOSIG",
      "tafRaw": "TAF HESX 230500Z 2306/2412 22008KT 8000 NSC \n  TEMPO 2306/2309 3000 HZ"
    },
    {
      "icao": "LEAL",
      "iata": "ALC",
      "name": "Alicante-Elche Miguel Hernández Airport",
      "lat": 38.2822,
      "lon": -0.558156,
      "updatedAt": "230630Z",
      "visibility_m": 10000,
      "taf_visibility_m": 10000,
      "worst_visibility_m": 10000,
      "ceiling_ft": null,
      "hazards": [],
      "severityScore": 0,
      "metarRaw": "METAR LEAL 230630Z VRB04KT CAVOK 09/08 Q1002 NOSIG",
      "tafRaw": "TAF LEAL 230500Z 2306/2406 VRB04KT 9999 SCT040 TX19/2313Z TN09/2306Z \n  BECMG 2310/2312 27010KT \n  TEMPO 2312/2316 27015G25KT"
    },
    {
      "icao": "LEBB",
      "iata": "BIO",
      "name": "Bilbao Airport",
      "lat": 43.301102,
      "lon": -2.91061,
      "updatedAt": "230630Z",
      "visibility_m": 10000,
      "taf_visibility_m": 10000,
      "worst_visibility_m": 10000,
      "ceiling_ft": null,
      "hazards": [],
      "severityScore": 0,
      "metarRaw": "METAR LEBB 230630Z 21016G27KT 170V250 9999 FEW026 10/M00 Q0992 NOSIG",
      "tafRaw": "TAF LEBB 230500Z 2306/2406 20009KT 9999 FEW030 TX11/2314Z TN06/2406Z \n  TEMPO 2306/2317 21019G32KT \n  PROB40 \n  TEMPO 2327/2406 22015G25KT"
    },
    {
      "icao": "LEVC",
      "iata": "VLC",
      "name": "Valencia Airport",
      "lat": 39.4893,
      "lon": -0.481625,
      "updatedAt": "230630Z",
      "visibility_m": 10000,
      "taf_visibility_m": 10000,
      "worst_visibility_m": 10000,
      "ceiling_ft": null,
      "hazards": [],
      "severityScore": 0,
      "metarRaw": "METAR LEVC 230630Z 18006KT 140V200 9999 FEW036 SCT041 11/05 Q0998 NOSIG",
      "tafRaw": "TAF LEVC 230500Z 2306/2406 18007KT 9999 SCT040 TX16/2313Z TN07/2306Z \n  BECMG 2307/2310 27012KT \n  PROB40 \n  TEMPO 2310/2316 27015G25KT \n  TEMPO 2318/2322 VRB04KT"
    },
    {
      "icao": "LEXJ",
      "iata": "SDR",
      "name": "Seve Ballesteros-Santander Airport",
      "lat": 43.427101,
      "lon": -3.82001,
      "updatedAt": "230630Z",
      "visibility_m": 10000,
      "taf_visibility_m": 10000,
      "worst_visibility_m": 10000,
      "ceiling_ft": null,
      "hazards": [],
      "severityScore": 0,
      "metarRaw": "METAR LEXJ 230630Z 29005KT 240V010 9999 FEW065 07/03 Q0992",
      "tafRaw": "TAF LEXJ 230200Z 2303/2403 24009KT 9999 FEW030 TX14/2313Z TN07/2403Z \n  TEMPO 2307/2318 20018G30KT"
    },
    {
      "icao": "LEZG",
      "iata": "ZAZ",
      "name": "Zaragoza Airport",
      "lat": 41.666199,
      "lon": -1.04155,
      "updatedAt": "230630Z",
      "visibility_m": 10000,
      "taf_visibility_m": 10000,
      "worst_visibility_m": 10000,
      "ceiling_ft": 7000,
      "hazards": [],
      "severityScore": 0,
      "metarRaw": "METAR LEZG 230630Z 26009KT 230V290 9999 BKN070 OVC080 09/04 Q0997 NOSIG",
      "tafRaw": "TAF LEZG 230500Z 2306/2406 VRB04KT 9999 FEW040 TX13/2315Z TN05/2306Z \n  BECMG 2306/2308 27015KT \n  TEMPO 2310/2316 27020G30KT \n  TEMPO 2318/2324 VRB04KT"
    },
    {
      "icao": "LGAV",
      "iata": "ATH",
      "name": "Athens Eleftherios Venizelos International Airport",
      "lat": 37.936401,
      "lon": 23.9445,
      "updatedAt": "230650Z",
      "visibility_m": 10000,
      "taf_visibility_m": 7000,
      "worst_visibility_m": 7000,
      "ceiling_ft": 7000,
      "hazards": [],
      "severityScore": 0,
      "metarRaw": "METAR LGAV 230650Z VRB01KT 9999 FEW018 SCT050 08/06 Q1005 NOSIG",
      "tafRaw": "TAF LGAV 230500Z 2306/2406 VRB05KT 7000 FEW015 SCT025 \n  BECMG 2313/2315 SCT020 BKN070"
    },
    {
      "icao": "LIBG",
      "iata": "TAR",
      "name": "Taranto-Grottaglie Marcello Arlotta Airport",
      "lat": 40.517502,
      "lon": 17.4032,
      "updatedAt": null,
      "visibility_m": null,
      "taf_visibility_m": 10000,
      "worst_visibility_m": 10000,
      "ceiling_ft": null,
      "hazards": [],
      "severityScore": 0,
      "metarRaw": null,
      "tafRaw": "TAF LIBG 230701Z 2308/2315 VRB05KT 9999 FEW020"
    },
    {
      "icao": "LICA",
      "iata": "SUF",
      "name": "Lamezia Terme Sant'Eufemia International Airport",
      "lat": 38.906214,
      "lon": 16.246007,
      "updatedAt": "230650Z",
      "visibility_m": 10000,
      "taf_visibility_m": 10000,
      "worst_visibility_m": 10000,
      "ceiling_ft": 2000,
      "hazards": [],
      "severityScore": 0,
      "metarRaw": "METAR LICA 230650Z AUTO 15004KT 110V170 9999 NCD 07/06 Q1001",
      "tafRaw": "TAF LICA 230500Z 2306/2406 07010KT 9999 BKN020 \n  BECMG 2312/2314 VRB05KT"
    },
    {
      "icao": "LICJ",
      "iata": "PMO",
      "name": "Falcone–Borsellino Airport",
      "lat": 38.175999,
      "lon": 13.091,
      "updatedAt": "230650Z",
      "visibility_m": 10000,
      "taf_visibility_m": 10000,
      "worst_visibility_m": 10000,
      "ceiling_ft": null,
      "hazards": [],
      "severityScore": 0,
      "metarRaw": "METAR LICJ 230650Z 19005KT 9999 SCT050 11/08 Q1001",
      "tafRaw": "TAF LICJ 230500Z 2306/2406 16008KT 9999 FEW030 \n  BECMG 2308/2310 22012KT \n  TEMPO 2400/2406 20015G25KT"
    },
    {
      "icao": "LLBG",
      "iata": "TLV",
      "name": "Ben Gurion International Airport",
      "lat": 32.011398,
      "lon": 34.8867,
      "updatedAt": "230650Z",
      "visibility_m": 9000,
      "taf_visibility_m": 10000,
      "worst_visibility_m": 9000,
      "ceiling_ft": null,
      "hazards": [],
      "severityScore": 0,
      "metarRaw": "METAR LLBG 230650Z 19005KT 9000 FEW028 17/12 Q1013 NOSIG",
      "tafRaw": "TAF LLBG 230502Z 2306/2406 VRB04KT CAVOK \n  PROB40 \n  TEMPO 2306/2307 18005KT 9999 FEW030 \n  BECMG 2307/2309 29010KT 9999 FEW045 \n  BECMG 2313/2315 VRB03KT \n  TEMPO 2320/2406 14006KT TX21/2312Z TN12/2404Z"
    },
    {
      "icao": "LPMA",
      "iata": "FNC",
      "name": "Cristiano Ronaldo International Airport",
      "lat": 32.697812,
      "lon": -16.774613,
      "updatedAt": "230630Z",
      "visibility_m": 10000,
      "taf_visibility_m": 10000,
      "worst_visibility_m": 10000,
      "ceiling_ft": null,
      "hazards": [],
      "severityScore": 0,
      "metarRaw": "METAR LPMA 230630Z 34015KT 260V010 9999 SCT015 17/13 Q1015",
      "tafRaw": "TAF LPMA 230500Z 2306/2406 34012KT 9999 SCT015 \n  PROB40 \n  TEMPO 2308/2406 34015G27KT"
    },
    {
      "icao": "LPPS",
      "iata": "PXO",
      "name": "Porto Santo Airport",
      "lat": 33.0733985901,
      "lon": -16.3500003815,
      "updatedAt": "230630Z",
      "visibility_m": 10000,
      "taf_visibility_m": 10000,
      "worst_visibility_m": 10000,
      "ceiling_ft": 3000,
      "hazards": [],
      "severityScore": 0,
      "metarRaw": "METAR LPPS 230630Z 32012KT 9999 SCT013 BKN030 16/14 Q1016",
      "tafRaw": "TAF LPPS 230500Z 2306/2412 31015KT 9999 SCT015 SCT030 \n  PROB40 \n  TEMPO 2306/2406 31020G33KT"
    },
    {
      "icao": "OJAI",
      "iata": "AMM",
      "name": "Queen Alia International Airport",
      "lat": 31.7226009369,
      "lon": 35.9931983948,
      "updatedAt": "230600Z",
      "visibility_m": 4000,
      "taf_visibility_m": 3000,
      "worst_visibility_m": 3000,
      "ceiling_ft": null,
      "hazards": [],
      "severityScore": 0,
      "metarRaw": "METAR OJAI 230600Z 26002KT 4000 HZ NSC 07/04 Q1014 NOSIG",
      "tafRaw": "TAF OJAI 230500Z 2306/2412 VRB02KT 3000 HZ SCT040 \n  BECMG 2306/2308 27012KT 5000"
    },
    {
      "icao": "OMAA",
      "iata": "AUH",
      "name": "Zayed International Airport",
      "lat": 24.440966,
      "lon": 54.649237,
      "updatedAt": "230700Z",
      "visibility_m": 10000,
      "taf_visibility_m": 8000,
      "worst_visibility_m": 8000,
      "ceiling_ft": null,
      "hazards": [],
      "severityScore": 0,
      "metarRaw": "METAR OMAA 230700Z 06010KT CAVOK 20/02 Q1022 NOSIG",
      "tafRaw": "TAF OMAA 230500Z 2306/2412 06006KT 8000 NSC \n  BECMG 2310/2312 34010KT \n  BECMG 2317/2319 08005KT \n  BECMG 2410/2412 33010KT"
    },
    {
      "icao": "OMDB",
      "iata": "DXB",
      "name": "Dubai International Airport",
      "lat": 25.2527999878,
      "lon": 55.3643989563,
      "updatedAt": "230700Z",
      "visibility_m": 10000,
      "taf_visibility_m": 10000,
      "worst_visibility_m": 10000,
      "ceiling_ft": null,
      "hazards": [],
      "severityScore": 0,
      "metarRaw": "METAR OMDB 230700Z 07009KT 020V100 CAVOK 20/04 Q1022 NOSIG",
      "tafRaw": "TAF OMDB 230500Z 2306/2412 06007KT CAVOK \n  BECMG 2310/2312 35012KT \n  BECMG 2315/2317 09005KT \n  BECMG 2409/2411 31010KT"
    }
  ],
  "stats": {
    "icaoCount": 159,
    "metarReturned": 158,
    "tafReturned": 153,
    "stationsWritten": 159,
    "missingMetar": 1,
    "missingTaf": 6
  },
  "errors": []
}