{
  "generatedAt": "2026-01-17T05:46:09.369Z",
  "stations": [
    {
      "icao": "EDDB",
      "iata": "BER",
      "name": "Berlin Brandenburg Airport",
      "updatedAt": "170520Z",
      "visibility_m": 1200,
      "taf_visibility_m": 700,
      "worst_visibility_m": 700,
      "ceiling_ft": 100,
      "hazards": [
        "BR",
        "FZFG",
        "FG"
      ],
      "severityScore": 100,
      "metarRaw": "METAR EDDB 170520Z AUTO 10007KT 1600 1400 R06L/P2000N R06R/P2000N BR OVC001 M00/M00 Q1023 TEMPO 1200 BR",
      "tafRaw": "TAF EDDB 170500Z 1706/1806 11007KT 2000 BR BKN002 \n  TEMPO 1706/1707 0700 FZFG BKN001 \n  PROB40 \n  TEMPO 1707/1710 0700 FG BKN001 \n  TEMPO 1710/1718 6000 \n  TEMPO 1718/1806 0700 FG BKN001"
    },
    {
      "icao": "EDJA",
      "iata": "FMM",
      "name": "Memmingen Allgau Airport",
      "updatedAt": "170520Z",
      "visibility_m": 1000,
      "taf_visibility_m": 1500,
      "worst_visibility_m": 1000,
      "ceiling_ft": 100,
      "hazards": [
        "FZFG",
        "FG",
        "BR"
      ],
      "severityScore": 100,
      "metarRaw": "METAR EDJA 170520Z 03005KT 1000 R06/1800D FZFG VV/// M02/M03 Q1017",
      "tafRaw": "TAF EDJA 170500Z 1706/1715 05004KT 3000 BR OVC002 \n  TEMPO 1706/1711 1500 BR OVC001 \n  BECMG 1711/1713 7000"
    },
    {
      "icao": "EFTU",
      "iata": "TKU",
      "name": "Turku Airport",
      "updatedAt": "170520Z",
      "visibility_m": 3400,
      "taf_visibility_m": 300,
      "worst_visibility_m": 300,
      "ceiling_ft": 200,
      "hazards": [
        "FZDZ",
        "DZ",
        "FG",
        "BR",
        "FZRA",
        "RA"
      ],
      "severityScore": 100,
      "metarRaw": "METAR EFTU 170520Z AUTO 18010KT 3400 FZDZ OVC002 M01/M01 Q1026",
      "tafRaw": "TAF EFTU 170524Z 1706/1806 18012G22KT 2500 -FZDZ OVC002 \n  TEMPO 1706/1710 3000 -FZRA BR OVC001 \n  PROB40 1710/1713 0600 FG \n  BECMG 1713/1715 24006KT \n  BECMG 1719/1721 0300 FG OVC001 \n  BECMG 1722/1724 0800 OVC002 \n  BECMG 1804/1806 2500 BR"
    },
    {
      "icao": "EGBB",
      "iata": "BHX",
      "name": "Birmingham Airport",
      "updatedAt": "170520Z",
      "visibility_m": 10000,
      "taf_visibility_m": 300,
      "worst_visibility_m": 300,
      "ceiling_ft": 700,
      "hazards": [
        "FG",
        "BR",
        "SHRA",
        "DZ",
        "RA"
      ],
      "severityScore": 100,
      "metarRaw": "METAR EGBB 170520Z 16004KT 9999 BKN007 06/05 Q1010",
      "tafRaw": "TAF EGBB 170454Z 1706/1806 14007KT 9999 FEW012 SCT025 \n  PROB30 \n  TEMPO 1706/1716 8000 -SHRA \n  PROB30 \n  TEMPO 1706/1711 BKN004 \n  PROB30 \n  TEMPO 1711/1716 BKN012 \n  TEMPO 1719/1724 7000 BKN009 \n  PROB30 1719/1806 0300 FG BKN001 \n  BECMG 1800/1803 BKN008 \n  TEMPO 1800/1806 4000 BR DZ BKN004"
    },
    {
      "icao": "EGGW",
      "iata": "LTN",
      "name": "London Luton Airport",
      "updatedAt": "170520Z",
      "visibility_m": 3100,
      "taf_visibility_m": 300,
      "worst_visibility_m": 300,
      "ceiling_ft": 100,
      "hazards": [
        "BR",
        "FG",
        "SHRA",
        "RA",
        "DZ"
      ],
      "severityScore": 100,
      "metarRaw": "METAR EGGW 170520Z AUTO 14008KT 3100 BR OVC002/// //////TCU 07/06 Q1010",
      "tafRaw": "TAF EGGW 170454Z 1706/1806 14007KT 9999 BKN008 \n  TEMPO 1706/1711 6000 -RADZ BKN004 \n  PROB30 1706/1711 0600 FG BKN001 \n  BECMG 1711/1714 SCT008 \n  PROB30 \n  TEMPO 1711/1713 3000 BR SHRA BKN003 \n  TEMPO 1717/1724 6000 BKN008 \n  PROB40 1717/1724 2000 BR \n  PROB30 \n  TEMPO 1717/1721 BKN004 \n  PROB30 \n  TEMPO 1721/1724 BKN001 \n  BECMG 1800/1803 6000 BKN004 \n  PROB40 1800/1806 0300 FG BKN001"
    },
    {
      "icao": "EGNM",
      "iata": "LBA",
      "name": "Leeds Bradford Airport",
      "updatedAt": "170520Z",
      "visibility_m": 150,
      "taf_visibility_m": 300,
      "worst_visibility_m": 150,
      "ceiling_ft": 600,
      "hazards": [
        "FG",
        "RA",
        "BR",
        "DZ"
      ],
      "severityScore": 100,
      "metarRaw": "METAR EGNM 170520Z 12006KT 0150 -RA FG VV/// 04/04 Q1010",
      "tafRaw": "TAF EGNM 170500Z 1706/1806 13006KT 0300 FG VV/// \n  PROB40 \n  TEMPO 1706/1713 RA -RADZ \n  BECMG 1711/1714 6000 NSW SCT008 \n  TEMPO 1714/1718 4000 BR BKN006 \n  BECMG 1717/1720 0300 FG VV/// \n  PROB30 \n  TEMPO 1802/1806 RA -RADZ"
    },
    {
      "icao": "EGPD",
      "iata": "ABZ",
      "name": "Aberdeen International Airport",
      "updatedAt": "170520Z",
      "visibility_m": 10000,
      "taf_visibility_m": 300,
      "worst_visibility_m": 300,
      "ceiling_ft": 2000,
      "hazards": [
        "FG",
        "BR",
        "RA",
        "SHRA",
        "DZ"
      ],
      "severityScore": 100,
      "metarRaw": "METAR EGPD 170520Z COR AUTO 15009KT 9999 FEW015 OVC020 06/04 Q1013 NOSIG",
      "tafRaw": "TAF EGPD 170502Z 1706/1806 14006KT 9999 SCT010 \n  TEMPO 1706/1708 3000 BR BKN010 \n  PROB30 \n  TEMPO 1706/1708 BKN006 \n  TEMPO 1708/1722 6000 RA BKN006 \n  PROB30 \n  TEMPO 1708/1722 3000 +RA +SHRA BKN004 \n  TEMPO 1722/1806 2000 -RADZ BR BKN004 \n  PROB30 \n  TEMPO 1722/1806 0300 FG BKN001"
    },
    {
      "icao": "EKCH",
      "iata": "CPH",
      "name": "Copenhagen Kastrup Airport",
      "updatedAt": "170520Z",
      "visibility_m": 300,
      "taf_visibility_m": 100,
      "worst_visibility_m": 100,
      "ceiling_ft": 200,
      "hazards": [
        "FG",
        "BR"
      ],
      "severityScore": 100,
      "metarRaw": "METAR EKCH 170520Z 12010KT 0300 R22L/0900U R04L/0900N R12/0800N FG VV002 02/02 Q1025 TEMPO 0500",
      "tafRaw": "TAF EKCH 170527Z 1706/1806 13010KT 0100 FG VV001 \n  TEMPO 1706/1708 0600 OVC002 \n  BECMG 1708/1710 2000 BR BKN005 \n  TEMPO 1710/1806 5000 NSW BKN003"
    },
    {
      "icao": "ENGM",
      "iata": "OSL",
      "name": "Oslo-Gardermoen International Airport",
      "updatedAt": "170520Z",
      "visibility_m": 800,
      "taf_visibility_m": 500,
      "worst_visibility_m": 500,
      "ceiling_ft": 100,
      "hazards": [
        "FZFG",
        "FG",
        "BR",
        "SN",
        "RA"
      ],
      "severityScore": 100,
      "metarRaw": "METAR ENGM 170520Z 11004KT 050V200 7000 0750SE R19R/1400U R01R/1200D R19L/P2000N R01L/P2000N PRFG BKN001 01/00 Q1021 TEMPO 0800 FZFG VV002",
      "tafRaw": "TAF ENGM 170500Z 1706/1806 VRB03KT 6000 SCT003 \n  BECMG 1706/1708 0500 FZFG VV002 \n  TEMPO 1708/1721 6000 NSW BKN005 \n  TEMPO 1721/1806 4000 -RASN BR BKN005"
    },
    {
      "icao": "ENTO",
      "iata": "TRF",
      "name": "Sandefjord Airport, Torp",
      "updatedAt": "170520Z",
      "visibility_m": 10000,
      "taf_visibility_m": 500,
      "worst_visibility_m": 500,
      "ceiling_ft": 200,
      "hazards": [
        "FZFG",
        "BR",
        "DZ",
        "FG"
      ],
      "severityScore": 100,
      "metarRaw": "METAR ENTO 170520Z AUTO 24004KT 9999 NCD 01/01 Q1022",
      "tafRaw": "TAF ENTO 170500Z 1706/1806 24005KT 9999 FEW008 \n  PROB30 1706/1806 0500 FZFG VV002 \n  BECMG 1710/1712 01010KT 4000 -DZ BR BKN003"
    },
    {
      "icao": "EPGD",
      "iata": "GDN",
      "name": "Gdańsk Lech Wałęsa Airport",
      "updatedAt": "170530Z",
      "visibility_m": 500,
      "taf_visibility_m": 400,
      "worst_visibility_m": 400,
      "ceiling_ft": 100,
      "hazards": [
        "FZFG",
        "FG",
        "BR"
      ],
      "severityScore": 100,
      "metarRaw": "METAR EPGD 170530Z 17008KT 0500 R29/1300N FZFG OVC001 M05/M05 Q1028",
      "tafRaw": "TAF EPGD 170530Z 1706/1806 16010KT 1200 BR OVC002 \n  TEMPO 1706/1709 0400 FZFG OVC001 \n  BECMG 1710/1712 4000 BR \n  BECMG 1714/1716 8000 SCT010"
    },
    {
      "icao": "EPKK",
      "iata": "KRK",
      "name": "Kraków John Paul II International Airport",
      "updatedAt": "170530Z",
      "visibility_m": 150,
      "taf_visibility_m": 200,
      "worst_visibility_m": 150,
      "ceiling_ft": 100,
      "hazards": [
        "FZFG",
        "FG",
        "BR"
      ],
      "severityScore": 100,
      "metarRaw": "METAR EPKK 170530Z 07008KT 0150 R25/0600N FZFG OVC001 M04/M05 Q1028",
      "tafRaw": "TAF EPKK 170530Z 1706/1806 06010KT 0200 FZFG OVC001 \n  TEMPO 1706/1708 1200 BR OVC003 \n  BECMG 1708/1711 6000 BKN010 \n  BECMG 1711/1713 CAVOK \n  TEMPO 1717/1806 4000 BR \n  PROB40 \n  TEMPO 1722/1806 1200 BR OVC004"
    },
    {
      "icao": "EPKT",
      "iata": "KTW",
      "name": "Katowice Wojciech Korfanty International Airport",
      "updatedAt": "170530Z",
      "visibility_m": 200,
      "taf_visibility_m": 200,
      "worst_visibility_m": 200,
      "ceiling_ft": 100,
      "hazards": [
        "FZFG",
        "FG",
        "BR"
      ],
      "severityScore": 100,
      "metarRaw": "METAR EPKT 170530Z 10008KT 0200 R26/0800N FZFG OVC001 M02/M02 Q1027",
      "tafRaw": "TAF EPKT 170530Z 1706/1806 11008KT 0200 FZFG OVC001 \n  TEMPO 1706/1708 3000 BR OVC005 \n  BECMG 1708/1711 CAVOK"
    },
    {
      "icao": "EPPO",
      "iata": "POZ",
      "name": "Poznań-Ławica Airport",
      "updatedAt": "170530Z",
      "visibility_m": 1400,
      "taf_visibility_m": 300,
      "worst_visibility_m": 300,
      "ceiling_ft": 200,
      "hazards": [
        "BR",
        "FZFG",
        "FG"
      ],
      "severityScore": 100,
      "metarRaw": "METAR EPPO 170530Z 11009KT 1400 R28/P2000U BR OVC002 01/00 Q1026",
      "tafRaw": "TAF EPPO 170530Z 1706/1806 13010KT 1500 BR OVC002 \n  PROB30 \n  TEMPO 1706/1708 0300 FG OVC000 \n  BECMG 1708/1711 4000 BR OVC005 \n  BECMG 1715/1717 9999 SCT008 \n  BECMG 1721/1724 2700 BR BKN004 \n  PROB40 \n  TEMPO 1722/1806 0500 FZFG BKN001"
    },
    {
      "icao": "EPWR",
      "iata": "WRO",
      "name": "Copernicus Wrocław Airport",
      "updatedAt": "170530Z",
      "visibility_m": 400,
      "taf_visibility_m": 300,
      "worst_visibility_m": 300,
      "ceiling_ft": 100,
      "hazards": [
        "FG",
        "FZFG",
        "BR"
      ],
      "severityScore": 100,
      "metarRaw": "METAR EPWR 170530Z 12013KT 0400 R29/1400N FG OVC001 00/00 Q1026",
      "tafRaw": "TAF EPWR 170530Z 1706/1806 12010KT 0500 FG OVC002 \n  TEMPO 1706/1709 0300 FZFG OVC000 \n  BECMG 1708/1711 9999 BKN008 \n  PROB40 1711/1718 SCT008 \n  BECMG 1717/1720 4000 BR \n  BECMG 1720/1722 2500 BR \n  TEMPO 1720/1724 0700 FG BKN002 \n  TEMPO 1800/1806 0500 FZFG BKN002"
    },
    {
      "icao": "ESGG",
      "iata": "GOT",
      "name": "Göteborg Landvetter Airport",
      "updatedAt": "170520Z",
      "visibility_m": 500,
      "taf_visibility_m": 100,
      "worst_visibility_m": 100,
      "ceiling_ft": 400,
      "hazards": [
        "FG",
        "BR"
      ],
      "severityScore": 100,
      "metarRaw": "METAR ESGG 170520Z 13005KT 0500 R03/P2000N R21/P2000N FG VV004 02/02 Q1023",
      "tafRaw": "TAF ESGG 170530Z 1706/1806 20008KT 9999 BKN006 \n  PROB40 1706/1711 0100 FG VV002 \n  PROB40 1711/1718 1200 BR OVC002 \n  PROB40 1718/1806 0300 FG VV002"
    },
    {
      "icao": "ESMS",
      "iata": "MMX",
      "name": "Malmö Sturup Airport",
      "updatedAt": "170520Z",
      "visibility_m": 100,
      "taf_visibility_m": 100,
      "worst_visibility_m": 100,
      "ceiling_ft": 100,
      "hazards": [
        "FG",
        "BR"
      ],
      "severityScore": 100,
      "metarRaw": "METAR ESMS 170520Z 11007KT 0100 R17/0600N R35/0600N FG VV001 02/02 Q1024",
      "tafRaw": "TAF ESMS 170527Z 1706/1806 13008KT 0100 FG VV001 \n  TEMPO 1706/1710 3000 BR BKN005 \n  BECMG 1710/1712 2000 BR BKN005 \n  TEMPO 1712/1806 6000 NSW BKN002"
    },
    {
      "icao": "LFBD",
      "iata": "BOD",
      "name": "Bordeaux–Mérignac Airport",
      "updatedAt": "170530Z",
      "visibility_m": 500,
      "taf_visibility_m": 300,
      "worst_visibility_m": 300,
      "ceiling_ft": 8400,
      "hazards": [
        "FG",
        "BR",
        "SHRA",
        "RA"
      ],
      "severityScore": 100,
      "metarRaw": "METAR LFBD 170530Z AUTO 13006KT 9999 FEW003 BKN084 OVC230 06/06 Q1011 TEMPO 0500 FG VV///",
      "tafRaw": "TAF LFBD 170500Z 1706/1812 VRB03KT CAVOK TX10/1812Z TN05/1706Z \n  TEMPO 1706/1712 1500 BR BKN002 \n  PROB30 \n  TEMPO 1706/1710 0400 FG VV/// \n  TEMPO 1712/1716 -SHRA BKN025TCU \n  TEMPO 1716/1812 2000 BR BKN003 \n  PROB40 \n  TEMPO 1802/1811 0300 FG VV///"
    },
    {
      "icao": "LHDC",
      "iata": "DEB",
      "name": "Debrecen International Airport",
      "updatedAt": "170515Z",
      "visibility_m": 900,
      "taf_visibility_m": 300,
      "worst_visibility_m": 300,
      "ceiling_ft": 400,
      "hazards": [
        "FG",
        "BR"
      ],
      "severityScore": 100,
      "metarRaw": "METAR LHDC 170515Z AUTO VRB02KT 0900 R04/1100N FG VV004 01/01 Q1030",
      "tafRaw": "TAF LHDC 170515Z 1706/1715 VRB03KT 0300 FG VV001 \n  TEMPO 1706/1708 3000 BR SCT005 \n  BECMG 1708/1712 04006KT CAVOK"
    },
    {
      "icao": "LIBP",
      "iata": "PSR",
      "name": "Abruzzo Airport",
      "updatedAt": "170520Z",
      "visibility_m": 3600,
      "taf_visibility_m": 300,
      "worst_visibility_m": 300,
      "ceiling_ft": 200,
      "hazards": [
        "BR",
        "FG"
      ],
      "severityScore": 100,
      "metarRaw": "METAR LIBP 170520Z AUTO VRB02KT 3600 BR NCD 05/05 Q1021",
      "tafRaw": "TAF LIBP 170500Z 1706/1806 VRB03KT 0300 FG OVC002 \n  BECMG 1706/1708 6000 SCT020 \n  BECMG 1718/1720 2000 BR \n  TEMPO 1722/1806 0300 FG OVC002"
    },
    {
      "icao": "LIPE",
      "iata": "BLQ",
      "name": "Bologna Guglielmo Marconi Airport",
      "updatedAt": "170520Z",
      "visibility_m": 500,
      "taf_visibility_m": 300,
      "worst_visibility_m": 300,
      "ceiling_ft": 300,
      "hazards": [
        "FG",
        "BR"
      ],
      "severityScore": 100,
      "metarRaw": "METAR LIPE 170520Z VRB02KT 0500 R12/P2000N R30/1700D FG BKN003 06/06 Q1022",
      "tafRaw": "TAF LIPE 170500Z 1706/1806 VRB04KT 2000 BR BKN020 \n  TEMPO 1706/1709 0300 FG OVC003 \n  TEMPO 1718/1806 0300 FG OVC003"
    },
    {
      "icao": "LIPQ",
      "iata": "TRS",
      "name": "Trieste–Friuli Venezia Giulia Airport",
      "updatedAt": "170520Z",
      "visibility_m": 200,
      "taf_visibility_m": 2500,
      "worst_visibility_m": 200,
      "ceiling_ft": 200,
      "hazards": [
        "FG",
        "BR"
      ],
      "severityScore": 100,
      "metarRaw": "METAR LIPQ 170520Z AUTO 01003KT 0200 R09/0600N FG VV002 08/08 Q1022",
      "tafRaw": "TAF LIPQ 170500Z 1706/1806 03007KT 2500 BR BKN020 \n  BECMG 1707/1709 7000"
    },
    {
      "icao": "LIPR",
      "iata": "RMI",
      "name": "Federico Fellini International Airport",
      "updatedAt": "170520Z",
      "visibility_m": 1400,
      "taf_visibility_m": 300,
      "worst_visibility_m": 300,
      "ceiling_ft": 300,
      "hazards": [
        "BR",
        "FG"
      ],
      "severityScore": 100,
      "metarRaw": "METAR LIPR 170520Z AUTO 29004KT 1400 R30/P2000N BR OVC003/// 07/06 Q1022",
      "tafRaw": "TAF LIPR 170500Z 1706/1806 VRB04KT 0300 FG OVC003 \n  BECMG 1706/1708 6000 SCT020 \n  BECMG 1717/1719 3000 BR \n  TEMPO 1721/1806 0300 FG"
    },
    {
      "icao": "LIPX",
      "iata": "VRN",
      "name": "Verona Villafranca Valerio Catullo Airport",
      "updatedAt": "170520Z",
      "visibility_m": 200,
      "taf_visibility_m": 500,
      "worst_visibility_m": 200,
      "ceiling_ft": 400,
      "hazards": [
        "FG",
        "BR"
      ],
      "severityScore": 100,
      "metarRaw": "METAR LIPX 170520Z VRB01KT 0200 R04/0175N FG VV004 03/03 Q1023",
      "tafRaw": "TAF LIPX 170500Z 1706/1806 VRB04KT 2000 BR BKN012 \n  PROB40 \n  TEMPO 1706/1709 0500 FG \n  BECMG 1707/1709 6000 SCT025"
    },
    {
      "icao": "LIPY",
      "iata": "AOI",
      "name": "Marche Airport",
      "updatedAt": "170520Z",
      "visibility_m": 1200,
      "taf_visibility_m": 300,
      "worst_visibility_m": 300,
      "ceiling_ft": 100,
      "hazards": [
        "BR",
        "FG"
      ],
      "severityScore": 100,
      "metarRaw": "METAR LIPY 170520Z AUTO VRB01KT 1200 R22/P2000N BR OVC003/// 09/09 Q1021",
      "tafRaw": "TAF LIPY 170500Z 1706/1806 VRB05KT 0300 FG OVC001 \n  BECMG 1708/1710 3000 BR BKN006 \n  BECMG 1718/1720 0300 FG OVC001 \n  BECMG 1804/1806 3000 BR"
    },
    {
      "icao": "LIRZ",
      "iata": "PEG",
      "name": "Perugia San Francesco d'Assisi – Umbria International Airport",
      "updatedAt": "170520Z",
      "visibility_m": 250,
      "taf_visibility_m": 300,
      "worst_visibility_m": 250,
      "ceiling_ft": 100,
      "hazards": [
        "FZFG",
        "FG"
      ],
      "severityScore": 100,
      "metarRaw": "METAR LIRZ 170520Z AUTO 00000KT 0250 0150S R01/0450N FZFG VV001 M00/M00 Q1019",
      "tafRaw": "TAF LIRZ 170500Z 1706/1806 VRB05KT CAVOK \n  BECMG 1706/1708 0300 FG \n  BECMG 1709/1711 02010KT \n  BECMG 1716/1718 VRB05KT"
    },
    {
      "icao": "LKMT",
      "iata": "OSR",
      "name": "Ostrava Leos Janáček Airport",
      "updatedAt": "170530Z",
      "visibility_m": 400,
      "taf_visibility_m": 300,
      "worst_visibility_m": 300,
      "ceiling_ft": 200,
      "hazards": [
        "FZFG",
        "FG",
        "BR"
      ],
      "severityScore": 100,
      "metarRaw": "METAR LKMT 170530Z 05004KT 0400 R22/0550N R04/0550N FZFG VV002 M01/M01 Q1026 NOSIG",
      "tafRaw": "TAF LKMT 170500Z 1706/1806 VRB02KT 0300 FZFG VV002 \n  TEMPO 1709/1716 4000 BR SCT010 \n  PROB40 \n  TEMPO 1711/1715 6000 NSC"
    },
    {
      "icao": "LKPR",
      "iata": "PRG",
      "name": "Václav Havel Airport Prague",
      "updatedAt": "170530Z",
      "visibility_m": 750,
      "taf_visibility_m": 400,
      "worst_visibility_m": 400,
      "ceiling_ft": 200,
      "hazards": [
        "FG",
        "DZ",
        "BR"
      ],
      "severityScore": 100,
      "metarRaw": "METAR LKPR 170530Z 07007KT 0750 R24/0750N R30/0750U -DZ FG VV002 01/01 Q1022 NOSIG",
      "tafRaw": "TAF LKPR 170500Z 1706/1812 11005KT 0400 FG SCT001 BKN002 \n  TEMPO 1708/1710 1500 BR BKN003 \n  BECMG 1710/1712 5000 BR SCT003 BKN007 \n  BECMG 1712/1714 8000 BKN011 \n  BECMG 1716/1718 13010KT 9999 SCT012 \n  BECMG 1720/1722 CAVOK"
    },
    {
      "icao": "LOWW",
      "iata": "VIE",
      "name": "Vienna International Airport",
      "updatedAt": "170520Z",
      "visibility_m": 1400,
      "taf_visibility_m": 500,
      "worst_visibility_m": 500,
      "ceiling_ft": 200,
      "hazards": [
        "BR",
        "FG",
        "DZ"
      ],
      "severityScore": 100,
      "metarRaw": "METAR LOWW 170520Z 13017KT 2000 BR FEW001 BKN002 01/01 Q1025 TEMPO 1400 BCFG",
      "tafRaw": "TAF LOWW 170515Z 1706/1812 14010KT 3000 BR SCT001 OVC002 TX02/1713Z TNM03/1807Z \n  TEMPO 1706/1708 0500 -DZ FG OVC001 \n  BECMG 1708/1710 6000 OVC005 \n  TEMPO 1708/1716 13015G25KT \n  BECMG 1710/1712 BKN010 \n  BECMG 1714/1716 CAVOK \n  TEMPO 1809/1812 SCT013 BKN014"
    },
    {
      "icao": "LQSA",
      "iata": "SJJ",
      "name": "Sarajevo International Airport",
      "updatedAt": "170530Z",
      "visibility_m": 300,
      "taf_visibility_m": 300,
      "worst_visibility_m": 300,
      "ceiling_ft": 300,
      "hazards": [
        "FZFG",
        "FG",
        "BR"
      ],
      "severityScore": 100,
      "metarRaw": "METAR LQSA 170530Z 12001KT 0300 R11/0600U FZFG VV003 M03/M03 Q1025 NOSIG",
      "tafRaw": "TAF LQSA 170500Z 1706/1806 VRB02KT 0300 FZFG BKN002 TX03/1714Z TNM04/1806Z \n  PROB30 1706/1708 0600 \n  BECMG 1708/1711 2500 BR BKN007 \n  TEMPO 1711/1718 6000 NSW SCT008 \n  PROB40 \n  TEMPO 1720/1806 0500 FZFG BKN003"
    },
    {
      "icao": "LQTZ",
      "iata": "TZL",
      "name": "Tuzla International Airport",
      "updatedAt": "170530Z",
      "visibility_m": 10000,
      "taf_visibility_m": 300,
      "worst_visibility_m": 300,
      "ceiling_ft": 200,
      "hazards": [
        "FZFG",
        "BR",
        "FG"
      ],
      "severityScore": 100,
      "metarRaw": "METAR LQTZ 170530Z 13005KT CAVOK 02/02 Q1025",
      "tafRaw": "TAF LQTZ 170500Z 1706/1806 12005KT CAVOK TX06/1713Z TNM03/1805Z \n  TEMPO 1706/1709 3000 BR BKN005 \n  PROB40 1710/1715 BKN008 \n  PROB40 1720/1806 0300 FZFG BKN002"
    },
    {
      "icao": "UAAA",
      "iata": "ALA",
      "name": "Almaty International Airport",
      "updatedAt": "170530Z",
      "visibility_m": 10000,
      "taf_visibility_m": 800,
      "worst_visibility_m": 800,
      "ceiling_ft": 10000,
      "hazards": [
        "FZFG",
        "BR",
        "SN",
        "SHSN",
        "FG"
      ],
      "severityScore": 100,
      "metarRaw": "METAR UAAA 170530Z 29003MPS 9999 SCT050CB BKN100 M17/M20 Q1029 NOSIG",
      "tafRaw": "TAF UAAA 170501Z 1706/1806 28003MPS 5000 BR BKN020CB OVC040 TXM15/1708Z TNM20/1803Z \n  TEMPO 1706/1715 33003G08MPS 2400 -SHSN BR BKN008 BKN011CB OVC020 \n  FM171500 34003MPS 3100 BR BKN011CB OVC020 \n  TEMPO 1715/1803 0800 -SN FZFG VV003"
    },
    {
      "icao": "LFPO",
      "iata": "ORY",
      "name": "Paris-Orly Airport",
      "updatedAt": "170530Z",
      "visibility_m": 400,
      "taf_visibility_m": null,
      "worst_visibility_m": 400,
      "ceiling_ft": 200,
      "hazards": [
        "FG"
      ],
      "severityScore": 95,
      "metarRaw": "METAR LFPO 170530Z AUTO 00000KT 2800 0400 R02/1200D R25/0900U R07/1100U R24/P2000 R06/1600D BCFG VV/// 07/07 Q1013 TEMPO BKN002",
      "tafRaw": null
    },
    {
      "icao": "LEBL",
      "iata": "BCN",
      "name": "Josep Tarradellas Barcelona-El Prat Airport",
      "updatedAt": "170530Z",
      "visibility_m": 10000,
      "taf_visibility_m": 2000,
      "worst_visibility_m": 2000,
      "ceiling_ft": 1500,
      "hazards": [
        "TSRA",
        "SHRA",
        "TS",
        "RA"
      ],
      "severityScore": 88,
      "metarRaw": "METAR LEBL 170530Z 11009KT 9999 FEW015 SCT045 14/13 Q1010 NOSIG",
      "tafRaw": "TAF LEBL 170500Z 1706/1806 11012KT 9000 SCT010 BKN050 TX16/1712Z TN14/1706Z \n  TEMPO 1707/1716 12015G25KT \n  TEMPO 1706/1806 3000 SHRA BKN015 SCT020TCU \n  PROB40 \n  TEMPO 1714/1806 2000 TSRA BKN015 SCT020CB"
    },
    {
      "icao": "HESX",
      "iata": "SPX",
      "name": "Sphinx International Airport",
      "updatedAt": "170500Z",
      "visibility_m": 100,
      "taf_visibility_m": 100,
      "worst_visibility_m": 100,
      "ceiling_ft": null,
      "hazards": [
        "FG",
        "BR"
      ],
      "severityScore": 85,
      "metarRaw": "METAR HESX 170500Z 00000KT 0100 R34/0100 FG NSC 08/07 Q1019 NOSIG",
      "tafRaw": "TAF HESX 170512Z 1706/1812 VRB03KT 6000 NSC \n  TEMPO 1706/1710 2000 BR \n  PROB30 \n  TEMPO 1706/1708 0100 FG \n  BECMG 1710/1711 35010KT 9999 SCT025"
    },
    {
      "icao": "LRTR",
      "iata": "TSR",
      "name": "Timişoara Traian Vuia Airport",
      "updatedAt": "170530Z",
      "visibility_m": 10000,
      "taf_visibility_m": 600,
      "worst_visibility_m": 600,
      "ceiling_ft": 4500,
      "hazards": [
        "FZFG",
        "BR",
        "FG"
      ],
      "severityScore": 85,
      "metarRaw": "METAR LRTR 170530Z 08006KT 9999 FEW035 BKN045 M02/M05 Q1030",
      "tafRaw": "TAF LRTR 170500Z 1706/1806 08006KT 9999 BKN045 \n  BECMG 1718/1720 5000 BR \n  BECMG 1722/1724 3000 BR BKN005 \n  PROB40 \n  TEMPO 1801/1806 0600 FZFG OVC002"
    },
    {
      "icao": "LWSK",
      "iata": "SKP",
      "name": "Skopje International Airport",
      "updatedAt": "170520Z",
      "visibility_m": 1500,
      "taf_visibility_m": 800,
      "worst_visibility_m": 800,
      "ceiling_ft": 3000,
      "hazards": [
        "BR",
        "FZFG",
        "FG"
      ],
      "severityScore": 85,
      "metarRaw": "METAR LWSK 170520Z VRB01KT 1500 BR FEW003 BKN030 M02/M02 Q1027 NOSIG",
      "tafRaw": "TAF LWSK 170530Z 1706/1806 VRB02KT 5000 BR SCT020 BKN035 \n  TEMPO 1706/1709 1500 BR FEW003 SCT015 BKN030 \n  PROB40 \n  TEMPO 1706/1708 0800 FZFG SCT003 OVC010"
    },
    {
      "icao": "EETN",
      "iata": "TLL",
      "name": "Lennart Meri Tallinn Airport",
      "updatedAt": "170520Z",
      "visibility_m": 10000,
      "taf_visibility_m": 3000,
      "worst_visibility_m": 3000,
      "ceiling_ft": 900,
      "hazards": [
        "SN",
        "FZDZ",
        "DZ"
      ],
      "severityScore": 81,
      "metarRaw": "METAR EETN 170520Z 18008KT 150V210 9999 OVC009 M08/M10 Q1031 NOSIG",
      "tafRaw": "TAF EETN 170530Z 1706/1806 18010KT 9999 OVC010 \n  PROB40 \n  TEMPO 1706/1711 4000 -FZDZ SN BKN004 OVC008 \n  TEMPO 1711/1718 OVC007 \n  TEMPO 1713/1723 3000 SG FZDZ \n  TEMPO 1718/1806 SCT010 OVC020"
    },
    {
      "icao": "EGKK",
      "iata": "LGW",
      "name": "London Gatwick Airport",
      "updatedAt": "170520Z",
      "visibility_m": 10000,
      "taf_visibility_m": 3000,
      "worst_visibility_m": 3000,
      "ceiling_ft": 300,
      "hazards": [
        "BR",
        "SHRA",
        "DZ",
        "RA"
      ],
      "severityScore": 81,
      "metarRaw": "METAR EGKK 170520Z 14004KT 9999 SCT011 SCT039 08/08 Q1011",
      "tafRaw": "TAF EGKK 170453Z 1706/1812 15006KT 9999 SCT030 \n  TEMPO 1706/1712 6000 -RADZ BKN006 \n  PROB30 \n  TEMPO 1706/1711 4000 RADZ BR BKN004 \n  PROB40 \n  TEMPO 1712/1719 BKN007 \n  PROB40 \n  TEMPO 1712/1717 7000 -SHRA \n  TEMPO 1719/1807 5000 -DZ BR BKN005 \n  PROB30 \n  TEMPO 1722/1806 3000 DZ BKN003 \n  BECMG 1804/1807 09010KT \n  PROB30 1807/1812 7000"
    },
    {
      "icao": "LFLL",
      "iata": "LYS",
      "name": "Lyon Saint-Exupéry Airport",
      "updatedAt": "170530Z",
      "visibility_m": 10000,
      "taf_visibility_m": 300,
      "worst_visibility_m": 300,
      "ceiling_ft": 5000,
      "hazards": [
        "FG",
        "RA"
      ],
      "severityScore": 77,
      "metarRaw": "METAR LFLL 170530Z 14010KT CAVOK 08/03 Q1014 NOSIG",
      "tafRaw": "TAF LFLL 170500Z 1706/1812 14008KT CAVOK \n  PROB40 \n  TEMPO 1712/1716 RA BKN050 \n  BECMG 1717/1719 VRB03KT \n  PROB40 \n  TEMPO 1719/1724 0800 BCFG VV/// \n  TEMPO 1800/1812 0600 FG VV/// \n  PROB40 1807/1811 0300"
    },
    {
      "icao": "LHBP",
      "iata": "BUD",
      "name": "Budapest Liszt Ferenc International Airport",
      "updatedAt": "170530Z",
      "visibility_m": 10000,
      "taf_visibility_m": 4000,
      "worst_visibility_m": 4000,
      "ceiling_ft": 3300,
      "hazards": [
        "BR",
        "FZRA",
        "FG",
        "RA"
      ],
      "severityScore": 77,
      "metarRaw": "METAR LHBP 170530Z 09007KT 9999 OVC033 01/M00 Q1029 NOSIG",
      "tafRaw": "TAF LHBP 170515Z 1706/1806 08007KT 9999 BKN030 \n  PROB30 \n  TEMPO 1706/1708 -FZRA \n  TEMPO 1710/1716 VRB03KT 4500 BR BKN006 \n  BECMG 1716/1719 CAVOK \n  TEMPO 1802/1806 VRB02KT 4000 MIFG BR"
    },
    {
      "icao": "LIBR",
      "iata": "BDS",
      "name": "Brindisi Airport",
      "updatedAt": "170520Z",
      "visibility_m": 3000,
      "taf_visibility_m": 400,
      "worst_visibility_m": 400,
      "ceiling_ft": 1000,
      "hazards": [
        "BR",
        "FG"
      ],
      "severityScore": 77,
      "metarRaw": "METAR LIBR 170520Z 30006KT 3000 BR NSC 09/09 Q1020",
      "tafRaw": "TAF LIBR 170500Z 1706/1806 VRB05KT 3000 BR BKN010 \n  TEMPO 1706/1708 0400 BCFG \n  BECMG 1708/1710 8000 SCT020 \n  TEMPO 1718/1806 3000 BR"
    },
    {
      "icao": "LCLK",
      "iata": "LCA",
      "name": "Larnaca International Airport",
      "updatedAt": "170530Z",
      "visibility_m": 10000,
      "taf_visibility_m": 3000,
      "worst_visibility_m": 3000,
      "ceiling_ft": null,
      "hazards": [
        "TSRA",
        "RA",
        "SHRA",
        "TS"
      ],
      "severityScore": 76,
      "metarRaw": "METAR LCLK 170530Z 31006KT 9999 FEW030 SCT050 12/10 Q1017 NOSIG",
      "tafRaw": "TAF LCLK 170530Z 1706/1806 31006KT 9999 -RA FEW030 SCT045 \n  PROB30 \n  TEMPO 1711/1806 5000 SHRA SCT025TCU FEW030CB \n  PROB30 \n  TEMPO 1711/1720 VRB13G23KT 3000 TSRA FEW030CB \n  BECMG 1711/1715 01014KT"
    },
    {
      "icao": "LCPH",
      "iata": "PFO",
      "name": "Paphos International Airport",
      "updatedAt": "170530Z",
      "visibility_m": 10000,
      "taf_visibility_m": 3000,
      "worst_visibility_m": 3000,
      "ceiling_ft": 5000,
      "hazards": [
        "TSRA",
        "RA",
        "SHRA",
        "TS"
      ],
      "severityScore": 76,
      "metarRaw": "METAR LCPH 170530Z 07005KT 9999 SCT025 SCT028 BKN050 12/10 Q1018 NOSIG",
      "tafRaw": "TAF LCPH 170530Z 1706/1806 04007KT 8000 -RA FEW020 SCT030 BKN045 \n  PROB30 \n  TEMPO 1706/1806 5000 SHRA SCT025TCU FEW030CB \n  BECMG 1707/1711 31012KT \n  PROB30 \n  TEMPO 1709/1722 VRB13G23KT 3000 TSRA FEW030CB \n  BECMG 1714/1717 05010KT"
    },
    {
      "icao": "EPSC",
      "iata": "SZZ",
      "name": "Solidarity Szczecin–Goleniów Airport",
      "updatedAt": "170530Z",
      "visibility_m": 1800,
      "taf_visibility_m": 900,
      "worst_visibility_m": 900,
      "ceiling_ft": 200,
      "hazards": [
        "BR",
        "FG"
      ],
      "severityScore": 75,
      "metarRaw": "METAR EPSC 170530Z 13013KT 1800 BR OVC002 01/01 Q1025",
      "tafRaw": "TAF EPSC 170530Z 1706/1806 13012KT 1500 BR OVC002 \n  TEMPO 1706/1709 0900 FG BKN001 \n  BECMG 1710/1712 4000 BR \n  BECMG 1717/1719 8000 SCT007 \n  PROB40 1719/1724 3000 BR"
    },
    {
      "icao": "ESKN",
      "iata": "NYO",
      "name": "Stockholm Skavsta Airport",
      "updatedAt": "170520Z",
      "visibility_m": 3600,
      "taf_visibility_m": 300,
      "worst_visibility_m": 300,
      "ceiling_ft": 2300,
      "hazards": [
        "BR",
        "FG"
      ],
      "severityScore": 75,
      "metarRaw": "METAR ESKN 170520Z 18006KT 3600 BR SCT003 BKN023 02/02 Q1024",
      "tafRaw": "TAF ESKN 170530Z 1706/1806 18006KT 0300 FG VV002 \n  PROB40 1706/1709 8000 NSW BKN015 \n  TEMPO 1709/1806 3000 BR"
    },
    {
      "icao": "LFSB",
      "iata": "BSL",
      "name": "EuroAirport Basel–Mulhouse–Freiburg",
      "updatedAt": "170530Z",
      "visibility_m": 10000,
      "taf_visibility_m": 300,
      "worst_visibility_m": 300,
      "ceiling_ft": null,
      "hazards": [
        "FG",
        "BR"
      ],
      "severityScore": 75,
      "metarRaw": "METAR LFSB 170530Z AUTO 18004KT CAVOK 04/02 Q1017 NOSIG",
      "tafRaw": "TAF LFSB 170500Z 1706/1806 16003KT CAVOK \n  BECMG 1718/1721 3000 BR \n  BECMG 1721/1724 0300 FG VV///"
    },
    {
      "icao": "LYPG",
      "iata": "TGD",
      "name": "Podgorica Airport / Podgorica Golubovci Airbase",
      "updatedAt": "170530Z",
      "visibility_m": 300,
      "taf_visibility_m": null,
      "worst_visibility_m": 300,
      "ceiling_ft": null,
      "hazards": [
        "FG"
      ],
      "severityScore": 70,
      "metarRaw": "METAR LYPG 170530Z 00000KT 0300 R18/0600D R36/0500N FG NSC 01/01 Q1023 NOSIG",
      "tafRaw": null
    },
    {
      "icao": "EKBI",
      "iata": "BLL",
      "name": "Billund Airport",
      "updatedAt": "170520Z",
      "visibility_m": 10000,
      "taf_visibility_m": 1200,
      "worst_visibility_m": 1200,
      "ceiling_ft": 200,
      "hazards": [
        "DZ",
        "BR"
      ],
      "severityScore": 65,
      "metarRaw": "METAR EKBI 170520Z AUTO 09011KT 9999 -DZ OVC031/// 05/04 Q1021",
      "tafRaw": "TAF EKBI 170527Z 1706/1806 11010KT 9000 BKN020 \n  BECMG 1706/1708 1200 BR VV002 \n  TEMPO 1708/1806 6000 NSW BKN006"
    },
    {
      "icao": "LFOB",
      "iata": "BVA",
      "name": "Beauvais Tillé airport",
      "updatedAt": "170530Z",
      "visibility_m": 900,
      "taf_visibility_m": 900,
      "worst_visibility_m": 900,
      "ceiling_ft": 600,
      "hazards": [
        "FG",
        "BR"
      ],
      "severityScore": 65,
      "metarRaw": "METAR LFOB 170530Z AUTO 11005KT 5000 BR OVC006 07/07 Q1013 TEMPO 0900 FG VV///",
      "tafRaw": "TAF LFOB 170500Z 1706/1806 11005KT 8000 OVC006 \n  TEMPO 1706/1712 4000 BR BKN003 OVC026 \n  PROB40 \n  TEMPO 1706/1711 0900 FG VV/// \n  BECMG 1712/1716 CAVOK \n  PROB40 \n  TEMPO 1712/1716 OVC009"
    },
    {
      "icao": "LIME",
      "iata": "BGY",
      "name": "Milan Bergamo Airport / Antonio Locatelli Air Base",
      "updatedAt": "170520Z",
      "visibility_m": 1500,
      "taf_visibility_m": 1500,
      "worst_visibility_m": 1500,
      "ceiling_ft": 800,
      "hazards": [
        "BR",
        "FG"
      ],
      "severityScore": 65,
      "metarRaw": "METAR LIME 170520Z 02003KT 320V060 1500 BR SCT050 06/06 Q1022 NOSIG",
      "tafRaw": "TAF LIME 170500Z 1706/1806 VRB04KT 1500 BCFG BKN008 \n  BECMG 1707/1709 5000 SCT050"
    },
    {
      "icao": "LMML",
      "iata": "MLA",
      "name": "Malta International Airport",
      "updatedAt": "170515Z",
      "visibility_m": 10000,
      "taf_visibility_m": 7000,
      "worst_visibility_m": 7000,
      "ceiling_ft": 1300,
      "hazards": [
        "TS",
        "RA",
        "SHRA"
      ],
      "severityScore": 63,
      "metarRaw": "METAR LMML 170515Z 34007KT 300V100 9999 FEW020 12/08 Q1014 RETS NOSIG",
      "tafRaw": "TAF LMML 170500Z 1706/1806 VRB06KT 9999 FEW017 \n  TEMPO 1706/1709 7000 RA SHRA FEW017CB BKN045 \n  PROB30 \n  TEMPO 1800/1806 BKN013 \n  BECMG 1802/1805 13010KT"
    },
    {
      "icao": "LUKK",
      "iata": "RMO",
      "name": "Chişinău International Airport",
      "updatedAt": "170530Z",
      "visibility_m": 10000,
      "taf_visibility_m": 3000,
      "worst_visibility_m": 3000,
      "ceiling_ft": 400,
      "hazards": [
        "BR",
        "SN"
      ],
      "severityScore": 63,
      "metarRaw": "METAR LUKK 170530Z 02006KT CAVOK M14/M17 Q1035 NOSIG",
      "tafRaw": "TAF LUKK 170514Z 1706/1806 01009KT CAVOK \n  BECMG 1707/1709 BKN012 \n  TEMPO 1707/1718 3000 -SN OVC004 \n  TEMPO 1718/1724 4000 BR OVC006"
    },
    {
      "icao": "LICC",
      "iata": "CTA",
      "name": "Catania-Fontanarossa Airport",
      "updatedAt": "170520Z",
      "visibility_m": 10000,
      "taf_visibility_m": 4000,
      "worst_visibility_m": 4000,
      "ceiling_ft": 4000,
      "hazards": [
        "RA",
        "TSRA",
        "TS"
      ],
      "severityScore": 62,
      "metarRaw": "METAR LICC 170520Z 10003KT 050V150 9999 -RA FEW020 BKN040 11/10 Q1016",
      "tafRaw": "TAF LICC 170500Z 1706/1806 06010KT 8000 RA SCT020 BKN050 \n  PROB30 \n  TEMPO 1706/1712 4000 TSRA"
    },
    {
      "icao": "LLBG",
      "iata": "TLV",
      "name": "Ben Gurion International Airport",
      "updatedAt": "170520Z",
      "visibility_m": 10000,
      "taf_visibility_m": 5000,
      "worst_visibility_m": 5000,
      "ceiling_ft": 3000,
      "hazards": [
        "TSRA",
        "RA",
        "TS"
      ],
      "severityScore": 62,
      "metarRaw": "METAR LLBG 170520Z VRB03KT CAVOK 09/06 Q1018 NOSIG RMK FEW058",
      "tafRaw": "TAF LLBG 170506Z 1706/1806 VRB03KT 9999 SCT050 \n  BECMG 1707/1709 28007KT SCT040 \n  BECMG 1714/1716 15006KT \n  PROB40 \n  TEMPO 1716/1724 17015KT 7000 RA FEW025TCU BKN030 \n  PROB40 \n  TEMPO 1800/1806 21015G25KT 5000 TSRA FEW025CB BKN030 TX19/1711Z TN12/1804Z"
    },
    {
      "icao": "LJLJ",
      "iata": "LJU",
      "name": "Ljubljana Jože Pučnik Airport",
      "updatedAt": "170530Z",
      "visibility_m": 5000,
      "taf_visibility_m": 2000,
      "worst_visibility_m": 2000,
      "ceiling_ft": 300,
      "hazards": [
        "BR",
        "RA"
      ],
      "severityScore": 57,
      "metarRaw": "METAR LJLJ 170530Z 09003KT 5000 BR OVC003 03/02 Q1023 NOSIG",
      "tafRaw": "TAF LJLJ 170500Z 1706/1806 30004KT 6000 FEW005 OVC015 \n  TEMPO 1706/1804 2000 -RA BR BKN005 OVC012"
    },
    {
      "icao": "EDDH",
      "iata": "HAM",
      "name": "Hamburg Helmut Schmidt Airport",
      "updatedAt": "170520Z",
      "visibility_m": 10000,
      "taf_visibility_m": 3500,
      "worst_visibility_m": 3500,
      "ceiling_ft": 400,
      "hazards": [
        "BR",
        "DZ"
      ],
      "severityScore": 55,
      "metarRaw": "METAR EDDH 170520Z AUTO 12005KT 080V180 CAVOK 03/02 Q1020 NOSIG",
      "tafRaw": "TAF EDDH 170500Z 1706/1812 11005KT CAVOK \n  BECMG 1709/1711 12010KT \n  BECMG 1712/1714 BKN007 \n  PROB30 \n  TEMPO 1718/1809 3500 -DZ BR BKN004 \n  BECMG 1810/1812 BKN013"
    },
    {
      "icao": "EDFH",
      "iata": "HHN",
      "name": "Frankfurt-Hahn Airport",
      "updatedAt": "170520Z",
      "visibility_m": 10000,
      "taf_visibility_m": 1200,
      "worst_visibility_m": 1200,
      "ceiling_ft": 300,
      "hazards": [
        "BR"
      ],
      "severityScore": 55,
      "metarRaw": "METAR EDFH 170520Z 14009KT CAVOK 03/02 Q1017",
      "tafRaw": "TAF EDFH 170500Z 1706/1806 14008KT CAVOK \n  TEMPO 1706/1714 14013KT \n  PROB30 \n  TEMPO 1801/1806 1200 BR BKN003"
    },
    {
      "icao": "ENTC",
      "iata": "TOS",
      "name": "Tromsø Airport, Langnes",
      "updatedAt": "170520Z",
      "visibility_m": 10000,
      "taf_visibility_m": 1800,
      "worst_visibility_m": 1800,
      "ceiling_ft": 800,
      "hazards": [
        "SN",
        "RA"
      ],
      "severityScore": 55,
      "metarRaw": "METAR ENTC 170520Z VRB01KT CAVOK M08/M10 Q1013 RMK WIND 2600FT 19006KT",
      "tafRaw": "TAF ENTC 170500Z 1706/1806 06010KT CAVOK \n  BECMG 1706/1709 20009KT \n  TEMPO 1721/1806 20015G25KT 1800 SHSNRA BKN008 FEW015CB"
    },
    {
      "icao": "EGGP",
      "iata": "LPL",
      "name": "Liverpool John Lennon Airport",
      "updatedAt": "170520Z",
      "visibility_m": 10000,
      "taf_visibility_m": 3000,
      "worst_visibility_m": 3000,
      "ceiling_ft": 1000,
      "hazards": [
        "BR",
        "RA",
        "FG"
      ],
      "severityScore": 54,
      "metarRaw": "METAR EGGP 170520Z 12005KT 090V150 9999 BKN010 06/05 Q1009",
      "tafRaw": "TAF EGGP 170457Z 1706/1806 14007KT 9999 SCT025 \n  PROB30 \n  TEMPO 1706/1712 8000 BKN006 \n  PROB30 \n  TEMPO 1712/1715 BKN014 \n  PROB30 \n  TEMPO 1718/1722 8000 -RA BKN014 \n  TEMPO 1722/1802 7000 BKN006 \n  TEMPO 1802/1806 3000 BR MIFG BKN003"
    },
    {
      "icao": "LIMC",
      "iata": "MXP",
      "name": "Milan Malpensa International Airport",
      "updatedAt": "170520Z",
      "visibility_m": 3000,
      "taf_visibility_m": 1200,
      "worst_visibility_m": 1200,
      "ceiling_ft": 1000,
      "hazards": [
        "BR",
        "DZ",
        "RA"
      ],
      "severityScore": 54,
      "metarRaw": "METAR LIMC 170520Z 09004KT 3000 -DZ BR OVC010 07/06 Q1022 NOSIG",
      "tafRaw": "TAF LIMC 170500Z 1706/1812 VRB03KT 3000 BR BKN020 \n  TEMPO 1706/1721 1200 -RA BKN005 \n  TEMPO 1806/1812 1500 -RA"
    },
    {
      "icao": "LTFM",
      "iata": "IST",
      "name": "İstanbul Airport",
      "updatedAt": "170520Z",
      "visibility_m": 10000,
      "taf_visibility_m": 2800,
      "worst_visibility_m": 2800,
      "ceiling_ft": 2500,
      "hazards": [
        "SHRA",
        "RA",
        "BR",
        "SN"
      ],
      "severityScore": 54,
      "metarRaw": "METAR LTFM 170520Z 05016KT 9999 -SHRA SCT012 BKN025 05/M02 Q1029 NOSIG RMK RWY17L 05015KT RWY34L 04013KT RWY16R 04014KT RWY36 03018KT RWY18 05014KT",
      "tafRaw": "TAF LTFM 170440Z 1706/1812 04018KT 9999 -SHRA SCT014 BKN025 BKN080 \n  PROB40 \n  TEMPO 1718/1721 4000 -SHSNRA BKN006 BKN020 \n  BECMG 1720/1723 -SHRASN \n  TEMPO 1723/1802 2800 -SHSNRA BR BKN006 BKN020 \n  BECMG 1805/1808 35024G34KT \n  PROB40 \n  TEMPO 1808/1812 3200 SHSNRA BKN006 BKN020"
    },
    {
      "icao": "LPPR",
      "iata": "OPO",
      "name": "Francisco de Sá Carneiro Airport",
      "updatedAt": "170530Z",
      "visibility_m": 5000,
      "taf_visibility_m": 1200,
      "worst_visibility_m": 1200,
      "ceiling_ft": 3000,
      "hazards": [
        "BR",
        "RA",
        "FG"
      ],
      "severityScore": 52,
      "metarRaw": "METAR LPPR 170530Z 09005KT 030V170 5000 -RA BR SCT002 SCT010 BKN030 05/05 Q1012 RERA",
      "tafRaw": "TAF LPPR 170500Z 1706/1806 12007KT 9999 FEW008 BKN035 \n  TEMPO 1706/1724 5000 RA BKN012 FEW020TCU \n  PROB30 \n  TEMPO 1706/1708 1200 PRFG BKN002 \n  BECMG 1715/1717 30007KT \n  BECMG 1804/1806 09007KT"
    },
    {
      "icao": "BIKF",
      "iata": "KEF",
      "name": "Keflavik International Airport",
      "updatedAt": "170530Z",
      "visibility_m": 10000,
      "taf_visibility_m": 4000,
      "worst_visibility_m": 4000,
      "ceiling_ft": 800,
      "hazards": [
        "RA",
        "DZ"
      ],
      "severityScore": 47,
      "metarRaw": "METAR BIKF 170530Z 07006KT CAVOK M02/M04 Q1011",
      "tafRaw": "TAF BIKF 170439Z 1706/1806 05007KT CAVOK TX06/1800Z TNM02/1706Z \n  BECMG 1709/1711 12012KT BKN020 \n  TEMPO 1711/1721 BKN008 \n  BECMG 1713/1715 12022G32KT \n  BECMG 1717/1719 13030G50KT \n  BECMG 1800/1802 4000 RADZ BKN012"
    },
    {
      "icao": "LEZG",
      "iata": "ZAZ",
      "name": "Zaragoza Airport",
      "updatedAt": "170530Z",
      "visibility_m": 3000,
      "taf_visibility_m": 4000,
      "worst_visibility_m": 3000,
      "ceiling_ft": 600,
      "hazards": [
        "BR",
        "RA"
      ],
      "severityScore": 47,
      "metarRaw": "METAR LEZG 170530Z 26004KT 230V290 3000 BR OVC006 07/07 Q1010 NOSIG",
      "tafRaw": "TAF LEZG 170500Z 1706/1806 VRB04KT 9999 FEW060 TX09/1714Z TN04/1706Z \n  TEMPO 1706/1806 4000 RA BKN010 \n  BECMG 1706/1708 29007KT"
    },
    {
      "icao": "LEZL",
      "iata": "SVQ",
      "name": "Sevilla Airport",
      "updatedAt": "170530Z",
      "visibility_m": 9000,
      "taf_visibility_m": 3000,
      "worst_visibility_m": 3000,
      "ceiling_ft": 500,
      "hazards": [
        "BR",
        "RA"
      ],
      "severityScore": 47,
      "metarRaw": "METAR LEZL 170530Z 00000KT 9000 NSC 06/06 Q1013 NOSIG",
      "tafRaw": "TAF LEZL 170200Z 1703/1803 VRB03KT CAVOK TX13/1715Z TN05/1707Z \n  PROB30 \n  TEMPO 1703/1709 3000 BR BKN005 \n  PROB30 \n  TEMPO 1722/1802 RA"
    },
    {
      "icao": "EDNY",
      "iata": "FDH",
      "name": "Friedrichshafen Airport",
      "updatedAt": "170520Z",
      "visibility_m": 10000,
      "taf_visibility_m": 4000,
      "worst_visibility_m": 4000,
      "ceiling_ft": 400,
      "hazards": [
        "BR"
      ],
      "severityScore": 45,
      "metarRaw": "METAR EDNY 170520Z 05006KT CAVOK 01/M00 Q1018",
      "tafRaw": "TAF EDNY 170500Z 1706/1715 04005KT CAVOK \n  TEMPO 1706/1712 4000 BR OVC004"
    },
    {
      "icao": "EDSB",
      "iata": "FKB",
      "name": "Karlsruhe Baden-Baden Airport",
      "updatedAt": "170520Z",
      "visibility_m": 10000,
      "taf_visibility_m": 2000,
      "worst_visibility_m": 2000,
      "ceiling_ft": 400,
      "hazards": [
        "BR"
      ],
      "severityScore": 45,
      "metarRaw": "METAR EDSB 170520Z 36004KT CAVOK 04/02 Q1017",
      "tafRaw": "TAF EDSB 170500Z 1706/1806 VRB03KT CAVOK \n  BECMG 1706/1709 02005KT \n  TEMPO 1721/1806 2000 BR BKN004"
    },
    {
      "icao": "EPRZ",
      "iata": "RZE",
      "name": "Rzeszów-Jasionka Airport",
      "updatedAt": "170530Z",
      "visibility_m": 10000,
      "taf_visibility_m": 3000,
      "worst_visibility_m": 3000,
      "ceiling_ft": 400,
      "hazards": [
        "BR"
      ],
      "severityScore": 45,
      "metarRaw": "METAR EPRZ 170530Z 09011KT CAVOK M11/M13 Q1031",
      "tafRaw": "TAF EPRZ 170530Z 1706/1806 09012KT CAVOK \n  PROB40 1706/1708 3000 BR OVC004"
    },
    {
      "icao": "ESSA",
      "iata": "ARN",
      "name": "Stockholm-Arlanda Airport",
      "updatedAt": "170520Z",
      "visibility_m": 3000,
      "taf_visibility_m": 1000,
      "worst_visibility_m": 1000,
      "ceiling_ft": 700,
      "hazards": [
        "BR"
      ],
      "severityScore": 45,
      "metarRaw": "METAR ESSA 170520Z 18008KT 6000 BKN007 OVC024 02/02 Q1023 TEMPO 3000 SCT004 BKN025",
      "tafRaw": "TAF ESSA 170530Z 1706/1806 18010KT 6000 SCT007 BKN025 \n  PROB40 1706/1715 2500 BR BKN005 \n  TEMPO 1715/1803 1000 BR BKN003"
    },
    {
      "icao": "UGKO",
      "iata": "KUT",
      "name": "David the Builder Kutaisi International Airport",
      "updatedAt": "170530Z",
      "visibility_m": 10000,
      "taf_visibility_m": 3000,
      "worst_visibility_m": 3000,
      "ceiling_ft": 7200,
      "hazards": [
        "BR",
        "SN",
        "RA"
      ],
      "severityScore": 40,
      "metarRaw": "METAR UGKO 170530Z VRB02KT 9999 SCT025 OVC072 02/02 Q1022 NOSIG",
      "tafRaw": "TAF UGKO 170500Z 1706/1806 09007KT 9999 SCT012 OVC040 TX04/1711Z TN00/1806Z \n  TEMPO 1706/1710 5000 SNRA BR BKN015 OVC030 \n  TEMPO 1710/1716 26010KT \n  TEMPO 1714/1722 4000 SHSNRA BKN017CB OVC030 \n  TEMPO 1722/1804 3000 SNRA BR BKN015 OVC025"
    },
    {
      "icao": "LPFR",
      "iata": "FAO",
      "name": "Faro Airport",
      "updatedAt": "170530Z",
      "visibility_m": 10000,
      "taf_visibility_m": 5000,
      "worst_visibility_m": 5000,
      "ceiling_ft": 1500,
      "hazards": [
        "SHRA",
        "RA"
      ],
      "severityScore": 38,
      "metarRaw": "METAR LPFR 170530Z 33004KT CAVOK 06/05 Q1014",
      "tafRaw": "TAF LPFR 170500Z 1706/1806 30007KT 9999 SCT030 \n  TEMPO 1706/1724 5000 SHRA BKN015 FEW025TCU \n  BECMG 1711/1713 25012KT \n  BECMG 1718/1720 31010KT \n  BECMG 1800/1802 VRB02KT"
    },
    {
      "icao": "LPMA",
      "iata": "FNC",
      "name": "Madeira International Airport Cristiano Ronaldo",
      "updatedAt": "170530Z",
      "visibility_m": 10000,
      "taf_visibility_m": 5000,
      "worst_visibility_m": 5000,
      "ceiling_ft": 1300,
      "hazards": [
        "RA",
        "SHRA"
      ],
      "severityScore": 38,
      "metarRaw": "METAR LPMA 170530Z 34010KT 280V030 9999 SCT015 15/10 Q1022",
      "tafRaw": "TAF LPMA 170500Z 1706/1806 32010KT 9999 SCT015 \n  PROB40 \n  TEMPO 1706/1715 32017G27KT 8000 SHRA BKN013 \n  BECMG 1717/1719 VRB02KT \n  BECMG 1800/1802 34015KT SCT012 BKN025 \n  TEMPO 1802/1806 34020G32KT 5000 RA SCT008 BKN013"
    },
    {
      "icao": "LPPT",
      "iata": "LIS",
      "name": "Lisbon Humberto Delgado Airport",
      "updatedAt": "170530Z",
      "visibility_m": 10000,
      "taf_visibility_m": 5000,
      "worst_visibility_m": 5000,
      "ceiling_ft": 1500,
      "hazards": [
        "SHRA",
        "RA"
      ],
      "severityScore": 38,
      "metarRaw": "METAR LPPT 170530Z 26008KT 9999 VCSH FEW020 FEW025TCU SCT032 08/06 Q1013",
      "tafRaw": "TAF LPPT 170500Z 1706/1812 31007KT 9999 FEW018 SCT030 \n  TEMPO 1706/1806 5000 SHRA BKN015 FEW025TCU \n  BECMG 1717/1719 34007KT \n  BECMG 1720/1723 VRB02KT \n  BECMG 1808/1810 03007KT FEW035"
    },
    {
      "icao": "UBBB",
      "iata": "GYD",
      "name": "Heydar Aliyev International Airport",
      "updatedAt": "170530Z",
      "visibility_m": 10000,
      "taf_visibility_m": 5000,
      "worst_visibility_m": 5000,
      "ceiling_ft": 1900,
      "hazards": [
        "SHRA",
        "RA"
      ],
      "severityScore": 38,
      "metarRaw": "METAR UBBB 170530Z 32008KT 9999 SCT009 OVC019 05/03 Q1025 NOSIG",
      "tafRaw": "TAF UBBB 170459Z 1706/1806 33010KT 9999 BKN020 TX07/1710Z TN02/1801Z \n  TEMPO 1706/1710 01012KT SCT010 \n  BECMG 1710/1712 03012KT \n  TEMPO 1718/1806 36008KT 5000 -SHRA SCT012 SCT030CB OVC030"
    },
    {
      "icao": "UDSG",
      "iata": "LWN",
      "name": "Shirak International Airport",
      "updatedAt": "170530Z",
      "visibility_m": 3100,
      "taf_visibility_m": 1000,
      "worst_visibility_m": 1000,
      "ceiling_ft": 4000,
      "hazards": [
        "BR",
        "SN"
      ],
      "severityScore": 38,
      "metarRaw": "METAR UDSG 170530Z 04003KT 3100 -SN BR OVC040 M11/M13 Q1020 NOSIG",
      "tafRaw": "TAF UDSG 170500Z 1706/1806 VRB06KT 2000 BR BKN020 \n  TEMPO 1706/1718 1000 SN BR OVC010"
    },
    {
      "icao": "LGTS",
      "iata": "SKG",
      "name": "Thessaloniki Macedonia International Airport",
      "updatedAt": "170520Z",
      "visibility_m": 10000,
      "taf_visibility_m": 5000,
      "worst_visibility_m": 5000,
      "ceiling_ft": 2500,
      "hazards": [
        "TS",
        "RA"
      ],
      "severityScore": 37,
      "metarRaw": "METAR LGTS 170520Z 12006KT 9999 SCT025 08/02 Q1027 NOSIG",
      "tafRaw": "TAF LGTS 170500Z 1706/1806 08013KT 9999 FEW012 BKN025 \n  PROB30 1706/1712 5000 RA \n  BECMG 1710/1712 VRB03KT"
    },
    {
      "icao": "EGPF",
      "iata": "GLA",
      "name": "Glasgow Airport",
      "updatedAt": "170520Z",
      "visibility_m": 9000,
      "taf_visibility_m": 4000,
      "worst_visibility_m": 4000,
      "ceiling_ft": 4600,
      "hazards": [
        "BR",
        "SHRA",
        "RA"
      ],
      "severityScore": 36,
      "metarRaw": "METAR EGPF 170520Z AUTO 08009KT 9000 FEW038 OVC046 04/03 Q1010",
      "tafRaw": "TAF EGPF 170457Z 1706/1806 07008KT 9999 FEW030 \n  PROB30 \n  TEMPO 1706/1708 7000 SHRA BKN012 \n  PROB30 1708/1712 BKN012 \n  TEMPO 1718/1806 7000 \n  PROB30 1718/1806 4000 BR BKN008"
    },
    {
      "icao": "LEXJ",
      "iata": "SDR",
      "name": "Seve Ballesteros-Santander Airport",
      "updatedAt": "170530Z",
      "visibility_m": 10000,
      "taf_visibility_m": 1500,
      "worst_visibility_m": 1500,
      "ceiling_ft": 4000,
      "hazards": [
        "RA",
        "SHRA"
      ],
      "severityScore": 36,
      "metarRaw": "METAR LEXJ 170530Z VRB01KT 9999 -RA BKN040 08/06 Q1011",
      "tafRaw": "TAF LEXJ 170200Z 1703/1803 22007KT 9999 BKN040 TX11/1714Z TN07/1802Z \n  PROB30 \n  TEMPO 1703/1715 RA \n  TEMPO 1715/1803 3000 RA BKN010 \n  PROB40 1715/1717 31010KT \n  PROB40 \n  TEMPO 1715/1803 1500 SHRA SCT020TCU"
    },
    {
      "icao": "EBCI",
      "iata": "CRL",
      "name": "Brussels South Charleroi Airport",
      "updatedAt": "170520Z",
      "visibility_m": 10000,
      "taf_visibility_m": 3500,
      "worst_visibility_m": 3500,
      "ceiling_ft": 600,
      "hazards": [
        "DZ"
      ],
      "severityScore": 35,
      "metarRaw": "METAR EBCI 170520Z 16005KT 9999 SCT019 08/06 Q1014 NOSIG",
      "tafRaw": "TAF EBCI 170516Z 1706/1812 13004KT 9999 SCT012 BKN014 \n  PROB40 \n  TEMPO 1706/1710 3500 -DZ SCT004 BKN006 \n  BECMG 1710/1712 FEW018 SCT035"
    },
    {
      "icao": "EDDN",
      "iata": "NUE",
      "name": "Nuremberg Airport",
      "updatedAt": "170520Z",
      "visibility_m": 10000,
      "taf_visibility_m": 3000,
      "worst_visibility_m": 3000,
      "ceiling_ft": 800,
      "hazards": [
        "BR"
      ],
      "severityScore": 35,
      "metarRaw": "METAR EDDN 170520Z AUTO 13006KT 9999 OVC008 00/M02 Q1020 NOSIG",
      "tafRaw": "TAF EDDN 170500Z 1706/1806 11006KT 9999 OVC008 \n  PROB30 \n  TEMPO 1712/1717 SCT008 \n  PROB30 \n  TEMPO 1722/1806 3000 BR"
    },
    {
      "icao": "LIPZ",
      "iata": "VCE",
      "name": "Venice Marco Polo Airport",
      "updatedAt": "170520Z",
      "visibility_m": 2000,
      "taf_visibility_m": 6000,
      "worst_visibility_m": 2000,
      "ceiling_ft": 800,
      "hazards": [
        "BR"
      ],
      "severityScore": 35,
      "metarRaw": "METAR LIPZ 170520Z 32002KT 2000 BR OVC008 06/06 Q1023 NOSIG",
      "tafRaw": "TAF LIPZ 170500Z 1706/1812 VRB04KT 6000 SCT030 \n  BECMG 1718/1720 04010KT"
    },
    {
      "icao": "LQBK",
      "iata": "BNX",
      "name": "Banja Luka International Airport",
      "updatedAt": "170530Z",
      "visibility_m": 3000,
      "taf_visibility_m": 3000,
      "worst_visibility_m": 3000,
      "ceiling_ft": 500,
      "hazards": [
        "BR"
      ],
      "severityScore": 35,
      "metarRaw": "METAR LQBK 170530Z 31003KT 6000 NSC 02/01 Q1025 TEMPO 3000 BR",
      "tafRaw": "TAF LQBK 170500Z 1706/1806 04005KT 9999 SCT020 TX05/1714Z TNM03/1805Z \n  TEMPO 1706/1710 3000 BR BKN005 \n  TEMPO 1710/1806 BKN015"
    },
    {
      "icao": "LZIB",
      "iata": "BTS",
      "name": "M. R. Štefánik Airport",
      "updatedAt": "170530Z",
      "visibility_m": 5000,
      "taf_visibility_m": 2800,
      "worst_visibility_m": 2800,
      "ceiling_ft": 700,
      "hazards": [
        "BR"
      ],
      "severityScore": 35,
      "metarRaw": "METAR LZIB 170530Z 04008KT 5000 BR BKN007 OVC008 01/01 Q1027 NOSIG",
      "tafRaw": "TAF LZIB 170515Z 1706/1806 06008KT 9999 BKN018 OVC022 \n  TEMPO 1706/1708 2800 BR OVC004 \n  BECMG 1710/1712 12009KT SCT015 BKN035 \n  PROB40 \n  TEMPO 1722/1806 4000 BR BKN012"
    },
    {
      "icao": "LZTT",
      "iata": "TAT",
      "name": "Poprad-Tatry Airport",
      "updatedAt": "170530Z",
      "visibility_m": 2000,
      "taf_visibility_m": 4000,
      "worst_visibility_m": 2000,
      "ceiling_ft": 500,
      "hazards": [
        "BR"
      ],
      "severityScore": 35,
      "metarRaw": "METAR LZTT 170530Z VRB02KT 2000 BR OVC005 M01/M01 Q1027",
      "tafRaw": "TAF LZTT 170515Z 1706/1806 VRB02KT 9999 OVC012 \n  TEMPO 1706/1712 4000 BR OVC003 \n  BECMG 1712/1714 SCT022 \n  TEMPO 1712/1720 4000 BR SCT007"
    },
    {
      "icao": "LEMD",
      "iata": "MAD",
      "name": "Adolfo Suárez Madrid–Barajas Airport",
      "updatedAt": "170530Z",
      "visibility_m": 10000,
      "taf_visibility_m": 3000,
      "worst_visibility_m": 3000,
      "ceiling_ft": 2000,
      "hazards": [
        "RA",
        "BR",
        "DZ"
      ],
      "severityScore": 32,
      "metarRaw": "METAR LEMD 170530Z 20002KT 9999 -RA FEW014 BKN020 OVC030 04/04 Q1008 NOSIG",
      "tafRaw": "TAF LEMD 170500Z 1706/1812 VRB04KT 9999 SCT035 TX07/1714Z TNM01/1808Z \n  TEMPO 1706/1714 RA DZRA BKN010 \n  PROB30 \n  TEMPO 1706/1710 3000 BR BKN004 \n  PROB40 \n  TEMPO 1715/1719 DZRA \n  PROB40 \n  TEMPO 1717/1807 BKN010"
    },
    {
      "icao": "EDDS",
      "iata": "STR",
      "name": "Stuttgart Airport",
      "updatedAt": "170520Z",
      "visibility_m": 10000,
      "taf_visibility_m": 1200,
      "worst_visibility_m": 1200,
      "ceiling_ft": null,
      "hazards": [
        "FG"
      ],
      "severityScore": 30,
      "metarRaw": "METAR EDDS 170520Z AUTO 09005KT CAVOK 00/M02 Q1017 NOSIG",
      "tafRaw": "TAF EDDS 170500Z 1706/1806 VRB03KT CAVOK \n  TEMPO 1715/1722 05005KT \n  PROB30 \n  TEMPO 1722/1806 1200 BCFG"
    },
    {
      "icao": "LBWN",
      "iata": "VAR",
      "name": "Varna Airport",
      "updatedAt": "170530Z",
      "visibility_m": 10000,
      "taf_visibility_m": 10000,
      "worst_visibility_m": 10000,
      "ceiling_ft": 1500,
      "hazards": [
        "SN"
      ],
      "severityScore": 30,
      "metarRaw": "METAR LBWN 170530Z AUTO 31006KT 270V350 9999 SCT026/// M04/M07 Q1032 NOSIG",
      "tafRaw": "TAF LBWN 170500Z 1706/1806 35013KT 9999 BKN020 \n  BECMG 1715/1716 01023KT \n  TEMPO 1716/1720 36020G30KT SN OVC015 \n  TEMPO 1720/1806 36025G35KT"
    },
    {
      "icao": "GMMX",
      "iata": "RAK",
      "name": "Menara Airport",
      "updatedAt": "170530Z",
      "visibility_m": 4000,
      "taf_visibility_m": 3000,
      "worst_visibility_m": 3000,
      "ceiling_ft": 2000,
      "hazards": [
        "RA",
        "SHRA"
      ],
      "severityScore": 26,
      "metarRaw": "METAR GMMX 170530Z 23007KT 4000 RA SCT013 BKN020 09/08 Q1018 NOSIG",
      "tafRaw": "TAF GMMX 170500Z 1706/1812 34017KT 3000 SHRA SCT013 BKN020 FEW030TCU \n  BECMG 1712/1716 04008KT 6000 NSW BKN023 SCT080"
    },
    {
      "icao": "ENVA",
      "iata": "TRD",
      "name": "Trondheim Airport, Værnes",
      "updatedAt": "170520Z",
      "visibility_m": 10000,
      "taf_visibility_m": 10000,
      "worst_visibility_m": 10000,
      "ceiling_ft": 2300,
      "hazards": [
        "RA",
        "SHRA"
      ],
      "severityScore": 26,
      "metarRaw": "METAR ENVA 170520Z 24009KT 9999 -RA BKN023 04/02 Q1018 RMK WIND 670FT 23015KT",
      "tafRaw": "TAF ENVA 170500Z 1706/1806 22008KT 9999 FEW012 BKN025 \n  PROB30 \n  TEMPO 1706/1708 SHRA BKN018CB \n  BECMG 1709/1711 10010KT"
    },
    {
      "icao": "GCTS",
      "iata": "TFS",
      "name": "Tenerife Sur Airport",
      "updatedAt": "170530Z",
      "visibility_m": 10000,
      "taf_visibility_m": 10000,
      "worst_visibility_m": 10000,
      "ceiling_ft": 4000,
      "hazards": [
        "TS"
      ],
      "severityScore": 25,
      "metarRaw": "METAR GCTS 170530Z 05002KT 9999 FEW030 BKN040 17/10 Q1022 NOSIG",
      "tafRaw": "TAF GCTS 170200Z 1703/1803 35006KT 9999 FEW035 TX22/1714Z TN14/1706Z \n  PROB40 \n  TEMPO 1710/1719 24010KT \n  PROB40 \n  TEMPO 1712/1716 10010KT"
    },
    {
      "icao": "EPMO",
      "iata": "WMI",
      "name": "Modlin Airport",
      "updatedAt": "170530Z",
      "visibility_m": 8000,
      "taf_visibility_m": 8000,
      "worst_visibility_m": 8000,
      "ceiling_ft": 800,
      "hazards": [],
      "severityScore": 25,
      "metarRaw": "METAR EPMO 170530Z 08007KT 8000 SCT009 M11/M13 Q1032",
      "tafRaw": "TAF EPMO 170530Z 1706/1806 10009KT 8000 FEW010 \n  TEMPO 1706/1710 BKN008"
    },
    {
      "icao": "EPSY",
      "iata": "SZY",
      "name": "Olsztyn-Mazury Airport",
      "updatedAt": "170530Z",
      "visibility_m": 9000,
      "taf_visibility_m": 8000,
      "worst_visibility_m": 8000,
      "ceiling_ft": 700,
      "hazards": [],
      "severityScore": 25,
      "metarRaw": "METAR EPSY 170530Z 14005KT 100V190 9000 BKN007 M10/M13 Q1032",
      "tafRaw": "TAF EPSY 170530Z 1706/1715 13008KT 8000 BKN007 \n  BECMG 1707/1710 CAVOK"
    },
    {
      "icao": "EYKA",
      "iata": "KUN",
      "name": "Kaunas International Airport",
      "updatedAt": "170520Z",
      "visibility_m": 10000,
      "taf_visibility_m": 9000,
      "worst_visibility_m": 9000,
      "ceiling_ft": 500,
      "hazards": [],
      "severityScore": 25,
      "metarRaw": "METAR EYKA 170520Z 18005KT 130V240 CAVOK M12/M16 Q1036",
      "tafRaw": "TAF EYKA 170502Z 1706/1806 16010KT 9000 NSC \n  TEMPO 1722/1806 BKN005"
    },
    {
      "icao": "EYPA",
      "iata": "PLQ",
      "name": "Palanga International Airport",
      "updatedAt": "170520Z",
      "visibility_m": 10000,
      "taf_visibility_m": 7000,
      "worst_visibility_m": 7000,
      "ceiling_ft": 500,
      "hazards": [],
      "severityScore": 25,
      "metarRaw": "METAR EYPA 170520Z 16010KT 130V190 CAVOK M10/M13 Q1031",
      "tafRaw": "TAF EYPA 170509Z 1706/1806 15012KT 7000 NSC \n  BECMG 1707/1709 BKN010 \n  PROB30 \n  TEMPO 1709/1714 BKN005 \n  BECMG 1714/1717 NSC"
    },
    {
      "icao": "ENZV",
      "iata": "SVG",
      "name": "Stavanger Airport, Sola",
      "updatedAt": "170520Z",
      "visibility_m": 10000,
      "taf_visibility_m": 10000,
      "worst_visibility_m": 10000,
      "ceiling_ft": 1400,
      "hazards": [
        "RA"
      ],
      "severityScore": 24,
      "metarRaw": "METAR ENZV 170520Z 11007KT 9999 FEW044 04/02 Q1020",
      "tafRaw": "TAF ENZV 170500Z 1706/1806 12008KT 9999 FEW025 SCT040 \n  PROB40 \n  TEMPO 1718/1802 RA BKN014"
    },
    {
      "icao": "LIMF",
      "iata": "TRN",
      "name": "Turin Airport",
      "updatedAt": "170520Z",
      "visibility_m": 8000,
      "taf_visibility_m": 2500,
      "worst_visibility_m": 2500,
      "ceiling_ft": 1000,
      "hazards": [
        "RA"
      ],
      "severityScore": 24,
      "metarRaw": "METAR LIMF 170520Z 33005KT 8000 RA BKN010 OVC014 07/04 Q1022",
      "tafRaw": "TAF LIMF 170500Z 1706/1806 VRB03KT 2500 -RA BKN040"
    },
    {
      "icao": "LPPS",
      "iata": "PXO",
      "name": "Porto Santo Airport",
      "updatedAt": "170530Z",
      "visibility_m": 10000,
      "taf_visibility_m": 5000,
      "worst_visibility_m": 5000,
      "ceiling_ft": 1200,
      "hazards": [
        "RA"
      ],
      "severityScore": 24,
      "metarRaw": "METAR LPPS 170530Z 35024KT 9999 SCT014 15/10 Q1022",
      "tafRaw": "TAF LPPS 170500Z 1706/1812 34018KT 9999 SCT015 \n  PROB40 \n  TEMPO 1706/1712 34023G35KT 5000 RA SCT006 BKN012"
    },
    {
      "icao": "ENBR",
      "iata": "BGO",
      "name": "Bergen Airport, Flesland",
      "updatedAt": "170520Z",
      "visibility_m": 10000,
      "taf_visibility_m": 10000,
      "worst_visibility_m": 10000,
      "ceiling_ft": 2500,
      "hazards": [
        "BR",
        "RA"
      ],
      "severityScore": 22,
      "metarRaw": "METAR ENBR 170520Z 11007KT 9999 BKN025 04/02 Q1020 RMK WIND 1200FT 14013KT",
      "tafRaw": "TAF ENBR 170500Z 1706/1806 11008KT 9999 BKN025 \n  PROB40 \n  TEMPO 1802/1806 RA BKN014"
    },
    {
      "icao": "LEBB",
      "iata": "BIO",
      "name": "Bilbao Airport",
      "updatedAt": "170530Z",
      "visibility_m": 10000,
      "taf_visibility_m": 3000,
      "worst_visibility_m": 3000,
      "ceiling_ft": 4300,
      "hazards": [
        "BR",
        "RA"
      ],
      "severityScore": 22,
      "metarRaw": "METAR LEBB 170530Z 08004KT 9999 BKN043 06/05 Q1011 NOSIG",
      "tafRaw": "TAF LEBB 170500Z 1706/1806 10005KT 9999 FEW020 BKN040 TX09/1712Z TN05/1706Z \n  PROB40 \n  TEMPO 1712/1723 30010KT 3000 RA BKN005 \n  PROB40 \n  TEMPO 1723/1806 16010KT 3000 RA BR BKN010"
    },
    {
      "icao": "LRIA",
      "iata": "IAS",
      "name": "Iaşi Airport",
      "updatedAt": "170530Z",
      "visibility_m": 7000,
      "taf_visibility_m": 3000,
      "worst_visibility_m": 3000,
      "ceiling_ft": 1500,
      "hazards": [
        "BR"
      ],
      "severityScore": 22,
      "metarRaw": "METAR LRIA 170530Z 28004KT 7000 NSC M16/M18 Q1036",
      "tafRaw": "TAF LRIA 170500Z 1706/1715 VRB04KT 5000 BR NSC \n  PROB40 \n  TEMPO 1706/1708 3000 BR \n  BECMG 1708/1710 02010KT 9999 NSW BKN015 BKN035"
    },
    {
      "icao": "LRBC",
      "iata": "BCM",
      "name": "Bacău George Enescu International  Airport",
      "updatedAt": "170530Z",
      "visibility_m": 5000,
      "taf_visibility_m": 5000,
      "worst_visibility_m": 5000,
      "ceiling_ft": 1500,
      "hazards": [
        "BR"
      ],
      "severityScore": 22,
      "metarRaw": "METAR LRBC 170530Z 02002KT 5000 BR NSC M13/M16 Q1035",
      "tafRaw": "TAF LRBC 170500Z 1706/1715 03006KT 5000 BR NSC \n  BECMG 1706/1708 CAVOK \n  BECMG 1710/1712 BKN015"
    },
    {
      "icao": "LRBS",
      "iata": "BBU",
      "name": "Bucharest Băneasa Aurel Vlaicu International Airport",
      "updatedAt": "170530Z",
      "visibility_m": 8000,
      "taf_visibility_m": 5000,
      "worst_visibility_m": 5000,
      "ceiling_ft": 1500,
      "hazards": [
        "BR"
      ],
      "severityScore": 22,
      "metarRaw": "METAR LRBS 170530Z 00000KT 8000 NSC M09/M11 Q1035 NOSIG",
      "tafRaw": "TAF LRBS 170500Z 1706/1806 VRB04KT CAVOK \n  PROB30 \n  TEMPO 1706/1707 5000 BR \n  TEMPO 1715/1722 BKN015 \n  BECMG 1716/1718 07010KT \n  TEMPO 1802/1806 BKN015"
    },
    {
      "icao": "LROP",
      "iata": "OTP",
      "name": "Bucharest Henri Coandă International Airport",
      "updatedAt": "170530Z",
      "visibility_m": 7000,
      "taf_visibility_m": 5000,
      "worst_visibility_m": 5000,
      "ceiling_ft": 1500,
      "hazards": [
        "BR"
      ],
      "severityScore": 22,
      "metarRaw": "METAR LROP 170530Z 13002KT 7000 NSC M10/M12 Q1035 NOSIG",
      "tafRaw": "TAF LROP 170500Z 1706/1806 VRB04KT CAVOK \n  PROB30 \n  TEMPO 1706/1707 5000 BR \n  TEMPO 1715/1722 BKN015 \n  BECMG 1716/1718 07010KT \n  TEMPO 1802/1806 BKN015"
    },
    {
      "icao": "LIRP",
      "iata": "PSA",
      "name": "Pisa International Airport",
      "updatedAt": "170515Z",
      "visibility_m": 10000,
      "taf_visibility_m": 5000,
      "worst_visibility_m": 5000,
      "ceiling_ft": null,
      "hazards": [
        "FG"
      ],
      "severityScore": 20,
      "metarRaw": "METAR LIRP 170515Z 12008KT CAVOK 09/07 Q1018 NOSIG",
      "tafRaw": "TAF LIRP 170500Z 1706/1806 12005KT CAVOK \n  PROB30 \n  TEMPO 1706/1707 5000 MIFG NSC"
    },
    {
      "icao": "LECH",
      "iata": "CDT",
      "name": "Castellón-Costa Azahar Airport",
      "updatedAt": "170530Z",
      "visibility_m": 9000,
      "taf_visibility_m": null,
      "worst_visibility_m": 9000,
      "ceiling_ft": 1500,
      "hazards": [],
      "severityScore": 17,
      "metarRaw": "METAR LECH 170530Z AUTO 03008KT 360V060 9000 FEW009 BKN015 09/08 Q1008",
      "tafRaw": null
    },
    {
      "icao": "GMMN",
      "iata": "CMN",
      "name": "Mohammed V International Airport",
      "updatedAt": "170530Z",
      "visibility_m": 8000,
      "taf_visibility_m": 3000,
      "worst_visibility_m": 3000,
      "ceiling_ft": 2000,
      "hazards": [
        "RA"
      ],
      "severityScore": 12,
      "metarRaw": "METAR GMMN 170530Z 22010KT 8000 SCT006 BKN020 08/07 Q1016 NOSIG",
      "tafRaw": "TAF GMMN 170500Z 1706/1812 24008KT 8000 SCT006 BKN020 \n  TEMPO 1706/1806 22016KT 3000 RA SCT003 BKN016 BKN023TCU"
    },
    {
      "icao": "EPRA",
      "iata": "RDO",
      "name": "Warsaw Radom Airport",
      "updatedAt": "170530Z",
      "visibility_m": 10000,
      "taf_visibility_m": 10000,
      "worst_visibility_m": 10000,
      "ceiling_ft": null,
      "hazards": [
        "RA"
      ],
      "severityScore": 12,
      "metarRaw": "METAR EPRA 170530Z 12007KT CAVOK M11/M13 Q1031",
      "tafRaw": "TAF EPRA 170530Z 1706/1715 13008KT CAVOK"
    },
    {
      "icao": "EPWA",
      "iata": "WAW",
      "name": "Warsaw Chopin Airport",
      "updatedAt": "170530Z",
      "visibility_m": 10000,
      "taf_visibility_m": 10000,
      "worst_visibility_m": 10000,
      "ceiling_ft": 1000,
      "hazards": [],
      "severityScore": 12,
      "metarRaw": "METAR EPWA 170530Z 12009KT 9999 BKN010 M10/M13 Q1032 BECMG SCT010",
      "tafRaw": "TAF EPWA 170530Z 1706/1806 11010KT 9999 FEW010 \n  PROB40 \n  TEMPO 1706/1709 BKN009"
    },
    {
      "icao": "LEAL",
      "iata": "ALC",
      "name": "Alicante-Elche Miguel Hernández Airport",
      "updatedAt": "170530Z",
      "visibility_m": 10000,
      "taf_visibility_m": 10000,
      "worst_visibility_m": 10000,
      "ceiling_ft": 3000,
      "hazards": [
        "RA"
      ],
      "severityScore": 12,
      "metarRaw": "METAR LEAL 170530Z VRB01KT 9999 -RA SCT015 BKN030 12/12 Q1009 RERA NOSIG",
      "tafRaw": "TAF LEAL 170500Z 1706/1806 VRB04KT 9999 FEW020 TX14/1713Z TN07/1706Z \n  PROB40 \n  TEMPO 1706/1721 RA BKN014 \n  TEMPO 1713/1806 31010KT"
    },
    {
      "icao": "LEVC",
      "iata": "VLC",
      "name": "Valencia Airport",
      "updatedAt": "170530Z",
      "visibility_m": 10000,
      "taf_visibility_m": 4000,
      "worst_visibility_m": 4000,
      "ceiling_ft": 6400,
      "hazards": [
        "RA"
      ],
      "severityScore": 12,
      "metarRaw": "METAR LEVC 170530Z 30005KT 9999 BKN064 09/08 Q1009 NOSIG",
      "tafRaw": "TAF LEVC 170500Z 1706/1806 VRB04KT 9999 FEW060 TX13/1712Z TN04/1706Z \n  TEMPO 1706/1713 4000 RA BKN014 \n  TEMPO 1711/1722 27009KT"
    },
    {
      "icao": "LFLS",
      "iata": "GNB",
      "name": "Grenoble Alpes Isère Airport",
      "updatedAt": "170530Z",
      "visibility_m": 4500,
      "taf_visibility_m": 4500,
      "worst_visibility_m": 4500,
      "ceiling_ft": 7000,
      "hazards": [
        "RA"
      ],
      "severityScore": 12,
      "metarRaw": "METAR LFLS 170530Z AUTO 08009KT 9999 -RA FEW060 OVC070 07/04 Q1014 TEMPO 4500 RA",
      "tafRaw": "TAF LFLS 170200Z 1703/1803 09010KT 9999 BKN060 \n  TEMPO 1705/1715 4500 RA"
    },
    {
      "icao": "LFMN",
      "iata": "NCE",
      "name": "Nice-Côte d'Azur Airport",
      "updatedAt": "170530Z",
      "visibility_m": 10000,
      "taf_visibility_m": 10000,
      "worst_visibility_m": 10000,
      "ceiling_ft": 4000,
      "hazards": [
        "RA"
      ],
      "severityScore": 12,
      "metarRaw": "METAR LFMN 170530Z 36010KT 9999 -RA BKN040 BKN065 10/08 Q1017 NOSIG",
      "tafRaw": "TAF LFMN 170200Z 1703/1809 34012KT 9999 SCT030 BKN100 \n  TEMPO 1703/1704 08017KT \n  TEMPO 1703/1710 RA BKN020 \n  BECMG 1712/1714 08015KT \n  TEMPO 1716/1802 09025KT NSC \n  TEMPO 1802/1805 01010KT \n  TEMPO 1806/1809 RA"
    },
    {
      "icao": "LGAV",
      "iata": "ATH",
      "name": "Athens Eleftherios Venizelos International Airport",
      "updatedAt": "170520Z",
      "visibility_m": 9000,
      "taf_visibility_m": 5000,
      "worst_visibility_m": 5000,
      "ceiling_ft": 2500,
      "hazards": [
        "RA"
      ],
      "severityScore": 12,
      "metarRaw": "METAR LGAV 170520Z 04019G31KT 9000 SCT015 BKN025 10/05 Q1023 NOSIG",
      "tafRaw": "TAF LGAV 170500Z 1706/1806 03018G28KT 9000 FEW010 SCT018 BKN025 \n  PROB30 \n  TEMPO 1706/1712 5000 RA SCT010 BKN020"
    },
    {
      "icao": "LICA",
      "iata": "SUF",
      "name": "Lamezia Terme Sant'Eufemia International Airport",
      "updatedAt": "170520Z",
      "visibility_m": 10000,
      "taf_visibility_m": 10000,
      "worst_visibility_m": 10000,
      "ceiling_ft": null,
      "hazards": [
        "RA"
      ],
      "severityScore": 12,
      "metarRaw": "METAR LICA 170520Z AUTO 05009KT 9999 -RA OVC082/// 12/11 Q1018",
      "tafRaw": "TAF LICA 170500Z 1706/1806 08012KT CAVOK"
    },
    {
      "icao": "LRSV",
      "iata": "SCV",
      "name": "Suceava Stefan cel Mare Airport",
      "updatedAt": "170530Z",
      "visibility_m": 10000,
      "taf_visibility_m": 10000,
      "worst_visibility_m": 10000,
      "ceiling_ft": 1500,
      "hazards": [],
      "severityScore": 12,
      "metarRaw": "METAR LRSV 170530Z 01004KT CAVOK M11/M16 Q1033",
      "tafRaw": "TAF LRSV 170500Z 1706/1715 VRB04KT CAVOK \n  BECMG 1708/1710 03010KT \n  PROB40 \n  TEMPO 1710/1715 BKN015"
    },
    {
      "icao": "LWOH",
      "iata": "OHD",
      "name": "Ohrid St. Paul the Apostle Airport",
      "updatedAt": "170520Z",
      "visibility_m": 10000,
      "taf_visibility_m": 5000,
      "worst_visibility_m": 5000,
      "ceiling_ft": 3500,
      "hazards": [
        "RA"
      ],
      "severityScore": 12,
      "metarRaw": "METAR LWOH 170520Z 34003KT 290V040 9999 FEW035 SCT070 01/M00 Q1023",
      "tafRaw": "TAF LWOH 170530Z 1706/1806 VRB02KT 9999 FEW035 SCT070 \n  TEMPO 1710/1716 5000 RA SCT010 OVC035"
    },
    {
      "icao": "BKPR",
      "iata": "PRN",
      "name": "Priština Adem Jashari International Airport",
      "updatedAt": "170530Z",
      "visibility_m": 4000,
      "taf_visibility_m": 4000,
      "worst_visibility_m": 4000,
      "ceiling_ft": 4000,
      "hazards": [
        "BR"
      ],
      "severityScore": 10,
      "metarRaw": "METAR BKPR 170530Z 35007KT 9999 SCT006 BKN040 M00/M01 Q1026 TEMPO 4000 BR",
      "tafRaw": "TAF BKPR 170530Z 1706/1806 36009KT 9999 SCT006 BKN030 \n  TEMPO 1706/1709 4000 BR"
    },
    {
      "icao": "GCFV",
      "iata": "FUE",
      "name": "Fuerteventura Airport",
      "updatedAt": "170530Z",
      "visibility_m": 10000,
      "taf_visibility_m": 10000,
      "worst_visibility_m": 10000,
      "ceiling_ft": null,
      "hazards": [
        "DZ"
      ],
      "severityScore": 10,
      "metarRaw": "METAR GCFV 170530Z AUTO 34012KT 9999 FEW039 15/12 Q1021",
      "tafRaw": "TAF GCFV 170200Z 1703/1803 35009KT 9999 SCT035 TX20/1714Z TN15/1706Z \n  PROB30 \n  TEMPO 1715/1718 DZ"
    },
    {
      "icao": "GCLP",
      "iata": "LPA",
      "name": "Gran Canaria Airport",
      "updatedAt": "170530Z",
      "visibility_m": 10000,
      "taf_visibility_m": 10000,
      "worst_visibility_m": 10000,
      "ceiling_ft": 3500,
      "hazards": [
        "DZ"
      ],
      "severityScore": 10,
      "metarRaw": "METAR GCLP 170530Z 34013KT 9999 BKN035 16/12 Q1022 NOSIG",
      "tafRaw": "TAF GCLP 170200Z 1703/1803 36017KT 9999 SCT035 TX21/1714Z TN15/1706Z \n  PROB40 \n  TEMPO 1703/1706 01020G30KT \n  PROB30 \n  TEMPO 1703/1711 35007KT \n  PROB40 \n  TEMPO 1710/1719 36020G30KT \n  PROB30 \n  TEMPO 1710/1718 DZ"
    },
    {
      "icao": "EDLW",
      "iata": "DTM",
      "name": "Dortmund Airport",
      "updatedAt": "170520Z",
      "visibility_m": 10000,
      "taf_visibility_m": 3000,
      "worst_visibility_m": 3000,
      "ceiling_ft": null,
      "hazards": [
        "BR"
      ],
      "severityScore": 10,
      "metarRaw": "METAR EDLW 170520Z VRB02KT CAVOK 06/03 Q1017",
      "tafRaw": "TAF EDLW 170500Z 1706/1806 10004KT CAVOK \n  PROB30 \n  TEMPO 1802/1806 3000 BR"
    },
    {
      "icao": "EYVI",
      "iata": "VNO",
      "name": "Vilnius International Airport",
      "updatedAt": "170520Z",
      "visibility_m": 10000,
      "taf_visibility_m": 5000,
      "worst_visibility_m": 5000,
      "ceiling_ft": null,
      "hazards": [
        "BR"
      ],
      "severityScore": 10,
      "metarRaw": "METAR EYVI 170520Z 16009KT CAVOK M13/M17 Q1036 NOSIG",
      "tafRaw": "TAF EYVI 170501Z 1706/1806 16010KT 8000 NSC \n  BECMG 1710/1713 VRB04KT \n  TEMPO 1723/1806 5000 BR SCT005"
    },
    {
      "icao": "LIPH",
      "iata": "TSF",
      "name": "Treviso Antonio Canova Airport",
      "updatedAt": "170520Z",
      "visibility_m": 2100,
      "taf_visibility_m": 7000,
      "worst_visibility_m": 2100,
      "ceiling_ft": null,
      "hazards": [
        "BR"
      ],
      "severityScore": 10,
      "metarRaw": "METAR LIPH 170520Z AUTO VRB01KT 2100 BR OVC008/// 05/05 Q1023",
      "tafRaw": "TAF LIPH 170500Z 1706/1806 03007KT 7000 SCT040"
    },
    {
      "icao": "OJAI",
      "iata": "AMM",
      "name": "Queen Alia International Airport",
      "updatedAt": "170500Z",
      "visibility_m": 2500,
      "taf_visibility_m": 2000,
      "worst_visibility_m": 2000,
      "ceiling_ft": null,
      "hazards": [
        "BR"
      ],
      "severityScore": 10,
      "metarRaw": "METAR OJAI 170500Z 01003KT 2500 BR NSC 04/03 Q1019 NOSIG",
      "tafRaw": "TAF OJAI 170448Z 1706/1812 06005KT 2000 BR FEW035 \n  BECMG 1707/1709 27012KT 5000 HZ"
    },
    {
      "icao": "LIBG",
      "iata": "TAR",
      "name": "Taranto-Grottaglie Marcello Arlotta Airport",
      "updatedAt": null,
      "visibility_m": null,
      "taf_visibility_m": null,
      "worst_visibility_m": null,
      "ceiling_ft": null,
      "hazards": [],
      "severityScore": 5,
      "metarRaw": null,
      "tafRaw": null
    },
    {
      "icao": "LRSM",
      "iata": "SUJ",
      "name": "Satu Mare International Airport",
      "updatedAt": "170530Z",
      "visibility_m": 10000,
      "taf_visibility_m": null,
      "worst_visibility_m": 10000,
      "ceiling_ft": null,
      "hazards": [],
      "severityScore": 5,
      "metarRaw": "METAR LRSM 170530Z AUTO 06005KT 9999 NCD M08/M11 Q1031",
      "tafRaw": null
    },
    {
      "icao": "GMAD",
      "iata": "AGA",
      "name": "Al Massira Airport",
      "updatedAt": "170530Z",
      "visibility_m": 10000,
      "taf_visibility_m": 10000,
      "worst_visibility_m": 10000,
      "ceiling_ft": null,
      "hazards": [],
      "severityScore": 0,
      "metarRaw": "METAR GMAD 170530Z 21007KT CAVOK 11/09 Q1017 NOSIG",
      "tafRaw": "TAF GMAD 170500Z 1706/1812 22006KT CAVOK"
    },
    {
      "icao": "EDDK",
      "iata": "CGN",
      "name": "Cologne Bonn Airport",
      "updatedAt": "170520Z",
      "visibility_m": 10000,
      "taf_visibility_m": 10000,
      "worst_visibility_m": 10000,
      "ceiling_ft": null,
      "hazards": [],
      "severityScore": 0,
      "metarRaw": "METAR EDDK 170520Z AUTO 10006KT 080V140 CAVOK 07/03 Q1017 NOSIG",
      "tafRaw": "TAF EDDK 170500Z 1706/1812 12007KT CAVOK"
    },
    {
      "icao": "EHBK",
      "iata": "MST",
      "name": "Maastricht Aachen Airport",
      "updatedAt": "170525Z",
      "visibility_m": 10000,
      "taf_visibility_m": 7000,
      "worst_visibility_m": 7000,
      "ceiling_ft": 4000,
      "hazards": [],
      "severityScore": 0,
      "metarRaw": "METAR EHBK 170525Z AUTO 16004KT 9999 NSC 08/05 Q1015 NOSIG",
      "tafRaw": "TAF EHBK 170502Z 1706/1812 16006KT 9999 BKN040 \n  PROB30 1800/1808 7000"
    },
    {
      "icao": "EHEH",
      "iata": "EIN",
      "name": "Eindhoven Airport",
      "updatedAt": "170525Z",
      "visibility_m": 10000,
      "taf_visibility_m": 10000,
      "worst_visibility_m": 10000,
      "ceiling_ft": 17000,
      "hazards": [],
      "severityScore": 0,
      "metarRaw": "METAR EHEH 170525Z AUTO 13004KT 9999 OVC170 08/06 Q1015 BLU NOSIG RMK TRENDE REMOTE BY EHWX",
      "tafRaw": "TAF EHEH 162333Z 1700/1806 13005KT 9999 FEW030 BKN045 \n  BECMG 1715/1717 10005KT"
    },
    {
      "icao": "ENAL",
      "iata": "AES",
      "name": "Ålesund Airport, Vigra",
      "updatedAt": "170520Z",
      "visibility_m": 10000,
      "taf_visibility_m": 10000,
      "worst_visibility_m": 10000,
      "ceiling_ft": 5000,
      "hazards": [],
      "severityScore": 0,
      "metarRaw": "METAR ENAL 170520Z AUTO 17005KT 9999 FEW052/// 05/01 Q1019",
      "tafRaw": "TAF ENAL 170500Z 1706/1715 16008KT 9999 BKN050"
    },
    {
      "icao": "ENHD",
      "iata": "HAU",
      "name": "Haugesund Airport, Karmøy",
      "updatedAt": "170520Z",
      "visibility_m": 10000,
      "taf_visibility_m": 10000,
      "worst_visibility_m": 10000,
      "ceiling_ft": 4000,
      "hazards": [],
      "severityScore": 0,
      "metarRaw": "METAR ENHD 170520Z AUTO 12011KT 9999 FEW013/// OVC032/// 05/03 Q1020",
      "tafRaw": "TAF ENHD 170500Z 1706/1715 12012KT 9999 FEW025 BKN040"
    },
    {
      "icao": "EPLB",
      "iata": "LUZ",
      "name": "Lublin Airport",
      "updatedAt": "170530Z",
      "visibility_m": 10000,
      "taf_visibility_m": 10000,
      "worst_visibility_m": 10000,
      "ceiling_ft": null,
      "hazards": [],
      "severityScore": 0,
      "metarRaw": "METAR EPLB 170530Z 09006KT CAVOK M14/M16 Q1033",
      "tafRaw": "TAF EPLB 170530Z 1706/1806 11010KT CAVOK"
    },
    {
      "icao": "HEGN",
      "iata": "HRG",
      "name": "Hurghada International Airport",
      "updatedAt": "170500Z",
      "visibility_m": 10000,
      "taf_visibility_m": 10000,
      "worst_visibility_m": 10000,
      "ceiling_ft": null,
      "hazards": [],
      "severityScore": 0,
      "metarRaw": "METAR HEGN 170500Z 30008KT CAVOK 12/03 Q1018 NOSIG",
      "tafRaw": "TAF HEGN 170500Z 1706/1812 28010KT CAVOK"
    },
    {
      "icao": "HEMA",
      "iata": "RMF",
      "name": "Marsa Alam International Airport",
      "updatedAt": "170500Z",
      "visibility_m": 10000,
      "taf_visibility_m": 10000,
      "worst_visibility_m": 10000,
      "ceiling_ft": null,
      "hazards": [],
      "severityScore": 0,
      "metarRaw": "METAR HEMA 170500Z 31012KT CAVOK 14/08 Q1017 NOSIG",
      "tafRaw": "TAF HEMA 170500Z 1706/1812 29008KT CAVOK"
    },
    {
      "icao": "HESH",
      "iata": "SSH",
      "name": "Sharm El Sheikh International Airport",
      "updatedAt": "170500Z",
      "visibility_m": 10000,
      "taf_visibility_m": 10000,
      "worst_visibility_m": 10000,
      "ceiling_ft": null,
      "hazards": [],
      "severityScore": 0,
      "metarRaw": "METAR HESH 170500Z 33007KT CAVOK 15/06 Q1016 NOSIG",
      "tafRaw": "TAF HESH 170500Z 1706/1812 31008KT CAVOK"
    },
    {
      "icao": "LATI",
      "iata": "TIA",
      "name": "Tirana International Airport Mother Teresa",
      "updatedAt": null,
      "visibility_m": null,
      "taf_visibility_m": 10000,
      "worst_visibility_m": 10000,
      "ceiling_ft": null,
      "hazards": [],
      "severityScore": 0,
      "metarRaw": null,
      "tafRaw": "TAF LATI 170500Z 1706/1806 VRB04KT CAVOK TX17/1712Z TN01/1804Z"
    },
    {
      "icao": "LBPD",
      "iata": "PDV",
      "name": "Plovdiv International Airport",
      "updatedAt": "170530Z",
      "visibility_m": 10000,
      "taf_visibility_m": 10000,
      "worst_visibility_m": 10000,
      "ceiling_ft": null,
      "hazards": [],
      "severityScore": 0,
      "metarRaw": "METAR LBPD 170530Z AUTO 09006KT 9999 NCD M04/M06 Q1032 NOSIG",
      "tafRaw": "TAF LBPD 170500Z 1706/1806 10010KT 9999 SCT040"
    },
    {
      "icao": "LBSF",
      "iata": "SOF",
      "name": "Sofia Airport",
      "updatedAt": "170530Z",
      "visibility_m": 10000,
      "taf_visibility_m": 10000,
      "worst_visibility_m": 10000,
      "ceiling_ft": 3700,
      "hazards": [],
      "severityScore": 0,
      "metarRaw": "METAR LBSF 170530Z 09011KT 9999 FEW018 BKN037 M02/M04 Q1028 NOSIG",
      "tafRaw": "TAF LBSF 170500Z 1706/1806 10012KT 9999 SCT015 BKN030 \n  BECMG 1720/1722 VRB04KT SCT040"
    },
    {
      "icao": "LEMG",
      "iata": "AGP",
      "name": "Málaga-Costa del Sol Airport",
      "updatedAt": "170530Z",
      "visibility_m": 10000,
      "taf_visibility_m": 10000,
      "worst_visibility_m": 10000,
      "ceiling_ft": null,
      "hazards": [],
      "severityScore": 0,
      "metarRaw": "METAR LEMG 170530Z 28005KT 9999 FEW025 07/04 Q1012 NOSIG",
      "tafRaw": "TAF LEMG 170500Z 1706/1806 27006KT 9999 FEW030 TX15/1714Z TN06/1806Z \n  BECMG 1710/1712 33010KT \n  BECMG 1718/1720 27005KT"
    },
    {
      "icao": "LIBD",
      "iata": "BRI",
      "name": "Bari Karol Wojtyła International Airport",
      "updatedAt": "170520Z",
      "visibility_m": 6000,
      "taf_visibility_m": 10000,
      "worst_visibility_m": 6000,
      "ceiling_ft": 4500,
      "hazards": [],
      "severityScore": 0,
      "metarRaw": "METAR LIBD 170520Z 21003KT 6000 SCT015 BKN045 08/08 Q1021",
      "tafRaw": "TAF LIBD 170500Z 1706/1806 VRB05KT 9999 FEW030"
    },
    {
      "icao": "LICJ",
      "iata": "PMO",
      "name": "Falcone–Borsellino Airport",
      "updatedAt": "170520Z",
      "visibility_m": 10000,
      "taf_visibility_m": 10000,
      "worst_visibility_m": 10000,
      "ceiling_ft": null,
      "hazards": [],
      "severityScore": 0,
      "metarRaw": "METAR LICJ 170520Z 08003KT 010V150 CAVOK 12/09 Q1015",
      "tafRaw": "TAF LICJ 170500Z 1706/1806 10012KT 9999 SCT060 \n  BECMG 1708/1710 VRB05KT"
    },
    {
      "icao": "LIMJ",
      "iata": "GOA",
      "name": "Genoa Cristoforo Colombo Airport",
      "updatedAt": "170520Z",
      "visibility_m": 10000,
      "taf_visibility_m": 8000,
      "worst_visibility_m": 8000,
      "ceiling_ft": null,
      "hazards": [],
      "severityScore": 0,
      "metarRaw": "METAR LIMJ 170520Z 04015KT 9999 FEW080 09/05 Q1019",
      "tafRaw": "TAF LIMJ 170500Z 1706/1806 03017KT 8000 SCT030"
    },
    {
      "icao": "LIRF",
      "iata": "FCO",
      "name": "Rome–Fiumicino Leonardo da Vinci International Airport",
      "updatedAt": "170520Z",
      "visibility_m": 10000,
      "taf_visibility_m": 10000,
      "worst_visibility_m": 10000,
      "ceiling_ft": null,
      "hazards": [],
      "severityScore": 0,
      "metarRaw": "METAR LIRF 170520Z 05005KT CAVOK 07/05 Q1018 NOSIG",
      "tafRaw": "TAF LIRF 170500Z 1706/1812 05008KT CAVOK"
    },
    {
      "icao": "LIRN",
      "iata": "NAP",
      "name": "Naples International Airport",
      "updatedAt": "170520Z",
      "visibility_m": 10000,
      "taf_visibility_m": 10000,
      "worst_visibility_m": 10000,
      "ceiling_ft": null,
      "hazards": [],
      "severityScore": 0,
      "metarRaw": "METAR LIRN 170520Z 36006KT CAVOK 08/04 Q1018 NOSIG",
      "tafRaw": "TAF LIRN 170500Z 1706/1806 05007KT CAVOK"
    },
    {
      "icao": "LRBV",
      "iata": "GHV",
      "name": "Brașov-Ghimbav International Airport",
      "updatedAt": "170530Z",
      "visibility_m": 10000,
      "taf_visibility_m": 10000,
      "worst_visibility_m": 10000,
      "ceiling_ft": null,
      "hazards": [],
      "severityScore": 0,
      "metarRaw": "METAR LRBV 170530Z 21006KT CAVOK M12/M14 Q1030",
      "tafRaw": "TAF LRBV 170500Z 1706/1715 VRB04KT CAVOK"
    },
    {
      "icao": "LRCL",
      "iata": "CLJ",
      "name": "Cluj Avram Iancu International Airport",
      "updatedAt": "170530Z",
      "visibility_m": 10000,
      "taf_visibility_m": 10000,
      "worst_visibility_m": 10000,
      "ceiling_ft": null,
      "hazards": [],
      "severityScore": 0,
      "metarRaw": "METAR LRCL 170530Z 08005KT CAVOK M11/M12 Q1031",
      "tafRaw": "TAF LRCL 170500Z 1706/1715 08007KT CAVOK"
    },
    {
      "icao": "LRCV",
      "iata": "CRA",
      "name": "Craiova International Airport",
      "updatedAt": "170530Z",
      "visibility_m": 10000,
      "taf_visibility_m": 10000,
      "worst_visibility_m": 10000,
      "ceiling_ft": null,
      "hazards": [],
      "severityScore": 0,
      "metarRaw": "METAR LRCV 170530Z 11005KT CAVOK M07/M08 Q1034",
      "tafRaw": "TAF LRCV 170500Z 1706/1715 11005KT CAVOK"
    },
    {
      "icao": "LRSB",
      "iata": "SBZ",
      "name": "Sibiu International Airport",
      "updatedAt": "170530Z",
      "visibility_m": 10000,
      "taf_visibility_m": 10000,
      "worst_visibility_m": 10000,
      "ceiling_ft": null,
      "hazards": [],
      "severityScore": 0,
      "metarRaw": "METAR LRSB 170530Z VRB02KT CAVOK M08/M08 Q1029",
      "tafRaw": "TAF LRSB 170500Z 1706/1806 VRB04KT CAVOK"
    },
    {
      "icao": "LRTM",
      "iata": "TGM",
      "name": "Târgu Mureş Transilvania International Airport",
      "updatedAt": "170530Z",
      "visibility_m": 10000,
      "taf_visibility_m": 10000,
      "worst_visibility_m": 10000,
      "ceiling_ft": null,
      "hazards": [],
      "severityScore": 0,
      "metarRaw": "METAR LRTM 170530Z 09005KT CAVOK M13/M15 Q1031",
      "tafRaw": "TAF LRTM 170500Z 1706/1715 10004KT CAVOK"
    },
    {
      "icao": "LTAC",
      "iata": "ESB",
      "name": "Esenboğa International Airport",
      "updatedAt": "170520Z",
      "visibility_m": 10000,
      "taf_visibility_m": 10000,
      "worst_visibility_m": 10000,
      "ceiling_ft": 10000,
      "hazards": [],
      "severityScore": 0,
      "metarRaw": "METAR LTAC 170520Z 33007KT 9999 FEW040 M05/M09 Q1021 NOSIG RMK RWY21C 31006KT RWY03L 32005KT RWY21R 29004KT RWY03R 29004KT 260V330 RWY21L 33004KT 280V010",
      "tafRaw": "TAF LTAC 170440Z 1706/1806 34008KT 9999 SCT040 BKN100"
    },
    {
      "icao": "LYBE",
      "iata": "BEG",
      "name": "Belgrade Nikola Tesla Airport",
      "updatedAt": "170530Z",
      "visibility_m": 10000,
      "taf_visibility_m": 10000,
      "worst_visibility_m": 10000,
      "ceiling_ft": null,
      "hazards": [],
      "severityScore": 0,
      "metarRaw": "METAR LYBE 170530Z 11012KT CAVOK M00/M04 Q1028 NOSIG",
      "tafRaw": "TAF LYBE 170500Z 1706/1806 11014KT CAVOK TX04/1712Z TNM05/1806Z"
    },
    {
      "icao": "LYNI",
      "iata": "INI",
      "name": "Niš Constantine the Great Airport",
      "updatedAt": "170530Z",
      "visibility_m": 10000,
      "taf_visibility_m": 10000,
      "worst_visibility_m": 10000,
      "ceiling_ft": null,
      "hazards": [],
      "severityScore": 0,
      "metarRaw": "METAR LYNI 170530Z 04006KT 360V070 CAVOK M01/M04 Q1029 NOSIG",
      "tafRaw": "TAF LYNI 170500Z 1706/1806 05008KT 9999 SCT040 TX03/1712Z TNM04/1806Z"
    },
    {
      "icao": "LZKZ",
      "iata": "KSC",
      "name": "Košice International Airport",
      "updatedAt": "170530Z",
      "visibility_m": 10000,
      "taf_visibility_m": 10000,
      "worst_visibility_m": 10000,
      "ceiling_ft": null,
      "hazards": [],
      "severityScore": 0,
      "metarRaw": "METAR LZKZ 170530Z 33006KT CAVOK M00/M05 Q1030 NOSIG",
      "tafRaw": "TAF LZKZ 170515Z 1706/1806 32006KT CAVOK \n  BECMG 1720/1722 VRB02KT"
    },
    {
      "icao": "OEJN",
      "iata": "JED",
      "name": "King Abdulaziz International Airport",
      "updatedAt": "170500Z",
      "visibility_m": 10000,
      "taf_visibility_m": 7000,
      "worst_visibility_m": 7000,
      "ceiling_ft": null,
      "hazards": [],
      "severityScore": 0,
      "metarRaw": "METAR OEJN 170500Z 00000KT CAVOK 23/12 Q1014 NOSIG",
      "tafRaw": "TAF OEJN 170500Z 1706/1812 28012KT 7000 FEW040 \n  BECMG 1718/1720 VRB03KT \n  BECMG 1806/1808 28010KT"
    },
    {
      "icao": "OEMA",
      "iata": "MED",
      "name": "Prince Mohammad Bin Abdulaziz Airport",
      "updatedAt": "170500Z",
      "visibility_m": 10000,
      "taf_visibility_m": 10000,
      "worst_visibility_m": 10000,
      "ceiling_ft": null,
      "hazards": [],
      "severityScore": 0,
      "metarRaw": "METAR OEMA 170500Z 03006KT CAVOK 14/01 Q1020 NOSIG",
      "tafRaw": "TAF OEMA 170500Z 1706/1812 09010KT CAVOK \n  BECMG 1718/1720 VRB03KT \n  BECMG 1806/1808 27010KT"
    },
    {
      "icao": "OMAA",
      "iata": "AUH",
      "name": "Zayed International Airport",
      "updatedAt": "170500Z",
      "visibility_m": 10000,
      "taf_visibility_m": 10000,
      "worst_visibility_m": 10000,
      "ceiling_ft": null,
      "hazards": [],
      "severityScore": 0,
      "metarRaw": "METAR OMAA 170500Z 29012KT 9999 FEW035 19/11 Q1020 NOSIG",
      "tafRaw": "TAF OMAA 170500Z 1706/1812 31013KT 9999 SCT040"
    },
    {
      "icao": "OMDB",
      "iata": "DXB",
      "name": "Dubai International Airport",
      "updatedAt": "170530Z",
      "visibility_m": 10000,
      "taf_visibility_m": 8000,
      "worst_visibility_m": 8000,
      "ceiling_ft": 3500,
      "hazards": [],
      "severityScore": 0,
      "metarRaw": "METAR OMDB 170530Z 27012KT 9999 BKN035 21/12 Q1019 NOSIG",
      "tafRaw": "TAF OMDB 170500Z 1706/1812 28012KT 8000 SCT040 \n  BECMG 1718/1720 22006KT \n  BECMG 1806/1808 29012KT"
    },
    {
      "icao": "UDYZ",
      "iata": "EVN",
      "name": "Zvartnots International Airport",
      "updatedAt": "170530Z",
      "visibility_m": 9000,
      "taf_visibility_m": 6000,
      "worst_visibility_m": 6000,
      "ceiling_ft": null,
      "hazards": [],
      "severityScore": 0,
      "metarRaw": "METAR UDYZ 170530Z 18001KT 9000 FEW046 M05/M07 Q1022 NOSIG",
      "tafRaw": "TAF UDYZ 170500Z 1706/1806 24006KT 6000 SCT040 \n  TEMPO 1709/1718 VRB16KT SCT040CB"
    }
  ],
  "stats": {
    "icaoCount": 159,
    "metarReturned": 157,
    "tafReturned": 154,
    "stationsWritten": 159,
    "missingMetar": 2,
    "missingTaf": 5
  },
  "errors": []
}