{
  "generatedAt": "2026-01-20T08:33:22.270Z",
  "stations": [
    {
      "icao": "EDDS",
      "iata": "STR",
      "name": "Stuttgart Airport",
      "lat": 48.689899,
      "lon": 9.22196,
      "updatedAt": "200820Z",
      "visibility_m": 5000,
      "taf_visibility_m": 400,
      "worst_visibility_m": 400,
      "ceiling_ft": 100,
      "hazards": [
        "BR",
        "FZFG",
        "FG"
      ],
      "severityScore": 100,
      "metarRaw": "METAR EDDS 200820Z AUTO 09001KT 5000 BR NCD M03/M04 Q1018 NOSIG",
      "tafRaw": "TAF EDDS 200500Z 2006/2106 VRB02KT 4000 BR NSC \n  TEMPO 2006/2010 0400 FZFG VV001 \n  BECMG 2007/2010 9999 \n  PROB40 \n  TEMPO 2100/2106 0400 FZFG BKN001"
    },
    {
      "icao": "EDFH",
      "iata": "HHN",
      "name": "Frankfurt-Hahn Airport",
      "lat": 49.946353,
      "lon": 7.261734,
      "updatedAt": "200820Z",
      "visibility_m": 300,
      "taf_visibility_m": 300,
      "worst_visibility_m": 300,
      "ceiling_ft": 0,
      "hazards": [
        "FZFG",
        "FG"
      ],
      "severityScore": 100,
      "metarRaw": "METAR EDFH 200820Z 15013KT 0300 R21/0375N FZFG VV/// M02/M02 Q1017",
      "tafRaw": "TAF EDFH 200500Z 2006/2106 14010KT 0300 FZFG VV000 \n  PROB30 \n  TEMPO 2010/2018 3000 BCFG SCT002"
    },
    {
      "icao": "EDSB",
      "iata": "FKB",
      "name": "Karlsruhe Baden-Baden Airport",
      "lat": 48.7794,
      "lon": 8.0805,
      "updatedAt": "200820Z",
      "visibility_m": 3000,
      "taf_visibility_m": 400,
      "worst_visibility_m": 400,
      "ceiling_ft": 200,
      "hazards": [
        "BR",
        "FZFG",
        "FG"
      ],
      "severityScore": 100,
      "metarRaw": "METAR EDSB 200820Z 21003KT 3000 BR OVC002 M01/M01 Q1020",
      "tafRaw": "TAF EDSB 200500Z 2006/2106 VRB03KT 2000 BR BKN003 \n  TEMPO 2006/2010 0400 FZFG BKN001 \n  PROB30 \n  TEMPO 2012/2018 5000 BR SCT003"
    },
    {
      "icao": "EETN",
      "iata": "TLL",
      "name": "Lennart Meri Tallinn Airport",
      "lat": 59.413246,
      "lon": 24.83264,
      "updatedAt": "200820Z",
      "visibility_m": 4000,
      "taf_visibility_m": 700,
      "worst_visibility_m": 700,
      "ceiling_ft": 200,
      "hazards": [
        "BR",
        "FZFG",
        "FZDZ",
        "FG",
        "DZ"
      ],
      "severityScore": 100,
      "metarRaw": "METAR EETN 200820Z 20004KT 6000 SCT002 OVC007 M08/M09 Q1028 TEMPO 4000 BR BKN002",
      "tafRaw": "TAF EETN 200530Z 2006/2106 VRB02KT 3000 BR OVC003 \n  TEMPO 2006/2009 0700 FZFG OVC002 \n  BECMG 2009/2011 6000 OVC008 \n  BECMG 2011/2013 9999 NSW BKN012 \n  PROB40 \n  TEMPO 2012/2022 BKN003 \n  TEMPO 2101/2105 3000 SG FZDZ OVC004 \n  BECMG 2104/2106 08010KT"
    },
    {
      "icao": "EGPD",
      "iata": "ABZ",
      "name": "Aberdeen International Airport",
      "lat": 57.2019,
      "lon": -2.19778,
      "updatedAt": "200820Z",
      "visibility_m": 2000,
      "taf_visibility_m": 300,
      "worst_visibility_m": 300,
      "ceiling_ft": 200,
      "hazards": [
        "BR",
        "FG",
        "RA",
        "DZ"
      ],
      "severityScore": 100,
      "metarRaw": "METAR EGPD 200820Z AUTO 14012KT 4000 BR OVC003 08/07 Q1008 TEMPO 2000 BKN002",
      "tafRaw": "TAF EGPD 200454Z 2006/2106 14010KT 1400 BR BKN002 \n  TEMPO 2006/2012 5000 BKN005 \n  PROB30 \n  TEMPO 2006/2012 0300 DZ FG BKN001 \n  BECMG 2012/2015 9999 NSW BKN008 \n  PROB30 \n  TEMPO 2012/2015 15015G25KT \n  BECMG 2015/2018 14018G30KT SCT016 \n  PROB30 \n  TEMPO 2018/2103 BKN014 \n  TEMPO 2103/2106 6000 RA BKN012 \n  PROB30 \n  TEMPO 2103/2106 BKN006"
    },
    {
      "icao": "EHEH",
      "iata": "EIN",
      "name": "Eindhoven Airport",
      "lat": 51.4500999451,
      "lon": 5.37452983856,
      "updatedAt": "200755Z",
      "visibility_m": 350,
      "taf_visibility_m": null,
      "worst_visibility_m": 350,
      "ceiling_ft": 100,
      "hazards": [
        "FZFG",
        "FG",
        "BR",
        "RA"
      ],
      "severityScore": 100,
      "metarRaw": "METAR EHEH 200755Z AUTO 09004KT 0350 R21/0550N FZFG OVC001 M01/M01 Q1018 RED NOSIG RMK TREND REMOTE BY EHWX LVP BRAVO",
      "tafRaw": null
    },
    {
      "icao": "EPKK",
      "iata": "KRK",
      "name": "Kraków John Paul II International Airport",
      "lat": 50.077702,
      "lon": 19.7848,
      "updatedAt": "200830Z",
      "visibility_m": 3000,
      "taf_visibility_m": 500,
      "worst_visibility_m": 500,
      "ceiling_ft": 100,
      "hazards": [
        "BR",
        "FZFG",
        "FG"
      ],
      "severityScore": 100,
      "metarRaw": "METAR EPKK 200830Z 09001KT 3000 BR NSC M09/M14 Q1030",
      "tafRaw": "TAF EPKK 200830Z 2009/2109 12002KT 2800 BR NSC \n  BECMG 2009/2012 6000 \n  BECMG 2015/2018 3000 BR \n  TEMPO 2018/2024 1200 BR \n  BECMG 2100/2103 1200 BR \n  TEMPO 2100/2107 0500 FZFG BKN001 \n  BECMG 2107/2109 7000"
    },
    {
      "icao": "LBWN",
      "iata": "VAR",
      "name": "Varna Airport",
      "lat": 43.232101,
      "lon": 27.8251,
      "updatedAt": "200830Z",
      "visibility_m": 10000,
      "taf_visibility_m": 500,
      "worst_visibility_m": 500,
      "ceiling_ft": 200,
      "hazards": [
        "FZFG",
        "BR",
        "FG"
      ],
      "severityScore": 100,
      "metarRaw": "METAR LBWN 200830Z 24004KT 180V270 CAVOK M03/M07 Q1037 NOSIG",
      "tafRaw": "TAF LBWN 200500Z 2006/2106 26010KT CAVOK \n  PROB30 \n  TEMPO 2006/2007 5000 BR \n  BECMG 2008/2010 VRB04KT \n  BECMG 2022/2024 3000 BR BKN015 \n  TEMPO 2100/2106 0500 FZFG BKN002"
    },
    {
      "icao": "LEMD",
      "iata": "MAD",
      "name": "Adolfo Suárez Madrid–Barajas Airport",
      "lat": 40.471926,
      "lon": -3.56264,
      "updatedAt": "200800Z",
      "visibility_m": 10000,
      "taf_visibility_m": 600,
      "worst_visibility_m": 600,
      "ceiling_ft": 200,
      "hazards": [
        "FG",
        "BR",
        "RA",
        "DZ"
      ],
      "severityScore": 100,
      "metarRaw": "METAR LEMD 200800Z 08001KT CAVOK M02/M03 Q1016 NOSIG",
      "tafRaw": "TAF LEMD 200500Z 2006/2112 VRB03KT CAVOK TX12/2014Z TNM03/2006Z \n  PROB30 \n  TEMPO 2006/2008 4000 BR \n  TEMPO 2103/2108 3000 BR BCFG BKN004 BKN010 \n  PROB30 \n  TEMPO 2104/2108 0600 FG VV002 \n  TEMPO 2108/2112 3000 RA DZRA BKN009 \n  BECMG 2109/2111 20010KT"
    },
    {
      "icao": "LFSB",
      "iata": "BSL",
      "name": "EuroAirport Basel–Mulhouse–Freiburg",
      "lat": 47.60068,
      "lon": 7.521117,
      "updatedAt": "200830Z",
      "visibility_m": 9000,
      "taf_visibility_m": 300,
      "worst_visibility_m": 300,
      "ceiling_ft": 500,
      "hazards": [
        "FZFG",
        "BR",
        "FG"
      ],
      "severityScore": 100,
      "metarRaw": "METAR LFSB 200830Z AUTO 16005KT 140V200 9000 OVC005 M00/M01 Q1019 BECMG NSC",
      "tafRaw": "TAF LFSB 200500Z 2006/2106 VRB03KT 9000 OVC005 \n  PROB30 \n  TEMPO 2006/2009 3000 BR OVC002 \n  BECMG 2009/2011 CAVOK \n  BECMG 2018/2021 2000 BR OVC003 \n  PROB40 \n  TEMPO 2022/2103 0300 FZFG VV/// \n  BECMG 2103/2105 CAVOK"
    },
    {
      "icao": "LHBP",
      "iata": "BUD",
      "name": "Budapest Liszt Ferenc International Airport",
      "lat": 47.43018,
      "lon": 19.262393,
      "updatedAt": "200830Z",
      "visibility_m": 3700,
      "taf_visibility_m": 400,
      "worst_visibility_m": 400,
      "ceiling_ft": 100,
      "hazards": [
        "BR",
        "FZFG",
        "FZDZ",
        "FG",
        "DZ"
      ],
      "severityScore": 100,
      "metarRaw": "METAR LHBP 200830Z 12003KT 3700 BR SCT003 M09/M10 Q1035 BECMG 5000 BR FEW003",
      "tafRaw": "TAF LHBP 200515Z 2006/2106 05005KT 5000 BR SCT006 \n  TEMPO 2006/2011 VRB03KT 1200 -SG -FZDZ BR BKN002 \n  TEMPO 2011/2017 09007KT 7000 NSW NSC \n  TEMPO 2017/2106 1200 -SG -FZDZ BR OVC002 \n  PROB30 \n  TEMPO 2020/2106 0400 FZFG VV001"
    },
    {
      "icao": "LHDC",
      "iata": "DEB",
      "name": "Debrecen International Airport",
      "lat": 47.488899,
      "lon": 21.615299,
      "updatedAt": "200815Z",
      "visibility_m": 600,
      "taf_visibility_m": 600,
      "worst_visibility_m": 600,
      "ceiling_ft": 200,
      "hazards": [
        "FZFG",
        "BR",
        "FG",
        "FZDZ",
        "DZ"
      ],
      "severityScore": 100,
      "metarRaw": "METAR LHDC 200815Z AUTO 05003KT 350V080 1900 R04/1400U BR VV002 M07/M08 Q1035 TEMPO 0600 FZFG",
      "tafRaw": "TAF LHDC 200815Z 2009/2018 04004KT 4000 BR OVC004 \n  TEMPO 2009/2011 0600 -SG -FZDZ FZFG VV001 \n  BECMG 2010/2012 8000 NSW SCT006 \n  TEMPO 2015/2018 2000 BR BKN004"
    },
    {
      "icao": "LMML",
      "iata": "MLA",
      "name": "Malta International Airport",
      "lat": 35.857498,
      "lon": 14.4775,
      "updatedAt": "200815Z",
      "visibility_m": 5000,
      "taf_visibility_m": 4000,
      "worst_visibility_m": 4000,
      "ceiling_ft": 1600,
      "hazards": [
        "RA",
        "TSRA",
        "TSGS",
        "TS"
      ],
      "severityScore": 100,
      "metarRaw": "METAR LMML 200815Z 08031G49KT 5000 -RA DU SCT011 BKN016 13/12 Q1007 NOSIG",
      "tafRaw": "TAF LMML 200500Z 2006/2106 09028G38KT 9999 BKN018 \n  TEMPO 2006/2106 8000 RA BKN015 \n  PROB30 \n  TEMPO 2006/2106 4000 TSRA TSGS BKN015CB \n  BECMG 2015/2018 20020KT \n  BECMG 2103/2106 21010KT"
    },
    {
      "icao": "LQSA",
      "iata": "SJJ",
      "name": "Sarajevo International Airport",
      "lat": 43.8246,
      "lon": 18.331499,
      "updatedAt": "200800Z",
      "visibility_m": 7000,
      "taf_visibility_m": 500,
      "worst_visibility_m": 500,
      "ceiling_ft": 1000,
      "hazards": [
        "FZFG",
        "BR",
        "FG"
      ],
      "severityScore": 100,
      "metarRaw": "METAR LQSA 200800Z 13005KT 7000 OVC010 M06/M07 Q1029 NOSIG",
      "tafRaw": "TAF LQSA 200500Z 2006/2106 VRB02KT 7000 SCT035 TXM00/2013Z TNM09/2106Z \n  PROB40 2006/2009 4000 BR BKN010 \n  PROB30 2006/2008 0500 FZFG BKN002 \n  PROB40 \n  TEMPO 2020/2106 3000 BR \n  PROB30 2102/2106 0500 FZFG BKN001"
    },
    {
      "icao": "LRBS",
      "iata": "BBU",
      "name": "Bucharest Băneasa Aurel Vlaicu International Airport",
      "lat": 44.503133,
      "lon": 26.102944,
      "updatedAt": "200800Z",
      "visibility_m": 4000,
      "taf_visibility_m": 600,
      "worst_visibility_m": 600,
      "ceiling_ft": 100,
      "hazards": [
        "BR",
        "FZFG",
        "FG"
      ],
      "severityScore": 100,
      "metarRaw": "METAR LRBS 200800Z 26008KT 4000 BR NSC M06/M08 Q1036 BECMG 7000 NSW",
      "tafRaw": "TAF LRBS 200500Z 2006/2106 25006KT 3000 BR NSC \n  BECMG 2006/2008 9999 NSW \n  BECMG 2016/2018 5000 BR \n  BECMG 2018/2020 3000 BR \n  BECMG 2020/2022 1500 BR \n  TEMPO 2100/2106 0600 FZFG BKN001"
    },
    {
      "icao": "LROP",
      "iata": "OTP",
      "name": "Bucharest Henri Coandă International Airport",
      "lat": 44.571792,
      "lon": 26.103285,
      "updatedAt": "200800Z",
      "visibility_m": 3500,
      "taf_visibility_m": 600,
      "worst_visibility_m": 600,
      "ceiling_ft": 100,
      "hazards": [
        "BR",
        "FZFG",
        "FG"
      ],
      "severityScore": 100,
      "metarRaw": "METAR LROP 200800Z 27006KT 3500 BR NSC M06/M09 Q1036 BECMG 7000 NSW",
      "tafRaw": "TAF LROP 200500Z 2006/2106 25006KT 3000 BR NSC \n  BECMG 2006/2008 9999 NSW \n  BECMG 2016/2018 5000 BR \n  BECMG 2018/2020 3000 BR \n  BECMG 2020/2022 1500 BR \n  TEMPO 2100/2106 0600 FZFG BKN001"
    },
    {
      "icao": "LRSB",
      "iata": "SBZ",
      "name": "Sibiu International Airport",
      "lat": 45.785841,
      "lon": 24.086666,
      "updatedAt": "200800Z",
      "visibility_m": 4500,
      "taf_visibility_m": 300,
      "worst_visibility_m": 300,
      "ceiling_ft": 100,
      "hazards": [
        "BR",
        "FZFG",
        "FG"
      ],
      "severityScore": 100,
      "metarRaw": "METAR LRSB 200800Z VRB02KT 4500 BR NSC M11/M13 Q1033",
      "tafRaw": "TAF LRSB 200500Z 2006/2106 VRB04KT 5000 BR NSC \n  BECMG 2007/2009 9999 NSW \n  BECMG 2015/2017 3000 BR BKN005 \n  BECMG 2017/2019 1500 BR OVC002 \n  BECMG 2019/2021 0600 FZFG OVC001 \n  TEMPO 2101/2106 0300 FZFG"
    },
    {
      "icao": "LRTR",
      "iata": "TSR",
      "name": "Timişoara Traian Vuia Airport",
      "lat": 45.809898,
      "lon": 21.3379,
      "updatedAt": "200800Z",
      "visibility_m": 10000,
      "taf_visibility_m": 800,
      "worst_visibility_m": 800,
      "ceiling_ft": 200,
      "hazards": [
        "FZFG",
        "BR",
        "FG"
      ],
      "severityScore": 100,
      "metarRaw": "METAR LRTR 200800Z 07004KT CAVOK M06/M08 Q1034",
      "tafRaw": "TAF LRTR 200500Z 2006/2106 10006KT CAVOK \n  TEMPO 2006/2008 5000 BR \n  BECMG 2020/2022 3000 BR BKN005 \n  PROB30 \n  TEMPO 2100/2106 0800 FZFG BKN002"
    },
    {
      "icao": "LUKK",
      "iata": "RMO",
      "name": "Chişinău International Airport",
      "lat": 46.9277,
      "lon": 28.931,
      "updatedAt": "200830Z",
      "visibility_m": 5000,
      "taf_visibility_m": 500,
      "worst_visibility_m": 500,
      "ceiling_ft": 700,
      "hazards": [
        "BR",
        "FZFG",
        "FG"
      ],
      "severityScore": 100,
      "metarRaw": "METAR LUKK 200830Z VRB03KT 5000 BR NSC M11/M13 Q1035 NOSIG",
      "tafRaw": "TAF LUKK 200513Z 2006/2106 VRB05KT CAVOK \n  TEMPO 2006/2008 5000 BR \n  BECMG 2022/2024 19010KT 3000 BR BKN007 \n  TEMPO 2102/2106 0500 FZFG VV///"
    },
    {
      "icao": "LZKZ",
      "iata": "KSC",
      "name": "Košice International Airport",
      "lat": 48.663101,
      "lon": 21.2411,
      "updatedAt": "200830Z",
      "visibility_m": 300,
      "taf_visibility_m": null,
      "worst_visibility_m": 300,
      "ceiling_ft": 400,
      "hazards": [
        "FZFG",
        "FG"
      ],
      "severityScore": 100,
      "metarRaw": "METAR LZKZ 200830Z 11002KT 0300 R01/0700U FZFG SCT001 BKN004 M13/M14 Q1035 NOSIG",
      "tafRaw": null
    },
    {
      "icao": "UAAA",
      "iata": "ALA",
      "name": "Almaty International Airport",
      "lat": 43.354267,
      "lon": 77.042828,
      "updatedAt": "200800Z",
      "visibility_m": 5000,
      "taf_visibility_m": 200,
      "worst_visibility_m": 200,
      "ceiling_ft": 100,
      "hazards": [
        "BR",
        "FZFG",
        "FG"
      ],
      "severityScore": 100,
      "metarRaw": "METAR UAAA 200800Z 02003MPS 5000 BR FU FEW050 SCT100 M04/M08 Q1025 NOSIG",
      "tafRaw": "TAF UAAA 200501Z 2006/2106 04003MPS 3100 BR FU SCT050 BKN100 TXM05/2008Z TNM15/2103Z \n  TEMPO 2006/2012 1200 \n  BECMG 2012/2013 16003MPS 1000 \n  TEMPO 2013/2101 06003MPS 0200 FZFG VV001 \n  TEMPO 2101/2106 34003MPS 0200 FZFG VV001"
    },
    {
      "icao": "EGNM",
      "iata": "LBA",
      "name": "Leeds Bradford Airport",
      "lat": 53.865898,
      "lon": -1.66057,
      "updatedAt": "200820Z",
      "visibility_m": 6000,
      "taf_visibility_m": 900,
      "worst_visibility_m": 900,
      "ceiling_ft": 400,
      "hazards": [
        "FG",
        "RA",
        "DZ"
      ],
      "severityScore": 87,
      "metarRaw": "METAR EGNM 200820Z 13010KT 100V160 6000 BKN004 06/06 Q1008",
      "tafRaw": "TAF EGNM 200529Z 2006/2106 14007KT 0900 FG BKN001 \n  BECMG 2006/2009 9999 NSW SCT015 \n  PROB30 \n  TEMPO 2009/2013 7000 -RADZ BKN008 \n  BECMG 2014/2017 14017G27KT \n  PROB40 \n  TEMPO 2017/2106 BKN012 \n  PROB30 \n  TEMPO 2022/2024 7000 -RA \n  BECMG 2100/2103 14005KT \n  TEMPO 2100/2106 6000 RA \n  PROB30 \n  TEMPO 2100/2106 4000 +RA BKN009"
    },
    {
      "icao": "EPGD",
      "iata": "GDN",
      "name": "Gdańsk Lech Wałęsa Airport",
      "lat": 54.377602,
      "lon": 18.4662,
      "updatedAt": "200830Z",
      "visibility_m": 10000,
      "taf_visibility_m": 800,
      "worst_visibility_m": 800,
      "ceiling_ft": null,
      "hazards": [
        "FZFG",
        "BR",
        "FG"
      ],
      "severityScore": 85,
      "metarRaw": "METAR EPGD 200830Z 29002KT CAVOK M06/M10 Q1026",
      "tafRaw": "TAF EPGD 200530Z 2006/2106 19004KT 3000 BR NSC \n  BECMG 2006/2008 8000 \n  TEMPO 2018/2106 2500 BR \n  PROB40 2022/2106 0800 FZFG"
    },
    {
      "icao": "LFBD",
      "iata": "BOD",
      "name": "Bordeaux–Mérignac Airport",
      "lat": 44.82865,
      "lon": -0.715356,
      "updatedAt": "200830Z",
      "visibility_m": 800,
      "taf_visibility_m": 300,
      "worst_visibility_m": 300,
      "ceiling_ft": null,
      "hazards": [
        "FG",
        "BR"
      ],
      "severityScore": 75,
      "metarRaw": "METAR LFBD 200830Z AUTO 15005KT 2600 0800 R23/P2300 R05/1800D R29/1300D BCFG VV/// 04/04 Q1016 BECMG CAVOK",
      "tafRaw": "TAF LFBD 200500Z 2006/2112 VRB03KT 3000 BR NSC TX12/2013Z TN04/2006Z \n  PROB40 \n  TEMPO 2006/2010 0500 FG VV/// \n  PROB30 \n  TEMPO 2006/2008 0300 \n  BECMG 2010/2012 15010KT CAVOK \n  TEMPO 2109/2112 15015G25KT"
    },
    {
      "icao": "LPPT",
      "iata": "LIS",
      "name": "Lisbon Humberto Delgado Airport",
      "lat": 38.7813,
      "lon": -9.13592,
      "updatedAt": "200800Z",
      "visibility_m": 10000,
      "taf_visibility_m": 2000,
      "worst_visibility_m": 2000,
      "ceiling_ft": 400,
      "hazards": [
        "BR",
        "RA",
        "DZ"
      ],
      "severityScore": 67,
      "metarRaw": "METAR LPPT 200800Z 27002KT 9999 FEW030 07/06 Q1021",
      "tafRaw": "TAF LPPT 200500Z 2006/2112 29007KT 9999 SCT025 \n  BECMG 2010/2012 26008KT FEW015 BKN035 \n  TEMPO 2012/2022 6000 -RA SCT006 BKN012 \n  BECMG 2022/2024 22012KT SCT008 BKN015 \n  TEMPO 2100/2112 5000 RA BR SCT004 BKN008 \n  PROB40 \n  TEMPO 2100/2112 22017G27KT \n  PROB30 \n  TEMPO 2106/2112 2000 RADZ BR SCT002 BKN004"
    },
    {
      "icao": "EHBK",
      "iata": "MST",
      "name": "Maastricht Aachen Airport",
      "lat": 50.911701,
      "lon": 5.77014,
      "updatedAt": "200825Z",
      "visibility_m": 2000,
      "taf_visibility_m": 2000,
      "worst_visibility_m": 2000,
      "ceiling_ft": 100,
      "hazards": [
        "BR",
        "FG"
      ],
      "severityScore": 65,
      "metarRaw": "METAR EHBK 200825Z AUTO 10004KT 080V240 4700 BR NSC M02/M02 Q1017 TEMPO 2000 PRFG SCT001",
      "tafRaw": "TAF EHBK 200519Z 2006/2112 17005KT CAVOK \n  PROB30 2006/2010 2000 BR BKN001"
    },
    {
      "icao": "LKPR",
      "iata": "PRG",
      "name": "Václav Havel Airport Prague",
      "lat": 50.100874,
      "lon": 14.259911,
      "updatedAt": "200830Z",
      "visibility_m": 9000,
      "taf_visibility_m": 2000,
      "worst_visibility_m": 2000,
      "ceiling_ft": 300,
      "hazards": [
        "BR",
        "FG"
      ],
      "severityScore": 65,
      "metarRaw": "METAR LKPR 200830Z 10004KT 9000 NSC M07/M08 Q1024 NOSIG",
      "tafRaw": "TAF LKPR 200800Z 2009/2115 13006KT CAVOK \n  TEMPO 2101/2107 4000 BR SCT004 \n  PROB30 \n  TEMPO 2102/2106 2000 BCFG BKN003"
    },
    {
      "icao": "LGAV",
      "iata": "ATH",
      "name": "Athens Eleftherios Venizelos International Airport",
      "lat": 37.936401,
      "lon": 23.9445,
      "updatedAt": "200820Z",
      "visibility_m": 10000,
      "taf_visibility_m": 4000,
      "worst_visibility_m": 4000,
      "ceiling_ft": 3500,
      "hazards": [
        "TSRA",
        "RA",
        "TS"
      ],
      "severityScore": 62,
      "metarRaw": "METAR LGAV 200820Z 06019KT 9999 FEW020 BKN035 08/M01 Q1030 NOSIG",
      "tafRaw": "TAF LGAV 200500Z 2006/2106 03015KT 9999 FEW018 BKN025 \n  TEMPO 2006/2012 03015G25KT \n  PROB40 \n  TEMPO 2018/2106 5000 RA SCT010 BKN020 \n  PROB30 \n  TEMPO 2100/2106 4000 TSRA SCT008 FEW018CB BKN020"
    },
    {
      "icao": "LICC",
      "iata": "CTA",
      "name": "Catania-Fontanarossa Airport",
      "lat": 37.466801,
      "lon": 15.0664,
      "updatedAt": "200820Z",
      "visibility_m": 5000,
      "taf_visibility_m": 4000,
      "worst_visibility_m": 4000,
      "ceiling_ft": 2000,
      "hazards": [
        "RA",
        "TSRA",
        "TS"
      ],
      "severityScore": 62,
      "metarRaw": "METAR LICC 200820Z 08031G41KT 5000 -RA BKN020 BKN040 13/10 Q1013",
      "tafRaw": "TAF LICC 200500Z 2006/2106 10023G40KT 4000 RA BKN015 \n  TEMPO 2006/2024 TSRA BKN008 \n  BECMG 2007/2009 09025G50KT"
    },
    {
      "icao": "EGKK",
      "iata": "LGW",
      "name": "London Gatwick Airport",
      "lat": 51.148771,
      "lon": -0.192089,
      "updatedAt": "200820Z",
      "visibility_m": 10000,
      "taf_visibility_m": 4000,
      "worst_visibility_m": 4000,
      "ceiling_ft": 800,
      "hazards": [
        "RA",
        "SHRA",
        "DZ"
      ],
      "severityScore": 61,
      "metarRaw": "METAR EGKK 200820Z 16009KT 9999 SCT012 SCT035 09/07 Q1011",
      "tafRaw": "TAF EGKK 200453Z 2006/2112 16006KT 9999 SCT010 BKN020 \n  TEMPO 2006/2008 6000 -RADZ BKN008 \n  PROB30 \n  TEMPO 2008/2011 7000 -RADZ BKN008 \n  TEMPO 2016/2024 14016G28KT \n  TEMPO 2019/2024 6000 RA BKN012 \n  PROB40 \n  TEMPO 2020/2024 4000 +RA BKN008 \n  PROB30 \n  TEMPO 2100/2106 17015G25KT 5000 SHRA BKN012 \n  BECMG 2108/2111 15015G26KT \n  TEMPO 2108/2112 7000 RA BKN010 \n  PROB40 \n  TEMPO 2109/2112 4000 +RA BKN008"
    },
    {
      "icao": "LFLL",
      "iata": "LYS",
      "name": "Lyon Saint-Exupéry Airport",
      "lat": 45.725996,
      "lon": 5.090139,
      "updatedAt": "200830Z",
      "visibility_m": 450,
      "taf_visibility_m": null,
      "worst_visibility_m": 450,
      "ceiling_ft": null,
      "hazards": [
        "FG"
      ],
      "severityScore": 60,
      "metarRaw": "METAR LFLL 200830Z 11004KT 060V140 0450 R35L/0500N R17R/1000N R35R/0550N R17L/0600N FG VV/// 01/01 Q1018 NOSIG",
      "tafRaw": null
    },
    {
      "icao": "LFOB",
      "iata": "BVA",
      "name": "Beauvais Tillé airport",
      "lat": 49.454399,
      "lon": 2.11278,
      "updatedAt": "200830Z",
      "visibility_m": 4500,
      "taf_visibility_m": 4500,
      "worst_visibility_m": 4500,
      "ceiling_ft": 300,
      "hazards": [
        "BR",
        "RA"
      ],
      "severityScore": 57,
      "metarRaw": "METAR LFOB 200830Z AUTO 12009KT 7000 OVC012 06/05 Q1015 TEMPO 4500 BR BKN003 OVC008",
      "tafRaw": "TAF LFOB 200500Z 2006/2106 09006KT 9999 BKN016 \n  BECMG 2006/2009 15010KT BKN008 \n  TEMPO 2009/2013 4500 BR BKN003 OVC008 \n  TEMPO 2014/2018 SCT010 OVC080 \n  BECMG 2018/2021 OVC045 \n  FM210100 16010G20KT 7000 BKN025 OVC045 \n  PROB40 \n  TEMPO 2103/2106 4500 RA BKN013"
    },
    {
      "icao": "LPPR",
      "iata": "OPO",
      "name": "Francisco de Sá Carneiro Airport",
      "lat": 41.2481002808,
      "lon": -8.68138980865,
      "updatedAt": "200800Z",
      "visibility_m": 10000,
      "taf_visibility_m": 1500,
      "worst_visibility_m": 1500,
      "ceiling_ft": 2500,
      "hazards": [
        "SHRA",
        "RA",
        "BR",
        "DZ"
      ],
      "severityScore": 56,
      "metarRaw": "METAR LPPR 200800Z 13011KT 9999 -SHRA SCT018 FEW020CB BKN025 07/06 Q1018",
      "tafRaw": "TAF LPPR 200500Z 2006/2106 15010KT 9999 FEW012 \n  BECMG 2007/2009 8000 -RA SCT008 BKN015 \n  TEMPO 2009/2106 3000 RADZ BR SCT002 BKN004 \n  BECMG 2022/2024 20017KT \n  PROB40 \n  TEMPO 2100/2106 22023G35KT 1500 DZRA BR BKN002"
    },
    {
      "icao": "ENBR",
      "iata": "BGO",
      "name": "Bergen Airport, Flesland",
      "lat": 60.2934,
      "lon": 5.21814,
      "updatedAt": "200820Z",
      "visibility_m": 10000,
      "taf_visibility_m": 800,
      "worst_visibility_m": 800,
      "ceiling_ft": 2000,
      "hazards": [
        "BR",
        "FG"
      ],
      "severityScore": 55,
      "metarRaw": "METAR ENBR 200820Z 14003KT 9999 SCT016 BKN020 02/02 Q1020 NOSIG RMK WIND 1200FT 17005KT",
      "tafRaw": "TAF ENBR 200500Z 2006/2106 12005KT 9999 FEW010 BKN015 \n  PROB30 2006/2008 0800 FG VV002"
    },
    {
      "icao": "LGTS",
      "iata": "SKG",
      "name": "Thessaloniki Macedonia International Airport",
      "lat": 40.51928,
      "lon": 22.970009,
      "updatedAt": "200820Z",
      "visibility_m": 10000,
      "taf_visibility_m": 3000,
      "worst_visibility_m": 3000,
      "ceiling_ft": 2000,
      "hazards": [
        "TS",
        "RA",
        "SN"
      ],
      "severityScore": 55,
      "metarRaw": "METAR LGTS 200820Z 28005KT 260V320 9999 FEW020 04/M02 Q1035 NOSIG",
      "tafRaw": "TAF LGTS 200500Z 2006/2106 11010KT 9999 SCT030 \n  BECMG 2017/2019 FEW010 BKN025 \n  PROB40 \n  TEMPO 2100/2106 5000 RA \n  PROB30 \n  TEMPO 2103/2106 3000 SNRA SCT008 BKN020"
    },
    {
      "icao": "LZIB",
      "iata": "BTS",
      "name": "M. R. Štefánik Airport",
      "lat": 48.1702,
      "lon": 17.2127,
      "updatedAt": "200830Z",
      "visibility_m": 4100,
      "taf_visibility_m": 1200,
      "worst_visibility_m": 1200,
      "ceiling_ft": 400,
      "hazards": [
        "BR"
      ],
      "severityScore": 55,
      "metarRaw": "METAR LZIB 200830Z 10009KT 4100 BR BKN004 M07/M08 Q1033 NOSIG",
      "tafRaw": "TAF LZIB 200515Z 2006/2106 12009KT 6000 FEW003 OVC004 \n  PROB30 \n  TEMPO 2006/2010 2800 BR \n  BECMG 2008/2010 9999 SCT007 \n  TEMPO 2020/2106 2500 BR FEW003 BKN005 \n  PROB30 \n  TEMPO 2100/2106 1200 BR BKN003"
    },
    {
      "icao": "UGKO",
      "iata": "KUT",
      "name": "David the Builder Kutaisi International Airport",
      "lat": 42.177448,
      "lon": 42.485353,
      "updatedAt": "200800Z",
      "visibility_m": 10000,
      "taf_visibility_m": 2000,
      "worst_visibility_m": 2000,
      "ceiling_ft": 2800,
      "hazards": [
        "BR",
        "SHRA",
        "SN",
        "RA"
      ],
      "severityScore": 54,
      "metarRaw": "METAR UGKO 200800Z 06004KT 9999 OVC028 04/01 Q1021 NOSIG",
      "tafRaw": "TAF UGKO 200500Z 2006/2106 VRB02KT 9999 BKN050 TX05/2012Z TNM01/2006Z \n  TEMPO 2006/2008 5000 BR \n  BECMG 2010/2013 26015KT 5000 SHRA SCT020CB OVC050 \n  TEMPO 2018/2101 27025G37KT 3000 SHRA SCT010 BKN015CB OVC040 \n  TEMPO 2101/2106 2000 SHSNRA SCT012 BKN025CB OVC030"
    },
    {
      "icao": "ESKN",
      "iata": "NYO",
      "name": "Stockholm Skavsta Airport",
      "lat": 58.789656,
      "lon": 16.911479,
      "updatedAt": "200820Z",
      "visibility_m": 10000,
      "taf_visibility_m": 3500,
      "worst_visibility_m": 3500,
      "ceiling_ft": 900,
      "hazards": [
        "BR",
        "SN"
      ],
      "severityScore": 53,
      "metarRaw": "METAR ESKN 200820Z 12005KT 9999 OVC009 01/M00 Q1024",
      "tafRaw": "TAF ESKN 200830Z 2009/2109 12006KT 8000 OVC008 \n  PROB40 2009/2011 3500 BR OVC004 \n  BECMG 2018/2020 03010KT BKN010 \n  PROB40 2020/2109 4000 -SN BKN007"
    },
    {
      "icao": "LFLS",
      "iata": "GNB",
      "name": "Grenoble Alpes Isère Airport",
      "lat": 45.3629,
      "lon": 5.32937,
      "updatedAt": "200830Z",
      "visibility_m": 750,
      "taf_visibility_m": null,
      "worst_visibility_m": 750,
      "ceiling_ft": null,
      "hazards": [
        "FG"
      ],
      "severityScore": 50,
      "metarRaw": "METAR LFLS 200830Z AUTO 18003KT 1000 0750 R09/1300U R27/P2400 BCFG VV/// M01/M01 Q1017 BECMG CAVOK",
      "tafRaw": null
    },
    {
      "icao": "EGGW",
      "iata": "LTN",
      "name": "London Luton Airport",
      "lat": 51.874699,
      "lon": -0.368333,
      "updatedAt": "200820Z",
      "visibility_m": 10000,
      "taf_visibility_m": 3000,
      "worst_visibility_m": 3000,
      "ceiling_ft": 1200,
      "hazards": [
        "BR",
        "RA",
        "SHRA"
      ],
      "severityScore": 48,
      "metarRaw": "METAR EGGW 200820Z AUTO 16010KT 9999 BKN012 BKN018 BKN040 07/06 Q1010",
      "tafRaw": "TAF EGGW 200459Z 2006/2106 16012KT 9999 SCT012 BKN022 \n  TEMPO 2006/2021 BKN012 \n  PROB40 \n  TEMPO 2006/2010 5000 -RA BKN008 \n  TEMPO 2012/2018 15016G26KT \n  BECMG 2018/2021 15018G32KT \n  TEMPO 2021/2024 6000 RA BKN010 \n  PROB30 \n  TEMPO 2021/2024 4000 +RA BKN008 \n  BECMG 2100/2103 19012KT \n  TEMPO 2100/2103 5000 SHRA BKN008 \n  BECMG 2103/2106 13005KT \n  PROB30 2103/2106 3000 BR BKN004"
    },
    {
      "icao": "EKBI",
      "iata": "BLL",
      "name": "Billund Airport",
      "lat": 55.740335,
      "lon": 9.157019,
      "updatedAt": "200820Z",
      "visibility_m": 3900,
      "taf_visibility_m": 4000,
      "worst_visibility_m": 3900,
      "ceiling_ft": 400,
      "hazards": [
        "BR"
      ],
      "severityScore": 45,
      "metarRaw": "METAR EKBI 200820Z AUTO 08002KT 3900 BR NCD M03/M04 Q1021",
      "tafRaw": "TAF EKBI 200827Z 2009/2109 10004KT 6000 NSC \n  PROB40 2023/2109 4000 BR BKN004"
    },
    {
      "icao": "BIKF",
      "iata": "KEF",
      "name": "Keflavik International Airport",
      "lat": 63.985001,
      "lon": -22.6056,
      "updatedAt": "200830Z",
      "visibility_m": 10000,
      "taf_visibility_m": 3500,
      "worst_visibility_m": 3500,
      "ceiling_ft": 3600,
      "hazards": [
        "RA",
        "SHRA",
        "SN"
      ],
      "severityScore": 44,
      "metarRaw": "METAR BIKF 200830Z 14019KT 9999 -RA BKN016CB BKN036 03/01 Q1001",
      "tafRaw": "TAF BIKF 200733Z 2009/2109 14015KT 9999 -SHRA FEW015 BKN035 TX06/2013Z TN01/2022Z \n  TEMPO 2009/2012 14020G30KT \n  PROB40 \n  TEMPO 2009/2016 3500 SHRASN BKN010CB \n  BECMG 2016/2018 07008KT"
    },
    {
      "icao": "UBBB",
      "iata": "GYD",
      "name": "Heydar Aliyev International Airport",
      "lat": 40.467498779296875,
      "lon": 50.04669952392578,
      "updatedAt": "200830Z",
      "visibility_m": 8000,
      "taf_visibility_m": 3000,
      "worst_visibility_m": 3000,
      "ceiling_ft": 1000,
      "hazards": [
        "SN",
        "RA"
      ],
      "severityScore": 42,
      "metarRaw": "METAR UBBB 200830Z 35022KT 8000 -RASN BKN010 OVC028 02/01 Q1021 NOSIG",
      "tafRaw": "TAF UBBB 200515Z 2006/2106 35020G30KT 8000 BKN010 OVC025 TX03/2010Z TN00/2101Z \n  TEMPO 2006/2016 02024G34KT 3000 -SN BKN007 OVC020 \n  TEMPO 2016/2106 33024G34KT 3000 -SN BKN005 OVC017"
    },
    {
      "icao": "EFTU",
      "iata": "TKU",
      "name": "Turku Airport",
      "lat": 60.514099,
      "lon": 22.2628,
      "updatedAt": "200820Z",
      "visibility_m": 6000,
      "taf_visibility_m": null,
      "worst_visibility_m": 6000,
      "ceiling_ft": 200,
      "hazards": [],
      "severityScore": 40,
      "metarRaw": "METAR EFTU 200820Z AUTO 13005KT 090V160 6000 OVC002 M04/M04 Q1026",
      "tafRaw": null
    },
    {
      "icao": "EDNY",
      "iata": "FDH",
      "name": "Bodensee Airport Friedrichshafen",
      "lat": 47.671299,
      "lon": 9.51149,
      "updatedAt": "200820Z",
      "visibility_m": 3000,
      "taf_visibility_m": 9000,
      "worst_visibility_m": 3000,
      "ceiling_ft": 500,
      "hazards": [
        "BR"
      ],
      "severityScore": 35,
      "metarRaw": "METAR EDNY 200820Z VRB02KT 3000 BR SCT001 OVC005 M04/M04 Q1020",
      "tafRaw": "TAF EDNY 200800Z 2009/2018 04003KT 9000 BKN002 OVC005 \n  TEMPO 2011/2018 SCT004"
    },
    {
      "icao": "ESGG",
      "iata": "GOT",
      "name": "Göteborg Landvetter Airport",
      "lat": 57.6628,
      "lon": 12.2798,
      "updatedAt": "200820Z",
      "visibility_m": 6000,
      "taf_visibility_m": 4000,
      "worst_visibility_m": 4000,
      "ceiling_ft": 500,
      "hazards": [
        "BR"
      ],
      "severityScore": 35,
      "metarRaw": "METAR ESGG 200820Z 09004KT 6000 BKN005 M02/M03 Q1022",
      "tafRaw": "TAF ESGG 200830Z 2009/2109 11007KT 6000 OVC004 \n  TEMPO 2009/2018 4000 BR OVC006 \n  TEMPO 2018/2109 BKN010"
    },
    {
      "icao": "LOWW",
      "iata": "VIE",
      "name": "Vienna International Airport",
      "lat": 48.110298,
      "lon": 16.5697,
      "updatedAt": "200820Z",
      "visibility_m": 6000,
      "taf_visibility_m": 4000,
      "worst_visibility_m": 4000,
      "ceiling_ft": 500,
      "hazards": [
        "BR"
      ],
      "severityScore": 35,
      "metarRaw": "METAR LOWW 200820Z 13015KT 6000 FEW003 BKN005 M06/M08 Q1031 BECMG BKN006",
      "tafRaw": "TAF LOWW 200815Z 2009/2115 13018KT 9999 FEW005 TXM04/2114Z TNM07/2106Z \n  TEMPO 2009/2013 BKN005 \n  TEMPO 2018/2111 4000 BR BKN005"
    },
    {
      "icao": "GMMN",
      "iata": "CMN",
      "name": "Mohammed V International Airport",
      "lat": 33.3675,
      "lon": -7.58997,
      "updatedAt": "200830Z",
      "visibility_m": 10000,
      "taf_visibility_m": 1000,
      "worst_visibility_m": 1000,
      "ceiling_ft": 2000,
      "hazards": [
        "BR",
        "RA"
      ],
      "severityScore": 32,
      "metarRaw": "METAR GMMN 200830Z 17009KT 9999 BKN020 08/06 Q1023 NOSIG",
      "tafRaw": "TAF GMMN 200500Z 2006/2112 20006KT 9999 SCT030 \n  PROB30 2010/2016 34008KT 6000 RA BKN016 \n  BECMG 2018/2022 18004KT 5000 BKN010 \n  PROB40 2022/2106 1000 BR BKN002"
    },
    {
      "icao": "EGPF",
      "iata": "GLA",
      "name": "Glasgow Airport",
      "lat": 55.871899,
      "lon": -4.43306,
      "updatedAt": "200820Z",
      "visibility_m": 10000,
      "taf_visibility_m": 3000,
      "worst_visibility_m": 3000,
      "ceiling_ft": 2100,
      "hazards": [
        "BR",
        "RA",
        "DZ"
      ],
      "severityScore": 32,
      "metarRaw": "METAR EGPF 200820Z AUTO 07008KT 9999 BKN021 BKN032 OVC048 06/05 Q1005",
      "tafRaw": "TAF EGPF 200455Z 2006/2106 08006KT 9999 SCT020 \n  TEMPO 2006/2010 7000 BKN012 \n  PROB30 \n  TEMPO 2006/2009 3000 -RADZ BR BKN008 \n  BECMG 2014/2017 10015G25KT \n  PROB30 \n  TEMPO 2021/2024 7000 -RA BKN012 \n  BECMG 2022/2101 10008KT \n  TEMPO 2100/2106 6000 RA BKN012 \n  PROB30 \n  TEMPO 2100/2106 4000 +RA BKN008"
    },
    {
      "icao": "ESSA",
      "iata": "ARN",
      "name": "Stockholm-Arlanda Airport",
      "lat": 59.64849,
      "lon": 17.928829,
      "updatedAt": "200820Z",
      "visibility_m": 10000,
      "taf_visibility_m": 4000,
      "worst_visibility_m": 4000,
      "ceiling_ft": 1100,
      "hazards": [
        "SN"
      ],
      "severityScore": 30,
      "metarRaw": "METAR ESSA 200820Z VRB03KT 9999 OVC011 M01/M03 Q1025 NOSIG",
      "tafRaw": "TAF ESSA 200830Z 2009/2109 10005KT 9999 OVC010 \n  PROB40 2009/2018 BKN008 \n  BECMG 2015/2017 04010KT \n  BECMG 2022/2024 BKN015 \n  PROB40 2023/2109 4000 -SN BKN012"
    },
    {
      "icao": "LWOH",
      "iata": "OHD",
      "name": "Ohrid St. Paul the Apostle Airport",
      "lat": 41.18,
      "lon": 20.7423,
      "updatedAt": "200750Z",
      "visibility_m": 10000,
      "taf_visibility_m": 5000,
      "worst_visibility_m": 5000,
      "ceiling_ft": 1000,
      "hazards": [
        "SN"
      ],
      "severityScore": 30,
      "metarRaw": "METAR LWOH 200750Z 02011KT 350V050 9999 SCT033 M00/M06 Q1029",
      "tafRaw": "TAF LWOH 200815Z 2009/2109 03012KT 9999 SCT035 \n  BECMG 2022/2024 BKN020 OVC040 \n  TEMPO 2102/2109 5000 SN BKN010 OVC030"
    },
    {
      "icao": "LWSK",
      "iata": "SKP",
      "name": "Skopje International Airport",
      "lat": 41.958087,
      "lon": 21.622581,
      "updatedAt": "200820Z",
      "visibility_m": 10000,
      "taf_visibility_m": 5000,
      "worst_visibility_m": 5000,
      "ceiling_ft": 1500,
      "hazards": [
        "SN"
      ],
      "severityScore": 30,
      "metarRaw": "METAR LWSK 200820Z VRB01KT CAVOK M02/M06 Q1035 NOSIG",
      "tafRaw": "TAF LWSK 200815Z 2009/2109 VRB02KT CAVOK \n  TEMPO 2011/2018 16012KT \n  BECMG 2102/2104 SCT040 OVC070 \n  TEMPO 2106/2109 5000 -SN BKN015 OVC040"
    },
    {
      "icao": "UDSG",
      "iata": "LWN",
      "name": "Shirak International Airport",
      "lat": 40.750401,
      "lon": 43.859299,
      "updatedAt": "200800Z",
      "visibility_m": 10000,
      "taf_visibility_m": 5000,
      "worst_visibility_m": 5000,
      "ceiling_ft": 3000,
      "hazards": [
        "BR",
        "SN"
      ],
      "severityScore": 28,
      "metarRaw": "METAR UDSG 200800Z 05008KT 9999 SCT046 M03/M11 Q1013 NOSIG",
      "tafRaw": "TAF UDSG 200458Z 2006/2106 36006KT 9999 BKN040 \n  TEMPO 2006/2015 05016KT 5000 -SN BR OVC030"
    },
    {
      "icao": "UDYZ",
      "iata": "EVN",
      "name": "Zvartnots International Airport",
      "lat": 40.148941,
      "lon": 44.397887,
      "updatedAt": "200800Z",
      "visibility_m": 10000,
      "taf_visibility_m": 2300,
      "worst_visibility_m": 2300,
      "ceiling_ft": 2000,
      "hazards": [
        "BR",
        "SN"
      ],
      "severityScore": 28,
      "metarRaw": "METAR UDYZ 200800Z 10004KT 9999 SCT046 M01/M05 Q1015 NOSIG",
      "tafRaw": "TAF UDYZ 200500Z 2006/2106 22006KT 6000 BKN030 \n  TEMPO 2006/2009 2300 -SN BR OVC020"
    },
    {
      "icao": "LQTZ",
      "iata": "TZL",
      "name": "Tuzla International Airport",
      "lat": 44.459858,
      "lon": 18.723627,
      "updatedAt": "200800Z",
      "visibility_m": 2200,
      "taf_visibility_m": null,
      "worst_visibility_m": 2200,
      "ceiling_ft": 1300,
      "hazards": [
        "BR"
      ],
      "severityScore": 27,
      "metarRaw": "METAR LQTZ 200800Z 00000KT 2200 BR OVC013 M07/M07 Q1032",
      "tafRaw": null
    },
    {
      "icao": "LEAL",
      "iata": "ALC",
      "name": "Alicante-Elche Miguel Hernández Airport",
      "lat": 38.2822,
      "lon": -0.558156,
      "updatedAt": "200800Z",
      "visibility_m": 10000,
      "taf_visibility_m": 4000,
      "worst_visibility_m": 4000,
      "ceiling_ft": null,
      "hazards": [
        "RA",
        "SHRA"
      ],
      "severityScore": 26,
      "metarRaw": "METAR LEAL 200800Z 28007KT 250V310 CAVOK 11/04 Q1012 NOSIG",
      "tafRaw": "TAF LEAL 200500Z 2006/2106 34010KT 9999 FEW035 TX15/2013Z TN10/2006Z \n  PROB30 \n  TEMPO 2006/2010 RA SHRA FEW030TCU \n  TEMPO 2018/2104 4000 RA SHRA FEW020TCU \n  PROB40 \n  TEMPO 2018/2105 32015G25KT"
    },
    {
      "icao": "LEVC",
      "iata": "VLC",
      "name": "Valencia Airport",
      "lat": 39.4893,
      "lon": -0.481625,
      "updatedAt": "200800Z",
      "visibility_m": 10000,
      "taf_visibility_m": 4000,
      "worst_visibility_m": 4000,
      "ceiling_ft": null,
      "hazards": [
        "RA",
        "SHRA"
      ],
      "severityScore": 26,
      "metarRaw": "METAR LEVC 200800Z 28006KT 9999 SCT055 SCT068 09/06 Q1013 NOSIG",
      "tafRaw": "TAF LEVC 200500Z 2006/2106 28006KT 9999 SCT035 TX14/2013Z TN07/2006Z \n  TEMPO 2006/2008 4000 RA SHRA FEW030TCU \n  TEMPO 2016/2101 4000 RA SHRA FEW020TCU"
    },
    {
      "icao": "LICJ",
      "iata": "PMO",
      "name": "Falcone–Borsellino Airport",
      "lat": 38.175999,
      "lon": 13.091,
      "updatedAt": "200820Z",
      "visibility_m": 10000,
      "taf_visibility_m": 4000,
      "worst_visibility_m": 4000,
      "ceiling_ft": 4000,
      "hazards": [
        "RA",
        "SHRA"
      ],
      "severityScore": 26,
      "metarRaw": "METAR LICJ 200820Z 08024KT 9999 -RA BKN040 15/08 Q1008",
      "tafRaw": "TAF LICJ 200500Z 2006/2106 10025G45KT 9999 SCT040 BKN060 \n  TEMPO 2006/2024 4000 SHRA \n  BECMG 2009/2011 08030G55KT"
    },
    {
      "icao": "GCTS",
      "iata": "TFS",
      "name": "Tenerife Sur Airport",
      "lat": 28.0445,
      "lon": -16.5725,
      "updatedAt": "200800Z",
      "visibility_m": 10000,
      "taf_visibility_m": 10000,
      "worst_visibility_m": 10000,
      "ceiling_ft": null,
      "hazards": [
        "TS"
      ],
      "severityScore": 25,
      "metarRaw": "METAR GCTS 200800Z 01012KT 9999 FEW040 16/06 Q1025 NOSIG",
      "tafRaw": "TAF GCTS 200800Z 2009/2109 08015KT 9999 FEW040 TX22/2014Z TN14/2106Z \n  TEMPO 2009/2011 03005KT \n  BECMG 2019/2021 VRB07KT"
    },
    {
      "icao": "ENTC",
      "iata": "TOS",
      "name": "Tromsø Airport, Langnes",
      "lat": 69.683296,
      "lon": 18.9189,
      "updatedAt": "200800Z",
      "visibility_m": 3000,
      "taf_visibility_m": null,
      "worst_visibility_m": 3000,
      "ceiling_ft": null,
      "hazards": [
        "FG"
      ],
      "severityScore": 25,
      "metarRaw": "METAR ENTC 200800Z VRB01KT 9999 0500N BCFG FEW006 M05/M05 Q1027 TEMPO 3000 BCFG RMK WIND 2600FT 10008KT",
      "tafRaw": null
    },
    {
      "icao": "EPRA",
      "iata": "RDO",
      "name": "Warsaw Radom Airport",
      "lat": 51.38937,
      "lon": 21.214742,
      "updatedAt": "200830Z",
      "visibility_m": 5000,
      "taf_visibility_m": 5000,
      "worst_visibility_m": 5000,
      "ceiling_ft": null,
      "hazards": [
        "BR",
        "RA"
      ],
      "severityScore": 22,
      "metarRaw": "METAR EPRA 200830Z 18004KT 5000 BR NSC M11/M15 Q1030",
      "tafRaw": "TAF EPRA 200830Z 2009/2018 16006KT 5000 BR NSC \n  BECMG 2010/2012 CAVOK"
    },
    {
      "icao": "LICA",
      "iata": "SUF",
      "name": "Lamezia Terme Sant'Eufemia International Airport",
      "lat": 38.906214,
      "lon": 16.246007,
      "updatedAt": "200820Z",
      "visibility_m": 10000,
      "taf_visibility_m": 4000,
      "worst_visibility_m": 4000,
      "ceiling_ft": 6000,
      "hazards": [
        "RA",
        "DZ"
      ],
      "severityScore": 22,
      "metarRaw": "METAR LICA 200820Z AUTO 05022G34KT 9999 -DZRA OVC031/// 10/06 Q1017",
      "tafRaw": "TAF LICA 200500Z 2006/2106 09028G50KT 9999 SCT020 BKN060 \n  TEMPO 2006/2012 RA \n  TEMPO 2012/2024 4000 RA"
    },
    {
      "icao": "EPWA",
      "iata": "WAW",
      "name": "Warsaw Chopin Airport",
      "lat": 52.165699,
      "lon": 20.9671,
      "updatedAt": "200830Z",
      "visibility_m": 4800,
      "taf_visibility_m": 1500,
      "worst_visibility_m": 1500,
      "ceiling_ft": null,
      "hazards": [
        "BR"
      ],
      "severityScore": 20,
      "metarRaw": "METAR EPWA 200830Z 15008KT 4800 BR NSC M12/M14 Q1030 BECMG 7000",
      "tafRaw": "TAF EPWA 200830Z 2009/2109 13008KT 7000 NSC \n  TEMPO 2009/2011 4000 BR \n  BECMG 2019/2022 4000 BR \n  PROB40 2021/2106 1500 BR"
    },
    {
      "icao": "HESX",
      "iata": "SPX",
      "name": "Sphinx International Airport",
      "lat": 30.108179,
      "lon": 30.895728,
      "updatedAt": "200800Z",
      "visibility_m": 10000,
      "taf_visibility_m": 1000,
      "worst_visibility_m": 1000,
      "ceiling_ft": null,
      "hazards": [
        "BR"
      ],
      "severityScore": 20,
      "metarRaw": "METAR HESX 200800Z 05014KT CAVOK 13/07 Q1021 NOSIG",
      "tafRaw": "TAF HESX 200500Z 2006/2112 04013KT CAVOK \n  TEMPO 2006/2009 VBR02KT 3000 BR SCT030 \n  PROB30 \n  TEMPO 2006/2008 1000"
    },
    {
      "icao": "LRCL",
      "iata": "CLJ",
      "name": "Cluj Avram Iancu International Airport",
      "lat": 46.787425,
      "lon": 23.684292,
      "updatedAt": "200800Z",
      "visibility_m": 6000,
      "taf_visibility_m": 1500,
      "worst_visibility_m": 1500,
      "ceiling_ft": null,
      "hazards": [
        "BR"
      ],
      "severityScore": 20,
      "metarRaw": "METAR LRCL 200800Z VRB01KT 6000 FEW003 M14/M16 Q1035",
      "tafRaw": "TAF LRCL 200800Z 2009/2018 VRB04KT 7000 NSC \n  TEMPO 2009/2010 1500 BR"
    },
    {
      "icao": "LRSV",
      "iata": "SCV",
      "name": "Suceava Stefan cel Mare Airport",
      "lat": 47.6875,
      "lon": 26.35409927368164,
      "updatedAt": "200800Z",
      "visibility_m": 7000,
      "taf_visibility_m": 1500,
      "worst_visibility_m": 1500,
      "ceiling_ft": null,
      "hazards": [
        "BR"
      ],
      "severityScore": 20,
      "metarRaw": "METAR LRSV 200800Z 25004KT 220V300 7000 NSC M07/M10 Q1031",
      "tafRaw": "TAF LRSV 200800Z 2009/2018 VRB04KT CAVOK \n  BECMG 2014/2016 3000 BR \n  BECMG 2016/2018 1500 BR"
    },
    {
      "icao": "LRTM",
      "iata": "TGM",
      "name": "Târgu Mureş Transilvania International Airport",
      "lat": 46.467701,
      "lon": 24.4125,
      "updatedAt": "200800Z",
      "visibility_m": 2500,
      "taf_visibility_m": 1500,
      "worst_visibility_m": 1500,
      "ceiling_ft": null,
      "hazards": [
        "BR"
      ],
      "severityScore": 20,
      "metarRaw": "METAR LRTM 200800Z 07004KT 2500 BR FEW003 M16/M18 Q1035",
      "tafRaw": "TAF LRTM 200800Z 2009/2018 VRB04KT 3000 BR NSC \n  TEMPO 2009/2010 1500 \n  BECMG 2010/2012 7000 NSW"
    },
    {
      "icao": "EGBB",
      "iata": "BHX",
      "name": "Birmingham Airport",
      "lat": 52.453899,
      "lon": -1.74803,
      "updatedAt": "200820Z",
      "visibility_m": 10000,
      "taf_visibility_m": null,
      "worst_visibility_m": 10000,
      "ceiling_ft": 1100,
      "hazards": [],
      "severityScore": 17,
      "metarRaw": "METAR EGBB 200820Z 14012KT 9999 BKN011 07/06 Q1008",
      "tafRaw": null
    },
    {
      "icao": "ENAL",
      "iata": "AES",
      "name": "Ålesund Airport, Vigra",
      "lat": 62.5625,
      "lon": 6.1197,
      "updatedAt": "200820Z",
      "visibility_m": 10000,
      "taf_visibility_m": null,
      "worst_visibility_m": 10000,
      "ceiling_ft": 1900,
      "hazards": [],
      "severityScore": 17,
      "metarRaw": "METAR ENAL 200820Z 16005KT 9999 FEW013 BKN019 05/04 Q1020",
      "tafRaw": null
    },
    {
      "icao": "EKCH",
      "iata": "CPH",
      "name": "Copenhagen Kastrup Airport",
      "lat": 55.617900848389,
      "lon": 12.656000137329,
      "updatedAt": "200820Z",
      "visibility_m": 10000,
      "taf_visibility_m": 10000,
      "worst_visibility_m": 10000,
      "ceiling_ft": 1200,
      "hazards": [],
      "severityScore": 12,
      "metarRaw": "METAR EKCH 200820Z AUTO 17004KT 9999 NCD M00/M03 Q1022 NOSIG",
      "tafRaw": "TAF EKCH 200827Z 2009/2109 14008KT CAVOK \n  TEMPO 2106/2109 BKN012"
    },
    {
      "icao": "ENGM",
      "iata": "OSL",
      "name": "Oslo-Gardermoen International Airport",
      "lat": 60.193901,
      "lon": 11.1004,
      "updatedAt": "200820Z",
      "visibility_m": 10000,
      "taf_visibility_m": 10000,
      "worst_visibility_m": 10000,
      "ceiling_ft": 1200,
      "hazards": [],
      "severityScore": 12,
      "metarRaw": "METAR ENGM 200820Z 12003KT 9999 VCSH FEW010 OVC012 M03/M05 Q1024 NOSIG",
      "tafRaw": "TAF ENGM 200500Z 2006/2106 03005KT 9999 BKN010 \n  TEMPO 2006/2106 BKN018"
    },
    {
      "icao": "ENTO",
      "iata": "TRF",
      "name": "Sandefjord Airport, Torp",
      "lat": 59.186699,
      "lon": 10.2586,
      "updatedAt": "200820Z",
      "visibility_m": 10000,
      "taf_visibility_m": 10000,
      "worst_visibility_m": 10000,
      "ceiling_ft": 1800,
      "hazards": [],
      "severityScore": 12,
      "metarRaw": "METAR ENTO 200820Z 02004KT 350V070 9999 OVC018 M02/M04 Q1024 NOSIG",
      "tafRaw": "TAF ENTO 200500Z 2006/2106 03005KT 9999 BKN018 \n  TEMPO 2006/2106 BKN008"
    },
    {
      "icao": "ESMS",
      "iata": "MMX",
      "name": "Malmö Sturup Airport",
      "lat": 55.535564,
      "lon": 13.376327,
      "updatedAt": "200820Z",
      "visibility_m": 9000,
      "taf_visibility_m": 10000,
      "worst_visibility_m": 9000,
      "ceiling_ft": 1200,
      "hazards": [],
      "severityScore": 12,
      "metarRaw": "METAR ESMS 200820Z VRB02KT 9000 NSC M04/M04 Q1022",
      "tafRaw": "TAF ESMS 200827Z 2009/2109 14005KT CAVOK \n  TEMPO 2104/2109 BKN012"
    },
    {
      "icao": "LEBL",
      "iata": "BCN",
      "name": "Josep Tarradellas Barcelona-El Prat Airport",
      "lat": 41.2971,
      "lon": 2.07846,
      "updatedAt": "200800Z",
      "visibility_m": 10000,
      "taf_visibility_m": 3000,
      "worst_visibility_m": 3000,
      "ceiling_ft": 6000,
      "hazards": [
        "RA"
      ],
      "severityScore": 12,
      "metarRaw": "METAR LEBL 200800Z 02013KT 9999 -RA FEW034 BKN060 10/07 Q1012 NOSIG",
      "tafRaw": "TAF LEBL 200500Z 2006/2106 01013KT 9999 SCT020 BKN030 TX14/2013Z TN09/2006Z \n  PROB40 \n  TEMPO 2006/2018 04018G30KT \n  TEMPO 2006/2016 3000 RA FEW020TCU BKN025 \n  BECMG 2020/2023 35008KT"
    },
    {
      "icao": "LIPR",
      "iata": "RMI",
      "name": "Federico Fellini International Airport",
      "lat": 44.020024,
      "lon": 12.612198,
      "updatedAt": "200820Z",
      "visibility_m": 8000,
      "taf_visibility_m": 4000,
      "worst_visibility_m": 4000,
      "ceiling_ft": 2500,
      "hazards": [
        "RA"
      ],
      "severityScore": 12,
      "metarRaw": "METAR LIPR 200820Z 31009KT 8000 -RA BKN025 05/03 Q1025",
      "tafRaw": "TAF LIPR 200500Z 2006/2106 10012KT 9999 BKN030 \n  BECMG 2006/2008 30010KT \n  PROB40 \n  TEMPO 2009/2015 4000 -RA"
    },
    {
      "icao": "LIPY",
      "iata": "AOI",
      "name": "Marche Airport",
      "lat": 43.616299,
      "lon": 13.3623,
      "updatedAt": "200820Z",
      "visibility_m": 9000,
      "taf_visibility_m": 10000,
      "worst_visibility_m": 9000,
      "ceiling_ft": 4000,
      "hazards": [
        "RA"
      ],
      "severityScore": 12,
      "metarRaw": "METAR LIPY 200820Z AUTO VRB01KT 9000 -RA OVC025/// 09/08 Q1024",
      "tafRaw": "TAF LIPY 200500Z 2006/2106 09011KT 9999 BKN040 \n  BECMG 2017/2019 VRB05KT"
    },
    {
      "icao": "LIRP",
      "iata": "PSA",
      "name": "Pisa International Airport",
      "lat": 43.683899,
      "lon": 10.3927,
      "updatedAt": "200815Z",
      "visibility_m": 10000,
      "taf_visibility_m": 10000,
      "worst_visibility_m": 10000,
      "ceiling_ft": 6000,
      "hazards": [
        "RA"
      ],
      "severityScore": 12,
      "metarRaw": "METAR LIRP 200815Z 07013KT 9999 FEW030 SCT080 09/03 Q1020 NOSIG",
      "tafRaw": "TAF LIRP 200500Z 2006/2106 08012KT 9999 SCT030 BKN060 \n  TEMPO 2006/2008 RA \n  TEMPO 2009/2018 07018G30KT \n  BECMG 2010/2012 CAVOK \n  BECMG 2022/2024 09006KT"
    },
    {
      "icao": "LJLJ",
      "iata": "LJU",
      "name": "Ljubljana Jože Pučnik Airport",
      "lat": 46.223701,
      "lon": 14.4576,
      "updatedAt": "200800Z",
      "visibility_m": 10000,
      "taf_visibility_m": 10000,
      "worst_visibility_m": 10000,
      "ceiling_ft": 1800,
      "hazards": [],
      "severityScore": 12,
      "metarRaw": "METAR LJLJ 200800Z VRB01KT 9999 OVC018 M04/M08 Q1030 NOSIG",
      "tafRaw": "TAF LJLJ 200500Z 2006/2106 12003KT 9999 FEW003 OVC020"
    },
    {
      "icao": "LPFR",
      "iata": "FAO",
      "name": "Faro - Gago Coutinho International Airport",
      "lat": 37.015909,
      "lon": -7.970939,
      "updatedAt": "200800Z",
      "visibility_m": 10000,
      "taf_visibility_m": 6000,
      "worst_visibility_m": 6000,
      "ceiling_ft": 2000,
      "hazards": [
        "RA"
      ],
      "severityScore": 12,
      "metarRaw": "METAR LPFR 200800Z 28004KT CAVOK 06/05 Q1021",
      "tafRaw": "TAF LPFR 200500Z 2006/2106 30007KT CAVOK \n  BECMG 2012/2014 25010KT 9999 FEW020 BKN035 \n  BECMG 2019/2021 32007KT \n  BECMG 2102/2104 22012KT 6000 -RA SCT012 BKN020"
    },
    {
      "icao": "LPPS",
      "iata": "PXO",
      "name": "Porto Santo Airport",
      "lat": 33.0733985901,
      "lon": -16.3500003815,
      "updatedAt": "200800Z",
      "visibility_m": 10000,
      "taf_visibility_m": 6000,
      "worst_visibility_m": 6000,
      "ceiling_ft": 3000,
      "hazards": [
        "RA"
      ],
      "severityScore": 12,
      "metarRaw": "METAR LPPS 200800Z VRB02KT 9999 SCT014 BKN030 13/07 Q1026",
      "tafRaw": "TAF LPPS 200500Z 2006/2112 34010KT 9999 SCT015 SCT030 \n  PROB30 \n  TEMPO 2006/2106 6000 -RA BKN012 \n  BECMG 2102/2104 29013KT"
    },
    {
      "icao": "LTFM",
      "iata": "IST",
      "name": "İstanbul Airport",
      "lat": 41.261297,
      "lon": 28.741951,
      "updatedAt": "200820Z",
      "visibility_m": 10000,
      "taf_visibility_m": 7000,
      "worst_visibility_m": 7000,
      "ceiling_ft": 2800,
      "hazards": [
        "RA"
      ],
      "severityScore": 12,
      "metarRaw": "METAR LTFM 200820Z 01016KT 9999 SCT016 BKN028 03/01 Q1035 NOSIG RMK RWY17L 36015KT RWY34L 36016KT RWY16R 36014KT RWY36 01016KT RWY18 01015KT",
      "tafRaw": "TAF LTFM 200440Z 2006/2112 02017G27KT 7000 -RA BKN014 BKN022 \n  BECMG 2006/2009 SCT016 BKN032 \n  BECMG 2011/2014 04010KT \n  BECMG 2019/2022 10008KT \n  BECMG 2022/2101 SCT035"
    },
    {
      "icao": "LYPG",
      "iata": "TGD",
      "name": "Podgorica Airport / Podgorica Golubovci Airbase",
      "lat": 42.359402,
      "lon": 19.2519,
      "updatedAt": "200830Z",
      "visibility_m": 10000,
      "taf_visibility_m": 5000,
      "worst_visibility_m": 5000,
      "ceiling_ft": null,
      "hazards": [
        "RA"
      ],
      "severityScore": 12,
      "metarRaw": "METAR LYPG 200830Z VRB01KT CAVOK 02/M04 Q1027 NOSIG",
      "tafRaw": "TAF LYPG 200500Z 2006/2106 16005KT CAVOK TX10/2013Z TNM03/2006Z \n  TEMPO 2104/2106 5000 RA"
    },
    {
      "icao": "EPKT",
      "iata": "KTW",
      "name": "Katowice Wojciech Korfanty International Airport",
      "lat": 50.476015,
      "lon": 19.080705,
      "updatedAt": "200830Z",
      "visibility_m": 4400,
      "taf_visibility_m": 2500,
      "worst_visibility_m": 2500,
      "ceiling_ft": null,
      "hazards": [
        "BR"
      ],
      "severityScore": 10,
      "metarRaw": "METAR EPKT 200830Z 29002KT 4400 BR NSC M07/M10 Q1029",
      "tafRaw": "TAF EPKT 200530Z 2006/2106 13005KT 4000 BR NSC \n  BECMG 2007/2009 CAVOK \n  TEMPO 2020/2106 2500 BR"
    },
    {
      "icao": "EPLB",
      "iata": "LUZ",
      "name": "Lublin Airport",
      "lat": 51.240157,
      "lon": 22.713461,
      "updatedAt": "200830Z",
      "visibility_m": 8000,
      "taf_visibility_m": 2500,
      "worst_visibility_m": 2500,
      "ceiling_ft": null,
      "hazards": [
        "BR"
      ],
      "severityScore": 10,
      "metarRaw": "METAR EPLB 200830Z 15002KT 8000 3000E NSC M15/M16 Q1031",
      "tafRaw": "TAF EPLB 200530Z 2006/2106 21004KT 4000 BR NSC \n  BECMG 2007/2010 6000 \n  TEMPO 2018/2106 2500 BR"
    },
    {
      "icao": "EPMO",
      "iata": "WMI",
      "name": "Modlin Airport",
      "lat": 52.451099,
      "lon": 20.6518,
      "updatedAt": "200830Z",
      "visibility_m": 2600,
      "taf_visibility_m": 2500,
      "worst_visibility_m": 2500,
      "ceiling_ft": null,
      "hazards": [
        "BR"
      ],
      "severityScore": 10,
      "metarRaw": "METAR EPMO 200830Z 10004KT 070V150 2600 BR NSC M12/M13 Q1030",
      "tafRaw": "TAF EPMO 200530Z 2006/2106 12005KT 3500 BR NSC \n  PROB40 2006/2007 2500 BR \n  BECMG 2007/2010 6000 \n  TEMPO 2018/2106 2500 BR"
    },
    {
      "icao": "EPRZ",
      "iata": "RZE",
      "name": "Rzeszów-Jasionka Airport",
      "lat": 50.109791,
      "lon": 22.024155,
      "updatedAt": "200830Z",
      "visibility_m": 3000,
      "taf_visibility_m": 2500,
      "worst_visibility_m": 2500,
      "ceiling_ft": null,
      "hazards": [
        "BR"
      ],
      "severityScore": 10,
      "metarRaw": "METAR EPRZ 200830Z 10003KT 3000 BR NSC M12/M15 Q1031",
      "tafRaw": "TAF EPRZ 200530Z 2006/2106 06005KT 3500 BR NSC \n  TEMPO 2006/2007 2500 BR \n  BECMG 2007/2009 16010KT CAVOK \n  PROB40 \n  TEMPO 2021/2106 4000 BR"
    },
    {
      "icao": "EPSC",
      "iata": "SZZ",
      "name": "Solidarity Szczecin–Goleniów Airport",
      "lat": 53.584702,
      "lon": 14.9022,
      "updatedAt": "200830Z",
      "visibility_m": 10000,
      "taf_visibility_m": 4000,
      "worst_visibility_m": 4000,
      "ceiling_ft": null,
      "hazards": [
        "BR"
      ],
      "severityScore": 10,
      "metarRaw": "METAR EPSC 200830Z 13008KT CAVOK M04/M07 Q1024",
      "tafRaw": "TAF EPSC 200530Z 2006/2106 13007KT CAVOK \n  PROB40 2022/2106 4000 BR"
    },
    {
      "icao": "EPSY",
      "iata": "SZY",
      "name": "Olsztyn-Mazury Airport",
      "lat": 53.481899,
      "lon": 20.9377,
      "updatedAt": "200830Z",
      "visibility_m": 3200,
      "taf_visibility_m": 2000,
      "worst_visibility_m": 2000,
      "ceiling_ft": null,
      "hazards": [
        "BR"
      ],
      "severityScore": 10,
      "metarRaw": "METAR EPSY 200830Z VRB01KT 3200 BR NSC M17/M19 Q1029",
      "tafRaw": "TAF EPSY 200830Z 2009/2018 VRB02KT 8000 NSC \n  TEMPO 2009/2018 4000 BR \n  PROB40 \n  TEMPO 2009/2012 2000 BR"
    },
    {
      "icao": "EYKA",
      "iata": "KUN",
      "name": "Kaunas International Airport",
      "lat": 54.963965,
      "lon": 24.08582,
      "updatedAt": "200820Z",
      "visibility_m": 6000,
      "taf_visibility_m": 3000,
      "worst_visibility_m": 3000,
      "ceiling_ft": null,
      "hazards": [
        "BR"
      ],
      "severityScore": 10,
      "metarRaw": "METAR EYKA 200820Z VRB02KT 6000 NSC M14/M16 Q1030",
      "tafRaw": "TAF EYKA 200500Z 2006/2106 VRB04KT 9000 NSC \n  TEMPO 2006/2009 5000 BR SCT002 \n  TEMPO 2018/2022 5000 BR \n  TEMPO 2022/2106 3000 BR"
    },
    {
      "icao": "EYPA",
      "iata": "PLQ",
      "name": "Palanga International Airport",
      "lat": 55.973202,
      "lon": 21.093901,
      "updatedAt": "200820Z",
      "visibility_m": 6000,
      "taf_visibility_m": 5000,
      "worst_visibility_m": 5000,
      "ceiling_ft": null,
      "hazards": [
        "BR"
      ],
      "severityScore": 10,
      "metarRaw": "METAR EYPA 200820Z 17007KT 6000 NSC M12/M15 Q1028",
      "tafRaw": "TAF EYPA 200500Z 2006/2106 15008KT 9000 NSC \n  TEMPO 2006/2012 5000 BR SCT005 \n  TEMPO 2100/2106 5000 BR"
    },
    {
      "icao": "LFPO",
      "iata": "ORY",
      "name": "Paris-Orly Airport",
      "lat": 48.72333,
      "lon": 2.37944,
      "updatedAt": "200830Z",
      "visibility_m": 10000,
      "taf_visibility_m": 2500,
      "worst_visibility_m": 2500,
      "ceiling_ft": 4300,
      "hazards": [
        "BR"
      ],
      "severityScore": 10,
      "metarRaw": "METAR LFPO 200830Z 13006KT 9999 SCT015 BKN043 05/04 Q1016 NOSIG",
      "tafRaw": "TAF LFPO 200500Z 2006/2112 16005KT 9999 BKN017 \n  PROB30 \n  TEMPO 2006/2009 2500 BR BKN003 \n  BECMG 2009/2011 BKN012 \n  PROB40 \n  TEMPO 2009/2012 BKN008 \n  BECMG 2013/2015 16010KT SCT020"
    },
    {
      "icao": "LIBR",
      "iata": "BDS",
      "name": "Brindisi Airport",
      "lat": 40.6576,
      "lon": 17.947001,
      "updatedAt": "200820Z",
      "visibility_m": 10000,
      "taf_visibility_m": 10000,
      "worst_visibility_m": 10000,
      "ceiling_ft": null,
      "hazards": [
        "BR"
      ],
      "severityScore": 10,
      "metarRaw": "METAR LIBR 200820Z VRB03KT 9999 FEW040 09/04 Q1023",
      "tafRaw": "TAF LIBR 200500Z 2006/2106 VRB05KT 9999 SCT040 \n  BECMG 2006/2008 10010KT"
    },
    {
      "icao": "LRIA",
      "iata": "IAS",
      "name": "Iaşi Airport",
      "lat": 47.180278,
      "lon": 27.620833,
      "updatedAt": "200800Z",
      "visibility_m": 3500,
      "taf_visibility_m": 5000,
      "worst_visibility_m": 3500,
      "ceiling_ft": null,
      "hazards": [
        "BR"
      ],
      "severityScore": 10,
      "metarRaw": "METAR LRIA 200800Z VRB02KT 3500 BR NSC M12/M14 Q1035",
      "tafRaw": "TAF LRIA 200800Z 2009/2018 VRB04KT 5000 BR NSC \n  BECMG 2009/2011 9999 NSW \n  BECMG 2016/2018 5000 BR"
    },
    {
      "icao": "LRBC",
      "iata": "BCM",
      "name": "Bacău George Enescu International  Airport",
      "lat": 46.5219,
      "lon": 26.910299,
      "updatedAt": "200800Z",
      "visibility_m": 4000,
      "taf_visibility_m": 3000,
      "worst_visibility_m": 3000,
      "ceiling_ft": null,
      "hazards": [
        "BR"
      ],
      "severityScore": 10,
      "metarRaw": "METAR LRBC 200800Z 11001KT 4000 BR NSC M08/M11 Q1034",
      "tafRaw": "TAF LRBC 200800Z 2009/2018 VRB04KT 5000 BR NSC \n  BECMG 2010/2012 15010KT 9999 NSW \n  BECMG 2014/2016 5000 BR \n  TEMPO 2016/2018 3000 BR"
    },
    {
      "icao": "LRBV",
      "iata": "GHV",
      "name": "Brașov-Ghimbav International Airport",
      "lat": 45.70558,
      "lon": 25.522871,
      "updatedAt": "200800Z",
      "visibility_m": 4900,
      "taf_visibility_m": 5000,
      "worst_visibility_m": 4900,
      "ceiling_ft": null,
      "hazards": [
        "BR"
      ],
      "severityScore": 10,
      "metarRaw": "METAR LRBV 200800Z VRB03KT 4900 BR FEW002 M08/M10 Q1033",
      "tafRaw": "TAF LRBV 200800Z 2009/2018 VRB04KT 5000 BR NSC \n  BECMG 2009/2011 9999 NSW"
    },
    {
      "icao": "LRCV",
      "iata": "CRA",
      "name": "Craiova International Airport",
      "lat": 44.3181,
      "lon": 23.888599,
      "updatedAt": "200800Z",
      "visibility_m": 5000,
      "taf_visibility_m": 5000,
      "worst_visibility_m": 5000,
      "ceiling_ft": null,
      "hazards": [
        "BR"
      ],
      "severityScore": 10,
      "metarRaw": "METAR LRCV 200800Z 26003KT 5000 BR NSC M05/M07 Q1036",
      "tafRaw": "TAF LRCV 200800Z 2009/2018 VRB04KT 5000 BR NSC \n  BECMG 2009/2011 9999 NSW"
    },
    {
      "icao": "LRSM",
      "iata": "SUJ",
      "name": "Satu Mare International Airport",
      "lat": 47.7033,
      "lon": 22.8857,
      "updatedAt": "200800Z",
      "visibility_m": 3500,
      "taf_visibility_m": 3000,
      "worst_visibility_m": 3000,
      "ceiling_ft": null,
      "hazards": [
        "BR"
      ],
      "severityScore": 10,
      "metarRaw": "METAR LRSM 200800Z 07003KT 3500 BR NSC M13/M15 Q1036",
      "tafRaw": "TAF LRSM 200800Z 2009/2018 VRB04KT 3000 BR NSC \n  BECMG 2009/2011 CAVOK"
    },
    {
      "icao": "LTAC",
      "iata": "ESB",
      "name": "Esenboğa International Airport",
      "lat": 40.128101,
      "lon": 32.995098,
      "updatedAt": "200820Z",
      "visibility_m": 10000,
      "taf_visibility_m": 4000,
      "worst_visibility_m": 4000,
      "ceiling_ft": 2500,
      "hazards": [
        "BR"
      ],
      "severityScore": 10,
      "metarRaw": "METAR LTAC 200820Z VRB02KT 9999 FEW040 M01/M07 Q1027 NOSIG RMK RWY21C 13003KT 090V160 RWY03L VRB02KT RWY21R VRB02KT RWY03R VRB01KT RWY21L VRB01KT",
      "tafRaw": "TAF LTAC 200440Z 2006/2106 VRB02KT 9999 SCT035 \n  PROB30 \n  TEMPO 2103/2106 4000 BR SCT008 BKN025"
    },
    {
      "icao": "EGGP",
      "iata": "LPL",
      "name": "Liverpool John Lennon Airport",
      "lat": 53.334863,
      "lon": -2.849637,
      "updatedAt": "200820Z",
      "visibility_m": 10000,
      "taf_visibility_m": null,
      "worst_visibility_m": 10000,
      "ceiling_ft": 2600,
      "hazards": [],
      "severityScore": 5,
      "metarRaw": "METAR EGGP 200820Z 13015KT 9999 FEW016 BKN026 07/05 Q1006",
      "tafRaw": null
    },
    {
      "icao": "EYVI",
      "iata": "VNO",
      "name": "Vilnius International Airport",
      "lat": 54.634102,
      "lon": 25.285801,
      "updatedAt": "200820Z",
      "visibility_m": 6000,
      "taf_visibility_m": null,
      "worst_visibility_m": 6000,
      "ceiling_ft": null,
      "hazards": [],
      "severityScore": 5,
      "metarRaw": "METAR EYVI 200820Z 18007KT 6000 FEW001 M16/M18 Q1029 NOSIG",
      "tafRaw": null
    },
    {
      "icao": "LECH",
      "iata": "CDT",
      "name": "Castellón-Costa Azahar Airport",
      "lat": 40.213889,
      "lon": 0.073333,
      "updatedAt": "200800Z",
      "visibility_m": 8000,
      "taf_visibility_m": null,
      "worst_visibility_m": 8000,
      "ceiling_ft": null,
      "hazards": [],
      "severityScore": 5,
      "metarRaw": "METAR LECH 200800Z AUTO 01007KT 320V060 8000 FEW059 09/02 Q1012",
      "tafRaw": null
    },
    {
      "icao": "BKPR",
      "iata": "PRN",
      "name": "Priština Adem Jashari International Airport",
      "lat": 42.5728,
      "lon": 21.035801,
      "updatedAt": "200830Z",
      "visibility_m": 10000,
      "taf_visibility_m": 10000,
      "worst_visibility_m": 10000,
      "ceiling_ft": null,
      "hazards": [],
      "severityScore": 0,
      "metarRaw": "METAR BKPR 200830Z VRB01KT CAVOK M03/M06 Q1031 NOSIG",
      "tafRaw": "TAF BKPR 200530Z 2006/2106 13006KT CAVOK"
    },
    {
      "icao": "GCFV",
      "iata": "FUE",
      "name": "Fuerteventura Airport",
      "lat": 28.4527,
      "lon": -13.8638,
      "updatedAt": "200800Z",
      "visibility_m": 10000,
      "taf_visibility_m": 10000,
      "worst_visibility_m": 10000,
      "ceiling_ft": null,
      "hazards": [],
      "severityScore": 0,
      "metarRaw": "METAR GCFV 200800Z 32010KT 9999 FEW030 SCT038 14/09 Q1024",
      "tafRaw": "TAF GCFV 200800Z 2009/2109 03015KT 9999 FEW030 TX21/2014Z TN14/2106Z \n  TEMPO 2009/2010 33009KT \n  BECMG 2021/2023 33009KT"
    },
    {
      "icao": "GCLP",
      "iata": "LPA",
      "name": "Gran Canaria Airport",
      "lat": 27.9319,
      "lon": -15.3866,
      "updatedAt": "200800Z",
      "visibility_m": 10000,
      "taf_visibility_m": 10000,
      "worst_visibility_m": 10000,
      "ceiling_ft": null,
      "hazards": [],
      "severityScore": 0,
      "metarRaw": "METAR GCLP 200800Z 36014KT 9999 SCT037 16/09 Q1025 NOSIG",
      "tafRaw": "TAF GCLP 200800Z 2009/2109 02015KT 9999 SCT035 TX20/2014Z TN16/2106Z \n  PROB30 \n  TEMPO 2009/2015 02015G25KT \n  BECMG 2023/2101 36005KT"
    },
    {
      "icao": "GMAD",
      "iata": "AGA",
      "name": "Al Massira Airport",
      "lat": 30.322478,
      "lon": -9.412003,
      "updatedAt": "200830Z",
      "visibility_m": 10000,
      "taf_visibility_m": 8000,
      "worst_visibility_m": 8000,
      "ceiling_ft": null,
      "hazards": [],
      "severityScore": 0,
      "metarRaw": "METAR GMAD 200830Z 07004KT CAVOK 06/06 Q1021 NOSIG",
      "tafRaw": "TAF GMAD 200500Z 2006/2112 06008KT 8000 SCT020"
    },
    {
      "icao": "GMMX",
      "iata": "RAK",
      "name": "Marrakesh Menara Airport",
      "lat": 31.604807,
      "lon": -8.035788,
      "updatedAt": "200830Z",
      "visibility_m": 8000,
      "taf_visibility_m": 8000,
      "worst_visibility_m": 8000,
      "ceiling_ft": null,
      "hazards": [],
      "severityScore": 0,
      "metarRaw": "METAR GMMX 200830Z 07003KT 8000 NSC 05/03 Q1023 NOSIG",
      "tafRaw": "TAF GMMX 200500Z 2006/2112 24006KT 8000 NSC \n  TEMPO 2015/2021 34016KT"
    },
    {
      "icao": "EBCI",
      "iata": "CRL",
      "name": "Brussels South Charleroi Airport",
      "lat": 50.461963,
      "lon": 4.459562,
      "updatedAt": "200820Z",
      "visibility_m": 7000,
      "taf_visibility_m": 10000,
      "worst_visibility_m": 7000,
      "ceiling_ft": null,
      "hazards": [],
      "severityScore": 0,
      "metarRaw": "METAR EBCI 200820Z 17004KT 120V190 7000 NSC 01/M00 Q1017 NOSIG",
      "tafRaw": "TAF EBCI 200510Z 2006/2112 16006KT CAVOK"
    },
    {
      "icao": "EDDB",
      "iata": "BER",
      "name": "Berlin Brandenburg Willy Brandt Airport",
      "lat": 52.361738,
      "lon": 13.502341,
      "updatedAt": "200820Z",
      "visibility_m": 10000,
      "taf_visibility_m": 10000,
      "worst_visibility_m": 10000,
      "ceiling_ft": null,
      "hazards": [],
      "severityScore": 0,
      "metarRaw": "METAR EDDB 200820Z AUTO 14006KT CAVOK M03/M08 Q1023 NOSIG",
      "tafRaw": "TAF EDDB 200500Z 2006/2106 13006KT CAVOK"
    },
    {
      "icao": "EDDH",
      "iata": "HAM",
      "name": "Hamburg Helmut Schmidt Airport",
      "lat": 53.630402,
      "lon": 9.98823,
      "updatedAt": "200820Z",
      "visibility_m": 10000,
      "taf_visibility_m": 10000,
      "worst_visibility_m": 10000,
      "ceiling_ft": null,
      "hazards": [],
      "severityScore": 0,
      "metarRaw": "METAR EDDH 200820Z AUTO 10003KT 050V130 CAVOK M02/M05 Q1021 NOSIG",
      "tafRaw": "TAF EDDH 200500Z 2006/2112 10006KT CAVOK"
    },
    {
      "icao": "EDDK",
      "iata": "CGN",
      "name": "Cologne Bonn Airport",
      "lat": 50.865898,
      "lon": 7.14274,
      "updatedAt": "200820Z",
      "visibility_m": 10000,
      "taf_visibility_m": 9000,
      "worst_visibility_m": 9000,
      "ceiling_ft": null,
      "hazards": [],
      "severityScore": 0,
      "metarRaw": "METAR EDDK 200820Z AUTO 13008KT CAVOK 01/M04 Q1019 NOSIG",
      "tafRaw": "TAF EDDK 200500Z 2006/2112 12008KT 9000 NSC"
    },
    {
      "icao": "EDDN",
      "iata": "NUE",
      "name": "Nuremberg Airport",
      "lat": 49.498699,
      "lon": 11.078056,
      "updatedAt": "200820Z",
      "visibility_m": 10000,
      "taf_visibility_m": 10000,
      "worst_visibility_m": 10000,
      "ceiling_ft": null,
      "hazards": [],
      "severityScore": 0,
      "metarRaw": "METAR EDDN 200820Z AUTO 10006KT CAVOK M04/M08 Q1021 NOSIG",
      "tafRaw": "TAF EDDN 200500Z 2006/2106 11007KT CAVOK"
    },
    {
      "icao": "EDJA",
      "iata": "FMM",
      "name": "Memmingen Allgau Airport",
      "lat": 47.988092,
      "lon": 10.238248,
      "updatedAt": "200820Z",
      "visibility_m": 10000,
      "taf_visibility_m": 10000,
      "worst_visibility_m": 10000,
      "ceiling_ft": null,
      "hazards": [],
      "severityScore": 0,
      "metarRaw": "METAR EDJA 200820Z 04002KT CAVOK M04/M05 Q1018",
      "tafRaw": "TAF EDJA 200800Z 2009/2018 VRB03KT CAVOK"
    },
    {
      "icao": "EDLW",
      "iata": "DTM",
      "name": "Dortmund Airport",
      "lat": 51.518299,
      "lon": 7.61224,
      "updatedAt": "200820Z",
      "visibility_m": 10000,
      "taf_visibility_m": 10000,
      "worst_visibility_m": 10000,
      "ceiling_ft": null,
      "hazards": [],
      "severityScore": 0,
      "metarRaw": "METAR EDLW 200820Z 06003KT 010V110 CAVOK 00/M03 Q1018",
      "tafRaw": "TAF EDLW 200500Z 2006/2106 14004KT CAVOK"
    },
    {
      "icao": "ENHD",
      "iata": "HAU",
      "name": "Haugesund Airport, Karmøy",
      "lat": 59.345299,
      "lon": 5.20836,
      "updatedAt": "200820Z",
      "visibility_m": 10000,
      "taf_visibility_m": 10000,
      "worst_visibility_m": 10000,
      "ceiling_ft": null,
      "hazards": [],
      "severityScore": 0,
      "metarRaw": "METAR ENHD 200820Z 11006KT CAVOK M02/M03 Q1021",
      "tafRaw": "TAF ENHD 200500Z 2006/2015 13008KT CAVOK"
    },
    {
      "icao": "ENVA",
      "iata": "TRD",
      "name": "Trondheim Airport, Værnes",
      "lat": 63.457802,
      "lon": 10.924,
      "updatedAt": "200820Z",
      "visibility_m": 10000,
      "taf_visibility_m": 10000,
      "worst_visibility_m": 10000,
      "ceiling_ft": null,
      "hazards": [],
      "severityScore": 0,
      "metarRaw": "METAR ENVA 200820Z 13007KT CAVOK M03/M06 Q1023 NOSIG RMK WIND 670FT 11009KT",
      "tafRaw": "TAF ENVA 200500Z 2006/2106 12008KT CAVOK"
    },
    {
      "icao": "ENZV",
      "iata": "SVG",
      "name": "Stavanger Airport, Sola",
      "lat": 58.876701,
      "lon": 5.63778,
      "updatedAt": "200820Z",
      "visibility_m": 10000,
      "taf_visibility_m": 10000,
      "worst_visibility_m": 10000,
      "ceiling_ft": null,
      "hazards": [],
      "severityScore": 0,
      "metarRaw": "METAR ENZV 200820Z VRB01KT CAVOK M04/M05 Q1021 NOSIG",
      "tafRaw": "TAF ENZV 200500Z 2006/2106 17005KT CAVOK"
    },
    {
      "icao": "EPPO",
      "iata": "POZ",
      "name": "Poznań-Ławica Airport",
      "lat": 52.421598,
      "lon": 16.823359,
      "updatedAt": "200830Z",
      "visibility_m": 10000,
      "taf_visibility_m": 10000,
      "worst_visibility_m": 10000,
      "ceiling_ft": null,
      "hazards": [],
      "severityScore": 0,
      "metarRaw": "METAR EPPO 200830Z 13010KT CAVOK M02/M08 Q1025",
      "tafRaw": "TAF EPPO 200530Z 2006/2106 15010KT CAVOK"
    },
    {
      "icao": "EPWR",
      "iata": "WRO",
      "name": "Copernicus Wrocław Airport",
      "lat": 51.103719,
      "lon": 16.882096,
      "updatedAt": "200830Z",
      "visibility_m": 10000,
      "taf_visibility_m": 10000,
      "worst_visibility_m": 10000,
      "ceiling_ft": null,
      "hazards": [],
      "severityScore": 0,
      "metarRaw": "METAR EPWR 200830Z 12014KT CAVOK M02/M07 Q1026",
      "tafRaw": "TAF EPWR 200830Z 2009/2109 12014KT CAVOK \n  TEMPO 2009/2024 16015G25KT \n  BECMG 2103/2106 12004KT"
    },
    {
      "icao": "HEGN",
      "iata": "HRG",
      "name": "Hurghada International Airport",
      "lat": 27.176776,
      "lon": 33.796692,
      "updatedAt": "200800Z",
      "visibility_m": 10000,
      "taf_visibility_m": 10000,
      "worst_visibility_m": 10000,
      "ceiling_ft": null,
      "hazards": [],
      "severityScore": 0,
      "metarRaw": "METAR HEGN 200800Z 33012KT CAVOK 19/05 Q1020 NOSIG",
      "tafRaw": "TAF HEGN 200500Z 2006/2112 35014KT CAVOK"
    },
    {
      "icao": "HEMA",
      "iata": "RMF",
      "name": "Marsa Alam International Airport",
      "lat": 25.555548,
      "lon": 34.59245,
      "updatedAt": "200800Z",
      "visibility_m": 10000,
      "taf_visibility_m": 10000,
      "worst_visibility_m": 10000,
      "ceiling_ft": null,
      "hazards": [],
      "severityScore": 0,
      "metarRaw": "METAR HEMA 200800Z 31012KT 9999 SCT020 21/10 Q1018 NOSIG",
      "tafRaw": "TAF HEMA 200500Z 2006/2112 36015KT CAVOK"
    },
    {
      "icao": "HESH",
      "iata": "SSH",
      "name": "Sharm El Sheikh International Airport",
      "lat": 27.977272,
      "lon": 34.394717,
      "updatedAt": "200800Z",
      "visibility_m": 10000,
      "taf_visibility_m": 10000,
      "worst_visibility_m": 10000,
      "ceiling_ft": null,
      "hazards": [],
      "severityScore": 0,
      "metarRaw": "METAR HESH 200800Z 34011KT CAVOK 19/07 Q1018 NOSIG",
      "tafRaw": "TAF HESH 200500Z 2006/2112 01012KT CAVOK"
    },
    {
      "icao": "LATI",
      "iata": "TIA",
      "name": "Tirana International Airport Mother Teresa",
      "lat": 41.4147,
      "lon": 19.7206,
      "updatedAt": "200820Z",
      "visibility_m": 10000,
      "taf_visibility_m": 10000,
      "worst_visibility_m": 10000,
      "ceiling_ft": null,
      "hazards": [],
      "severityScore": 0,
      "metarRaw": "METAR LATI 200820Z 34003KT CAVOK 04/M05 Q1025 NOSIG",
      "tafRaw": "TAF LATI 200500Z 2006/2106 VRB05KT CAVOK TX13/2012Z TN01/2105Z"
    },
    {
      "icao": "LBPD",
      "iata": "PDV",
      "name": "Plovdiv International Airport",
      "lat": 42.067799,
      "lon": 24.8508,
      "updatedAt": "200830Z",
      "visibility_m": 10000,
      "taf_visibility_m": 10000,
      "worst_visibility_m": 10000,
      "ceiling_ft": null,
      "hazards": [],
      "severityScore": 0,
      "metarRaw": "METAR LBPD 200830Z AUTO 32004KT 250V360 9999 NCD M02/M06 Q1036 NOSIG",
      "tafRaw": "TAF LBPD 200500Z 2006/2106 VRB03KT CAVOK"
    },
    {
      "icao": "LBSF",
      "iata": "SOF",
      "name": "Sofia Airport",
      "lat": 42.696357,
      "lon": 23.417671,
      "updatedAt": "200830Z",
      "visibility_m": 10000,
      "taf_visibility_m": 10000,
      "worst_visibility_m": 10000,
      "ceiling_ft": null,
      "hazards": [],
      "severityScore": 0,
      "metarRaw": "METAR LBSF 200830Z VRB02KT CAVOK M04/M08 Q1033 NOSIG",
      "tafRaw": "TAF LBSF 200500Z 2006/2106 VRB03KT CAVOK \n  BECMG 2007/2009 11012KT"
    },
    {
      "icao": "LCLK",
      "iata": "LCA",
      "name": "Larnaca International Airport",
      "lat": 34.875099,
      "lon": 33.624901,
      "updatedAt": "200800Z",
      "visibility_m": 10000,
      "taf_visibility_m": 10000,
      "worst_visibility_m": 10000,
      "ceiling_ft": null,
      "hazards": [],
      "severityScore": 0,
      "metarRaw": "METAR LCLK 200800Z 01010KT 9999 FEW030 11/01 Q1024 NOSIG",
      "tafRaw": "TAF LCLK 200530Z 2006/2106 33008KT 9999 FEW025 \n  BECMG 2007/2010 04014KT \n  BECMG 2017/2020 34007KT"
    },
    {
      "icao": "LCPH",
      "iata": "PFO",
      "name": "Paphos International Airport",
      "lat": 34.717999,
      "lon": 32.485699,
      "updatedAt": "200800Z",
      "visibility_m": 10000,
      "taf_visibility_m": 10000,
      "worst_visibility_m": 10000,
      "ceiling_ft": null,
      "hazards": [],
      "severityScore": 0,
      "metarRaw": "METAR LCPH 200800Z 03004KT 010V110 9999 FEW040 13/M03 Q1024 NOSIG",
      "tafRaw": "TAF LCPH 200530Z 2006/2106 05008KT 9999 FEW020 \n  BECMG 2008/2011 16010KT \n  BECMG 2016/2019 03008KT"
    },
    {
      "icao": "LEBB",
      "iata": "BIO",
      "name": "Bilbao Airport",
      "lat": 43.301102,
      "lon": -2.91061,
      "updatedAt": "200800Z",
      "visibility_m": 10000,
      "taf_visibility_m": 10000,
      "worst_visibility_m": 10000,
      "ceiling_ft": null,
      "hazards": [],
      "severityScore": 0,
      "metarRaw": "METAR LEBB 200800Z 09008KT 060V130 CAVOK 03/02 Q1017 NOSIG",
      "tafRaw": "TAF LEBB 200500Z 2006/2106 20008KT 9999 SCT040 TX13/2013Z TN02/2007Z \n  PROB40 \n  TEMPO 2012/2018 20015G25KT \n  PROB40 \n  TEMPO 2018/2106 20018G30KT"
    },
    {
      "icao": "LEMG",
      "iata": "AGP",
      "name": "Málaga-Costa del Sol Airport",
      "lat": 36.6749,
      "lon": -4.49911,
      "updatedAt": "200800Z",
      "visibility_m": 10000,
      "taf_visibility_m": 10000,
      "worst_visibility_m": 10000,
      "ceiling_ft": null,
      "hazards": [],
      "severityScore": 0,
      "metarRaw": "METAR LEMG 200800Z 29009KT 9999 FEW015 08/03 Q1017 NOSIG",
      "tafRaw": "TAF LEMG 200500Z 2006/2106 29012KT CAVOK TX14/2014Z TN07/2006Z \n  PROB30 \n  TEMPO 2010/2016 29015G25KT"
    },
    {
      "icao": "LEXJ",
      "iata": "SDR",
      "name": "Seve Ballesteros-Santander Airport",
      "lat": 43.427101,
      "lon": -3.82001,
      "updatedAt": "200800Z",
      "visibility_m": 10000,
      "taf_visibility_m": 10000,
      "worst_visibility_m": 10000,
      "ceiling_ft": null,
      "hazards": [],
      "severityScore": 0,
      "metarRaw": "METAR LEXJ 200800Z 15002KT CAVOK 02/00 Q1016",
      "tafRaw": "TAF LEXJ 200800Z 2009/2109 22009KT 9999 SCT040 TX13/2014Z TN06/2009Z \n  PROB40 \n  TEMPO 2012/2020 20018G30KT \n  TEMPO 2020/2109 20018G32KT \n  PROB30 \n  TEMPO 2100/2109 20024G42KT"
    },
    {
      "icao": "LEZG",
      "iata": "ZAZ",
      "name": "Zaragoza Airport",
      "lat": 41.666199,
      "lon": -1.04155,
      "updatedAt": "200800Z",
      "visibility_m": 10000,
      "taf_visibility_m": 10000,
      "worst_visibility_m": 10000,
      "ceiling_ft": null,
      "hazards": [],
      "severityScore": 0,
      "metarRaw": "METAR LEZG 200800Z 30007KT CAVOK 04/03 Q1016 NOSIG",
      "tafRaw": "TAF LEZG 200500Z 2006/2106 30008KT 9999 FEW030 TX10/2015Z TN06/2006Z \n  BECMG 2013/2016 VRB04KT"
    },
    {
      "icao": "LEZL",
      "iata": "SVQ",
      "name": "Sevilla Airport",
      "lat": 37.417999,
      "lon": -5.89311,
      "updatedAt": "200800Z",
      "visibility_m": 10000,
      "taf_visibility_m": 10000,
      "worst_visibility_m": 10000,
      "ceiling_ft": null,
      "hazards": [],
      "severityScore": 0,
      "metarRaw": "METAR LEZL 200800Z 17003KT 150V220 CAVOK 04/04 Q1020 NOSIG",
      "tafRaw": "TAF LEZL 200800Z 2009/2109 VRB04KT CAVOK TX15/2015Z TN04/2107Z \n  TEMPO 2014/2018 26010KT"
    },
    {
      "icao": "LFMN",
      "iata": "NCE",
      "name": "Nice-Côte d'Azur Airport",
      "lat": 43.658401,
      "lon": 7.21587,
      "updatedAt": "200830Z",
      "visibility_m": 10000,
      "taf_visibility_m": 10000,
      "worst_visibility_m": 10000,
      "ceiling_ft": 11000,
      "hazards": [],
      "severityScore": 0,
      "metarRaw": "METAR LFMN 200830Z 07016KT 9999 SCT083 BKN110 14/04 Q1017 NOSIG",
      "tafRaw": "TAF LFMN 200800Z 2009/2115 08015G25KT 9999 SCT100 \n  TEMPO 2009/2019 10025KT \n  BECMG 2021/2024 34010KT \n  BECMG 2111/2113 14006KT"
    },
    {
      "icao": "LIBD",
      "iata": "BRI",
      "name": "Bari Karol Wojtyła International Airport",
      "lat": 41.138901,
      "lon": 16.760599,
      "updatedAt": "200820Z",
      "visibility_m": 10000,
      "taf_visibility_m": 10000,
      "worst_visibility_m": 10000,
      "ceiling_ft": null,
      "hazards": [],
      "severityScore": 0,
      "metarRaw": "METAR LIBD 200820Z 17002KT 9999 FEW035 07/03 Q1023",
      "tafRaw": "TAF LIBD 200500Z 2006/2106 16008KT 9999 SCT040 \n  BECMG 2009/2011 10010KT"
    },
    {
      "icao": "LIBG",
      "iata": "TAR",
      "name": "Taranto-Grottaglie Marcello Arlotta Airport",
      "lat": 40.517502,
      "lon": 17.4032,
      "updatedAt": "200750Z",
      "visibility_m": 10000,
      "taf_visibility_m": 10000,
      "worst_visibility_m": 10000,
      "ceiling_ft": null,
      "hazards": [],
      "severityScore": 0,
      "metarRaw": "METAR LIBG 200750Z 09003KT 9999 FEW040 08/07 Q1023",
      "tafRaw": "TAF LIBG 200800Z 2009/2018 09008KT 9999 SCT040"
    },
    {
      "icao": "LIBP",
      "iata": "PSR",
      "name": "Abruzzo Airport",
      "lat": 42.431079,
      "lon": 14.182981,
      "updatedAt": "200820Z",
      "visibility_m": 10000,
      "taf_visibility_m": 10000,
      "worst_visibility_m": 10000,
      "ceiling_ft": 5000,
      "hazards": [],
      "severityScore": 0,
      "metarRaw": "METAR LIBP 200820Z AUTO 05003KT 340V080 9999 FEW031/// BKN058/// 10/08 Q1024",
      "tafRaw": "TAF LIBP 200500Z 2006/2106 VRB05KT 9999 BKN050"
    },
    {
      "icao": "LIMC",
      "iata": "MXP",
      "name": "Milan Malpensa International Airport",
      "lat": 45.6306,
      "lon": 8.72811,
      "updatedAt": "200820Z",
      "visibility_m": 10000,
      "taf_visibility_m": 10000,
      "worst_visibility_m": 10000,
      "ceiling_ft": 5500,
      "hazards": [],
      "severityScore": 0,
      "metarRaw": "METAR LIMC 200820Z 06001KT 9999 BKN055 03/01 Q1026 NOSIG",
      "tafRaw": "TAF LIMC 200500Z 2006/2112 VRB04KT 9999 SCT050 SCT090"
    },
    {
      "icao": "LIME",
      "iata": "BGY",
      "name": "Milan Bergamo Airport / Antonio Locatelli Air Base",
      "lat": 45.670725,
      "lon": 9.709223,
      "updatedAt": "200820Z",
      "visibility_m": 10000,
      "taf_visibility_m": 10000,
      "worst_visibility_m": 10000,
      "ceiling_ft": 4000,
      "hazards": [],
      "severityScore": 0,
      "metarRaw": "METAR LIME 200820Z VRB02KT CAVOK 02/M03 Q1026 NOSIG",
      "tafRaw": "TAF LIME 200500Z 2006/2106 VRB04KT 9999 BKN040"
    },
    {
      "icao": "LIMF",
      "iata": "TRN",
      "name": "Turin Airport",
      "lat": 45.200802,
      "lon": 7.64963,
      "updatedAt": "200820Z",
      "visibility_m": 7000,
      "taf_visibility_m": 10000,
      "worst_visibility_m": 7000,
      "ceiling_ft": 7000,
      "hazards": [],
      "severityScore": 0,
      "metarRaw": "METAR LIMF 200820Z 33002KT 7000 OVC070 01/M01 Q1026",
      "tafRaw": "TAF LIMF 200500Z 2006/2106 VRB04KT 9999 BKN060"
    },
    {
      "icao": "LIMJ",
      "iata": "GOA",
      "name": "Genoa Cristoforo Colombo Airport",
      "lat": 44.412039,
      "lon": 8.840732,
      "updatedAt": "200820Z",
      "visibility_m": 10000,
      "taf_visibility_m": 10000,
      "worst_visibility_m": 10000,
      "ceiling_ft": null,
      "hazards": [],
      "severityScore": 0,
      "metarRaw": "METAR LIMJ 200820Z VRB07KT CAVOK 08/00 Q1022",
      "tafRaw": "TAF LIMJ 200500Z 2006/2106 02015KT CAVOK \n  TEMPO 2009/2015 02015G28KT"
    },
    {
      "icao": "LIPE",
      "iata": "BLQ",
      "name": "Bologna Guglielmo Marconi Airport",
      "lat": 44.5354,
      "lon": 11.2887,
      "updatedAt": "200820Z",
      "visibility_m": 10000,
      "taf_visibility_m": 8000,
      "worst_visibility_m": 8000,
      "ceiling_ft": 3000,
      "hazards": [],
      "severityScore": 0,
      "metarRaw": "METAR LIPE 200820Z 29004KT 9999 OVC030 03/M01 Q1027",
      "tafRaw": "TAF LIPE 200500Z 2006/2106 28006KT 8000 BKN020 BKN030"
    },
    {
      "icao": "LIPH",
      "iata": "TSF",
      "name": "Treviso Antonio Canova Airport",
      "lat": 45.648399,
      "lon": 12.1944,
      "updatedAt": "200820Z",
      "visibility_m": 10000,
      "taf_visibility_m": 10000,
      "worst_visibility_m": 10000,
      "ceiling_ft": null,
      "hazards": [],
      "severityScore": 0,
      "metarRaw": "METAR LIPH 200820Z 04006KT 010V080 CAVOK 01/M06 Q1027",
      "tafRaw": "TAF LIPH 200500Z 2006/2106 06008KT CAVOK"
    },
    {
      "icao": "LIPQ",
      "iata": "TRS",
      "name": "Trieste–Friuli Venezia Giulia Airport",
      "lat": 45.827499,
      "lon": 13.4722,
      "updatedAt": "200820Z",
      "visibility_m": 10000,
      "taf_visibility_m": 10000,
      "worst_visibility_m": 10000,
      "ceiling_ft": null,
      "hazards": [],
      "severityScore": 0,
      "metarRaw": "METAR LIPQ 200820Z AUTO 02004KT 340V050 9999 NCD 02/M07 Q1027",
      "tafRaw": "TAF LIPQ 200500Z 2006/2106 VRB05KT CAVOK"
    },
    {
      "icao": "LIPX",
      "iata": "VRN",
      "name": "Verona Villafranca Valerio Catullo Airport",
      "lat": 45.394955,
      "lon": 10.887303,
      "updatedAt": "200820Z",
      "visibility_m": 10000,
      "taf_visibility_m": 10000,
      "worst_visibility_m": 10000,
      "ceiling_ft": null,
      "hazards": [],
      "severityScore": 0,
      "metarRaw": "METAR LIPX 200820Z VRB01KT 9999 FEW060 SCT090 02/M02 Q1027",
      "tafRaw": "TAF LIPX 200500Z 2006/2106 VRB05KT 9999 SCT050"
    },
    {
      "icao": "LIPZ",
      "iata": "VCE",
      "name": "Venice Marco Polo Airport",
      "lat": 45.505299,
      "lon": 12.3519,
      "updatedAt": "200820Z",
      "visibility_m": 10000,
      "taf_visibility_m": 10000,
      "worst_visibility_m": 10000,
      "ceiling_ft": null,
      "hazards": [],
      "severityScore": 0,
      "metarRaw": "METAR LIPZ 200820Z 03008KT CAVOK 00/M06 Q1027 NOSIG",
      "tafRaw": "TAF LIPZ 200500Z 2006/2112 02010KT CAVOK \n  BECMG 2014/2016 VRB05KT"
    },
    {
      "icao": "LIRF",
      "iata": "FCO",
      "name": "Rome–Fiumicino Leonardo da Vinci International Airport",
      "lat": 41.804532,
      "lon": 12.251998,
      "updatedAt": "200820Z",
      "visibility_m": 10000,
      "taf_visibility_m": 10000,
      "worst_visibility_m": 10000,
      "ceiling_ft": null,
      "hazards": [],
      "severityScore": 0,
      "metarRaw": "METAR LIRF 200820Z 05007KT CAVOK 11/06 Q1017 NOSIG",
      "tafRaw": "TAF LIRF 200500Z 2006/2112 06013KT 9999 SCT050 \n  BECMG 2010/2012 VRB05KT \n  BECMG 2018/2020 04010KT"
    },
    {
      "icao": "LIRN",
      "iata": "NAP",
      "name": "Naples International Airport",
      "lat": 40.886002,
      "lon": 14.2908,
      "updatedAt": "200820Z",
      "visibility_m": 10000,
      "taf_visibility_m": 10000,
      "worst_visibility_m": 10000,
      "ceiling_ft": null,
      "hazards": [],
      "severityScore": 0,
      "metarRaw": "METAR LIRN 200820Z 05012KT CAVOK 10/02 Q1017 NOSIG",
      "tafRaw": "TAF LIRN 200500Z 2006/2106 05012KT 9999 SCT060 \n  TEMPO 2010/2021 05015G25KT"
    },
    {
      "icao": "LIRZ",
      "iata": "PEG",
      "name": "Perugia San Francesco d'Assisi – Umbria International Airport",
      "lat": 43.095901,
      "lon": 12.5132,
      "updatedAt": "200820Z",
      "visibility_m": 10000,
      "taf_visibility_m": 10000,
      "worst_visibility_m": 10000,
      "ceiling_ft": null,
      "hazards": [],
      "severityScore": 0,
      "metarRaw": "METAR LIRZ 200820Z AUTO 05012KT 9999 FEW094/// 11/03 Q1019",
      "tafRaw": "TAF LIRZ 200500Z 2006/2106 04015KT 9999 SCT070 \n  TEMPO 2009/2016 04018G28KT"
    },
    {
      "icao": "LKMT",
      "iata": "OSR",
      "name": "Leoš Janáček Airport Ostrava",
      "lat": 49.696301,
      "lon": 18.111099,
      "updatedAt": "200830Z",
      "visibility_m": 10000,
      "taf_visibility_m": 10000,
      "worst_visibility_m": 10000,
      "ceiling_ft": null,
      "hazards": [],
      "severityScore": 0,
      "metarRaw": "METAR LKMT 200830Z 22017KT CAVOK M01/M07 Q1029 NOSIG",
      "tafRaw": "TAF LKMT 200500Z 2006/2106 22014KT CAVOK"
    },
    {
      "icao": "LLBG",
      "iata": "TLV",
      "name": "Ben Gurion International Airport",
      "lat": 32.011398,
      "lon": 34.8867,
      "updatedAt": "200820Z",
      "visibility_m": 10000,
      "taf_visibility_m": 10000,
      "worst_visibility_m": 10000,
      "ceiling_ft": 7500,
      "hazards": [],
      "severityScore": 0,
      "metarRaw": "METAR LLBG 200820Z 03008KT 350V060 9999 FEW050 14/02 Q1023 NOSIG RMK BKN075",
      "tafRaw": "TAF LLBG 200506Z 2006/2106 VRB03KT CAVOK \n  TEMPO 2006/2008 08006KT 9999 SCT045 \n  BECMG 2008/2010 36012KT \n  BECMG 2015/2017 05008KT \n  BECMG 2019/2021 12008KT \n  PROB40 2103/2106 12015KT TX15/2012Z TN04/2104Z"
    },
    {
      "icao": "LPMA",
      "iata": "FNC",
      "name": "Cristiano Ronaldo International Airport",
      "lat": 32.697812,
      "lon": -16.774613,
      "updatedAt": "200800Z",
      "visibility_m": 10000,
      "taf_visibility_m": 10000,
      "worst_visibility_m": 10000,
      "ceiling_ft": null,
      "hazards": [],
      "severityScore": 0,
      "metarRaw": "METAR LPMA 200800Z 34009KT 300V010 9999 FEW015 15/08 Q1026",
      "tafRaw": "TAF LPMA 200500Z 2006/2106 34010KT 9999 SCT015 \n  BECMG 2011/2013 20007KT \n  BECMG 2020/2022 VRB05KT"
    },
    {
      "icao": "LQBK",
      "iata": "BNX",
      "name": "Banja Luka International Airport",
      "lat": 44.941399,
      "lon": 17.297501,
      "updatedAt": "200800Z",
      "visibility_m": 10000,
      "taf_visibility_m": 10000,
      "worst_visibility_m": 10000,
      "ceiling_ft": 2300,
      "hazards": [],
      "severityScore": 0,
      "metarRaw": "METAR LQBK 200800Z VRB02KT 9999 OVC023 M04/M06 Q1033 NOSIG",
      "tafRaw": "TAF LQBK 200500Z 2006/2106 VRB02KT 9999 BKN020 TXM01/2014Z TNM04/2006Z"
    },
    {
      "icao": "LYBE",
      "iata": "BEG",
      "name": "Belgrade Nikola Tesla Airport",
      "lat": 44.818401,
      "lon": 20.309099,
      "updatedAt": "200830Z",
      "visibility_m": 10000,
      "taf_visibility_m": 10000,
      "worst_visibility_m": 10000,
      "ceiling_ft": null,
      "hazards": [],
      "severityScore": 0,
      "metarRaw": "METAR LYBE 200830Z 12006KT 080V150 CAVOK M01/M07 Q1033 NOSIG",
      "tafRaw": "TAF LYBE 200500Z 2006/2106 10009KT CAVOK TX03/2013Z TNM04/2006Z"
    },
    {
      "icao": "LYNI",
      "iata": "INI",
      "name": "Niš Constantine the Great Airport",
      "lat": 43.336538,
      "lon": 21.856242,
      "updatedAt": "200830Z",
      "visibility_m": 10000,
      "taf_visibility_m": 10000,
      "worst_visibility_m": 10000,
      "ceiling_ft": null,
      "hazards": [],
      "severityScore": 0,
      "metarRaw": "METAR LYNI 200830Z VRB02KT CAVOK M05/M07 Q1034 NOSIG",
      "tafRaw": "TAF LYNI 200500Z 2006/2106 08006KT CAVOK TX04/2013Z TNM08/2006Z"
    },
    {
      "icao": "LZTT",
      "iata": "TAT",
      "name": "Poprad-Tatry Airport",
      "lat": 49.073601,
      "lon": 20.2411,
      "updatedAt": "200830Z",
      "visibility_m": 10000,
      "taf_visibility_m": 10000,
      "worst_visibility_m": 10000,
      "ceiling_ft": null,
      "hazards": [],
      "severityScore": 0,
      "metarRaw": "METAR LZTT 200830Z VRB02KT CAVOK M10/M12 Q1029 NOSIG",
      "tafRaw": "TAF LZTT 200515Z 2006/2106 26005KT CAVOK"
    },
    {
      "icao": "OEJN",
      "iata": "JED",
      "name": "King Abdulaziz International Airport",
      "lat": 21.6796,
      "lon": 39.156502,
      "updatedAt": "200800Z",
      "visibility_m": 10000,
      "taf_visibility_m": 10000,
      "worst_visibility_m": 10000,
      "ceiling_ft": null,
      "hazards": [],
      "severityScore": 0,
      "metarRaw": "METAR OEJN 200800Z 36009KT CAVOK 26/04 Q1015 NOSIG",
      "tafRaw": "TAF OEJN 200500Z 2006/2112 33015KT CAVOK \n  BECMG 2018/2020 03006KT \n  BECMG 2108/2110 30012KT"
    },
    {
      "icao": "OEMA",
      "iata": "MED",
      "name": "Prince Mohammad Bin Abdulaziz Airport",
      "lat": 24.5534,
      "lon": 39.705101,
      "updatedAt": "200800Z",
      "visibility_m": 10000,
      "taf_visibility_m": 10000,
      "worst_visibility_m": 10000,
      "ceiling_ft": null,
      "hazards": [],
      "severityScore": 0,
      "metarRaw": "METAR OEMA 200800Z VRB02KT CAVOK 19/M04 Q1019 NOSIG",
      "tafRaw": "TAF OEMA 200500Z 2006/2112 VRB03KT CAVOK \n  BECMG 2008/2010 30010KT \n  BECMG 2018/2020 09010KT"
    },
    {
      "icao": "OJAI",
      "iata": "AMM",
      "name": "Queen Alia International Airport",
      "lat": 31.7226009369,
      "lon": 35.9931983948,
      "updatedAt": "200800Z",
      "visibility_m": 5000,
      "taf_visibility_m": 3000,
      "worst_visibility_m": 3000,
      "ceiling_ft": null,
      "hazards": [],
      "severityScore": 0,
      "metarRaw": "METAR OJAI 200800Z 00000KT 5000 HZ NSC 07/M01 Q1022 NOSIG",
      "tafRaw": "TAF OJAI 200500Z 2006/2112 32010KT 5000 HZ NSC \n  BECMG 2012/2014 09012KT \n  TEMPO 2104/2112 11020KT 3000 BLDU"
    },
    {
      "icao": "OMAA",
      "iata": "AUH",
      "name": "Zayed International Airport",
      "lat": 24.440966,
      "lon": 54.649237,
      "updatedAt": "200800Z",
      "visibility_m": 10000,
      "taf_visibility_m": 8000,
      "worst_visibility_m": 8000,
      "ceiling_ft": null,
      "hazards": [],
      "severityScore": 0,
      "metarRaw": "METAR OMAA 200800Z 29006KT CAVOK 25/08 Q1016 NOSIG",
      "tafRaw": "TAF OMAA 200500Z 2006/2112 VRB02KT 8000 NSC \n  BECMG 2007/2009 30012KT \n  BECMG 2016/2018 24006KT \n  BECMG 2104/2106 32015KT"
    },
    {
      "icao": "OMDB",
      "iata": "DXB",
      "name": "Dubai International Airport",
      "lat": 25.2527999878,
      "lon": 55.3643989563,
      "updatedAt": "200830Z",
      "visibility_m": 10000,
      "taf_visibility_m": 8000,
      "worst_visibility_m": 8000,
      "ceiling_ft": null,
      "hazards": [],
      "severityScore": 0,
      "metarRaw": "METAR OMDB 200830Z 27007KT CAVOK 25/08 Q1015 NOSIG",
      "tafRaw": "TAF OMDB 200500Z 2006/2112 19005KT 8000 NSC \n  BECMG 2007/2009 27012KT \n  PROB30 2018/2105 21007KT \n  PROB40 2108/2112 29018G28KT"
    }
  ],
  "stats": {
    "icaoCount": 159,
    "metarReturned": 159,
    "tafReturned": 147,
    "stationsWritten": 159,
    "missingMetar": 0,
    "missingTaf": 12
  },
  "errors": []
}