{
  "generatedAt": "2026-01-24T14:41:12.060Z",
  "stations": [
    {
      "icao": "EDDS",
      "iata": "STR",
      "name": "Stuttgart Airport",
      "lat": 48.689899,
      "lon": 9.22196,
      "updatedAt": "241420Z",
      "visibility_m": 10000,
      "taf_visibility_m": 600,
      "worst_visibility_m": 600,
      "ceiling_ft": 100,
      "hazards": [
        "FZFG",
        "BR",
        "FG"
      ],
      "severityScore": 100,
      "metarRaw": "METAR EDDS 241420Z AUTO 06006KT CAVOK 04/M00 Q0999 NOSIG",
      "tafRaw": "TAF EDDS 241100Z 2412/2512 VRB03KT 8000 FEW013 \n  PROB30 \n  TEMPO 2412/2414 BKN013 \n  TEMPO 2420/2510 1500 BR \n  PROB40 \n  TEMPO 2422/2508 0600 FZFG VV001 \n  TEMPO 2510/2512 SCT006 BKN010"
    },
    {
      "icao": "EDJA",
      "iata": "FMM",
      "name": "Memmingen Allgau Airport",
      "lat": 47.988092,
      "lon": 10.238248,
      "updatedAt": "241420Z",
      "visibility_m": 10000,
      "taf_visibility_m": 800,
      "worst_visibility_m": 800,
      "ceiling_ft": 100,
      "hazards": [
        "FZFG",
        "BR",
        "FG"
      ],
      "severityScore": 100,
      "metarRaw": "METAR EDJA 241420Z COR 05009KT 9999 FEW011 02/00 Q0999",
      "tafRaw": "TAF EDJA 241400Z 2415/2424 04006KT 8000 BKN010 \n  TEMPO 2415/2418 4000 BR BKN006 \n  BECMG 2418/2420 3000 BR OVC004 \n  BECMG 2420/2422 0800 FZFG OVC001"
    },
    {
      "icao": "EDLW",
      "iata": "DTM",
      "name": "Dortmund Airport",
      "lat": 51.518299,
      "lon": 7.61224,
      "updatedAt": "241420Z",
      "visibility_m": 6000,
      "taf_visibility_m": 600,
      "worst_visibility_m": 600,
      "ceiling_ft": 500,
      "hazards": [
        "FZFG",
        "BR",
        "DZ",
        "FG"
      ],
      "severityScore": 100,
      "metarRaw": "METAR EDLW 241420Z 03005KT 6000 SCT047 02/M00 Q1002",
      "tafRaw": "TAF EDLW 241100Z 2412/2512 08005KT 9999 BKN030 \n  TEMPO 2412/2415 3000 -DZ BR BKN013 \n  PROB30 \n  TEMPO 2412/2414 BKN005 \n  PROB30 \n  TEMPO 2422/2506 0600 FZFG"
    },
    {
      "icao": "EDNY",
      "iata": "FDH",
      "name": "Bodensee Airport Friedrichshafen",
      "lat": 47.671299,
      "lon": 9.51149,
      "updatedAt": "241420Z",
      "visibility_m": 10000,
      "taf_visibility_m": 800,
      "worst_visibility_m": 800,
      "ceiling_ft": 100,
      "hazards": [
        "FZFG",
        "BR",
        "FG"
      ],
      "severityScore": 100,
      "metarRaw": "METAR EDNY 241420Z 04009KT 9999 SCT011 04/01 Q0999",
      "tafRaw": "TAF EDNY 241400Z 2415/2424 03005KT 8000 BKN012 \n  TEMPO 2415/2417 SCT012 \n  TEMPO 2417/2419 4000 BR BKN007 \n  BECMG 2419/2421 2000 BR BKN004 \n  TEMPO 2421/2424 0800 FZFG OVC001"
    },
    {
      "icao": "EPKK",
      "iata": "KRK",
      "name": "Kraków John Paul II International Airport",
      "lat": 50.077702,
      "lon": 19.7848,
      "updatedAt": "241430Z",
      "visibility_m": 2800,
      "taf_visibility_m": 800,
      "worst_visibility_m": 800,
      "ceiling_ft": 500,
      "hazards": [
        "BR",
        "FZFG",
        "FZRA",
        "FZDZ",
        "DZ",
        "FG",
        "RA"
      ],
      "severityScore": 100,
      "metarRaw": "METAR EPKK 241430Z 06008KT 2800 BR OVC005 M02/M03 Q1007",
      "tafRaw": "TAF EPKK 241430Z 2415/2515 06008KT 4000 BR OVC006 \n  BECMG 2415/2417 2000 BR OVC004 \n  TEMPO 2415/2515 1400 -DZ BR OVC002 \n  PROB40 \n  TEMPO 2417/2507 0800 -FZDZ -SG FZFG \n  PROB30 2503/2507 FZRA"
    },
    {
      "icao": "EPKT",
      "iata": "KTW",
      "name": "Katowice Wojciech Korfanty International Airport",
      "lat": 50.476015,
      "lon": 19.080705,
      "updatedAt": "241430Z",
      "visibility_m": 5000,
      "taf_visibility_m": 2500,
      "worst_visibility_m": 2500,
      "ceiling_ft": 800,
      "hazards": [
        "BR",
        "FZRA",
        "FZDZ",
        "DZ",
        "RA"
      ],
      "severityScore": 100,
      "metarRaw": "METAR EPKT 241430Z 06007KT 5000 BR OVC008 M01/M03 Q1007",
      "tafRaw": "TAF EPKT 241130Z 2412/2512 09006KT 6000 BKN006 \n  TEMPO 2412/2418 4000 -DZ BR \n  TEMPO 2500/2507 2500 FZRA FZDZ OVC002 \n  BECMG 2507/2510 SCT020"
    },
    {
      "icao": "EPRZ",
      "iata": "RZE",
      "name": "Rzeszów-Jasionka Airport",
      "lat": 50.109791,
      "lon": 22.024155,
      "updatedAt": "241430Z",
      "visibility_m": 6000,
      "taf_visibility_m": 2000,
      "worst_visibility_m": 2000,
      "ceiling_ft": 500,
      "hazards": [
        "BR",
        "FZRA",
        "FZDZ",
        "RA",
        "DZ"
      ],
      "severityScore": 100,
      "metarRaw": "METAR EPRZ 241430Z 07010KT 6000 OVC005 M01/M01 Q1008",
      "tafRaw": "TAF EPRZ 241130Z 2412/2512 09008KT 6000 OVC006 \n  TEMPO 2412/2504 2000 -FZDZ -FZRA BR OVC004 \n  TEMPO 2504/2508 2000 FZRA BR BKN004"
    },
    {
      "icao": "EPWR",
      "iata": "WRO",
      "name": "Copernicus Wrocław Airport",
      "lat": 51.103719,
      "lon": 16.882096,
      "updatedAt": "241430Z",
      "visibility_m": 4500,
      "taf_visibility_m": 1400,
      "worst_visibility_m": 1400,
      "ceiling_ft": 1000,
      "hazards": [
        "BR",
        "FZRA",
        "SN",
        "FZDZ",
        "RA",
        "DZ"
      ],
      "severityScore": 100,
      "metarRaw": "METAR EPWR 241430Z 07006KT 4500 -SG BR OVC010 M01/M03 Q1008",
      "tafRaw": "TAF EPWR 241430Z 2415/2515 08007KT 5000 BR OVC009 \n  BECMG 2415/2418 4500 -SG BR \n  PROB40 \n  TEMPO 2415/2508 -FZRA -FZDZ \n  TEMPO 2423/2508 1400 SN BR OVC003 \n  BECMG 2508/2512 6000 BKN012 \n  TEMPO 2512/2515 BKN015"
    },
    {
      "icao": "LBPD",
      "iata": "PDV",
      "name": "Plovdiv International Airport",
      "lat": 42.067799,
      "lon": 24.8508,
      "updatedAt": "241430Z",
      "visibility_m": 6000,
      "taf_visibility_m": 300,
      "worst_visibility_m": 300,
      "ceiling_ft": 100,
      "hazards": [
        "FZFG",
        "FG",
        "BR"
      ],
      "severityScore": 100,
      "metarRaw": "METAR LBPD 241430Z AUTO 31003KT 6000 OVC004/// 02/02 Q1014 NOSIG",
      "tafRaw": "TAF LBPD 241100Z 2412/2512 VRB03KT 3000 BR BKN005 \n  BECMG 2416/2418 0500 FG VV002 \n  PROB30 \n  TEMPO 2502/2506 0300 FZFG VV001 \n  BECMG 2508/2510 3000 BR BKN005"
    },
    {
      "icao": "LBSF",
      "iata": "SOF",
      "name": "Sofia Airport",
      "lat": 42.696357,
      "lon": 23.417671,
      "updatedAt": "241430Z",
      "visibility_m": 4400,
      "taf_visibility_m": 300,
      "worst_visibility_m": 300,
      "ceiling_ft": 300,
      "hazards": [
        "BR",
        "FZFG",
        "FG"
      ],
      "severityScore": 100,
      "metarRaw": "METAR LBSF 241430Z 09005KT 4400 BR OVC003 00/M00 Q1012 NOSIG",
      "tafRaw": "TAF LBSF 241100Z 2412/2512 VRB03KT 5000 BR BKN005 \n  BECMG 2412/2414 10010KT 7000 NSW SCT020 \n  BECMG 2419/2421 VRB03KT 2000 BR BKN007 \n  BECMG 2421/2423 0300 FZFG VV002 \n  BECMG 2508/2510 5000 BR BKN005 \n  BECMG 2510/2512 10010KT 8000 NSW SCT030"
    },
    {
      "icao": "LBWN",
      "iata": "VAR",
      "name": "Varna Airport",
      "lat": 43.232101,
      "lon": 27.8251,
      "updatedAt": "241430Z",
      "visibility_m": 8000,
      "taf_visibility_m": 400,
      "worst_visibility_m": 400,
      "ceiling_ft": 100,
      "hazards": [
        "FG",
        "BR"
      ],
      "severityScore": 100,
      "metarRaw": "METAR LBWN 241430Z AUTO 13009KT 8000 OVC005/// 04/04 Q1014 NOSIG",
      "tafRaw": "TAF LBWN 241100Z 2412/2512 12008KT 7000 BKN007 OVC010 \n  BECMG 2416/2418 VRB03KT 3000 BR OVC003 \n  BECMG 2418/2420 0400 FG VV001 \n  BECMG 2508/2510 2000 BR SCT003 BKN010"
    },
    {
      "icao": "LEMD",
      "iata": "MAD",
      "name": "Adolfo Suárez Madrid–Barajas Airport",
      "lat": 40.471926,
      "lon": -3.56264,
      "updatedAt": "241430Z",
      "visibility_m": 10000,
      "taf_visibility_m": 400,
      "worst_visibility_m": 400,
      "ceiling_ft": 200,
      "hazards": [
        "FG",
        "BR",
        "RA",
        "DZ"
      ],
      "severityScore": 100,
      "metarRaw": "METAR LEMD 241430Z 24013G23KT 9999 FEW030 07/M00 Q1004 NOSIG",
      "tafRaw": "TAF LEMD 241100Z 2412/2518 23010KT 9999 FEW030 TX07/2414Z TN02/2504Z \n  TEMPO 2412/2421 24015G25KT \n  TEMPO 2502/2511 4000 BR BKN010 \n  PROB40 \n  TEMPO 2504/2508 DZRA BKN004 \n  PROB30 \n  TEMPO 2505/2510 0400 FG VV002 \n  TEMPO 2508/2517 24016G28KT"
    },
    {
      "icao": "LHBP",
      "iata": "BUD",
      "name": "Budapest Liszt Ferenc International Airport",
      "lat": 47.43018,
      "lon": 19.262393,
      "updatedAt": "241430Z",
      "visibility_m": 6000,
      "taf_visibility_m": 1200,
      "worst_visibility_m": 1200,
      "ceiling_ft": 400,
      "hazards": [
        "BR",
        "FZRA",
        "RA",
        "FG"
      ],
      "severityScore": 100,
      "metarRaw": "METAR LHBP 241430Z 05003KT 6000 NSC 03/01 Q1007 NOSIG",
      "tafRaw": "TAF LHBP 241115Z 2412/2512 07006KT 6000 SCT008 BKN050 \n  TEMPO 2412/2418 2800 BR BKN008 \n  TEMPO 2418/2505 1200 -RA BCFG BR OVC004 \n  PROB40 \n  TEMPO 2500/2505 -FZRA \n  TEMPO 2505/2512 BKN005 \n  BECMG 2509/2512 07012KT"
    },
    {
      "icao": "LHDC",
      "iata": "DEB",
      "name": "Debrecen International Airport",
      "lat": 47.488899,
      "lon": 21.615299,
      "updatedAt": "241415Z",
      "visibility_m": 10000,
      "taf_visibility_m": 500,
      "worst_visibility_m": 500,
      "ceiling_ft": 200,
      "hazards": [
        "FZFG",
        "BR",
        "FG"
      ],
      "severityScore": 100,
      "metarRaw": "METAR LHDC 241415Z AUTO 00000KT CAVOK 06/03 Q1008 NOSIG",
      "tafRaw": "TAF LHDC 241415Z 2415/2424 20006KT CAVOK \n  BECMG 2415/2418 08006KT 2000 BCFG BR SCT004 BKN200 \n  TEMPO 2418/2424 0500 FZFG BKN002"
    },
    {
      "icao": "LIPE",
      "iata": "BLQ",
      "name": "Bologna Guglielmo Marconi Airport",
      "lat": 44.5354,
      "lon": 11.2887,
      "updatedAt": "241420Z",
      "visibility_m": 7000,
      "taf_visibility_m": 700,
      "worst_visibility_m": 700,
      "ceiling_ft": 600,
      "hazards": [
        "FG",
        "BR",
        "RA",
        "DZ"
      ],
      "severityScore": 100,
      "metarRaw": "METAR LIPE 241420Z 28006KT 7000 BKN006 BKN025 06/04 Q1003",
      "tafRaw": "TAF LIPE 241100Z 2412/2512 VRB05KT 3000 -RA BR BKN006 \n  TEMPO 2422/2508 0700 DZ FG BKN002"
    },
    {
      "icao": "LKMT",
      "iata": "OSR",
      "name": "Leoš Janáček Airport Ostrava",
      "lat": 49.696301,
      "lon": 18.111099,
      "updatedAt": "241430Z",
      "visibility_m": 800,
      "taf_visibility_m": null,
      "worst_visibility_m": 800,
      "ceiling_ft": 200,
      "hazards": [
        "FZFG",
        "FZDZ",
        "FG",
        "DZ"
      ],
      "severityScore": 100,
      "metarRaw": "METAR LKMT 241430Z 03004KT 0800 R22/1400N R04/1400N -FZDZ FZFG OVC002 M01/M01 Q1007 NOSIG",
      "tafRaw": null
    },
    {
      "icao": "LOWW",
      "iata": "VIE",
      "name": "Vienna International Airport",
      "lat": 48.110298,
      "lon": 16.5697,
      "updatedAt": "241420Z",
      "visibility_m": 2500,
      "taf_visibility_m": 400,
      "worst_visibility_m": 400,
      "ceiling_ft": 400,
      "hazards": [
        "BR",
        "FG",
        "FZRA",
        "RA",
        "FZDZ",
        "DZ"
      ],
      "severityScore": 100,
      "metarRaw": "METAR LOWW 241420Z 18002KT 4600 BR FEW004 BKN008 M01/M02 Q1006 TEMPO 2500 BR BKN004",
      "tafRaw": "TAF LOWW 241417Z 2415/2521 VRB04KT 4000 BR FEW003 OVC005 TX02/2513Z TNM01/2417Z \n  TEMPO 2415/2417 1500 -FZDZ BR BKN002 \n  PROB40 \n  TEMPO 2417/2421 1200 -FZRA BR BKN002 \n  BECMG 2421/2423 0700 FG VV001 \n  PROB30 \n  TEMPO 2500/2508 0400 \n  BECMG 2507/2509 13010KT \n  BECMG 2509/2511 1500 BR \n  TEMPO 2511/2521 3000 -RA BR BKN004"
    },
    {
      "icao": "LQBK",
      "iata": "BNX",
      "name": "Banja Luka International Airport",
      "lat": 44.941399,
      "lon": 17.297501,
      "updatedAt": "241430Z",
      "visibility_m": 4000,
      "taf_visibility_m": 400,
      "worst_visibility_m": 400,
      "ceiling_ft": 200,
      "hazards": [
        "BR",
        "RA",
        "FG"
      ],
      "severityScore": 100,
      "metarRaw": "METAR LQBK 241430Z 33003KT 4000 -RA BR NSC 07/05 Q1004 NOSIG",
      "tafRaw": "TAF LQBK 241100Z 2412/2512 VRB02KT 6000 SCT040 TX07/2413Z TN02/2506Z \n  TEMPO 2412/2418 3000 -RA BR \n  TEMPO 2418/2508 1500 BR \n  PROB30 2420/2506 0400 FG BKN002"
    },
    {
      "icao": "LRBC",
      "iata": "BCM",
      "name": "Bacău George Enescu International  Airport",
      "lat": 46.5219,
      "lon": 26.910299,
      "updatedAt": "241430Z",
      "visibility_m": 2000,
      "taf_visibility_m": 350,
      "worst_visibility_m": 350,
      "ceiling_ft": 200,
      "hazards": [
        "BR",
        "FZFG",
        "FG"
      ],
      "severityScore": 100,
      "metarRaw": "METAR LRBC 241430Z 15009KT 2000 BR OVC002 M02/M03 Q1013",
      "tafRaw": "TAF LRBC 241400Z 2415/2424 16010KT 1500 BR OVC002 \n  BECMG 2417/2419 0800 FZFG \n  TEMPO 2419/2424 0350 FZFG VV001"
    },
    {
      "icao": "LRBS",
      "iata": "BBU",
      "name": "Bucharest Băneasa Aurel Vlaicu International Airport",
      "lat": 44.503133,
      "lon": 26.102944,
      "updatedAt": "241430Z",
      "visibility_m": 500,
      "taf_visibility_m": 200,
      "worst_visibility_m": 200,
      "ceiling_ft": 100,
      "hazards": [
        "FG",
        "BR"
      ],
      "severityScore": 100,
      "metarRaw": "METAR LRBS 241430Z 07003KT 030V110 0500 R07/1300U FG OVC001 00/M00 Q1014 TEMPO 0800 OVC002",
      "tafRaw": "TAF LRBS 241100Z 2412/2512 VRB04KT 1500 BR OVC003 \n  TEMPO 2412/2415 5000 BKN010 \n  BECMG 2418/2420 0600 FG OVC002 \n  TEMPO 2421/2506 0200 FG VV001 \n  BECMG 2507/2509 1500 BR BKN005 \n  BECMG 2509/2510 5000 BKN010"
    },
    {
      "icao": "LRCV",
      "iata": "CRA",
      "name": "Craiova International Airport",
      "lat": 44.3181,
      "lon": 23.888599,
      "updatedAt": "241430Z",
      "visibility_m": 600,
      "taf_visibility_m": 300,
      "worst_visibility_m": 300,
      "ceiling_ft": 100,
      "hazards": [
        "FG"
      ],
      "severityScore": 100,
      "metarRaw": "METAR LRCV 241430Z 11004KT 0600 R26/1300N FG OVC001 00/00 Q1013",
      "tafRaw": "TAF LRCV 241400Z 2415/2424 VRB04KT 0300 FG VV001 \n  TEMPO 2415/2417 0600 OVC001"
    },
    {
      "icao": "LROP",
      "iata": "OTP",
      "name": "Bucharest Henri Coandă International Airport",
      "lat": 44.571792,
      "lon": 26.103285,
      "updatedAt": "241430Z",
      "visibility_m": 400,
      "taf_visibility_m": null,
      "worst_visibility_m": 400,
      "ceiling_ft": 100,
      "hazards": [
        "FZFG",
        "FG"
      ],
      "severityScore": 100,
      "metarRaw": "METAR LROP 241430Z 09004KT 0400 R08R/0750N R08L/0900U FZFG OVC001 M00/M00 Q1014 TEMPO 0800 FG",
      "tafRaw": null
    },
    {
      "icao": "LRSV",
      "iata": "SCV",
      "name": "Suceava Stefan cel Mare Airport",
      "lat": 47.6875,
      "lon": 26.35409927368164,
      "updatedAt": "241430Z",
      "visibility_m": 300,
      "taf_visibility_m": 300,
      "worst_visibility_m": 300,
      "ceiling_ft": 200,
      "hazards": [
        "FZFG",
        "FG",
        "FZRA",
        "RA"
      ],
      "severityScore": 100,
      "metarRaw": "METAR LRSV 241430Z 13011KT 0300 R34/0800N FZFG VV002 M02/M03 Q1011",
      "tafRaw": "TAF LRSV 241400Z 2415/2424 14010KT 0300 FZFG OVC001 \n  TEMPO 2415/2420 0800 -FZRA FZFG OVC002"
    },
    {
      "icao": "LRTM",
      "iata": "TGM",
      "name": "Târgu Mureş Transilvania International Airport",
      "lat": 46.467701,
      "lon": 24.4125,
      "updatedAt": "241430Z",
      "visibility_m": 9000,
      "taf_visibility_m": 300,
      "worst_visibility_m": 300,
      "ceiling_ft": 100,
      "hazards": [
        "FG",
        "BR"
      ],
      "severityScore": 100,
      "metarRaw": "METAR LRTM 241430Z 18001KT 9000 NSC 04/01 Q1009",
      "tafRaw": "TAF LRTM 241400Z 2415/2424 VRB04KT CAVOK \n  BECMG 2416/2418 3000 BR \n  BECMG 2418/2420 0800 FG BKN002 \n  TEMPO 2420/2424 0300 FG VV001"
    },
    {
      "icao": "LZIB",
      "iata": "BTS",
      "name": "M. R. Štefánik Airport",
      "lat": 48.1702,
      "lon": 17.2127,
      "updatedAt": "241430Z",
      "visibility_m": 2400,
      "taf_visibility_m": 500,
      "worst_visibility_m": 500,
      "ceiling_ft": 700,
      "hazards": [
        "BR",
        "FG",
        "RA"
      ],
      "severityScore": 100,
      "metarRaw": "METAR LZIB 241430Z 18004KT 160V220 2400 BR SCT006 OVC007 01/00 Q1006 NOSIG",
      "tafRaw": "TAF LZIB 241115Z 2412/2512 08005KT 3500 BR BKN006 BKN014 \n  TEMPO 2412/2417 1500 BR BKN003 OVC007 \n  TEMPO 2417/2512 2000 -RA BR BKN004 OVC008 \n  PROB40 \n  TEMPO 2420/2509 0500 FG VV001"
    },
    {
      "icao": "UAAA",
      "iata": "ALA",
      "name": "Almaty International Airport",
      "lat": 43.354267,
      "lon": 77.042828,
      "updatedAt": "241430Z",
      "visibility_m": 4400,
      "taf_visibility_m": 200,
      "worst_visibility_m": 200,
      "ceiling_ft": 20000,
      "hazards": [
        "BR",
        "FZFG",
        "FG"
      ],
      "severityScore": 100,
      "metarRaw": "METAR UAAA 241430Z 21003MPS 4400 BR FU SCT100 BKN200 M06/M10 Q1017 NOSIG",
      "tafRaw": "TAF UAAA 241102Z 2412/2512 06003MPS 3100 BR FU SCT050 BKN100 TXM01/2508Z TNM12/2502Z \n  TEMPO 2412/2414 1700 SCT011 BKN030 \n  FM241400 23003MPS 1500 BR FU BKN011 OVC030 \n  TEMPO 2414/2502 0200 FZFG VV001 \n  BECMG 2504/2505 28003MPS 3100 \n  TEMPO 2507/2511 9999 NSW"
    },
    {
      "icao": "UDSG",
      "iata": "LWN",
      "name": "Shirak International Airport",
      "lat": 40.750401,
      "lon": 43.859299,
      "updatedAt": "241430Z",
      "visibility_m": 4000,
      "taf_visibility_m": 600,
      "worst_visibility_m": 600,
      "ceiling_ft": 3300,
      "hazards": [
        "BR",
        "SN",
        "FZFG",
        "FG"
      ],
      "severityScore": 100,
      "metarRaw": "METAR UDSG 241430Z 10003KT 4000 -SN BR OVC033 M06/M07 Q1018 NOSIG",
      "tafRaw": "TAF UDSG 241100Z 2412/2512 VRB06KT 2000 BR BKN020 \n  TEMPO 2412/2424 0600 SN FZFG OVC005"
    },
    {
      "icao": "EPWA",
      "iata": "WAW",
      "name": "Warsaw Chopin Airport",
      "lat": 52.165699,
      "lon": 20.9671,
      "updatedAt": "241430Z",
      "visibility_m": 9000,
      "taf_visibility_m": 1500,
      "worst_visibility_m": 1500,
      "ceiling_ft": 1400,
      "hazards": [
        "BR",
        "FZRA",
        "SN",
        "RA"
      ],
      "severityScore": 97,
      "metarRaw": "METAR EPWA 241430Z 08010KT 050V120 9000 BKN014 M05/M08 Q1012 NOSIG",
      "tafRaw": "TAF EPWA 241430Z 2415/2515 08010KT 9999 BKN015 \n  TEMPO 2415/2509 4000 -SN BR BKN005 BKN012 \n  PROB40 \n  TEMPO 2415/2421 2000 -SN BR OVC004 \n  BECMG 2508/2511 3000 -SNRA BR BKN005 \n  TEMPO 2509/2515 1500 -FZRA -SNRA BR OVC002"
    },
    {
      "icao": "LRIA",
      "iata": "IAS",
      "name": "Iaşi Airport",
      "lat": 47.180278,
      "lon": 27.620833,
      "updatedAt": "241430Z",
      "visibility_m": 10000,
      "taf_visibility_m": 600,
      "worst_visibility_m": 600,
      "ceiling_ft": 1200,
      "hazards": [
        "FZFG",
        "BR",
        "FG"
      ],
      "severityScore": 97,
      "metarRaw": "METAR LRIA 241430Z 12013KT 9999 OVC012 M02/M05 Q1014",
      "tafRaw": "TAF LRIA 241400Z 2415/2424 11012KT 9999 OVC010 \n  BECMG 2420/2422 3000 BR OVC005 \n  BECMG 2422/2424 0600 FZFG OVC002"
    },
    {
      "icao": "LUKK",
      "iata": "RMO",
      "name": "Chişinău International Airport",
      "lat": 46.9277,
      "lon": 28.931,
      "updatedAt": "241430Z",
      "visibility_m": 7000,
      "taf_visibility_m": 2000,
      "worst_visibility_m": 2000,
      "ceiling_ft": 1100,
      "hazards": [
        "BR",
        "FZRA",
        "SN",
        "SHSN",
        "RA"
      ],
      "severityScore": 97,
      "metarRaw": "METAR LUKK 241430Z 10006KT 7000 OVC011 M04/M06 Q1016 NOSIG",
      "tafRaw": "TAF LUKK 241128Z 2412/2512 10008KT 7000 SCT008 BKN018 \n  TEMPO 2412/2418 3000 SHSN SCT015CB \n  BECMG 2418/2421 OVC007 \n  TEMPO 2421/2507 3000 -SN BR OVC004 \n  PROB40 \n  TEMPO 2501/2506 4000 FZRA OVC002 \n  TEMPO 2506/2512 2000 -FZRA BR OVC002"
    },
    {
      "icao": "UDYZ",
      "iata": "EVN",
      "name": "Zvartnots International Airport",
      "lat": 40.148941,
      "lon": 44.397887,
      "updatedAt": "241430Z",
      "visibility_m": 3200,
      "taf_visibility_m": 600,
      "worst_visibility_m": 600,
      "ceiling_ft": 1400,
      "hazards": [
        "BR",
        "FZFG",
        "FG"
      ],
      "severityScore": 97,
      "metarRaw": "METAR UDYZ 241430Z 23003KT 3200 BR BKN014 M02/M05 Q1021 NOSIG",
      "tafRaw": "TAF UDYZ 241100Z 2412/2512 VRB06KT 2300 BR BKN020 \n  TEMPO 2416/2506 0600 FZFG VV003"
    },
    {
      "icao": "LFBD",
      "iata": "BOD",
      "name": "Bordeaux–Mérignac Airport",
      "lat": 44.82865,
      "lon": -0.715356,
      "updatedAt": "241430Z",
      "visibility_m": 4000,
      "taf_visibility_m": 2000,
      "worst_visibility_m": 2000,
      "ceiling_ft": 1000,
      "hazards": [
        "RA",
        "SHRA",
        "TSRA",
        "TS"
      ],
      "severityScore": 88,
      "metarRaw": "METAR LFBD 241430Z AUTO 23010KT 190V250 9999 -RA SCT030/// BKN041/// BKN060/// ///TCU 09/06 Q0998 TEMPO 24015G25KT 4000 SHRA BKN020TCU SCT025CB",
      "tafRaw": "TAF LFBD 241100Z 2412/2518 23008KT CAVOK TX10/2412Z TN05/2505Z \n  TEMPO 2413/2423 24015G25KT 4000 SHRA BKN020TCU SCT025CB \n  PROB30 \n  TEMPO 2416/2422 TSRA \n  TEMPO 2504/2518 20015G25KT 4000 SHRA BKN020TCU SCT025CB \n  PROB30 2506/2516 24020G30KT 2000 TSRA BKN010 BKN025CB"
    },
    {
      "icao": "LEXJ",
      "iata": "SDR",
      "name": "Seve Ballesteros-Santander Airport",
      "lat": 43.427101,
      "lon": -3.82001,
      "updatedAt": "241430Z",
      "visibility_m": 10000,
      "taf_visibility_m": 1500,
      "worst_visibility_m": 1500,
      "ceiling_ft": 5000,
      "hazards": [
        "SHRA",
        "RA",
        "TSRA",
        "TS"
      ],
      "severityScore": 86,
      "metarRaw": "METAR LEXJ 241430Z 29024G36KT 9999 -SHRA FEW030TCU BKN050 12/05 Q1001",
      "tafRaw": "TAF LEXJ 241400Z 2415/2515 24012KT 9999 SCT040 TX13/2514Z TN07/2422Z \n  TEMPO 2415/2420 27016G32KT \n  TEMPO 2415/2421 3000 SHRA FEW030TCU \n  PROB40 \n  TEMPO 2415/2421 1500 TSRA FEW030CB \n  TEMPO 2500/2509 20015G27KT \n  TEMPO 2509/2515 27022G43KT 3000 SHRA FEW030TCU"
    },
    {
      "icao": "EPMO",
      "iata": "WMI",
      "name": "Modlin Airport",
      "lat": 52.451099,
      "lon": 20.6518,
      "updatedAt": "241430Z",
      "visibility_m": 7000,
      "taf_visibility_m": 1000,
      "worst_visibility_m": 1000,
      "ceiling_ft": 2300,
      "hazards": [
        "BR",
        "FZRA",
        "SN",
        "RA"
      ],
      "severityScore": 85,
      "metarRaw": "METAR EPMO 241430Z 06013KT 7000 BKN023 M06/M08 Q1012",
      "tafRaw": "TAF EPMO 241130Z 2412/2512 08013KT 9000 BKN016 BKN047 \n  TEMPO 2412/2509 4000 -SN BR BKN005 BKN012 \n  PROB40 \n  TEMPO 2413/2509 2000 -SN BR OVC004 \n  PROB30 \n  TEMPO 2413/2418 1200 SN BR OVC002 \n  BECMG 2508/2511 3000 -SNRA BR BKN005 \n  TEMPO 2509/2512 1000 -FZRA -SNRA BR OVC002"
    },
    {
      "icao": "LTFM",
      "iata": "IST",
      "name": "İstanbul Airport",
      "lat": 41.261297,
      "lon": 28.741951,
      "updatedAt": "241420Z",
      "visibility_m": 8000,
      "taf_visibility_m": 600,
      "worst_visibility_m": 600,
      "ceiling_ft": 500,
      "hazards": [
        "FG",
        "BR"
      ],
      "severityScore": 80,
      "metarRaw": "METAR LTFM 241420Z 08008KT 050V110 8000 BKN005 BKN020 08/07 Q1015 NOSIG RMK RWY17L 08008KT RWY34L 07007KT RWY16R 08008KT RWY36 07008KT RWY18 07007KT",
      "tafRaw": "TAF LTFM 241040Z 2412/2518 06008KT 9999 BKN006 BKN020 \n  BECMG 2413/2415 12012KT \n  BECMG 2418/2420 VRB02KT 2000 BR BKN004 \n  BECMG 2420/2423 1200 BCFG \n  PROB40 2502/2506 0600 FG \n  BECMG 2505/2507 21013KT 4000 BR SCT008 BKN022 \n  BECMG 2507/2509 9999 NSW SCT032"
    },
    {
      "icao": "LEBL",
      "iata": "BCN",
      "name": "Josep Tarradellas Barcelona-El Prat Airport",
      "lat": 41.2971,
      "lon": 2.07846,
      "updatedAt": "241430Z",
      "visibility_m": 3500,
      "taf_visibility_m": 3000,
      "worst_visibility_m": 3000,
      "ceiling_ft": 2300,
      "hazards": [
        "RA",
        "TSRA",
        "SHRA",
        "TS"
      ],
      "severityScore": 76,
      "metarRaw": "METAR LEBL 241430Z 29003KT 230V340 3500 +RA FEW015 FEW020TCU OVC023 05/04 Q0995 NOSIG",
      "tafRaw": "TAF LEBL 241100Z 2412/2512 30012KT 9999 BKN030 OVC040 TX11/2412Z TN07/2506Z \n  PROB40 \n  TEMPO 2412/2418 30015G25KT 3000 SHRA FEW015TCU \n  TEMPO 2412/2420 26006KT \n  PROB30 \n  TEMPO 2412/2415 30015G25KT 3000 TSRA FEW040CB \n  BECMG 2420/2422 31015KT \n  TEMPO 2421/2506 31018G28KT \n  BECMG 2508/2510 27010KT"
    },
    {
      "icao": "LIRF",
      "iata": "FCO",
      "name": "Rome–Fiumicino Leonardo da Vinci International Airport",
      "lat": 41.804532,
      "lon": 12.251998,
      "updatedAt": "241420Z",
      "visibility_m": 10000,
      "taf_visibility_m": 4000,
      "worst_visibility_m": 4000,
      "ceiling_ft": 2000,
      "hazards": [
        "TSRA",
        "RA",
        "SHRA",
        "TS"
      ],
      "severityScore": 76,
      "metarRaw": "METAR LIRF 241420Z 16009KT 140V200 9999 BKN020 16/12 Q1002 NOSIG",
      "tafRaw": "TAF LIRF 241100Z 2412/2518 18012KT 9999 SCT030 \n  TEMPO 2416/2418 4000 RA BKN014 \n  TEMPO 2418/2422 4000 TSRA BKN014 \n  BECMG 2420/2422 30014KT \n  TEMPO 2422/2507 4000 SHRA \n  BECMG 2500/2502 04015KT \n  BECMG 2505/2507 11012KT \n  BECMG 2510/2512 17015KT \n  TEMPO 2511/2518 4000 TSRA"
    },
    {
      "icao": "LZTT",
      "iata": "TAT",
      "name": "Poprad-Tatry Airport",
      "lat": 49.073601,
      "lon": 20.2411,
      "updatedAt": "241430Z",
      "visibility_m": 6000,
      "taf_visibility_m": 2500,
      "worst_visibility_m": 2500,
      "ceiling_ft": 400,
      "hazards": [
        "DZ",
        "BR",
        "SN"
      ],
      "severityScore": 73,
      "metarRaw": "METAR LZTT 241430Z 15003KT 120V180 6000 -DZ BKN004 01/00 Q1005 NOSIG",
      "tafRaw": "TAF LZTT 241115Z 2412/2512 VRB02KT 6000 BKN006 BKN025 \n  TEMPO 2412/2418 2500 -SN BR BKN004 OVC009 \n  TEMPO 2502/2507 2500 -SN BR BKN004 OVC009"
    },
    {
      "icao": "LFMN",
      "iata": "NCE",
      "name": "Nice-Côte d'Azur Airport",
      "lat": 43.658401,
      "lon": 7.21587,
      "updatedAt": "241430Z",
      "visibility_m": 10000,
      "taf_visibility_m": 1200,
      "worst_visibility_m": 1200,
      "ceiling_ft": 11000,
      "hazards": [
        "TSRA",
        "TS",
        "RA"
      ],
      "severityScore": 72,
      "metarRaw": "METAR LFMN 241430Z 34006KT 9999 SCT046 OVC110 11/07 Q0998 BECMG 09012KT",
      "tafRaw": "TAF LFMN 241400Z 2415/2521 08010KT 9999 SCT040 \n  PROB40 2415/2421 09025G35KT \n  TEMPO 2416/2424 VRB15G25KT 1200 TSRA BKN008 BKN040CB \n  BECMG 2420/2422 33010KT \n  PROB40 \n  TEMPO 2500/2508 VRB15G25KT 2000 -TSRA SCT040CB \n  BECMG 2509/2512 21010KT \n  BECMG 2517/2521 31010KT"
    },
    {
      "icao": "EGGW",
      "iata": "LTN",
      "name": "London Luton Airport",
      "lat": 51.874699,
      "lon": -0.368333,
      "updatedAt": "241420Z",
      "visibility_m": 10000,
      "taf_visibility_m": 4000,
      "worst_visibility_m": 4000,
      "ceiling_ft": 400,
      "hazards": [
        "RA",
        "SHRA",
        "DZ"
      ],
      "severityScore": 71,
      "metarRaw": "METAR EGGW 241420Z AUTO 13011KT 9999 NCD 08/04 Q0993",
      "tafRaw": "TAF EGGW 241055Z 2412/2512 13012KT 9999 FEW025 \n  PROB30 \n  TEMPO 2412/2418 14015G25KT \n  PROB40 \n  TEMPO 2418/2423 15015G27KT BKN012 \n  TEMPO 2420/2511 8000 -RA \n  PROB30 \n  TEMPO 2421/2509 4000 RADZ \n  BECMG 2423/2502 OVC006 \n  TEMPO 2501/2510 OVC004 \n  PROB30 \n  TEMPO 2511/2512 7000 SHRA"
    },
    {
      "icao": "LPPT",
      "iata": "LIS",
      "name": "Lisbon Humberto Delgado Airport",
      "lat": 38.7813,
      "lon": -9.13592,
      "updatedAt": "241430Z",
      "visibility_m": 6000,
      "taf_visibility_m": 2000,
      "worst_visibility_m": 2000,
      "ceiling_ft": 800,
      "hazards": [
        "SHRA",
        "RA",
        "BR",
        "DZ"
      ],
      "severityScore": 71,
      "metarRaw": "METAR LPPT 241430Z 30010KT 260V340 6000 -SHRA FEW014 FEW020TCU SCT025 11/09 Q1013",
      "tafRaw": "TAF LPPT 241100Z 2412/2518 30012KT 9999 SCT020 \n  TEMPO 2412/2418 30018G30KT 8000 SHRA SCT012 FEW025CB BKN035 \n  BECMG 2419/2421 26012KT \n  BECMG 2421/2423 SCT012 BKN025 \n  TEMPO 2423/2518 26017G27KT 2000 RADZ BR SCT004 BKN008"
    },
    {
      "icao": "LZKZ",
      "iata": "KSC",
      "name": "Košice International Airport",
      "lat": 48.663101,
      "lon": 21.2411,
      "updatedAt": "241430Z",
      "visibility_m": 900,
      "taf_visibility_m": null,
      "worst_visibility_m": 900,
      "ceiling_ft": 700,
      "hazards": [
        "FG",
        "DZ"
      ],
      "severityScore": 70,
      "metarRaw": "METAR LZKZ 241430Z 36002KT 0900 R01/1600D -DZ FG OVC007 03/02 Q1008 NOSIG",
      "tafRaw": null
    },
    {
      "icao": "EETN",
      "iata": "TLL",
      "name": "Lennart Meri Tallinn Airport",
      "lat": 59.413246,
      "lon": 24.83264,
      "updatedAt": "241420Z",
      "visibility_m": 10000,
      "taf_visibility_m": 4000,
      "worst_visibility_m": 4000,
      "ceiling_ft": 300,
      "hazards": [
        "BR",
        "SN"
      ],
      "severityScore": 63,
      "metarRaw": "METAR EETN 241420Z 09004KT CAVOK M13/M14 Q1025 NOSIG",
      "tafRaw": "TAF EETN 241130Z 2412/2512 15007KT 9999 OVC013 \n  PROB40 \n  TEMPO 2414/2420 BKN008 \n  TEMPO 2502/2509 4000 SN BR BKN003 BKN005 \n  BECMG 2509/2511 SCT020"
    },
    {
      "icao": "LICJ",
      "iata": "PMO",
      "name": "Falcone–Borsellino Airport",
      "lat": 38.175999,
      "lon": 13.091,
      "updatedAt": "241420Z",
      "visibility_m": 10000,
      "taf_visibility_m": 4000,
      "worst_visibility_m": 4000,
      "ceiling_ft": null,
      "hazards": [
        "TSRA",
        "RA",
        "TS"
      ],
      "severityScore": 62,
      "metarRaw": "METAR LICJ 241420Z VRB04KT 9999 FEW040 17/10 Q1004",
      "tafRaw": "TAF LICJ 241100Z 2412/2512 22012KT 9999 SCT030 \n  TEMPO 2422/2505 4000 RA \n  BECMG 2423/2501 28016G26KT \n  PROB40 \n  TEMPO 2506/2512 4000 TSRA \n  BECMG 2506/2508 22014KT"
    },
    {
      "icao": "LIRN",
      "iata": "NAP",
      "name": "Naples International Airport",
      "lat": 40.886002,
      "lon": 14.2908,
      "updatedAt": "241420Z",
      "visibility_m": 10000,
      "taf_visibility_m": 3000,
      "worst_visibility_m": 3000,
      "ceiling_ft": 3000,
      "hazards": [
        "TSRA",
        "RA",
        "TS"
      ],
      "severityScore": 62,
      "metarRaw": "METAR LIRN 241420Z 20008KT 160V240 9999 FEW015 BKN030 15/12 Q1005 NOSIG",
      "tafRaw": "TAF LIRN 241100Z 2412/2512 19013KT 9999 SCT030 \n  TEMPO 2412/2414 3000 TSRA BKN014 \n  TEMPO 2422/2501 4000 TSRA \n  TEMPO 2501/2505 RA \n  TEMPO 2505/2508 4000 TSRA \n  BECMG 2505/2507 25012KT \n  TEMPO 2508/2512 RA \n  BECMG 2509/2511 VRB05KT"
    },
    {
      "icao": "LIRP",
      "iata": "PSA",
      "name": "Pisa International Airport",
      "lat": 43.683899,
      "lon": 10.3927,
      "updatedAt": "241415Z",
      "visibility_m": 10000,
      "taf_visibility_m": 5000,
      "worst_visibility_m": 5000,
      "ceiling_ft": null,
      "hazards": [
        "TSRA",
        "RA",
        "TS"
      ],
      "severityScore": 62,
      "metarRaw": "METAR LIRP 241415Z 12008KT 9999 FEW015 SCT040 12/11 Q1000 NOSIG",
      "tafRaw": "TAF LIRP 241100Z 2412/2512 11008KT 9999 FEW020 SCT050 \n  TEMPO 2412/2415 RA \n  BECMG 2419/2421 RA \n  TEMPO 2419/2423 5000 TSRA FEW020CB SCT030"
    },
    {
      "icao": "OEMA",
      "iata": "MED",
      "name": "Prince Mohammad Bin Abdulaziz Airport",
      "lat": 24.5534,
      "lon": 39.705101,
      "updatedAt": "241400Z",
      "visibility_m": 10000,
      "taf_visibility_m": 2000,
      "worst_visibility_m": 2000,
      "ceiling_ft": 4500,
      "hazards": [
        "TSRA",
        "TS",
        "RA"
      ],
      "severityScore": 62,
      "metarRaw": "METAR OEMA 241400Z 29009KT 9999 SCT040 23/14 Q1015 NOSIG",
      "tafRaw": "TAF OEMA 241100Z 2412/2518 24015KT 7000 SCT045 \n  TEMPO 2412/2500 VRB25KT 2000 BLDU TSRA FEW035CB BKN045 \n  BECMG 2418/2420 30008KT \n  BECMG 2506/2508 08010KT"
    },
    {
      "icao": "EGBB",
      "iata": "BHX",
      "name": "Birmingham Airport",
      "lat": 52.453899,
      "lon": -1.74803,
      "updatedAt": "241420Z",
      "visibility_m": 10000,
      "taf_visibility_m": 4000,
      "worst_visibility_m": 4000,
      "ceiling_ft": 600,
      "hazards": [
        "RA",
        "SHRA",
        "DZ"
      ],
      "severityScore": 61,
      "metarRaw": "METAR EGBB 241420Z 13016KT 9999 FEW028 08/03 Q0991",
      "tafRaw": "TAF EGBB 241101Z 2412/2512 11012KT 9999 SCT020 \n  TEMPO 2412/2422 13015G27KT \n  TEMPO 2417/2503 7000 RA BKN014 \n  PROB40 \n  TEMPO 2418/2424 4000 +RA +SHRA BKN009 \n  PROB40 \n  TEMPO 2500/2512 BKN006 \n  PROB30 \n  TEMPO 2503/2512 6000 RA -RADZ"
    },
    {
      "icao": "LFLL",
      "iata": "LYS",
      "name": "Lyon Saint-Exupéry Airport",
      "lat": 45.725996,
      "lon": 5.090139,
      "updatedAt": "241430Z",
      "visibility_m": 500,
      "taf_visibility_m": null,
      "worst_visibility_m": 500,
      "ceiling_ft": null,
      "hazards": [
        "FG"
      ],
      "severityScore": 60,
      "metarRaw": "METAR LFLL 241430Z VRB03KT 0500 R35L/0500D R17R/0600U R35R/0550N R17L/P2000U FG VV/// 02/02 Q0999 NOSIG",
      "tafRaw": null
    },
    {
      "icao": "EGNM",
      "iata": "LBA",
      "name": "Leeds Bradford Airport",
      "lat": 53.865898,
      "lon": -1.66057,
      "updatedAt": "241420Z",
      "visibility_m": 10000,
      "taf_visibility_m": 4000,
      "worst_visibility_m": 4000,
      "ceiling_ft": 400,
      "hazards": [
        "RA",
        "DZ"
      ],
      "severityScore": 57,
      "metarRaw": "METAR EGNM 241420Z 09012KT 9999 SCT015 06/04 Q0994",
      "tafRaw": "TAF EGNM 241100Z 2412/2512 10012KT 9999 BKN006 \n  BECMG 2412/2415 BKN020 \n  PROB30 \n  TEMPO 2412/2503 11015G25KT \n  PROB40 \n  TEMPO 2415/2419 BKN010 \n  BECMG 2419/2422 BKN012 \n  TEMPO 2420/2512 7000 RA -RADZ BKN008 \n  PROB30 \n  TEMPO 2421/2512 4000 +RA RADZ BKN004"
    },
    {
      "icao": "LFPO",
      "iata": "ORY",
      "name": "Paris-Orly Airport",
      "lat": 48.72333,
      "lon": 2.37944,
      "updatedAt": "241430Z",
      "visibility_m": 10000,
      "taf_visibility_m": 3000,
      "worst_visibility_m": 3000,
      "ceiling_ft": 200,
      "hazards": [
        "BR",
        "RA"
      ],
      "severityScore": 57,
      "metarRaw": "METAR LFPO 241430Z 11007KT CAVOK 10/03 Q0997 NOSIG",
      "tafRaw": "TAF LFPO 241100Z 2412/2518 16006KT CAVOK \n  BECMG 2502/2504 BKN004 \n  TEMPO 2504/2510 3000 BR BKN002 \n  BECMG 2505/2508 17010KT \n  BECMG 2510/2512 BKN012 \n  TEMPO 2512/2517 4000 -RA \n  PROB40 \n  TEMPO 2512/2517 BKN008"
    },
    {
      "icao": "LIMC",
      "iata": "MXP",
      "name": "Milan Malpensa International Airport",
      "lat": 45.6306,
      "lon": 8.72811,
      "updatedAt": "241420Z",
      "visibility_m": 4000,
      "taf_visibility_m": 4000,
      "worst_visibility_m": 4000,
      "ceiling_ft": 300,
      "hazards": [
        "BR",
        "RA"
      ],
      "severityScore": 57,
      "metarRaw": "METAR LIMC 241420Z 23007KT 4000 -RA BR BKN003 05/05 Q1003 NOSIG",
      "tafRaw": "TAF LIMC 241100Z 2412/2518 VRB04KT 6000 SCT040 \n  BECMG 2420/2422 4000 RA BKN014 \n  BECMG 2501/2503 02010KT \n  BECMG 2506/2508 VRB05KT \n  BECMG 2507/2509 NSW"
    },
    {
      "icao": "EYVI",
      "iata": "VNO",
      "name": "Vilnius International Airport",
      "lat": 54.634102,
      "lon": 25.285801,
      "updatedAt": "241420Z",
      "visibility_m": 10000,
      "taf_visibility_m": 5000,
      "worst_visibility_m": 5000,
      "ceiling_ft": 500,
      "hazards": [
        "BR",
        "SN"
      ],
      "severityScore": 53,
      "metarRaw": "METAR EYVI 241420Z 09007KT 9999 FEW037 M10/M14 Q1018 NOSIG",
      "tafRaw": "TAF EYVI 241102Z 2412/2512 09009KT 9000 BKN020 \n  TEMPO 2412/2418 5000 -SN SCT010 \n  TEMPO 2421/2506 5000 BR BKN005"
    },
    {
      "icao": "LKPR",
      "iata": "PRG",
      "name": "Václav Havel Airport Prague",
      "lat": 50.100874,
      "lon": 14.259911,
      "updatedAt": "241430Z",
      "visibility_m": 4500,
      "taf_visibility_m": 2000,
      "worst_visibility_m": 2000,
      "ceiling_ft": 1300,
      "hazards": [
        "BR",
        "RA",
        "SN"
      ],
      "severityScore": 52,
      "metarRaw": "METAR LKPR 241430Z 35003KT 320V020 4500 BR OVC013 M03/M04 Q1005 NOSIG",
      "tafRaw": "TAF LKPR 241400Z 2415/2521 VRB02KT 6000 SCT006 OVC013 \n  TEMPO 2415/2514 05004KT 3000 BR BKN006 \n  PROB30 \n  TEMPO 2415/2502 BKN015 \n  BECMG 2514/2516 09010KT -RA \n  TEMPO 2516/2521 2000 -RASN BR BKN004"
    },
    {
      "icao": "EGKK",
      "iata": "LGW",
      "name": "London Gatwick Airport",
      "lat": 51.148771,
      "lon": -0.192089,
      "updatedAt": "241420Z",
      "visibility_m": 10000,
      "taf_visibility_m": 5000,
      "worst_visibility_m": 5000,
      "ceiling_ft": 700,
      "hazards": [
        "SHRA",
        "RA"
      ],
      "severityScore": 51,
      "metarRaw": "METAR EGKK 241420Z 14012KT 100V170 9999 FEW036 10/04 Q0993",
      "tafRaw": "TAF EGKK 241055Z 2412/2518 14012KT 9999 FEW020 \n  PROB40 \n  TEMPO 2418/2424 15015G25KT 7000 SHRA \n  TEMPO 2500/2510 5000 SHRA BKN007 \n  PROB40 \n  TEMPO 2510/2518 7000 SHRA BKN014"
    },
    {
      "icao": "LIPZ",
      "iata": "VCE",
      "name": "Venice Marco Polo Airport",
      "lat": 45.505299,
      "lon": 12.3519,
      "updatedAt": "241420Z",
      "visibility_m": 4000,
      "taf_visibility_m": null,
      "worst_visibility_m": 4000,
      "ceiling_ft": 300,
      "hazards": [
        "BR"
      ],
      "severityScore": 50,
      "metarRaw": "METAR LIPZ 241420Z 05006KT 4000 BR BKN003 09/08 Q1002 NOSIG",
      "tafRaw": null
    },
    {
      "icao": "EGPD",
      "iata": "ABZ",
      "name": "Aberdeen International Airport",
      "lat": 57.2019,
      "lon": -2.19778,
      "updatedAt": "241420Z",
      "visibility_m": 4700,
      "taf_visibility_m": 3000,
      "worst_visibility_m": 3000,
      "ceiling_ft": 800,
      "hazards": [
        "RA",
        "DZ"
      ],
      "severityScore": 47,
      "metarRaw": "METAR EGPD 241420Z AUTO 12014KT 4700 RA BKN010/// OVC016/// //////TCU 05/03 Q1001 TEMPO BKN008",
      "tafRaw": "TAF EGPD 241057Z 2412/2512 11014KT 9999 BKN015 \n  TEMPO 2412/2512 12017G27KT 6000 -RADZ RA BKN010 \n  PROB40 \n  TEMPO 2412/2421 3000 RADZ +RA BKN008"
    },
    {
      "icao": "LGTS",
      "iata": "SKG",
      "name": "Thessaloniki Macedonia International Airport",
      "lat": 40.51928,
      "lon": 22.970009,
      "updatedAt": "241420Z",
      "visibility_m": 9000,
      "taf_visibility_m": 4000,
      "worst_visibility_m": 4000,
      "ceiling_ft": 3000,
      "hazards": [
        "TS",
        "BR",
        "RA"
      ],
      "severityScore": 47,
      "metarRaw": "METAR LGTS 241420Z VRB02KT 9000 FEW010 BKN030 11/06 Q1014 NOSIG",
      "tafRaw": "TAF LGTS 241100Z 2412/2512 VRB03KT 9999 BKN030 \n  PROB30 \n  TEMPO 2414/2418 5000 RA \n  PROB40 2500/2508 4000 BR SCT008 BKN025 \n  BECMG 2510/2512 14013KT"
    },
    {
      "icao": "LPPR",
      "iata": "OPO",
      "name": "Francisco de Sá Carneiro Airport",
      "lat": 41.2481002808,
      "lon": -8.68138980865,
      "updatedAt": "241430Z",
      "visibility_m": 9000,
      "taf_visibility_m": 2000,
      "worst_visibility_m": 2000,
      "ceiling_ft": 4000,
      "hazards": [
        "SHRA",
        "RA",
        "BR",
        "DZ"
      ],
      "severityScore": 46,
      "metarRaw": "METAR LPPR 241430Z 31007KT 270V340 9000 -SHRA FEW015 FEW018CB BKN040 11/08 Q1009",
      "tafRaw": "TAF LPPR 241100Z 2412/2512 17010KT 9999 SCT025 SCT045 \n  TEMPO 2412/2415 8000 SHRA SCT015 FEW020CB BKN030 \n  BECMG 2412/2414 30013KT \n  TEMPO 2414/2418 30017G27KT \n  BECMG 2418/2420 24013KT SCT008 BKN015 \n  TEMPO 2420/2502 21018G30KT 2000 RADZ BR SCT004 BKN008 \n  BECMG 2502/2504 27012KT SCT020 \n  TEMPO 2504/2512 27015G25KT 8000 SHRA SCT015 FEW020CB BKN030"
    },
    {
      "icao": "EDSB",
      "iata": "FKB",
      "name": "Karlsruhe Baden-Baden Airport",
      "lat": 48.7794,
      "lon": 8.0805,
      "updatedAt": "241420Z",
      "visibility_m": 9000,
      "taf_visibility_m": 1500,
      "worst_visibility_m": 1500,
      "ceiling_ft": 500,
      "hazards": [
        "BR"
      ],
      "severityScore": 45,
      "metarRaw": "METAR EDSB 241420Z 02010KT 9000 NSC 03/M03 Q1001",
      "tafRaw": "TAF EDSB 241100Z 2412/2512 03006KT 6000 SCT035 \n  TEMPO 2500/2512 1500 BR BKN005"
    },
    {
      "icao": "ENTC",
      "iata": "TOS",
      "name": "Tromsø Airport, Langnes",
      "lat": 69.683296,
      "lon": 18.9189,
      "updatedAt": "241420Z",
      "visibility_m": 4500,
      "taf_visibility_m": null,
      "worst_visibility_m": 4500,
      "ceiling_ft": 1200,
      "hazards": [
        "SHSN",
        "SN"
      ],
      "severityScore": 45,
      "metarRaw": "METAR ENTC 241420Z 21010KT 8000 -SHSN OVC022 M04/M06 Q1017 TEMPO 4500 -SHSN BKN012 RMK WIND 2600FT 31019KT",
      "tafRaw": null
    },
    {
      "icao": "LFOB",
      "iata": "BVA",
      "name": "Beauvais Tillé airport",
      "lat": 49.454399,
      "lon": 2.11278,
      "updatedAt": "241430Z",
      "visibility_m": 10000,
      "taf_visibility_m": 4000,
      "worst_visibility_m": 4000,
      "ceiling_ft": 400,
      "hazards": [
        "DZ"
      ],
      "severityScore": 45,
      "metarRaw": "METAR LFOB 241430Z AUTO 13012KT CAVOK 09/04 Q0997 NOSIG",
      "tafRaw": "TAF LFOB 241100Z 2412/2512 12010KT CAVOK \n  BECMG 2421/2424 BKN012 \n  TEMPO 2500/2512 OVC007 \n  PROB40 \n  TEMPO 2502/2508 4000 -DZ OVC004"
    },
    {
      "icao": "LRSB",
      "iata": "SBZ",
      "name": "Sibiu International Airport",
      "lat": 45.785841,
      "lon": 24.086666,
      "updatedAt": "241430Z",
      "visibility_m": 10000,
      "taf_visibility_m": 1500,
      "worst_visibility_m": 1500,
      "ceiling_ft": 500,
      "hazards": [
        "BR"
      ],
      "severityScore": 45,
      "metarRaw": "METAR LRSB 241430Z 25004KT CAVOK 04/01 Q1008 NOSIG",
      "tafRaw": "TAF LRSB 241100Z 2412/2512 VRB04KT CAVOK \n  BECMG 2416/2418 3000 BR BKN010 \n  TEMPO 2423/2506 1500 BR BKN005 \n  BECMG 2507/2509 CAVOK"
    },
    {
      "icao": "LPFR",
      "iata": "FAO",
      "name": "Faro - Gago Coutinho International Airport",
      "lat": 37.015909,
      "lon": -7.970939,
      "updatedAt": "241430Z",
      "visibility_m": 10000,
      "taf_visibility_m": 4000,
      "worst_visibility_m": 4000,
      "ceiling_ft": 1200,
      "hazards": [
        "BR",
        "RA",
        "DZ"
      ],
      "severityScore": 44,
      "metarRaw": "METAR LPFR 241430Z 31016KT 280V340 9999 SCT030 14/06 Q1013",
      "tafRaw": "TAF LPFR 241100Z 2412/2512 01008KT 9999 SCT020 \n  BECMG 2412/2414 30012KT \n  PROB40 \n  TEMPO 2414/2418 30017G27KT \n  BECMG 2418/2420 30005KT \n  BECMG 2503/2505 26013KT SCT015 BKN030 \n  TEMPO 2505/2512 26018G30KT 4000 -RADZ BR SCT006 BKN012"
    },
    {
      "icao": "EKBI",
      "iata": "BLL",
      "name": "Billund Airport",
      "lat": 55.740335,
      "lon": 9.157019,
      "updatedAt": "241420Z",
      "visibility_m": 10000,
      "taf_visibility_m": 4000,
      "worst_visibility_m": 4000,
      "ceiling_ft": 800,
      "hazards": [
        "SN"
      ],
      "severityScore": 43,
      "metarRaw": "METAR EKBI 241420Z AUTO 10013KT 060V130 9999 OVC011/// 00/M02 Q1009",
      "tafRaw": "TAF EKBI 241427Z 2415/2515 10010KT 9999 OVC017 \n  TEMPO 2415/2418 BKN012 \n  BECMG 2418/2420 BKN008 \n  TEMPO 2420/2509 4000 -SN BKN012 \n  TEMPO 2509/2515 BKN020"
    },
    {
      "icao": "EPRA",
      "iata": "RDO",
      "name": "Warsaw Radom Airport",
      "lat": 51.38937,
      "lon": 21.214742,
      "updatedAt": "241430Z",
      "visibility_m": 10000,
      "taf_visibility_m": 4000,
      "worst_visibility_m": 4000,
      "ceiling_ft": 1500,
      "hazards": [
        "RA",
        "SN"
      ],
      "severityScore": 42,
      "metarRaw": "METAR EPRA 241430Z 07011KT 9999 OVC015 M05/M08 Q1010",
      "tafRaw": "TAF EPRA 241430Z 2415/2424 08010KT 8000 OVC016 \n  TEMPO 2415/2421 4000 -SN BKN008 OVC012"
    },
    {
      "icao": "EPPO",
      "iata": "POZ",
      "name": "Poznań-Ławica Airport",
      "lat": 52.421598,
      "lon": 16.823359,
      "updatedAt": "241430Z",
      "visibility_m": 7000,
      "taf_visibility_m": 2000,
      "worst_visibility_m": 2000,
      "ceiling_ft": 1100,
      "hazards": [
        "BR",
        "SN"
      ],
      "severityScore": 40,
      "metarRaw": "METAR EPPO 241430Z 08009KT 7000 OVC011 M04/M07 Q1010",
      "tafRaw": "TAF EPPO 241130Z 2412/2512 08009KT 9000 OVC012 \n  TEMPO 2412/2417 BKN015 \n  BECMG 2417/2420 4000 BR BKN007 \n  TEMPO 2420/2506 2000 -SN BR BKN004 \n  BECMG 2509/2512 9000 OVC012"
    },
    {
      "icao": "LFSB",
      "iata": "BSL",
      "name": "EuroAirport Basel–Mulhouse–Freiburg",
      "lat": 47.60068,
      "lon": 7.521117,
      "updatedAt": "241430Z",
      "visibility_m": 10000,
      "taf_visibility_m": null,
      "worst_visibility_m": 10000,
      "ceiling_ft": 200,
      "hazards": [],
      "severityScore": 40,
      "metarRaw": "METAR LFSB 241430Z AUTO VRB03KT 9999 SCT016 OVC021 04/01 Q1000 BECMG OVC002",
      "tafRaw": null
    },
    {
      "icao": "LIME",
      "iata": "BGY",
      "name": "Milan Bergamo Airport / Antonio Locatelli Air Base",
      "lat": 45.670725,
      "lon": 9.709223,
      "updatedAt": "241420Z",
      "visibility_m": 4500,
      "taf_visibility_m": null,
      "worst_visibility_m": 4500,
      "ceiling_ft": 700,
      "hazards": [
        "BR"
      ],
      "severityScore": 40,
      "metarRaw": "METAR LIME 241420Z VRB02KT 4500 BR BKN007 06/05 Q1003 NOSIG",
      "tafRaw": null
    },
    {
      "icao": "GMMN",
      "iata": "CMN",
      "name": "Mohammed V International Airport",
      "lat": 33.3675,
      "lon": -7.58997,
      "updatedAt": "241434Z",
      "visibility_m": 2000,
      "taf_visibility_m": 4000,
      "worst_visibility_m": 2000,
      "ceiling_ft": 1600,
      "hazards": [
        "RA",
        "SHRA"
      ],
      "severityScore": 38,
      "metarRaw": "SPECI GMMN 241434Z 29021G33KT 2000 RA BKN020TCU FEW040CB 13/09 Q1018 BECMG 8000 -RA M0",
      "tafRaw": "TAF GMMN 241100Z 2412/2518 30018KT 9999 BKN020TCU \n  TEMPO 2412/2422 32020G36KT 4000 SHRA \n  BECMG 2420/2423 22010KT BKN016"
    },
    {
      "icao": "LIPH",
      "iata": "TSF",
      "name": "Treviso Antonio Canova Airport",
      "lat": 45.648399,
      "lon": 12.1944,
      "updatedAt": "241420Z",
      "visibility_m": 10000,
      "taf_visibility_m": 3000,
      "worst_visibility_m": 3000,
      "ceiling_ft": 600,
      "hazards": [
        "RA"
      ],
      "severityScore": 37,
      "metarRaw": "METAR LIPH 241420Z 06009KT 9999 BKN006 09/08 Q1002",
      "tafRaw": "TAF LIPH 241100Z 2412/2512 VRB05KT 7000 BKN040 \n  TEMPO 2422/2510 3000 RA BKN010"
    },
    {
      "icao": "LYPG",
      "iata": "TGD",
      "name": "Podgorica Airport / Podgorica Golubovci Airbase",
      "lat": 42.359402,
      "lon": 19.2519,
      "updatedAt": "241430Z",
      "visibility_m": 3000,
      "taf_visibility_m": 2000,
      "worst_visibility_m": 2000,
      "ceiling_ft": 4300,
      "hazards": [
        "BR",
        "RA",
        "SHRA"
      ],
      "severityScore": 36,
      "metarRaw": "METAR LYPG 241430Z 20003KT 160V240 4000 RA BR FEW005 SCT030 BKN043 10/09 Q1009 TEMPO 3000",
      "tafRaw": "TAF LYPG 241100Z 2412/2512 17005KT 8000 FEW010 BKN040 OVC070 TX11/2412Z TN07/2505Z \n  TEMPO 2412/2510 3000 RA \n  PROB40 \n  TEMPO 2413/2507 16015KT 2000 SHRA FEW010 SCT030TCU BKN040"
    },
    {
      "icao": "ENGM",
      "iata": "OSL",
      "name": "Oslo-Gardermoen International Airport",
      "lat": 60.193901,
      "lon": 11.1004,
      "updatedAt": "241420Z",
      "visibility_m": 10000,
      "taf_visibility_m": null,
      "worst_visibility_m": 10000,
      "ceiling_ft": 1400,
      "hazards": [
        "SN"
      ],
      "severityScore": 35,
      "metarRaw": "METAR ENGM 241420Z 01004KT 9999 -SN OVC014 M06/M08 Q1018 NOSIG",
      "tafRaw": null
    },
    {
      "icao": "EPLB",
      "iata": "LUZ",
      "name": "Lublin Airport",
      "lat": 51.240157,
      "lon": 22.713461,
      "updatedAt": "241430Z",
      "visibility_m": 4500,
      "taf_visibility_m": null,
      "worst_visibility_m": 4500,
      "ceiling_ft": 2100,
      "hazards": [
        "BR",
        "SN"
      ],
      "severityScore": 33,
      "metarRaw": "METAR EPLB 241430Z 06009KT 4500 -SN BR FEW010 OVC021 M05/M05 Q1011",
      "tafRaw": null
    },
    {
      "icao": "EDDH",
      "iata": "HAM",
      "name": "Hamburg Helmut Schmidt Airport",
      "lat": 53.630402,
      "lon": 9.98823,
      "updatedAt": "241420Z",
      "visibility_m": 9000,
      "taf_visibility_m": 4000,
      "worst_visibility_m": 4000,
      "ceiling_ft": 1400,
      "hazards": [
        "SN"
      ],
      "severityScore": 30,
      "metarRaw": "METAR EDDH 241420Z AUTO 09009KT 9000 OVC015 M02/M05 Q1007 TEMPO BKN014",
      "tafRaw": "TAF EDDH 241100Z 2412/2518 10011KT 9000 BKN013 OVC035 \n  TEMPO 2412/2417 SCT013 OVC035 \n  TEMPO 2419/2424 4000 -SN BKN008 \n  BECMG 2500/2503 OVC008 \n  BECMG 2509/2512 SCT008 OVC012"
    },
    {
      "icao": "ENTO",
      "iata": "TRF",
      "name": "Sandefjord Airport, Torp",
      "lat": 59.186699,
      "lon": 10.2586,
      "updatedAt": "241420Z",
      "visibility_m": 10000,
      "taf_visibility_m": 2500,
      "worst_visibility_m": 2500,
      "ceiling_ft": 1300,
      "hazards": [
        "SN"
      ],
      "severityScore": 30,
      "metarRaw": "METAR ENTO 241420Z 01006KT 9999 -SN OVC013 M04/M05 Q1017 NOSIG",
      "tafRaw": "TAF ENTO 241100Z 2412/2512 04010KT 9999 -SN OVC020 \n  TEMPO 2412/2512 2500 BKN009"
    },
    {
      "icao": "EFTU",
      "iata": "TKU",
      "name": "Turku Airport",
      "lat": 60.514099,
      "lon": 22.2628,
      "updatedAt": "241420Z",
      "visibility_m": 10000,
      "taf_visibility_m": 5000,
      "worst_visibility_m": 5000,
      "ceiling_ft": 2800,
      "hazards": [
        "SHSN",
        "SN"
      ],
      "severityScore": 28,
      "metarRaw": "METAR EFTU 241420Z AUTO 09004KT 9999 -SHSN OVC028 M11/M12 Q1025",
      "tafRaw": "TAF EFTU 241129Z 2412/2512 09005KT 9999 FEW020 \n  PROB30 \n  TEMPO 2412/2418 5000 -SN BKN014 \n  BECMG 2418/2420 BKN012 \n  TEMPO 2421/2509 SCT008 BKN015 \n  TEMPO 2509/2512 5000 -SN SCT008 BKN020"
    },
    {
      "icao": "EPSY",
      "iata": "SZY",
      "name": "Olsztyn-Mazury Airport",
      "lat": 53.481899,
      "lon": 20.9377,
      "updatedAt": "241430Z",
      "visibility_m": 10000,
      "taf_visibility_m": 4000,
      "worst_visibility_m": 4000,
      "ceiling_ft": 3900,
      "hazards": [
        "BR",
        "SN"
      ],
      "severityScore": 28,
      "metarRaw": "METAR EPSY 241430Z 08007KT 030V120 9999 OVC039 M07/M10 Q1014",
      "tafRaw": "TAF EPSY 241430Z 2415/2424 09008KT 8000 OVC040 \n  TEMPO 2415/2424 4000 BR BKN012 OVC022 \n  PROB30 \n  TEMPO 2418/2424 -SN BKN006 OVC010"
    },
    {
      "icao": "LJLJ",
      "iata": "LJU",
      "name": "Ljubljana Jože Pučnik Airport",
      "lat": 46.223701,
      "lon": 14.4576,
      "updatedAt": "241430Z",
      "visibility_m": 2000,
      "taf_visibility_m": null,
      "worst_visibility_m": 2000,
      "ceiling_ft": 3500,
      "hazards": [
        "BR",
        "RA"
      ],
      "severityScore": 27,
      "metarRaw": "METAR LJLJ 241430Z VRB01KT 2000 -RA BR SCT003 OVC035 03/02 Q1004 NOSIG",
      "tafRaw": null
    },
    {
      "icao": "LIRZ",
      "iata": "PEG",
      "name": "Perugia San Francesco d'Assisi – Umbria International Airport",
      "lat": 43.095901,
      "lon": 12.5132,
      "updatedAt": "241420Z",
      "visibility_m": 10000,
      "taf_visibility_m": 4000,
      "worst_visibility_m": 4000,
      "ceiling_ft": 3000,
      "hazards": [
        "SHRA",
        "RA"
      ],
      "severityScore": 26,
      "metarRaw": "METAR LIRZ 241420Z AUTO 20008KT 9999 FEW059/// 14/08 Q1002",
      "tafRaw": "TAF LIRZ 241100Z 2412/2512 VRB05KT 9999 BKN030 \n  BECMG 2412/2414 17013KT \n  BECMG 2418/2420 VRB05KT \n  TEMPO 2420/2508 4000 SHRA \n  BECMG 2509/2511 17013KT"
    },
    {
      "icao": "OMAA",
      "iata": "AUH",
      "name": "Zayed International Airport",
      "lat": 24.440966,
      "lon": 54.649237,
      "updatedAt": "241430Z",
      "visibility_m": 10000,
      "taf_visibility_m": 4000,
      "worst_visibility_m": 4000,
      "ceiling_ft": null,
      "hazards": [
        "SHRA",
        "RA"
      ],
      "severityScore": 26,
      "metarRaw": "METAR OMAA 241430Z 34009KT CAVOK 20/09 Q1017 NOSIG",
      "tafRaw": "TAF OMAA 241100Z 2412/2518 26005KT 8000 NSC \n  BECMG 2412/2414 32010KT \n  BECMG 2416/2418 06007KT \n  BECMG 2502/2504 15012KT \n  PROB30 \n  TEMPO 2509/2514 19017G27KT 4000 SHRA BLDU FEW035TCU \n  BECMG 2514/2516 VRB02KT"
    },
    {
      "icao": "OMDB",
      "iata": "DXB",
      "name": "Dubai International Airport",
      "lat": 25.2527999878,
      "lon": 55.3643989563,
      "updatedAt": "241430Z",
      "visibility_m": 10000,
      "taf_visibility_m": 3000,
      "worst_visibility_m": 3000,
      "ceiling_ft": null,
      "hazards": [
        "SHRA",
        "RA"
      ],
      "severityScore": 26,
      "metarRaw": "METAR OMDB 241430Z 33008KT CAVOK 21/10 Q1018 NOSIG",
      "tafRaw": "TAF OMDB 241100Z 2412/2518 30010KT 8000 NSC \n  BECMG 2415/2417 09005KT \n  BECMG 2502/2504 16012KT \n  PROB30 2503/2510 4000 DU \n  BECMG 2511/2513 35010KT \n  PROB30 \n  TEMPO 2514/2518 VRB20G30KT 3000 SHRA BLDU SCT025TCU \n  BECMG 2515/2517 06007KT"
    },
    {
      "icao": "GCTS",
      "iata": "TFS",
      "name": "Tenerife Sur Airport",
      "lat": 28.0445,
      "lon": -16.5725,
      "updatedAt": "241430Z",
      "visibility_m": 10000,
      "taf_visibility_m": 10000,
      "worst_visibility_m": 10000,
      "ceiling_ft": null,
      "hazards": [
        "TS"
      ],
      "severityScore": 25,
      "metarRaw": "METAR GCTS 241430Z 11015KT 080V140 9999 FEW040 21/09 Q1026 NOSIG",
      "tafRaw": "TAF GCTS 241400Z 2415/2515 07015KT 9999 FEW035 TX22/2514Z TN14/2506Z \n  PROB30 \n  TEMPO 2415/2418 08015G25KT \n  BECMG 2421/2423 01007KT \n  BECMG 2511/2513 09010KT"
    },
    {
      "icao": "EDDN",
      "iata": "NUE",
      "name": "Nuremberg Airport",
      "lat": 49.498699,
      "lon": 11.078056,
      "updatedAt": "241420Z",
      "visibility_m": 10000,
      "taf_visibility_m": 9000,
      "worst_visibility_m": 9000,
      "ceiling_ft": 800,
      "hazards": [],
      "severityScore": 25,
      "metarRaw": "METAR EDDN 241420Z AUTO 11009KT 080V140 9999 FEW017 M02/M07 Q1003 NOSIG",
      "tafRaw": "TAF EDDN 241100Z 2412/2512 12009KT 9000 SCT015 \n  TEMPO 2416/2504 BKN010 \n  BECMG 2419/2421 09004KT \n  BECMG 2503/2505 BKN010 \n  PROB30 \n  TEMPO 2503/2510 BKN008"
    },
    {
      "icao": "LFLS",
      "iata": "GNB",
      "name": "Grenoble Alpes Isère Airport",
      "lat": 45.3629,
      "lon": 5.32937,
      "updatedAt": "241430Z",
      "visibility_m": 10000,
      "taf_visibility_m": 10000,
      "worst_visibility_m": 10000,
      "ceiling_ft": 800,
      "hazards": [],
      "severityScore": 25,
      "metarRaw": "METAR LFLS 241430Z AUTO 07005KT CAVOK 06/02 Q0998 NOSIG",
      "tafRaw": "TAF LFLS 240800Z 2409/2509 10005KT CAVOK \n  TEMPO 2412/2503 VRB02KT \n  BECMG 2501/2504 BKN040 \n  PROB40 \n  TEMPO 2504/2509 BKN008"
    },
    {
      "icao": "LEZL",
      "iata": "SVQ",
      "name": "Sevilla Airport",
      "lat": 37.417999,
      "lon": -5.89311,
      "updatedAt": "241430Z",
      "visibility_m": 10000,
      "taf_visibility_m": 4000,
      "worst_visibility_m": 4000,
      "ceiling_ft": 1200,
      "hazards": [
        "RA"
      ],
      "severityScore": 24,
      "metarRaw": "METAR LEZL 241430Z 28009KT 9999 SCT045 13/05 Q1011 NOSIG",
      "tafRaw": "TAF LEZL 241400Z 2415/2515 28005KT CAVOK TX15/2415Z TN09/2507Z \n  PROB40 \n  TEMPO 2506/2515 4000 RA BKN012"
    },
    {
      "icao": "LIPQ",
      "iata": "TRS",
      "name": "Trieste–Friuli Venezia Giulia Airport",
      "lat": 45.827499,
      "lon": 13.4722,
      "updatedAt": "241420Z",
      "visibility_m": 10000,
      "taf_visibility_m": 4000,
      "worst_visibility_m": 4000,
      "ceiling_ft": 1500,
      "hazards": [
        "RA"
      ],
      "severityScore": 24,
      "metarRaw": "METAR LIPQ 241420Z AUTO 07003KT 9999 OVC027/// 10/09 Q1002",
      "tafRaw": "TAF LIPQ 241100Z 2412/2512 10006KT 9999 BKN015 \n  TEMPO 2412/2414 4000 RA \n  TEMPO 2500/2512 4000 RA \n  BECMG 2510/2512 20010KT"
    },
    {
      "icao": "LIPR",
      "iata": "RMI",
      "name": "Federico Fellini International Airport",
      "lat": 44.020024,
      "lon": 12.612198,
      "updatedAt": "241420Z",
      "visibility_m": 10000,
      "taf_visibility_m": 2000,
      "worst_visibility_m": 2000,
      "ceiling_ft": 1000,
      "hazards": [
        "RA"
      ],
      "severityScore": 24,
      "metarRaw": "METAR LIPR 241420Z 31008KT 9999 BKN010 08/06 Q1003",
      "tafRaw": "TAF LIPR 241100Z 2412/2512 30010KT 6000 BKN010 \n  BECMG 2415/2417 VRB05KT \n  TEMPO 2419/2507 2000 RA BKN004 \n  BECMG 2507/2509 19010KT FEW030"
    },
    {
      "icao": "EDDB",
      "iata": "BER",
      "name": "Berlin Brandenburg Willy Brandt Airport",
      "lat": 52.361738,
      "lon": 13.502341,
      "updatedAt": "241420Z",
      "visibility_m": 5000,
      "taf_visibility_m": 4000,
      "worst_visibility_m": 4000,
      "ceiling_ft": 1100,
      "hazards": [
        "BR"
      ],
      "severityScore": 22,
      "metarRaw": "METAR EDDB 241420Z AUTO 08006KT 5000 BR OVC011 M01/M04 Q1008 NOSIG",
      "tafRaw": "TAF EDDB 241100Z 2412/2512 08009KT 4000 BR OVC009 \n  TEMPO 2412/2421 6000 SCT009 OVC015 \n  BECMG 2509/2512 6000 SCT009 BKN015"
    },
    {
      "icao": "LQTZ",
      "iata": "TZL",
      "name": "Tuzla International Airport",
      "lat": 44.459858,
      "lon": 18.723627,
      "updatedAt": "241430Z",
      "visibility_m": 10000,
      "taf_visibility_m": 2000,
      "worst_visibility_m": 2000,
      "ceiling_ft": null,
      "hazards": [
        "BR",
        "RA"
      ],
      "severityScore": 22,
      "metarRaw": "METAR LQTZ 241430Z 11008KT CAVOK 08/04 Q1004",
      "tafRaw": "TAF LQTZ 241100Z 2412/2512 15006KT 6000 NSC TX13/2512Z TN03/2502Z \n  TEMPO 2412/2414 4000 BR \n  PROB30 \n  TEMPO 2415/2419 5000 RA \n  PROB40 \n  TEMPO 2420/2504 2000 BR \n  PROB40 \n  TEMPO 2504/2508 4000 -RA BR \n  TEMPO 2508/2512 09012KT"
    },
    {
      "icao": "LTAC",
      "iata": "ESB",
      "name": "Esenboğa International Airport",
      "lat": 40.128101,
      "lon": 32.995098,
      "updatedAt": "241420Z",
      "visibility_m": 10000,
      "taf_visibility_m": 2000,
      "worst_visibility_m": 2000,
      "ceiling_ft": 8000,
      "hazards": [
        "BR",
        "RA"
      ],
      "severityScore": 22,
      "metarRaw": "METAR LTAC 241420Z 03003KT 9999 SCT030 BKN080 07/04 Q1015 NOSIG RMK RWY21C VRB02KT RWY03L 36002KT RWY21R 35003KT 330V030 RWY03R 05002KT RWY21L 01002KT",
      "tafRaw": "TAF LTAC 241040Z 2412/2512 VRB02KT 9999 SCT040 BKN100 \n  TEMPO 2412/2416 2000 BR \n  TEMPO 2417/2421 2000 -RA BR SCT010 BKN030 BKN080 \n  TEMPO 2501/2505 2000 -RA BR SCT010 BKN030 BKN080"
    },
    {
      "icao": "UBBB",
      "iata": "GYD",
      "name": "Heydar Aliyev International Airport",
      "lat": 40.467498779296875,
      "lon": 50.04669952392578,
      "updatedAt": "241430Z",
      "visibility_m": 10000,
      "taf_visibility_m": 3000,
      "worst_visibility_m": 3000,
      "ceiling_ft": 2100,
      "hazards": [
        "BR",
        "RA"
      ],
      "severityScore": 22,
      "metarRaw": "METAR UBBB 241430Z 09004KT 9999 BKN021 05/02 Q1017 NOSIG",
      "tafRaw": "TAF UBBB 241055Z 2412/2512 36005KT 9999 SCT012 BKN025 TX07/2412Z TN02/2502Z \n  BECMG 2415/2417 VRB04KT \n  TEMPO 2417/2423 15005KT 5000 BR SCT008 \n  BECMG 2423/2424 32006KT \n  TEMPO 2500/2506 3000 -RA BR BKN005 OVC017 \n  TEMPO 2506/2512 36010KT"
    },
    {
      "icao": "UGKO",
      "iata": "KUT",
      "name": "David the Builder Kutaisi International Airport",
      "lat": 42.177448,
      "lon": 42.485353,
      "updatedAt": "241430Z",
      "visibility_m": 9000,
      "taf_visibility_m": 3000,
      "worst_visibility_m": 3000,
      "ceiling_ft": 3300,
      "hazards": [
        "RA",
        "BR"
      ],
      "severityScore": 22,
      "metarRaw": "METAR UGKO 241430Z 04002KT 9000 -RA SCT015 OVC033 07/05 Q1016 NOSIG",
      "tafRaw": "TAF UGKO 241100Z 2412/2512 09007KT 9999 BKN080 TX11/2412Z TN05/2504Z \n  TEMPO 2412/2416 5000 RA BR BKN025 OVC050 \n  TEMPO 2418/2422 4000 RA BR BKN020 OVC040 \n  TEMPO 2502/2508 3000 RA BR BKN017 OVC030"
    },
    {
      "icao": "LRCL",
      "iata": "CLJ",
      "name": "Cluj Avram Iancu International Airport",
      "lat": 46.787425,
      "lon": 23.684292,
      "updatedAt": "241430Z",
      "visibility_m": 7000,
      "taf_visibility_m": 1500,
      "worst_visibility_m": 1500,
      "ceiling_ft": null,
      "hazards": [
        "BR"
      ],
      "severityScore": 20,
      "metarRaw": "METAR LRCL 241430Z 07006KT 7000 SCT070 03/00 Q1009",
      "tafRaw": "TAF LRCL 241400Z 2415/2424 07006KT 8000 SCT050 \n  BECMG 2417/2419 5000 BR \n  BECMG 2419/2421 1500 BR"
    },
    {
      "icao": "ESGG",
      "iata": "GOT",
      "name": "Göteborg Landvetter Airport",
      "lat": 57.6628,
      "lon": 12.2798,
      "updatedAt": "241420Z",
      "visibility_m": 10000,
      "taf_visibility_m": 10000,
      "worst_visibility_m": 10000,
      "ceiling_ft": 4900,
      "hazards": [
        "SN"
      ],
      "severityScore": 18,
      "metarRaw": "METAR ESGG 241420Z 10010KT 9999 -SN FEW015 BKN049 M02/M05 Q1015",
      "tafRaw": "TAF ESGG 241430Z 2415/2515 08008KT 9999 -SN SCT015 OVC030"
    },
    {
      "icao": "ESKN",
      "iata": "NYO",
      "name": "Stockholm Skavsta Airport",
      "lat": 58.789656,
      "lon": 16.911479,
      "updatedAt": "241420Z",
      "visibility_m": 10000,
      "taf_visibility_m": 3500,
      "worst_visibility_m": 3500,
      "ceiling_ft": 2500,
      "hazards": [
        "SN"
      ],
      "severityScore": 18,
      "metarRaw": "METAR ESKN 241420Z 11008KT 9999 BKN025 M02/M06 Q1020",
      "tafRaw": "TAF ESKN 241430Z 2415/2515 10008KT 9999 BKN025 \n  PROB40 2415/2418 3500 -SN \n  TEMPO 2503/2515 3500 -SN BKN012"
    },
    {
      "icao": "ESSA",
      "iata": "ARN",
      "name": "Stockholm-Arlanda Airport",
      "lat": 59.64849,
      "lon": 17.928829,
      "updatedAt": "241420Z",
      "visibility_m": 3200,
      "taf_visibility_m": 2500,
      "worst_visibility_m": 2500,
      "ceiling_ft": 3300,
      "hazards": [
        "SN"
      ],
      "severityScore": 18,
      "metarRaw": "METAR ESSA 241420Z 10005KT 3200 -SN FEW019 SCT028 BKN033 M04/M06 Q1022 NOSIG",
      "tafRaw": "TAF ESSA 241430Z 2415/2515 10007KT 9000 -SN FEW012 BKN030 \n  TEMPO 2415/2515 2500 SG BKN013"
    },
    {
      "icao": "LIPX",
      "iata": "VRN",
      "name": "Verona Villafranca Valerio Catullo Airport",
      "lat": 45.394955,
      "lon": 10.887303,
      "updatedAt": "241420Z",
      "visibility_m": 8000,
      "taf_visibility_m": null,
      "worst_visibility_m": 8000,
      "ceiling_ft": 4000,
      "hazards": [
        "RA"
      ],
      "severityScore": 17,
      "metarRaw": "METAR LIPX 241420Z 24007KT 8000 -RA FEW007 SCT015 BKN040 08/06 Q1003",
      "tafRaw": null
    },
    {
      "icao": "GMMX",
      "iata": "RAK",
      "name": "Marrakesh Menara Airport",
      "lat": 31.604807,
      "lon": -8.035788,
      "updatedAt": "241430Z",
      "visibility_m": 3000,
      "taf_visibility_m": 4000,
      "worst_visibility_m": 3000,
      "ceiling_ft": 2000,
      "hazards": [
        "RA"
      ],
      "severityScore": 12,
      "metarRaw": "METAR GMMX 241430Z 30010KT 260V340 8000 SCT010 SCT020 12/07 Q1021 TEMPO 3000 RA",
      "tafRaw": "TAF GMMX 241100Z 2412/2518 24010KT 8000 SCT023 \n  TEMPO 2413/2420 32018KT 4000 RA SCT010 BKN020"
    },
    {
      "icao": "EBCI",
      "iata": "CRL",
      "name": "Brussels South Charleroi Airport",
      "lat": 50.461963,
      "lon": 4.459562,
      "updatedAt": "241420Z",
      "visibility_m": 10000,
      "taf_visibility_m": 10000,
      "worst_visibility_m": 10000,
      "ceiling_ft": 1200,
      "hazards": [],
      "severityScore": 12,
      "metarRaw": "METAR EBCI 241420Z 13006KT CAVOK 07/02 Q0999 NOSIG",
      "tafRaw": "TAF EBCI 241110Z 2412/2518 12006KT 9999 FEW020 \n  PROB30 \n  TEMPO 2509/2513 BKN012"
    },
    {
      "icao": "EGGP",
      "iata": "LPL",
      "name": "Liverpool John Lennon Airport",
      "lat": 53.334863,
      "lon": -2.849637,
      "updatedAt": "241420Z",
      "visibility_m": 10000,
      "taf_visibility_m": 4000,
      "worst_visibility_m": 4000,
      "ceiling_ft": 3100,
      "hazards": [
        "RA"
      ],
      "severityScore": 12,
      "metarRaw": "METAR EGGP 241420Z 11016KT 9999 BKN031 08/03 Q0990",
      "tafRaw": "TAF EGGP 241102Z 2412/2512 11020G32KT 9999 BKN020 \n  TEMPO 2417/2502 7000 RA \n  PROB30 \n  TEMPO 2420/2502 4000 +RA BKN014 \n  BECMG 2501/2504 10010KT \n  PROB40 \n  TEMPO 2502/2512 8000 -RA BKN014"
    },
    {
      "icao": "EGPF",
      "iata": "GLA",
      "name": "Glasgow Airport",
      "lat": 55.871899,
      "lon": -4.43306,
      "updatedAt": "241420Z",
      "visibility_m": 9000,
      "taf_visibility_m": 6000,
      "worst_visibility_m": 6000,
      "ceiling_ft": 3000,
      "hazards": [
        "RA"
      ],
      "severityScore": 12,
      "metarRaw": "METAR EGPF 241420Z AUTO 07015KT 9000 -RA SCT025 BKN030 BKN039 07/04 Q0995",
      "tafRaw": "TAF EGPF 241103Z 2412/2512 09012KT 9999 SCT020 BKN040 \n  PROB30 \n  TEMPO 2412/2502 8000 -RA BKN014 \n  PROB30 \n  TEMPO 2412/2421 10015G25KT \n  BECMG 2421/2424 09018G28KT \n  TEMPO 2502/2510 6000 RA \n  BECMG 2505/2508 10010KT \n  PROB40 \n  TEMPO 2510/2512 8000 -RA"
    },
    {
      "icao": "EKCH",
      "iata": "CPH",
      "name": "Copenhagen Kastrup Airport",
      "lat": 55.617900848389,
      "lon": 12.656000137329,
      "updatedAt": "241420Z",
      "visibility_m": 10000,
      "taf_visibility_m": 10000,
      "worst_visibility_m": 10000,
      "ceiling_ft": 1200,
      "hazards": [],
      "severityScore": 12,
      "metarRaw": "METAR EKCH 241420Z AUTO 10012KT 9999 OVC017/// 01/M03 Q1012 NOSIG",
      "tafRaw": "TAF EKCH 241427Z 2415/2515 09012KT 9999 BKN025 \n  TEMPO 2415/2502 BKN012 \n  BECMG 2502/2505 BKN012 \n  TEMPO 2506/2515 BKN020"
    },
    {
      "icao": "EPSC",
      "iata": "SZZ",
      "name": "Solidarity Szczecin–Goleniów Airport",
      "lat": 53.584702,
      "lon": 14.9022,
      "updatedAt": "241430Z",
      "visibility_m": 9000,
      "taf_visibility_m": 8000,
      "worst_visibility_m": 8000,
      "ceiling_ft": 1100,
      "hazards": [],
      "severityScore": 12,
      "metarRaw": "METAR EPSC 241430Z 09007KT 050V110 9000 OVC011 M03/M06 Q1010",
      "tafRaw": "TAF EPSC 241130Z 2412/2512 08010KT 8000 OVC011 \n  PROB40 \n  TEMPO 2412/2417 BKN009 \n  TEMPO 2417/2512 BKN007"
    },
    {
      "icao": "ESMS",
      "iata": "MMX",
      "name": "Malmö Sturup Airport",
      "lat": 55.535564,
      "lon": 13.376327,
      "updatedAt": "241420Z",
      "visibility_m": 8000,
      "taf_visibility_m": 10000,
      "worst_visibility_m": 8000,
      "ceiling_ft": 1300,
      "hazards": [],
      "severityScore": 12,
      "metarRaw": "METAR ESMS 241420Z 09014KT 8000 BKN013 OVC016 M00/M03 Q1012",
      "tafRaw": "TAF ESMS 241427Z 2415/2515 09012KT 9999 BKN012 \n  TEMPO 2415/2503 BKN020 \n  TEMPO 2503/2515 BKN007"
    },
    {
      "icao": "EYPA",
      "iata": "PLQ",
      "name": "Palanga International Airport",
      "lat": 55.973202,
      "lon": 21.093901,
      "updatedAt": "241420Z",
      "visibility_m": 10000,
      "taf_visibility_m": 9000,
      "worst_visibility_m": 9000,
      "ceiling_ft": 1500,
      "hazards": [],
      "severityScore": 12,
      "metarRaw": "METAR EYPA 241420Z 09008KT CAVOK M09/M14 Q1019",
      "tafRaw": "TAF EYPA 240500Z 2406/2506 09012KT 9000 SCT030 \n  TEMPO 2410/2418 BKN015"
    },
    {
      "icao": "LATI",
      "iata": "TIA",
      "name": "Tirana International Airport Mother Teresa",
      "lat": 41.4147,
      "lon": 19.7206,
      "updatedAt": "241420Z",
      "visibility_m": 10000,
      "taf_visibility_m": 10000,
      "worst_visibility_m": 10000,
      "ceiling_ft": 4300,
      "hazards": [
        "RA"
      ],
      "severityScore": 12,
      "metarRaw": "METAR LATI 241420Z 15003KT 9999 BKN043 OVC055 11/09 Q1010 NOSIG",
      "tafRaw": "TAF LATI 241100Z 2412/2512 16012KT 9999 SCT040 BKN080 TX15/2412Z TN07/2505Z \n  TEMPO 2412/2418 RA BKN025 \n  TEMPO 2419/2505 VRB05KT"
    },
    {
      "icao": "LEMG",
      "iata": "AGP",
      "name": "Málaga-Costa del Sol Airport",
      "lat": 36.6749,
      "lon": -4.49911,
      "updatedAt": "241430Z",
      "visibility_m": 10000,
      "taf_visibility_m": 10000,
      "worst_visibility_m": 10000,
      "ceiling_ft": null,
      "hazards": [
        "RA"
      ],
      "severityScore": 12,
      "metarRaw": "METAR LEMG 241430Z 32013KT 9999 SCT050 12/02 Q1010 NOSIG",
      "tafRaw": "TAF LEMG 241100Z 2412/2512 31012KT 9999 SCT050 TX14/2414Z TN10/2507Z \n  PROB40 \n  TEMPO 2415/2417 31015G25KT \n  BECMG 2504/2506 VRB02KT \n  PROB30 \n  TEMPO 2506/2512 RA"
    },
    {
      "icao": "LGAV",
      "iata": "ATH",
      "name": "Athens Eleftherios Venizelos International Airport",
      "lat": 37.936401,
      "lon": 23.9445,
      "updatedAt": "241420Z",
      "visibility_m": 10000,
      "taf_visibility_m": 5000,
      "worst_visibility_m": 5000,
      "ceiling_ft": 2000,
      "hazards": [
        "RA"
      ],
      "severityScore": 12,
      "metarRaw": "METAR LGAV 241420Z 13007KT 9999 SCT020 15/10 Q1014 NOSIG",
      "tafRaw": "TAF LGAV 241100Z 2412/2512 VRB05KT 9999 SCT020 BKN060 \n  TEMPO 2500/2508 SCT015 BKN020 \n  BECMG 2418/2420 20012KT \n  TEMPO 2500/2510 19010G20KT \n  BECMG 2510/2512 17016KT \n  PROB30 \n  TEMPO 2508/2512 5000 RA SCT018 FEW020TCU BKN025"
    },
    {
      "icao": "LIBD",
      "iata": "BRI",
      "name": "Bari Karol Wojtyła International Airport",
      "lat": 41.138901,
      "lon": 16.760599,
      "updatedAt": "241420Z",
      "visibility_m": 10000,
      "taf_visibility_m": 4000,
      "worst_visibility_m": 4000,
      "ceiling_ft": null,
      "hazards": [
        "RA"
      ],
      "severityScore": 12,
      "metarRaw": "METAR LIBD 241420Z 18006KT 160V220 CAVOK 17/09 Q1005",
      "tafRaw": "TAF LIBD 241100Z 2412/2512 16010KT 9999 SCT030 \n  TEMPO 2506/2512 16015G25KT 4000 RA"
    },
    {
      "icao": "LIBP",
      "iata": "PSR",
      "name": "Abruzzo Airport",
      "lat": 42.431079,
      "lon": 14.182981,
      "updatedAt": "241420Z",
      "visibility_m": 10000,
      "taf_visibility_m": 4000,
      "worst_visibility_m": 4000,
      "ceiling_ft": null,
      "hazards": [
        "RA"
      ],
      "severityScore": 12,
      "metarRaw": "METAR LIBP 241420Z AUTO 07007KT 9999 FEW077/// 13/09 Q1002",
      "tafRaw": "TAF LIBP 241100Z 2412/2512 VRB05KT 9999 SCT040 \n  TEMPO 2500/2508 4000 RA"
    },
    {
      "icao": "LICA",
      "iata": "SUF",
      "name": "Lamezia Terme Sant'Eufemia International Airport",
      "lat": 38.906214,
      "lon": 16.246007,
      "updatedAt": "241420Z",
      "visibility_m": 10000,
      "taf_visibility_m": 10000,
      "worst_visibility_m": 10000,
      "ceiling_ft": null,
      "hazards": [
        "RA"
      ],
      "severityScore": 12,
      "metarRaw": "METAR LICA 241420Z AUTO 09007KT 9999 NCD 19/10 Q1007",
      "tafRaw": "TAF LICA 241100Z 2412/2512 07010KT 9999 SCT020 \n  BECMG 2420/2422 07022KT \n  TEMPO 2504/2512 RA \n  BECMG 2508/2510 27012KT"
    },
    {
      "icao": "LLBG",
      "iata": "TLV",
      "name": "Ben Gurion International Airport",
      "lat": 32.011398,
      "lon": 34.8867,
      "updatedAt": "241420Z",
      "visibility_m": 9000,
      "taf_visibility_m": 8000,
      "worst_visibility_m": 8000,
      "ceiling_ft": 3500,
      "hazards": [
        "RA"
      ],
      "severityScore": 12,
      "metarRaw": "METAR LLBG 241420Z 25006KT 9000 NSC 18/08 Q1018 NOSIG",
      "tafRaw": "TAF LLBG 241108Z 2412/2512 26012KT 8000 FEW045 \n  PROB40 \n  TEMPO 2412/2415 -RA BKN035 \n  BECMG 2415/2417 VRB04KT CAVOK \n  TEMPO 2417/2508 14005KT \n  PROB40 \n  TEMPO 2510/2512 31008KT TX19/2412Z TN07/2504Z"
    },
    {
      "icao": "LWOH",
      "iata": "OHD",
      "name": "Ohrid St. Paul the Apostle Airport",
      "lat": 41.18,
      "lon": 20.7423,
      "updatedAt": "241420Z",
      "visibility_m": 10000,
      "taf_visibility_m": 10000,
      "worst_visibility_m": 10000,
      "ceiling_ft": 4000,
      "hazards": [
        "RA"
      ],
      "severityScore": 12,
      "metarRaw": "METAR LWOH 241420Z 00000KT 9999 -RA FEW020 OVC040 07/05 Q1011",
      "tafRaw": "TAF LWOH 241120Z 2412/2512 18006KT 9999 FEW020 BKN040 \n  PROB40 \n  TEMPO 2415/2506 -RA SCT015 OVC035"
    },
    {
      "icao": "ENBR",
      "iata": "BGO",
      "name": "Bergen Airport, Flesland",
      "lat": 60.2934,
      "lon": 5.21814,
      "updatedAt": "241420Z",
      "visibility_m": 10000,
      "taf_visibility_m": 10000,
      "worst_visibility_m": 10000,
      "ceiling_ft": null,
      "hazards": [
        "BR"
      ],
      "severityScore": 10,
      "metarRaw": "METAR ENBR 241420Z 16002KT CAVOK 00/M10 Q1014 NOSIG RMK WIND 1200FT 13004KT",
      "tafRaw": "TAF ENBR 241100Z 2412/2512 08003KT 9999 FEW040"
    },
    {
      "icao": "EPGD",
      "iata": "GDN",
      "name": "Gdańsk Lech Wałęsa Airport",
      "lat": 54.377602,
      "lon": 18.4662,
      "updatedAt": "241430Z",
      "visibility_m": 10000,
      "taf_visibility_m": 4000,
      "worst_visibility_m": 4000,
      "ceiling_ft": 4500,
      "hazards": [
        "BR"
      ],
      "severityScore": 10,
      "metarRaw": "METAR EPGD 241430Z 08009KT 9999 BKN045 M06/M08 Q1013",
      "tafRaw": "TAF EPGD 241130Z 2412/2512 09010KT 9999 BKN035 \n  PROB40 \n  TEMPO 2412/2419 SCT009 BKN013 \n  BECMG 2419/2422 BKN007 \n  TEMPO 2419/2512 4000 -SG BR BKN004"
    },
    {
      "icao": "LIBR",
      "iata": "BDS",
      "name": "Brindisi Airport",
      "lat": 40.6576,
      "lon": 17.947001,
      "updatedAt": "241420Z",
      "visibility_m": 10000,
      "taf_visibility_m": 10000,
      "worst_visibility_m": 10000,
      "ceiling_ft": null,
      "hazards": [
        "BR"
      ],
      "severityScore": 10,
      "metarRaw": "METAR LIBR 241420Z 20012KT 9999 FEW020 15/11 Q1007",
      "tafRaw": "TAF LIBR 241100Z 2412/2512 17013KT 9999 SCT020 \n  BECMG 2502/2504 15018G28KT \n  BECMG 2508/2510 15024G38KT"
    },
    {
      "icao": "LRBV",
      "iata": "GHV",
      "name": "Brașov-Ghimbav International Airport",
      "lat": 45.70558,
      "lon": 25.522871,
      "updatedAt": "241430Z",
      "visibility_m": 10000,
      "taf_visibility_m": 5000,
      "worst_visibility_m": 5000,
      "ceiling_ft": null,
      "hazards": [
        "BR"
      ],
      "severityScore": 10,
      "metarRaw": "METAR LRBV 241430Z 11004KT CAVOK 05/01 Q1009",
      "tafRaw": "TAF LRBV 241400Z 2415/2424 VRB04KT CAVOK \n  BECMG 2419/2421 5000 BR"
    },
    {
      "icao": "LRTR",
      "iata": "TSR",
      "name": "Timişoara Traian Vuia Airport",
      "lat": 45.809898,
      "lon": 21.3379,
      "updatedAt": "241430Z",
      "visibility_m": 10000,
      "taf_visibility_m": 5000,
      "worst_visibility_m": 5000,
      "ceiling_ft": null,
      "hazards": [
        "BR"
      ],
      "severityScore": 10,
      "metarRaw": "METAR LRTR 241430Z 17009KT CAVOK 08/01 Q1007",
      "tafRaw": "TAF LRTR 241100Z 2412/2512 12008KT CAVOK \n  PROB30 \n  TEMPO 2500/2506 5000 BR"
    },
    {
      "icao": "LWSK",
      "iata": "SKP",
      "name": "Skopje International Airport",
      "lat": 41.958087,
      "lon": 21.622581,
      "updatedAt": "241420Z",
      "visibility_m": 5000,
      "taf_visibility_m": 3000,
      "worst_visibility_m": 3000,
      "ceiling_ft": 2000,
      "hazards": [
        "BR"
      ],
      "severityScore": 10,
      "metarRaw": "METAR LWSK 241420Z VRB01KT 5000 BR FEW004 OVC020 05/04 Q1013 NOSIG",
      "tafRaw": "TAF LWSK 241120Z 2412/2512 VRB02KT 3000 BR SCT004 OVC015 \n  BECMG 2412/2414 14006KT 5000 BR SCT015 BKN030 \n  BECMG 2419/2421 3000 BR BKN010 OVC030"
    },
    {
      "icao": "EYKA",
      "iata": "KUN",
      "name": "Kaunas International Airport",
      "lat": 54.963965,
      "lon": 24.08582,
      "updatedAt": "241420Z",
      "visibility_m": 10000,
      "taf_visibility_m": null,
      "worst_visibility_m": 10000,
      "ceiling_ft": 3600,
      "hazards": [],
      "severityScore": 5,
      "metarRaw": "METAR EYKA 241420Z 08011KT 9999 OVC036 M09/M13 Q1019",
      "tafRaw": null
    },
    {
      "icao": "LCLK",
      "iata": "LCA",
      "name": "Larnaca International Airport",
      "lat": 34.875099,
      "lon": 33.624901,
      "updatedAt": "241430Z",
      "visibility_m": 10000,
      "taf_visibility_m": null,
      "worst_visibility_m": 10000,
      "ceiling_ft": null,
      "hazards": [],
      "severityScore": 5,
      "metarRaw": "METAR LCLK 241430Z 01011KT 9999 SCT011 FEW025TCU SCT060 13/11 Q1017 NOSIG",
      "tafRaw": null
    },
    {
      "icao": "LEBB",
      "iata": "BIO",
      "name": "Bilbao Airport",
      "lat": 43.301102,
      "lon": -2.91061,
      "updatedAt": "241430Z",
      "visibility_m": 10000,
      "taf_visibility_m": null,
      "worst_visibility_m": 10000,
      "ceiling_ft": 6000,
      "hazards": [],
      "severityScore": 5,
      "metarRaw": "METAR LEBB 241430Z 28009KT 240V310 9999 BKN060 12/02 Q1000 NOSIG",
      "tafRaw": null
    },
    {
      "icao": "LECH",
      "iata": "CDT",
      "name": "Castellón-Costa Azahar Airport",
      "lat": 40.213889,
      "lon": 0.073333,
      "updatedAt": "241430Z",
      "visibility_m": 10000,
      "taf_visibility_m": null,
      "worst_visibility_m": 10000,
      "ceiling_ft": null,
      "hazards": [],
      "severityScore": 5,
      "metarRaw": "METAR LECH 241430Z AUTO 28010G20KT 240V330 CAVOK 10/M05 Q0999",
      "tafRaw": null
    },
    {
      "icao": "LEVC",
      "iata": "VLC",
      "name": "Valencia Airport",
      "lat": 39.4893,
      "lon": -0.481625,
      "updatedAt": "241430Z",
      "visibility_m": 10000,
      "taf_visibility_m": null,
      "worst_visibility_m": 10000,
      "ceiling_ft": null,
      "hazards": [],
      "severityScore": 5,
      "metarRaw": "METAR LEVC 241430Z 28024KT 9999 FEW056 12/M00 Q1002 NOSIG",
      "tafRaw": null
    },
    {
      "icao": "LIMF",
      "iata": "TRN",
      "name": "Turin Airport",
      "lat": 45.200802,
      "lon": 7.64963,
      "updatedAt": "241420Z",
      "visibility_m": 7000,
      "taf_visibility_m": null,
      "worst_visibility_m": 7000,
      "ceiling_ft": 3000,
      "hazards": [],
      "severityScore": 5,
      "metarRaw": "METAR LIMF 241420Z 14002KT 7000 BKN030 BKN050 06/02 Q1002",
      "tafRaw": null
    },
    {
      "icao": "LIMJ",
      "iata": "GOA",
      "name": "Genoa Cristoforo Colombo Airport",
      "lat": 44.412039,
      "lon": 8.840732,
      "updatedAt": "241420Z",
      "visibility_m": 10000,
      "taf_visibility_m": null,
      "worst_visibility_m": 10000,
      "ceiling_ft": null,
      "hazards": [],
      "severityScore": 5,
      "metarRaw": "METAR LIMJ 241420Z 03015KT 9999 SCT035 07/02 Q1000",
      "tafRaw": null
    },
    {
      "icao": "LIPY",
      "iata": "AOI",
      "name": "Marche Airport",
      "lat": 43.616299,
      "lon": 13.3623,
      "updatedAt": "241420Z",
      "visibility_m": 10000,
      "taf_visibility_m": null,
      "worst_visibility_m": 10000,
      "ceiling_ft": null,
      "hazards": [],
      "severityScore": 5,
      "metarRaw": "METAR LIPY 241420Z AUTO 35007KT 9999 OVC004/// 08/07 Q1003",
      "tafRaw": null
    },
    {
      "icao": "LQSA",
      "iata": "SJJ",
      "name": "Sarajevo International Airport",
      "lat": 43.8246,
      "lon": 18.331499,
      "updatedAt": "241430Z",
      "visibility_m": 10000,
      "taf_visibility_m": null,
      "worst_visibility_m": 10000,
      "ceiling_ft": 5500,
      "hazards": [],
      "severityScore": 5,
      "metarRaw": "METAR LQSA 241430Z 13013KT 9999 BKN055 09/04 Q1005 NOSIG",
      "tafRaw": null
    },
    {
      "icao": "LRSM",
      "iata": "SUJ",
      "name": "Satu Mare International Airport",
      "lat": 47.7033,
      "lon": 22.8857,
      "updatedAt": "241430Z",
      "visibility_m": 10000,
      "taf_visibility_m": null,
      "worst_visibility_m": 10000,
      "ceiling_ft": null,
      "hazards": [],
      "severityScore": 5,
      "metarRaw": "METAR LRSM 241430Z AUTO 13004KT 9999 BKN140/// 04/01 Q1009",
      "tafRaw": null
    },
    {
      "icao": "OJAI",
      "iata": "AMM",
      "name": "Queen Alia International Airport",
      "lat": 31.7226009369,
      "lon": 35.9931983948,
      "updatedAt": "241400Z",
      "visibility_m": 4000,
      "taf_visibility_m": null,
      "worst_visibility_m": 4000,
      "ceiling_ft": 3000,
      "hazards": [],
      "severityScore": 5,
      "metarRaw": "METAR OJAI 241400Z 34010KT 4000 HZ BKN030 10/06 Q1020 NOSIG",
      "tafRaw": null
    },
    {
      "icao": "BIKF",
      "iata": "KEF",
      "name": "Keflavik International Airport",
      "lat": 63.985001,
      "lon": -22.6056,
      "updatedAt": "241430Z",
      "visibility_m": 10000,
      "taf_visibility_m": 10000,
      "worst_visibility_m": 10000,
      "ceiling_ft": null,
      "hazards": [],
      "severityScore": 0,
      "metarRaw": "METAR BIKF 241430Z 05013KT CAVOK 03/M01 Q1002",
      "tafRaw": "TAF BIKF 241347Z 2415/2515 07015KT 9999 FEW025 TX04/2515Z TN02/2506Z \n  TEMPO 2415/2515 09020G30KT"
    },
    {
      "icao": "BKPR",
      "iata": "PRN",
      "name": "Priština Adem Jashari International Airport",
      "lat": 42.5728,
      "lon": 21.035801,
      "updatedAt": "241430Z",
      "visibility_m": 10000,
      "taf_visibility_m": 10000,
      "worst_visibility_m": 10000,
      "ceiling_ft": null,
      "hazards": [],
      "severityScore": 0,
      "metarRaw": "METAR BKPR 241430Z 18012KT CAVOK 07/03 Q1010 NOSIG",
      "tafRaw": "TAF BKPR 241130Z 2412/2512 18012KT 9999 SCT040"
    },
    {
      "icao": "GCFV",
      "iata": "FUE",
      "name": "Fuerteventura Airport",
      "lat": 28.4527,
      "lon": -13.8638,
      "updatedAt": "241430Z",
      "visibility_m": 10000,
      "taf_visibility_m": 10000,
      "worst_visibility_m": 10000,
      "ceiling_ft": null,
      "hazards": [],
      "severityScore": 0,
      "metarRaw": "METAR GCFV 241430Z 01017KT 9999 FEW030 SCT040 20/07 Q1025",
      "tafRaw": "TAF GCFV 241400Z 2415/2515 02014KT 9999 FEW035 TX20/2514Z TN14/2506Z \n  TEMPO 2422/2509 32005KT"
    },
    {
      "icao": "GCLP",
      "iata": "LPA",
      "name": "Gran Canaria Airport",
      "lat": 27.9319,
      "lon": -15.3866,
      "updatedAt": "241430Z",
      "visibility_m": 10000,
      "taf_visibility_m": 10000,
      "worst_visibility_m": 10000,
      "ceiling_ft": null,
      "hazards": [],
      "severityScore": 0,
      "metarRaw": "METAR GCLP 241430Z 02020KT 9999 SCT040 20/10 Q1026 NOSIG",
      "tafRaw": "TAF GCLP 241400Z 2415/2515 02017KT 9999 FEW035 TX20/2514Z TN13/2506Z \n  PROB30 \n  TEMPO 2415/2418 36020G30KT \n  BECMG 2419/2421 32007KT \n  BECMG 2509/2511 03014KT"
    },
    {
      "icao": "GMAD",
      "iata": "AGA",
      "name": "Al Massira Airport",
      "lat": 30.322478,
      "lon": -9.412003,
      "updatedAt": "241430Z",
      "visibility_m": 10000,
      "taf_visibility_m": 8000,
      "worst_visibility_m": 8000,
      "ceiling_ft": null,
      "hazards": [],
      "severityScore": 0,
      "metarRaw": "METAR GMAD 241430Z 31013KT 9999 FEW016 17/07 Q1021 NOSIG",
      "tafRaw": "TAF GMAD 241100Z 2412/2518 28015KT 8000 SCT016 \n  BECMG 2419/2422 18006KT"
    },
    {
      "icao": "EDDK",
      "iata": "CGN",
      "name": "Cologne Bonn Airport",
      "lat": 50.865898,
      "lon": 7.14274,
      "updatedAt": "241420Z",
      "visibility_m": 10000,
      "taf_visibility_m": 10000,
      "worst_visibility_m": 10000,
      "ceiling_ft": 4000,
      "hazards": [],
      "severityScore": 0,
      "metarRaw": "METAR EDDK 241420Z AUTO 15008KT CAVOK 06/M02 Q1002 NOSIG",
      "tafRaw": "TAF EDDK 241100Z 2412/2518 12006KT 9999 BKN040"
    },
    {
      "icao": "EDFH",
      "iata": "HHN",
      "name": "Frankfurt-Hahn Airport",
      "lat": 49.946353,
      "lon": 7.261734,
      "updatedAt": "241420Z",
      "visibility_m": 10000,
      "taf_visibility_m": 9000,
      "worst_visibility_m": 9000,
      "ceiling_ft": null,
      "hazards": [],
      "severityScore": 0,
      "metarRaw": "METAR EDFH 241420Z 11005KT 080V150 CAVOK 01/M03 Q1000",
      "tafRaw": "TAF EDFH 241100Z 2412/2512 14011KT 9000 SCT035"
    },
    {
      "icao": "EHBK",
      "iata": "MST",
      "name": "Maastricht Aachen Airport",
      "lat": 50.911701,
      "lon": 5.77014,
      "updatedAt": "241425Z",
      "visibility_m": 10000,
      "taf_visibility_m": 10000,
      "worst_visibility_m": 10000,
      "ceiling_ft": null,
      "hazards": [],
      "severityScore": 0,
      "metarRaw": "METAR EHBK 241425Z AUTO 22003KT 9999 NSC 08/04 Q1000 NOSIG",
      "tafRaw": "TAF EHBK 241110Z 2412/2518 12005KT CAVOK"
    },
    {
      "icao": "EHEH",
      "iata": "EIN",
      "name": "Eindhoven Airport",
      "lat": 51.4500999451,
      "lon": 5.37452983856,
      "updatedAt": "241425Z",
      "visibility_m": 10000,
      "taf_visibility_m": 10000,
      "worst_visibility_m": 10000,
      "ceiling_ft": null,
      "hazards": [],
      "severityScore": 0,
      "metarRaw": "METAR EHEH 241425Z AUTO 15005KT 9999 NCD 09/03 Q1001 BLU NOSIG RMK TREND REMOTE BY EHWX",
      "tafRaw": "TAF EHEH 241126Z 2412/2518 13005KT CAVOK \n  BECMG 2414/2416 10007KT"
    },
    {
      "icao": "ENAL",
      "iata": "AES",
      "name": "Ålesund Airport, Vigra",
      "lat": 62.5625,
      "lon": 6.1197,
      "updatedAt": "241420Z",
      "visibility_m": 10000,
      "taf_visibility_m": 10000,
      "worst_visibility_m": 10000,
      "ceiling_ft": null,
      "hazards": [],
      "severityScore": 0,
      "metarRaw": "METAR ENAL 241420Z 14013KT 9999 SCT050 M00/M09 Q1014",
      "tafRaw": "TAF ENAL 241400Z 2415/2424 14009KT 9999 FEW040"
    },
    {
      "icao": "ENHD",
      "iata": "HAU",
      "name": "Haugesund Airport, Karmøy",
      "lat": 59.345299,
      "lon": 5.20836,
      "updatedAt": "241420Z",
      "visibility_m": 10000,
      "taf_visibility_m": 10000,
      "worst_visibility_m": 10000,
      "ceiling_ft": null,
      "hazards": [],
      "severityScore": 0,
      "metarRaw": "METAR ENHD 241420Z /////KT CAVOK M00/M11 Q1014 RMK WIND RWY 31 10010KT",
      "tafRaw": "TAF ENHD 241400Z 2415/2423 10008KT CAVOK"
    },
    {
      "icao": "ENVA",
      "iata": "TRD",
      "name": "Trondheim Airport, Værnes",
      "lat": 63.457802,
      "lon": 10.924,
      "updatedAt": "241420Z",
      "visibility_m": 10000,
      "taf_visibility_m": 10000,
      "worst_visibility_m": 10000,
      "ceiling_ft": 5100,
      "hazards": [],
      "severityScore": 0,
      "metarRaw": "METAR ENVA 241420Z 10007KT 9999 BKN051 M04/M12 Q1017 NOSIG RMK WIND 670FT 14011KT",
      "tafRaw": "TAF ENVA 241100Z 2412/2512 09008KT CAVOK"
    },
    {
      "icao": "ENZV",
      "iata": "SVG",
      "name": "Stavanger Airport, Sola",
      "lat": 58.876701,
      "lon": 5.63778,
      "updatedAt": "241420Z",
      "visibility_m": 10000,
      "taf_visibility_m": 10000,
      "worst_visibility_m": 10000,
      "ceiling_ft": null,
      "hazards": [],
      "severityScore": 0,
      "metarRaw": "METAR ENZV 241420Z 08011KT 060V120 CAVOK M00/M11 Q1014 NOSIG",
      "tafRaw": "TAF ENZV 241100Z 2412/2512 10012KT CAVOK \n  TEMPO 2412/2415 10015G25KT"
    },
    {
      "icao": "HEGN",
      "iata": "HRG",
      "name": "Hurghada International Airport",
      "lat": 27.176776,
      "lon": 33.796692,
      "updatedAt": "241400Z",
      "visibility_m": 4000,
      "taf_visibility_m": 4000,
      "worst_visibility_m": 4000,
      "ceiling_ft": null,
      "hazards": [],
      "severityScore": 0,
      "metarRaw": "METAR HEGN 241400Z 5014KT 4000 SA NSC 23/03 Q1017 NOSIG",
      "tafRaw": "TAF HEGN 241100Z 2412/2518 33012G25KT 6000 NSC \n  TEMPO 2412/2416 4000 SA"
    },
    {
      "icao": "HEMA",
      "iata": "RMF",
      "name": "Marsa Alam International Airport",
      "lat": 25.555548,
      "lon": 34.59245,
      "updatedAt": "241400Z",
      "visibility_m": 10000,
      "taf_visibility_m": 4000,
      "worst_visibility_m": 4000,
      "ceiling_ft": null,
      "hazards": [],
      "severityScore": 0,
      "metarRaw": "METAR HEMA 241400Z 01020KT CAVOK 22/06 Q1015 NOSIG",
      "tafRaw": "TAF HEMA 241110Z 2412/2518 35012G22KT 6000 NSC \n  PROB30 \n  TEMPO 2412/2416 4000 SA"
    },
    {
      "icao": "HESH",
      "iata": "SSH",
      "name": "Sharm El Sheikh International Airport",
      "lat": 27.977272,
      "lon": 34.394717,
      "updatedAt": "241400Z",
      "visibility_m": 10000,
      "taf_visibility_m": 4000,
      "worst_visibility_m": 4000,
      "ceiling_ft": null,
      "hazards": [],
      "severityScore": 0,
      "metarRaw": "METAR HESH 241400Z 01008KT CAVOK 24/05 Q1015 NOSIG",
      "tafRaw": "TAF HESH 241100Z 2412/2518 01015KT 6000 NSC \n  PROB30 \n  TEMPO 2412/2416 4000 SA"
    },
    {
      "icao": "HESX",
      "iata": "SPX",
      "name": "Sphinx International Airport",
      "lat": 30.108179,
      "lon": 30.895728,
      "updatedAt": "241400Z",
      "visibility_m": 10000,
      "taf_visibility_m": 3000,
      "worst_visibility_m": 3000,
      "ceiling_ft": null,
      "hazards": [],
      "severityScore": 0,
      "metarRaw": "METAR HESX 241400Z 29012KT CAVOK 19/M01 Q1016 NOSIG",
      "tafRaw": "TAF HESX 241110Z 2412/2518 25015KT CAVOK \n  PROB40 \n  TEMPO 2412/2415 3000 SA NSC \n  BECMG 2415/2417 29010KT 9999 SCT025"
    },
    {
      "icao": "LCPH",
      "iata": "PFO",
      "name": "Paphos International Airport",
      "lat": 34.717999,
      "lon": 32.485699,
      "updatedAt": "241430Z",
      "visibility_m": 10000,
      "taf_visibility_m": 10000,
      "worst_visibility_m": 10000,
      "ceiling_ft": null,
      "hazards": [],
      "severityScore": 0,
      "metarRaw": "METAR LCPH 241430Z 15005KT 100V160 9999 FEW025 17/12 Q1016 NOSIG",
      "tafRaw": "TAF LCPH 241130Z 2412/2512 29010KT 9999 FEW020 SCT050 \n  BECMG 2413/2415 08009KT \n  BECMG 2509/2511 14010KT"
    },
    {
      "icao": "LEAL",
      "iata": "ALC",
      "name": "Alicante-Elche Miguel Hernández Airport",
      "lat": 38.2822,
      "lon": -0.558156,
      "updatedAt": "241430Z",
      "visibility_m": 10000,
      "taf_visibility_m": 10000,
      "worst_visibility_m": 10000,
      "ceiling_ft": null,
      "hazards": [],
      "severityScore": 0,
      "metarRaw": "METAR LEAL 241430Z 28016KT 9999 FEW025 14/M02 Q1004 NOSIG",
      "tafRaw": "TAF LEAL 241100Z 2412/2512 28018KT CAVOK TX14/2413Z TN09/2506Z \n  TEMPO 2412/2503 28020G30KT \n  TEMPO 2420/2503 30025G43KT \n  BECMG 2503/2505 23008KT"
    },
    {
      "icao": "LEZG",
      "iata": "ZAZ",
      "name": "Zaragoza Airport",
      "lat": 41.666199,
      "lon": -1.04155,
      "updatedAt": "241430Z",
      "visibility_m": 10000,
      "taf_visibility_m": 10000,
      "worst_visibility_m": 10000,
      "ceiling_ft": null,
      "hazards": [],
      "severityScore": 0,
      "metarRaw": "METAR LEZG 241430Z 30017KT 9999 FEW040 10/02 Q1000 NOSIG",
      "tafRaw": "TAF LEZG 241100Z 2412/2512 28010KT 9999 FEW055 TX10/2415Z TN06/2506Z \n  PROB30 \n  TEMPO 2415/2505 26015G25KT \n  TEMPO 2505/2512 25018G28KT"
    },
    {
      "icao": "LIBG",
      "iata": "TAR",
      "name": "Taranto-Grottaglie Marcello Arlotta Airport",
      "lat": 40.517502,
      "lon": 17.4032,
      "updatedAt": "241350Z",
      "visibility_m": 10000,
      "taf_visibility_m": 10000,
      "worst_visibility_m": 10000,
      "ceiling_ft": null,
      "hazards": [],
      "severityScore": 0,
      "metarRaw": "METAR LIBG 241350Z 18009KT CAVOK 15/11 Q1006",
      "tafRaw": "TAF LIBG 241400Z 2415/2424 17008KT 9999 FEW030 \n  BECMG 2422/2424 15018KT"
    },
    {
      "icao": "LICC",
      "iata": "CTA",
      "name": "Catania-Fontanarossa Airport",
      "lat": 37.466801,
      "lon": 15.0664,
      "updatedAt": "241420Z",
      "visibility_m": 8000,
      "taf_visibility_m": 10000,
      "worst_visibility_m": 8000,
      "ceiling_ft": 4000,
      "hazards": [],
      "severityScore": 0,
      "metarRaw": "METAR LICC 241420Z 27006KT 8000 BKN040 18/16 Q1007",
      "tafRaw": "TAF LICC 241100Z 2412/2512 VRB06KT 9999 SCT030 \n  BECMG 2506/2508 23012KT"
    },
    {
      "icao": "LMML",
      "iata": "MLA",
      "name": "Malta International Airport",
      "lat": 35.857498,
      "lon": 14.4775,
      "updatedAt": "241415Z",
      "visibility_m": 10000,
      "taf_visibility_m": 8000,
      "worst_visibility_m": 8000,
      "ceiling_ft": null,
      "hazards": [],
      "severityScore": 0,
      "metarRaw": "METAR LMML 241415Z 17011KT CAVOK 17/13 Q1008 NOSIG",
      "tafRaw": "TAF LMML 241100Z 2412/2512 19012KT 9999 FEW018 \n  PROB40 \n  TEMPO 2412/2424 8000 NSC \n  BECMG 2415/2418 18015G25KT \n  BECMG 2420/2423 17018G35KT \n  BECMG 2503/2506 24015KT \n  BECMG 2507/2510 28018G28KT"
    },
    {
      "icao": "LPMA",
      "iata": "FNC",
      "name": "Cristiano Ronaldo International Airport",
      "lat": 32.697812,
      "lon": -16.774613,
      "updatedAt": "241430Z",
      "visibility_m": 10000,
      "taf_visibility_m": 10000,
      "worst_visibility_m": 10000,
      "ceiling_ft": null,
      "hazards": [],
      "severityScore": 0,
      "metarRaw": "METAR LPMA 241430Z 20008KT 150V230 9999 SCT015 19/09 Q1026",
      "tafRaw": "TAF LPMA 241100Z 2412/2512 36010KT 9999 SCT015 \n  PROB40 \n  TEMPO 2412/2418 21010KT \n  BECMG 2418/2420 VRB05KT"
    },
    {
      "icao": "LPPS",
      "iata": "PXO",
      "name": "Porto Santo Airport",
      "lat": 33.0733985901,
      "lon": -16.3500003815,
      "updatedAt": "241430Z",
      "visibility_m": 10000,
      "taf_visibility_m": 10000,
      "worst_visibility_m": 10000,
      "ceiling_ft": null,
      "hazards": [],
      "severityScore": 0,
      "metarRaw": "METAR LPPS 241430Z 32012KT 9999 SCT015 18/09 Q1027",
      "tafRaw": "TAF LPPS 241100Z 2412/2518 33013KT 9999 SCT015 \n  BECMG 2418/2420 27013KT"
    },
    {
      "icao": "LYBE",
      "iata": "BEG",
      "name": "Belgrade Nikola Tesla Airport",
      "lat": 44.818401,
      "lon": 20.309099,
      "updatedAt": "241430Z",
      "visibility_m": 10000,
      "taf_visibility_m": 10000,
      "worst_visibility_m": 10000,
      "ceiling_ft": null,
      "hazards": [],
      "severityScore": 0,
      "metarRaw": "METAR LYBE 241430Z 12009KT CAVOK 08/03 Q1006 NOSIG",
      "tafRaw": "TAF LYBE 241100Z 2412/2512 12008KT CAVOK TX12/2512Z TN04/2506Z"
    },
    {
      "icao": "LYNI",
      "iata": "INI",
      "name": "Niš Constantine the Great Airport",
      "lat": 43.336538,
      "lon": 21.856242,
      "updatedAt": "241430Z",
      "visibility_m": 10000,
      "taf_visibility_m": 10000,
      "worst_visibility_m": 10000,
      "ceiling_ft": null,
      "hazards": [],
      "severityScore": 0,
      "metarRaw": "METAR LYNI 241430Z 18004KT 120V250 9999 FEW067 09/04 Q1010 NOSIG",
      "tafRaw": "TAF LYNI 241100Z 2412/2512 15006KT 9999 SCT045 TX12/2512Z TN03/2505Z"
    },
    {
      "icao": "OEJN",
      "iata": "JED",
      "name": "King Abdulaziz International Airport",
      "lat": 21.6796,
      "lon": 39.156502,
      "updatedAt": "241400Z",
      "visibility_m": 8000,
      "taf_visibility_m": 7000,
      "worst_visibility_m": 7000,
      "ceiling_ft": 4000,
      "hazards": [],
      "severityScore": 0,
      "metarRaw": "METAR OEJN 241400Z 27012KT 8000 SCT040 28/21 Q1012 NOSIG",
      "tafRaw": "TAF OEJN 241100Z 2412/2518 25012KT 7000 FEW040 \n  TEMPO 2412/2500 FEW030CB BKN040 \n  BECMG 2422/2500 01006KT \n  BECMG 2508/2510 32013KT"
    }
  ],
  "stats": {
    "icaoCount": 159,
    "metarReturned": 159,
    "tafReturned": 136,
    "stationsWritten": 159,
    "missingMetar": 0,
    "missingTaf": 23
  },
  "errors": []
}