{
  "generatedAt": "2026-01-25T23:52:21.270Z",
  "stations": [
    {
      "icao": "EDDB",
      "iata": "BER",
      "name": "Berlin Brandenburg Willy Brandt Airport",
      "lat": 52.361738,
      "lon": 13.502341,
      "updatedAt": "252320Z",
      "visibility_m": 2000,
      "taf_visibility_m": 1200,
      "worst_visibility_m": 1200,
      "ceiling_ft": 300,
      "hazards": [
        "BR",
        "FZRA",
        "RA",
        "SN"
      ],
      "severityScore": 100,
      "metarRaw": "METAR EDDB 252320Z AUTO 06013KT 4200 -FZRA BR OVC006 M02/M03 Q0997 TEMPO 2000 FZRA BKN003",
      "tafRaw": "TAF EDDB 252300Z 2600/2624 06011KT 6000 BKN008 \n  TEMPO 2600/2603 1500 FZRA BKN003 \n  TEMPO 2603/2606 1200 SN BKN002 \n  PROB40 \n  TEMPO 2606/2612 1200 -FZRA BKN001 \n  BECMG 2609/2612 14005KT \n  TEMPO 2612/2624 1200 -SN BKN001 \n  BECMG 2617/2620 20005KT"
    },
    {
      "icao": "EDDH",
      "iata": "HAM",
      "name": "Hamburg Helmut Schmidt Airport",
      "lat": 53.630402,
      "lon": 9.98823,
      "updatedAt": "252320Z",
      "visibility_m": 3000,
      "taf_visibility_m": 1200,
      "worst_visibility_m": 1200,
      "ceiling_ft": 400,
      "hazards": [
        "FZDZ",
        "DZ",
        "SN"
      ],
      "severityScore": 100,
      "metarRaw": "METAR EDDH 252320Z AUTO 06009KT 7000 OVC008 M01/M02 Q1000 TEMPO 3000 -FZDZ OVC004",
      "tafRaw": "TAF EDDH 252300Z 2600/2706 05009KT 6000 OVC008 \n  BECMG 2600/2604 4000 -SN \n  PROB30 \n  TEMPO 2600/2602 2500 -FZDZ OVC004 \n  TEMPO 2602/2609 1200 SN OVC003 \n  BECMG 2615/2618 6000 \n  TEMPO 2615/2701 3000 -SG OVC003 \n  BECMG 2618/2620 35004KT"
    },
    {
      "icao": "EDFH",
      "iata": "HHN",
      "name": "Frankfurt-Hahn Airport",
      "lat": 49.946353,
      "lon": 7.261734,
      "updatedAt": "252320Z",
      "visibility_m": 4100,
      "taf_visibility_m": 300,
      "worst_visibility_m": 300,
      "ceiling_ft": 100,
      "hazards": [
        "BR",
        "FZFG",
        "FG"
      ],
      "severityScore": 100,
      "metarRaw": "METAR EDFH 252320Z 26006KT 4100 BR NSC M03/M04 Q0994",
      "tafRaw": "TAF EDFH 252300Z 2600/2624 28004KT 5000 BR NSC \n  TEMPO 2600/2610 0300 FZFG VV001 \n  TEMPO 2608/2616 29010KT \n  TEMPO 2610/2615 2500 BR BKN005 \n  PROB30 \n  TEMPO 2614/2618 SCT005 BKN010 \n  TEMPO 2618/2624 2500 BR BKN005"
    },
    {
      "icao": "EDLW",
      "iata": "DTM",
      "name": "Dortmund Airport",
      "lat": 51.518299,
      "lon": 7.61224,
      "updatedAt": "252320Z",
      "visibility_m": 6000,
      "taf_visibility_m": 700,
      "worst_visibility_m": 700,
      "ceiling_ft": 300,
      "hazards": [
        "FZFG",
        "BR",
        "SN",
        "FZDZ",
        "FG",
        "DZ"
      ],
      "severityScore": 100,
      "metarRaw": "METAR EDLW 252320Z AUTO 35003KT 330V030 6000 // OVC010/// M01/M02 Q0996",
      "tafRaw": "TAF EDLW 251700Z 2518/2618 05004KT 7000 FEW015 \n  PROB40 \n  TEMPO 2520/2601 4500 BR BKN014 \n  BECMG 2601/2605 4000 -SN BR BKN007 \n  BECMG 2604/2608 27005KT \n  TEMPO 2606/2618 2500 SN \n  PROB30 \n  TEMPO 2608/2616 0700 SN FZFG OVC003 \n  PROB30 \n  TEMPO 2616/2618 FZDZ"
    },
    {
      "icao": "EDSB",
      "iata": "FKB",
      "name": "Karlsruhe Baden-Baden Airport",
      "lat": 48.7794,
      "lon": 8.0805,
      "updatedAt": "252320Z",
      "visibility_m": 5000,
      "taf_visibility_m": 800,
      "worst_visibility_m": 800,
      "ceiling_ft": 100,
      "hazards": [
        "FZFG",
        "BR",
        "FG"
      ],
      "severityScore": 100,
      "metarRaw": "METAR EDSB 252320Z AUTO VRB02KT 5000 OVC007/// M00/M02 Q0997",
      "tafRaw": "TAF EDSB 252300Z 2600/2624 VRB03KT 6000 OVC008 \n  TEMPO 2600/2611 3000 BR OVC003 \n  PROB30 \n  TEMPO 2600/2606 0800 FZFG OVC001 \n  BECMG 2600/2603 21007KT \n  BECMG 2611/2614 SCT008 BKN015"
    },
    {
      "icao": "EGGW",
      "iata": "LTN",
      "name": "London Luton Airport",
      "lat": 51.874699,
      "lon": -0.368333,
      "updatedAt": "252320Z",
      "visibility_m": 500,
      "taf_visibility_m": 300,
      "worst_visibility_m": 300,
      "ceiling_ft": 100,
      "hazards": [
        "FG",
        "BR",
        "RA",
        "DZ"
      ],
      "severityScore": 100,
      "metarRaw": "METAR EGGW 252320Z AUTO 04007KT 0500 R07/1300N FG OVC001 04/03 Q0999",
      "tafRaw": "TAF EGGW 252258Z 2600/2624 06006KT 6000 BKN005 \n  TEMPO 2600/2603 0300 FG DZ BKN001 \n  TEMPO 2603/2608 4000 BR BKN003 \n  PROB30 \n  TEMPO 2603/2608 0300 FG DZ BKN001 \n  BECMG 2608/2611 9999 BKN020 \n  TEMPO 2611/2621 8000 -RA BKN010 \n  BECMG 2612/2615 13010KT \n  TEMPO 2621/2624 6000 -RADZ RA BKN008 \n  PROB30 \n  TEMPO 2622/2624 12015G25KT"
    },
    {
      "icao": "EGNM",
      "iata": "LBA",
      "name": "Leeds Bradford Airport",
      "lat": 53.865898,
      "lon": -1.66057,
      "updatedAt": "252250Z",
      "visibility_m": 1200,
      "taf_visibility_m": 700,
      "worst_visibility_m": 700,
      "ceiling_ft": 0,
      "hazards": [
        "BR",
        "FG",
        "RA",
        "SN",
        "DZ"
      ],
      "severityScore": 100,
      "metarRaw": "METAR EGNM 252250Z 07005KT 1200 R14/P1500N BR VV/// 02/02 Q1001",
      "tafRaw": "TAF EGNM 252258Z 2600/2624 11009KT 3000 BR BKN014 \n  TEMPO 2600/2608 1200 -RADZ BKN004 \n  PROB30 \n  TEMPO 2600/2606 0700 FG RASN BKN000 \n  BECMG 2605/2608 6000 NSW SCT015 BKN030 \n  PROB30 \n  TEMPO 2608/2619 BKN012 \n  TEMPO 2619/2624 RA -RADZ BKN008 \n  BECMG 2621/2624 12015G25KT"
    },
    {
      "icao": "EHBK",
      "iata": "MST",
      "name": "Maastricht Aachen Airport",
      "lat": 50.911701,
      "lon": 5.77014,
      "updatedAt": "252325Z",
      "visibility_m": 3600,
      "taf_visibility_m": 600,
      "worst_visibility_m": 600,
      "ceiling_ft": 100,
      "hazards": [
        "BR",
        "FZFG",
        "FG"
      ],
      "severityScore": 100,
      "metarRaw": "METAR EHBK 252325Z AUTO 05002KT 3600 BR NSC M03/M03 Q0997",
      "tafRaw": "TAF EHBK 252312Z 2600/2706 07007KT 4000 BR NSC \n  BECMG 2602/2605 28010KT 2000 BKN004 \n  PROB30 2603/2608 0600 FG FZFG BKN001 \n  BECMG 2610/2613 7000 NSW BKN012 \n  BECMG 2619/2622 23005KT BKN016 \n  PROB40 \n  TEMPO 2622/2706 4000 BR BKN012"
    },
    {
      "icao": "EPGD",
      "iata": "GDN",
      "name": "Gdańsk Lech Wałęsa Airport",
      "lat": 54.377602,
      "lon": 18.4662,
      "updatedAt": "252330Z",
      "visibility_m": 5000,
      "taf_visibility_m": 300,
      "worst_visibility_m": 300,
      "ceiling_ft": 500,
      "hazards": [
        "BR",
        "FG",
        "FZRA",
        "FZDZ",
        "RA",
        "DZ"
      ],
      "severityScore": 100,
      "metarRaw": "METAR EPGD 252330Z 10009KT 5000 BR OVC005 M06/M07 Q1006",
      "tafRaw": "TAF EPGD 252330Z 2600/2624 10010KT 6000 OVC007 \n  PROB30 \n  TEMPO 2602/2604 3500 -FZDZ BR \n  BECMG 2607/2609 3000 -FZRA \n  TEMPO 2608/2618 1800 FZRA BKN002 \n  BECMG 2617/2620 NSW OVC002 \n  TEMPO 2617/2624 0300 FG OVC001"
    },
    {
      "icao": "EPPO",
      "iata": "POZ",
      "name": "Poznań-Ławica Airport",
      "lat": 52.421598,
      "lon": 16.823359,
      "updatedAt": "252330Z",
      "visibility_m": 3600,
      "taf_visibility_m": 1300,
      "worst_visibility_m": 1300,
      "ceiling_ft": 500,
      "hazards": [
        "BR",
        "FZRA",
        "SN",
        "RA",
        "FZDZ",
        "DZ"
      ],
      "severityScore": 100,
      "metarRaw": "METAR EPPO 252330Z 09013KT 3600 BR OVC005 M02/M04 Q1000",
      "tafRaw": "TAF EPPO 252330Z 2600/2624 09010KT 3500 BR OVC006 \n  TEMPO 2600/2604 1300 FZRA FZDZ BR OVC004 \n  TEMPO 2604/2608 1300 RA BR OVC004 \n  BECMG 2609/2612 15005KT 9000 BKN012 \n  PROB40 \n  TEMPO 2612/2621 SCT030 \n  BECMG 2621/2624 4000 BR OVC006 \n  TEMPO 2621/2624 2000 -RASN -SN BR OVC004"
    },
    {
      "icao": "EPRA",
      "iata": "RDO",
      "name": "Warsaw Radom Airport",
      "lat": 51.38937,
      "lon": 21.214742,
      "updatedAt": "252330Z",
      "visibility_m": 9000,
      "taf_visibility_m": 5000,
      "worst_visibility_m": 5000,
      "ceiling_ft": 500,
      "hazards": [
        "RA",
        "BR",
        "FZRA",
        "SN"
      ],
      "severityScore": 100,
      "metarRaw": "METAR EPRA 252330Z 11013KT 9000 OVC005 M02/M04 Q1004",
      "tafRaw": "TAF EPRA 252330Z 2600/2609 11012KT 8000 BKN010 \n  TEMPO 2600/2606 5000 -RASN BR OVC005 \n  PROB30 \n  TEMPO 2600/2602 -FZRA \n  BECMG 2606/2609 BKN030"
    },
    {
      "icao": "EPSY",
      "iata": "SZY",
      "name": "Olsztyn-Mazury Airport",
      "lat": 53.481899,
      "lon": 20.9377,
      "updatedAt": "252330Z",
      "visibility_m": 6000,
      "taf_visibility_m": 2000,
      "worst_visibility_m": 2000,
      "ceiling_ft": 600,
      "hazards": [
        "BR",
        "FZRA",
        "SN",
        "RA"
      ],
      "severityScore": 100,
      "metarRaw": "METAR EPSY 252330Z 11006KT 060V150 6000 OVC006 M05/M07 Q1007",
      "tafRaw": "TAF EPSY 252330Z 2600/2609 12006KT 7000 BKN007 \n  TEMPO 2600/2609 4000 -FZRA BR BKN003 \n  PROB40 \n  TEMPO 2600/2609 2000 SN BR"
    },
    {
      "icao": "EYPA",
      "iata": "PLQ",
      "name": "Palanga International Airport",
      "lat": 55.973202,
      "lon": 21.093901,
      "updatedAt": "252350Z",
      "visibility_m": 10000,
      "taf_visibility_m": 1500,
      "worst_visibility_m": 1500,
      "ceiling_ft": 500,
      "hazards": [
        "BR",
        "FZRA",
        "SN",
        "FZDZ",
        "RA",
        "DZ"
      ],
      "severityScore": 100,
      "metarRaw": "METAR EYPA 252350Z AUTO 11005KT 090V150 9999 OVC013/// M06/M09 Q1011",
      "tafRaw": "TAF EYPA 252300Z 2600/2624 VRB05KT 6000 BKN015 \n  TEMPO 2600/2606 BKN010 \n  PROB40 \n  TEMPO 2600/2606 3000 SN -FZDZ BR BKN005 \n  BECMG 2612/2614 07010KT 3000 FZRA BR \n  TEMPO 2614/2624 1500 SN OVC010"
    },
    {
      "icao": "EYVI",
      "iata": "VNO",
      "name": "Vilnius International Airport",
      "lat": 54.634102,
      "lon": 25.285801,
      "updatedAt": "252350Z",
      "visibility_m": 10000,
      "taf_visibility_m": 600,
      "worst_visibility_m": 600,
      "ceiling_ft": 1000,
      "hazards": [
        "FZFG",
        "BR",
        "FZRA",
        "SN",
        "FZDZ",
        "FG",
        "RA",
        "DZ"
      ],
      "severityScore": 100,
      "metarRaw": "METAR EYVI 252350Z 14009KT 9999 BKN010 BKN044 M11/M13 Q1012 NOSIG",
      "tafRaw": "TAF EYVI 252300Z 2600/2624 13010KT 8000 SCT010 OVC015 \n  TEMPO 2600/2606 5000 -SN BR BKN005 OVC010 \n  PROB40 \n  TEMPO 2600/2606 3000 \n  BECMG 2606/2608 OVC005 \n  TEMPO 2608/2612 OVC010 \n  BECMG 2612/2614 5000 FZRA BR \n  TEMPO 2614/2619 1500 SN OVC015 \n  TEMPO 2619/2622 0600 FZDZ FZFG OVC002 \n  TEMPO 2622/2624 1500 SN OVC002"
    },
    {
      "icao": "LBPD",
      "iata": "PDV",
      "name": "Plovdiv International Airport",
      "lat": 42.067799,
      "lon": 24.8508,
      "updatedAt": "252330Z",
      "visibility_m": 3000,
      "taf_visibility_m": 600,
      "worst_visibility_m": 600,
      "ceiling_ft": 200,
      "hazards": [
        "BR",
        "FG",
        "RA",
        "SHRA"
      ],
      "severityScore": 100,
      "metarRaw": "METAR LBPD 252330Z AUTO 00000KT 3000 BR SCT001/// OVC005/// 03/03 Q1010",
      "tafRaw": "TAF LBPD 252300Z 2600/2624 VRB03KT 0600 FG BKN002 \n  BECMG 2607/2609 08010KT 9999 NSW SCT020 OVC050 \n  TEMPO 2609/2614 VRB16G26KT 5000 SHRA FEW020CB OVC040 \n  BECMG 2614/2616 VRB04KT 5000 RA"
    },
    {
      "icao": "LIMF",
      "iata": "TRN",
      "name": "Turin Airport",
      "lat": 45.200802,
      "lon": 7.64963,
      "updatedAt": "252320Z",
      "visibility_m": 4000,
      "taf_visibility_m": 300,
      "worst_visibility_m": 300,
      "ceiling_ft": 400,
      "hazards": [
        "BR",
        "FG"
      ],
      "severityScore": 100,
      "metarRaw": "METAR LIMF 252320Z VRB02KT 4000 BR BKN004 05/04 Q0997",
      "tafRaw": "TAF LIMF 252300Z 2600/2624 VRB04KT 4000 BR FEW020 \n  TEMPO 2600/2608 0500 FG BKN002 \n  BECMG 2610/2612 8000 \n  BECMG 2618/2620 2000 BR \n  TEMPO 2620/2624 0300 FG OVC002"
    },
    {
      "icao": "LIPH",
      "iata": "TSF",
      "name": "Treviso Antonio Canova Airport",
      "lat": 45.648399,
      "lon": 12.1944,
      "updatedAt": "252320Z",
      "visibility_m": 2400,
      "taf_visibility_m": 300,
      "worst_visibility_m": 300,
      "ceiling_ft": 200,
      "hazards": [
        "BR",
        "DZ",
        "FG",
        "RA"
      ],
      "severityScore": 100,
      "metarRaw": "METAR LIPH 252320Z AUTO 14004KT 2400 -DZ BR OVC002/// 06/06 Q0998",
      "tafRaw": "TAF LIPH 252300Z 2600/2624 VRB04KT 2000 BR BKN002 \n  TEMPO 2600/2603 1200 -RA \n  PROB40 \n  TEMPO 2603/2608 0800 FG \n  BECMG 2608/2610 8000 FEW025 \n  BECMG 2619/2621 2000 BR \n  TEMPO 2622/2624 0300 FG OVC002"
    },
    {
      "icao": "LIPR",
      "iata": "RMI",
      "name": "Federico Fellini International Airport",
      "lat": 44.020024,
      "lon": 12.612198,
      "updatedAt": "252320Z",
      "visibility_m": 10000,
      "taf_visibility_m": 300,
      "worst_visibility_m": 300,
      "ceiling_ft": 200,
      "hazards": [
        "FG",
        "BR"
      ],
      "severityScore": 100,
      "metarRaw": "METAR LIPR 252320Z AUTO 23003KT 9999 BKN059/// BKN079/// 07/04 Q0997",
      "tafRaw": "TAF LIPR 252300Z 2600/2624 27006KT 8000 SCT050 \n  BECMG 2600/2602 2500 BR \n  TEMPO 2602/2605 0300 FG BKN002 \n  BECMG 2609/2611 6000 \n  TEMPO 2622/2624 3000 BR"
    },
    {
      "icao": "LIPZ",
      "iata": "VCE",
      "name": "Venice Marco Polo Airport",
      "lat": 45.505299,
      "lon": 12.3519,
      "updatedAt": "252320Z",
      "visibility_m": 1500,
      "taf_visibility_m": 100,
      "worst_visibility_m": 100,
      "ceiling_ft": 600,
      "hazards": [
        "BR",
        "RA",
        "FG"
      ],
      "severityScore": 100,
      "metarRaw": "METAR LIPZ 252320Z 04002KT 3000 -RA BR BKN006 06/05 Q0998 BECMG 1500 BR",
      "tafRaw": "TAF LIPZ 252300Z 2600/2706 VRB04KT 2000 BR BKN003 \n  TEMPO 2600/2603 1200 -RA \n  TEMPO 2603/2608 0600 FG \n  BECMG 2609/2611 7000 SCT020 \n  BECMG 2620/2622 2500 BR \n  TEMPO 2700/2706 0100 FG BKN002"
    },
    {
      "icao": "LJLJ",
      "iata": "LJU",
      "name": "Ljubljana Jože Pučnik Airport",
      "lat": 46.223701,
      "lon": 14.4576,
      "updatedAt": "252330Z",
      "visibility_m": 300,
      "taf_visibility_m": 200,
      "worst_visibility_m": 200,
      "ceiling_ft": 100,
      "hazards": [
        "FG",
        "BR",
        "SN",
        "RA"
      ],
      "severityScore": 100,
      "metarRaw": "METAR LJLJ 252330Z VRB01KT 0300 R30/0500N FG VV001 01/01 Q0997 NOSIG",
      "tafRaw": "TAF LJLJ 252300Z 2600/2700 VRB02KT 0200 FG VV001 \n  TEMPO 2601/2610 2500 -RASN BR SCT003 BKN012 OVC020 \n  BECMG 2608/2610 8000 NSW FEW006 SCT025 \n  PROB40 \n  TEMPO 2621/2700 2000 BR BKN003"
    },
    {
      "icao": "LOWW",
      "iata": "VIE",
      "name": "Vienna International Airport",
      "lat": 48.110298,
      "lon": 16.5697,
      "updatedAt": "252320Z",
      "visibility_m": 1200,
      "taf_visibility_m": 400,
      "worst_visibility_m": 400,
      "ceiling_ft": 200,
      "hazards": [
        "BR",
        "FG",
        "FZFG"
      ],
      "severityScore": 100,
      "metarRaw": "METAR LOWW 252320Z 14010KT 4100 BR FEW001 BKN002 03/03 Q0996 BECMG 1200 BCFG",
      "tafRaw": "TAF LOWW 252315Z 2600/2706 VRB03KT 0800 FG VV003 TX04/2613Z TNM01/2706Z \n  TEMPO 2603/2609 0400 VV001 \n  PROB40 2605/2608 FZFG \n  BECMG 2610/2612 27007KT 9999 NSW FEW012 \n  TEMPO 2617/2706 1200 BCFG BKN003"
    },
    {
      "icao": "LQBK",
      "iata": "BNX",
      "name": "Banja Luka International Airport",
      "lat": 44.941399,
      "lon": 17.297501,
      "updatedAt": "252330Z",
      "visibility_m": 250,
      "taf_visibility_m": 300,
      "worst_visibility_m": 250,
      "ceiling_ft": 200,
      "hazards": [
        "FG",
        "BR",
        "RA"
      ],
      "severityScore": 100,
      "metarRaw": "METAR LQBK 252330Z 14003KT 0250 R16/0275N FG VV002 04/04 Q0998 NOSIG",
      "tafRaw": "TAF LQBK 252300Z 2600/2624 18005KT 3000 BR NSC TX08/2613Z TN02/2606Z \n  TEMPO 2600/2609 0300 FG VV002 \n  BECMG 2609/2611 6000 NSW \n  PROB40 \n  TEMPO 2614/2618 4000 -RA BR BKN013 BKN030 \n  PROB40 \n  TEMPO 2620/2624 2000 BR BKN007"
    },
    {
      "icao": "LRIA",
      "iata": "IAS",
      "name": "Iaşi Airport",
      "lat": 47.180278,
      "lon": 27.620833,
      "updatedAt": "252330Z",
      "visibility_m": 300,
      "taf_visibility_m": 300,
      "worst_visibility_m": 300,
      "ceiling_ft": 100,
      "hazards": [
        "FG",
        "DZ"
      ],
      "severityScore": 100,
      "metarRaw": "METAR LRIA 252330Z 11011KT 0300 R14/0650N FG VV001 01/01 Q1012",
      "tafRaw": "TAF LRIA 252300Z 2600/2609 11010KT 0300 -DZ FG OVC001"
    },
    {
      "icao": "LRBS",
      "iata": "BBU",
      "name": "Bucharest Băneasa Aurel Vlaicu International Airport",
      "lat": 44.503133,
      "lon": 26.102944,
      "updatedAt": "252330Z",
      "visibility_m": 250,
      "taf_visibility_m": 200,
      "worst_visibility_m": 200,
      "ceiling_ft": 100,
      "hazards": [
        "FG",
        "BR",
        "RA",
        "DZ"
      ],
      "severityScore": 100,
      "metarRaw": "METAR LRBS 252330Z 05010KT 0250 R07/0800N FG VV001 01/01 Q1010 NOSIG",
      "tafRaw": "TAF LRBS 252300Z 2600/2624 06010KT 0200 FG VV001 \n  TEMPO 2600/2605 0600 OVC002 \n  BECMG 2605/2607 0600 OVC002 \n  BECMG 2607/2609 1500 -RADZ BR BKN003 OVC015 \n  BECMG 2609/2611 3000 -RA BR BKN005 OVC020 \n  TEMPO 2611/2620 1500 RA BR"
    },
    {
      "icao": "LRCV",
      "iata": "CRA",
      "name": "Craiova International Airport",
      "lat": 44.3181,
      "lon": 23.888599,
      "updatedAt": "252330Z",
      "visibility_m": 300,
      "taf_visibility_m": 200,
      "worst_visibility_m": 200,
      "ceiling_ft": 100,
      "hazards": [
        "FG",
        "BR",
        "RA",
        "DZ"
      ],
      "severityScore": 100,
      "metarRaw": "METAR LRCV 252330Z 11006KT 0300 R26/0375N FG VV001 00/00 Q1009",
      "tafRaw": "TAF LRCV 252300Z 2600/2609 10007KT 0200 FG VV001 \n  BECMG 2601/2603 0600 OVC002 \n  BECMG 2603/2605 1500 -RADZ BR BKN005 OVC015 \n  BECMG 2607/2609 3000 -RA BR BKN010 OVC025"
    },
    {
      "icao": "LROP",
      "iata": "OTP",
      "name": "Bucharest Henri Coandă International Airport",
      "lat": 44.571792,
      "lon": 26.103285,
      "updatedAt": "252330Z",
      "visibility_m": 250,
      "taf_visibility_m": 200,
      "worst_visibility_m": 200,
      "ceiling_ft": 200,
      "hazards": [
        "FG",
        "BR",
        "RA",
        "DZ"
      ],
      "severityScore": 100,
      "metarRaw": "METAR LROP 252330Z 06009KT 0250 R08R/0650N R08L/0650N FG VV002 01/01 Q1010 NOSIG",
      "tafRaw": "TAF LROP 252300Z 2600/2624 07010KT 0200 FG VV001 \n  TEMPO 2600/2605 0600 OVC002 \n  BECMG 2605/2607 0600 OVC002 \n  BECMG 2607/2609 1500 -RADZ BR BKN003 OVC015 \n  BECMG 2609/2611 3000 -RA BR BKN005 OVC020 \n  TEMPO 2611/2620 1500 RA BR"
    },
    {
      "icao": "LRSV",
      "iata": "SCV",
      "name": "Suceava Stefan cel Mare Airport",
      "lat": 47.6875,
      "lon": 26.35409927368164,
      "updatedAt": "252330Z",
      "visibility_m": 300,
      "taf_visibility_m": 150,
      "worst_visibility_m": 150,
      "ceiling_ft": 200,
      "hazards": [
        "FZFG",
        "FG",
        "FZDZ",
        "DZ"
      ],
      "severityScore": 100,
      "metarRaw": "METAR LRSV 252330Z 14011KT 0300 R34/0600N FZFG VV002 M01/M01 Q1009",
      "tafRaw": "TAF LRSV 252300Z 2600/2609 14012KT 0150 FZFG VV001 \n  PROB40 \n  TEMPO 2600/2603 -FZDZ"
    },
    {
      "icao": "LTAC",
      "iata": "ESB",
      "name": "Esenboğa International Airport",
      "lat": 40.128101,
      "lon": 32.995098,
      "updatedAt": "252320Z",
      "visibility_m": 4300,
      "taf_visibility_m": 500,
      "worst_visibility_m": 500,
      "ceiling_ft": 100,
      "hazards": [
        "BR",
        "FG",
        "SN",
        "RA"
      ],
      "severityScore": 100,
      "metarRaw": "METAR LTAC 252320Z 05004KT 4300 BR SCT004 02/02 Q1018 NOSIG",
      "tafRaw": "TAF LTAC 252240Z 2600/2624 VRB02KT 3500 BR NSC \n  TEMPO 2600/2603 1200 BCFG BKN005 \n  PROB40 2603/2607 0500 FG VV001 \n  BECMG 2608/2611 9999 NSW SCT040 BKN100 \n  TEMPO 2621/2624 -RASN BKN030 BKN080"
    },
    {
      "icao": "LUKK",
      "iata": "RMO",
      "name": "Chişinău International Airport",
      "lat": 46.9277,
      "lon": 28.931,
      "updatedAt": "252330Z",
      "visibility_m": 500,
      "taf_visibility_m": 200,
      "worst_visibility_m": 200,
      "ceiling_ft": 100,
      "hazards": [
        "FG",
        "DZ",
        "FZFG",
        "BR",
        "RA",
        "SHRA",
        "FZDZ"
      ],
      "severityScore": 100,
      "metarRaw": "METAR LUKK 252330Z 10008KT 0500 R08/0600N -DZ FG VV001 00/00 Q1014 NOSIG",
      "tafRaw": "TAF LUKK 252328Z 2600/2624 11010KT 0400 -DZ FG VV001 \n  TEMPO 2601/2606 0200 -FZDZ FZFG \n  BECMG 2611/2613 1200 -RA BR OVC003 \n  TEMPO 2613/2620 3000 SHRA BR SCT010CB"
    },
    {
      "icao": "LZIB",
      "iata": "BTS",
      "name": "M. R. Štefánik Airport",
      "lat": 48.1702,
      "lon": 17.2127,
      "updatedAt": "252330Z",
      "visibility_m": 8000,
      "taf_visibility_m": 500,
      "worst_visibility_m": 500,
      "ceiling_ft": 400,
      "hazards": [
        "FG",
        "BR",
        "RA"
      ],
      "severityScore": 100,
      "metarRaw": "METAR LZIB 252330Z 11005KT 8000 SCT013 OVC015 04/04 Q0996 TEMPO BKN004",
      "tafRaw": "TAF LZIB 252315Z 2600/2700 06010KT 9999 SCT005 BKN018 \n  TEMPO 2600/2602 2500 -RA BR OVC004 \n  TEMPO 2600/2602 1100 BCFG BKN005 \n  BECMG 2601/2603 16006KT 2000 BR OVC005 \n  TEMPO 2602/2609 VRB02KT 0500 FG VV002 \n  BECMG 2609/2612 30006KT 9999 NSW SCT013 \n  TEMPO 2616/2700 BKN009"
    },
    {
      "icao": "UAAA",
      "iata": "ALA",
      "name": "Almaty International Airport",
      "lat": 43.354267,
      "lon": 77.042828,
      "updatedAt": "252340Z",
      "visibility_m": 1100,
      "taf_visibility_m": 200,
      "worst_visibility_m": 200,
      "ceiling_ft": 20000,
      "hazards": [
        "BR",
        "FZFG",
        "FG"
      ],
      "severityScore": 100,
      "metarRaw": "SPECI UAAA 252340Z 13001MPS 1100 R23L/P2000 BR SCT100 BKN200 M09/M10 Q1023 NOSIG",
      "tafRaw": "TAF UAAA 252301Z 2600/2624 17003MPS 1200 BR FU SCT030 BKN100 TX01/2608Z TNM09/2602Z \n  TEMPO 2600/2606 VRB01MPS 0200 FZFG VV002 \n  FM260600 01003MPS 9999 SCT050 BKN100 \n  FM261200 22003MPS 3100 BR FU BKN050 OVC100 \n  TEMPO 2612/2618 17003MPS 0400 FZFG VV003"
    },
    {
      "icao": "UDSG",
      "iata": "LWN",
      "name": "Shirak International Airport",
      "lat": 40.750401,
      "lon": 43.859299,
      "updatedAt": "252330Z",
      "visibility_m": 3800,
      "taf_visibility_m": 200,
      "worst_visibility_m": 200,
      "ceiling_ft": 200,
      "hazards": [
        "BR",
        "FZFG",
        "FG"
      ],
      "severityScore": 100,
      "metarRaw": "METAR UDSG 252330Z 07001KT 3800 BR SCT026 M14/M15 Q1023 NOSIG",
      "tafRaw": "TAF UDSG 252300Z 2600/2624 VRB06KT 2000 BR SCT020 \n  TEMPO 2600/2609 0200 FZFG VV002"
    },
    {
      "icao": "UDYZ",
      "iata": "EVN",
      "name": "Zvartnots International Airport",
      "lat": 40.148941,
      "lon": 44.397887,
      "updatedAt": "252330Z",
      "visibility_m": 2100,
      "taf_visibility_m": 600,
      "worst_visibility_m": 600,
      "ceiling_ft": 600,
      "hazards": [
        "BR",
        "FZFG",
        "FG"
      ],
      "severityScore": 100,
      "metarRaw": "METAR UDYZ 252330Z VRB01KT 2100 R08/P2000N BR BKN006 M04/M05 Q1026 NOSIG",
      "tafRaw": "TAF UDYZ 252300Z 2600/2624 14006KT 2000 BR BKN015 \n  TEMPO 2600/2606 0600 FZFG VV003"
    },
    {
      "icao": "EYKA",
      "iata": "KUN",
      "name": "Kaunas International Airport",
      "lat": 54.963965,
      "lon": 24.08582,
      "updatedAt": "252350Z",
      "visibility_m": 10000,
      "taf_visibility_m": 1500,
      "worst_visibility_m": 1500,
      "ceiling_ft": 1600,
      "hazards": [
        "BR",
        "FZRA",
        "SN",
        "RA"
      ],
      "severityScore": 97,
      "metarRaw": "METAR EYKA 252350Z 13008KT 9999 BKN016 OVC025 M08/M11 Q1012",
      "tafRaw": "TAF EYKA 252300Z 2600/2624 11008KT 8000 SCT010 OVC015 \n  TEMPO 2600/2609 SCT005 BKN010 \n  PROB40 \n  TEMPO 2600/2609 3000 SN OVC005 \n  BECMG 2613/2615 5000 FZRA BR BKN010 OVC015 \n  TEMPO 2616/2624 1500 SN BKN005"
    },
    {
      "icao": "LPPT",
      "iata": "LIS",
      "name": "Lisbon Humberto Delgado Airport",
      "lat": 38.7813,
      "lon": -9.13592,
      "updatedAt": "252330Z",
      "visibility_m": 9000,
      "taf_visibility_m": 1200,
      "worst_visibility_m": 1200,
      "ceiling_ft": 200,
      "hazards": [
        "FG",
        "BR",
        "RA",
        "DZ"
      ],
      "severityScore": 97,
      "metarRaw": "METAR LPPT 252330Z 26005KT 9000 4000S VCFG FEW005 11/11 Q1015",
      "tafRaw": "TAF LPPT 252300Z 2600/2706 22007KT 9999 SCT006 SCT012 \n  TEMPO 2600/2609 3000 DZRA BR SCT002 BKN004 \n  PROB30 \n  TEMPO 2601/2606 1200 DZ BR BKN002 \n  BECMG 2609/2611 23017KT SCT012 BKN025 \n  TEMPO 2611/2621 23020G32KT 6000 RA SCT006 BKN012 \n  BECMG 2621/2623 21018G30KT 4000 RADZ BR SCT004 BKN008 \n  TEMPO 2623/2702 22025G42KT 2000 +RA BKN003 \n  BECMG 2702/2704 26017G27KT 9999 NSW SCT020 FEW025CB"
    },
    {
      "icao": "LATI",
      "iata": "TIA",
      "name": "Tirana International Airport Mother Teresa",
      "lat": 41.4147,
      "lon": 19.7206,
      "updatedAt": "252350Z",
      "visibility_m": 10000,
      "taf_visibility_m": 2500,
      "worst_visibility_m": 2500,
      "ceiling_ft": 6600,
      "hazards": [
        "RA",
        "TSRA",
        "SHRA",
        "TS",
        "FG"
      ],
      "severityScore": 96,
      "metarRaw": "METAR LATI 252350Z 20011KT 9999 -RA SCT040 OVC066 14/08 Q1002 NOSIG",
      "tafRaw": "TAF LATI 252300Z 2600/2624 VRB12G25KT 9999 SCT040 OVC060 TX15/2600Z TN05/2624Z \n  TEMPO 2600/2607 5000 SHRA FEW030CB OVC050 \n  PROB40 \n  TEMPO 2601/2604 3000 TSRA SCT020CB BKN040 \n  BECMG 2608/2610 VRB05KT \n  TEMPO 2620/2624 2500 BCFG NSC"
    },
    {
      "icao": "EBCI",
      "iata": "CRL",
      "name": "Brussels South Charleroi Airport",
      "lat": 50.461963,
      "lon": 4.459562,
      "updatedAt": "252320Z",
      "visibility_m": 6000,
      "taf_visibility_m": 500,
      "worst_visibility_m": 500,
      "ceiling_ft": 3500,
      "hazards": [
        "FZFG",
        "BR",
        "FG"
      ],
      "severityScore": 95,
      "metarRaw": "METAR EBCI 252320Z 12002KT 6000 BKN035 02/00 Q0997 NOSIG",
      "tafRaw": "TAF EBCI 252301Z 2600/2706 02003KT 7000 BKN035 \n  BECMG 2602/2604 4000 BR BKN006 \n  PROB30 \n  TEMPO 2603/2606 0500 FZFG BKN001 \n  TEMPO 2606/2612 2500 -SG BR BKN004 \n  BECMG 2612/2614 7000 NSW BKN012 \n  TEMPO 2623/2705 BKN008 \n  PROB30 \n  TEMPO 2701/2704 4000 BR BKN004"
    },
    {
      "icao": "EPLB",
      "iata": "LUZ",
      "name": "Lublin Airport",
      "lat": 51.240157,
      "lon": 22.713461,
      "updatedAt": "252330Z",
      "visibility_m": 4500,
      "taf_visibility_m": 1500,
      "worst_visibility_m": 1500,
      "ceiling_ft": 400,
      "hazards": [
        "BR",
        "FZDZ",
        "DZ"
      ],
      "severityScore": 93,
      "metarRaw": "METAR EPLB 252330Z 11014KT 4500 BR OVC004 M03/M04 Q1006",
      "tafRaw": "TAF EPLB 252330Z 2600/2624 10012KT 5000 BR BKN005 \n  TEMPO 2600/2608 11015G25KT 4000 BR BKN003 \n  PROB40 \n  TEMPO 2600/2606 2500 -FZDZ BR \n  BECMG 2607/2610 16010KT SCT012 \n  BECMG 2617/2620 4000 BR BKN010 \n  TEMPO 2620/2624 1500 BR BKN003 OVC005"
    },
    {
      "icao": "EDDK",
      "iata": "CGN",
      "name": "Cologne Bonn Airport",
      "lat": 50.865898,
      "lon": 7.14274,
      "updatedAt": "252320Z",
      "visibility_m": 9000,
      "taf_visibility_m": 2000,
      "worst_visibility_m": 2000,
      "ceiling_ft": 400,
      "hazards": [
        "SN",
        "FZDZ",
        "DZ"
      ],
      "severityScore": 91,
      "metarRaw": "METAR EDDK 252320Z AUTO VRB02KT 9000 NSC M01/M03 Q0997 NOSIG",
      "tafRaw": "TAF EDDK 252300Z 2600/2706 VRB03KT 9999 SCT045 \n  BECMG 2603/2606 29005KT BKN010 \n  PROB40 \n  TEMPO 2604/2608 BKN008 \n  TEMPO 2608/2615 2000 -SN BKN009 \n  PROB40 \n  TEMPO 2615/2620 2000 -DZ BKN004 \n  PROB30 \n  TEMPO 2615/2620 FZDZ \n  BECMG 2617/2620 VRB03KT \n  BECMG 2622/2701 SCT010 \n  PROB30 \n  TEMPO 2701/2705 BKN010"
    },
    {
      "icao": "LFOB",
      "iata": "BVA",
      "name": "Beauvais Tillé airport",
      "lat": 49.454399,
      "lon": 2.11278,
      "updatedAt": "252330Z",
      "visibility_m": 2000,
      "taf_visibility_m": 500,
      "worst_visibility_m": 500,
      "ceiling_ft": 500,
      "hazards": [
        "BR",
        "FG"
      ],
      "severityScore": 90,
      "metarRaw": "METAR LFOB 252330Z AUTO 03002KT 7000 OVC005 05/05 Q0997 TEMPO 2000 BR",
      "tafRaw": "TAF LFOB 252300Z 2600/2624 VRB03KT 8000 OVC006 \n  TEMPO 2601/2610 2000 BR OVC003 \n  PROB30 2604/2610 0500 FG VV/// \n  BECMG 2610/2614 BKN014 \n  TEMPO 2610/2624 OVC009 \n  PROB30 \n  TEMPO 2614/2624 BKN004"
    },
    {
      "icao": "LBWN",
      "iata": "VAR",
      "name": "Varna Airport",
      "lat": 43.232101,
      "lon": 27.8251,
      "updatedAt": "252330Z",
      "visibility_m": 3000,
      "taf_visibility_m": 500,
      "worst_visibility_m": 500,
      "ceiling_ft": 1500,
      "hazards": [
        "BR",
        "FG",
        "RA"
      ],
      "severityScore": 89,
      "metarRaw": "METAR LBWN 252330Z AUTO 10008KT 6000 NSC 07/07 Q1011 TEMPO 3000 BR SCT003 BKN015",
      "tafRaw": "TAF LBWN 252300Z 2600/2624 10010KT 4000 BR SCT010 OVC025 \n  TEMPO 2600/2607 1500 BR BKN003 OVC012 \n  PROB30 2600/2606 0500 FG VV002 \n  BECMG 2607/2609 9999 NSW \n  TEMPO 2620/2624 5000 RA BKN010 OVC020"
    },
    {
      "icao": "EDDN",
      "iata": "NUE",
      "name": "Nuremberg Airport",
      "lat": 49.498699,
      "lon": 11.078056,
      "updatedAt": "252320Z",
      "visibility_m": 1900,
      "taf_visibility_m": 600,
      "worst_visibility_m": 600,
      "ceiling_ft": 400,
      "hazards": [
        "BR",
        "SN"
      ],
      "severityScore": 88,
      "metarRaw": "METAR EDDN 252320Z AUTO 26003KT 1900 SN BR FEW000 BKN004 M02/M02 Q0994",
      "tafRaw": "TAF EDDN 252300Z 2600/2624 26004KT 3000 -SN OVC005 \n  TEMPO 2600/2620 1500 SN OVC002 \n  PROB30 \n  TEMPO 2601/2606 0600 +SN OVC001"
    },
    {
      "icao": "LIPQ",
      "iata": "TRS",
      "name": "Trieste–Friuli Venezia Giulia Airport",
      "lat": 45.827499,
      "lon": 13.4722,
      "updatedAt": "252320Z",
      "visibility_m": 2500,
      "taf_visibility_m": 1500,
      "worst_visibility_m": 1500,
      "ceiling_ft": 100,
      "hazards": [
        "BR",
        "RA",
        "FG"
      ],
      "severityScore": 87,
      "metarRaw": "METAR LIPQ 252320Z AUTO VRB01KT 2500 -RA BR OVC018/// 06/06 Q0998",
      "tafRaw": "TAF LIPQ 252300Z 2600/2624 VRB04KT 8000 SCT025 \n  TEMPO 2600/2607 3000 -RA \n  TEMPO 2622/2624 1500 BCFG BKN001"
    },
    {
      "icao": "LICA",
      "iata": "SUF",
      "name": "Lamezia Terme Sant'Eufemia International Airport",
      "lat": 38.906214,
      "lon": 16.246007,
      "updatedAt": "252320Z",
      "visibility_m": 6000,
      "taf_visibility_m": 4000,
      "worst_visibility_m": 4000,
      "ceiling_ft": 5000,
      "hazards": [
        "RA",
        "DZ",
        "TSRA",
        "SHRA",
        "TS"
      ],
      "severityScore": 86,
      "metarRaw": "METAR LICA 252320Z AUTO 26010KT 6000 -RA OVC020/// 11/10 Q1002 REDZ RERA",
      "tafRaw": "TAF LICA 252300Z 2600/2624 26013KT 9999 BKN050 \n  TEMPO 2600/2604 SHRA \n  TEMPO 2607/2611 4000 TSRA \n  BECMG 2613/2615 VRB05KT \n  TEMPO 2618/2622 SHRA"
    },
    {
      "icao": "EPRZ",
      "iata": "RZE",
      "name": "Rzeszów-Jasionka Airport",
      "lat": 50.109791,
      "lon": 22.024155,
      "updatedAt": "252330Z",
      "visibility_m": 10000,
      "taf_visibility_m": 4000,
      "worst_visibility_m": 4000,
      "ceiling_ft": 500,
      "hazards": [
        "BR",
        "RA",
        "FZDZ",
        "DZ"
      ],
      "severityScore": 85,
      "metarRaw": "METAR EPRZ 252330Z 09017KT 9999 OVC005 M00/M01 Q1003",
      "tafRaw": "TAF EPRZ 252330Z 2600/2624 09015KT 9999 BKN006 \n  PROB30 2600/2602 -FZDZ \n  BECMG 2609/2612 10005KT BKN040 \n  TEMPO 2615/2624 4000 -RA BR \n  PROB40 2621/2624 BKN008"
    },
    {
      "icao": "LIMC",
      "iata": "MXP",
      "name": "Milan Malpensa International Airport",
      "lat": 45.6306,
      "lon": 8.72811,
      "updatedAt": "252320Z",
      "visibility_m": 7000,
      "taf_visibility_m": 200,
      "worst_visibility_m": 200,
      "ceiling_ft": 2300,
      "hazards": [
        "FG",
        "BR"
      ],
      "severityScore": 85,
      "metarRaw": "METAR LIMC 252320Z 02005KT 7000 BKN023 04/04 Q0997 NOSIG",
      "tafRaw": "TAF LIMC 252300Z 2600/2706 VRB04KT 3000 BR BKN020 \n  TEMPO 2600/2609 0400 FG BKN002 \n  BECMG 2611/2613 6000 \n  BECMG 2616/2618 3000 BR \n  TEMPO 2620/2704 0200 FG OVC002"
    },
    {
      "icao": "EPWA",
      "iata": "WAW",
      "name": "Warsaw Chopin Airport",
      "lat": 52.165699,
      "lon": 20.9671,
      "updatedAt": "252330Z",
      "visibility_m": 9000,
      "taf_visibility_m": 2000,
      "worst_visibility_m": 2000,
      "ceiling_ft": 900,
      "hazards": [
        "FZRA",
        "RA",
        "BR"
      ],
      "severityScore": 82,
      "metarRaw": "METAR EPWA 252330Z 10011KT 9000 BKN011 M04/M06 Q1005 TEMPO -FZRA BKN009",
      "tafRaw": "TAF EPWA 252330Z 2600/2624 10012KT 7000 BKN010 \n  TEMPO 2600/2609 2500 -FZRA BR BKN004 BKN007 \n  PROB40 \n  TEMPO 2602/2613 SCT012 \n  TEMPO 2609/2621 3000 -RA BR BKN003 OVC005 \n  BECMG 2613/2616 16003KT \n  BECMG 2621/2624 2000 BR"
    },
    {
      "icao": "EPMO",
      "iata": "WMI",
      "name": "Modlin Airport",
      "lat": 52.451099,
      "lon": 20.6518,
      "updatedAt": "252330Z",
      "visibility_m": 6000,
      "taf_visibility_m": 1200,
      "worst_visibility_m": 1200,
      "ceiling_ft": 1100,
      "hazards": [
        "BR",
        "FZRA",
        "RA"
      ],
      "severityScore": 79,
      "metarRaw": "METAR EPMO 252330Z 08012KT 6000 OVC011 M05/M06 Q1005",
      "tafRaw": "TAF EPMO 252330Z 2600/2624 10012KT 5000 BR BKN010 \n  TEMPO 2601/2611 2500 -FZRA BR BKN004 BKN007 \n  PROB40 \n  TEMPO 2603/2613 SCT012 \n  TEMPO 2611/2621 2000 -RA BR BKN003 OVC005 \n  BECMG 2613/2616 16003KT \n  BECMG 2621/2624 1200 BR"
    },
    {
      "icao": "EDJA",
      "iata": "FMM",
      "name": "Memmingen Allgau Airport",
      "lat": 47.988092,
      "lon": 10.238248,
      "updatedAt": "252320Z",
      "visibility_m": 5000,
      "taf_visibility_m": 800,
      "worst_visibility_m": 800,
      "ceiling_ft": 200,
      "hazards": [
        "SN"
      ],
      "severityScore": 78,
      "metarRaw": "METAR EDJA 252320Z AUTO 23012KT 5000 // SCT004/// BKN016/// OVC035/// 01/00 Q0994",
      "tafRaw": "TAF EDJA 251700Z 2518/2603 26003KT 0800 +SN OVC002 \n  BECMG 2518/2521 23009KT 3000 NSW OVC005 \n  TEMPO 2521/2603 2000 SN \n  BECMG 2521/2524 OVC010 \n  PROB30 \n  TEMPO 2523/2603 6000 OVC020"
    },
    {
      "icao": "EPWR",
      "iata": "WRO",
      "name": "Copernicus Wrocław Airport",
      "lat": 51.103719,
      "lon": 16.882096,
      "updatedAt": "252330Z",
      "visibility_m": 4100,
      "taf_visibility_m": 1200,
      "worst_visibility_m": 1200,
      "ceiling_ft": 400,
      "hazards": [
        "BR",
        "RA",
        "DZ"
      ],
      "severityScore": 77,
      "metarRaw": "METAR EPWR 252330Z 09011KT 4100 -RA BR OVC004 02/02 Q0997",
      "tafRaw": "TAF EPWR 252330Z 2600/2624 09009KT 5000 BR OVC006 \n  TEMPO 2600/2603 3000 -RA BR OVC004 \n  PROB40 \n  TEMPO 2600/2603 1300 RA BR \n  BECMG 2603/2606 15010KT 3000 BR OVC004 \n  TEMPO 2603/2608 1200 -RADZ BR OVC001 \n  BECMG 2608/2610 21010KT 9000 BKN020 \n  BECMG 2621/2624 VRB02KT 4000 BR OVC008"
    },
    {
      "icao": "LIPX",
      "iata": "VRN",
      "name": "Verona Villafranca Valerio Catullo Airport",
      "lat": 45.394955,
      "lon": 10.887303,
      "updatedAt": "252320Z",
      "visibility_m": 2000,
      "taf_visibility_m": 400,
      "worst_visibility_m": 400,
      "ceiling_ft": 3000,
      "hazards": [
        "BR",
        "RA",
        "FG"
      ],
      "severityScore": 77,
      "metarRaw": "METAR LIPX 252320Z 04006KT 2000 -RA BR BKN030 05/05 Q0998 RERA",
      "tafRaw": "TAF LIPX 252300Z 2600/2624 VRB05KT 2000 BR BKN030 \n  TEMPO 2600/2608 0400 FG BKN002 \n  BECMG 2609/2611 27010KT 6000 \n  BECMG 2616/2618 VRB05KT \n  BECMG 2620/2622 4000 BR"
    },
    {
      "icao": "LYPG",
      "iata": "TGD",
      "name": "Podgorica Airport / Podgorica Golubovci Airbase",
      "lat": 42.359402,
      "lon": 19.2519,
      "updatedAt": "252330Z",
      "visibility_m": 10000,
      "taf_visibility_m": 2000,
      "worst_visibility_m": 2000,
      "ceiling_ft": 4600,
      "hazards": [
        "RA",
        "TSRA",
        "SHRA",
        "TS"
      ],
      "severityScore": 76,
      "metarRaw": "METAR LYPG 252330Z 02007KT 9999 RA SCT030 BKN046 09/08 Q1002 NOSIG",
      "tafRaw": "TAF LYPG 252300Z 2600/2624 12008KT 9999 FEW023 SCT040 OVC080 TX12/2613Z TN08/2605Z \n  TEMPO 2600/2601 2000 TSRA FEW015 SCT027CB BKN033 \n  PROB30 \n  TEMPO 2601/2610 5000 SHRA FEW030TCU BKN040"
    },
    {
      "icao": "LFPO",
      "iata": "ORY",
      "name": "Paris-Orly Airport",
      "lat": 48.72333,
      "lon": 2.37944,
      "updatedAt": "252330Z",
      "visibility_m": 700,
      "taf_visibility_m": 300,
      "worst_visibility_m": 300,
      "ceiling_ft": 4500,
      "hazards": [
        "FG",
        "BR"
      ],
      "severityScore": 75,
      "metarRaw": "METAR LFPO 252330Z AUTO 26003KT 9999 OVC045 05/05 Q0997 TEMPO 0700 FG VV///",
      "tafRaw": "TAF LFPO 252300Z 2600/2706 28004KT 8000 FEW002 \n  TEMPO 2600/2602 3000 BR BKN001 \n  PROB40 2600/2602 0700 FG VV/// \n  BECMG 2602/2604 0600 FG VV/// \n  TEMPO 2604/2608 0300 FG \n  BECMG 2608/2610 9999 NSW BKN002 \n  BECMG 2613/2615 BKN005 \n  BECMG 2620/2622 CAVOK \n  BECMG 2701/2703 14010KT"
    },
    {
      "icao": "EDDS",
      "iata": "STR",
      "name": "Stuttgart Airport",
      "lat": 48.689899,
      "lon": 9.22196,
      "updatedAt": "252320Z",
      "visibility_m": 3300,
      "taf_visibility_m": 1200,
      "worst_visibility_m": 1200,
      "ceiling_ft": 300,
      "hazards": [
        "BR",
        "SN"
      ],
      "severityScore": 73,
      "metarRaw": "METAR EDDS 252320Z AUTO VRB01KT 3300 -SN BR SCT005 SCT010 M01/M02 Q0994",
      "tafRaw": "TAF EDDS 252300Z 2600/2624 VRB03KT 6000 SCT003 BKN012 \n  TEMPO 2600/2607 2000 -SN BR OVC003 \n  PROB30 \n  TEMPO 2600/2601 1200 SN \n  PROB40 \n  TEMPO 2607/2612 2500 BR BKN003 \n  BECMG 2608/2610 23005KT"
    },
    {
      "icao": "LIMJ",
      "iata": "GOA",
      "name": "Genoa Cristoforo Colombo Airport",
      "lat": 44.412039,
      "lon": 8.840732,
      "updatedAt": "252320Z",
      "visibility_m": 10000,
      "taf_visibility_m": 10000,
      "worst_visibility_m": 10000,
      "ceiling_ft": 2000,
      "hazards": [
        "RA",
        "DZ",
        "TSRA",
        "TS"
      ],
      "severityScore": 72,
      "metarRaw": "METAR LIMJ 252320Z AUTO 02006KT 9999 -RA FEW035/// OVC055/// 08/06 Q0996 REDZ",
      "tafRaw": "TAF LIMJ 252300Z 2600/2624 03010KT 9999 BKN020 \n  PROB40 \n  TEMPO 2600/2603 TSRA"
    },
    {
      "icao": "LEMD",
      "iata": "MAD",
      "name": "Adolfo Suárez Madrid–Barajas Airport",
      "lat": 40.471926,
      "lon": -3.56264,
      "updatedAt": "252330Z",
      "visibility_m": 10000,
      "taf_visibility_m": 3000,
      "worst_visibility_m": 3000,
      "ceiling_ft": 400,
      "hazards": [
        "BR",
        "RA",
        "DZ"
      ],
      "severityScore": 67,
      "metarRaw": "METAR LEMD 252330Z 27009KT CAVOK 08/M00 Q1010 NOSIG",
      "tafRaw": "TAF LEMD 252300Z 2600/2706 24010KT CAVOK TX11/2616Z TN03/2606Z \n  PROB30 \n  TEMPO 2601/2605 23015G25KT \n  PROB30 \n  TEMPO 2603/2608 4000 BR BKN005 BKN014 \n  TEMPO 2608/2620 3000 DZRA RA BKN004 BKN010 \n  TEMPO 2620/2702 BKN014 \n  TEMPO 2621/2706 22015G25KT"
    },
    {
      "icao": "LFSB",
      "iata": "BSL",
      "name": "EuroAirport Basel–Mulhouse–Freiburg",
      "lat": 47.60068,
      "lon": 7.521117,
      "updatedAt": "252330Z",
      "visibility_m": 1700,
      "taf_visibility_m": 3000,
      "worst_visibility_m": 1700,
      "ceiling_ft": 300,
      "hazards": [
        "BR",
        "RA",
        "DZ"
      ],
      "severityScore": 67,
      "metarRaw": "METAR LFSB 252330Z AUTO 26004KT 1700 BR VV/// ///TCU 02/02 Q0997 TEMPO 3000 BR BKN003",
      "tafRaw": "TAF LFSB 252300Z 2600/2624 34005KT 6000 SCT004 \n  PROB30 \n  TEMPO 2600/2602 3000 BR BKN003 \n  PROB40 \n  TEMPO 2600/2608 24007KT 4000 -RADZ FEW003 BKN010 \n  BECMG 2608/2611 25010KT BKN015 \n  BECMG 2615/2617 CAVOK \n  BECMG 2618/2620 VRB04KT \n  PROB30 \n  TEMPO 2620/2624 4000 BR"
    },
    {
      "icao": "LIPE",
      "iata": "BLQ",
      "name": "Bologna Guglielmo Marconi Airport",
      "lat": 44.5354,
      "lon": 11.2887,
      "updatedAt": "252320Z",
      "visibility_m": 6000,
      "taf_visibility_m": 700,
      "worst_visibility_m": 700,
      "ceiling_ft": 1600,
      "hazards": [
        "FG",
        "BR"
      ],
      "severityScore": 67,
      "metarRaw": "METAR LIPE 252320Z 22003KT 6000 BKN016 05/05 Q0998",
      "tafRaw": "TAF LIPE 252300Z 2600/2624 VRB04KT 2500 BR SCT012 \n  PROB40 \n  TEMPO 2600/2608 0700 FG BKN002 \n  BECMG 2609/2611 6000 \n  TEMPO 2618/2624 3000 BR BKN002"
    },
    {
      "icao": "LQSA",
      "iata": "SJJ",
      "name": "Sarajevo International Airport",
      "lat": 43.8246,
      "lon": 18.331499,
      "updatedAt": "252330Z",
      "visibility_m": 10000,
      "taf_visibility_m": 1200,
      "worst_visibility_m": 1200,
      "ceiling_ft": 300,
      "hazards": [
        "BR",
        "RA"
      ],
      "severityScore": 67,
      "metarRaw": "METAR LQSA 252330Z 16014KT 9999 SCT060 06/03 Q0999",
      "tafRaw": "TAF LQSA 252300Z 2600/2624 11006KT 9999 BKN050 TX09/2613Z TN01/2606Z \n  PROB30 \n  TEMPO 2600/2602 17013KT 4000 RA BKN012 OVC030 \n  PROB40 \n  TEMPO 2602/2609 1200 BR BKN003 \n  PROB40 \n  TEMPO 2616/2624 4000 RA BKN010 OVC025"
    },
    {
      "icao": "LRBC",
      "iata": "BCM",
      "name": "Bacău George Enescu International  Airport",
      "lat": 46.5219,
      "lon": 26.910299,
      "updatedAt": "252330Z",
      "visibility_m": 10000,
      "taf_visibility_m": 1500,
      "worst_visibility_m": 1500,
      "ceiling_ft": 900,
      "hazards": [
        "BR",
        "RA",
        "DZ"
      ],
      "severityScore": 67,
      "metarRaw": "METAR LRBC 252330Z 14004KT 9999 OVC009 M00/M00 Q1012",
      "tafRaw": "TAF LRBC 252300Z 2600/2609 18007KT 8000 OVC005 \n  BECMG 2600/2602 5000 BR OVC002 \n  TEMPO 2602/2606 1500 BR \n  TEMPO 2606/2609 3000 -RADZ BR"
    },
    {
      "icao": "LRTR",
      "iata": "TSR",
      "name": "Timişoara Traian Vuia Airport",
      "lat": 45.809898,
      "lon": 21.3379,
      "updatedAt": "252330Z",
      "visibility_m": 10000,
      "taf_visibility_m": 1500,
      "worst_visibility_m": 1500,
      "ceiling_ft": 200,
      "hazards": [
        "BR",
        "RA"
      ],
      "severityScore": 67,
      "metarRaw": "METAR LRTR 252330Z 14015KT CAVOK 11/03 Q1000",
      "tafRaw": "TAF LRTR 252300Z 2600/2624 10010KT 9999 BKN045 \n  PROB30 \n  TEMPO 2600/2604 5000 -RA BR \n  BECMG 2608/2610 VRB04KT 5000 -RA BR BKN015 OVC030 \n  PROB40 \n  TEMPO 2612/2618 1500 RA BR BKN005 OVC030 \n  BECMG 2618/2620 3000 BR BKN010 OVC025 \n  PROB30 \n  TEMPO 2620/2624 1500 BR BKN002 OVC020 \n  BECMG 2622/2624 34010KT"
    },
    {
      "icao": "EHEH",
      "iata": "EIN",
      "name": "Eindhoven Airport",
      "lat": 51.4500999451,
      "lon": 5.37452983856,
      "updatedAt": null,
      "visibility_m": null,
      "taf_visibility_m": 1500,
      "worst_visibility_m": 1500,
      "ceiling_ft": 700,
      "hazards": [
        "BR",
        "SN"
      ],
      "severityScore": 63,
      "metarRaw": null,
      "tafRaw": "TAF EHEH 251711Z 2518/2624 09006KT 6000 NSC \n  BECMG 2601/2603 3500 BR BKN010 \n  PROB30 \n  TEMPO 2602/2605 1500 SCT004 BKN007 \n  PROB30 \n  TEMPO 2611/2615 2000 BR -SN SCT004 BKN007"
    },
    {
      "icao": "ENTC",
      "iata": "TOS",
      "name": "Tromsø Airport, Langnes",
      "lat": 69.683296,
      "lon": 18.9189,
      "updatedAt": "252320Z",
      "visibility_m": 10000,
      "taf_visibility_m": 1000,
      "worst_visibility_m": 1000,
      "ceiling_ft": 800,
      "hazards": [
        "SHSN",
        "SN"
      ],
      "severityScore": 63,
      "metarRaw": "METAR ENTC 252320Z 03007KT 9999 -SHSN FEW008 SCT012 M03/M04 Q1013 RMK WIND 2600FT 01019KT",
      "tafRaw": "TAF ENTC 252300Z 2600/2624 02009KT 9000 -SHSN SCT010 BKN020 \n  TEMPO 2600/2606 1000 SHSN BKN008 FEW015CB \n  PROB40 \n  TEMPO 2606/2622 3000 -SHSN BKN014 FEW030CB \n  TEMPO 2622/2624 28010KT"
    },
    {
      "icao": "LGAV",
      "iata": "ATH",
      "name": "Athens Eleftherios Venizelos International Airport",
      "lat": 37.936401,
      "lon": 23.9445,
      "updatedAt": "252320Z",
      "visibility_m": 10000,
      "taf_visibility_m": 4000,
      "worst_visibility_m": 4000,
      "ceiling_ft": 4000,
      "hazards": [
        "TSRA",
        "RA",
        "TS"
      ],
      "severityScore": 62,
      "metarRaw": "METAR LGAV 252320Z 16008KT 9999 FEW020 BKN040 15/12 Q1010 NOSIG",
      "tafRaw": "TAF LGAV 252300Z 2600/2624 17015KT 9999 FEW018 SCT040 \n  TEMPO 2600/2606 16022G32KT \n  BECMG 2612/2614 25010KT \n  BECMG 2602/2604 BKN020 BKN070 \n  PROB40 \n  TEMPO 2600/2615 5000 RA SCT016 FEW018TCU BKN070 \n  PROB40 \n  TEMPO 2602/2612 4000 TSRA FEW018CB BKN020 BKN070"
    },
    {
      "icao": "LGTS",
      "iata": "SKG",
      "name": "Thessaloniki Macedonia International Airport",
      "lat": 40.51928,
      "lon": 22.970009,
      "updatedAt": "252320Z",
      "visibility_m": 10000,
      "taf_visibility_m": 3000,
      "worst_visibility_m": 3000,
      "ceiling_ft": 3000,
      "hazards": [
        "TS",
        "TSRA",
        "RA"
      ],
      "severityScore": 62,
      "metarRaw": "METAR LGTS 252320Z VRB02KT 9999 FEW012 BKN030 11/11 Q1008 NOSIG",
      "tafRaw": "TAF LGTS 252300Z 2600/2624 14005KT 9999 FEW008 BKN025 \n  TEMPO 2600/2624 5000 RA \n  PROB40 \n  TEMPO 2606/2624 3000 TSRA FEW006 FEW015CB OVC025 \n  BECMG 2620/2622 34015KT"
    },
    {
      "icao": "LICJ",
      "iata": "PMO",
      "name": "Falcone–Borsellino Airport",
      "lat": 38.175999,
      "lon": 13.091,
      "updatedAt": "252320Z",
      "visibility_m": 10000,
      "taf_visibility_m": 4000,
      "worst_visibility_m": 4000,
      "ceiling_ft": 3000,
      "hazards": [
        "TSRA",
        "TS",
        "RA"
      ],
      "severityScore": 62,
      "metarRaw": "METAR LICJ 252320Z 20013KT 9999 BKN030 12/08 Q1004",
      "tafRaw": "TAF LICJ 252300Z 2600/2624 20015KT 9999 BKN025 \n  TEMPO 2604/2618 4000 TSRA \n  BECMG 2613/2615 32020KT"
    },
    {
      "icao": "LIRF",
      "iata": "FCO",
      "name": "Rome–Fiumicino Leonardo da Vinci International Airport",
      "lat": 41.804532,
      "lon": 12.251998,
      "updatedAt": "252320Z",
      "visibility_m": 10000,
      "taf_visibility_m": 4000,
      "worst_visibility_m": 4000,
      "ceiling_ft": null,
      "hazards": [
        "TSRA",
        "RA",
        "TS"
      ],
      "severityScore": 62,
      "metarRaw": "METAR LIRF 252320Z 07005KT 9999 FEW030 06/06 Q0999 NOSIG",
      "tafRaw": "TAF LIRF 252300Z 2600/2706 07007KT 9999 SCT030 \n  PROB40 \n  TEMPO 2603/2606 RA \n  TEMPO 2608/2611 4000 TSRA \n  BECMG 2612/2614 01012KT \n  BECMG 2615/2617 31010KT \n  BECMG 2623/2701 03006KT"
    },
    {
      "icao": "LIRN",
      "iata": "NAP",
      "name": "Naples International Airport",
      "lat": 40.886002,
      "lon": 14.2908,
      "updatedAt": "252320Z",
      "visibility_m": 10000,
      "taf_visibility_m": 4000,
      "worst_visibility_m": 4000,
      "ceiling_ft": 4000,
      "hazards": [
        "TSRA",
        "TS",
        "RA"
      ],
      "severityScore": 62,
      "metarRaw": "METAR LIRN 252320Z 22003KT 190V270 9999 SCT060 08/07 Q1000 NOSIG",
      "tafRaw": "TAF LIRN 252300Z 2600/2624 VRB05KT 9999 BKN040 \n  TEMPO 2603/2606 4000 TSRA \n  TEMPO 2609/2613 4000 TSRA"
    },
    {
      "icao": "LKPR",
      "iata": "PRG",
      "name": "Václav Havel Airport Prague",
      "lat": 50.100874,
      "lon": 14.259911,
      "updatedAt": "252330Z",
      "visibility_m": 10000,
      "taf_visibility_m": 1200,
      "worst_visibility_m": 1200,
      "ceiling_ft": 1300,
      "hazards": [
        "RA",
        "BR",
        "SN"
      ],
      "severityScore": 62,
      "metarRaw": "METAR LKPR 252330Z 14008KT 9999 -RA FEW008 BKN013 OVC033 02/02 Q0993 NOSIG",
      "tafRaw": "TAF LKPR 252300Z 2600/2706 08008KT 9999 -RA BKN017 OVC033 \n  TEMPO 2600/2602 16008KT 4000 RA BR BKN004 \n  PROB40 \n  TEMPO 2600/2602 1200 -RASN OVC002 \n  TEMPO 2610/2621 6000 -SN BKN008"
    },
    {
      "icao": "EGBB",
      "iata": "BHX",
      "name": "Birmingham Airport",
      "lat": 52.453899,
      "lon": -1.74803,
      "updatedAt": "252320Z",
      "visibility_m": 5000,
      "taf_visibility_m": 3000,
      "worst_visibility_m": 3000,
      "ceiling_ft": 600,
      "hazards": [
        "DZ",
        "BR",
        "RA"
      ],
      "severityScore": 57,
      "metarRaw": "METAR EGBB 252320Z 04007KT 5000 -DZ BKN006 04/03 Q1000",
      "tafRaw": "TAF EGBB 252256Z 2600/2624 07007KT 9999 BKN012 \n  TEMPO 2600/2603 7000 -RADZ BKN008 \n  PROB30 \n  TEMPO 2600/2603 4000 RADZ BR BKN004 \n  PROB30 \n  TEMPO 2603/2610 4000 BR BKN008 \n  BECMG 2609/2612 13010KT BKN016 \n  PROB30 2610/2617 7000 \n  PROB30 \n  TEMPO 2612/2617 BKN014 \n  TEMPO 2617/2624 5000 RA BKN012 \n  PROB30 \n  TEMPO 2618/2624 3000 +RA BR BKN008 \n  PROB30 \n  TEMPO 2622/2624 12016G26KT"
    },
    {
      "icao": "LFLL",
      "iata": "LYS",
      "name": "Lyon Saint-Exupéry Airport",
      "lat": 45.725996,
      "lon": 5.090139,
      "updatedAt": "252330Z",
      "visibility_m": 10000,
      "taf_visibility_m": 600,
      "worst_visibility_m": 600,
      "ceiling_ft": 4300,
      "hazards": [
        "RA",
        "FG"
      ],
      "severityScore": 57,
      "metarRaw": "METAR LFLL 252330Z 19005KT 9999 FEW046 04/02 Q0998 NOSIG",
      "tafRaw": "TAF LFLL 252300Z 2600/2706 VRB03KT 9999 BKN043 \n  PROB40 \n  TEMPO 2601/2610 0600 BCFG VV/// \n  PROB30 \n  TEMPO 2604/2607 -RA \n  BECMG 2615/2617 CAVOK \n  BECMG 2619/2621 16006KT \n  BECMG 2703/2705 18016KT \n  TEMPO 2705/2706 18020G35KT"
    },
    {
      "icao": "LPPS",
      "iata": "PXO",
      "name": "Porto Santo Airport",
      "lat": 33.0733985901,
      "lon": -16.3500003815,
      "updatedAt": "252330Z",
      "visibility_m": 10000,
      "taf_visibility_m": 3000,
      "worst_visibility_m": 3000,
      "ceiling_ft": 800,
      "hazards": [
        "BR",
        "RA",
        "DZ"
      ],
      "severityScore": 57,
      "metarRaw": "METAR LPPS 252330Z 27009KT 9999 FEW015 SCT030 17/12 Q1025",
      "tafRaw": "TAF LPPS 252300Z 2600/2706 27010KT 9999 FEW015 SCT030 \n  BECMG 2608/2610 20012KT \n  BECMG 2700/2702 23017KT SCT012 BKN030 \n  TEMPO 2702/2706 23023G35KT 3000 RADZ BR SCT004 BKN008"
    },
    {
      "icao": "UBBB",
      "iata": "GYD",
      "name": "Heydar Aliyev International Airport",
      "lat": 40.467498779296875,
      "lon": 50.04669952392578,
      "updatedAt": "252330Z",
      "visibility_m": 10000,
      "taf_visibility_m": 3000,
      "worst_visibility_m": 3000,
      "ceiling_ft": 2500,
      "hazards": [
        "BR",
        "SHRA",
        "FG",
        "RA"
      ],
      "severityScore": 56,
      "metarRaw": "METAR UBBB 252330Z 28006KT CAVOK 04/03 Q1022 NOSIG",
      "tafRaw": "TAF UBBB 252257Z 2600/2624 VRB04KT 9999 SCT012 TX08/2610Z TN02/2601Z \n  TEMPO 2600/2605 3000 BR BCFG SCT005 \n  BECMG 2605/2607 17008KT SCT030 \n  TEMPO 2607/2611 19016KT \n  BECMG 2611/2613 33014KT SCT012 BKN025 \n  TEMPO 2613/2624 35018G28KT -SHRA SCT025CB"
    },
    {
      "icao": "LRTM",
      "iata": "TGM",
      "name": "Târgu Mureş Transilvania International Airport",
      "lat": 46.467701,
      "lon": 24.4125,
      "updatedAt": "252330Z",
      "visibility_m": 10000,
      "taf_visibility_m": 1500,
      "worst_visibility_m": 1500,
      "ceiling_ft": 200,
      "hazards": [
        "BR"
      ],
      "severityScore": 55,
      "metarRaw": "METAR LRTM 252330Z AUTO 08009KT 9999 NCD 02/00 Q1005",
      "tafRaw": "TAF LRTM 251400Z 2515/2524 VRB04KT 5000 BR NSC \n  TEMPO 2516/2519 1500 BR BKN002"
    },
    {
      "icao": "LMML",
      "iata": "MLA",
      "name": "Malta International Airport",
      "lat": 35.857498,
      "lon": 14.4775,
      "updatedAt": "252345Z",
      "visibility_m": 8000,
      "taf_visibility_m": 3000,
      "worst_visibility_m": 3000,
      "ceiling_ft": null,
      "hazards": [
        "SHRA",
        "RA",
        "TS"
      ],
      "severityScore": 51,
      "metarRaw": "METAR LMML 252345Z 26011KT 9999 FEW026TCU 11/08 Q1006 TEMPO 8000 SHRA",
      "tafRaw": "TAF LMML 252300Z 2600/2624 27017KT 9999 SCT020 \n  TEMPO 2600/2624 6000 SHRA SHGS BKN018TCU \n  TEMPO 2600/2606 27020G30KT \n  PROB30 \n  TEMPO 2600/2624 3000 TSRAGS BKN014CB \n  BECMG 2606/2609 26023G33KT \n  BECMG 2615/2618 29028G40KT \n  BECMG 2620/2623 32023G33KT"
    },
    {
      "icao": "EPKK",
      "iata": "KRK",
      "name": "Kraków John Paul II International Airport",
      "lat": 50.077702,
      "lon": 19.7848,
      "updatedAt": "252330Z",
      "visibility_m": 8000,
      "taf_visibility_m": 4000,
      "worst_visibility_m": 4000,
      "ceiling_ft": 600,
      "hazards": [
        "BR",
        "RA"
      ],
      "severityScore": 47,
      "metarRaw": "METAR EPKK 252330Z 04007KT 8000 FEW060 02/00 Q0999",
      "tafRaw": "TAF EPKK 252330Z 2600/2624 06010KT 7000 NSC \n  BECMG 2603/2606 VRB02KT \n  PROB30 2608/2613 4000 -RA BR BKN006"
    },
    {
      "icao": "LFLS",
      "iata": "GNB",
      "name": "Grenoble Alpes Isère Airport",
      "lat": 45.3629,
      "lon": 5.32937,
      "updatedAt": "252330Z",
      "visibility_m": 10000,
      "taf_visibility_m": 3000,
      "worst_visibility_m": 3000,
      "ceiling_ft": 800,
      "hazards": [
        "BR",
        "RA"
      ],
      "severityScore": 47,
      "metarRaw": "METAR LFLS 252330Z AUTO VRB02KT 9999 FEW013 03/02 Q0998",
      "tafRaw": "TAF LFLS 251400Z 2515/2615 24008KT 9999 SCT050 BKN080 \n  TEMPO 2515/2519 RA BKN020 \n  PROB40 \n  TEMPO 2516/2518 3000 BKN014 \n  TEMPO 2519/2609 3000 BR BKN008 \n  BECMG 2523/2601 09005KT \n  PROB40 \n  TEMPO 2609/2612 BKN014"
    },
    {
      "icao": "LIBR",
      "iata": "BDS",
      "name": "Brindisi Airport",
      "lat": 40.6576,
      "lon": 17.947001,
      "updatedAt": "252320Z",
      "visibility_m": 8000,
      "taf_visibility_m": 3000,
      "worst_visibility_m": 3000,
      "ceiling_ft": 800,
      "hazards": [
        "BR",
        "RA"
      ],
      "severityScore": 47,
      "metarRaw": "METAR LIBR 252320Z 16003KT 130V190 8000 FEW045 10/09 Q1001",
      "tafRaw": "TAF LIBR 252300Z 2600/2624 VRB05KT 8000 NSC \n  TEMPO 2600/2603 3000 -RA BKN008 \n  PROB30 \n  TEMPO 2603/2606 3000 BR BKN008 \n  TEMPO 2608/2611 23010KT \n  BECMG 2621/2623 31010KT"
    },
    {
      "icao": "LKMT",
      "iata": "OSR",
      "name": "Leoš Janáček Airport Ostrava",
      "lat": 49.696301,
      "lon": 18.111099,
      "updatedAt": "252330Z",
      "visibility_m": 4500,
      "taf_visibility_m": 1800,
      "worst_visibility_m": 1800,
      "ceiling_ft": 500,
      "hazards": [
        "BR",
        "RA"
      ],
      "severityScore": 47,
      "metarRaw": "METAR LKMT 252330Z 01007KT 4500 BR SCT040 01/01 Q0996 NOSIG",
      "tafRaw": "TAF LKMT 252300Z 2600/2624 02004KT 3500 BR BKN040 \n  TEMPO 2600/2603 1800 -RA BR BKN014 \n  BECMG 2603/2605 21008KT 9999 BKN025 \n  PROB40 \n  TEMPO 2620/2624 3500 BR BKN005"
    },
    {
      "icao": "LZKZ",
      "iata": "KSC",
      "name": "Košice International Airport",
      "lat": 48.663101,
      "lon": 21.2411,
      "updatedAt": "252330Z",
      "visibility_m": 10000,
      "taf_visibility_m": 3500,
      "worst_visibility_m": 3500,
      "ceiling_ft": 500,
      "hazards": [
        "RA",
        "BR"
      ],
      "severityScore": 47,
      "metarRaw": "METAR LZKZ 252330Z VRB02KT 9999 -RA SCT044 04/02 Q1002 NOSIG",
      "tafRaw": "TAF LZKZ 252315Z 2600/2700 23006KT 9999 SCT010 BKN030 \n  TEMPO 2600/2619 3500 -RA BR BKN005 OVC020 \n  BECMG 2614/2616 05004KT \n  TEMPO 2618/2700 OVC010"
    },
    {
      "icao": "LYBE",
      "iata": "BEG",
      "name": "Belgrade Nikola Tesla Airport",
      "lat": 44.818401,
      "lon": 20.309099,
      "updatedAt": "252330Z",
      "visibility_m": 10000,
      "taf_visibility_m": 2000,
      "worst_visibility_m": 2000,
      "ceiling_ft": 200,
      "hazards": [
        "BR"
      ],
      "severityScore": 45,
      "metarRaw": "METAR LYBE 252330Z 14011KT CAVOK 09/03 Q1001 NOSIG",
      "tafRaw": "TAF LYBE 252300Z 2600/2624 14014KT CAVOK TX10/2613Z TN05/2624Z \n  BECMG 2612/2614 35006KT \n  BECMG 2617/2619 4000 BR BKN012 BKN030 \n  BECMG 2620/2622 29010KT 2000 BKN002"
    },
    {
      "icao": "LPFR",
      "iata": "FAO",
      "name": "Faro - Gago Coutinho International Airport",
      "lat": 37.015909,
      "lon": -7.970939,
      "updatedAt": "252330Z",
      "visibility_m": 5000,
      "taf_visibility_m": 2000,
      "worst_visibility_m": 2000,
      "ceiling_ft": 1000,
      "hazards": [
        "BR",
        "DZ",
        "RA"
      ],
      "severityScore": 44,
      "metarRaw": "METAR LPFR 252330Z 26017KT 5000 -DZ BR SCT005 BKN010 15/14 Q1017",
      "tafRaw": "TAF LPFR 252300Z 2600/2624 25017KT 9999 SCT008 BKN015 \n  TEMPO 2600/2624 25020G32KT 2000 RADZ BR SCT004 BKN008"
    },
    {
      "icao": "ESSA",
      "iata": "ARN",
      "name": "Stockholm-Arlanda Airport",
      "lat": 59.64849,
      "lon": 17.928829,
      "updatedAt": "252320Z",
      "visibility_m": 8000,
      "taf_visibility_m": 4000,
      "worst_visibility_m": 4000,
      "ceiling_ft": 700,
      "hazards": [
        "SN"
      ],
      "severityScore": 43,
      "metarRaw": "METAR ESSA 252320Z 01010KT 8000 -SN OVC007 M05/M06 Q1011 BECMG FEW006 BKN030",
      "tafRaw": "TAF ESSA 252330Z 2600/2624 01007KT 9999 -SN FEW012 BKN030 \n  TEMPO 2600/2601 4000 BKN008 \n  PROB40 2601/2603 BKN012"
    },
    {
      "icao": "EDNY",
      "iata": "FDH",
      "name": "Bodensee Airport Friedrichshafen",
      "lat": 47.671299,
      "lon": 9.51149,
      "updatedAt": "252320Z",
      "visibility_m": 2500,
      "taf_visibility_m": 4500,
      "worst_visibility_m": 2500,
      "ceiling_ft": 1200,
      "hazards": [
        "SN",
        "RA"
      ],
      "severityScore": 42,
      "metarRaw": "METAR EDNY 252320Z AUTO 00000KT 2500 // FEW029/// OVC043/// 01/01 Q0996",
      "tafRaw": "TAF EDNY 251700Z 2518/2603 25002KT 9999 OVC030 \n  PROB30 \n  TEMPO 2518/2603 4500 RASN BKN012"
    },
    {
      "icao": "LHBP",
      "iata": "BUD",
      "name": "Budapest Liszt Ferenc International Airport",
      "lat": 47.43018,
      "lon": 19.262393,
      "updatedAt": "252330Z",
      "visibility_m": 10000,
      "taf_visibility_m": 1400,
      "worst_visibility_m": 1400,
      "ceiling_ft": 8000,
      "hazards": [
        "RA",
        "BR",
        "DZ"
      ],
      "severityScore": 42,
      "metarRaw": "METAR LHBP 252330Z 10012KT 9999 -RA FEW034 BKN080 05/03 Q0998 NOSIG",
      "tafRaw": "TAF LHBP 252315Z 2600/2624 08008KT 9999 FEW020 BKN055 \n  TEMPO 2600/2609 4000 RA BKN008 OVC030 \n  PROB40 \n  TEMPO 2603/2609 1400 RADZ BR OVC004 \n  BECMG 2609/2612 VRB03KT 3000 BR BKN004 OVC010 \n  BECMG 2616/2620 32006KT 8000 NSW SCT020"
    },
    {
      "icao": "EKCH",
      "iata": "CPH",
      "name": "Copenhagen Kastrup Airport",
      "lat": 55.617900848389,
      "lon": 12.656000137329,
      "updatedAt": "252320Z",
      "visibility_m": 10000,
      "taf_visibility_m": 1200,
      "worst_visibility_m": 1200,
      "ceiling_ft": 1200,
      "hazards": [
        "SN"
      ],
      "severityScore": 40,
      "metarRaw": "METAR EKCH 252320Z AUTO 05014KT 9999 FEW180/// M01/M03 Q1007 NOSIG",
      "tafRaw": "TAF EKCH 252327Z 2600/2624 05015KT 9999 OVC020 \n  BECMG 2604/2607 05015G25KT \n  BECMG 2614/2616 1200 SN OVC012 \n  TEMPO 2616/2624 5000 -SN DRSN OVC018"
    },
    {
      "icao": "ESMS",
      "iata": "MMX",
      "name": "Malmö Sturup Airport",
      "lat": 55.535564,
      "lon": 13.376327,
      "updatedAt": "252320Z",
      "visibility_m": 10000,
      "taf_visibility_m": 1200,
      "worst_visibility_m": 1200,
      "ceiling_ft": 1200,
      "hazards": [
        "SN"
      ],
      "severityScore": 40,
      "metarRaw": "METAR ESMS 252320Z 07013KT 9999 SCT021 M00/M04 Q1006",
      "tafRaw": "TAF ESMS 252327Z 2600/2624 06012KT 9999 BKN020 \n  BECMG 2602/2605 06015G28KT OVC012 \n  TEMPO 2605/2618 OVC015 \n  BECMG 2616/2618 1200 SN \n  TEMPO 2618/2624 5000 -SN DRSN BKN015"
    },
    {
      "icao": "LFBD",
      "iata": "BOD",
      "name": "Bordeaux–Mérignac Airport",
      "lat": 44.82865,
      "lon": -0.715356,
      "updatedAt": "252330Z",
      "visibility_m": 4500,
      "taf_visibility_m": 3000,
      "worst_visibility_m": 3000,
      "ceiling_ft": 1000,
      "hazards": [
        "SHRA",
        "RA"
      ],
      "severityScore": 38,
      "metarRaw": "METAR LFBD 252330Z AUTO 30008KT 9999 FEW016/// SCT032/// BKN038/// ///CB 07/06 Q1001 TEMPO 26015G25KT 4500 -SHRA",
      "tafRaw": "TAF LFBD 252300Z 2600/2706 28010KT 9999 BKN030 TX12/2614Z TN05/2606Z \n  TEMPO 2600/2609 26015G25KT 3000 SHRA BKN025TCU \n  PROB30 \n  TEMPO 2600/2609 SCT030CB \n  BECMG 2609/2611 16008KT \n  TEMPO 2618/2706 4000 SHRA BKN010 BKN030TCU"
    },
    {
      "icao": "LYNI",
      "iata": "INI",
      "name": "Niš Constantine the Great Airport",
      "lat": 43.336538,
      "lon": 21.856242,
      "updatedAt": "252330Z",
      "visibility_m": 10000,
      "taf_visibility_m": 5000,
      "worst_visibility_m": 5000,
      "ceiling_ft": 500,
      "hazards": [
        "RA"
      ],
      "severityScore": 37,
      "metarRaw": "METAR LYNI 252330Z 09004KT 9999 FEW050 10/04 Q1003 NOSIG",
      "tafRaw": "TAF LYNI 252300Z 2600/2624 06007KT 9999 SCT050 BKN090 TX10/2613Z TN06/2606Z \n  BECMG 2613/2615 BKN012 \n  TEMPO 2615/2618 5000 RA BKN005"
    },
    {
      "icao": "EGPD",
      "iata": "ABZ",
      "name": "Aberdeen International Airport",
      "lat": 57.2019,
      "lon": -2.19778,
      "updatedAt": "252320Z",
      "visibility_m": 10000,
      "taf_visibility_m": 4000,
      "worst_visibility_m": 4000,
      "ceiling_ft": 1400,
      "hazards": [
        "RA",
        "DZ"
      ],
      "severityScore": 34,
      "metarRaw": "METAR EGPD 252320Z 10011KT 9999 -RA BKN017 04/01 Q1006 TEMPO RA BKN014",
      "tafRaw": "TAF EGPD 252254Z 2600/2624 11009KT 9999 SCT014 BKN025 \n  TEMPO 2600/2614 6000 -RADZ BKN014 \n  PROB30 \n  TEMPO 2600/2614 4000 RADZ BKN008 \n  PROB40 \n  TEMPO 2612/2615 13015G25KT \n  PROB30 \n  TEMPO 2614/2624 6000 -RADZ BKN014 \n  BECMG 2615/2618 13016G30KT"
    },
    {
      "icao": "LRCL",
      "iata": "CLJ",
      "name": "Cluj Avram Iancu International Airport",
      "lat": 46.787425,
      "lon": 23.684292,
      "updatedAt": "252330Z",
      "visibility_m": 10000,
      "taf_visibility_m": 5000,
      "worst_visibility_m": 5000,
      "ceiling_ft": 1500,
      "hazards": [
        "BR",
        "RA"
      ],
      "severityScore": 34,
      "metarRaw": "METAR LRCL 252330Z 08011KT CAVOK 05/01 Q1005",
      "tafRaw": "TAF LRCL 252300Z 2600/2609 08008KT CAVOK \n  BECMG 2607/2609 5000 -RA BR BKN015 BKN040"
    },
    {
      "icao": "LRSB",
      "iata": "SBZ",
      "name": "Sibiu International Airport",
      "lat": 45.785841,
      "lon": 24.086666,
      "updatedAt": "252330Z",
      "visibility_m": 10000,
      "taf_visibility_m": 3000,
      "worst_visibility_m": 3000,
      "ceiling_ft": 1000,
      "hazards": [
        "BR",
        "RA"
      ],
      "severityScore": 34,
      "metarRaw": "METAR LRSB 252330Z VRB01KT CAVOK 07/02 Q1005",
      "tafRaw": "TAF LRSB 252300Z 2600/2624 13012KT 9999 SCT070 \n  PROB30 \n  TEMPO 2610/2615 5000 -RA BR BKN015 BKN050 \n  BECMG 2615/2617 VRB04KT 5000 -RA BR BKN015 BKN040 \n  TEMPO 2619/2624 3000 RA BR BKN010 OVC035"
    },
    {
      "icao": "EGKK",
      "iata": "LGW",
      "name": "London Gatwick Airport",
      "lat": 51.148771,
      "lon": -0.192089,
      "updatedAt": "252320Z",
      "visibility_m": 7000,
      "taf_visibility_m": 4000,
      "worst_visibility_m": 4000,
      "ceiling_ft": 2000,
      "hazards": [
        "BR",
        "RA",
        "DZ"
      ],
      "severityScore": 32,
      "metarRaw": "METAR EGKK 252320Z 03005KT 7000 SCT015 BKN020 06/05 Q0998",
      "tafRaw": "TAF EGKK 252255Z 2600/2706 05005KT 9999 SCT010 \n  TEMPO 2600/2612 7000 -RADZ BKN007 \n  PROB30 \n  TEMPO 2600/2609 4000 DZ BR \n  PROB30 \n  TEMPO 2600/2606 BKN004 \n  BECMG 2612/2615 12010KT \n  PROB30 \n  TEMPO 2612/2622 8000 -RA \n  PROB30 \n  TEMPO 2612/2616 BKN011 \n  PROB30 \n  TEMPO 2616/2622 BKN008 \n  TEMPO 2622/2706 6000 RA BKN007 \n  TEMPO 2701/2706 23017G30KT \n  PROB40 \n  TEMPO 2701/2706 4000 +RA RADZ"
    },
    {
      "icao": "LPPR",
      "iata": "OPO",
      "name": "Francisco de Sá Carneiro Airport",
      "lat": 41.2481002808,
      "lon": -8.68138980865,
      "updatedAt": "252330Z",
      "visibility_m": 4000,
      "taf_visibility_m": 2000,
      "worst_visibility_m": 2000,
      "ceiling_ft": 3000,
      "hazards": [
        "BR",
        "RA",
        "DZ"
      ],
      "severityScore": 32,
      "metarRaw": "METAR LPPR 252330Z 16007KT 4000 BR FEW023 BKN030 10/09 Q1012",
      "tafRaw": "TAF LPPR 252300Z 2600/2624 16008KT 8000 SCT020 \n  BECMG 2600/2602 SCT012 BKN025 \n  TEMPO 2600/2624 2000 RADZ BR SCT002 BKN004 \n  BECMG 2603/2605 19015KT \n  TEMPO 2605/2614 19020G32KT \n  BECMG 2614/2616 20018G30KT \n  TEMPO 2616/2624 20025G40KT \n  PROB30 \n  TEMPO 2620/2624 20030G48KT"
    },
    {
      "icao": "EPSC",
      "iata": "SZZ",
      "name": "Solidarity Szczecin–Goleniów Airport",
      "lat": 53.584702,
      "lon": 14.9022,
      "updatedAt": "252330Z",
      "visibility_m": 7000,
      "taf_visibility_m": null,
      "worst_visibility_m": 7000,
      "ceiling_ft": 900,
      "hazards": [],
      "severityScore": 30,
      "metarRaw": "METAR EPSC 252330Z 05007KT 350V070 7000 BKN009 OVC036 M03/M04 Q1001",
      "tafRaw": null
    },
    {
      "icao": "LIME",
      "iata": "BGY",
      "name": "Milan Bergamo Airport / Antonio Locatelli Air Base",
      "lat": 45.670725,
      "lon": 9.709223,
      "updatedAt": "252320Z",
      "visibility_m": 10000,
      "taf_visibility_m": 2000,
      "worst_visibility_m": 2000,
      "ceiling_ft": 5000,
      "hazards": [
        "BR",
        "FG"
      ],
      "severityScore": 30,
      "metarRaw": "METAR LIME 252320Z 02001KT 9999 BKN050 03/03 Q0997 NOSIG",
      "tafRaw": "TAF LIME 252300Z 2600/2624 VRB05KT 7000 BKN030 \n  PROB40 \n  TEMPO 2600/2606 2000 BCFG BKN010 \n  BECMG 2619/2621 4000 BR"
    },
    {
      "icao": "LEZL",
      "iata": "SVQ",
      "name": "Sevilla Airport",
      "lat": 37.417999,
      "lon": -5.89311,
      "updatedAt": "252330Z",
      "visibility_m": 10000,
      "taf_visibility_m": null,
      "worst_visibility_m": 10000,
      "ceiling_ft": 1000,
      "hazards": [
        "RA"
      ],
      "severityScore": 29,
      "metarRaw": "METAR LEZL 252330Z 25011KT 210V280 9999 FEW007 OVC010 16/16 Q1015 RERA NOSIG",
      "tafRaw": null
    },
    {
      "icao": "LEXJ",
      "iata": "SDR",
      "name": "Seve Ballesteros-Santander Airport",
      "lat": 43.427101,
      "lon": -3.82001,
      "updatedAt": "252330Z",
      "visibility_m": 10000,
      "taf_visibility_m": 3000,
      "worst_visibility_m": 3000,
      "ceiling_ft": 4000,
      "hazards": [
        "RA",
        "SHRA"
      ],
      "severityScore": 26,
      "metarRaw": "METAR LEXJ 252330Z AUTO 29019KT 260V320 9999 2200E SCT050 11/05 Q1007",
      "tafRaw": "TAF LEXJ 252000Z 2521/2621 28014KT 9999 SCT020 BKN040 TX16/2621Z TN08/2604Z \n  TEMPO 2521/2523 28019G32KT 3000 SHRA SCT030TCU \n  BECMG 2601/2603 20009KT \n  TEMPO 2609/2621 20019G29KT \n  PROB40 \n  TEMPO 2610/2614 RA"
    },
    {
      "icao": "LICC",
      "iata": "CTA",
      "name": "Catania-Fontanarossa Airport",
      "lat": 37.466801,
      "lon": 15.0664,
      "updatedAt": "252320Z",
      "visibility_m": 10000,
      "taf_visibility_m": 10000,
      "worst_visibility_m": 10000,
      "ceiling_ft": null,
      "hazards": [
        "SHRA",
        "RA"
      ],
      "severityScore": 26,
      "metarRaw": "METAR LICC 252320Z 25009KT CAVOK 08/06 Q1004",
      "tafRaw": "TAF LICC 252300Z 2600/2624 26010KT 9999 SCT030 \n  TEMPO 2608/2618 SHRA"
    },
    {
      "icao": "LTFM",
      "iata": "IST",
      "name": "İstanbul Airport",
      "lat": 41.261297,
      "lon": 28.741951,
      "updatedAt": "252320Z",
      "visibility_m": 10000,
      "taf_visibility_m": 4000,
      "worst_visibility_m": 4000,
      "ceiling_ft": 2500,
      "hazards": [
        "SHRA",
        "RA"
      ],
      "severityScore": 26,
      "metarRaw": "METAR LTFM 252320Z 18007KT CAVOK 10/07 Q1013 NOSIG",
      "tafRaw": "TAF LTFM 252240Z 2600/2706 18010KT CAVOK \n  BECMG 2611/2614 11007KT SCT035 BKN090 \n  BECMG 2614/2617 19015G25KT -SHRA BKN025 BKN080 \n  TEMPO 2618/2622 4000 SHRA FEW018CB BKN025 \n  BECMG 2622/2701 19022G35KT \n  BECMG 2703/2706 SCT035 BKN100"
    },
    {
      "icao": "OMDB",
      "iata": "DXB",
      "name": "Dubai International Airport",
      "lat": 25.2527999878,
      "lon": 55.3643989563,
      "updatedAt": "252300Z",
      "visibility_m": 10000,
      "taf_visibility_m": 4000,
      "worst_visibility_m": 4000,
      "ceiling_ft": null,
      "hazards": [
        "SHRA",
        "RA"
      ],
      "severityScore": 26,
      "metarRaw": "METAR OMDB 252300Z 27012KT 240V300 9999 FEW040 21/15 Q1013 NOSIG",
      "tafRaw": "TAF OMDB 252300Z 2600/2706 28012KT 8000 FEW025 \n  PROB30 \n  TEMPO 2600/2609 VRB17G27KT 4000 SHRA BLDU FEW025TCU \n  BECMG 2616/2618 22005KT"
    },
    {
      "icao": "UGKO",
      "iata": "KUT",
      "name": "David the Builder Kutaisi International Airport",
      "lat": 42.177448,
      "lon": 42.485353,
      "updatedAt": "252330Z",
      "visibility_m": 10000,
      "taf_visibility_m": 2000,
      "worst_visibility_m": 2000,
      "ceiling_ft": 6600,
      "hazards": [
        "RA",
        "SHRA"
      ],
      "severityScore": 26,
      "metarRaw": "METAR UGKO 252330Z 08009KT 9999 -RA SCT027 BKN066 06/05 Q1021 NOSIG",
      "tafRaw": "TAF UGKO 252300Z 2600/2624 08010KT 9999 BKN050 TX15/2611Z TN03/2604Z \n  TEMPO 2600/2604 2000 SHRA BKN017CB \n  BECMG 2605/2608 CAVOK \n  BECMG 2617/2620 08020KT \n  TEMPO 2621/2624 08027G43KT"
    },
    {
      "icao": "GCTS",
      "iata": "TFS",
      "name": "Tenerife Sur Airport",
      "lat": 28.0445,
      "lon": -16.5725,
      "updatedAt": "252330Z",
      "visibility_m": 10000,
      "taf_visibility_m": 10000,
      "worst_visibility_m": 10000,
      "ceiling_ft": 3500,
      "hazards": [
        "TS"
      ],
      "severityScore": 25,
      "metarRaw": "METAR GCTS 252330Z 02005KT 9999 BKN035 17/09 Q1027 NOSIG",
      "tafRaw": "TAF GCTS 252000Z 2521/2621 03007KT 9999 SCT035 TX22/2614Z TN14/2606Z \n  PROB40 \n  TEMPO 2614/2621 24010KT"
    },
    {
      "icao": "HESX",
      "iata": "SPX",
      "name": "Sphinx International Airport",
      "lat": 30.108179,
      "lon": 30.895728,
      "updatedAt": "252300Z",
      "visibility_m": 10000,
      "taf_visibility_m": 800,
      "worst_visibility_m": 800,
      "ceiling_ft": null,
      "hazards": [],
      "severityScore": 25,
      "metarRaw": "METAR HESX 252300Z 07008KT CAVOK 13/07 Q1017 NOSIG",
      "tafRaw": "TAF HESX 252301Z 2600/2706 08008KT CAVOK \n  TEMPO 2600/2608 3000 HZ NSC \n  PROB40 \n  TEMPO 2602/2606 1000 \n  BECMG 2608/2610 18018KT \n  TEMPO 2608/2620 20020G30KT 3000 SA \n  PROB40 \n  TEMPO 2610/2618 1000 \n  PROB30 \n  TEMPO 2612/2616 0800 SS"
    },
    {
      "icao": "BKPR",
      "iata": "PRN",
      "name": "Priština Adem Jashari International Airport",
      "lat": 42.5728,
      "lon": 21.035801,
      "updatedAt": "252330Z",
      "visibility_m": 10000,
      "taf_visibility_m": 4000,
      "worst_visibility_m": 4000,
      "ceiling_ft": 1200,
      "hazards": [
        "RA"
      ],
      "severityScore": 24,
      "metarRaw": "METAR BKPR 252330Z 14027KT 9999 FEW085 09/06 Q1003 NOSIG",
      "tafRaw": "TAF BKPR 252330Z 2600/2624 16015KT 9999 SCT030 BKN070 \n  TEMPO 2600/2609 16025G35KT \n  TEMPO 2614/2624 4000 RA BKN012 BKN030"
    },
    {
      "icao": "EGGP",
      "iata": "LPL",
      "name": "Liverpool John Lennon Airport",
      "lat": 53.334863,
      "lon": -2.849637,
      "updatedAt": "252320Z",
      "visibility_m": 10000,
      "taf_visibility_m": 3000,
      "worst_visibility_m": 3000,
      "ceiling_ft": 1700,
      "hazards": [
        "RA"
      ],
      "severityScore": 24,
      "metarRaw": "METAR EGGP 252320Z 09009KT 9999 OVC017 04/01 Q1000",
      "tafRaw": "TAF EGGP 252259Z 2600/2624 07009KT 9999 SCT020 \n  TEMPO 2600/2616 8000 BKN014 \n  BECMG 2606/2609 13015KT \n  TEMPO 2616/2624 5000 RA BKN012 \n  PROB30 \n  TEMPO 2618/2624 13018G28KT 3000 +RA BKN008"
    },
    {
      "icao": "EGPF",
      "iata": "GLA",
      "name": "Glasgow Airport",
      "lat": 55.871899,
      "lon": -4.43306,
      "updatedAt": "252320Z",
      "visibility_m": 10000,
      "taf_visibility_m": 6000,
      "worst_visibility_m": 6000,
      "ceiling_ft": 1500,
      "hazards": [
        "RA"
      ],
      "severityScore": 24,
      "metarRaw": "METAR EGPF 252320Z AUTO 07011KT 9999 -RA BKN015 BKN025 OVC039 05/03 Q1002",
      "tafRaw": "TAF EGPF 252256Z 2600/2624 08010KT 9999 SCT025 \n  PROB30 2600/2618 7000 \n  PROB30 \n  TEMPO 2618/2624 11015G25KT 6000 RA BKN014"
    },
    {
      "icao": "LBSF",
      "iata": "SOF",
      "name": "Sofia Airport",
      "lat": 42.696357,
      "lon": 23.417671,
      "updatedAt": "252330Z",
      "visibility_m": 10000,
      "taf_visibility_m": 5000,
      "worst_visibility_m": 5000,
      "ceiling_ft": 1500,
      "hazards": [
        "RA"
      ],
      "severityScore": 24,
      "metarRaw": "METAR LBSF 252330Z AUTO 11006KT 9999 NSC 02/01 Q1007 NOSIG",
      "tafRaw": "TAF LBSF 252300Z 2600/2624 11010KT 9999 BKN030 \n  BECMG 2603/2605 VRB03KT \n  PROB30 \n  TEMPO 2610/2613 5000 RA \n  BECMG 2613/2614 14010KT \n  TEMPO 2614/2617 5000 RA BKN015 OVC030 \n  BECMG 2617/2619 VRB03KT 5000 RA BKN015 OVC030"
    },
    {
      "icao": "LWOH",
      "iata": "OHD",
      "name": "Ohrid St. Paul the Apostle Airport",
      "lat": 41.18,
      "lon": 20.7423,
      "updatedAt": null,
      "visibility_m": null,
      "taf_visibility_m": 5000,
      "worst_visibility_m": 5000,
      "ceiling_ft": 1000,
      "hazards": [
        "RA"
      ],
      "severityScore": 24,
      "metarRaw": null,
      "tafRaw": "TAF LWOH 252315Z 2600/2624 VRB02KT CAVOK \n  BECMG 2601/2603 SCT020 BKN040 OVC070 \n  BECMG 2605/2607 5000 RA BKN010 OVC030"
    },
    {
      "icao": "EPKT",
      "iata": "KTW",
      "name": "Katowice Wojciech Korfanty International Airport",
      "lat": 50.476015,
      "lon": 19.080705,
      "updatedAt": "252330Z",
      "visibility_m": 9000,
      "taf_visibility_m": 4000,
      "worst_visibility_m": 4000,
      "ceiling_ft": 4000,
      "hazards": [
        "BR",
        "RA"
      ],
      "severityScore": 22,
      "metarRaw": "METAR EPKT 252330Z 08009KT 9000 FEW005 02/01 Q0998",
      "tafRaw": "TAF EPKT 252330Z 2600/2624 09008KT 8000 BKN040 \n  TEMPO 2600/2603 4000 -RA BR \n  BECMG 2603/2606 15006KT \n  PROB30 2603/2608 4000 BR \n  BECMG 2611/2614 22010KT"
    },
    {
      "icao": "LHDC",
      "iata": "DEB",
      "name": "Debrecen International Airport",
      "lat": 47.488899,
      "lon": 21.615299,
      "updatedAt": "252315Z",
      "visibility_m": 10000,
      "taf_visibility_m": 3000,
      "worst_visibility_m": 3000,
      "ceiling_ft": 6800,
      "hazards": [
        "BR",
        "RA"
      ],
      "severityScore": 22,
      "metarRaw": "METAR LHDC 252315Z AUTO 04007KT 9999 BKN068 //////TCU 05/03 Q1001",
      "tafRaw": "TAF LHDC 251715Z 2518/2603 06008KT 8000 SCT045 BKN080 \n  TEMPO 2518/2524 3000 RA BR BKN015 OVC060"
    },
    {
      "icao": "LQTZ",
      "iata": "TZL",
      "name": "Tuzla International Airport",
      "lat": 44.459858,
      "lon": 18.723627,
      "updatedAt": "252330Z",
      "visibility_m": 10000,
      "taf_visibility_m": 2000,
      "worst_visibility_m": 2000,
      "ceiling_ft": 6000,
      "hazards": [
        "RA",
        "BR"
      ],
      "severityScore": 22,
      "metarRaw": "METAR LQTZ 252330Z 11013KT 9999 -RA SCT050 BKN060 09/05 Q0998",
      "tafRaw": "TAF LQTZ 252300Z 2600/2624 10005KT 9999 BKN050 TX09/2614Z TN03/2606Z \n  PROB40 \n  TEMPO 2600/2604 16010KT RA \n  PROB30 \n  TEMPO 2604/2609 2000 BR \n  PROB40 \n  TEMPO 2621/2624 2000 -RA BR BKN007 OVC020"
    },
    {
      "icao": "LRSM",
      "iata": "SUJ",
      "name": "Satu Mare International Airport",
      "lat": 47.7033,
      "lon": 22.8857,
      "updatedAt": "252330Z",
      "visibility_m": 10000,
      "taf_visibility_m": 5000,
      "worst_visibility_m": 5000,
      "ceiling_ft": 4500,
      "hazards": [
        "BR",
        "RA"
      ],
      "severityScore": 22,
      "metarRaw": "METAR LRSM 252330Z AUTO 13009KT 9999 FEW085/// BKN100/// BKN120/// 09/02 Q1002",
      "tafRaw": "TAF LRSM 251400Z 2515/2524 12006KT 9999 BKN045 \n  PROB40 \n  TEMPO 2516/2518 5000 -RA BR"
    },
    {
      "icao": "LZTT",
      "iata": "TAT",
      "name": "Poprad-Tatry Airport",
      "lat": 49.073601,
      "lon": 20.2411,
      "updatedAt": "252330Z",
      "visibility_m": 8000,
      "taf_visibility_m": 2500,
      "worst_visibility_m": 2500,
      "ceiling_ft": 2000,
      "hazards": [
        "RA",
        "BR"
      ],
      "severityScore": 22,
      "metarRaw": "METAR LZTT 252330Z VRB02KT 8000 -RA FEW005 BKN020 02/02 Q1000",
      "tafRaw": "TAF LZTT 252315Z 2600/2700 06005KT 5000 -RA BR SCT006 BKN025 \n  TEMPO 2600/2613 2500 -RA BR OVC004 \n  BECMG 2613/2615 27005KT 9999 NSW SCT015 \n  TEMPO 2619/2700 BKN009"
    },
    {
      "icao": "LIRZ",
      "iata": "PEG",
      "name": "Perugia San Francesco d'Assisi – Umbria International Airport",
      "lat": 43.095901,
      "lon": 12.5132,
      "updatedAt": "252320Z",
      "visibility_m": 10000,
      "taf_visibility_m": 3000,
      "worst_visibility_m": 3000,
      "ceiling_ft": 3000,
      "hazards": [
        "FG"
      ],
      "severityScore": 20,
      "metarRaw": "METAR LIRZ 252320Z AUTO 15005KT 9999 BKN022/// 06/05 Q0998",
      "tafRaw": "TAF LIRZ 252300Z 2600/2624 VRB05KT 9999 BKN030 \n  TEMPO 2602/2608 3000 BCFG"
    },
    {
      "icao": "EETN",
      "iata": "TLL",
      "name": "Lennart Meri Tallinn Airport",
      "lat": 59.413246,
      "lon": 24.83264,
      "updatedAt": "252350Z",
      "visibility_m": 4800,
      "taf_visibility_m": 2000,
      "worst_visibility_m": 2000,
      "ceiling_ft": 3200,
      "hazards": [
        "SN"
      ],
      "severityScore": 18,
      "metarRaw": "METAR EETN 252350Z 16004KT 4800 SN OVC032 M10/M11 Q1014",
      "tafRaw": "TAF EETN 252330Z 2600/2624 17008KT 6000 SN SCT015 OVC025 \n  TEMPO 2600/2605 2000 SN BKN010 \n  TEMPO 2605/2608 3000 SN BKN008 \n  BECMG 2608/2610 9999 NSW BKN015 \n  TEMPO 2610/2613 BKN008 \n  BECMG 2613/2615 35010KT \n  TEMPO 2620/2624 BKN005 BKN008"
    },
    {
      "icao": "EFTU",
      "iata": "TKU",
      "name": "Turku Airport",
      "lat": 60.514099,
      "lon": 22.2628,
      "updatedAt": "252350Z",
      "visibility_m": 10000,
      "taf_visibility_m": 6000,
      "worst_visibility_m": 6000,
      "ceiling_ft": 4900,
      "hazards": [
        "SN"
      ],
      "severityScore": 18,
      "metarRaw": "METAR EFTU 252350Z AUTO 09003KT 9999 OVC049 M10/M12 Q1013",
      "tafRaw": "TAF EFTU 252324Z 2600/2624 08002KT 9999 BKN045 \n  TEMPO 2600/2603 6000 -SN BKN012 \n  PROB30 \n  TEMPO 2603/2609 6000 -SN BKN012 \n  TEMPO 2619/2624 BKN009"
    },
    {
      "icao": "ENGM",
      "iata": "OSL",
      "name": "Oslo-Gardermoen International Airport",
      "lat": 60.193901,
      "lon": 11.1004,
      "updatedAt": "252320Z",
      "visibility_m": 10000,
      "taf_visibility_m": 10000,
      "worst_visibility_m": 10000,
      "ceiling_ft": 3500,
      "hazards": [
        "SN"
      ],
      "severityScore": 18,
      "metarRaw": "METAR ENGM 252320Z 06003KT 9999 -SN BKN035 M08/M10 Q1013",
      "tafRaw": "TAF ENGM 252300Z 2600/2624 01005KT 9999 BKN040"
    },
    {
      "icao": "ENTO",
      "iata": "TRF",
      "name": "Sandefjord Airport, Torp",
      "lat": 59.186699,
      "lon": 10.2586,
      "updatedAt": "252320Z",
      "visibility_m": 10000,
      "taf_visibility_m": 10000,
      "worst_visibility_m": 10000,
      "ceiling_ft": 4000,
      "hazards": [
        "SN"
      ],
      "severityScore": 18,
      "metarRaw": "METAR ENTO 252320Z AUTO 36006KT 9999 -SN OVC033/// M06/M08 Q1013",
      "tafRaw": "TAF ENTO 252300Z 2600/2624 01008KT 9999 BKN040"
    },
    {
      "icao": "ESKN",
      "iata": "NYO",
      "name": "Stockholm Skavsta Airport",
      "lat": 58.789656,
      "lon": 16.911479,
      "updatedAt": "252320Z",
      "visibility_m": 10000,
      "taf_visibility_m": 10000,
      "worst_visibility_m": 10000,
      "ceiling_ft": 2700,
      "hazards": [
        "SN"
      ],
      "severityScore": 18,
      "metarRaw": "METAR ESKN 252320Z 34003KT 310V020 9999 -SN SCT007 BKN027 M05/M05 Q1011",
      "tafRaw": "TAF ESKN 252330Z 2600/2624 01005KT 9999 -SN FEW008 BKN030"
    },
    {
      "icao": "GMMN",
      "iata": "CMN",
      "name": "Mohammed V International Airport",
      "lat": 33.3675,
      "lon": -7.58997,
      "updatedAt": "252330Z",
      "visibility_m": 10000,
      "taf_visibility_m": 10000,
      "worst_visibility_m": 10000,
      "ceiling_ft": 1600,
      "hazards": [],
      "severityScore": 12,
      "metarRaw": "METAR GMMN 252330Z 21011KT 9999 SCT020 SCT080 11/10 Q1025 NOSIG",
      "tafRaw": "TAF GMMN 252300Z 2600/2706 20008KT 9999 SCT016 \n  TEMPO 2604/2624 BKN016 \n  BECMG 2704/2706 22012KT"
    },
    {
      "icao": "EKBI",
      "iata": "BLL",
      "name": "Billund Airport",
      "lat": 55.740335,
      "lon": 9.157019,
      "updatedAt": "252320Z",
      "visibility_m": 10000,
      "taf_visibility_m": 10000,
      "worst_visibility_m": 10000,
      "ceiling_ft": 1200,
      "hazards": [],
      "severityScore": 12,
      "metarRaw": "METAR EKBI 252320Z AUTO 08015KT 9999 OVC015/// M00/M03 Q1006",
      "tafRaw": "TAF EKBI 252327Z 2600/2624 06012KT 9999 BKN018 \n  TEMPO 2600/2617 05015G25KT BKN012"
    },
    {
      "icao": "LEMG",
      "iata": "AGP",
      "name": "Málaga-Costa del Sol Airport",
      "lat": 36.6749,
      "lon": -4.49911,
      "updatedAt": "252330Z",
      "visibility_m": 10000,
      "taf_visibility_m": 10000,
      "worst_visibility_m": 10000,
      "ceiling_ft": 4500,
      "hazards": [
        "RA"
      ],
      "severityScore": 12,
      "metarRaw": "METAR LEMG 252330Z 28004KT 250V310 9999 FEW025 SCT045 12/09 Q1016 NOSIG",
      "tafRaw": "TAF LEMG 252300Z 2600/2624 VRB03KT 9999 BKN045 TX20/2614Z TN10/2607Z \n  PROB30 \n  TEMPO 2600/2602 RA \n  BECMG 2608/2611 30010KT \n  BECMG 2616/2618 VRB03KT"
    },
    {
      "icao": "LEZG",
      "iata": "ZAZ",
      "name": "Zaragoza Airport",
      "lat": 41.666199,
      "lon": -1.04155,
      "updatedAt": "252330Z",
      "visibility_m": 10000,
      "taf_visibility_m": 4000,
      "worst_visibility_m": 4000,
      "ceiling_ft": null,
      "hazards": [
        "RA"
      ],
      "severityScore": 12,
      "metarRaw": "METAR LEZG 252330Z 25008KT 9999 FEW065 05/03 Q1006 NOSIG",
      "tafRaw": "TAF LEZG 252300Z 2600/2624 27005KT 9999 FEW030 TX12/2613Z TN06/2607Z \n  TEMPO 2603/2606 27015G25KT \n  PROB30 \n  TEMPO 2610/2614 25015G25KT \n  TEMPO 2610/2621 4000 RA"
    },
    {
      "icao": "LIRP",
      "iata": "PSA",
      "name": "Pisa International Airport",
      "lat": 43.683899,
      "lon": 10.3927,
      "updatedAt": "252315Z",
      "visibility_m": 10000,
      "taf_visibility_m": 5000,
      "worst_visibility_m": 5000,
      "ceiling_ft": 2500,
      "hazards": [
        "RA"
      ],
      "severityScore": 12,
      "metarRaw": "METAR LIRP 252315Z 12005KT 9999 FEW040 SCT070 06/06 Q0998 NOSIG",
      "tafRaw": "TAF LIRP 252300Z 2600/2624 11005KT 9999 FEW030 SCT060 \n  PROB40 \n  TEMPO 2604/2608 5000 RA BKN025 \n  BECMG 2613/2615 VRB03KT FEW025"
    },
    {
      "icao": "LPMA",
      "iata": "FNC",
      "name": "Cristiano Ronaldo International Airport",
      "lat": 32.697812,
      "lon": -16.774613,
      "updatedAt": "252330Z",
      "visibility_m": 10000,
      "taf_visibility_m": 10000,
      "worst_visibility_m": 10000,
      "ceiling_ft": 1400,
      "hazards": [],
      "severityScore": 12,
      "metarRaw": "METAR LPMA 252330Z VRB02KT 9999 FEW016 15/09 Q1025",
      "tafRaw": "TAF LPMA 252300Z 2600/2624 VRB05KT 9999 SCT015 \n  BECMG 2610/2612 23015KT \n  TEMPO 2612/2624 23020G32KT BKN014"
    },
    {
      "icao": "LWSK",
      "iata": "SKP",
      "name": "Skopje International Airport",
      "lat": 41.958087,
      "lon": 21.622581,
      "updatedAt": "252350Z",
      "visibility_m": 10000,
      "taf_visibility_m": 5000,
      "worst_visibility_m": 5000,
      "ceiling_ft": 5000,
      "hazards": [
        "RA"
      ],
      "severityScore": 12,
      "metarRaw": "METAR LWSK 252350Z 15007KT 120V190 9999 FEW015 BKN050 11/08 Q1005 NOSIG",
      "tafRaw": "TAF LWSK 252315Z 2600/2624 15010KT 9999 FEW015 BKN035 \n  BECMG 2602/2604 5000 RA BKN015 OVC030"
    },
    {
      "icao": "ENBR",
      "iata": "BGO",
      "name": "Bergen Airport, Flesland",
      "lat": 60.2934,
      "lon": 5.21814,
      "updatedAt": "252320Z",
      "visibility_m": 10000,
      "taf_visibility_m": 10000,
      "worst_visibility_m": 10000,
      "ceiling_ft": 3600,
      "hazards": [
        "BR"
      ],
      "severityScore": 10,
      "metarRaw": "METAR ENBR 252320Z 08002KT 9999 BKN036 M02/M09 Q1011 RMK WIND 1200FT 09004KT",
      "tafRaw": "TAF ENBR 252300Z 2600/2624 07004KT 9999 BKN040"
    },
    {
      "icao": "LCLK",
      "iata": "LCA",
      "name": "Larnaca International Airport",
      "lat": 34.875099,
      "lon": 33.624901,
      "updatedAt": "252330Z",
      "visibility_m": 10000,
      "taf_visibility_m": 5000,
      "worst_visibility_m": 5000,
      "ceiling_ft": 2000,
      "hazards": [
        "BR"
      ],
      "severityScore": 10,
      "metarRaw": "METAR LCLK 252330Z 04011KT 9999 FEW016 BKN020 14/13 Q1019 NOSIG",
      "tafRaw": "TAF LCLK 252330Z 2600/2700 35007KT 9999 FEW014 SCT020 \n  PROB30 \n  TEMPO 2600/2606 BKN014 \n  PROB30 2600/2605 5000 BR BKN009 \n  BECMG 2607/2609 09012KT \n  BECMG 2617/2621 24007KT"
    },
    {
      "icao": "LEBB",
      "iata": "BIO",
      "name": "Bilbao Airport",
      "lat": 43.301102,
      "lon": -2.91061,
      "updatedAt": "252330Z",
      "visibility_m": 10000,
      "taf_visibility_m": null,
      "worst_visibility_m": 10000,
      "ceiling_ft": null,
      "hazards": [],
      "severityScore": 5,
      "metarRaw": "METAR LEBB 252330Z AUTO 28018G32KT 240V300 9999 FEW039 11/05 Q1006",
      "tafRaw": null
    },
    {
      "icao": "LECH",
      "iata": "CDT",
      "name": "Castellón-Costa Azahar Airport",
      "lat": 40.213889,
      "lon": 0.073333,
      "updatedAt": "252330Z",
      "visibility_m": 10000,
      "taf_visibility_m": null,
      "worst_visibility_m": 10000,
      "ceiling_ft": null,
      "hazards": [],
      "severityScore": 5,
      "metarRaw": "METAR LECH 252330Z AUTO 30024G36KT 250V330 CAVOK 11/M02 Q1005",
      "tafRaw": null
    },
    {
      "icao": "BIKF",
      "iata": "KEF",
      "name": "Keflavik International Airport",
      "lat": 63.985001,
      "lon": -22.6056,
      "updatedAt": "252330Z",
      "visibility_m": 10000,
      "taf_visibility_m": 10000,
      "worst_visibility_m": 10000,
      "ceiling_ft": null,
      "hazards": [],
      "severityScore": 0,
      "metarRaw": "METAR BIKF 252330Z 08017KT CAVOK 02/M02 Q1004",
      "tafRaw": "TAF BIKF 252220Z 2600/2700 08015KT 9999 FEW025 TX05/2615Z TN02/2600Z \n  TEMPO 2600/2700 09020G30KT"
    },
    {
      "icao": "GCFV",
      "iata": "FUE",
      "name": "Fuerteventura Airport",
      "lat": 28.4527,
      "lon": -13.8638,
      "updatedAt": "252330Z",
      "visibility_m": 10000,
      "taf_visibility_m": 10000,
      "worst_visibility_m": 10000,
      "ceiling_ft": null,
      "hazards": [],
      "severityScore": 0,
      "metarRaw": "METAR GCFV 252330Z AUTO 29006KT CAVOK 15/09 Q1027",
      "tafRaw": "TAF GCFV 252000Z 2521/2621 33005KT 9999 FEW035 TX20/2614Z TN14/2606Z"
    },
    {
      "icao": "GCLP",
      "iata": "LPA",
      "name": "Gran Canaria Airport",
      "lat": 27.9319,
      "lon": -15.3866,
      "updatedAt": "252330Z",
      "visibility_m": 10000,
      "taf_visibility_m": 10000,
      "worst_visibility_m": 10000,
      "ceiling_ft": null,
      "hazards": [],
      "severityScore": 0,
      "metarRaw": "METAR GCLP 252330Z 30006KT 9999 SCT035 16/09 Q1027 NOSIG",
      "tafRaw": "TAF GCLP 252000Z 2521/2621 32006KT 9999 FEW030 TX20/2614Z TN13/2606Z"
    },
    {
      "icao": "GMAD",
      "iata": "AGA",
      "name": "Al Massira Airport",
      "lat": 30.322478,
      "lon": -9.412003,
      "updatedAt": "252330Z",
      "visibility_m": 10000,
      "taf_visibility_m": 10000,
      "worst_visibility_m": 10000,
      "ceiling_ft": null,
      "hazards": [],
      "severityScore": 0,
      "metarRaw": "METAR GMAD 252330Z 07006KT CAVOK 10/10 Q1025 NOSIG",
      "tafRaw": "TAF GMAD 252300Z 2600/2706 06005KT CAVOK \n  BECMG 2615/2617 27010KT"
    },
    {
      "icao": "GMMX",
      "iata": "RAK",
      "name": "Marrakesh Menara Airport",
      "lat": 31.604807,
      "lon": -8.035788,
      "updatedAt": "252330Z",
      "visibility_m": 8000,
      "taf_visibility_m": 8000,
      "worst_visibility_m": 8000,
      "ceiling_ft": null,
      "hazards": [],
      "severityScore": 0,
      "metarRaw": "METAR GMMX 252330Z VRB02KT 8000 NSC 10/06 Q1026 NOSIG",
      "tafRaw": "TAF GMMX 252300Z 2600/2706 14006KT 8000 NSC \n  TEMPO 2616/2620 30012KT"
    },
    {
      "icao": "ENAL",
      "iata": "AES",
      "name": "Ålesund Airport, Vigra",
      "lat": 62.5625,
      "lon": 6.1197,
      "updatedAt": "252320Z",
      "visibility_m": 10000,
      "taf_visibility_m": 10000,
      "worst_visibility_m": 10000,
      "ceiling_ft": null,
      "hazards": [],
      "severityScore": 0,
      "metarRaw": "METAR ENAL 252320Z AUTO 08012KT 9999 NCD M03/M07 Q1012",
      "tafRaw": "TAF ENAL 252300Z 2600/2609 06015KT CAVOK"
    },
    {
      "icao": "ENHD",
      "iata": "HAU",
      "name": "Haugesund Airport, Karmøy",
      "lat": 59.345299,
      "lon": 5.20836,
      "updatedAt": "252320Z",
      "visibility_m": 10000,
      "taf_visibility_m": 10000,
      "worst_visibility_m": 10000,
      "ceiling_ft": null,
      "hazards": [],
      "severityScore": 0,
      "metarRaw": "METAR ENHD 252320Z AUTO 24008KT 9999 NCD M04/M12 Q1012",
      "tafRaw": "TAF ENHD 251400Z 2515/2523 11009KT CAVOK"
    },
    {
      "icao": "ENVA",
      "iata": "TRD",
      "name": "Trondheim Airport, Værnes",
      "lat": 63.457802,
      "lon": 10.924,
      "updatedAt": "252320Z",
      "visibility_m": 10000,
      "taf_visibility_m": 10000,
      "worst_visibility_m": 10000,
      "ceiling_ft": null,
      "hazards": [],
      "severityScore": 0,
      "metarRaw": "METAR ENVA 252320Z 11008KT CAVOK M13/M16 Q1015 RMK WIND 670FT 14005KT",
      "tafRaw": "TAF ENVA 252300Z 2600/2624 10006KT CAVOK"
    },
    {
      "icao": "ENZV",
      "iata": "SVG",
      "name": "Stavanger Airport, Sola",
      "lat": 58.876701,
      "lon": 5.63778,
      "updatedAt": "252320Z",
      "visibility_m": 10000,
      "taf_visibility_m": 10000,
      "worst_visibility_m": 10000,
      "ceiling_ft": 3800,
      "hazards": [],
      "severityScore": 0,
      "metarRaw": "METAR ENZV 252320Z 05002KT 9999 BKN038 M02/M09 Q1011",
      "tafRaw": "TAF ENZV 252300Z 2600/2624 07007KT 9999 BKN040"
    },
    {
      "icao": "ESGG",
      "iata": "GOT",
      "name": "Göteborg Landvetter Airport",
      "lat": 57.6628,
      "lon": 12.2798,
      "updatedAt": "252320Z",
      "visibility_m": 10000,
      "taf_visibility_m": 10000,
      "worst_visibility_m": 10000,
      "ceiling_ft": 3100,
      "hazards": [],
      "severityScore": 0,
      "metarRaw": "METAR ESGG 252320Z 05008KT 9999 OVC031 M04/M08 Q1010",
      "tafRaw": "TAF ESGG 252330Z 2600/2624 07007KT 9999 OVC030"
    },
    {
      "icao": "HEGN",
      "iata": "HRG",
      "name": "Hurghada International Airport",
      "lat": 27.176776,
      "lon": 33.796692,
      "updatedAt": "252300Z",
      "visibility_m": 10000,
      "taf_visibility_m": 10000,
      "worst_visibility_m": 10000,
      "ceiling_ft": null,
      "hazards": [],
      "severityScore": 0,
      "metarRaw": "METAR HEGN 252300Z 00000KT CAVOK 13/03 Q1018 NOSIG",
      "tafRaw": "TAF HEGN 252300Z 2600/2706 28008KT CAVOK \n  BECMG 2609/2611 12012KT"
    },
    {
      "icao": "HEMA",
      "iata": "RMF",
      "name": "Marsa Alam International Airport",
      "lat": 25.555548,
      "lon": 34.59245,
      "updatedAt": "252300Z",
      "visibility_m": 10000,
      "taf_visibility_m": 10000,
      "worst_visibility_m": 10000,
      "ceiling_ft": null,
      "hazards": [],
      "severityScore": 0,
      "metarRaw": "METAR HEMA 252300Z 29009KT CAVOK 15/06 Q1017 NOSIG",
      "tafRaw": "TAF HEMA 252300Z 2600/2706 29010KT CAVOK \n  BECMG 2609/2611 12012KT"
    },
    {
      "icao": "HESH",
      "iata": "SSH",
      "name": "Sharm El Sheikh International Airport",
      "lat": 27.977272,
      "lon": 34.394717,
      "updatedAt": "252300Z",
      "visibility_m": 10000,
      "taf_visibility_m": 10000,
      "worst_visibility_m": 10000,
      "ceiling_ft": null,
      "hazards": [],
      "severityScore": 0,
      "metarRaw": "METAR HESH 252300Z 34004KT CAVOK 17/03 Q1018 NOSIG",
      "tafRaw": "TAF HESH 252300Z 2600/2706 32008KT CAVOK"
    },
    {
      "icao": "LCPH",
      "iata": "PFO",
      "name": "Paphos International Airport",
      "lat": 34.717999,
      "lon": 32.485699,
      "updatedAt": "252330Z",
      "visibility_m": 10000,
      "taf_visibility_m": 10000,
      "worst_visibility_m": 10000,
      "ceiling_ft": null,
      "hazards": [],
      "severityScore": 0,
      "metarRaw": "METAR LCPH 252330Z 08008KT CAVOK 13/08 Q1018 NOSIG",
      "tafRaw": "TAF LCPH 252330Z 2600/2700 08008KT 9999 FEW030 \n  BECMG 2607/2609 12018KT \n  BECMG 2620/2623 29009KT"
    },
    {
      "icao": "LEAL",
      "iata": "ALC",
      "name": "Alicante-Elche Miguel Hernández Airport",
      "lat": 38.2822,
      "lon": -0.558156,
      "updatedAt": "252330Z",
      "visibility_m": 10000,
      "taf_visibility_m": 10000,
      "worst_visibility_m": 10000,
      "ceiling_ft": null,
      "hazards": [],
      "severityScore": 0,
      "metarRaw": "METAR LEAL 252330Z 29015KT CAVOK 17/02 Q1009 NOSIG",
      "tafRaw": "TAF LEAL 252300Z 2600/2624 27007KT 9999 FEW050 TX20/2613Z TN11/2606Z \n  TEMPO 2602/2610 21007KT \n  PROB30 \n  TEMPO 2616/2618 27015G25KT"
    },
    {
      "icao": "LEBL",
      "iata": "BCN",
      "name": "Josep Tarradellas Barcelona-El Prat Airport",
      "lat": 41.2971,
      "lon": 2.07846,
      "updatedAt": "252330Z",
      "visibility_m": 10000,
      "taf_visibility_m": 10000,
      "worst_visibility_m": 10000,
      "ceiling_ft": null,
      "hazards": [],
      "severityScore": 0,
      "metarRaw": "METAR LEBL 252330Z 31018KT 9999 FEW050 10/03 Q1001 NOSIG",
      "tafRaw": "TAF LEBL 252300Z 2600/2624 31012KT 9999 SCT050 TX16/2612Z TN09/2606Z \n  TEMPO 2600/2608 31028G42KT \n  PROB30 \n  TEMPO 2611/2620 27015G25KT \n  BECMG 2613/2615 27010KT"
    },
    {
      "icao": "LEVC",
      "iata": "VLC",
      "name": "Valencia Airport",
      "lat": 39.4893,
      "lon": -0.481625,
      "updatedAt": "252330Z",
      "visibility_m": 10000,
      "taf_visibility_m": 10000,
      "worst_visibility_m": 10000,
      "ceiling_ft": null,
      "hazards": [],
      "severityScore": 0,
      "metarRaw": "METAR LEVC 252330Z 29021G33KT CAVOK 14/00 Q1007 NOSIG",
      "tafRaw": "TAF LEVC 252300Z 2600/2624 28012KT 9999 SCT050 TX19/2613Z TN11/2606Z \n  PROB40 \n  TEMPO 2603/2607 VRB04KT \n  PROB40 \n  TEMPO 2610/2612 VRB04KT \n  PROB30 \n  TEMPO 2617/2620 22009KT"
    },
    {
      "icao": "LFMN",
      "iata": "NCE",
      "name": "Nice-Côte d'Azur Airport",
      "lat": 43.658401,
      "lon": 7.21587,
      "updatedAt": "252330Z",
      "visibility_m": 10000,
      "taf_visibility_m": 10000,
      "worst_visibility_m": 10000,
      "ceiling_ft": null,
      "hazards": [],
      "severityScore": 0,
      "metarRaw": "METAR LFMN 252330Z 33005KT CAVOK 07/02 Q0995 NOSIG",
      "tafRaw": "TAF LFMN 252000Z 2521/2703 33008KT 9999 FEW040 \n  BECMG 2611/2613 20010KT \n  BECMG 2618/2620 34010KT"
    },
    {
      "icao": "LIBD",
      "iata": "BRI",
      "name": "Bari Karol Wojtyła International Airport",
      "lat": 41.138901,
      "lon": 16.760599,
      "updatedAt": "252320Z",
      "visibility_m": 10000,
      "taf_visibility_m": 8000,
      "worst_visibility_m": 8000,
      "ceiling_ft": null,
      "hazards": [],
      "severityScore": 0,
      "metarRaw": "METAR LIBD 252320Z 21006KT CAVOK 08/06 Q1000",
      "tafRaw": "TAF LIBD 252300Z 2600/2624 VRB05KT 8000 NSC \n  BECMG 2600/2602 19010KT \n  BECMG 2611/2613 34007KT \n  BECMG 2622/2624 27010KT"
    },
    {
      "icao": "LIBG",
      "iata": "TAR",
      "name": "Taranto-Grottaglie Marcello Arlotta Airport",
      "lat": 40.517502,
      "lon": 17.4032,
      "updatedAt": null,
      "visibility_m": null,
      "taf_visibility_m": 7000,
      "worst_visibility_m": 7000,
      "ceiling_ft": 2000,
      "hazards": [],
      "severityScore": 0,
      "metarRaw": null,
      "tafRaw": "TAF LIBG 251700Z 2518/2603 29007KT 7000 BKN020"
    },
    {
      "icao": "LIBP",
      "iata": "PSR",
      "name": "Abruzzo Airport",
      "lat": 42.431079,
      "lon": 14.182981,
      "updatedAt": "252320Z",
      "visibility_m": 10000,
      "taf_visibility_m": 10000,
      "worst_visibility_m": 10000,
      "ceiling_ft": null,
      "hazards": [],
      "severityScore": 0,
      "metarRaw": "METAR LIBP 252320Z AUTO VRB02KT 9999 NCD 06/06 Q0997",
      "tafRaw": "TAF LIBP 252300Z 2600/2624 24011KT 9999 FEW030 \n  BECMG 2603/2605 VRB05KT \n  TEMPO 2614/2618 36010KT"
    },
    {
      "icao": "LIPY",
      "iata": "AOI",
      "name": "Marche Airport",
      "lat": 43.616299,
      "lon": 13.3623,
      "updatedAt": "252320Z",
      "visibility_m": 10000,
      "taf_visibility_m": 7000,
      "worst_visibility_m": 7000,
      "ceiling_ft": null,
      "hazards": [],
      "severityScore": 0,
      "metarRaw": "METAR LIPY 252320Z AUTO 21003KT 160V260 9999 SCT024/// SCT031/// BKN062/// 07/06 Q0997",
      "tafRaw": "TAF LIPY 252300Z 2600/2624 VRB06KT 7000 SCT035 \n  BECMG 2611/2613 34010KT \n  BECMG 2617/2619 26005KT"
    },
    {
      "icao": "LLBG",
      "iata": "TLV",
      "name": "Ben Gurion International Airport",
      "lat": 32.011398,
      "lon": 34.8867,
      "updatedAt": "252350Z",
      "visibility_m": 10000,
      "taf_visibility_m": 10000,
      "worst_visibility_m": 10000,
      "ceiling_ft": null,
      "hazards": [],
      "severityScore": 0,
      "metarRaw": "METAR LLBG 252350Z VRB01KT CAVOK 10/06 Q1017 NOSIG",
      "tafRaw": "TAF LLBG 252309Z 2600/2624 14006KT CAVOK \n  TEMPO 2600/2608 VRB03KT \n  BECMG 2608/2610 22008KT \n  BECMG 2614/2617 14005KT TX24/2611Z TN09/2604Z"
    },
    {
      "icao": "LRBV",
      "iata": "GHV",
      "name": "Brașov-Ghimbav International Airport",
      "lat": 45.70558,
      "lon": 25.522871,
      "updatedAt": "252330Z",
      "visibility_m": 10000,
      "taf_visibility_m": 10000,
      "worst_visibility_m": 10000,
      "ceiling_ft": null,
      "hazards": [],
      "severityScore": 0,
      "metarRaw": "METAR LRBV 252330Z AUTO 12005KT 9999 OVC130/// 04/01 Q1007",
      "tafRaw": "TAF LRBV 252000Z 2521/2606 VRB04KT CAVOK"
    },
    {
      "icao": "OEJN",
      "iata": "JED",
      "name": "King Abdulaziz International Airport",
      "lat": 21.6796,
      "lon": 39.156502,
      "updatedAt": "252300Z",
      "visibility_m": 10000,
      "taf_visibility_m": 3000,
      "worst_visibility_m": 3000,
      "ceiling_ft": null,
      "hazards": [],
      "severityScore": 0,
      "metarRaw": "METAR OEJN 252300Z 01002KT CAVOK 23/01 Q1013 NOSIG",
      "tafRaw": "TAF OEJN 252300Z 2600/2706 09013KT 7000 NSC \n  PROB30 \n  TEMPO 2600/2612 3000 BLDU \n  BECMG 2610/2612 27010KT \n  BECMG 2618/2620 12008KT"
    },
    {
      "icao": "OEMA",
      "iata": "MED",
      "name": "Prince Mohammad Bin Abdulaziz Airport",
      "lat": 24.5534,
      "lon": 39.705101,
      "updatedAt": "252300Z",
      "visibility_m": 10000,
      "taf_visibility_m": 7000,
      "worst_visibility_m": 7000,
      "ceiling_ft": null,
      "hazards": [],
      "severityScore": 0,
      "metarRaw": "METAR OEMA 252300Z 09012KT CAVOK 15/M02 Q1022 NOSIG",
      "tafRaw": "TAF OEMA 252300Z 2600/2706 09012KT 7000 NSC"
    },
    {
      "icao": "OJAI",
      "iata": "AMM",
      "name": "Queen Alia International Airport",
      "lat": 31.7226009369,
      "lon": 35.9931983948,
      "updatedAt": "252300Z",
      "visibility_m": 5000,
      "taf_visibility_m": 3000,
      "worst_visibility_m": 3000,
      "ceiling_ft": null,
      "hazards": [],
      "severityScore": 0,
      "metarRaw": "METAR OJAI 252300Z 11010KT 5000 HZ NSC 08/01 Q1022 NOSIG",
      "tafRaw": "TAF OJAI 252300Z 2600/2706 13010KT 5000 HZ NSC \n  PROB40 \n  TEMPO 2608/2618 15018KT 3000 BLDU"
    },
    {
      "icao": "OMAA",
      "iata": "AUH",
      "name": "Zayed International Airport",
      "lat": 24.440966,
      "lon": 54.649237,
      "updatedAt": "252330Z",
      "visibility_m": 10000,
      "taf_visibility_m": 4000,
      "worst_visibility_m": 4000,
      "ceiling_ft": null,
      "hazards": [],
      "severityScore": 0,
      "metarRaw": "METAR OMAA 252330Z 27012KT 9999 FEW025 19/14 Q1015 NOSIG",
      "tafRaw": "TAF OMAA 252300Z 2600/2706 29012KT 8000 SCT030 \n  PROB30 \n  TEMPO 2600/2612 29015G25KT 4000 BLDU \n  BECMG 2621/2623 VRB02KT"
    }
  ],
  "stats": {
    "icaoCount": 159,
    "metarReturned": 156,
    "tafReturned": 155,
    "stationsWritten": 159,
    "missingMetar": 3,
    "missingTaf": 4
  },
  "errors": []
}